{"type":"FeatureCollection","features":[{"type":"Feature","properties":{"id":12,"area_m2":59500,"px":595,"rank":1,"persistent":false},"geometry":{"type":"Polygon","coordinates":[[[-122.962085,46.109819],[-122.962085,46.110089],[-122.96176,46.11009],[-122.961697,46.110143],[-122.9617,46.110231],[-122.961745,46.110265],[-122.962085,46.110269],[-122.962085,46.110719],[-122.961849,46.110735],[-122.961826,46.110809],[-122.961725,46.110822],[-122.961696,46.110899],[-122.961595,46.110912],[-122.961567,46.110989],[-122.961466,46.111001],[-122.961437,46.111079],[-122.961343,46.111088],[-122.961308,46.111169],[-122.961196,46.111189],[-122.961178,46.111349],[-122.961072,46.111365],[-122.961049,46.111439],[-122.960933,46.111463],[-122.960918,46.111529],[-122.96079,46.111529],[-122.960784,46.111472],[-122.960735,46.111441],[-122.960532,46.111439],[-122.960551,46.111309],[-122.960524,46.111272],[-122.960273,46.111259],[-122.96026,46.111193],[-122.960144,46.111169],[-122.960109,46.111088],[-122.959885,46.111079],[-122.959879,46.110932],[-122.959837,46.110903],[-122.959756,46.110899],[-122.959727,46.110821],[-122.959497,46.110808],[-122.959479,46.110738],[-122.959367,46.110718],[-122.959354,46.110653],[-122.959238,46.110628],[-122.959235,46.110577],[-122.959197,46.110545],[-122.958979,46.110538],[-122.958966,46.110382],[-122.95885,46.110358],[-122.958816,46.110277],[-122.958721,46.110268],[-122.958692,46.110191],[-122.958591,46.110178],[-122.958563,46.1101],[-122.958462,46.110088],[-122.958462,46.109957],[-122.958428,46.109917],[-122.957945,46.109908],[-122.957884,46.109884],[-122.957815,46.109908],[-122.957686,46.109907],[-122.957686,46.109818],[-122.957767,46.109814],[-122.957812,46.10978],[-122.957815,46.109638],[-122.957897,46.109634],[-122.957941,46.1096],[-122.957945,46.109368],[-122.958074,46.109368],[-122.958151,46.109392],[-122.958305,46.109356],[-122.958333,46.109278],[-122.958693,46.109266],[-122.958722,46.109188],[-122.958816,46.109179],[-122.958851,46.109098],[-122.958925,46.109096],[-122.958971,46.10907],[-122.958981,46.108918],[-122.959081,46.108906],[-122.95911,46.108828],[-122.959205,46.108819],[-122.959239,46.108738],[-122.959356,46.108714],[-122.959369,46.108559],[-122.959476,46.108543],[-122.959498,46.108469],[-122.959615,46.108445],[-122.95963,46.108379],[-122.960016,46.108379],[-122.960039,46.108543],[-122.960145,46.108559],[-122.960151,46.108615],[-122.960193,46.108645],[-122.960404,46.108649],[-122.960422,46.108719],[-122.960533,46.108739],[-122.960568,46.10882],[-122.960663,46.108829],[-122.960691,46.108907],[-122.960792,46.108919],[-122.96082,46.108997],[-122.960921,46.109009],[-122.96095,46.109087],[-122.96118,46.109099],[-122.961186,46.109156],[-122.961235,46.109187],[-122.961439,46.109189],[-122.961462,46.109263],[-122.961568,46.109279],[-122.961586,46.10935],[-122.961697,46.109369],[-122.961732,46.10945],[-122.961827,46.109459],[-122.961855,46.109537],[-122.961956,46.109549],[-122.961956,46.109639],[-122.961875,46.109643],[-122.96183,46.109678],[-122.961842,46.109812],[-122.961794,46.109851],[-122.961807,46.109897],[-122.96191,46.109919],[-122.961955,46.10988],[-122.96194,46.109827],[-122.962085,46.109819]],[[-122.960455,46.109369],[-122.960531,46.109325],[-122.960532,46.109232],[-122.960499,46.109198],[-122.960335,46.109165],[-122.960142,46.109209],[-122.960126,46.10925],[-122.960179,46.10936],[-122.960455,46.109369]],[[-122.960585,46.11127],[-122.960777,46.111235],[-122.960787,46.111117],[-122.960735,46.111081],[-122.960587,46.111081],[-122.960533,46.111122],[-122.960535,46.111234],[-122.960585,46.11127]],[[-122.96149,46.109999],[-122.961564,46.109961],[-122.961559,46.109848],[-122.961505,46.10982],[-122.961349,46.109812],[-122.961309,46.109854],[-122.961318,46.109971],[-122.961371,46.109998],[-122.96149,46.109999]]]}},{"type":"Feature","properties":{"id":4,"area_m2":25100,"px":251,"rank":2,"persistent":false},"geometry":{"type":"Polygon","coordinates":[[[-122.959496,46.110989],[-122.959496,46.111259],[-122.95939,46.111274],[-122.959367,46.111348],[-122.959143,46.111358],[-122.959108,46.111438],[-122.958884,46.111447],[-122.958849,46.111528],[-122.95859,46.111528],[-122.958522,46.111504],[-122.958461,46.111528],[-122.958121,46.111532],[-122.958079,46.111561],[-122.958073,46.111618],[-122.957862,46.111622],[-122.95782,46.111651],[-122.957814,46.111708],[-122.95761,46.11171],[-122.957561,46.111741],[-122.957555,46.111798],[-122.957331,46.111807],[-122.957296,46.111888],[-122.95718,46.111912],[-122.957166,46.111978],[-122.956521,46.111977],[-122.956458,46.111953],[-122.95639,46.111977],[-122.956261,46.111977],[-122.956261,46.111887],[-122.956342,46.111883],[-122.956387,46.111849],[-122.95639,46.111617],[-122.956465,46.111615],[-122.956511,46.111589],[-122.95652,46.111438],[-122.956621,46.111425],[-122.956649,46.111348],[-122.956744,46.111338],[-122.956779,46.111258],[-122.95686,46.111253],[-122.956902,46.111224],[-122.956909,46.110898],[-122.957015,46.110882],[-122.957038,46.110808],[-122.957154,46.110784],[-122.957168,46.110718],[-122.957364,46.110717],[-122.957417,46.110689],[-122.957427,46.110538],[-122.957538,46.110518],[-122.957556,46.110358],[-122.957637,46.110354],[-122.957682,46.11032],[-122.957686,46.110088],[-122.957944,46.110088],[-122.957957,46.110154],[-122.958074,46.110178],[-122.958108,46.110259],[-122.958332,46.110268],[-122.95835,46.110338],[-122.958462,46.110358],[-122.958479,46.110428],[-122.958591,46.110448],[-122.958604,46.110514],[-122.95872,46.110538],[-122.958724,46.11059],[-122.958761,46.110622],[-122.959109,46.110628],[-122.959126,46.110789],[-122.959238,46.110809],[-122.959272,46.110889],[-122.959367,46.110899],[-122.959396,46.110976],[-122.959496,46.110989]],[[-122.957685,46.110758],[-122.957617,46.110704],[-122.957455,46.11073],[-122.957427,46.110767],[-122.957443,46.110891],[-122.957509,46.110912],[-122.957657,46.110886],[-122.957683,46.110854],[-122.957685,46.110758]]]}},{"type":"Feature","properties":{"id":41,"area_m2":18500,"px":185,"rank":3,"persistent":false},"geometry":{"type":"Polygon","coordinates":[[[-122.949535,46.107745],[-122.949535,46.107924],[-122.949408,46.107924],[-122.949404,46.107788],[-122.949344,46.107745],[-122.948502,46.107744],[-122.948439,46.10772],[-122.948371,46.107744],[-122.948242,46.107744],[-122.948224,46.107584],[-122.948112,46.107564],[-122.948078,46.107483],[-122.947914,46.10745],[-122.947853,46.107474],[-122.947617,46.107489],[-122.947595,46.107564],[-122.94752,46.107566],[-122.947474,46.107592],[-122.947465,46.107744],[-122.947358,46.107759],[-122.947335,46.107833],[-122.946818,46.107833],[-122.946795,46.107669],[-122.946559,46.107653],[-122.94656,46.107293],[-122.946669,46.107287],[-122.946709,46.107237],[-122.946672,46.107133],[-122.94656,46.107113],[-122.94656,46.106664],[-122.946595,46.106621],[-122.94656,46.106572],[-122.946561,46.106303],[-122.946595,46.106261],[-122.946561,46.106213],[-122.946561,46.106123],[-122.94682,46.106123],[-122.946829,46.106275],[-122.946882,46.106302],[-122.947078,46.106303],[-122.947078,46.106435],[-122.947106,46.106471],[-122.947466,46.106484],[-122.94747,46.106535],[-122.947507,46.106567],[-122.947725,46.106574],[-122.947731,46.106644],[-122.947778,46.106675],[-122.948065,46.10666],[-122.948107,46.106631],[-122.948113,46.106574],[-122.948372,46.106574],[-122.948372,46.106664],[-122.94829,46.106668],[-122.948246,46.106702],[-122.948258,46.107016],[-122.948122,46.107052],[-122.948125,46.107193],[-122.948195,46.107218],[-122.948349,46.107188],[-122.948372,46.107024],[-122.94863,46.107024],[-122.94863,46.107294],[-122.948556,46.107296],[-122.94851,46.107323],[-122.948518,46.107454],[-122.94857,46.107474],[-122.948759,46.107474],[-122.948765,46.107531],[-122.948814,46.107562],[-122.949147,46.107564],[-122.949182,46.107645],[-122.949406,46.107655],[-122.949429,46.107729],[-122.949535,46.107745]]]}},{"type":"Feature","properties":{"id":16,"area_m2":17600,"px":176,"rank":4,"persistent":false},"geometry":{"type":"Polygon","coordinates":[[[-122.950697,46.108376],[-122.950665,46.108423],[-122.950699,46.108465],[-122.950699,46.108555],[-122.950598,46.108567],[-122.95057,46.108645],[-122.950475,46.108654],[-122.95044,46.108735],[-122.950359,46.108739],[-122.950317,46.108768],[-122.95031,46.109095],[-122.950236,46.109097],[-122.95019,46.109123],[-122.950181,46.109275],[-122.9501,46.109279],[-122.950055,46.109313],[-122.950051,46.109455],[-122.94995,46.109467],[-122.949922,46.109545],[-122.949821,46.109557],[-122.949792,46.109635],[-122.949698,46.109644],[-122.949663,46.109725],[-122.949582,46.109729],[-122.949539,46.109758],[-122.949533,46.109995],[-122.949499,46.110037],[-122.949533,46.110085],[-122.949533,46.110175],[-122.949438,46.110184],[-122.949404,46.110264],[-122.949329,46.110267],[-122.949283,46.110293],[-122.949274,46.110444],[-122.949162,46.110464],[-122.949144,46.110624],[-122.949063,46.110628],[-122.949021,46.110658],[-122.949015,46.110804],[-122.948908,46.11082],[-122.948885,46.110894],[-122.948627,46.110894],[-122.948604,46.11082],[-122.948497,46.110804],[-122.948498,46.110714],[-122.948579,46.11071],[-122.948624,46.110676],[-122.948627,46.110498],[-122.948593,46.110453],[-122.948498,46.110444],[-122.948498,46.110355],[-122.948579,46.11035],[-122.948624,46.110316],[-122.948635,46.110019],[-122.948437,46.10997],[-122.948274,46.109996],[-122.94822,46.110039],[-122.948239,46.110174],[-122.94798,46.110174],[-122.947981,46.109994],[-122.948015,46.109951],[-122.947981,46.109904],[-122.947981,46.109814],[-122.948075,46.109811],[-122.948125,46.109779],[-122.94811,46.109544],[-122.948217,46.109528],[-122.94824,46.109454],[-122.948499,46.109454],[-122.948498,46.109544],[-122.948382,46.109568],[-122.948357,46.109694],[-122.948419,46.109724],[-122.94868,46.109724],[-122.948744,46.1097],[-122.948757,46.109634],[-122.948988,46.109622],[-122.949016,46.109544],[-122.9492,46.109558],[-122.949258,46.109538],[-122.94926,46.109102],[-122.949392,46.10907],[-122.949416,46.108944],[-122.949355,46.108915],[-122.949174,46.108927],[-122.949146,46.108963],[-122.949146,46.109094],[-122.948758,46.109094],[-122.948758,46.108824],[-122.949327,46.108824],[-122.949382,46.108809],[-122.949405,46.10877],[-122.949405,46.108465],[-122.94944,46.108422],[-122.949406,46.108374],[-122.949406,46.108285],[-122.94976,46.108289],[-122.949793,46.10825],[-122.949794,46.108105],[-122.950012,46.108098],[-122.950049,46.108066],[-122.950053,46.108015],[-122.950311,46.108015],[-122.950345,46.108109],[-122.95057,46.108105],[-122.950593,46.108179],[-122.950699,46.108195],[-122.950697,46.108376]],[[-122.949145,46.110125],[-122.949077,46.110071],[-122.948899,46.110108],[-122.948851,46.110222],[-122.948921,46.110345],[-122.94907,46.110368],[-122.949132,46.110344],[-122.949145,46.110125]],[[-122.949148,46.109906],[-122.949123,46.10974],[-122.949068,46.109724],[-122.948909,46.10974],[-122.948872,46.10987],[-122.948914,46.1099],[-122.949032,46.109912],[-122.949016,46.109959],[-122.949043,46.109995],[-122.949106,46.110008],[-122.949165,46.109982],[-122.949179,46.109941],[-122.949148,46.109906]],[[-122.950029,46.109079],[-122.950071,46.10896],[-122.950038,46.108924],[-122.949848,46.108917],[-122.949799,46.108948],[-122.949761,46.109063],[-122.949811,46.109108],[-122.949877,46.109117],[-122.950029,46.109079]],[[-122.950216,46.108512],[-122.950176,46.108395],[-122.950129,46.108364],[-122.949978,46.108377],[-122.949929,46.108408],[-122.949923,46.108776],[-122.949971,46.108821],[-122.950114,46.108838],[-122.950176,46.108805],[-122.950182,46.108555],[-122.950216,46.108512]]]}},{"type":"Feature","properties":{"id":7,"area_m2":12900,"px":129,"rank":5,"persistent":false},"geometry":{"type":"Polygon","coordinates":[[[-122.954579,46.111077],[-122.954579,46.111167],[-122.954484,46.111176],[-122.954449,46.111257],[-122.954368,46.111261],[-122.954326,46.11129],[-122.95432,46.111527],[-122.954225,46.111536],[-122.95419,46.111617],[-122.954109,46.111621],[-122.954067,46.11165],[-122.954026,46.111749],[-122.954061,46.111797],[-122.954061,46.111976],[-122.953931,46.111976],[-122.95387,46.111952],[-122.953802,46.111976],[-122.953673,46.111976],[-122.953673,46.111796],[-122.953768,46.111787],[-122.953802,46.111706],[-122.953884,46.111702],[-122.953928,46.111668],[-122.953919,46.111447],[-122.953857,46.111423],[-122.953673,46.111436],[-122.953645,46.111359],[-122.953414,46.111346],[-122.953401,46.11128],[-122.953337,46.111256],[-122.953178,46.111272],[-122.953122,46.111399],[-122.95319,46.111517],[-122.953414,46.111526],[-122.953414,46.111616],[-122.953155,46.111616],[-122.953152,46.111564],[-122.953114,46.111533],[-122.952944,46.11153],[-122.952898,46.11157],[-122.952896,46.111706],[-122.9527,46.111707],[-122.952647,46.111734],[-122.952637,46.111976],[-122.952249,46.111976],[-122.952249,46.111796],[-122.952446,46.111795],[-122.952507,46.111752],[-122.952495,46.11164],[-122.952379,46.111616],[-122.952379,46.111436],[-122.952524,46.111444],[-122.952509,46.111567],[-122.952549,46.11161],[-122.952704,46.111615],[-122.952764,46.111578],[-122.952754,46.11146],[-122.952622,46.111428],[-122.952673,46.111304],[-122.952632,46.111199],[-122.95259,46.11117],[-122.952509,46.111166],[-122.952509,46.110896],[-122.952583,46.110894],[-122.952629,46.110867],[-122.952639,46.110626],[-122.952733,46.110617],[-122.952768,46.110536],[-122.952884,46.110512],[-122.952898,46.110356],[-122.953027,46.110356],[-122.95304,46.110422],[-122.953156,46.110446],[-122.95316,46.110498],[-122.953197,46.11053],[-122.953415,46.110536],[-122.953428,46.110602],[-122.953544,46.110626],[-122.953548,46.110678],[-122.953585,46.11071],[-122.953803,46.110716],[-122.953803,46.111028],[-122.953837,46.111067],[-122.954131,46.111089],[-122.954185,46.111057],[-122.954191,46.110987],[-122.954448,46.110987],[-122.954472,46.111061],[-122.954579,46.111077]]]}},{"type":"Feature","properties":{"id":29,"area_m2":12600,"px":126,"rank":6,"persistent":false},"geometry":{"type":"Polygon","coordinates":[[[-122.955489,46.106037],[-122.955489,46.106127],[-122.955407,46.106131],[-122.955363,46.106165],[-122.955359,46.106307],[-122.955101,46.106307],[-122.955097,46.106255],[-122.95506,46.106223],[-122.954842,46.106217],[-122.954807,46.106136],[-122.954646,46.106128],[-122.954592,46.106155],[-122.954583,46.106217],[-122.954509,46.106219],[-122.954463,46.106245],[-122.954453,46.106397],[-122.954365,46.106403],[-122.954326,46.10644],[-122.954326,46.106533],[-122.954352,46.106564],[-122.954583,46.106577],[-122.954605,46.106651],[-122.954712,46.106667],[-122.954747,46.106748],[-122.954841,46.106757],[-122.954841,46.106847],[-122.95476,46.106851],[-122.954715,46.106885],[-122.954712,46.107027],[-122.954617,46.107036],[-122.954582,46.107117],[-122.954501,46.107121],[-122.954459,46.10715],[-122.954459,46.107353],[-122.954501,46.107383],[-122.954582,46.107387],[-122.9546,46.107547],[-122.954711,46.107567],[-122.954746,46.107648],[-122.954841,46.107657],[-122.954854,46.107903],[-122.95497,46.107927],[-122.955004,46.108008],[-122.955099,46.108017],[-122.955112,46.108353],[-122.955169,46.108377],[-122.955358,46.108377],[-122.955357,46.108917],[-122.955024,46.108919],[-122.954975,46.10895],[-122.954969,46.109007],[-122.954581,46.109007],[-122.954581,46.108827],[-122.954785,46.108824],[-122.954834,46.108793],[-122.95484,46.108737],[-122.955029,46.108737],[-122.955086,46.108713],[-122.955093,46.1085],[-122.955051,46.108471],[-122.95497,46.108467],[-122.95496,46.108315],[-122.954914,46.108289],[-122.95484,46.108287],[-122.954837,46.108145],[-122.954792,46.108111],[-122.954711,46.108107],[-122.954698,46.107951],[-122.954582,46.107927],[-122.954576,46.10769],[-122.954534,46.107661],[-122.954453,46.107657],[-122.954418,46.107576],[-122.954323,46.107566],[-122.95432,46.107425],[-122.954275,46.107391],[-122.954194,46.107386],[-122.954181,46.10723],[-122.954124,46.107207],[-122.953868,46.107207],[-122.953815,46.107235],[-122.953806,46.107296],[-122.953677,46.107296],[-122.953677,46.107206],[-122.953758,46.107202],[-122.953803,46.107168],[-122.953821,46.106971],[-122.953771,46.106939],[-122.953677,46.106936],[-122.953664,46.10687],[-122.953548,46.106846],[-122.953544,46.106795],[-122.953506,46.106763],[-122.953289,46.106756],[-122.953289,46.106666],[-122.953677,46.106666],[-122.953686,46.106728],[-122.953747,46.106756],[-122.954042,46.106741],[-122.954059,46.10661],[-122.954017,46.106581],[-122.953936,46.106576],[-122.95393,46.10634],[-122.953888,46.10631],[-122.953807,46.106306],[-122.953807,46.106126],[-122.953936,46.106126],[-122.953971,46.106207],[-122.954117,46.106216],[-122.954182,46.106192],[-122.954195,46.106127],[-122.954542,46.10612],[-122.954583,46.106078],[-122.954583,46.105857],[-122.95469,46.105841],[-122.954713,46.105767],[-122.954842,46.105767],[-122.954842,46.105857],[-122.954754,46.105863],[-122.954714,46.1059],[-122.954714,46.105993],[-122.954754,46.10603],[-122.955101,46.106037],[-122.955162,46.106061],[-122.95523,46.106037],[-122.955489,46.106037]]]}},{"type":"Feature","properties":{"id":9,"area_m2":10900,"px":109,"rank":7,"persistent":false},"geometry":{"type":"Polygon","coordinates":[[[-122.95225,46.111256],[-122.952249,46.111436],[-122.952143,46.111452],[-122.95212,46.111526],[-122.952004,46.11155],[-122.951989,46.111616],[-122.951861,46.111616],[-122.951855,46.111469],[-122.951813,46.11144],[-122.951732,46.111435],[-122.951697,46.111355],[-122.951344,46.111345],[-122.95134,46.111294],[-122.951303,46.111262],[-122.951085,46.111255],[-122.951072,46.111189],[-122.950956,46.111165],[-122.95095,46.111109],[-122.950901,46.111078],[-122.950731,46.111084],[-122.950697,46.111165],[-122.950581,46.111189],[-122.950567,46.111255],[-122.95044,46.111271],[-122.950418,46.111311],[-122.950461,46.111509],[-122.950696,46.111525],[-122.95071,46.111591],[-122.950826,46.111615],[-122.950832,46.111672],[-122.950874,46.111701],[-122.951214,46.111705],[-122.951237,46.11178],[-122.951343,46.111795],[-122.951343,46.111885],[-122.950955,46.111885],[-122.950949,46.111829],[-122.9509,46.111798],[-122.950567,46.111795],[-122.950558,46.111734],[-122.950505,46.111706],[-122.950179,46.111705],[-122.950179,46.111574],[-122.950144,46.111534],[-122.94992,46.111525],[-122.949917,46.111473],[-122.949879,46.111441],[-122.949662,46.111435],[-122.949658,46.111383],[-122.94962,46.111351],[-122.949403,46.111344],[-122.949342,46.11132],[-122.949153,46.111373],[-122.949144,46.111524],[-122.949062,46.111529],[-122.949018,46.111563],[-122.949014,46.111704],[-122.948907,46.11172],[-122.948885,46.111794],[-122.948755,46.111794],[-122.948756,46.111524],[-122.948844,46.111518],[-122.948885,46.111476],[-122.948885,46.111254],[-122.94892,46.111212],[-122.948885,46.111164],[-122.948885,46.111074],[-122.949074,46.111074],[-122.949127,46.111055],[-122.949144,46.110894],[-122.949226,46.11089],[-122.94927,46.110856],[-122.949274,46.110715],[-122.949403,46.110715],[-122.949406,46.110856],[-122.949451,46.11089],[-122.949532,46.110895],[-122.94955,46.111055],[-122.949602,46.111074],[-122.949791,46.111075],[-122.949797,46.111131],[-122.949846,46.111162],[-122.950015,46.111156],[-122.950052,46.111075],[-122.950309,46.111075],[-122.950312,46.111127],[-122.95035,46.111159],[-122.950526,46.111159],[-122.950602,46.111038],[-122.950568,46.110985],[-122.950568,46.110895],[-122.950786,46.110889],[-122.950823,46.110857],[-122.950827,46.110805],[-122.950943,46.110781],[-122.950956,46.110715],[-122.951085,46.110715],[-122.951082,46.110965],[-122.951135,46.110985],[-122.951344,46.110985],[-122.95135,46.111042],[-122.951399,46.111073],[-122.951603,46.111076],[-122.951603,46.111207],[-122.951637,46.111246],[-122.951991,46.111256],[-122.952052,46.11128],[-122.95212,46.111256],[-122.95225,46.111256]]]}},{"type":"Feature","properties":{"id":53,"area_m2":10500,"px":105,"rank":8,"persistent":false},"geometry":{"type":"Polygon","coordinates":[[[-122.948891,46.104954],[-122.948891,46.105134],[-122.948796,46.105143],[-122.948761,46.105224],[-122.948645,46.105248],[-122.948632,46.105404],[-122.948443,46.105404],[-122.948391,46.105424],[-122.948373,46.105674],[-122.948243,46.105674],[-122.94824,46.105622],[-122.948202,46.10559],[-122.947855,46.105584],[-122.947842,46.105518],[-122.947726,46.105494],[-122.947692,46.105413],[-122.947467,46.105403],[-122.947452,46.105321],[-122.947569,46.105309],[-122.947614,46.105274],[-122.947594,46.105172],[-122.947556,46.10514],[-122.947352,46.105143],[-122.947318,46.105189],[-122.947354,46.105306],[-122.947209,46.105313],[-122.947196,46.105247],[-122.947079,46.105223],[-122.947045,46.105142],[-122.946821,46.105133],[-122.946815,46.105077],[-122.946766,46.105046],[-122.946562,46.105043],[-122.946562,46.104953],[-122.946597,46.104911],[-122.946562,46.104863],[-122.946562,46.104773],[-122.947017,46.104772],[-122.947071,46.104745],[-122.947082,46.104683],[-122.947209,46.104683],[-122.947218,46.104745],[-122.947272,46.104772],[-122.947664,46.104773],[-122.947718,46.104745],[-122.947727,46.104684],[-122.947839,46.104664],[-122.947856,46.104594],[-122.947986,46.104594],[-122.947987,46.104744],[-122.948025,46.104781],[-122.948196,46.10477],[-122.948238,46.104741],[-122.948244,46.104684],[-122.948374,46.104684],[-122.94838,46.104741],[-122.948429,46.104772],[-122.948762,46.104774],[-122.948771,46.104926],[-122.948817,46.104952],[-122.948891,46.104954]]]}},{"type":"Feature","properties":{"id":15,"area_m2":9100,"px":91,"rank":9,"persistent":false},"geometry":{"type":"Polygon","coordinates":[[[-122.954709,46.110717],[-122.954709,46.110897],[-122.954062,46.110896],[-122.954039,46.110642],[-122.953933,46.110626],[-122.953929,46.110575],[-122.953891,46.110543],[-122.953674,46.110536],[-122.953639,46.110455],[-122.953415,46.110446],[-122.953392,46.110372],[-122.953286,46.110356],[-122.953286,46.110176],[-122.953387,46.110164],[-122.953415,46.110086],[-122.953504,46.11008],[-122.953543,46.110043],[-122.953545,46.109906],[-122.953579,46.109853],[-122.953527,46.109746],[-122.953416,46.109726],[-122.953416,46.109458],[-122.953528,46.109437],[-122.953565,46.109327],[-122.953525,46.109283],[-122.953416,46.109276],[-122.953382,46.109195],[-122.953287,46.109186],[-122.953285,46.10887],[-122.953246,46.108833],[-122.953158,46.108826],[-122.953158,46.108646],[-122.953287,46.108646],[-122.95331,46.10872],[-122.953416,46.108736],[-122.95342,46.108878],[-122.953464,46.108912],[-122.953546,46.108916],[-122.953547,46.109053],[-122.953587,46.10909],[-122.953736,46.10912],[-122.953804,46.109096],[-122.954001,46.109095],[-122.954054,46.109068],[-122.954063,46.109007],[-122.954193,46.109007],[-122.954192,46.109096],[-122.954086,46.109112],[-122.954063,46.109186],[-122.953867,46.109187],[-122.95381,46.10922],[-122.953805,46.109683],[-122.953845,46.10972],[-122.953933,46.109726],[-122.953936,46.109868],[-122.954003,46.109906],[-122.954129,46.109905],[-122.954183,46.109878],[-122.954192,46.109637],[-122.954321,46.109637],[-122.954327,46.109693],[-122.954377,46.109724],[-122.95458,46.109727],[-122.95458,46.109817],[-122.954485,46.109819],[-122.954436,46.109851],[-122.954451,46.109997],[-122.954234,46.109998],[-122.954177,46.110031],[-122.954192,46.110398],[-122.954232,46.11044],[-122.954321,46.110447],[-122.954321,46.110668],[-122.954349,46.110704],[-122.954709,46.110717]],[[-122.954062,46.110307],[-122.954035,46.110266],[-122.95398,46.110253],[-122.953918,46.110275],[-122.953898,46.110314],[-122.953924,46.110352],[-122.953987,46.11037],[-122.954045,46.11035],[-122.954062,46.110307]]]}},{"type":"Feature","properties":{"id":40,"area_m2":6900,"px":69,"rank":10,"persistent":false},"geometry":{"type":"Polygon","coordinates":[[[-122.956781,46.107928],[-122.956781,46.108017],[-122.956523,46.108017],[-122.956505,46.107857],[-122.95646,46.107838],[-122.956326,46.107838],[-122.956265,46.107881],[-122.956264,46.108017],[-122.956134,46.108017],[-122.956131,46.107606],[-122.956087,46.107571],[-122.955966,46.107554],[-122.955909,46.107563],[-122.955877,46.107597],[-122.955876,46.107837],[-122.955746,46.107837],[-122.955724,46.107763],[-122.955617,46.107747],[-122.955604,46.107501],[-122.955488,46.107477],[-122.955453,46.107396],[-122.955359,46.107387],[-122.955336,46.107223],[-122.955281,46.107207],[-122.954841,46.107207],[-122.954841,46.106937],[-122.954948,46.106921],[-122.954971,46.106847],[-122.9551,46.106847],[-122.955113,46.106913],[-122.955229,46.106937],[-122.955233,46.106989],[-122.95527,46.107021],[-122.955555,46.107026],[-122.955608,46.106998],[-122.955618,46.106937],[-122.955729,46.106917],[-122.955747,46.106847],[-122.955859,46.106827],[-122.955877,46.106757],[-122.956135,46.106757],[-122.956135,46.107027],[-122.955905,46.107039],[-122.955877,46.107076],[-122.955882,46.107174],[-122.955924,46.107203],[-122.956006,46.107207],[-122.95604,46.107288],[-122.956135,46.107297],[-122.956163,46.107375],[-122.956264,46.107387],[-122.956293,46.107465],[-122.956394,46.107477],[-122.956422,46.107555],[-122.956523,46.107567],[-122.956551,46.107645],[-122.956652,46.107658],[-122.956655,46.107889],[-122.9567,46.107923],[-122.956781,46.107928]]]}},{"type":"Feature","properties":{"id":24,"area_m2":5100,"px":51,"rank":11,"persistent":false},"geometry":{"type":"Polygon","coordinates":[[[-122.957557,46.108468],[-122.957557,46.108558],[-122.957456,46.10857],[-122.957428,46.108648],[-122.957327,46.10866],[-122.957298,46.108738],[-122.957204,46.108747],[-122.957169,46.108792],[-122.957178,46.108979],[-122.957224,46.109005],[-122.957298,46.109008],[-122.957333,46.109089],[-122.957427,46.109098],[-122.957456,46.109176],[-122.957557,46.109188],[-122.957557,46.109278],[-122.957102,46.109279],[-122.957048,46.109306],[-122.957039,46.109368],[-122.95691,46.109368],[-122.95691,46.109098],[-122.956991,46.109093],[-122.957033,46.109064],[-122.957039,46.108863],[-122.956979,46.108815],[-122.956829,46.108832],[-122.956787,46.108861],[-122.956781,46.108917],[-122.956664,46.108941],[-122.956651,46.109007],[-122.956333,46.109008],[-122.956281,46.109027],[-122.956263,46.109187],[-122.956162,46.1092],[-122.956133,46.109277],[-122.956017,46.109301],[-122.956004,46.109367],[-122.955897,46.109383],[-122.955874,46.109547],[-122.955779,46.109556],[-122.955745,46.109637],[-122.955671,46.109639],[-122.955625,46.109666],[-122.955615,46.109907],[-122.955486,46.109907],[-122.955486,46.109547],[-122.955521,46.109505],[-122.955486,46.109457],[-122.955486,46.109367],[-122.955616,46.109367],[-122.955684,46.109391],[-122.955827,46.109363],[-122.955873,46.109324],[-122.955875,46.109187],[-122.956063,46.109187],[-122.956116,46.109168],[-122.956134,46.109007],[-122.956222,46.109001],[-122.956262,46.108964],[-122.956263,46.108737],[-122.956393,46.108737],[-122.956415,46.108812],[-122.956568,46.10885],[-122.956746,46.108818],[-122.956781,46.108738],[-122.956876,46.108728],[-122.95691,46.108648],[-122.956985,46.108645],[-122.957031,46.108619],[-122.95704,46.108468],[-122.957121,46.108464],[-122.957166,46.108429],[-122.957169,46.108288],[-122.957428,46.108288],[-122.957437,46.108439],[-122.957483,46.108465],[-122.957557,46.108468]]]}},{"type":"Feature","properties":{"id":22,"area_m2":3800,"px":38,"rank":12,"persistent":false},"geometry":{"type":"Polygon","coordinates":[[[-122.947722,46.109904],[-122.947722,46.109994],[-122.947627,46.110003],[-122.947592,46.110048],[-122.947605,46.11015],[-122.947721,46.110174],[-122.947721,46.110264],[-122.947594,46.110264],[-122.947586,46.110207],[-122.947537,46.110176],[-122.947204,46.110173],[-122.947181,46.110099],[-122.947075,46.110083],[-122.947073,46.109947],[-122.947034,46.10991],[-122.946687,46.109903],[-122.946719,46.109755],[-122.946664,46.109649],[-122.946558,46.109633],[-122.946558,46.109543],[-122.946774,46.109542],[-122.946828,46.109514],[-122.946817,46.109363],[-122.946851,46.109316],[-122.946817,46.109273],[-122.946817,46.109183],[-122.946946,46.109183],[-122.946969,46.109258],[-122.947121,46.109296],[-122.947205,46.109274],[-122.947464,46.109274],[-122.947463,46.109364],[-122.947362,46.109368],[-122.947317,46.109403],[-122.947337,46.109595],[-122.947382,46.109629],[-122.947463,46.109634],[-122.947498,46.109715],[-122.947592,46.109724],[-122.947589,46.109883],[-122.947722,46.109904]],[[-122.947497,46.109867],[-122.947457,46.109757],[-122.947408,46.109726],[-122.947258,46.1097],[-122.947174,46.10975],[-122.94721,46.10987],[-122.947259,46.109901],[-122.947438,46.10992],[-122.947497,46.109867]]]}},{"type":"Feature","properties":{"id":34,"area_m2":3800,"px":38,"rank":13,"persistent":false},"geometry":{"type":"Polygon","coordinates":[[[-122.952511,46.107926],[-122.952511,46.108196],[-122.952382,46.108196],[-122.952381,46.108064],[-122.952353,46.108028],[-122.952123,46.108016],[-122.95211,46.10795],[-122.951994,46.107926],[-122.951988,46.107869],[-122.951946,46.10784],[-122.95177,46.107845],[-122.951735,46.107925],[-122.951647,46.107932],[-122.951606,46.107974],[-122.951619,46.108081],[-122.951735,46.108106],[-122.951735,46.108195],[-122.951605,46.108195],[-122.951599,46.108139],[-122.951557,46.10811],[-122.951429,46.108092],[-122.951374,46.108104],[-122.951347,46.10814],[-122.951346,46.108465],[-122.951272,46.108468],[-122.951226,46.108494],[-122.951217,46.108645],[-122.950958,46.108645],[-122.950958,46.108555],[-122.951053,46.108546],[-122.951088,46.108465],[-122.951169,46.108461],[-122.951214,46.108427],[-122.951217,46.108015],[-122.951292,46.108013],[-122.951338,46.107987],[-122.951347,46.107835],[-122.951454,46.10782],[-122.951476,46.107745],[-122.951593,46.107721],[-122.951606,46.107655],[-122.951842,46.10764],[-122.951865,46.107476],[-122.952123,46.107476],[-122.952146,46.10755],[-122.952253,46.107566],[-122.952241,46.107716],[-122.952287,46.107743],[-122.952382,46.107746],[-122.952391,46.107897],[-122.952437,46.107923],[-122.952511,46.107926]]]}},{"type":"Feature","properties":{"id":39,"area_m2":3800,"px":38,"rank":14,"persistent":false},"geometry":{"type":"Polygon","coordinates":[[[-122.957429,46.107208],[-122.957428,46.108018],[-122.957299,46.108018],[-122.957238,46.107994],[-122.95717,46.108018],[-122.95704,46.108018],[-122.957031,46.107866],[-122.956985,46.10784],[-122.956911,46.107837],[-122.956911,46.107748],[-122.956946,46.107705],[-122.956911,46.107658],[-122.956911,46.107568],[-122.957128,46.107567],[-122.957182,46.107538],[-122.957161,46.107236],[-122.957115,46.10721],[-122.956979,46.107194],[-122.956917,46.107227],[-122.956911,46.107297],[-122.956653,46.107297],[-122.95663,46.107223],[-122.956523,46.107207],[-122.956506,46.107047],[-122.956453,46.107028],[-122.956265,46.107027],[-122.956265,46.106937],[-122.956371,46.106922],[-122.956394,46.106847],[-122.956653,46.106848],[-122.956687,46.106928],[-122.956912,46.106938],[-122.956925,46.107004],[-122.957041,46.107028],[-122.957069,46.107105],[-122.9573,46.107118],[-122.957322,46.107192],[-122.957429,46.107208]]]}},{"type":"Feature","properties":{"id":18,"area_m2":3600,"px":36,"rank":15,"persistent":false},"geometry":{"type":"Polygon","coordinates":[[[-122.955356,46.109907],[-122.955356,46.110177],[-122.95525,46.110193],[-122.955227,46.110267],[-122.95511,46.110291],[-122.955097,46.110357],[-122.954888,46.110357],[-122.954835,46.110377],[-122.954838,46.110627],[-122.95458,46.110627],[-122.95458,46.110537],[-122.954614,46.110494],[-122.95458,46.110445],[-122.95458,46.109907],[-122.954654,46.109904],[-122.9547,46.109878],[-122.95471,46.109727],[-122.954805,46.109718],[-122.954839,46.109637],[-122.954955,46.109613],[-122.954969,46.109457],[-122.955098,46.109457],[-122.955111,46.109793],[-122.955227,46.109817],[-122.955262,46.109898],[-122.955356,46.109907]],[[-122.95502,46.110267],[-122.955096,46.110223],[-122.955094,46.110035],[-122.955043,46.109999],[-122.954894,46.109999],[-122.95484,46.11004],[-122.954842,46.110228],[-122.954894,46.110264],[-122.95502,46.110267]]]}},{"type":"Feature","properties":{"id":57,"area_m2":3500,"px":35,"rank":16,"persistent":false},"geometry":{"type":"Polygon","coordinates":[[[-122.94721,46.103333],[-122.94721,46.103693],[-122.946822,46.103693],[-122.946819,46.103642],[-122.946781,46.10361],[-122.946563,46.103603],[-122.946564,46.103423],[-122.946675,46.103403],[-122.946728,46.103291],[-122.946675,46.103173],[-122.946564,46.103153],[-122.946564,46.102883],[-122.946659,46.102874],[-122.946693,46.102829],[-122.946688,46.102646],[-122.946646,46.102617],[-122.946564,46.102613],[-122.946564,46.102433],[-122.946694,46.102433],[-122.946716,46.102507],[-122.946823,46.102523],[-122.946858,46.102604],[-122.946952,46.102613],[-122.946952,46.102703],[-122.946864,46.10271],[-122.946824,46.102747],[-122.946824,46.10311],[-122.946885,46.103152],[-122.947081,46.103153],[-122.94709,46.103305],[-122.947136,46.103331],[-122.94721,46.103333]]]}},{"type":"Feature","properties":{"id":2,"area_m2":3400,"px":34,"rank":17,"persistent":false},"geometry":{"type":"Polygon","coordinates":[[[-122.960531,46.111799],[-122.960531,46.111979],[-122.959366,46.111978],[-122.959367,46.111799],[-122.959455,46.111792],[-122.959494,46.111755],[-122.959496,46.111529],[-122.959625,46.111529],[-122.959687,46.111553],[-122.959755,46.111529],[-122.960014,46.111529],[-122.960042,46.111607],[-122.960272,46.111619],[-122.960295,46.111693],[-122.960402,46.111709],[-122.960436,46.11179],[-122.960531,46.111799]]]}},{"type":"Feature","properties":{"id":25,"area_m2":3300,"px":33,"rank":18,"persistent":false},"geometry":{"type":"Polygon","coordinates":[[[-122.953157,46.109276],[-122.953157,46.109366],[-122.953028,46.109366],[-122.953022,46.109309],[-122.952973,46.109278],[-122.952792,46.109292],[-122.952772,46.109418],[-122.952817,46.109452],[-122.952898,46.109456],[-122.952898,46.109546],[-122.952769,46.109546],[-122.952746,46.109472],[-122.95264,46.109456],[-122.952626,46.1093],[-122.95251,46.109276],[-122.952494,46.109193],[-122.952545,46.109143],[-122.952513,46.109097],[-122.952456,46.109082],[-122.952403,46.109098],[-122.952381,46.109186],[-122.952122,46.109186],[-122.952121,46.108959],[-122.952081,46.108922],[-122.951993,46.108916],[-122.951993,46.108826],[-122.9521,46.10881],[-122.952123,46.108736],[-122.952348,46.10874],[-122.952381,46.108646],[-122.952511,46.108646],[-122.952517,46.108702],[-122.952566,46.108734],[-122.952769,46.108736],[-122.952778,46.108887],[-122.952824,46.108914],[-122.952899,46.108916],[-122.952908,46.109157],[-122.952954,46.109184],[-122.953028,46.109186],[-122.953062,46.109267],[-122.953157,46.109276]]]}},{"type":"Feature","properties":{"id":11,"area_m2":3200,"px":32,"rank":19,"persistent":false},"geometry":{"type":"Polygon","coordinates":[[[-122.955873,46.110987],[-122.955873,46.111167],[-122.955655,46.111174],[-122.955618,46.111205],[-122.955614,46.111257],[-122.955383,46.111256],[-122.955356,46.111292],[-122.955355,46.111437],[-122.955249,46.111453],[-122.955226,46.111527],[-122.955125,46.111539],[-122.955096,46.111617],[-122.955001,46.111626],[-122.954967,46.111707],[-122.954855,46.111727],[-122.954837,46.111797],[-122.954579,46.111797],[-122.954556,46.111723],[-122.954449,46.111707],[-122.954449,46.111617],[-122.954484,46.111574],[-122.954449,46.111527],[-122.95445,46.111437],[-122.954556,46.111421],[-122.954581,46.111347],[-122.954838,46.111347],[-122.954841,46.111399],[-122.954879,46.11143],[-122.955068,46.111425],[-122.955097,46.111347],[-122.955178,46.111343],[-122.95522,46.111314],[-122.955226,46.111167],[-122.955321,46.111158],[-122.955356,46.111077],[-122.955472,46.111053],[-122.955485,46.110897],[-122.955592,46.110881],[-122.955615,46.110807],[-122.955744,46.110807],[-122.955732,46.110957],[-122.955779,46.110985],[-122.955873,46.110987]]]}},{"type":"Feature","properties":{"id":36,"area_m2":2800,"px":28,"rank":20,"persistent":false},"geometry":{"type":"Polygon","coordinates":[[[-122.953547,46.107296],[-122.953547,46.107386],[-122.95344,46.107402],[-122.953417,46.107476],[-122.953077,46.10748],[-122.953035,46.107509],[-122.953029,46.107566],[-122.952913,46.10759],[-122.9529,46.107656],[-122.952703,46.107657],[-122.952647,46.107689],[-122.95265,46.107807],[-122.952696,46.107834],[-122.95277,46.107836],[-122.952779,46.107987],[-122.952825,46.108014],[-122.952899,46.108016],[-122.952909,46.108167],[-122.952954,46.108194],[-122.953029,46.108196],[-122.953028,46.108376],[-122.952899,46.108376],[-122.95289,46.108225],[-122.952844,46.108198],[-122.95277,46.108196],[-122.952767,46.108054],[-122.952722,46.10802],[-122.952641,46.108016],[-122.952628,46.10786],[-122.952512,46.107836],[-122.95251,46.107609],[-122.952471,46.107572],[-122.952382,46.107566],[-122.952383,46.107386],[-122.952512,46.107386],[-122.952521,46.107447],[-122.952574,46.107475],[-122.952865,46.107467],[-122.952898,46.107433],[-122.952897,46.107334],[-122.952852,46.1073],[-122.952771,46.107296],[-122.952771,46.107206],[-122.953029,46.107206],[-122.953039,46.107267],[-122.953092,46.107295],[-122.953547,46.107296]]]}},{"type":"Feature","properties":{"id":21,"area_m2":2000,"px":20,"rank":21,"persistent":false},"geometry":{"type":"Polygon","coordinates":[[[-122.950827,46.109905],[-122.950827,46.110085],[-122.950591,46.110101],[-122.950568,46.110175],[-122.950487,46.110179],[-122.950445,46.110208],[-122.950439,46.110355],[-122.95031,46.110355],[-122.950287,46.110281],[-122.95018,46.110265],[-122.950167,46.110109],[-122.950051,46.110085],[-122.950016,46.110004],[-122.949922,46.109995],[-122.949922,46.109905],[-122.950003,46.109901],[-122.950048,46.109866],[-122.950051,46.109725],[-122.95018,46.109725],[-122.950182,46.109861],[-122.950236,46.109903],[-122.950439,46.109905],[-122.9505,46.109929],[-122.950569,46.109905],[-122.950827,46.109905]]]}},{"type":"Feature","properties":{"id":1,"area_m2":1900,"px":19,"rank":22,"persistent":false},"geometry":{"type":"Polygon","coordinates":[[[-122.962081,46.111531],[-122.96205,46.111577],[-122.962084,46.111619],[-122.962084,46.111709],[-122.961848,46.111725],[-122.961825,46.111799],[-122.961744,46.111803],[-122.961702,46.111833],[-122.961696,46.111979],[-122.961308,46.111979],[-122.961308,46.111709],[-122.961414,46.111693],[-122.961437,46.111619],[-122.961553,46.111595],[-122.961567,46.111529],[-122.9619,46.111527],[-122.961949,46.111496],[-122.961955,46.111439],[-122.962082,46.111439],[-122.962081,46.111531]]]}},{"type":"Feature","properties":{"id":44,"area_m2":1700,"px":17,"rank":23,"persistent":false},"geometry":{"type":"Polygon","coordinates":[[[-122.949665,46.107025],[-122.949665,46.107115],[-122.949477,46.107115],[-122.94942,46.107138],[-122.949406,46.107294],[-122.949277,46.107294],[-122.949274,46.107243],[-122.949236,46.107211],[-122.949018,46.107204],[-122.949012,46.107148],[-122.948963,46.107117],[-122.94876,46.107114],[-122.94876,46.106934],[-122.948963,46.106932],[-122.949013,46.106901],[-122.949019,46.106844],[-122.949148,46.106844],[-122.949151,46.106896],[-122.949189,46.106928],[-122.949407,46.106935],[-122.949413,46.106991],[-122.949462,46.107022],[-122.949665,46.107025]]]}},{"type":"Feature","properties":{"id":17,"area_m2":1600,"px":16,"rank":24,"persistent":false},"geometry":{"type":"Polygon","coordinates":[[[-122.956391,46.110357],[-122.956391,46.110537],[-122.956195,46.110538],[-122.956138,46.110571],[-122.956132,46.110807],[-122.956003,46.110807],[-122.95598,46.110733],[-122.955828,46.110695],[-122.955744,46.110717],[-122.955615,46.110717],[-122.955615,46.110447],[-122.955833,46.110441],[-122.95587,46.110409],[-122.955876,46.110357],[-122.956003,46.110357],[-122.956009,46.110414],[-122.956051,46.110443],[-122.956199,46.110446],[-122.956253,46.110419],[-122.956262,46.110357],[-122.956391,46.110357]]]}},{"type":"Feature","properties":{"id":38,"area_m2":1600,"px":16,"rank":25,"persistent":false},"geometry":{"type":"Polygon","coordinates":[[[-122.948112,46.108014],[-122.948112,46.108194],[-122.947594,46.108194],[-122.947588,46.108137],[-122.947539,46.108106],[-122.947206,46.108103],[-122.947183,46.108029],[-122.947077,46.108013],[-122.947077,46.107923],[-122.947206,46.107924],[-122.947267,46.107948],[-122.947337,46.107924],[-122.947724,46.107924],[-122.947785,46.107948],[-122.947853,46.107924],[-122.947982,46.107924],[-122.948005,46.107998],[-122.948112,46.108014]]]}},{"type":"Feature","properties":{"id":3,"area_m2":1100,"px":11,"rank":26,"persistent":false},"geometry":{"type":"Polygon","coordinates":[[[-122.958849,46.111798],[-122.958849,46.111888],[-122.958631,46.111895],[-122.958593,46.111927],[-122.95859,46.111978],[-122.958461,46.111978],[-122.9584,46.111954],[-122.958331,46.111978],[-122.958072,46.111978],[-122.958073,46.111888],[-122.958179,46.111872],[-122.958202,46.111798],[-122.958318,46.111774],[-122.958331,46.111708],[-122.958719,46.111708],[-122.958742,46.111782],[-122.958849,46.111798]]]}},{"type":"Feature","properties":{"id":10,"area_m2":1100,"px":11,"rank":27,"persistent":false},"geometry":{"type":"Polygon","coordinates":[[[-122.956649,46.111078],[-122.956649,46.111167],[-122.956555,46.111177],[-122.95652,46.111257],[-122.956439,46.111262],[-122.956397,46.111291],[-122.95639,46.111527],[-122.956302,46.111534],[-122.956262,46.111571],[-122.956261,46.111797],[-122.956131,46.111797],[-122.956132,46.111527],[-122.95622,46.111521],[-122.956261,46.111479],[-122.956261,46.111257],[-122.956296,46.111215],[-122.956261,46.111167],[-122.956261,46.111077],[-122.956368,46.111062],[-122.956393,46.110987],[-122.95652,46.110988],[-122.956543,46.111062],[-122.956649,46.111078]]]}},{"type":"Feature","properties":{"id":55,"area_m2":1100,"px":11,"rank":28,"persistent":false},"geometry":{"type":"Polygon","coordinates":[[[-122.94708,46.104413],[-122.94708,46.104503],[-122.946973,46.104519],[-122.94695,46.104593],[-122.946821,46.104593],[-122.94676,46.104569],[-122.946692,46.104593],[-122.946562,46.104593],[-122.946563,46.104323],[-122.946597,46.104281],[-122.946563,46.104233],[-122.946563,46.104143],[-122.946692,46.104143],[-122.946698,46.1042],[-122.946747,46.104231],[-122.946951,46.104233],[-122.946939,46.104384],[-122.946985,46.104411],[-122.94708,46.104413]]]}},{"type":"Feature","properties":{"id":43,"area_m2":900,"px":9,"rank":29,"persistent":false},"geometry":{"type":"Polygon","coordinates":[[[-122.950442,46.106845],[-122.950442,46.106935],[-122.950354,46.106941],[-122.950314,46.106978],[-122.950312,46.107205],[-122.950224,46.107211],[-122.950183,46.107254],[-122.950196,46.107361],[-122.950312,46.107385],[-122.950312,46.107475],[-122.950183,46.107475],[-122.95016,46.107401],[-122.950053,46.107383],[-122.950054,46.107205],[-122.950142,46.107198],[-122.950183,46.107156],[-122.950183,46.106755],[-122.950313,46.106755],[-122.950335,46.106829],[-122.950442,46.106845]]]}},{"type":"Feature","properties":{"id":49,"area_m2":900,"px":9,"rank":30,"persistent":false},"geometry":{"type":"Polygon","coordinates":[[[-122.952642,46.106306],[-122.952642,46.106396],[-122.952385,46.106396],[-122.952378,46.106326],[-122.95233,46.106295],[-122.951995,46.106306],[-122.951972,46.106231],[-122.951866,46.106215],[-122.951866,46.106036],[-122.951973,46.10602],[-122.951996,46.105946],[-122.952125,46.105946],[-122.952125,46.106036],[-122.952043,46.10604],[-122.951999,46.106074],[-122.952018,46.1062],[-122.952199,46.106213],[-122.952248,46.106182],[-122.952254,46.106126],[-122.952383,46.106126],[-122.952406,46.1062],[-122.952513,46.106216],[-122.952547,46.106297],[-122.952642,46.106306]]]}},{"type":"Feature","properties":{"id":26,"area_m2":800,"px":8,"rank":31,"persistent":false},"geometry":{"type":"Polygon","coordinates":[[[-122.949016,46.109274],[-122.949016,46.109364],[-122.948935,46.109368],[-122.94889,46.109403],[-122.948887,46.109544],[-122.948628,46.109544],[-122.948628,46.109454],[-122.94871,46.10945],[-122.948752,46.109421],[-122.948752,46.109308],[-122.948695,46.109275],[-122.948499,46.109274],[-122.948476,46.1092],[-122.94837,46.109184],[-122.94837,46.109094],[-122.948499,46.109094],[-122.948505,46.109151],[-122.948554,46.109182],[-122.948758,46.109184],[-122.948764,46.109241],[-122.948806,46.10927],[-122.949016,46.109274]]]}},{"type":"Feature","properties":{"id":5,"area_m2":600,"px":6,"rank":32,"persistent":false},"geometry":{"type":"Polygon","coordinates":[[[-122.955614,46.111617],[-122.955614,46.111707],[-122.955532,46.111711],[-122.955488,46.111745],[-122.955484,46.111887],[-122.955281,46.111889],[-122.955231,46.11192],[-122.955225,46.111977],[-122.955096,46.111977],[-122.955096,46.111887],[-122.955191,46.111878],[-122.955226,46.111797],[-122.9553,46.111795],[-122.955346,46.111768],[-122.955355,46.111617],[-122.955614,46.111617]]]}},{"type":"Feature","properties":{"id":14,"area_m2":600,"px":6,"rank":33,"persistent":false},"geometry":{"type":"Polygon","coordinates":[[[-122.955226,46.110897],[-122.955226,46.111077],[-122.955119,46.111093],[-122.955097,46.111167],[-122.95498,46.111191],[-122.954967,46.111257],[-122.954838,46.111257],[-122.954838,46.111077],[-122.954945,46.111061],[-122.954967,46.110987],[-122.955084,46.110963],[-122.955097,46.110897],[-122.955226,46.110897]]]}},{"type":"Feature","properties":{"id":33,"area_m2":600,"px":6,"rank":34,"persistent":false},"geometry":{"type":"Polygon","coordinates":[[[-122.956522,46.108287],[-122.956522,46.108467],[-122.956448,46.10847],[-122.956402,46.108496],[-122.956393,46.108647],[-122.956263,46.108647],[-122.956264,46.108287],[-122.956522,46.108287]]]}},{"type":"Feature","properties":{"id":46,"area_m2":600,"px":6,"rank":35,"persistent":false},"geometry":{"type":"Polygon","coordinates":[[[-122.949924,46.106665],[-122.949924,46.106755],[-122.949795,46.106755],[-122.949734,46.10673],[-122.949666,46.106755],[-122.949407,46.106754],[-122.949407,46.106664],[-122.949442,46.106622],[-122.949407,46.106574],[-122.949407,46.106485],[-122.949536,46.106485],[-122.949542,46.106541],[-122.949592,46.106572],[-122.949795,46.106575],[-122.949818,46.106649],[-122.949924,46.106665]]]}},{"type":"Feature","properties":{"id":13,"area_m2":500,"px":5,"rank":36,"persistent":false},"geometry":{"type":"Polygon","coordinates":[[[-122.962085,46.1109],[-122.962084,46.111259],[-122.961955,46.111259],[-122.961932,46.111185],[-122.961826,46.111169],[-122.961826,46.111079],[-122.9619,46.111077],[-122.961946,46.111051],[-122.961955,46.110899],[-122.962085,46.1109]]]}},{"type":"Feature","properties":{"id":20,"area_m2":500,"px":5,"rank":37,"persistent":false},"geometry":{"type":"Polygon","coordinates":[[[-122.948239,46.110444],[-122.948239,46.110534],[-122.947721,46.110534],[-122.947699,46.11046],[-122.947592,46.110444],[-122.947592,46.110354],[-122.947721,46.110354],[-122.94773,46.110415],[-122.947784,46.110443],[-122.948239,46.110444]]]}},{"type":"Feature","properties":{"id":31,"area_m2":500,"px":5,"rank":38,"persistent":false},"geometry":{"type":"Polygon","coordinates":[[[-122.955875,46.108377],[-122.955875,46.108827],[-122.955746,46.108827],[-122.955746,46.108377],[-122.955875,46.108377]]]}},{"type":"Feature","properties":{"id":42,"area_m2":500,"px":5,"rank":39,"persistent":false},"geometry":{"type":"Polygon","coordinates":[[[-122.950182,46.107565],[-122.950182,46.107655],[-122.950076,46.107671],[-122.950053,46.107745],[-122.949937,46.107769],[-122.949923,46.107835],[-122.949665,46.107835],[-122.949665,46.107745],[-122.949771,46.107729],[-122.949794,46.107655],[-122.949998,46.107652],[-122.950047,46.107621],[-122.950053,46.107565],[-122.950182,46.107565]]]}},{"type":"Feature","properties":{"id":6,"area_m2":400,"px":4,"rank":40,"persistent":false},"geometry":{"type":"Polygon","coordinates":[[[-122.954578,46.111887],[-122.954578,46.111977],[-122.95419,46.111977],[-122.95419,46.111797],[-122.95432,46.111797],[-122.954326,46.111853],[-122.954375,46.111884],[-122.954578,46.111887]]]}},{"type":"Feature","properties":{"id":8,"area_m2":400,"px":4,"rank":41,"persistent":false},"geometry":{"type":"Polygon","coordinates":[[[-122.951861,46.111706],[-122.951861,46.111886],[-122.951754,46.111901],[-122.951731,46.111976],[-122.951473,46.111975],[-122.951473,46.111886],[-122.951661,46.111885],[-122.951718,46.111862],[-122.951732,46.111706],[-122.951861,46.111706]]]}},{"type":"Feature","properties":{"id":19,"area_m2":400,"px":4,"rank":42,"persistent":false},"geometry":{"type":"Polygon","coordinates":[[[-122.949662,46.110355],[-122.949662,46.110535],[-122.949556,46.11055],[-122.949533,46.110625],[-122.949403,46.110624],[-122.949404,46.110445],[-122.94951,46.110429],[-122.949533,46.110355],[-122.949662,46.110355]]]}},{"type":"Feature","properties":{"id":23,"area_m2":400,"px":4,"rank":43,"persistent":false},"geometry":{"type":"Polygon","coordinates":[[[-122.951604,46.109996],[-122.951604,46.110085],[-122.951497,46.110101],[-122.951474,46.110175],[-122.951086,46.110175],[-122.951086,46.110085],[-122.951412,46.110084],[-122.951465,46.110057],[-122.951474,46.109995],[-122.951604,46.109996]]]}},{"type":"Feature","properties":{"id":28,"area_m2":400,"px":4,"rank":44,"persistent":false},"geometry":{"type":"Polygon","coordinates":[[[-122.946817,46.108823],[-122.946817,46.109003],[-122.94671,46.109019],[-122.946687,46.109093],[-122.946558,46.109093],[-122.946558,46.108913],[-122.946665,46.108897],[-122.946688,46.108823],[-122.946817,46.108823]]]}},{"type":"Feature","properties":{"id":30,"area_m2":400,"px":4,"rank":45,"persistent":false},"geometry":{"type":"Polygon","coordinates":[[[-122.947464,46.108734],[-122.947464,46.109004],[-122.947205,46.109003],[-122.947205,46.108914],[-122.947287,46.108909],[-122.947331,46.108875],[-122.947335,46.108734],[-122.947464,46.108734]]]}},{"type":"Feature","properties":{"id":45,"area_m2":400,"px":4,"rank":46,"persistent":false},"geometry":{"type":"Polygon","coordinates":[[[-122.953159,46.106486],[-122.953159,46.106846],[-122.95303,46.106846],[-122.95303,46.106486],[-122.953159,46.106486]]]}},{"type":"Feature","properties":{"id":54,"area_m2":400,"px":4,"rank":47,"persistent":false},"geometry":{"type":"Polygon","coordinates":[[[-122.948762,46.104504],[-122.948762,46.104684],[-122.948633,46.104684],[-122.948627,46.104627],[-122.948577,46.104596],[-122.948374,46.104594],[-122.948374,46.104504],[-122.948762,46.104504]]]}},{"type":"Feature","properties":{"id":27,"area_m2":300,"px":3,"rank":48,"persistent":false},"geometry":{"type":"Polygon","coordinates":[[[-122.955745,46.108917],[-122.955745,46.109187],[-122.955616,46.109187],[-122.955616,46.108917],[-122.955745,46.108917]]]}},{"type":"Feature","properties":{"id":32,"area_m2":300,"px":3,"rank":49,"persistent":false},"geometry":{"type":"Polygon","coordinates":[[[-122.956781,46.108468],[-122.956781,46.108647],[-122.956674,46.108663],[-122.956651,46.108737],[-122.956522,46.108737],[-122.956522,46.108647],[-122.956604,46.108643],[-122.956648,46.108609],[-122.956652,46.108468],[-122.956781,46.108468]]]}},{"type":"Feature","properties":{"id":35,"area_m2":300,"px":3,"rank":50,"persistent":false},"geometry":{"type":"Polygon","coordinates":[[[-122.947723,46.108464],[-122.947723,46.108554],[-122.947616,46.10857],[-122.947594,46.108644],[-122.947335,46.108643],[-122.947335,46.108554],[-122.947539,46.108551],[-122.947588,46.10852],[-122.947594,46.108464],[-122.947723,46.108464]]]}},{"type":"Feature","properties":{"id":37,"area_m2":300,"px":3,"rank":51,"persistent":false},"geometry":{"type":"Polygon","coordinates":[[[-122.946947,46.108103],[-122.946947,46.108193],[-122.946866,46.108197],[-122.946821,46.108232],[-122.946817,46.108373],[-122.946688,46.108373],[-122.946688,46.108193],[-122.946795,46.108177],[-122.946818,46.108103],[-122.946947,46.108103]]]}},{"type":"Feature","properties":{"id":47,"area_m2":300,"px":3,"rank":52,"persistent":false},"geometry":{"type":"Polygon","coordinates":[[[-122.951866,46.106486],[-122.951865,46.106665],[-122.951736,46.106665],[-122.951733,46.106524],[-122.951688,46.10649],[-122.951607,46.106485],[-122.951607,46.106395],[-122.951736,46.106396],[-122.951759,46.10647],[-122.951866,46.106486]]]}},{"type":"Feature","properties":{"id":48,"area_m2":300,"px":3,"rank":53,"persistent":false},"geometry":{"type":"Polygon","coordinates":[[[-122.955747,46.106307],[-122.955747,46.106487],[-122.955489,46.106487],[-122.955489,46.106397],[-122.955595,46.106381],[-122.955618,46.106307],[-122.955747,46.106307]]]}},{"type":"Feature","properties":{"id":50,"area_m2":300,"px":3,"rank":54,"persistent":false},"geometry":{"type":"Polygon","coordinates":[[[-122.948372,46.105944],[-122.948372,46.106214],[-122.948243,46.106214],[-122.948243,46.105944],[-122.948372,46.105944]]]}},{"type":"Feature","properties":{"id":51,"area_m2":300,"px":3,"rank":55,"persistent":false},"geometry":{"type":"Polygon","coordinates":[[[-122.952254,46.105586],[-122.952254,46.105676],[-122.951996,46.105675],[-122.951973,46.105601],[-122.951866,46.105585],[-122.951867,46.105496],[-122.951996,46.105496],[-122.952002,46.105552],[-122.952051,46.105583],[-122.952254,46.105586]]]}},{"type":"Feature","properties":{"id":52,"area_m2":300,"px":3,"rank":56,"persistent":false},"geometry":{"type":"Polygon","coordinates":[[[-122.94889,46.105404],[-122.94889,46.105674],[-122.948761,46.105674],[-122.948761,46.105404],[-122.94889,46.105404]]]}},{"type":"Feature","properties":{"id":56,"area_m2":300,"px":3,"rank":57,"persistent":false},"geometry":{"type":"Polygon","coordinates":[[[-122.947986,46.104144],[-122.947986,46.104414],[-122.947856,46.104414],[-122.947857,46.104144],[-122.947986,46.104144]]]}}]}