{"type":"FeatureCollection","features":[{"type":"Feature","properties":{"id":9,"area_m2":21300,"px":213,"rank":1,"persistent":true},"geometry":{"type":"Polygon","coordinates":[[[-122.954969,46.108377],[-122.954969,46.108647],[-122.954863,46.108663],[-122.95484,46.108737],[-122.954629,46.108741],[-122.954587,46.10877],[-122.954581,46.108827],[-122.95437,46.108831],[-122.954328,46.10886],[-122.954322,46.108917],[-122.954111,46.108921],[-122.954069,46.10895],[-122.954063,46.109006],[-122.95386,46.109009],[-122.95381,46.10904],[-122.953804,46.109096],[-122.953675,46.109096],[-122.953652,46.109022],[-122.953546,46.109006],[-122.953533,46.10885],[-122.953416,46.108826],[-122.953403,46.10867],[-122.953287,46.108646],[-122.953278,46.108495],[-122.953232,46.108468],[-122.953158,46.108466],[-122.953149,46.108315],[-122.953103,46.108288],[-122.953029,46.108286],[-122.95302,46.108135],[-122.952974,46.108108],[-122.952899,46.108106],[-122.95289,46.107955],[-122.952844,46.107928],[-122.95277,46.107926],[-122.952771,46.107566],[-122.952988,46.10756],[-122.953026,46.107528],[-122.953029,46.107476],[-122.95337,46.107472],[-122.953412,46.107443],[-122.953418,46.107386],[-122.953534,46.107362],[-122.953547,46.107296],[-122.953765,46.10729],[-122.953803,46.107258],[-122.953806,46.107206],[-122.954065,46.107206],[-122.954087,46.107281],[-122.954194,46.107297],[-122.954207,46.107452],[-122.954323,46.107477],[-122.954336,46.107633],[-122.954452,46.107657],[-122.954462,46.107808],[-122.954507,46.107834],[-122.954582,46.107837],[-122.954591,46.107988],[-122.954637,46.108014],[-122.954711,46.108017],[-122.95472,46.108168],[-122.954766,46.108194],[-122.95484,46.108197],[-122.954849,46.108348],[-122.954895,46.108374],[-122.954969,46.108377]]]}},{"type":"Feature","properties":{"id":10,"area_m2":20800,"px":208,"rank":2,"persistent":true},"geometry":{"type":"Polygon","coordinates":[[[-122.944489,46.107112],[-122.944489,46.107292],[-122.944415,46.107294],[-122.944369,46.107321],[-122.94436,46.107472],[-122.944278,46.107476],[-122.944234,46.10751],[-122.94423,46.107652],[-122.944124,46.107668],[-122.944101,46.107742],[-122.943984,46.107766],[-122.943971,46.107832],[-122.943524,46.107832],[-122.943467,46.107856],[-122.943453,46.108012],[-122.943372,46.108016],[-122.943327,46.10805],[-122.943324,46.108192],[-122.943242,46.108196],[-122.9432,46.108225],[-122.943194,46.108372],[-122.943099,46.108381],[-122.943065,46.108461],[-122.942983,46.108466],[-122.942941,46.108495],[-122.942935,46.108731],[-122.94284,46.108741],[-122.942806,46.108821],[-122.942731,46.108824],[-122.942685,46.10885],[-122.942676,46.109001],[-122.942547,46.109001],[-122.942541,46.108945],[-122.942492,46.108914],[-122.942288,46.108911],[-122.942282,46.108854],[-122.94224,46.108825],[-122.942029,46.108821],[-122.94203,46.108551],[-122.942104,46.108549],[-122.94215,46.108523],[-122.942159,46.108371],[-122.942271,46.108351],[-122.942289,46.108191],[-122.94237,46.108187],[-122.942412,46.108158],[-122.942418,46.108011],[-122.942513,46.108002],[-122.942548,46.107921],[-122.942622,46.107919],[-122.942668,46.107893],[-122.942678,46.107651],[-122.942772,46.107642],[-122.942807,46.107561],[-122.942888,46.107557],[-122.942933,46.107523],[-122.942935,46.107245],[-122.942896,46.107208],[-122.942807,46.107201],[-122.942808,46.107021],[-122.943066,46.107022],[-122.943135,46.107046],[-122.943291,46.107012],[-122.943325,46.106973],[-122.943325,46.106842],[-122.94342,46.106833],[-122.943455,46.106752],[-122.943536,46.106748],[-122.943578,46.106718],[-122.943584,46.106572],[-122.943691,46.106556],[-122.943714,46.106482],[-122.943973,46.106482],[-122.943982,46.106723],[-122.944035,46.106751],[-122.944231,46.106752],[-122.944254,46.106826],[-122.94436,46.106842],[-122.944364,46.107074],[-122.944408,46.107108],[-122.944489,46.107112]]]}},{"type":"Feature","properties":{"id":2,"area_m2":13900,"px":139,"rank":3,"persistent":true},"geometry":{"type":"Polygon","coordinates":[[[-122.941638,46.111521],[-122.941638,46.111611],[-122.941557,46.111615],[-122.941512,46.111649],[-122.941508,46.111791],[-122.941427,46.111795],[-122.941385,46.111824],[-122.941379,46.111971],[-122.941297,46.111975],[-122.941255,46.112004],[-122.941249,46.112151],[-122.941168,46.112155],[-122.941126,46.112184],[-122.94112,46.112331],[-122.940861,46.11233],[-122.940848,46.112264],[-122.940732,46.11224],[-122.940728,46.112189],[-122.940691,46.112157],[-122.940344,46.11215],[-122.94034,46.112099],[-122.940303,46.112067],[-122.940085,46.11206],[-122.940085,46.11188],[-122.940159,46.111878],[-122.940205,46.111852],[-122.940215,46.1117],[-122.940411,46.111699],[-122.940468,46.111667],[-122.940508,46.111568],[-122.940474,46.11152],[-122.940474,46.11134],[-122.94067,46.111339],[-122.940729,46.111302],[-122.940727,46.111104],[-122.94067,46.111071],[-122.940474,46.11107],[-122.940474,46.110892],[-122.940586,46.110871],[-122.940604,46.11071],[-122.940685,46.110706],[-122.94073,46.110672],[-122.940734,46.11035],[-122.940992,46.110351],[-122.94101,46.110421],[-122.941122,46.110441],[-122.941156,46.110521],[-122.941251,46.110531],[-122.941279,46.110608],[-122.94151,46.110621],[-122.941509,46.110801],[-122.941435,46.110803],[-122.941389,46.110829],[-122.94138,46.110981],[-122.941345,46.111028],[-122.941397,46.111141],[-122.941509,46.111161],[-122.941509,46.111341],[-122.941474,46.111388],[-122.941515,46.111487],[-122.941557,46.111517],[-122.941638,46.111521]]]}},{"type":"Feature","properties":{"id":25,"area_m2":13900,"px":139,"rank":4,"persistent":true},"geometry":{"type":"Polygon","coordinates":[[[-122.946693,46.102703],[-122.946693,46.102793],[-122.946599,46.102802],[-122.946564,46.102883],[-122.946483,46.102887],[-122.94644,46.102916],[-122.946434,46.103153],[-122.94636,46.103155],[-122.946314,46.103182],[-122.946305,46.103333],[-122.945917,46.103333],[-122.945913,46.103281],[-122.945876,46.103249],[-122.945658,46.103243],[-122.94563,46.103165],[-122.945399,46.103152],[-122.945393,46.103096],[-122.945351,46.103067],[-122.945141,46.103062],[-122.945128,46.102996],[-122.945011,46.102972],[-122.945008,46.102921],[-122.94497,46.102889],[-122.944753,46.102882],[-122.944747,46.102826],[-122.944698,46.102795],[-122.944494,46.102792],[-122.944471,46.102718],[-122.944365,46.102702],[-122.944365,46.102612],[-122.944439,46.10261],[-122.944485,46.102584],[-122.944494,46.102432],[-122.944606,46.102412],[-122.944624,46.102252],[-122.944705,46.102248],[-122.944747,46.102219],[-122.944753,46.102072],[-122.945141,46.102072],[-122.945145,46.102124],[-122.945182,46.102156],[-122.9454,46.102163],[-122.945435,46.102243],[-122.945659,46.102253],[-122.945665,46.102309],[-122.945714,46.10234],[-122.945917,46.102343],[-122.945923,46.102399],[-122.945965,46.102429],[-122.946176,46.102433],[-122.946182,46.10249],[-122.946224,46.102519],[-122.946435,46.102523],[-122.946458,46.102597],[-122.946564,46.102613],[-122.946599,46.102694],[-122.946693,46.102703]]]}},{"type":"Feature","properties":{"id":16,"area_m2":5300,"px":53,"rank":5,"persistent":true},"geometry":{"type":"Polygon","coordinates":[[[-122.955877,46.106577],[-122.955877,46.106757],[-122.95577,46.106773],[-122.955747,46.106847],[-122.955631,46.106871],[-122.955618,46.106937],[-122.95523,46.106937],[-122.955216,46.106871],[-122.9551,46.106847],[-122.955066,46.106766],[-122.954842,46.106757],[-122.954828,46.106691],[-122.954712,46.106667],[-122.954706,46.10661],[-122.954664,46.106581],[-122.954454,46.106577],[-122.954431,46.106502],[-122.954324,46.106486],[-122.954324,46.106397],[-122.95444,46.106373],[-122.954454,46.106217],[-122.95456,46.106201],[-122.954583,46.106127],[-122.954842,46.106127],[-122.954855,46.106193],[-122.954971,46.106217],[-122.955006,46.106298],[-122.95523,46.106307],[-122.955248,46.106377],[-122.955359,46.106397],[-122.955372,46.106463],[-122.955489,46.106487],[-122.955523,46.106568],[-122.955877,46.106577]]]}},{"type":"Feature","properties":{"id":6,"area_m2":4600,"px":46,"rank":6,"persistent":true},"geometry":{"type":"Polygon","coordinates":[[[-122.951861,46.111436],[-122.951861,46.111616],[-122.951787,46.111618],[-122.951741,46.111644],[-122.951732,46.111795],[-122.951343,46.111795],[-122.95134,46.111744],[-122.951302,46.111712],[-122.951085,46.111705],[-122.951079,46.111649],[-122.95103,46.111618],[-122.950826,46.111615],[-122.950813,46.111549],[-122.950697,46.111525],[-122.950693,46.111473],[-122.950656,46.111441],[-122.950438,46.111435],[-122.950438,46.111345],[-122.950554,46.111321],[-122.950568,46.111165],[-122.950674,46.111149],[-122.950697,46.111075],[-122.950956,46.111075],[-122.950957,46.111212],[-122.950997,46.111249],[-122.951344,46.111255],[-122.951347,46.111307],[-122.951385,46.111339],[-122.951732,46.111346],[-122.951755,46.11142],[-122.951861,46.111436]]]}},{"type":"Feature","properties":{"id":8,"area_m2":3300,"px":33,"rank":7,"persistent":false},"geometry":{"type":"Polygon","coordinates":[[[-122.954969,46.109277],[-122.954969,46.109457],[-122.954894,46.109459],[-122.954848,46.109485],[-122.954839,46.109637],[-122.954322,46.109637],[-122.954299,46.109562],[-122.954192,46.109546],[-122.95417,46.109369],[-122.954117,46.109353],[-122.953934,46.109366],[-122.953934,46.109186],[-122.95404,46.109171],[-122.954063,46.109097],[-122.954287,46.109087],[-122.954322,46.109007],[-122.954581,46.109007],[-122.954603,46.109171],[-122.954839,46.109187],[-122.954862,46.109261],[-122.954969,46.109277]]]}},{"type":"Feature","properties":{"id":19,"area_m2":3000,"px":30,"rank":8,"persistent":false},"geometry":{"type":"Polygon","coordinates":[[[-122.94695,46.105133],[-122.94695,46.105493],[-122.946855,46.105502],[-122.94682,46.105583],[-122.946704,46.105607],[-122.94669,46.105763],[-122.946584,46.105779],[-122.946561,46.105853],[-122.946173,46.105853],[-122.946173,46.105583],[-122.946268,46.105574],[-122.946303,46.105493],[-122.946377,46.105491],[-122.946423,46.105465],[-122.946432,46.105223],[-122.946539,46.105207],[-122.946562,46.105133],[-122.94695,46.105133]]]}},{"type":"Feature","properties":{"id":18,"area_m2":2600,"px":26,"rank":9,"persistent":false},"geometry":{"type":"Polygon","coordinates":[[[-122.947855,46.105584],[-122.947855,46.105764],[-122.947781,46.105766],[-122.947735,46.105792],[-122.947725,46.105944],[-122.947407,46.105944],[-122.947347,46.105972],[-122.947337,46.106213],[-122.946949,46.106213],[-122.946949,46.106033],[-122.947044,46.106024],[-122.947079,46.105943],[-122.947195,46.105919],[-122.947208,46.105764],[-122.947324,46.10574],[-122.947338,46.105584],[-122.947444,46.105568],[-122.947467,46.105494],[-122.947726,46.105494],[-122.947749,46.105568],[-122.947855,46.105584]]]}},{"type":"Feature","properties":{"id":14,"area_m2":1700,"px":17,"rank":10,"persistent":false},"geometry":{"type":"Polygon","coordinates":[[[-122.957041,46.107298],[-122.957041,46.107388],[-122.956959,46.107392],[-122.956915,46.107426],[-122.956911,46.107567],[-122.956523,46.107567],[-122.95652,46.107516],[-122.956482,46.107484],[-122.956264,46.107477],[-122.956265,46.107117],[-122.956523,46.107117],[-122.956525,46.107254],[-122.956578,46.107295],[-122.956714,46.107322],[-122.956782,46.107298],[-122.957041,46.107298]]]}},{"type":"Feature","properties":{"id":11,"area_m2":1500,"px":15,"rank":11,"persistent":false},"geometry":{"type":"Polygon","coordinates":[[[-122.952252,46.108016],[-122.952252,46.108196],[-122.951864,46.108195],[-122.951861,46.108144],[-122.951823,46.108112],[-122.951606,46.108105],[-122.951606,46.107925],[-122.95168,46.107923],[-122.951726,46.107897],[-122.951735,46.107746],[-122.951864,46.107746],[-122.951887,46.10782],[-122.951994,46.107836],[-122.952007,46.107902],[-122.952123,46.107926],[-122.952151,46.108003],[-122.952252,46.108016]]]}},{"type":"Feature","properties":{"id":12,"area_m2":1300,"px":13,"rank":12,"persistent":false},"geometry":{"type":"Polygon","coordinates":[[[-122.945136,46.107473],[-122.945136,46.107742],[-122.945062,46.107745],[-122.945016,46.107771],[-122.945006,46.107922],[-122.944618,46.107922],[-122.944618,46.107742],[-122.944693,46.10774],[-122.944739,46.107714],[-122.944748,46.107562],[-122.944952,46.10756],[-122.945001,46.107529],[-122.945007,46.107473],[-122.945136,46.107473]]]}},{"type":"Feature","properties":{"id":17,"area_m2":1300,"px":13,"rank":13,"persistent":false},"geometry":{"type":"Polygon","coordinates":[[[-122.944879,46.106032],[-122.944878,46.106302],[-122.944772,46.106318],[-122.944749,46.106392],[-122.94449,46.106392],[-122.944468,46.106318],[-122.944361,46.106302],[-122.944361,46.106122],[-122.944468,46.106106],[-122.944491,46.106032],[-122.944879,46.106032]]]}},{"type":"Feature","properties":{"id":23,"area_m2":1100,"px":11,"rank":14,"persistent":false},"geometry":{"type":"Polygon","coordinates":[[[-122.944623,46.103422],[-122.944622,46.103602],[-122.944364,46.103602],[-122.944329,46.103521],[-122.944105,46.103512],[-122.944082,46.103438],[-122.943976,46.103422],[-122.943976,46.103242],[-122.944235,46.103242],[-122.944248,46.103308],[-122.944364,46.103332],[-122.944398,46.103413],[-122.944623,46.103422]]]}},{"type":"Feature","properties":{"id":4,"area_m2":900,"px":9,"rank":15,"persistent":false},"geometry":{"type":"Polygon","coordinates":[[[-122.953673,46.111436],[-122.953673,46.111526],[-122.953591,46.11153],[-122.953547,46.111565],[-122.953543,46.111706],[-122.953437,46.111722],[-122.953414,46.111796],[-122.953285,46.111796],[-122.953262,46.111722],[-122.953155,46.111706],[-122.953155,46.111616],[-122.953352,46.111615],[-122.953413,46.111573],[-122.953408,46.11147],[-122.953366,46.11144],[-122.953285,46.111436],[-122.953285,46.111346],[-122.953544,46.111346],[-122.953566,46.11142],[-122.953673,46.111436]]]}},{"type":"Feature","properties":{"id":5,"area_m2":800,"px":8,"rank":16,"persistent":false},"geometry":{"type":"Polygon","coordinates":[[[-122.952379,46.111436],[-122.952379,46.111796],[-122.952249,46.111796],[-122.952243,46.111739],[-122.952194,46.111708],[-122.951991,46.111706],[-122.951991,46.111616],[-122.952072,46.111612],[-122.952117,46.111577],[-122.95212,46.111436],[-122.952379,46.111436]]]}},{"type":"Feature","properties":{"id":1,"area_m2":700,"px":7,"rank":17,"persistent":false},"geometry":{"type":"Polygon","coordinates":[[[-122.953801,46.112426],[-122.953801,46.112606],[-122.953695,46.112622],[-122.953672,46.112696],[-122.953543,46.112696],[-122.953539,46.112555],[-122.953495,46.11252],[-122.953413,46.112516],[-122.953413,46.112426],[-122.95352,46.11241],[-122.953545,46.112336],[-122.953672,46.112336],[-122.953695,46.112411],[-122.953801,46.112426]]]}},{"type":"Feature","properties":{"id":13,"area_m2":700,"px":7,"rank":18,"persistent":false},"geometry":{"type":"Polygon","coordinates":[[[-122.955617,46.107477],[-122.955617,46.107657],[-122.955358,46.107657],[-122.955336,46.107583],[-122.955229,46.107567],[-122.955229,46.107387],[-122.955488,46.107387],[-122.955511,46.107461],[-122.955617,46.107477]]]}},{"type":"Feature","properties":{"id":24,"area_m2":500,"px":5,"rank":19,"persistent":false},"geometry":{"type":"Polygon","coordinates":[[[-122.942423,46.103241],[-122.942423,46.103421],[-122.942349,46.103423],[-122.942303,46.10345],[-122.942293,46.103601],[-122.942164,46.103601],[-122.942164,46.103331],[-122.942271,46.103315],[-122.942294,46.103241],[-122.942423,46.103241]]]}},{"type":"Feature","properties":{"id":26,"area_m2":500,"px":5,"rank":20,"persistent":false},"geometry":{"type":"Polygon","coordinates":[[[-122.941389,46.102791],[-122.941388,46.10306],[-122.941282,46.103076],[-122.941259,46.10315],[-122.94113,46.10315],[-122.94113,46.10297],[-122.941204,46.102968],[-122.94125,46.102942],[-122.941259,46.102791],[-122.941389,46.102791]]]}},{"type":"Feature","properties":{"id":3,"area_m2":400,"px":4,"rank":21,"persistent":false},"geometry":{"type":"Polygon","coordinates":[[[-122.95212,46.111796],[-122.95212,46.111976],[-122.951861,46.111976],[-122.951861,46.111796],[-122.95212,46.111796]]]}},{"type":"Feature","properties":{"id":7,"area_m2":400,"px":4,"rank":22,"persistent":false},"geometry":{"type":"Polygon","coordinates":[[[-122.95458,46.109997],[-122.95458,46.110177],[-122.954321,46.110177],[-122.954321,46.109997],[-122.95458,46.109997]]]}},{"type":"Feature","properties":{"id":15,"area_m2":400,"px":4,"rank":23,"persistent":false},"geometry":{"type":"Polygon","coordinates":[[[-122.954841,46.107117],[-122.954841,46.107297],[-122.954712,46.107297],[-122.954689,46.107223],[-122.954582,46.107207],[-122.954583,46.107027],[-122.954712,46.107027],[-122.954735,46.107101],[-122.954841,46.107117]]]}},{"type":"Feature","properties":{"id":21,"area_m2":400,"px":4,"rank":24,"persistent":false},"geometry":{"type":"Polygon","coordinates":[[[-122.944233,46.104412],[-122.944233,46.104502],[-122.944127,46.104518],[-122.944104,46.104592],[-122.943975,46.104592],[-122.943952,46.104518],[-122.943845,46.104502],[-122.943845,46.104412],[-122.944233,46.104412]]]}},{"type":"Feature","properties":{"id":20,"area_m2":300,"px":3,"rank":25,"persistent":false},"geometry":{"type":"Polygon","coordinates":[[[-122.950185,46.104415],[-122.950185,46.104505],[-122.950079,46.104521],[-122.950056,46.104595],[-122.949797,46.104595],[-122.949797,46.104505],[-122.950001,46.104502],[-122.95005,46.104471],[-122.950056,46.104415],[-122.950185,46.104415]]]}},{"type":"Feature","properties":{"id":22,"area_m2":300,"px":3,"rank":26,"persistent":false},"geometry":{"type":"Polygon","coordinates":[[[-122.94294,46.103601],[-122.94294,46.103691],[-122.942682,46.103691],[-122.942682,46.103511],[-122.942811,46.103511],[-122.942834,46.103585],[-122.94294,46.103601]]]}}]}