{"type":"FeatureCollection","features":[{"type":"Feature","properties":{"id":2,"area_m2":489900,"px":4899,"rank":1,"persistent":false},"geometry":{"type":"Polygon","coordinates":[[[-122.958075,46.108288],[-122.958075,46.108378],[-122.957968,46.108394],[-122.957946,46.108468],[-122.957735,46.108472],[-122.957693,46.108501],[-122.957687,46.108558],[-122.957476,46.108562],[-122.957434,46.108591],[-122.957428,46.108648],[-122.957312,46.108672],[-122.957311,46.108804],[-122.957368,46.108827],[-122.957557,46.108828],[-122.957557,46.108918],[-122.957445,46.108938],[-122.957427,46.109098],[-122.957321,46.109114],[-122.957298,46.109188],[-122.957203,46.109197],[-122.957169,46.109278],[-122.957057,46.109297],[-122.957039,46.109368],[-122.95678,46.109367],[-122.956752,46.10929],[-122.956598,46.109254],[-122.956433,46.109284],[-122.956396,46.109316],[-122.956392,46.109367],[-122.956297,46.10937],[-122.956251,46.109397],[-122.956262,46.109547],[-122.956188,46.10955],[-122.956142,46.109576],[-122.956133,46.109727],[-122.956026,46.109743],[-122.956003,46.109817],[-122.955885,46.109828],[-122.955806,46.109793],[-122.95574,46.109821],[-122.955725,46.109857],[-122.955752,46.109894],[-122.955874,46.109907],[-122.955874,46.109997],[-122.955685,46.109997],[-122.955628,46.110021],[-122.955618,46.110139],[-122.955685,46.110177],[-122.955839,46.110168],[-122.955885,46.110076],[-122.956098,46.110078],[-122.956132,46.110039],[-122.956133,46.109907],[-122.95624,46.109892],[-122.956262,46.109817],[-122.956392,46.109817],[-122.956391,46.110087],[-122.95629,46.110092],[-122.956243,46.110132],[-122.956262,46.110357],[-122.956188,46.11036],[-122.956142,46.110386],[-122.956132,46.110537],[-122.956026,46.110553],[-122.956003,46.110627],[-122.955908,46.11063],[-122.955866,46.110652],[-122.955873,46.110807],[-122.955767,46.110823],[-122.955744,46.110897],[-122.955615,46.110897],[-122.955609,46.11084],[-122.955567,46.110811],[-122.955411,46.110809],[-122.955362,46.11084],[-122.955356,46.110897],[-122.955239,46.110921],[-122.955226,46.110987],[-122.95511,46.111011],[-122.955097,46.111167],[-122.95498,46.111191],[-122.954969,46.111303],[-122.955008,46.111341],[-122.955096,46.111347],[-122.955125,46.111425],[-122.955226,46.111437],[-122.955226,46.111527],[-122.95502,46.111516],[-122.954973,46.111547],[-122.954967,46.111617],[-122.954778,46.111617],[-122.954726,46.111637],[-122.954708,46.111797],[-122.954626,46.111801],[-122.954582,46.111835],[-122.954578,46.111977],[-122.954483,46.111986],[-122.954449,46.112067],[-122.954337,46.112086],[-122.954319,46.112247],[-122.954238,46.112251],[-122.954196,46.11228],[-122.95419,46.112607],[-122.953954,46.112622],[-122.953931,46.112786],[-122.953674,46.112786],[-122.953672,46.112606],[-122.953788,46.112582],[-122.953801,46.112475],[-122.953761,46.112433],[-122.953672,46.112426],[-122.953669,46.112375],[-122.953631,46.112343],[-122.953476,46.112337],[-122.953423,46.112365],[-122.953379,46.112469],[-122.953413,46.112516],[-122.953413,46.112606],[-122.953154,46.112606],[-122.953151,46.112554],[-122.953113,46.112523],[-122.952896,46.112516],[-122.95289,46.112459],[-122.952841,46.112428],[-122.952637,46.112426],[-122.952621,46.112344],[-122.952672,46.112288],[-122.952625,46.11224],[-122.952525,46.112252],[-122.952508,46.112336],[-122.952378,46.112336],[-122.952365,46.11227],[-122.952249,46.112246],[-122.952246,46.112194],[-122.952208,46.112162],[-122.95199,46.112156],[-122.951987,46.112104],[-122.951949,46.112072],[-122.951731,46.112066],[-122.951728,46.112014],[-122.95169,46.111982],[-122.951473,46.111975],[-122.951438,46.111895],[-122.951214,46.111885],[-122.951179,46.111804],[-122.950955,46.111795],[-122.950932,46.111721],[-122.950826,46.111705],[-122.95081,46.111623],[-122.950955,46.111615],[-122.950984,46.111693],[-122.951214,46.111705],[-122.95122,46.111762],[-122.951269,46.111793],[-122.951473,46.111796],[-122.951541,46.11182],[-122.951691,46.111789],[-122.951728,46.111757],[-122.951732,46.111706],[-122.95182,46.111699],[-122.95186,46.111662],[-122.951861,46.111394],[-122.95182,46.111352],[-122.951344,46.111345],[-122.95134,46.111294],[-122.951303,46.111262],[-122.951085,46.111255],[-122.951072,46.111189],[-122.950956,46.111165],[-122.950921,46.111084],[-122.950752,46.111077],[-122.950703,46.111108],[-122.950697,46.111165],[-122.950596,46.111177],[-122.950567,46.111255],[-122.950479,46.111261],[-122.950439,46.111298],[-122.950455,46.111415],[-122.950567,46.111435],[-122.950602,46.111516],[-122.950696,46.111525],[-122.950712,46.111608],[-122.950567,46.111615],[-122.950564,46.111563],[-122.950526,46.111531],[-122.950308,46.111525],[-122.950305,46.111473],[-122.950267,46.111441],[-122.95005,46.111435],[-122.950015,46.111354],[-122.949791,46.111345],[-122.949756,46.111264],[-122.949532,46.111255],[-122.94951,46.11118],[-122.949403,46.111164],[-122.949404,46.110535],[-122.949478,46.110532],[-122.949524,46.110506],[-122.949533,46.110355],[-122.949628,46.110346],[-122.949663,46.110265],[-122.949737,46.110262],[-122.949783,46.110236],[-122.949792,46.110085],[-122.949908,46.110061],[-122.949922,46.109905],[-122.950003,46.109901],[-122.950048,46.109866],[-122.950051,46.109725],[-122.950133,46.109721],[-122.950175,46.109692],[-122.950181,46.109545],[-122.95031,46.109545],[-122.95031,46.109676],[-122.950345,46.109716],[-122.950698,46.109725],[-122.950711,46.109791],[-122.950827,46.109815],[-122.950856,46.109893],[-122.951086,46.109905],[-122.951095,46.109967],[-122.951156,46.109995],[-122.951282,46.109994],[-122.951332,46.109971],[-122.951345,46.109815],[-122.951685,46.109811],[-122.951727,46.109782],[-122.951733,46.109726],[-122.951815,46.109721],[-122.951859,46.109687],[-122.951882,46.109321],[-122.951836,46.10928],[-122.951734,46.109275],[-122.951734,46.109097],[-122.95185,46.109072],[-122.951863,46.108964],[-122.951822,46.108922],[-122.951734,46.108915],[-122.9517,46.108835],[-122.951475,46.108825],[-122.951472,46.108774],[-122.951434,46.108742],[-122.951251,46.108738],[-122.951197,46.108786],[-122.951216,46.109005],[-122.950761,46.109006],[-122.950708,46.109034],[-122.950699,46.109095],[-122.950569,46.109094],[-122.95057,46.109005],[-122.950651,46.109001],[-122.950696,46.108967],[-122.950699,46.108825],[-122.950794,46.108816],[-122.950829,46.108735],[-122.950903,46.108733],[-122.950949,46.108707],[-122.950958,46.108555],[-122.95107,46.108535],[-122.951088,46.108375],[-122.951169,46.108371],[-122.951211,46.108342],[-122.951217,46.108195],[-122.951312,46.108193],[-122.951358,46.108166],[-122.951347,46.108015],[-122.951421,46.108013],[-122.951467,46.107987],[-122.951476,46.107835],[-122.951583,46.10782],[-122.951606,46.107745],[-122.951701,46.107736],[-122.951735,46.107656],[-122.951847,46.107636],[-122.951865,46.107566],[-122.952203,46.107565],[-122.95227,46.107526],[-122.952247,46.107329],[-122.952205,46.1073],[-122.952124,46.107296],[-122.952089,46.107215],[-122.951994,46.107206],[-122.951991,46.106974],[-122.951947,46.10694],[-122.951865,46.106935],[-122.951862,46.106794],[-122.951817,46.10676],[-122.951736,46.106755],[-122.951735,46.106619],[-122.951688,46.10658],[-122.951523,46.106553],[-122.951371,46.106591],[-122.951348,46.106665],[-122.95113,46.106672],[-122.951092,46.106704],[-122.951089,46.106755],[-122.950973,46.106779],[-122.950959,46.106845],[-122.950848,46.106865],[-122.95083,46.106935],[-122.95047,46.106947],[-122.950442,46.106984],[-122.950442,46.107115],[-122.950367,46.107117],[-122.950321,46.107143],[-122.950315,46.107347],[-122.95036,46.107381],[-122.950441,46.107385],[-122.950445,46.107707],[-122.950489,46.107741],[-122.95057,46.107745],[-122.95057,46.107925],[-122.950536,46.107967],[-122.95057,46.108015],[-122.95057,46.108195],[-122.950311,46.108195],[-122.950306,46.108125],[-122.950244,46.108091],[-122.949665,46.108105],[-122.949676,46.107954],[-122.94963,46.107927],[-122.949535,46.107924],[-122.949529,46.107868],[-122.94948,46.107837],[-122.948794,46.107837],[-122.94874,46.107879],[-122.948759,46.108014],[-122.948568,46.108001],[-122.948509,46.108029],[-122.9485,46.108284],[-122.948393,46.1083],[-122.94837,46.108374],[-122.948241,46.108374],[-122.948232,46.108313],[-122.948171,46.108284],[-122.947793,46.108284],[-122.947732,46.108312],[-122.947725,46.10842],[-122.947764,46.108457],[-122.948111,46.108464],[-122.948115,46.108516],[-122.948152,46.108548],[-122.94837,46.108554],[-122.94837,46.108644],[-122.948152,46.10865],[-122.948114,46.108682],[-122.948111,46.108734],[-122.947982,46.108734],[-122.947981,46.108603],[-122.947953,46.108566],[-122.947723,46.108554],[-122.9477,46.10848],[-122.947594,46.108464],[-122.947559,46.108383],[-122.947465,46.108374],[-122.947465,46.108284],[-122.947546,46.10828],[-122.947591,46.108245],[-122.947576,46.108123],[-122.947524,46.108104],[-122.947206,46.108103],[-122.947183,46.108029],[-122.947077,46.108013],[-122.947064,46.107857],[-122.946947,46.107833],[-122.946913,46.107752],[-122.946818,46.107743],[-122.946784,46.107662],[-122.94643,46.107653],[-122.946421,46.107592],[-122.946368,46.107564],[-122.946042,46.107563],[-122.946033,46.107501],[-122.945979,46.107474],[-122.945661,46.107486],[-122.945634,46.107529],[-122.945653,46.107923],[-122.945547,46.107939],[-122.945524,46.108013],[-122.945429,46.108015],[-122.945387,46.108038],[-122.945394,46.108193],[-122.945169,46.108188],[-122.945135,46.108282],[-122.945061,46.108285],[-122.945015,46.108311],[-122.944987,46.108401],[-122.945026,46.108456],[-122.945135,46.108463],[-122.945164,46.10854],[-122.945264,46.108553],[-122.94527,46.108623],[-122.945325,46.108655],[-122.945598,46.10864],[-122.945647,46.108609],[-122.945653,46.108553],[-122.945782,46.108553],[-122.945782,46.108643],[-122.945681,46.108655],[-122.945652,46.108733],[-122.945551,46.108745],[-122.945523,46.108823],[-122.945428,46.108832],[-122.945394,46.108877],[-122.945394,46.109044],[-122.945422,46.10908],[-122.945781,46.109093],[-122.945781,46.109633],[-122.945545,46.109649],[-122.945522,46.109813],[-122.945415,46.109828],[-122.945392,46.109903],[-122.945276,46.109927],[-122.945263,46.109993],[-122.945134,46.109992],[-122.945128,46.109936],[-122.945079,46.109905],[-122.944875,46.109902],[-122.944869,46.109846],[-122.944827,46.109817],[-122.944616,46.109812],[-122.94461,46.109756],[-122.944568,46.109726],[-122.944358,46.109722],[-122.944345,46.109656],[-122.944228,46.109632],[-122.944225,46.10958],[-122.944187,46.109548],[-122.94397,46.109542],[-122.943941,46.109464],[-122.943711,46.109452],[-122.943705,46.109395],[-122.943663,46.109366],[-122.943452,46.109362],[-122.943449,46.10922],[-122.943404,46.109186],[-122.943323,46.109182],[-122.943323,46.109093],[-122.943397,46.109089],[-122.943443,46.109063],[-122.943464,46.108901],[-122.943711,46.108912],[-122.943711,46.109002],[-122.943623,46.109008],[-122.943583,46.109045],[-122.943583,46.109138],[-122.94363,46.109178],[-122.943799,46.109176],[-122.943837,46.109144],[-122.943841,46.109092],[-122.943929,46.109086],[-122.943969,46.109049],[-122.943953,46.108842],[-122.9439,46.108822],[-122.943712,46.108822],[-122.943712,46.108732],[-122.943745,46.108679],[-122.943712,46.108642],[-122.943706,46.108572],[-122.943666,46.108543],[-122.943464,46.108563],[-122.94345,46.108487],[-122.943414,46.108455],[-122.943223,46.108474],[-122.943195,46.10851],[-122.9432,46.108622],[-122.943269,46.108655],[-122.943442,46.108631],[-122.943453,46.108822],[-122.943194,46.108822],[-122.943191,46.10877],[-122.943153,46.108738],[-122.942976,46.108738],[-122.942935,46.10878],[-122.942935,46.108953],[-122.942976,46.108995],[-122.943064,46.109002],[-122.943064,46.109181],[-122.942935,46.109181],[-122.942929,46.109125],[-122.94288,46.109094],[-122.942676,46.109091],[-122.942676,46.108911],[-122.94275,46.108909],[-122.942796,46.108883],[-122.942806,46.108731],[-122.942918,46.108712],[-122.942935,46.108552],[-122.943017,46.108547],[-122.943059,46.108518],[-122.943065,46.108372],[-122.94316,46.108362],[-122.943195,46.108282],[-122.943269,46.108279],[-122.943315,46.108253],[-122.943324,46.108102],[-122.943405,46.108098],[-122.94345,46.108063],[-122.943454,46.107922],[-122.94356,46.107906],[-122.943583,46.107832],[-122.943842,46.107832],[-122.94391,46.107856],[-122.944078,46.107816],[-122.944101,46.107652],[-122.944182,46.107648],[-122.944227,46.107614],[-122.94423,46.107472],[-122.944312,46.107468],[-122.944354,46.107439],[-122.94436,46.107292],[-122.944441,46.107288],[-122.944486,46.107254],[-122.944476,46.107136],[-122.94436,46.107112],[-122.94436,46.106932],[-122.944395,46.106884],[-122.944355,46.106785],[-122.944313,46.106756],[-122.944231,46.106752],[-122.944225,46.106695],[-122.944183,46.106666],[-122.943973,46.106662],[-122.943972,46.106441],[-122.943925,46.106396],[-122.943755,46.106398],[-122.943717,46.10643],[-122.943714,46.106482],[-122.943598,46.106506],[-122.943584,46.106662],[-122.943468,46.106686],[-122.943455,46.106842],[-122.943338,46.106866],[-122.943325,46.107022],[-122.943218,46.107037],[-122.943196,46.107111],[-122.943066,46.107111],[-122.94306,46.107055],[-122.943018,46.107026],[-122.942808,46.107021],[-122.942754,46.106998],[-122.942558,46.10705],[-122.942571,46.107185],[-122.942807,46.107201],[-122.94283,46.107276],[-122.942937,46.107291],[-122.942936,46.107471],[-122.942862,46.107474],[-122.942816,46.1075],[-122.942807,46.107651],[-122.942725,46.107655],[-122.942681,46.10769],[-122.942677,46.107831],[-122.942582,46.10784],[-122.942548,46.107921],[-122.942473,46.107924],[-122.942428,46.10795],[-122.942418,46.108191],[-122.942323,46.1082],[-122.942289,46.108281],[-122.942177,46.108301],[-122.942159,46.108461],[-122.942078,46.108465],[-122.942036,46.108494],[-122.942029,46.108821],[-122.9419,46.108821],[-122.941897,46.108679],[-122.941822,46.108641],[-122.94156,46.108645],[-122.941518,46.108674],[-122.941512,46.108731],[-122.941308,46.108733],[-122.941259,46.108764],[-122.941253,46.108821],[-122.941124,46.10882],[-122.94112,46.108769],[-122.941083,46.108737],[-122.940865,46.10873],[-122.940836,46.108653],[-122.940606,46.10864],[-122.9406,46.108584],[-122.940558,46.108554],[-122.940347,46.10855],[-122.940334,46.108484],[-122.940218,46.10846],[-122.940215,46.108408],[-122.940177,46.108376],[-122.939959,46.10837],[-122.939954,46.108313],[-122.939904,46.108282],[-122.939701,46.10828],[-122.939701,46.10783],[-122.939775,46.107827],[-122.939821,46.107801],[-122.939831,46.10765],[-122.940089,46.10765],[-122.940118,46.107728],[-122.940348,46.10774],[-122.940357,46.107802],[-122.940418,46.10783],[-122.940683,46.107841],[-122.940731,46.10781],[-122.940737,46.10774],[-122.940855,46.107729],[-122.940872,46.107887],[-122.940914,46.107916],[-122.940995,46.107921],[-122.941017,46.108008],[-122.941077,46.108024],[-122.941252,46.107994],[-122.941274,46.107955],[-122.941254,46.107831],[-122.941289,46.107783],[-122.941236,46.10767],[-122.941064,46.107626],[-122.940995,46.10765],[-122.940866,46.10765],[-122.940866,46.10756],[-122.940947,46.107556],[-122.940992,46.107522],[-122.940996,46.107381],[-122.941102,46.107365],[-122.941125,46.107291],[-122.941254,46.107291],[-122.941258,46.107522],[-122.941302,46.107556],[-122.941384,46.107561],[-122.941418,46.107642],[-122.941574,46.107675],[-122.941642,46.107651],[-122.941772,46.107651],[-122.941775,46.107703],[-122.941813,46.107734],[-122.942002,46.107729],[-122.942031,46.107651],[-122.942112,46.107647],[-122.942154,46.107618],[-122.94216,46.107381],[-122.942234,46.107379],[-122.94228,46.107353],[-122.94229,46.107201],[-122.942371,46.107197],[-122.942416,46.107163],[-122.94242,46.106931],[-122.942501,46.106927],[-122.942546,46.106893],[-122.942569,46.106627],[-122.942529,46.106578],[-122.94242,46.106571],[-122.942414,46.106501],[-122.942367,46.10647],[-122.942196,46.10649],[-122.942159,46.106571],[-122.942032,46.106571],[-122.942009,46.106497],[-122.941902,46.106481],[-122.941903,46.106211],[-122.942014,46.106191],[-122.942032,46.106031],[-122.942114,46.106027],[-122.942156,46.105998],[-122.942156,46.105794],[-122.942099,46.105762],[-122.941903,46.105761],[-122.94188,46.105687],[-122.941774,46.105671],[-122.941756,46.105601],[-122.941645,46.105581],[-122.94161,46.1055],[-122.941515,46.105491],[-122.941487,46.105413],[-122.941386,46.105401],[-122.941358,46.105323],[-122.941257,46.10531],[-122.941248,46.105159],[-122.941202,46.105133],[-122.941127,46.10513],[-122.941126,46.104814],[-122.941087,46.104777],[-122.940998,46.10477],[-122.940999,46.10459],[-122.941033,46.104543],[-122.940999,46.1045],[-122.940997,46.104274],[-122.940958,46.104237],[-122.94087,46.10423],[-122.940841,46.104153],[-122.94074,46.10414],[-122.94076,46.103645],[-122.940713,46.103605],[-122.940612,46.1036],[-122.940612,46.103511],[-122.940686,46.103508],[-122.940732,46.103482],[-122.940741,46.10324],[-122.940816,46.103238],[-122.940862,46.103212],[-122.940871,46.10306],[-122.940945,46.103058],[-122.940991,46.103032],[-122.940985,46.102888],[-122.941117,46.102856],[-122.94113,46.1027],[-122.941242,46.102681],[-122.941292,46.102552],[-122.941206,46.102497],[-122.941029,46.102533],[-122.941001,46.10261],[-122.940919,46.102614],[-122.940875,46.102649],[-122.940887,46.102873],[-122.940764,46.102896],[-122.940741,46.10297],[-122.940612,46.10297],[-122.940613,46.102299],[-122.940572,46.102256],[-122.940484,46.10225],[-122.940481,46.101748],[-122.940436,46.101714],[-122.940355,46.10171],[-122.940337,46.10155],[-122.940226,46.10153],[-122.940213,46.101374],[-122.940096,46.10135],[-122.940097,46.10117],[-122.940131,46.101122],[-122.940097,46.10108],[-122.940084,46.100924],[-122.940027,46.1009],[-122.939709,46.1009],[-122.939686,46.100735],[-122.93945,46.100719],[-122.93945,46.10054],[-122.939525,46.100537],[-122.939571,46.100511],[-122.93958,46.10036],[-122.939709,46.10036],[-122.939715,46.100596],[-122.939757,46.100626],[-122.939838,46.10063],[-122.939873,46.100711],[-122.939968,46.10072],[-122.939996,46.100798],[-122.940226,46.10081],[-122.940239,46.100876],[-122.940356,46.1009],[-122.940361,46.100957],[-122.940403,46.100986],[-122.940744,46.10099],[-122.940757,46.101056],[-122.940873,46.10108],[-122.940879,46.101137],[-122.940921,46.101166],[-122.941261,46.101171],[-122.941274,46.101236],[-122.94139,46.101261],[-122.941419,46.101338],[-122.941649,46.101351],[-122.941662,46.101417],[-122.941778,46.101441],[-122.941784,46.101497],[-122.941826,46.101527],[-122.942138,46.101519],[-122.942166,46.101482],[-122.942167,46.101261],[-122.942384,46.101255],[-122.942422,46.101223],[-122.942426,46.101171],[-122.942943,46.101171],[-122.943004,46.101195],[-122.943072,46.101171],[-122.943202,46.101171],[-122.943182,46.101301],[-122.943215,46.101342],[-122.94359,46.101352],[-122.943612,46.101426],[-122.943719,46.101442],[-122.943719,46.101532],[-122.943685,46.101585],[-122.94375,46.101641],[-122.943943,46.101613],[-122.94398,46.101532],[-122.944236,46.101532],[-122.944246,46.101593],[-122.944299,46.101621],[-122.944624,46.101622],[-122.944628,46.101674],[-122.944665,46.101706],[-122.944883,46.101712],[-122.944896,46.101778],[-122.945012,46.101802],[-122.945016,46.101854],[-122.945053,46.101886],[-122.945271,46.101893],[-122.94528,46.101954],[-122.945333,46.101981],[-122.945659,46.101983],[-122.945677,46.102053],[-122.945788,46.102073],[-122.945801,46.102139],[-122.945918,46.102163],[-122.945921,46.102214],[-122.945959,46.102246],[-122.946435,46.102253],[-122.946453,46.102323],[-122.946564,46.102343],[-122.946599,46.102424],[-122.946694,46.102433],[-122.946722,46.102511],[-122.946952,46.102523],[-122.946952,46.102613],[-122.946864,46.10262],[-122.946824,46.102657],[-122.946845,46.102867],[-122.946952,46.102883],[-122.94697,46.102954],[-122.947081,46.102973],[-122.947091,46.103035],[-122.947144,46.103062],[-122.947414,46.103061],[-122.947464,46.10303],[-122.94747,46.102974],[-122.947599,46.102974],[-122.947599,46.103154],[-122.94751,46.10316],[-122.947471,46.103197],[-122.947469,46.103513],[-122.94734,46.103513],[-122.94734,46.103202],[-122.947292,46.103158],[-122.94702,46.10314],[-122.946958,46.103173],[-122.946952,46.103243],[-122.946591,46.103242],[-122.946564,46.103283],[-122.946586,46.103407],[-122.946693,46.103423],[-122.946699,46.10348],[-122.946748,46.103511],[-122.947081,46.103513],[-122.947104,46.103588],[-122.94721,46.103603],[-122.94721,46.103693],[-122.947103,46.103709],[-122.947081,46.103783],[-122.946962,46.103794],[-122.946945,46.103727],[-122.946896,46.103696],[-122.946489,46.103695],[-122.946435,46.103737],[-122.946434,46.103873],[-122.946304,46.103873],[-122.946295,46.103812],[-122.946242,46.103784],[-122.945945,46.103795],[-122.945916,46.103873],[-122.945835,46.103877],[-122.945793,46.103906],[-122.945786,46.104053],[-122.945705,46.104057],[-122.945663,46.104086],[-122.945657,46.104233],[-122.945562,46.104242],[-122.945527,46.104323],[-122.945416,46.104342],[-122.945398,46.104503],[-122.945316,46.104507],[-122.945274,46.104536],[-122.945268,46.104682],[-122.945234,46.104725],[-122.945274,46.104829],[-122.945316,46.104858],[-122.945397,46.104863],[-122.945403,46.104919],[-122.945445,46.104948],[-122.945656,46.104953],[-122.945662,46.105009],[-122.945711,46.10504],[-122.946096,46.105043],[-122.946151,46.105027],[-122.946174,46.104863],[-122.946281,46.104847],[-122.946303,46.104773],[-122.94642,46.104749],[-122.946433,46.104683],[-122.946528,46.104681],[-122.946574,46.104653],[-122.946563,46.104413],[-122.946674,46.104393],[-122.946692,46.104233],[-122.946774,46.104229],[-122.946818,46.104195],[-122.946854,46.104085],[-122.946799,46.103979],[-122.946692,46.103963],[-122.946692,46.103873],[-122.94694,46.103862],[-122.946974,46.103947],[-122.94708,46.103963],[-122.947115,46.104044],[-122.94721,46.104053],[-122.94719,46.104183],[-122.947237,46.104229],[-122.947413,46.104231],[-122.947463,46.1042],[-122.947469,46.104144],[-122.947598,46.104144],[-122.947599,46.10428],[-122.947653,46.104321],[-122.947786,46.104323],[-122.947839,46.104304],[-122.947857,46.104144],[-122.948115,46.104144],[-122.948115,46.104234],[-122.94802,46.104243],[-122.947986,46.104324],[-122.947904,46.104328],[-122.947862,46.104357],[-122.94786,46.104555],[-122.947904,46.10459],[-122.947986,46.104594],[-122.947991,46.10465],[-122.948041,46.104681],[-122.948503,46.104684],[-122.948509,46.104741],[-122.948558,46.104772],[-122.948891,46.104774],[-122.948891,46.105044],[-122.948655,46.10506],[-122.948632,46.105098],[-122.94865,46.105204],[-122.948822,46.105248],[-122.948972,46.10522],[-122.949014,46.105191],[-122.94902,46.105134],[-122.949137,46.10511],[-122.94915,46.105044],[-122.949279,46.105044],[-122.949279,46.105134],[-122.949191,46.105141],[-122.949151,46.105178],[-122.949149,46.105404],[-122.949068,46.105408],[-122.949023,46.105443],[-122.94902,46.105536],[-122.949048,46.105572],[-122.949232,46.105594],[-122.949275,46.10556],[-122.949279,46.105494],[-122.949408,46.105494],[-122.949477,46.105519],[-122.949538,46.105495],[-122.949741,46.105492],[-122.94979,46.105461],[-122.949796,46.105405],[-122.950314,46.105405],[-122.950313,46.105765],[-122.950219,46.105774],[-122.950184,46.105855],[-122.950068,46.105879],[-122.950054,46.106035],[-122.949973,46.106039],[-122.949928,46.106073],[-122.949925,46.106215],[-122.949796,46.106215],[-122.94979,46.106158],[-122.949741,46.106127],[-122.949537,46.106124],[-122.949519,46.106054],[-122.949408,46.106034],[-122.94939,46.105964],[-122.949278,46.105944],[-122.949265,46.105878],[-122.949149,46.105854],[-122.949143,46.105798],[-122.949094,46.105767],[-122.948919,46.105776],[-122.948891,46.105813],[-122.94889,46.105944],[-122.948788,46.105948],[-122.948743,46.105984],[-122.948795,46.106115],[-122.949019,46.106124],[-122.949037,46.106555],[-122.949089,46.106574],[-122.949278,46.106574],[-122.949284,46.106631],[-122.949333,46.106662],[-122.949666,46.106665],[-122.949688,46.106739],[-122.949811,46.106762],[-122.949795,46.106886],[-122.949829,46.106926],[-122.950021,46.106939],[-122.950073,46.106816],[-122.950033,46.106761],[-122.949909,46.106747],[-122.949925,46.106485],[-122.950183,46.106485],[-122.950218,46.106566],[-122.95038,46.106574],[-122.950433,46.106546],[-122.950442,46.106485],[-122.950554,46.106465],[-122.950572,46.106395],[-122.950897,46.106394],[-122.950951,46.106367],[-122.95096,46.106305],[-122.951281,46.106319],[-122.951345,46.10628],[-122.951345,46.106074],[-122.951301,46.106039],[-122.951219,46.106035],[-122.951219,46.105855],[-122.951254,46.105807],[-122.951219,46.105765],[-122.95121,46.105614],[-122.951157,46.105586],[-122.950961,46.105585],[-122.950958,46.105353],[-122.950913,46.105319],[-122.950832,46.105315],[-122.950803,46.105237],[-122.950573,46.105225],[-122.950573,46.104865],[-122.950702,46.104865],[-122.950725,46.104939],[-122.950832,46.104955],[-122.950812,46.105085],[-122.950852,46.105128],[-122.951349,46.105135],[-122.951353,46.105187],[-122.95139,46.105219],[-122.951608,46.105225],[-122.951614,46.105282],[-122.951663,46.105313],[-122.951867,46.105316],[-122.951876,46.105467],[-122.951922,46.105493],[-122.951996,46.105496],[-122.95203,46.105576],[-122.952125,46.105586],[-122.952128,46.105651],[-122.952171,46.105685],[-122.952513,46.105676],[-122.952522,46.105737],[-122.952583,46.105766],[-122.953031,46.105766],[-122.953065,46.105847],[-122.953289,46.105856],[-122.953323,46.10595],[-122.953548,46.105946],[-122.953577,46.106024],[-122.953807,46.106036],[-122.953816,46.106098],[-122.953869,46.106125],[-122.954262,46.106125],[-122.954315,46.106098],[-122.954325,46.106037],[-122.954583,46.106037],[-122.954583,46.106217],[-122.954509,46.106219],[-122.954463,46.106245],[-122.954453,46.106397],[-122.954337,46.106421],[-122.954327,46.106538],[-122.954387,46.106576],[-122.954583,46.106577],[-122.954589,46.106633],[-122.954631,46.106663],[-122.954841,46.106667],[-122.954843,46.106817],[-122.954888,46.106856],[-122.9551,46.106847],[-122.955103,46.106899],[-122.955141,46.10693],[-122.955359,46.106937],[-122.955393,46.107018],[-122.955555,46.107026],[-122.955608,46.106998],[-122.955618,46.106937],[-122.955712,46.106935],[-122.955759,46.106907],[-122.955747,46.106757],[-122.955854,46.106741],[-122.955877,46.106667],[-122.956006,46.106667],[-122.956029,46.106741],[-122.956135,46.106757],[-122.956137,46.106894],[-122.956183,46.106933],[-122.956353,46.106931],[-122.956391,46.106899],[-122.956394,46.106847],[-122.956782,46.106848],[-122.956795,46.106913],[-122.956912,46.106938],[-122.956946,46.107018],[-122.95717,46.107028],[-122.957176,46.107084],[-122.957225,46.107115],[-122.957429,46.107118],[-122.957442,46.107184],[-122.957558,46.107208],[-122.957593,46.107289],[-122.957817,46.107298],[-122.95784,46.107372],[-122.957946,46.107388],[-122.957946,46.107478],[-122.957872,46.10748],[-122.957826,46.107506],[-122.957817,46.107658],[-122.957499,46.107658],[-122.957442,46.107682],[-122.957428,46.108018],[-122.957354,46.10802],[-122.957308,46.108046],[-122.957305,46.108164],[-122.957347,46.108194],[-122.957428,46.108198],[-122.957446,46.108268],[-122.957557,46.108288],[-122.957567,46.108349],[-122.95762,46.108377],[-122.957891,46.108376],[-122.95794,46.108345],[-122.957946,46.108288],[-122.958075,46.108288]],[[-122.941439,46.104411],[-122.941515,46.104367],[-122.941515,46.104274],[-122.941488,46.104243],[-122.941206,46.10423],[-122.941146,46.10425],[-122.941129,46.104362],[-122.941157,46.104398],[-122.941439,46.104411]],[[-122.941538,46.10292],[-122.941512,46.102824],[-122.94147,46.102795],[-122.941282,46.102806],[-122.941259,46.10288],[-122.941178,46.102885],[-122.941133,46.102919],[-122.941152,46.103135],[-122.941207,46.10315],[-122.941366,46.103135],[-122.941389,46.102971],[-122.941516,46.102954],[-122.941538,46.10292]],[[-122.942812,46.102431],[-122.942799,46.102365],[-122.942683,46.102341],[-122.942677,46.102285],[-122.942635,46.102255],[-122.942295,46.102251],[-122.942286,46.10219],[-122.942233,46.102162],[-122.941907,46.102161],[-122.941906,46.102024],[-122.941845,46.101982],[-122.941689,46.101987],[-122.941652,46.102019],[-122.941648,46.102071],[-122.941437,46.102075],[-122.941395,46.102104],[-122.941389,46.10216],[-122.941283,46.102176],[-122.941248,46.102311],[-122.941294,46.102338],[-122.941389,46.102341],[-122.941389,46.102486],[-122.941422,46.102525],[-122.941648,46.102521],[-122.941649,46.102837],[-122.941688,46.102874],[-122.941777,46.102881],[-122.941776,46.103061],[-122.941557,46.103054],[-122.941521,46.103085],[-122.941518,46.103151],[-122.941423,46.10316],[-122.941388,46.10324],[-122.941307,46.103245],[-122.941265,46.103274],[-122.941265,46.103387],[-122.941307,46.103416],[-122.941388,46.103421],[-122.941411,46.103495],[-122.941647,46.103511],[-122.941653,46.103567],[-122.941702,46.103598],[-122.942035,46.103601],[-122.942096,46.103625],[-122.942259,46.103592],[-122.942294,46.103511],[-122.9424,46.103495],[-122.942453,46.103268],[-122.94237,46.103217],[-122.942294,46.103241],[-122.942165,46.103241],[-122.942165,46.103151],[-122.942199,46.103109],[-122.942165,46.103061],[-122.942165,46.102971],[-122.942368,46.102969],[-122.942418,46.102938],[-122.942424,46.102881],[-122.942641,46.102875],[-122.942681,46.102838],[-122.942683,46.102701],[-122.942871,46.102701],[-122.942924,46.102682],[-122.942938,46.10247],[-122.942894,46.102435],[-122.942812,46.102431]],[[-122.941775,46.104721],[-122.941748,46.10468],[-122.941692,46.104667],[-122.941631,46.104689],[-122.941611,46.104728],[-122.941636,46.104766],[-122.9417,46.104785],[-122.941758,46.104764],[-122.941775,46.104721]],[[-122.942312,46.104186],[-122.942287,46.104084],[-122.942238,46.104053],[-122.942089,46.104053],[-122.942038,46.104089],[-122.942037,46.104193],[-122.942089,46.104229],[-122.942279,46.104222],[-122.942312,46.104186]],[[-122.943332,46.10306],[-122.943364,46.103014],[-122.943313,46.102964],[-122.943329,46.102882],[-122.943446,46.102858],[-122.943458,46.10275],[-122.943411,46.102706],[-122.94327,46.102702],[-122.943209,46.10273],[-122.9432,46.102791],[-122.943112,46.102798],[-122.943071,46.10284],[-122.943076,46.102938],[-122.943118,46.102967],[-122.943216,46.102979],[-122.943216,46.103054],[-122.94286,46.103065],[-122.942813,46.103105],[-122.942811,46.103241],[-122.942595,46.103242],[-122.942541,46.103271],[-122.942568,46.103774],[-122.942457,46.10379],[-122.942423,46.103871],[-122.942306,46.103895],[-122.942293,46.104002],[-122.942328,46.104042],[-122.942753,46.104051],[-122.942809,46.104035],[-122.94283,46.103995],[-122.942807,46.10391],[-122.942763,46.103875],[-122.942681,46.103871],[-122.942682,46.103781],[-122.942811,46.103781],[-122.942817,46.103838],[-122.942866,46.103869],[-122.943007,46.10387],[-122.943056,46.103847],[-122.943104,46.103739],[-122.94307,46.103691],[-122.94307,46.103601],[-122.943165,46.103592],[-122.943199,46.103547],[-122.943196,46.10337],[-122.943152,46.103336],[-122.94307,46.103331],[-122.94307,46.103241],[-122.943199,46.103242],[-122.943209,46.103303],[-122.943262,46.10333],[-122.943403,46.103329],[-122.943457,46.103288],[-122.943445,46.103176],[-122.943329,46.103151],[-122.943332,46.10306]],[[-122.94346,46.10486],[-122.943491,46.104819],[-122.943457,46.10477],[-122.943489,46.104624],[-122.943444,46.104526],[-122.943328,46.104502],[-122.943322,46.104445],[-122.94328,46.104416],[-122.942995,46.104414],[-122.942945,46.104445],[-122.942939,46.104501],[-122.94281,46.104501],[-122.942794,46.104419],[-122.942843,46.104353],[-122.942799,46.104315],[-122.942741,46.104309],[-122.942684,46.104346],[-122.942697,46.104404],[-122.942586,46.10442],[-122.942551,46.104501],[-122.94247,46.104505],[-122.942428,46.104534],[-122.942422,46.104681],[-122.942387,46.104729],[-122.942439,46.104841],[-122.942492,46.104861],[-122.94268,46.104861],[-122.942686,46.104918],[-122.942735,46.104949],[-122.942939,46.104951],[-122.942945,46.105008],[-122.942987,46.105037],[-122.943198,46.105042],[-122.943266,46.105066],[-122.943415,46.105035],[-122.943455,46.104998],[-122.94346,46.10486]],[[-122.942702,46.101936],[-122.942678,46.101835],[-122.942628,46.101803],[-122.94248,46.101803],[-122.942428,46.101839],[-122.942428,46.101943],[-122.94248,46.101979],[-122.94267,46.101972],[-122.942702,46.101936]],[[-122.94286,46.106391],[-122.942934,46.106353],[-122.942929,46.10624],[-122.942875,46.106212],[-122.94272,46.106218],[-122.94268,46.106255],[-122.942688,46.106363],[-122.942741,46.10639],[-122.94286,46.106391]],[[-122.943487,46.104295],[-122.943429,46.104154],[-122.943199,46.104141],[-122.943193,46.104085],[-122.943151,46.104056],[-122.943002,46.104052],[-122.942946,46.104085],[-122.94294,46.104273],[-122.942988,46.104317],[-122.943328,46.104322],[-122.943412,46.104344],[-122.943487,46.104295]],[[-122.944622,46.104052],[-122.944696,46.10405],[-122.944742,46.104024],[-122.944738,46.103896],[-122.944682,46.103872],[-122.944493,46.103872],[-122.94448,46.103806],[-122.944364,46.103782],[-122.944358,46.103725],[-122.944316,46.103696],[-122.944023,46.103696],[-122.943977,46.103735],[-122.943975,46.103872],[-122.943727,46.103883],[-122.943694,46.103798],[-122.943587,46.103782],[-122.943584,46.103716],[-122.943548,46.103685],[-122.943384,46.103694],[-122.943334,46.103725],[-122.943338,46.103843],[-122.943383,46.103869],[-122.943458,46.103872],[-122.943492,46.103953],[-122.943705,46.103951],[-122.943757,46.104045],[-122.943975,46.104052],[-122.943981,46.104109],[-122.94403,46.10414],[-122.944234,46.104142],[-122.944235,46.104279],[-122.944282,46.104318],[-122.944444,46.104318],[-122.944486,46.104289],[-122.944493,46.104232],[-122.944604,46.104212],[-122.944622,46.104052]],[[-122.943847,46.102522],[-122.943867,46.102392],[-122.943827,46.102348],[-122.943589,46.102342],[-122.94352,46.102318],[-122.943436,46.102359],[-122.943427,46.1024],[-122.943487,46.102509],[-122.943734,46.102529],[-122.943683,46.102659],[-122.943718,46.102702],[-122.943734,46.102875],[-122.943793,46.102896],[-122.944058,46.102878],[-122.944105,46.102833],[-122.9441,46.102555],[-122.944044,46.102523],[-122.943847,46.102522]],[[-122.944363,46.104592],[-122.944437,46.10459],[-122.944483,46.104564],[-122.944483,46.104441],[-122.944422,46.104412],[-122.944104,46.104412],[-122.944103,46.104275],[-122.944063,46.104238],[-122.943893,46.104236],[-122.943851,46.104265],[-122.943845,46.104322],[-122.943751,46.104324],[-122.943704,46.104351],[-122.943717,46.104548],[-122.943757,46.104585],[-122.943974,46.104592],[-122.943988,46.104658],[-122.944052,46.104682],[-122.944315,46.104678],[-122.944357,46.104649],[-122.944363,46.104592]],[[-122.944864,46.103403],[-122.944885,46.103263],[-122.944752,46.103242],[-122.944746,46.103186],[-122.944697,46.103155],[-122.943917,46.103152],[-122.94385,46.10319],[-122.943827,46.103371],[-122.943867,46.103415],[-122.943976,46.103422],[-122.943979,46.103474],[-122.944017,46.103506],[-122.944234,46.103512],[-122.94424,46.103569],[-122.944282,46.103598],[-122.944552,46.103602],[-122.944613,46.103574],[-122.944623,46.103512],[-122.944734,46.103492],[-122.944752,46.103422],[-122.944864,46.103403]],[[-122.944602,46.108455],[-122.944621,46.108303],[-122.944488,46.108282],[-122.944475,46.108216],[-122.944359,46.108192],[-122.944331,46.108114],[-122.944141,46.108108],[-122.944104,46.10814],[-122.9441,46.108192],[-122.944012,46.108198],[-122.943972,46.108235],[-122.943971,46.108372],[-122.943936,46.10842],[-122.943971,46.108462],[-122.943979,46.108627],[-122.944046,46.108656],[-122.944207,46.108626],[-122.94423,46.108462],[-122.944488,46.108462],[-122.944494,46.108789],[-122.944543,46.10882],[-122.944707,46.108829],[-122.944746,46.108787],[-122.944747,46.108511],[-122.944706,46.108469],[-122.944602,46.108455]],[[-122.944488,46.109132],[-122.94442,46.109079],[-122.944257,46.109104],[-122.944229,46.109141],[-122.944246,46.109266],[-122.944311,46.109286],[-122.944459,46.10926],[-122.944486,46.109229],[-122.944488,46.109132]],[[-122.946564,46.102613],[-122.946561,46.102561],[-122.946523,46.102529],[-122.946306,46.102523],[-122.946302,46.102471],[-122.946265,46.102439],[-122.946047,46.102433],[-122.946012,46.102352],[-122.945788,46.102343],[-122.945782,46.102286],[-122.945733,46.102255],[-122.94553,46.102253],[-122.945524,46.102196],[-122.945482,46.102167],[-122.945271,46.102162],[-122.945265,46.102106],[-122.945223,46.102077],[-122.944831,46.102072],[-122.944757,46.102111],[-122.944753,46.102252],[-122.944672,46.102256],[-122.94463,46.102285],[-122.944624,46.102432],[-122.944529,46.102435],[-122.94448,46.102467],[-122.944494,46.102612],[-122.944459,46.10266],[-122.944507,46.102768],[-122.944623,46.102792],[-122.944627,46.102844],[-122.944664,46.102876],[-122.944882,46.102882],[-122.944885,46.102934],[-122.944923,46.102966],[-122.945141,46.102972],[-122.945175,46.103053],[-122.945399,46.103063],[-122.945405,46.103119],[-122.945454,46.10315],[-122.945658,46.103153],[-122.945664,46.103209],[-122.945706,46.103239],[-122.945917,46.103243],[-122.945923,46.103299],[-122.945965,46.103329],[-122.946227,46.103333],[-122.946292,46.103309],[-122.946305,46.103243],[-122.946379,46.103241],[-122.946425,46.103214],[-122.946434,46.103063],[-122.946516,46.103059],[-122.94656,46.103025],[-122.946564,46.102883],[-122.946645,46.102879],[-122.94669,46.102845],[-122.946688,46.102646],[-122.946646,46.102617],[-122.946564,46.102613]],[[-122.944746,46.109403],[-122.944678,46.109349],[-122.944516,46.109374],[-122.944488,46.109411],[-122.944504,46.109536],[-122.94457,46.109556],[-122.944718,46.10953],[-122.944744,46.109499],[-122.944746,46.109403]],[[-122.945269,46.107722],[-122.945252,46.107587],[-122.945136,46.107562],[-122.945102,46.107482],[-122.944918,46.107479],[-122.944881,46.107511],[-122.944877,46.107562],[-122.944782,46.107571],[-122.944748,46.107652],[-122.944674,46.107655],[-122.944628,46.107681],[-122.944627,46.107894],[-122.944809,46.107946],[-122.944965,46.107916],[-122.945003,46.107884],[-122.945007,46.107833],[-122.945123,46.107809],[-122.945136,46.107743],[-122.945269,46.107722]],[[-122.947725,46.106844],[-122.947806,46.10684],[-122.947848,46.10681],[-122.947848,46.106607],[-122.947792,46.106575],[-122.947596,46.106574],[-122.947583,46.106508],[-122.947466,46.106484],[-122.947463,46.106432],[-122.947425,46.1064],[-122.947208,46.106393],[-122.947204,46.106342],[-122.947167,46.10631],[-122.946997,46.106307],[-122.94695,46.106347],[-122.946949,46.106483],[-122.946842,46.106499],[-122.946819,46.106573],[-122.946701,46.106584],[-122.94669,46.106483],[-122.946778,46.106477],[-122.946818,46.10644],[-122.946818,46.106347],[-122.946785,46.106312],[-122.946561,46.106303],[-122.946532,46.106225],[-122.946302,46.106213],[-122.946293,46.106152],[-122.946232,46.106123],[-122.945969,46.106125],[-122.94592,46.106156],[-122.945914,46.106213],[-122.945784,46.106213],[-122.945767,46.106143],[-122.945655,46.106123],[-122.945621,46.106042],[-122.945526,46.106033],[-122.945497,46.105955],[-122.945267,46.105942],[-122.945261,46.105886],[-122.945212,46.105855],[-122.945031,46.105868],[-122.945008,46.105942],[-122.944927,46.105946],[-122.944885,46.105976],[-122.944879,46.106122],[-122.944784,46.106131],[-122.944749,46.106212],[-122.944668,46.106216],[-122.944623,46.106251],[-122.944623,46.106444],[-122.944668,46.106478],[-122.944749,46.106482],[-122.944777,46.10656],[-122.945008,46.106572],[-122.945014,46.106629],[-122.945063,46.10666],[-122.945266,46.106663],[-122.945272,46.106719],[-122.945314,46.106748],[-122.945525,46.106753],[-122.945531,46.106809],[-122.945573,46.106839],[-122.945784,46.106843],[-122.94579,46.106899],[-122.945832,46.106929],[-122.946042,46.106933],[-122.946048,46.10699],[-122.946097,46.107021],[-122.946278,46.107007],[-122.946301,46.106933],[-122.946396,46.106924],[-122.946431,46.106843],[-122.946505,46.106841],[-122.946551,46.106815],[-122.94656,46.106663],[-122.946679,46.106652],[-122.946689,46.106843],[-122.946595,46.106852],[-122.94656,46.106933],[-122.946479,46.106937],[-122.946434,46.106971],[-122.946446,46.107195],[-122.946214,46.107204],[-122.946154,46.107243],[-122.946185,46.107359],[-122.946301,46.107383],[-122.946307,46.10744],[-122.946356,46.107471],[-122.946619,46.107473],[-122.94668,46.107445],[-122.946704,46.107328],[-122.946654,46.107296],[-122.94656,46.107293],[-122.94656,46.107203],[-122.946818,46.107203],[-122.946832,46.107269],[-122.946948,46.107293],[-122.946954,46.10735],[-122.947003,46.107381],[-122.947301,46.107374],[-122.947336,46.107335],[-122.947336,46.107204],[-122.947431,46.107194],[-122.947466,46.107114],[-122.947577,46.107094],[-122.947595,46.106934],[-122.947702,46.106918],[-122.947725,46.106844]],[[-122.945399,46.103332],[-122.945386,46.103267],[-122.94527,46.103242],[-122.945235,46.103162],[-122.945039,46.103165],[-122.944976,46.103285],[-122.945011,46.103332],[-122.945011,46.103422],[-122.944916,46.103431],[-122.944881,46.103512],[-122.944765,46.103536],[-122.944769,46.103673],[-122.944822,46.103692],[-122.945085,46.10369],[-122.945134,46.103659],[-122.94514,46.103602],[-122.945256,46.103578],[-122.94527,46.103513],[-122.9455,46.1035],[-122.945528,46.103464],[-122.945523,46.103366],[-122.945481,46.103337],[-122.945399,46.103332]],[[-122.945087,46.108557],[-122.944944,46.108539],[-122.944889,46.108563],[-122.94488,46.108694],[-122.944931,46.10873],[-122.94508,46.10873],[-122.945132,46.108694],[-122.945132,46.108591],[-122.945087,46.108557]],[[-122.945563,46.10392],[-122.945493,46.103792],[-122.945339,46.103783],[-122.945278,46.103811],[-122.945269,46.103872],[-122.945153,46.103896],[-122.945139,46.104052],[-122.945051,46.104059],[-122.945011,46.104101],[-122.94501,46.104377],[-122.945049,46.104419],[-122.945234,46.104403],[-122.945269,46.104323],[-122.945364,46.104313],[-122.945398,46.104233],[-122.945514,46.104209],[-122.945528,46.103963],[-122.945563,46.10392]],[[-122.945907,46.103664],[-122.945934,46.103553],[-122.945889,46.103517],[-122.945591,46.103514],[-122.945532,46.103551],[-122.94553,46.103649],[-122.945591,46.103692],[-122.945854,46.103692],[-122.945907,46.103664]],[[-122.946227,46.103693],[-122.946301,46.103655],[-122.946291,46.103537],[-122.946235,46.103513],[-122.94606,46.103522],[-122.946026,46.103569],[-122.946059,46.103669],[-122.946108,46.103692],[-122.946227,46.103693]],[[-122.948479,46.105748],[-122.948521,46.105629],[-122.948482,46.105591],[-122.948244,46.105584],[-122.948226,46.105514],[-122.948114,46.105494],[-122.948101,46.105428],[-122.947985,46.105404],[-122.947979,46.105347],[-122.947937,46.105318],[-122.947515,46.105318],[-122.947469,46.105357],[-122.947467,46.105493],[-122.947338,46.105493],[-122.947334,46.105442],[-122.947297,46.10541],[-122.947079,46.105403],[-122.947062,46.105333],[-122.94695,46.105313],[-122.946937,46.105247],[-122.946821,46.105223],[-122.946786,46.105142],[-122.946502,46.105133],[-122.946436,46.105171],[-122.946432,46.105313],[-122.946351,46.105317],[-122.946309,46.105346],[-122.946303,46.105493],[-122.946208,46.105502],[-122.946173,46.105583],[-122.946099,46.105585],[-122.946053,46.105611],[-122.946044,46.105804],[-122.946099,46.105851],[-122.946302,46.105853],[-122.946308,46.10591],[-122.94635,46.105939],[-122.946561,46.105943],[-122.946567,46.106],[-122.946616,46.106031],[-122.947078,46.106033],[-122.947092,46.106099],[-122.947208,46.106124],[-122.947236,46.106201],[-122.947466,46.106214],[-122.947472,46.10627],[-122.947514,46.106299],[-122.947785,46.106303],[-122.947845,46.106275],[-122.947855,46.106214],[-122.947966,46.106194],[-122.947984,46.106124],[-122.948173,46.106124],[-122.948225,46.106104],[-122.948243,46.105944],[-122.948359,46.10592],[-122.948373,46.105764],[-122.948479,46.105748]],[[-122.948253,46.107804],[-122.948238,46.107692],[-122.9482,46.10766],[-122.947983,46.107654],[-122.94797,46.107588],[-122.947853,46.107564],[-122.947848,46.107507],[-122.947798,46.107476],[-122.947277,46.107474],[-122.94721,46.107512],[-122.947195,46.107624],[-122.947241,46.107651],[-122.947336,46.107654],[-122.947341,46.107724],[-122.947389,46.107755],[-122.947724,46.107744],[-122.94773,46.1078],[-122.947779,46.107831],[-122.948184,46.107834],[-122.948253,46.107804]],[[-122.950212,46.110387],[-122.950174,46.110298],[-122.950125,46.110267],[-122.949976,46.110267],[-122.949925,46.110303],[-122.949934,46.110421],[-122.950096,46.110467],[-122.950149,46.110464],[-122.950204,46.110428],[-122.950212,46.110387]],[[-122.950101,46.108011],[-122.950251,46.108027],[-122.950303,46.108],[-122.950306,46.107868],[-122.950249,46.107836],[-122.95008,46.107839],[-122.950033,46.107885],[-122.950059,46.107981],[-122.950101,46.108011]],[[-122.950976,46.110575],[-122.950957,46.110355],[-122.951045,46.110349],[-122.951084,46.110312],[-122.951083,46.110124],[-122.951038,46.110089],[-122.950957,46.110085],[-122.950953,46.110034],[-122.950916,46.110002],[-122.950753,46.109997],[-122.950704,46.110028],[-122.950698,46.110085],[-122.950616,46.110089],[-122.950572,46.110123],[-122.950568,46.110265],[-122.950534,46.110307],[-122.950568,46.110355],[-122.950568,46.110535],[-122.950473,46.110537],[-122.950431,46.11056],[-122.950444,46.110682],[-122.950486,46.110711],[-122.950568,46.110715],[-122.950571,46.110767],[-122.950609,46.110799],[-122.950779,46.110801],[-122.950825,46.110762],[-122.950827,46.110625],[-122.950954,46.110609],[-122.950976,46.110575]],[[-122.952253,46.108016],[-122.952249,46.107964],[-122.952212,46.107932],[-122.951994,46.107926],[-122.951992,46.107789],[-122.951939,46.107748],[-122.951776,46.107752],[-122.951738,46.107784],[-122.951735,46.107835],[-122.951654,46.10784],[-122.951609,46.107874],[-122.951611,46.108072],[-122.951653,46.108101],[-122.951735,46.108106],[-122.95174,46.108176],[-122.951788,46.108207],[-122.952121,46.108196],[-122.952192,46.10822],[-122.952341,46.108189],[-122.95238,46.108152],[-122.952379,46.108054],[-122.952334,46.10802],[-122.952253,46.108016]],[[-122.953711,46.107079],[-122.953664,46.10696],[-122.953547,46.106936],[-122.953513,46.106855],[-122.953289,46.106846],[-122.953289,46.106756],[-122.953323,46.106703],[-122.953257,46.106647],[-122.953157,46.106666],[-122.952954,46.106655],[-122.952906,46.106686],[-122.95289,46.106767],[-122.952755,46.106748],[-122.952765,46.106519],[-122.952723,46.10649],[-122.952642,46.106486],[-122.952608,46.106405],[-122.952513,46.106396],[-122.95251,46.106331],[-122.952473,46.106299],[-122.951995,46.106306],[-122.951989,46.106249],[-122.95194,46.106218],[-122.951799,46.106217],[-122.951746,46.106244],[-122.951749,46.106371],[-122.951866,46.106396],[-122.9519,46.106476],[-122.951995,46.106486],[-122.951995,46.106631],[-122.952022,46.106667],[-122.952512,46.106666],[-122.952535,46.10674],[-122.952658,46.106763],[-122.952642,46.106846],[-122.95256,46.10685],[-122.952516,46.106884],[-122.952514,46.106982],[-122.952553,46.107019],[-122.952859,46.10702],[-122.952899,46.106982],[-122.952901,46.106846],[-122.95303,46.106846],[-122.953053,46.10692],[-122.953159,46.106937],[-122.953159,46.107026],[-122.953078,46.10703],[-122.953036,46.107059],[-122.953033,46.107168],[-122.953071,46.1072],[-122.95322,46.10723],[-122.953389,46.107194],[-122.953418,46.107116],[-122.953652,46.107133],[-122.953711,46.107079]],[[-122.953157,46.110176],[-122.95316,46.110107],[-122.953107,46.110086],[-122.953038,46.110097],[-122.953014,46.11002],[-122.952898,46.109996],[-122.952863,46.109915],[-122.952639,46.109906],[-122.95263,46.109844],[-122.952577,46.109817],[-122.952251,46.109816],[-122.952242,46.109754],[-122.952189,46.109727],[-122.951897,46.109735],[-122.951863,46.109774],[-122.951863,46.109906],[-122.951774,46.109912],[-122.951735,46.109949],[-122.951735,46.110042],[-122.951768,46.110076],[-122.951992,46.110086],[-122.951998,46.110142],[-122.952047,46.110173],[-122.952251,46.110176],[-122.952252,46.110312],[-122.952313,46.110355],[-122.952584,46.110354],[-122.952633,46.110323],[-122.952639,46.110266],[-122.95287,46.110267],[-122.952898,46.110176],[-122.953016,46.110165],[-122.953096,46.1102],[-122.953157,46.110176]],[[-122.952269,46.111925],[-122.952249,46.111796],[-122.952338,46.111789],[-122.952377,46.111752],[-122.952379,46.111485],[-122.952331,46.11144],[-122.95219,46.111436],[-122.952129,46.111464],[-122.95212,46.111526],[-122.952046,46.111528],[-122.952,46.111554],[-122.95199,46.111706],[-122.951916,46.111708],[-122.95187,46.111734],[-122.951842,46.111931],[-122.951888,46.111971],[-122.952066,46.111999],[-122.952241,46.111963],[-122.952269,46.111925]],[[-122.952165,46.107109],[-122.952315,46.107129],[-122.95237,46.107105],[-122.952381,46.106979],[-122.952335,46.10694],[-122.952184,46.106923],[-122.952127,46.10696],[-122.952125,46.107072],[-122.952165,46.107109]],[[-122.952145,46.10854],[-122.95245,46.108568],[-122.952505,46.108536],[-122.952488,46.108392],[-122.952433,46.108376],[-122.952145,46.108391],[-122.952123,46.10843],[-122.952145,46.10854]],[[-122.952471,46.107572],[-122.952321,46.107552],[-122.952265,46.107576],[-122.952254,46.107702],[-122.952301,46.107742],[-122.952451,46.107758],[-122.952508,46.107721],[-122.95251,46.107609],[-122.952471,46.107572]],[[-122.952435,46.105946],[-122.95251,46.105907],[-122.952504,46.105794],[-122.952451,46.105767],[-122.952295,46.105772],[-122.952256,46.105809],[-122.952263,46.105917],[-122.952317,46.105945],[-122.952435,46.105946]],[[-122.952823,46.106126],[-122.952898,46.106088],[-122.952892,46.105974],[-122.952839,46.105947],[-122.952683,46.105952],[-122.952646,46.105984],[-122.952631,46.106096],[-122.952685,46.106125],[-122.952823,46.106126]],[[-122.953543,46.111656],[-122.953483,46.111604],[-122.953285,46.111616],[-122.953279,46.11156],[-122.95323,46.111529],[-122.952835,46.111513],[-122.952773,46.111546],[-122.952767,46.111616],[-122.952651,46.11164],[-122.952619,46.111751],[-122.952665,46.111792],[-122.952767,46.111796],[-122.95278,46.111862],[-122.952896,46.111886],[-122.952899,46.111938],[-122.952937,46.11197],[-122.953234,46.111976],[-122.953303,46.111931],[-122.953285,46.111796],[-122.953515,46.111784],[-122.953542,46.111753],[-122.953543,46.111656]],[[-122.952822,46.107476],[-122.952897,46.107438],[-122.952891,46.107325],[-122.952838,46.107297],[-122.952681,46.107289],[-122.952642,46.107331],[-122.95265,46.107447],[-122.952704,46.107475],[-122.952822,46.107476]],[[-122.95497,46.108467],[-122.954964,46.10832],[-122.954922,46.108291],[-122.95484,46.108287],[-122.954834,46.10814],[-122.954792,46.108111],[-122.954711,46.108107],[-122.954705,46.10796],[-122.954663,46.107931],[-122.954582,46.107927],[-122.954576,46.10778],[-122.954534,46.107751],[-122.954453,46.107747],[-122.954447,46.1076],[-122.954405,46.107571],[-122.954323,46.107566],[-122.95432,46.107425],[-122.954275,46.107391],[-122.954194,46.107386],[-122.954193,46.10725],[-122.954153,46.107213],[-122.953724,46.10721],[-122.953682,46.10724],[-122.953676,46.107296],[-122.953446,46.107308],[-122.953417,46.107386],[-122.953301,46.10741],[-122.953288,46.107476],[-122.953077,46.10748],[-122.953035,46.107509],[-122.953029,46.107566],[-122.952818,46.10757],[-122.952776,46.107599],[-122.95277,46.107656],[-122.952696,46.107658],[-122.95265,46.107684],[-122.95265,46.107807],[-122.952696,46.107834],[-122.95277,46.107836],[-122.952779,46.108167],[-122.952832,46.108195],[-122.953029,46.108196],[-122.95303,46.108513],[-122.953069,46.10855],[-122.953158,46.108556],[-122.95318,46.10881],[-122.953287,46.108826],[-122.953305,46.108896],[-122.953416,46.108916],[-122.953434,46.108986],[-122.953546,46.109006],[-122.953555,46.109068],[-122.953616,46.109096],[-122.953879,46.109094],[-122.953928,46.109063],[-122.953934,46.109006],[-122.954138,46.109004],[-122.954187,46.108973],[-122.954193,46.108917],[-122.954338,46.108924],[-122.954322,46.109007],[-122.954215,46.109022],[-122.954192,46.109096],[-122.953982,46.109101],[-122.95394,46.10913],[-122.953934,46.109186],[-122.953827,46.109202],[-122.953805,46.109318],[-122.953845,46.10936],[-122.953933,46.109366],[-122.953934,46.109498],[-122.953962,46.109534],[-122.954192,46.109547],[-122.954198,46.109603],[-122.954247,46.109634],[-122.954451,46.109637],[-122.954457,46.109693],[-122.954506,46.109724],[-122.954791,46.109723],[-122.954833,46.109693],[-122.954839,46.109637],[-122.954921,46.109633],[-122.954965,46.109599],[-122.95496,46.109215],[-122.954906,46.109188],[-122.95471,46.109187],[-122.954687,46.109113],[-122.954581,46.109097],[-122.954568,46.108941],[-122.954436,46.108909],[-122.954452,46.108827],[-122.954662,46.108823],[-122.954704,46.108793],[-122.954711,46.108737],[-122.954921,46.108733],[-122.954963,46.108703],[-122.954969,46.108647],[-122.955081,46.108627],[-122.95509,46.108495],[-122.955044,46.108469],[-122.95497,46.108467]],[[-122.952949,46.112347],[-122.953142,46.112312],[-122.953151,46.112194],[-122.9531,46.112158],[-122.952951,46.112158],[-122.952897,46.1122],[-122.952899,46.112311],[-122.952949,46.112347]],[[-122.953418,46.106451],[-122.953436,46.106166],[-122.953384,46.106129],[-122.953221,46.106102],[-122.953072,46.106132],[-122.953031,46.106175],[-122.953039,46.106367],[-122.953085,46.106394],[-122.95316,46.106396],[-122.953163,46.106448],[-122.953201,46.10648],[-122.953379,46.106493],[-122.953418,46.106451]],[[-122.953418,46.109818],[-122.953347,46.109792],[-122.953179,46.109832],[-122.953157,46.109956],[-122.953184,46.109997],[-122.953247,46.110009],[-122.953393,46.10998],[-122.953449,46.109869],[-122.953418,46.109818]],[[-122.953544,46.111526],[-122.95378,46.111511],[-122.953802,46.111472],[-122.95378,46.111362],[-122.953414,46.111346],[-122.953405,46.111285],[-122.953352,46.111257],[-122.953178,46.111272],[-122.953155,46.11131],[-122.953178,46.11142],[-122.953285,46.111436],[-122.953291,46.111493],[-122.953333,46.111522],[-122.953475,46.11155],[-122.953544,46.111526]],[[-122.953939,46.106578],[-122.953882,46.106553],[-122.953825,46.106563],[-122.953774,46.106608],[-122.953787,46.106654],[-122.953852,46.106689],[-122.953917,46.10668],[-122.95397,46.106629],[-122.953939,46.106578]],[[-122.954323,46.111708],[-122.954265,46.111693],[-122.954207,46.111713],[-122.954191,46.111762],[-122.954218,46.111798],[-122.95428,46.11181],[-122.954339,46.111784],[-122.954354,46.111744],[-122.954323,46.111708]],[[-122.955098,46.110037],[-122.95503,46.109983],[-122.95485,46.110008],[-122.954826,46.109931],[-122.954761,46.109907],[-122.954608,46.109919],[-122.954569,46.110008],[-122.954382,46.109973],[-122.954215,46.110012],[-122.954198,46.110143],[-122.95424,46.110172],[-122.954321,46.110177],[-122.954321,46.110496],[-122.954343,46.110534],[-122.954411,46.11055],[-122.954532,46.110533],[-122.954574,46.110503],[-122.954614,46.110404],[-122.95458,46.110357],[-122.954591,46.110076],[-122.954828,46.110076],[-122.954847,46.110162],[-122.954921,46.110191],[-122.95508,46.110157],[-122.955098,46.110037]],[[-122.955246,46.107347],[-122.955223,46.10724],[-122.955174,46.107209],[-122.954841,46.107207],[-122.954841,46.106972],[-122.954795,46.106928],[-122.954624,46.106943],[-122.954586,46.106975],[-122.954582,46.107027],[-122.954501,46.107031],[-122.954459,46.10706],[-122.954466,46.107183],[-122.954582,46.107207],[-122.954595,46.107273],[-122.954712,46.107297],[-122.954717,46.107353],[-122.954759,46.107383],[-122.95497,46.107387],[-122.955031,46.107411],[-122.955194,46.107384],[-122.955246,46.107347]],[[-122.955118,46.107792],[-122.955094,46.10769],[-122.955052,46.107661],[-122.954908,46.107643],[-122.954846,46.107677],[-122.954842,46.107793],[-122.954888,46.107833],[-122.955079,46.10783],[-122.955118,46.107792]],[[-122.955231,46.108918],[-122.955159,46.108893],[-122.954992,46.108933],[-122.954969,46.108971],[-122.954992,46.109081],[-122.955047,46.109097],[-122.955205,46.109081],[-122.955262,46.10897],[-122.955231,46.108918]],[[-122.955555,46.107388],[-122.955289,46.107374],[-122.955238,46.107402],[-122.955235,46.107534],[-122.955277,46.107563],[-122.955358,46.107567],[-122.955359,46.107698],[-122.955387,46.107735],[-122.955569,46.107743],[-122.955617,46.107698],[-122.955611,46.10742],[-122.955555,46.107388]],[[-122.955616,46.108507],[-122.955595,46.10847],[-122.955541,46.108453],[-122.955406,46.108471],[-122.955361,46.108505],[-122.955358,46.108868],[-122.955412,46.108915],[-122.955561,46.108915],[-122.955613,46.108879],[-122.955616,46.108507]],[[-122.955617,46.108237],[-122.955589,46.108196],[-122.955534,46.108183],[-122.955473,46.108206],[-122.955453,46.108245],[-122.955478,46.108282],[-122.955541,46.108301],[-122.9556,46.108281],[-122.955617,46.108237]],[[-122.955617,46.108017],[-122.955636,46.107972],[-122.955603,46.107937],[-122.95553,46.107928],[-122.95548,46.107952],[-122.95547,46.107994],[-122.955506,46.108031],[-122.955564,46.108041],[-122.955617,46.108017]],[[-122.957041,46.107388],[-122.957122,46.107384],[-122.957167,46.107349],[-122.957169,46.107251],[-122.957129,46.107214],[-122.956952,46.107214],[-122.956915,46.107246],[-122.956911,46.107297],[-122.956653,46.107297],[-122.95663,46.107223],[-122.956523,46.107207],[-122.956522,46.107071],[-122.956482,46.107034],[-122.956081,46.107013],[-122.956015,46.107042],[-122.956009,46.107169],[-122.956054,46.107203],[-122.956135,46.107207],[-122.956153,46.107368],[-122.956264,46.107387],[-122.95627,46.107444],[-122.956312,46.107473],[-122.956523,46.107477],[-122.956536,46.107543],[-122.956652,46.107568],[-122.956656,46.107619],[-122.956693,46.107651],[-122.956888,46.107642],[-122.956911,46.107478],[-122.957018,46.107462],[-122.957041,46.107388]],[[-122.956833,46.108378],[-122.956909,46.108334],[-122.956893,46.108127],[-122.956833,46.108108],[-122.95653,46.10812],[-122.956503,46.108163],[-122.95654,46.108358],[-122.956592,46.108377],[-122.956833,46.108378]]]}},{"type":"Feature","properties":{"id":1,"area_m2":62600,"px":626,"rank":2,"persistent":false},"geometry":{"type":"Polygon","coordinates":[[[-122.944614,46.111702],[-122.944614,46.111792],[-122.944519,46.111801],[-122.944485,46.111882],[-122.94441,46.111885],[-122.944365,46.111911],[-122.944355,46.112062],[-122.944243,46.112082],[-122.944226,46.112242],[-122.944144,46.112246],[-122.944102,46.112275],[-122.944096,46.112422],[-122.944001,46.112424],[-122.943955,46.112452],[-122.943966,46.112602],[-122.943892,46.112604],[-122.943846,46.112631],[-122.943837,46.112782],[-122.943707,46.112782],[-122.943639,46.112758],[-122.943471,46.112798],[-122.943448,46.112962],[-122.943367,46.112966],[-122.943322,46.113],[-122.943317,46.113142],[-122.94306,46.113142],[-122.943042,46.113071],[-122.942931,46.113051],[-122.942922,46.11299],[-122.942868,46.112963],[-122.94272,46.112966],[-122.942678,46.112995],[-122.942672,46.113051],[-122.942543,46.113051],[-122.942525,46.112981],[-122.942413,46.112961],[-122.942396,46.112891],[-122.942284,46.112871],[-122.942271,46.112805],[-122.942155,46.112781],[-122.942151,46.112729],[-122.942114,46.112697],[-122.941508,46.112691],[-122.941504,46.112639],[-122.941467,46.112607],[-122.941249,46.112601],[-122.941221,46.112523],[-122.94099,46.11251],[-122.940984,46.112454],[-122.940942,46.112425],[-122.940732,46.11242],[-122.940718,46.112354],[-122.940602,46.11233],[-122.940599,46.112279],[-122.940561,46.112247],[-122.940343,46.11224],[-122.94034,46.112189],[-122.940302,46.112157],[-122.940085,46.11215],[-122.940081,46.112098],[-122.940044,46.112066],[-122.939826,46.11206],[-122.939823,46.112008],[-122.939785,46.111976],[-122.939567,46.11197],[-122.939564,46.111918],[-122.939526,46.111886],[-122.939309,46.111878],[-122.939309,46.11179],[-122.93939,46.111786],[-122.939435,46.111751],[-122.939438,46.11161],[-122.939533,46.111601],[-122.939568,46.11152],[-122.939649,46.111516],[-122.939691,46.111487],[-122.939698,46.11125],[-122.939792,46.111241],[-122.939827,46.11116],[-122.939939,46.11114],[-122.939957,46.11098],[-122.940038,46.110976],[-122.94008,46.110947],[-122.940086,46.11071],[-122.940193,46.110694],[-122.940216,46.11062],[-122.940332,46.110596],[-122.940345,46.11053],[-122.940542,46.110529],[-122.940598,46.110497],[-122.940595,46.110379],[-122.940549,46.110353],[-122.940475,46.11035],[-122.940475,46.11017],[-122.94051,46.110128],[-122.940475,46.11008],[-122.940475,46.1099],[-122.940688,46.10991],[-122.940731,46.109876],[-122.940734,46.10981],[-122.940846,46.109791],[-122.940866,46.10954],[-122.940993,46.109541],[-122.940999,46.109611],[-122.941046,46.109642],[-122.941252,46.109631],[-122.941258,46.109687],[-122.9413,46.109717],[-122.941511,46.109721],[-122.941511,46.109811],[-122.941422,46.109817],[-122.941383,46.109854],[-122.941383,46.109947],[-122.941429,46.109987],[-122.941594,46.110013],[-122.941747,46.109975],[-122.941769,46.109901],[-122.942028,46.109901],[-122.942028,46.110081],[-122.941993,46.110129],[-122.942028,46.110171],[-122.942029,46.110308],[-122.942069,46.110345],[-122.942157,46.110351],[-122.942158,46.110668],[-122.942198,46.110705],[-122.942286,46.110711],[-122.942287,46.110848],[-122.942327,46.110885],[-122.94249,46.110889],[-122.942544,46.110843],[-122.942544,46.110575],[-122.942504,46.110538],[-122.942416,46.110531],[-122.942416,46.110351],[-122.942634,46.110345],[-122.942671,46.110313],[-122.942675,46.110261],[-122.942933,46.110262],[-122.942937,46.110313],[-122.942975,46.110345],[-122.943192,46.110352],[-122.943192,46.110442],[-122.94309,46.110446],[-122.943046,46.110481],[-122.943078,46.110704],[-122.942981,46.110716],[-122.942936,46.11075],[-122.942934,46.110848],[-122.942981,46.110887],[-122.943142,46.110891],[-122.943195,46.110871],[-122.943192,46.110712],[-122.943552,46.1107],[-122.94358,46.110663],[-122.94358,46.110532],[-122.94371,46.110532],[-122.943716,46.110589],[-122.943765,46.11062],[-122.943968,46.110622],[-122.943974,46.110679],[-122.944016,46.110708],[-122.944227,46.110712],[-122.944233,46.110769],[-122.944275,46.110798],[-122.944486,46.110802],[-122.944486,46.110982],[-122.944003,46.110991],[-122.943968,46.111072],[-122.943894,46.111074],[-122.943848,46.1111],[-122.943838,46.111252],[-122.943727,46.111272],[-122.943689,46.111381],[-122.943729,46.111425],[-122.943838,46.111432],[-122.943841,46.111484],[-122.943879,46.111516],[-122.944097,46.111522],[-122.944098,46.111659],[-122.944138,46.111696],[-122.944614,46.111702]],[[-122.941701,46.110967],[-122.941532,46.110997],[-122.941509,46.111071],[-122.94138,46.111071],[-122.94138,46.110891],[-122.941468,46.110884],[-122.941508,46.110847],[-122.94151,46.110711],[-122.941544,46.110668],[-122.94151,46.110621],[-122.94151,46.110531],[-122.941611,46.110519],[-122.941639,46.110441],[-122.941728,46.110434],[-122.941767,46.110397],[-122.941756,46.110285],[-122.94164,46.110261],[-122.941623,46.110087],[-122.941557,46.110067],[-122.941394,46.110105],[-122.941381,46.110351],[-122.941274,46.110366],[-122.941251,46.110441],[-122.940992,46.11044],[-122.940971,46.110263],[-122.94091,46.110247],[-122.940762,46.110273],[-122.940734,46.110314],[-122.940733,46.11071],[-122.940621,46.11073],[-122.940604,46.11089],[-122.940515,46.110897],[-122.940475,46.110939],[-122.940487,46.111046],[-122.940603,46.11107],[-122.940603,46.11116],[-122.940529,46.111163],[-122.940483,46.111189],[-122.940474,46.11134],[-122.940379,46.111349],[-122.940344,46.11143],[-122.940263,46.111434],[-122.940221,46.111463],[-122.940214,46.11179],[-122.940126,46.111796],[-122.940085,46.111839],[-122.940108,46.112044],[-122.940343,46.11206],[-122.940349,46.112117],[-122.940399,46.112148],[-122.940602,46.11215],[-122.940608,46.112207],[-122.94065,46.112236],[-122.940861,46.112241],[-122.94087,46.112302],[-122.940923,46.112329],[-122.941079,46.112324],[-122.941116,46.112292],[-122.94112,46.112241],[-122.941227,46.112225],[-122.94125,46.112061],[-122.941331,46.112057],[-122.941376,46.112022],[-122.941379,46.111881],[-122.941461,46.111877],[-122.941503,46.111847],[-122.941509,46.111701],[-122.941597,46.111694],[-122.941637,46.111657],[-122.941637,46.111474],[-122.941597,46.111437],[-122.941509,46.111431],[-122.941509,46.111251],[-122.94161,46.111239],[-122.941639,46.111161],[-122.941734,46.111152],[-122.941768,46.111107],[-122.941756,46.110992],[-122.941701,46.110967]],[[-122.943339,46.112017],[-122.94332,46.11184],[-122.943286,46.111801],[-122.943061,46.111792],[-122.943052,46.11173],[-122.942999,46.111703],[-122.942865,46.111703],[-122.942816,46.111725],[-122.942783,46.111916],[-122.942816,46.111962],[-122.943061,46.111972],[-122.943074,46.112038],[-122.943139,46.112062],[-122.943306,46.112052],[-122.943339,46.112017]],[[-122.943453,46.11107],[-122.943484,46.111035],[-122.94347,46.110994],[-122.943411,46.110969],[-122.943348,46.110981],[-122.943321,46.111017],[-122.943338,46.111065],[-122.943396,46.111086],[-122.943453,46.11107]]]}},{"type":"Feature","properties":{"id":4,"area_m2":10300,"px":103,"rank":3,"persistent":false},"geometry":{"type":"Polygon","coordinates":[[[-122.947722,46.109364],[-122.947722,46.109454],[-122.947526,46.109455],[-122.947473,46.109482],[-122.947463,46.109724],[-122.947389,46.109726],[-122.947343,46.109752],[-122.947333,46.109994],[-122.947227,46.110009],[-122.947204,46.110083],[-122.947086,46.110094],[-122.947066,46.110009],[-122.947007,46.10998],[-122.946729,46.109994],[-122.946675,46.110023],[-122.94669,46.110135],[-122.946727,46.110167],[-122.947074,46.110173],[-122.947074,46.110263],[-122.946993,46.110268],[-122.946948,46.110302],[-122.946945,46.110443],[-122.946838,46.110459],[-122.946815,46.110533],[-122.946686,46.110533],[-122.94668,46.110477],[-122.946631,46.110446],[-122.946427,46.110443],[-122.946421,46.110387],[-122.946379,46.110357],[-122.946169,46.110353],[-122.946165,46.110288],[-122.946122,46.110254],[-122.94591,46.110263],[-122.945907,46.110211],[-122.945869,46.110179],[-122.945651,46.110173],[-122.945645,46.110116],[-122.945603,46.110087],[-122.945392,46.110083],[-122.945393,46.109993],[-122.94561,46.109986],[-122.945648,46.109954],[-122.945651,46.109903],[-122.945781,46.109903],[-122.945815,46.109984],[-122.945969,46.109993],[-122.94603,46.109964],[-122.94604,46.109903],[-122.946156,46.109879],[-122.946168,46.109677],[-122.946128,46.109639],[-122.94604,46.109633],[-122.94604,46.109544],[-122.946128,46.109537],[-122.946168,46.1095],[-122.94617,46.109363],[-122.946204,46.109321],[-122.94617,46.109273],[-122.94617,46.109183],[-122.946558,46.109183],[-122.946619,46.109207],[-122.946687,46.109183],[-122.946946,46.109183],[-122.946959,46.109249],[-122.947075,46.109274],[-122.947081,46.10933],[-122.94713,46.109361],[-122.947722,46.109364]],[[-122.946169,46.109993],[-122.946135,46.11003],[-122.946149,46.11007],[-122.946208,46.110096],[-122.946265,46.110087],[-122.946297,46.110053],[-122.946286,46.110004],[-122.946231,46.10998],[-122.946169,46.109993]],[[-122.946769,46.109367],[-122.946625,46.10935],[-122.94657,46.109374],[-122.946561,46.109505],[-122.946613,46.109541],[-122.946761,46.109541],[-122.946813,46.109505],[-122.946813,46.109402],[-122.946769,46.109367]]]}},{"type":"Feature","properties":{"id":3,"area_m2":4600,"px":46,"rank":4,"persistent":false},"geometry":{"type":"Polygon","coordinates":[[[-122.939568,46.11107],[-122.939568,46.11116],[-122.939473,46.111169],[-122.939439,46.11125],[-122.939364,46.111252],[-122.939318,46.111278],[-122.939309,46.11143],[-122.939228,46.111434],[-122.939185,46.111463],[-122.939179,46.11179],[-122.93905,46.111789],[-122.939044,46.111733],[-122.938995,46.111702],[-122.938791,46.111699],[-122.938811,46.11148],[-122.938771,46.111436],[-122.938464,46.111417],[-122.938409,46.111449],[-122.938403,46.111519],[-122.938276,46.111519],[-122.938251,46.111445],[-122.938144,46.111429],[-122.938145,46.111249],[-122.938261,46.111225],[-122.938274,46.111069],[-122.938391,46.111045],[-122.938404,46.110889],[-122.93851,46.110873],[-122.938533,46.110799],[-122.938663,46.110799],[-122.938669,46.110856],[-122.938718,46.110887],[-122.938921,46.110889],[-122.938927,46.110946],[-122.938969,46.110975],[-122.93918,46.11098],[-122.939186,46.111036],[-122.939228,46.111065],[-122.939568,46.11107]],[[-122.938792,46.111159],[-122.938908,46.111135],[-122.938918,46.111018],[-122.938866,46.110982],[-122.938718,46.110982],[-122.938668,46.111013],[-122.938662,46.111069],[-122.938581,46.111073],[-122.938536,46.111108],[-122.938555,46.111323],[-122.93861,46.111339],[-122.938769,46.111324],[-122.938792,46.111159]]]}},{"type":"Feature","properties":{"id":7,"area_m2":2000,"px":20,"rank":5,"persistent":false},"geometry":{"type":"Polygon","coordinates":[[[-122.946559,46.108103],[-122.946559,46.108193],[-122.946477,46.108197],[-122.946435,46.108226],[-122.946429,46.108373],[-122.946395,46.108415],[-122.946447,46.108533],[-122.946558,46.108553],[-122.946558,46.108733],[-122.946452,46.108749],[-122.946429,46.108823],[-122.9463,46.108823],[-122.946271,46.108745],[-122.946086,46.10871],[-122.945924,46.108757],[-122.945911,46.108913],[-122.945652,46.108913],[-122.945653,46.108823],[-122.945747,46.108814],[-122.945782,46.108733],[-122.945856,46.108731],[-122.945902,46.108704],[-122.945912,46.108553],[-122.945993,46.108549],[-122.946038,46.108515],[-122.946041,46.108373],[-122.946136,46.108364],[-122.946171,46.108283],[-122.946252,46.108279],[-122.946294,46.10825],[-122.9463,46.107923],[-122.94643,46.107923],[-122.946439,46.108075],[-122.946485,46.108101],[-122.946559,46.108103]],[[-122.946298,46.108551],[-122.946246,46.108529],[-122.946189,46.10854],[-122.946151,46.108582],[-122.946167,46.108622],[-122.94622,46.108643],[-122.946292,46.10863],[-122.946319,46.108593],[-122.946298,46.108551]]]}},{"type":"Feature","properties":{"id":12,"area_m2":1200,"px":12,"rank":6,"persistent":false},"geometry":{"type":"Polygon","coordinates":[[[-122.956136,46.106487],[-122.956135,46.106577],[-122.955879,46.106577],[-122.955871,46.106507],[-122.955824,46.106476],[-122.955489,46.106487],[-122.955489,46.106307],[-122.955563,46.106305],[-122.955609,46.106278],[-122.955618,46.106127],[-122.955748,46.106127],[-122.95577,46.106201],[-122.955877,46.106217],[-122.955911,46.106298],[-122.956006,46.106307],[-122.956015,46.106459],[-122.956061,46.106485],[-122.956136,46.106487]]]}},{"type":"Feature","properties":{"id":10,"area_m2":1000,"px":10,"rank":7,"persistent":false},"geometry":{"type":"Polygon","coordinates":[[[-122.941902,46.107021],[-122.941901,46.107201],[-122.941772,46.107201],[-122.941711,46.107177],[-122.941643,46.107201],[-122.941255,46.107201],[-122.941255,46.107111],[-122.941336,46.107106],[-122.941381,46.107072],[-122.941384,46.106931],[-122.941772,46.106931],[-122.941795,46.107005],[-122.941902,46.107021]]]}},{"type":"Feature","properties":{"id":16,"area_m2":700,"px":7,"rank":8,"persistent":false},"geometry":{"type":"Polygon","coordinates":[[[-122.949797,46.104595],[-122.949797,46.104685],[-122.949709,46.104691],[-122.949669,46.104728],[-122.949667,46.104954],[-122.949538,46.104954],[-122.949532,46.104628],[-122.949476,46.104595],[-122.94928,46.104594],[-122.94928,46.104504],[-122.949538,46.104505],[-122.949542,46.104556],[-122.949579,46.104588],[-122.949797,46.104595]]]}},{"type":"Feature","properties":{"id":18,"area_m2":600,"px":6,"rank":9,"persistent":false},"geometry":{"type":"Polygon","coordinates":[[[-122.948762,46.104414],[-122.948762,46.104504],[-122.948655,46.10452],[-122.948632,46.104594],[-122.948115,46.104594],[-122.948115,46.104504],[-122.948441,46.104503],[-122.948494,46.104475],[-122.948503,46.104414],[-122.948762,46.104414]]]}},{"type":"Feature","properties":{"id":9,"area_m2":400,"px":4,"rank":10,"persistent":false},"geometry":{"type":"Polygon","coordinates":[[[-122.941901,46.107291],[-122.941901,46.107471],[-122.941698,46.107473],[-122.941648,46.107504],[-122.941642,46.107561],[-122.941513,46.107561],[-122.941513,46.107471],[-122.94162,46.107455],[-122.941643,46.107381],[-122.941759,46.107357],[-122.941772,46.107291],[-122.941901,46.107291]]]}},{"type":"Feature","properties":{"id":13,"area_m2":400,"px":4,"rank":11,"persistent":false},"geometry":{"type":"Polygon","coordinates":[[[-122.949666,46.106395],[-122.949666,46.106575],[-122.949537,46.106574],[-122.949531,46.106518],[-122.949481,46.106487],[-122.949278,46.106484],[-122.949278,46.106394],[-122.949666,46.106395]]]}},{"type":"Feature","properties":{"id":11,"area_m2":400,"px":4,"rank":12,"persistent":false},"geometry":{"type":"Polygon","coordinates":[[[-122.945784,46.106303],[-122.945784,46.106393],[-122.945703,46.106397],[-122.945658,46.106431],[-122.945655,46.106573],[-122.945548,46.106588],[-122.945525,46.106663],[-122.945396,46.106663],[-122.945396,46.106573],[-122.945477,46.106569],[-122.945522,46.106534],[-122.945526,46.106393],[-122.945632,46.106377],[-122.945655,46.106303],[-122.945784,46.106303]]]}},{"type":"Feature","properties":{"id":14,"area_m2":400,"px":4,"rank":13,"persistent":false},"geometry":{"type":"Polygon","coordinates":[[[-122.954713,46.105857],[-122.954713,46.105947],[-122.954454,46.105947],[-122.954431,46.105872],[-122.954325,46.105856],[-122.95429,46.105776],[-122.954195,46.105766],[-122.954195,46.105677],[-122.954325,46.105677],[-122.954338,46.105743],[-122.954454,46.105767],[-122.954457,46.105818],[-122.954495,46.10585],[-122.954713,46.105857]]]}},{"type":"Feature","properties":{"id":17,"area_m2":400,"px":4,"rank":14,"persistent":false},"geometry":{"type":"Polygon","coordinates":[[[-122.94915,46.104504],[-122.94915,46.104684],[-122.948891,46.104684],[-122.948891,46.104504],[-122.94915,46.104504]]]}},{"type":"Feature","properties":{"id":5,"area_m2":300,"px":3,"rank":15,"persistent":false},"geometry":{"type":"Polygon","coordinates":[[[-122.952251,46.109906],[-122.952251,46.110086],[-122.952121,46.110086],[-122.952099,46.110011],[-122.951992,46.109996],[-122.951992,46.109906],[-122.952251,46.109906]]]}},{"type":"Feature","properties":{"id":6,"area_m2":300,"px":3,"rank":16,"persistent":false},"geometry":{"type":"Polygon","coordinates":[[[-122.946299,46.108913],[-122.946299,46.109003],[-122.946041,46.109003],[-122.946041,46.108823],[-122.94617,46.108823],[-122.946193,46.108897],[-122.946299,46.108913]]]}},{"type":"Feature","properties":{"id":8,"area_m2":300,"px":3,"rank":17,"persistent":false},"geometry":{"type":"Polygon","coordinates":[[[-122.946171,46.108103],[-122.946171,46.108193],[-122.946064,46.108209],[-122.946041,46.108283],[-122.945912,46.108283],[-122.945912,46.108103],[-122.946171,46.108103]]]}},{"type":"Feature","properties":{"id":15,"area_m2":300,"px":3,"rank":18,"persistent":false},"geometry":{"type":"Polygon","coordinates":[[[-122.950702,46.105495],[-122.950702,46.105675],[-122.950572,46.105675],[-122.95055,46.105601],[-122.950443,46.105585],[-122.950443,46.105495],[-122.950702,46.105495]]]}}]}