{"type":"FeatureCollection","features":[{"type":"Feature","properties":{"id":2,"area_m2":156900,"px":1569,"rank":1,"persistent":false},"geometry":{"type":"Polygon","coordinates":[[[-122.957946,46.107388],[-122.957946,46.107478],[-122.957865,46.107482],[-122.95782,46.107516],[-122.957817,46.107658],[-122.957491,46.107659],[-122.957429,46.107712],[-122.957437,46.108259],[-122.957483,46.108285],[-122.957557,46.108288],[-122.957563,46.108344],[-122.957613,46.108376],[-122.957946,46.108378],[-122.957946,46.108468],[-122.957498,46.108468],[-122.957441,46.108492],[-122.957428,46.108648],[-122.957333,46.108657],[-122.957298,46.108702],[-122.957304,46.108884],[-122.957346,46.108914],[-122.957428,46.108918],[-122.957427,46.109098],[-122.957327,46.10911],[-122.957298,46.109188],[-122.957197,46.1092],[-122.957169,46.109278],[-122.957074,46.109287],[-122.957039,46.109368],[-122.956927,46.109387],[-122.956909,46.109548],[-122.95678,46.109547],[-122.956779,46.109411],[-122.956732,46.109372],[-122.956522,46.109367],[-122.956461,46.109343],[-122.956311,46.109371],[-122.956269,46.109401],[-122.956263,46.109457],[-122.956181,46.109461],[-122.956139,46.109491],[-122.956133,46.109637],[-122.956038,46.109646],[-122.956004,46.109727],[-122.955929,46.10973],[-122.955883,46.109756],[-122.955863,46.109918],[-122.95569,46.109893],[-122.955628,46.109918],[-122.955628,46.110063],[-122.955814,46.1101],[-122.955868,46.110067],[-122.955885,46.109986],[-122.956063,46.109997],[-122.956115,46.109978],[-122.956133,46.109817],[-122.956392,46.109817],[-122.956395,46.109959],[-122.95644,46.109993],[-122.956521,46.109998],[-122.956521,46.110087],[-122.956426,46.110097],[-122.956391,46.110177],[-122.956275,46.110201],[-122.956262,46.110357],[-122.95618,46.110361],[-122.956136,46.110396],[-122.956132,46.110537],[-122.956037,46.110546],[-122.956003,46.110627],[-122.955891,46.110647],[-122.955873,46.110807],[-122.955767,46.110823],[-122.955744,46.110897],[-122.955625,46.110908],[-122.955586,46.110819],[-122.955431,46.110793],[-122.955365,46.110822],[-122.955356,46.110897],[-122.955239,46.110921],[-122.955242,46.111069],[-122.955138,46.111083],[-122.955098,46.11112],[-122.955098,46.111213],[-122.955138,46.111251],[-122.955333,46.111241],[-122.955355,46.111203],[-122.95534,46.111085],[-122.955462,46.111061],[-122.955485,46.110987],[-122.955603,46.110976],[-122.955614,46.111077],[-122.95554,46.111079],[-122.955494,46.111106],[-122.955485,46.111257],[-122.95539,46.111266],[-122.955355,46.111347],[-122.955239,46.111371],[-122.955226,46.111527],[-122.95499,46.111543],[-122.954967,46.111617],[-122.954885,46.111621],[-122.954843,46.11165],[-122.954837,46.111797],[-122.954736,46.111809],[-122.954708,46.111887],[-122.954607,46.111899],[-122.954578,46.111977],[-122.954483,46.111986],[-122.954449,46.112067],[-122.954333,46.112091],[-122.954319,46.112517],[-122.954212,46.112532],[-122.95419,46.112607],[-122.954095,46.112616],[-122.95406,46.112696],[-122.953948,46.112716],[-122.953931,46.112786],[-122.953672,46.112786],[-122.953656,46.112704],[-122.953792,46.112668],[-122.953802,46.112516],[-122.953835,46.112479],[-122.953761,46.112343],[-122.953483,46.112337],[-122.953426,46.11236],[-122.953417,46.112568],[-122.953461,46.112602],[-122.953543,46.112606],[-122.953558,46.112689],[-122.953413,46.112696],[-122.95341,46.112645],[-122.953372,46.112613],[-122.953154,46.112606],[-122.953126,46.112528],[-122.952896,46.112516],[-122.95289,46.112459],[-122.952848,46.11243],[-122.952637,46.112426],[-122.952657,46.112296],[-122.952617,46.112253],[-122.952378,46.112246],[-122.952369,46.112184],[-122.952316,46.112157],[-122.95199,46.112156],[-122.951987,46.112104],[-122.951949,46.112072],[-122.951731,46.112066],[-122.951697,46.111985],[-122.951473,46.111975],[-122.951467,46.111919],[-122.951418,46.111888],[-122.951214,46.111885],[-122.951208,46.111829],[-122.951166,46.111799],[-122.950955,46.111795],[-122.950942,46.111729],[-122.950826,46.111705],[-122.950823,46.111653],[-122.950785,46.111622],[-122.950567,46.111615],[-122.950564,46.111563],[-122.950526,46.111531],[-122.950308,46.111525],[-122.950305,46.111473],[-122.950267,46.111441],[-122.95005,46.111435],[-122.950015,46.111354],[-122.949791,46.111345],[-122.949756,46.111264],[-122.949532,46.111255],[-122.94951,46.11118],[-122.949403,46.111164],[-122.949404,46.110535],[-122.949478,46.110532],[-122.949524,46.110506],[-122.949533,46.110355],[-122.949628,46.110346],[-122.949663,46.110265],[-122.949737,46.110262],[-122.949783,46.110236],[-122.949792,46.110085],[-122.949866,46.110082],[-122.949912,46.110056],[-122.949922,46.109905],[-122.949996,46.109902],[-122.950042,46.109876],[-122.950051,46.109725],[-122.950125,46.109723],[-122.950171,46.109696],[-122.950181,46.109545],[-122.950297,46.109521],[-122.95031,46.109365],[-122.950392,46.109361],[-122.950436,46.109327],[-122.95044,46.109185],[-122.950521,46.109181],[-122.950563,46.109152],[-122.95057,46.109005],[-122.950651,46.109001],[-122.950693,46.108972],[-122.950699,46.108825],[-122.950794,46.108816],[-122.950829,46.108735],[-122.950945,46.108711],[-122.950958,46.108555],[-122.951053,46.108553],[-122.951099,46.108526],[-122.951088,46.108375],[-122.951162,46.108373],[-122.951208,46.108347],[-122.951217,46.108195],[-122.951329,46.108176],[-122.951347,46.108015],[-122.951428,46.108011],[-122.95147,46.107982],[-122.951476,46.107835],[-122.951583,46.10782],[-122.951606,46.107745],[-122.951701,46.107736],[-122.951735,46.107656],[-122.951847,46.107636],[-122.951865,46.107566],[-122.952355,46.107567],[-122.952382,46.107531],[-122.952393,46.107285],[-122.952512,46.107296],[-122.952535,46.10737],[-122.952687,46.107408],[-122.952746,46.107402],[-122.952798,46.107364],[-122.952762,46.107234],[-122.952716,46.107208],[-122.952641,46.107206],[-122.952638,46.107154],[-122.9526,46.107122],[-122.952424,46.107122],[-122.952372,46.107217],[-122.952253,46.107206],[-122.952231,46.107131],[-122.952124,46.107116],[-122.952124,46.107026],[-122.952315,46.107039],[-122.952381,46.106996],[-122.952381,46.106799],[-122.952342,46.106762],[-122.952254,46.106756],[-122.952254,46.106576],[-122.952383,46.106576],[-122.952406,46.10665],[-122.952512,46.106666],[-122.952514,46.106982],[-122.952553,46.107019],[-122.952641,46.107026],[-122.952664,46.1071],[-122.9529,46.107116],[-122.952906,46.107173],[-122.952955,46.107204],[-122.953249,46.107213],[-122.953323,46.107074],[-122.953283,46.106969],[-122.953226,46.106937],[-122.95303,46.106936],[-122.953007,46.106862],[-122.952901,46.106846],[-122.952866,46.106765],[-122.952771,46.106756],[-122.952771,46.106486],[-122.952901,46.106486],[-122.952901,46.106707],[-122.952929,46.106744],[-122.953289,46.106756],[-122.953295,46.106903],[-122.953336,46.106932],[-122.953418,46.106936],[-122.953446,46.107014],[-122.953608,46.10705],[-122.953772,46.107017],[-122.953806,46.106978],[-122.953793,46.10687],[-122.953677,46.106846],[-122.953642,46.106765],[-122.953548,46.106756],[-122.953519,46.106678],[-122.953418,46.106666],[-122.953419,46.106396],[-122.953548,46.106396],[-122.953624,46.10642],[-122.953711,46.106359],[-122.953677,46.106306],[-122.953674,46.106165],[-122.95363,46.10613],[-122.953548,46.106126],[-122.953548,46.106036],[-122.953936,46.106036],[-122.953945,46.106098],[-122.954006,46.106126],[-122.954406,46.106122],[-122.954448,46.106093],[-122.954488,46.105984],[-122.954436,46.105876],[-122.954325,46.105856],[-122.954325,46.105767],[-122.954454,46.105767],[-122.954482,46.105844],[-122.954713,46.105857],[-122.954735,46.105931],[-122.954842,46.105947],[-122.954855,46.106013],[-122.954971,46.106037],[-122.955,46.106115],[-122.955101,46.106127],[-122.955101,46.106217],[-122.954971,46.106217],[-122.954958,46.106151],[-122.954842,46.106127],[-122.954814,46.106049],[-122.954631,46.106041],[-122.954589,46.10607],[-122.954583,46.106127],[-122.954502,46.106131],[-122.95446,46.10616],[-122.954454,46.106307],[-122.954365,46.106313],[-122.954326,46.10635],[-122.954337,46.106463],[-122.954453,46.106487],[-122.954488,46.106567],[-122.954583,46.106577],[-122.954611,46.106654],[-122.954841,46.106667],[-122.954842,46.106812],[-122.954875,46.106851],[-122.9551,46.106847],[-122.955103,46.106899],[-122.955141,46.10693],[-122.955359,46.106937],[-122.955393,46.107018],[-122.955562,46.107025],[-122.955616,46.106984],[-122.955618,46.106847],[-122.955713,46.106838],[-122.955747,46.106757],[-122.955822,46.106755],[-122.955867,46.106729],[-122.955877,46.106577],[-122.956006,46.106577],[-122.956029,46.106651],[-122.956135,46.106667],[-122.956136,46.106889],[-122.95617,46.106928],[-122.956353,46.106931],[-122.956391,46.106899],[-122.956394,46.106847],[-122.956782,46.106848],[-122.956795,46.106913],[-122.956912,46.106938],[-122.956946,46.107018],[-122.95717,46.107028],[-122.957176,46.107084],[-122.957225,46.107115],[-122.957429,46.107118],[-122.957447,46.107188],[-122.957558,46.107208],[-122.957593,46.107289],[-122.957688,46.107298],[-122.957716,46.107376],[-122.957946,46.107388]],[[-122.953028,46.109546],[-122.953005,46.109472],[-122.952898,46.109456],[-122.952864,46.109375],[-122.952769,46.109366],[-122.952756,46.10903],[-122.952699,46.109006],[-122.952511,46.109006],[-122.952511,46.108916],[-122.952592,46.108912],[-122.952634,46.108883],[-122.952639,46.108779],[-122.952599,46.108742],[-122.952511,46.108736],[-122.952505,46.108589],[-122.952463,46.10856],[-122.952382,46.108556],[-122.95236,46.108468],[-122.952306,46.108452],[-122.951993,46.108466],[-122.951984,46.108404],[-122.951923,46.108376],[-122.951381,46.108384],[-122.951346,46.108465],[-122.951252,46.108468],[-122.951202,46.1085],[-122.951217,46.108645],[-122.951122,46.108654],[-122.951087,46.108735],[-122.951013,46.108738],[-122.950967,46.108764],[-122.950958,46.108915],[-122.950863,46.108924],[-122.950828,46.109005],[-122.950754,46.109007],[-122.950708,46.109034],[-122.950699,46.109185],[-122.950617,46.109189],[-122.950573,46.109223],[-122.950569,46.109365],[-122.950481,46.109371],[-122.95044,46.109414],[-122.950449,46.109516],[-122.950495,46.109543],[-122.950569,46.109545],[-122.950572,46.109597],[-122.95061,46.109629],[-122.950773,46.109633],[-122.950822,46.109602],[-122.950828,46.109545],[-122.950957,46.109545],[-122.950937,46.109669],[-122.950959,46.109709],[-122.951216,46.109725],[-122.951225,46.109877],[-122.951271,46.109903],[-122.951345,46.109907],[-122.951345,46.109995],[-122.951257,46.110002],[-122.951217,46.110039],[-122.951215,46.110355],[-122.950726,46.110367],[-122.950697,46.110445],[-122.950596,46.110449],[-122.950551,46.110485],[-122.950568,46.110715],[-122.950309,46.110715],[-122.950296,46.110649],[-122.95018,46.110625],[-122.950145,46.110544],[-122.949956,46.110544],[-122.949921,46.110583],[-122.949913,46.11096],[-122.949955,46.110982],[-122.95005,46.110985],[-122.950056,46.111055],[-122.950103,46.111086],[-122.950368,46.111075],[-122.950429,46.111046],[-122.950438,46.110985],[-122.95055,46.110965],[-122.950568,46.110895],[-122.950921,46.110886],[-122.950956,46.110847],[-122.950956,46.110715],[-122.951169,46.110725],[-122.951212,46.110691],[-122.951215,46.110625],[-122.951331,46.110601],[-122.951345,46.110445],[-122.951439,46.110436],[-122.951474,46.110355],[-122.951556,46.110351],[-122.951598,46.110322],[-122.951604,46.110176],[-122.951792,46.110175],[-122.951849,46.110152],[-122.951863,46.109996],[-122.951992,46.109996],[-122.952061,46.11002],[-122.952259,46.109971],[-122.952249,46.109859],[-122.95221,46.109822],[-122.951863,46.109816],[-122.951863,46.109726],[-122.951969,46.10971],[-122.951992,46.109636],[-122.952122,46.109636],[-122.952135,46.109702],[-122.952199,46.109726],[-122.952346,46.109717],[-122.952381,46.109636],[-122.952639,46.109636],[-122.952639,46.109726],[-122.95245,46.109726],[-122.952398,46.109746],[-122.952381,46.109857],[-122.952421,46.109899],[-122.95251,46.109906],[-122.952544,46.109987],[-122.952698,46.109996],[-122.952759,46.109967],[-122.952802,46.109869],[-122.952753,46.109734],[-122.952898,46.109726],[-122.952974,46.10975],[-122.953148,46.109698],[-122.953148,46.109575],[-122.953102,46.109548],[-122.953028,46.109546]],[[-122.951732,46.111706],[-122.95182,46.111699],[-122.95186,46.111662],[-122.951861,46.111394],[-122.951833,46.111358],[-122.951603,46.111345],[-122.951593,46.111284],[-122.95154,46.111257],[-122.951085,46.111255],[-122.951072,46.111189],[-122.950956,46.111165],[-122.95095,46.111109],[-122.950901,46.111078],[-122.950638,46.111075],[-122.950585,46.111095],[-122.950567,46.111255],[-122.950451,46.111279],[-122.950438,46.111381],[-122.950472,46.111426],[-122.950567,46.111435],[-122.950596,46.111513],[-122.950826,46.111525],[-122.95086,46.111606],[-122.951085,46.111615],[-122.951113,46.111693],[-122.951343,46.111705],[-122.951353,46.111767],[-122.951406,46.111794],[-122.951684,46.111791],[-122.951726,46.111762],[-122.951732,46.111706]],[[-122.950846,46.10995],[-122.950822,46.109848],[-122.95078,46.109819],[-122.950636,46.109802],[-122.950574,46.109835],[-122.95057,46.109952],[-122.950616,46.109991],[-122.950807,46.109988],[-122.950846,46.10995]],[[-122.951919,46.108193],[-122.952192,46.108208],[-122.952244,46.108181],[-122.952243,46.108044],[-122.952197,46.108018],[-122.952123,46.108016],[-122.952089,46.107935],[-122.951994,46.107926],[-122.951994,46.107794],[-122.951966,46.107758],[-122.951776,46.107752],[-122.951738,46.107784],[-122.951735,46.107835],[-122.951654,46.10784],[-122.951609,46.107874],[-122.951615,46.108077],[-122.951668,46.108104],[-122.951864,46.108106],[-122.95187,46.108162],[-122.951919,46.108193]],[[-122.952382,46.111617],[-122.952377,46.111479],[-122.952344,46.111445],[-122.952068,46.111436],[-122.952013,46.111451],[-122.95199,46.111706],[-122.951902,46.111712],[-122.951863,46.111749],[-122.951884,46.11196],[-122.952051,46.112],[-122.952226,46.11196],[-122.952249,46.111796],[-122.952331,46.111792],[-122.952375,46.111758],[-122.952413,46.111663],[-122.952382,46.111617]],[[-122.952374,46.110232],[-122.952395,46.11012],[-122.952338,46.110087],[-122.95206,46.110072],[-122.951993,46.110115],[-122.951995,46.110227],[-122.952054,46.110265],[-122.952332,46.110262],[-122.952374,46.110232]],[[-122.952786,46.111481],[-122.952761,46.111379],[-122.952712,46.111348],[-122.952564,46.111348],[-122.952512,46.111384],[-122.952512,46.111488],[-122.952563,46.111524],[-122.952753,46.111516],[-122.952786,46.111481]],[[-122.95497,46.108467],[-122.954964,46.10832],[-122.954922,46.108291],[-122.95484,46.108287],[-122.954831,46.108135],[-122.954785,46.108109],[-122.954711,46.108107],[-122.954705,46.10796],[-122.954663,46.107931],[-122.954582,46.107927],[-122.954578,46.107785],[-122.954534,46.107751],[-122.954453,46.107747],[-122.954439,46.107591],[-122.954323,46.107566],[-122.954317,46.10733],[-122.954275,46.107301],[-122.954194,46.107296],[-122.954191,46.107245],[-122.954153,46.107213],[-122.954004,46.107182],[-122.953935,46.107206],[-122.953724,46.10721],[-122.953682,46.10724],[-122.953676,46.107296],[-122.953466,46.1073],[-122.953424,46.10733],[-122.953417,46.107386],[-122.953214,46.107388],[-122.953165,46.107419],[-122.953159,46.107476],[-122.952934,46.107485],[-122.9529,46.107566],[-122.952805,46.107575],[-122.95277,46.107656],[-122.952696,46.107658],[-122.95265,46.107684],[-122.95265,46.107807],[-122.952696,46.107834],[-122.95277,46.107836],[-122.952779,46.107987],[-122.952825,46.108014],[-122.952899,46.108016],[-122.952909,46.108167],[-122.952954,46.108194],[-122.953029,46.108196],[-122.953034,46.108433],[-122.953076,46.108462],[-122.953158,46.108466],[-122.953192,46.108547],[-122.953287,46.108556],[-122.953293,46.108703],[-122.953335,46.108732],[-122.953416,46.108736],[-122.95342,46.108878],[-122.953464,46.108912],[-122.953546,46.108916],[-122.953568,46.10908],[-122.953879,46.109094],[-122.953928,46.109063],[-122.953934,46.109006],[-122.954138,46.109004],[-122.954187,46.108973],[-122.954193,46.108917],[-122.954338,46.108924],[-122.954322,46.109007],[-122.954215,46.109022],[-122.954192,46.109096],[-122.953975,46.109103],[-122.953937,46.109135],[-122.953934,46.109186],[-122.953852,46.10919],[-122.953808,46.109225],[-122.953817,46.109342],[-122.953933,46.109366],[-122.953933,46.109456],[-122.9539,46.109509],[-122.953974,46.10963],[-122.954451,46.109637],[-122.95446,46.109698],[-122.954521,46.109726],[-122.954769,46.109727],[-122.95483,46.109698],[-122.954839,46.109547],[-122.954928,46.10954],[-122.954967,46.109503],[-122.954965,46.109225],[-122.954906,46.109188],[-122.95471,46.109187],[-122.954687,46.109113],[-122.954581,46.109097],[-122.954568,46.108941],[-122.954436,46.108909],[-122.954452,46.108827],[-122.954558,46.108811],[-122.954581,46.108737],[-122.954785,46.108734],[-122.954834,46.108703],[-122.95484,46.108647],[-122.955029,46.108647],[-122.955081,46.108627],[-122.95509,46.108495],[-122.955044,46.108469],[-122.95497,46.108467]],[[-122.953543,46.111656],[-122.953483,46.111604],[-122.953285,46.111616],[-122.953279,46.11156],[-122.95323,46.111529],[-122.95295,46.111515],[-122.952898,46.111556],[-122.952896,46.111706],[-122.952802,46.111708],[-122.952752,46.111741],[-122.952773,46.111853],[-122.952829,46.111885],[-122.953102,46.111897],[-122.953149,46.111866],[-122.953155,46.111796],[-122.953515,46.111784],[-122.953542,46.111753],[-122.953543,46.111656]],[[-122.953284,46.112196],[-122.953217,46.112143],[-122.952944,46.11216],[-122.952897,46.1122],[-122.952902,46.112303],[-122.952966,46.112336],[-122.953236,46.112332],[-122.953283,46.112293],[-122.953284,46.112196]],[[-122.953286,46.110036],[-122.953218,46.109983],[-122.953056,46.110008],[-122.953028,46.110045],[-122.953044,46.11017],[-122.95311,46.11019],[-122.953257,46.110164],[-122.953284,46.110133],[-122.953286,46.110036]],[[-122.953796,46.111493],[-122.953822,46.111397],[-122.953795,46.111359],[-122.953544,46.111346],[-122.953538,46.11129],[-122.953496,46.11126],[-122.953327,46.111257],[-122.95327,46.111291],[-122.953286,46.111483],[-122.953333,46.111522],[-122.953475,46.11155],[-122.953544,46.111526],[-122.953747,46.111524],[-122.953796,46.111493]],[[-122.953677,46.109728],[-122.953606,46.109702],[-122.953545,46.109726],[-122.953309,46.109742],[-122.953266,46.10994],[-122.953288,46.10998],[-122.953344,46.109996],[-122.953522,46.10998],[-122.953545,46.109906],[-122.953626,46.109902],[-122.953668,46.109873],[-122.953709,46.109774],[-122.953677,46.109728]],[[-122.954079,46.110947],[-122.95404,46.110719],[-122.953979,46.110703],[-122.953826,46.110732],[-122.953803,46.11077],[-122.953826,46.110971],[-122.954034,46.110982],[-122.954079,46.110947]],[[-122.954836,46.110355],[-122.95477,46.110333],[-122.954698,46.110368],[-122.95458,46.110357],[-122.954577,46.109945],[-122.954525,46.109909],[-122.954354,46.109902],[-122.954287,46.110039],[-122.954321,46.110087],[-122.954338,46.11062],[-122.954403,46.11064],[-122.954551,46.110614],[-122.95458,46.110537],[-122.954696,46.110513],[-122.95472,46.110436],[-122.954788,46.110447],[-122.954842,46.110426],[-122.954836,46.110355]],[[-122.954598,46.111392],[-122.954573,46.11129],[-122.954524,46.111259],[-122.954375,46.111259],[-122.954323,46.111295],[-122.954323,46.111398],[-122.954375,46.111434],[-122.954565,46.111427],[-122.954598,46.111392]],[[-122.954576,46.110948],[-122.954596,46.110846],[-122.954552,46.110811],[-122.954388,46.110793],[-122.954326,46.110827],[-122.954322,46.110943],[-122.954368,46.110983],[-122.954538,46.11098],[-122.954576,46.110948]],[[-122.955745,46.107385],[-122.955678,46.107363],[-122.955606,46.107398],[-122.955488,46.107387],[-122.955482,46.10733],[-122.95544,46.107301],[-122.95524,46.107308],[-122.955188,46.107213],[-122.954981,46.107218],[-122.954948,46.107133],[-122.954841,46.107117],[-122.95484,46.106967],[-122.954788,46.106926],[-122.954624,46.106943],[-122.954586,46.106975],[-122.954582,46.107027],[-122.954501,46.107031],[-122.954459,46.10706],[-122.954454,46.107163],[-122.954494,46.1072],[-122.954712,46.107207],[-122.954717,46.107277],[-122.954772,46.107309],[-122.954959,46.107286],[-122.954976,46.107367],[-122.955023,46.107398],[-122.955218,46.107376],[-122.955238,46.107538],[-122.955284,46.107565],[-122.955358,46.107567],[-122.955364,46.107624],[-122.955406,46.107653],[-122.955542,46.107671],[-122.9556,46.107651],[-122.955617,46.107477],[-122.955745,46.107461],[-122.955767,46.107421],[-122.955745,46.107385]],[[-122.955132,46.110045],[-122.955088,46.109935],[-122.955035,46.109908],[-122.954772,46.109908],[-122.954711,46.10995],[-122.954719,46.110058],[-122.954764,46.110084],[-122.954839,46.110087],[-122.954848,46.110148],[-122.954901,46.110176],[-122.955035,46.110176],[-122.95508,46.110157],[-122.955132,46.110045]],[[-122.957299,46.107788],[-122.957232,46.107734],[-122.957058,46.107767],[-122.95704,46.107928],[-122.956938,46.107932],[-122.956894,46.107967],[-122.956911,46.108107],[-122.956578,46.10811],[-122.956528,46.108141],[-122.956522,46.108197],[-122.956319,46.1082],[-122.95627,46.108231],[-122.956263,46.108287],[-122.956134,46.108287],[-122.956134,46.108107],[-122.956169,46.10806],[-122.956134,46.108017],[-122.956134,46.107706],[-122.956106,46.10767],[-122.955958,46.107643],[-122.955903,46.107656],[-122.955876,46.107747],[-122.955781,46.107756],[-122.955746,46.107837],[-122.95564,46.107853],[-122.955606,46.107938],[-122.955488,46.107927],[-122.95547,46.107857],[-122.955358,46.107837],[-122.955341,46.107767],[-122.955229,46.107747],[-122.955216,46.107681],[-122.9551,46.107657],[-122.955065,46.107576],[-122.954908,46.107553],[-122.954841,46.107602],[-122.95485,46.107808],[-122.954903,46.107836],[-122.955099,46.107837],[-122.9551,46.107968],[-122.955134,46.108008],[-122.955358,46.108017],[-122.955386,46.108095],[-122.955534,46.108121],[-122.955608,46.108092],[-122.955628,46.108006],[-122.955746,46.108017],[-122.955759,46.108173],[-122.955875,46.108197],[-122.95591,46.108278],[-122.956021,46.108295],[-122.95602,46.10855],[-122.95597,46.108605],[-122.955995,46.108642],[-122.956051,46.108661],[-122.956125,46.108632],[-122.956136,46.108557],[-122.956393,46.108557],[-122.956427,46.108638],[-122.956598,46.108659],[-122.956646,46.108628],[-122.956652,46.108558],[-122.956746,46.108555],[-122.956793,46.108528],[-122.956781,46.108378],[-122.95704,46.108378],[-122.957109,46.108402],[-122.957276,46.108362],[-122.957299,46.108324],[-122.957299,46.107788]],[[-122.955231,46.108918],[-122.955159,46.108893],[-122.954992,46.108933],[-122.954969,46.108971],[-122.954992,46.109081],[-122.955047,46.109097],[-122.955205,46.109081],[-122.955262,46.10897],[-122.955231,46.108918]],[[-122.955356,46.110397],[-122.955296,46.110345],[-122.955132,46.110366],[-122.955098,46.110406],[-122.95511,46.110513],[-122.955167,46.110537],[-122.955321,46.110528],[-122.955355,46.110494],[-122.955356,46.110397]],[[-122.955705,46.108203],[-122.955548,46.108173],[-122.955393,46.108199],[-122.955338,46.108247],[-122.955359,46.108784],[-122.955405,46.108823],[-122.955534,46.108841],[-122.955607,46.108812],[-122.955616,46.108737],[-122.955705,46.108731],[-122.955745,46.108688],[-122.955745,46.108241],[-122.955705,46.108203]],[[-122.957041,46.107338],[-122.956973,46.107284],[-122.956653,46.107297],[-122.95663,46.107223],[-122.956523,46.107207],[-122.956522,46.107071],[-122.956475,46.107031],[-122.956076,46.107027],[-122.956012,46.107061],[-122.955989,46.107167],[-122.956033,46.107203],[-122.956135,46.107207],[-122.956153,46.107368],[-122.956264,46.107387],[-122.95627,46.107444],[-122.956312,46.107473],[-122.956523,46.107477],[-122.956536,46.107543],[-122.956652,46.107568],[-122.956658,46.107624],[-122.9567,46.107653],[-122.956861,46.107657],[-122.956914,46.107637],[-122.956911,46.107478],[-122.957028,46.107454],[-122.957041,46.107338]],[[-122.956779,46.107925],[-122.956728,46.107904],[-122.95667,46.107914],[-122.956633,46.107956],[-122.956649,46.107997],[-122.956702,46.108017],[-122.956774,46.108005],[-122.956801,46.107967],[-122.956779,46.107925]],[[-122.957245,46.107671],[-122.957381,46.107654],[-122.957423,46.107624],[-122.957427,46.107431],[-122.957374,46.10739],[-122.957233,46.107389],[-122.957176,46.107421],[-122.957136,46.107531],[-122.957192,46.107655],[-122.957245,46.107671]]]}},{"type":"Feature","properties":{"id":15,"area_m2":154200,"px":1542,"rank":2,"persistent":false},"geometry":{"type":"Polygon","coordinates":[[[-122.951477,46.106395],[-122.951477,46.106575],[-122.951371,46.106591],[-122.951348,46.106665],[-122.951117,46.106677],[-122.951089,46.106755],[-122.950994,46.106764],[-122.950959,46.106845],[-122.950848,46.106865],[-122.95083,46.106935],[-122.950512,46.106935],[-122.950445,46.106973],[-122.950441,46.107295],[-122.950407,46.107337],[-122.950441,46.107385],[-122.950442,46.107696],[-122.950482,46.107739],[-122.95057,46.107745],[-122.95057,46.108195],[-122.950311,46.108195],[-122.950302,46.108133],[-122.950241,46.108105],[-122.949665,46.108105],[-122.949647,46.108034],[-122.949535,46.108014],[-122.949526,46.107953],[-122.949473,46.107926],[-122.94857,46.107924],[-122.948509,46.107953],[-122.9485,46.108014],[-122.948372,46.108014],[-122.948336,46.107933],[-122.948189,46.107924],[-122.948113,46.107967],[-122.948112,46.108194],[-122.947908,46.108196],[-122.947859,46.108227],[-122.947853,46.108284],[-122.947723,46.108284],[-122.947723,46.108152],[-122.947695,46.108116],[-122.947465,46.108104],[-122.947452,46.108038],[-122.947335,46.108013],[-122.94733,46.107957],[-122.947288,46.107928],[-122.947077,46.107923],[-122.947077,46.107612],[-122.947036,46.10757],[-122.946818,46.107563],[-122.946757,46.107539],[-122.946689,46.107563],[-122.946559,46.107563],[-122.946498,46.107539],[-122.94643,46.107563],[-122.946301,46.107563],[-122.946295,46.107493],[-122.94624,46.107461],[-122.945783,46.107473],[-122.945777,46.107416],[-122.945735,46.107387],[-122.945535,46.107394],[-122.945511,46.107317],[-122.945395,46.107293],[-122.945392,46.107241],[-122.945354,46.107209],[-122.945147,46.107213],[-122.945095,46.107119],[-122.944809,46.1071],[-122.944749,46.107147],[-122.94475,46.107249],[-122.944783,46.107283],[-122.945125,46.107282],[-122.945149,46.107359],[-122.945266,46.107383],[-122.9453,46.107463],[-122.945513,46.107462],[-122.945526,46.107699],[-122.945565,46.107736],[-122.945653,46.107743],[-122.945653,46.107923],[-122.945428,46.107919],[-122.945394,46.108013],[-122.945288,46.108028],[-122.945265,46.108103],[-122.945136,46.108102],[-122.945075,46.108078],[-122.945004,46.108102],[-122.944147,46.108093],[-122.944106,46.108122],[-122.9441,46.108192],[-122.944066,46.108229],[-122.9441,46.108282],[-122.9441,46.108372],[-122.943882,46.108378],[-122.943845,46.10841],[-122.943841,46.108462],[-122.943712,46.108462],[-122.943732,46.108248],[-122.94371,46.108208],[-122.943654,46.108192],[-122.943488,46.108201],[-122.943453,46.108282],[-122.943372,46.108286],[-122.94333,46.108315],[-122.943324,46.108462],[-122.943242,46.108466],[-122.9432,46.108495],[-122.943194,46.108732],[-122.943112,46.108736],[-122.943068,46.10877],[-122.943064,46.109181],[-122.942935,46.109181],[-122.942931,46.10913],[-122.942894,46.109098],[-122.942676,46.109091],[-122.942676,46.108911],[-122.94275,46.108909],[-122.942796,46.108883],[-122.942806,46.108731],[-122.942922,46.108707],[-122.942935,46.108552],[-122.943017,46.108547],[-122.943061,46.108513],[-122.943065,46.108372],[-122.943146,46.108367],[-122.943188,46.108338],[-122.943195,46.108192],[-122.943289,46.108183],[-122.943324,46.108102],[-122.943436,46.108082],[-122.943454,46.107922],[-122.94356,46.107906],[-122.943583,46.107832],[-122.943712,46.107832],[-122.943747,46.107913],[-122.943894,46.107922],[-122.943958,46.107898],[-122.943971,46.107832],[-122.944078,46.107816],[-122.944101,46.107652],[-122.944182,46.107648],[-122.944227,46.107614],[-122.94423,46.107472],[-122.944312,46.107468],[-122.944354,46.107439],[-122.94436,46.107292],[-122.944448,46.107286],[-122.944488,46.107249],[-122.944476,46.107136],[-122.94436,46.107112],[-122.94436,46.106932],[-122.944395,46.106884],[-122.944351,46.106781],[-122.944305,46.106754],[-122.944231,46.106752],[-122.944225,46.106695],[-122.944183,46.106666],[-122.943973,46.106662],[-122.943967,46.106425],[-122.943918,46.106394],[-122.943792,46.106392],[-122.943727,46.106416],[-122.943714,46.106482],[-122.94364,46.106484],[-122.943594,46.10651],[-122.943584,46.106662],[-122.943472,46.106681],[-122.943455,46.106842],[-122.943373,46.106846],[-122.943331,46.106875],[-122.943325,46.107022],[-122.942808,46.107021],[-122.942739,46.106997],[-122.942558,46.10705],[-122.942571,46.107185],[-122.942807,46.107201],[-122.94283,46.107276],[-122.942937,46.107291],[-122.942936,46.107471],[-122.942862,46.107474],[-122.942816,46.1075],[-122.942807,46.107651],[-122.942712,46.10766],[-122.942677,46.107741],[-122.942561,46.107765],[-122.942548,46.108011],[-122.942453,46.10802],[-122.942418,46.108101],[-122.942302,46.108125],[-122.942289,46.108281],[-122.942207,46.108285],[-122.942163,46.108319],[-122.942159,46.108461],[-122.942078,46.108465],[-122.942036,46.108494],[-122.942029,46.108641],[-122.941995,46.108683],[-122.942029,46.108731],[-122.942029,46.108821],[-122.9419,46.108821],[-122.941887,46.108755],[-122.941771,46.108731],[-122.941742,46.108653],[-122.941587,46.108627],[-122.941521,46.108656],[-122.941512,46.108731],[-122.941308,46.108733],[-122.941259,46.108764],[-122.941253,46.108821],[-122.941124,46.10882],[-122.94112,46.108769],[-122.941083,46.108737],[-122.940865,46.10873],[-122.940836,46.108653],[-122.940606,46.10864],[-122.9406,46.108584],[-122.940558,46.108554],[-122.940347,46.10855],[-122.940334,46.108484],[-122.940218,46.10846],[-122.940215,46.108408],[-122.940177,46.108376],[-122.939959,46.10837],[-122.939954,46.108313],[-122.939904,46.108282],[-122.939701,46.10828],[-122.939701,46.10783],[-122.939775,46.107827],[-122.939821,46.107801],[-122.939831,46.10765],[-122.940089,46.10765],[-122.940118,46.107728],[-122.940348,46.10774],[-122.940354,46.107797],[-122.940396,46.107826],[-122.94069,46.107839],[-122.940733,46.107806],[-122.940737,46.10774],[-122.940811,46.107738],[-122.940857,46.107712],[-122.940866,46.10756],[-122.940982,46.107536],[-122.940996,46.107381],[-122.941102,46.107365],[-122.941125,46.107291],[-122.941254,46.107291],[-122.941263,46.107532],[-122.941317,46.10756],[-122.941513,46.107561],[-122.941513,46.107651],[-122.94107,46.107637],[-122.941017,46.107653],[-122.940961,46.107788],[-122.940995,46.10783],[-122.940995,46.107975],[-122.941028,46.108015],[-122.941085,46.108024],[-122.941225,46.107998],[-122.941253,46.107962],[-122.941254,46.107831],[-122.941473,46.107838],[-122.94151,46.107806],[-122.941524,46.10773],[-122.942002,46.107729],[-122.942031,46.107651],[-122.942112,46.107647],[-122.942154,46.107618],[-122.94216,46.107471],[-122.942351,46.107485],[-122.942413,46.107451],[-122.942454,46.107339],[-122.942419,46.107291],[-122.94242,46.106931],[-122.942531,46.106911],[-122.942549,46.106751],[-122.942637,46.106745],[-122.942677,46.106708],[-122.942669,46.1066],[-122.942623,46.106574],[-122.942549,46.106571],[-122.942543,46.106515],[-122.942494,46.106484],[-122.94233,46.106474],[-122.942294,46.106506],[-122.94229,46.106571],[-122.941902,46.106571],[-122.941903,46.106211],[-122.942014,46.106191],[-122.942032,46.106031],[-122.942114,46.106027],[-122.942156,46.105998],[-122.942158,46.105799],[-122.942099,46.105762],[-122.941903,46.105761],[-122.94188,46.105687],[-122.941774,46.105671],[-122.941756,46.105601],[-122.941645,46.105581],[-122.94161,46.1055],[-122.941515,46.105491],[-122.941487,46.105413],[-122.941386,46.105401],[-122.941358,46.105323],[-122.941257,46.10531],[-122.941248,46.105159],[-122.941202,46.105133],[-122.941127,46.10513],[-122.941124,46.104809],[-122.94108,46.104775],[-122.940998,46.10477],[-122.940999,46.10459],[-122.941093,46.104581],[-122.941128,46.104536],[-122.941115,46.104434],[-122.940999,46.10441],[-122.94101,46.104309],[-122.941128,46.104321],[-122.941134,46.104377],[-122.941183,46.104408],[-122.941446,46.10441],[-122.941507,46.104382],[-122.941551,46.104278],[-122.941471,46.104208],[-122.941387,46.104231],[-122.941258,46.10423],[-122.941249,46.104169],[-122.941188,46.104141],[-122.941034,46.104149],[-122.940988,46.104241],[-122.94087,46.10423],[-122.94087,46.10414],[-122.940951,46.104136],[-122.940996,46.104102],[-122.940999,46.10396],[-122.941258,46.103961],[-122.941319,46.103985],[-122.941387,46.103961],[-122.941517,46.103961],[-122.94152,46.104012],[-122.941558,46.104044],[-122.941791,46.104058],[-122.941777,46.104187],[-122.941838,46.10423],[-122.942006,46.104219],[-122.942053,46.104112],[-122.942014,46.104058],[-122.941889,46.104043],[-122.941905,46.103911],[-122.941883,46.103873],[-122.94183,46.103857],[-122.941646,46.103871],[-122.941633,46.103805],[-122.941517,46.103781],[-122.941514,46.103729],[-122.941476,46.103697],[-122.941,46.10369],[-122.940996,46.103639],[-122.940959,46.103607],[-122.940741,46.1036],[-122.940741,46.10333],[-122.940815,46.103328],[-122.940861,46.103302],[-122.940871,46.10315],[-122.940952,46.103146],[-122.940997,46.103112],[-122.941,46.10297],[-122.94113,46.10297],[-122.94113,46.103102],[-122.941158,46.103138],[-122.941318,46.10315],[-122.941385,46.103112],[-122.941389,46.102971],[-122.94147,46.102966],[-122.941512,46.102937],[-122.941515,46.102829],[-122.941456,46.102792],[-122.941307,46.102795],[-122.941265,46.102824],[-122.941259,46.10288],[-122.941141,46.102891],[-122.94113,46.10279],[-122.941237,46.102775],[-122.941259,46.102701],[-122.941647,46.102701],[-122.94167,46.102775],[-122.941777,46.102791],[-122.941811,46.102872],[-122.941906,46.102881],[-122.941906,46.103061],[-122.941832,46.103063],[-122.941786,46.103089],[-122.941776,46.103241],[-122.94167,46.103257],[-122.941647,46.103331],[-122.94139,46.103347],[-122.941368,46.103386],[-122.941406,46.103491],[-122.941517,46.103511],[-122.941526,46.103585],[-122.941592,46.103614],[-122.94236,46.1036],[-122.942414,46.103573],[-122.942423,46.103511],[-122.942552,46.103511],[-122.942552,46.103601],[-122.942436,46.103625],[-122.942406,46.103741],[-122.94245,46.103777],[-122.942552,46.103781],[-122.94254,46.103931],[-122.942587,46.103959],[-122.942681,46.103961],[-122.942687,46.104018],[-122.942729,46.104047],[-122.94289,46.104051],[-122.942948,46.104026],[-122.94294,46.103871],[-122.943042,46.103867],[-122.943087,46.103832],[-122.94307,46.103691],[-122.943328,46.103692],[-122.943338,46.103843],[-122.943391,46.103871],[-122.943587,46.103872],[-122.943588,46.104008],[-122.943628,46.104045],[-122.943975,46.104052],[-122.94401,46.104133],[-122.944234,46.104142],[-122.944256,46.104216],[-122.944409,46.104255],[-122.944604,46.104212],[-122.944622,46.104052],[-122.944703,46.104048],[-122.944748,46.104014],[-122.944771,46.103923],[-122.944738,46.103882],[-122.944493,46.103872],[-122.944465,46.103794],[-122.944234,46.103782],[-122.944221,46.103716],[-122.944157,46.103692],[-122.944004,46.103704],[-122.943976,46.103741],[-122.943975,46.103872],[-122.943846,46.103872],[-122.943846,46.103561],[-122.943805,46.103518],[-122.943717,46.103512],[-122.943717,46.103242],[-122.943846,46.103242],[-122.943852,46.103388],[-122.943894,46.103418],[-122.943976,46.103422],[-122.94401,46.103503],[-122.944234,46.103512],[-122.944244,46.103573],[-122.944297,46.103601],[-122.944752,46.103602],[-122.944775,46.103676],[-122.944881,46.103692],[-122.944916,46.103773],[-122.94501,46.103782],[-122.94501,46.103962],[-122.944898,46.103982],[-122.944881,46.104142],[-122.944792,46.104149],[-122.944752,46.104191],[-122.944764,46.104298],[-122.94488,46.104322],[-122.94488,46.104502],[-122.944684,46.104503],[-122.944623,46.104546],[-122.944634,46.104658],[-122.944751,46.104682],[-122.944764,46.104838],[-122.944821,46.104862],[-122.944987,46.104847],[-122.94501,46.104682],[-122.945091,46.104678],[-122.945136,46.104644],[-122.945139,46.104503],[-122.945268,46.104503],[-122.945268,46.104682],[-122.945152,46.104706],[-122.945142,46.104824],[-122.945201,46.104861],[-122.945397,46.104863],[-122.945403,46.104919],[-122.945445,46.104948],[-122.945656,46.104953],[-122.945656,46.105043],[-122.945554,46.105047],[-122.94551,46.105082],[-122.945555,46.10521],[-122.945744,46.105216],[-122.945782,46.105184],[-122.945786,46.105133],[-122.946303,46.105133],[-122.946303,46.105223],[-122.945848,46.105224],[-122.945795,46.105251],[-122.945785,46.105313],[-122.945597,46.105313],[-122.945544,46.105332],[-122.945526,46.105673],[-122.945491,46.10572],[-122.945558,46.105782],[-122.945756,46.105751],[-122.945785,46.105673],[-122.945901,46.105649],[-122.945914,46.105583],[-122.946044,46.105583],[-122.946053,46.105734],[-122.946099,46.105761],[-122.946173,46.105763],[-122.946207,46.105844],[-122.946302,46.105853],[-122.946337,46.105934],[-122.94669,46.105943],[-122.946719,46.106021],[-122.946873,46.106057],[-122.946949,46.106033],[-122.947078,46.106033],[-122.947082,46.106085],[-122.947119,46.106117],[-122.947337,46.106124],[-122.94735,46.10619],[-122.947466,46.106214],[-122.947472,46.10627],[-122.947514,46.106299],[-122.947725,46.106304],[-122.947786,46.106328],[-122.947855,46.106304],[-122.947984,46.106304],[-122.947987,46.106369],[-122.948023,46.106401],[-122.948372,46.106394],[-122.9484,46.106472],[-122.948631,46.106484],[-122.94864,46.106546],[-122.948693,46.106573],[-122.948842,46.10657],[-122.948884,46.106541],[-122.94889,46.106484],[-122.949017,46.106484],[-122.949025,46.106541],[-122.949074,46.106572],[-122.949407,46.106575],[-122.949407,46.106664],[-122.94919,46.106665],[-122.949133,46.106699],[-122.949154,46.106991],[-122.94921,46.107023],[-122.949407,46.107025],[-122.949441,46.107105],[-122.949665,46.107115],[-122.949694,46.107192],[-122.949848,46.107228],[-122.950006,46.107201],[-122.950048,46.107171],[-122.950054,46.106935],[-122.950142,46.106928],[-122.950182,46.106891],[-122.950183,46.106665],[-122.950655,46.106674],[-122.950698,46.10664],[-122.950701,46.106575],[-122.950808,46.106559],[-122.950831,46.106485],[-122.950947,46.106461],[-122.95096,46.106395],[-122.951477,46.106395]],[[-122.941901,46.104823],[-122.941922,46.104361],[-122.941877,46.104325],[-122.941713,46.104307],[-122.941651,46.104341],[-122.941646,46.104812],[-122.9417,46.104858],[-122.941849,46.104859],[-122.941901,46.104823]],[[-122.94226,46.104145],[-122.942327,46.104014],[-122.942312,46.103974],[-122.942254,46.103948],[-122.942197,46.103957],[-122.942164,46.103996],[-122.942179,46.104043],[-122.942131,46.104083],[-122.942144,46.104128],[-122.942203,46.104154],[-122.94226,46.104145]],[[-122.942546,46.104378],[-122.942585,46.104268],[-122.942523,46.104153],[-122.942351,46.104141],[-122.942295,46.104158],[-122.942273,46.104197],[-122.942321,46.104399],[-122.94251,46.104405],[-122.942546,46.104378]],[[-122.943434,46.104936],[-122.94346,46.104792],[-122.943327,46.104772],[-122.943314,46.104706],[-122.943198,46.104681],[-122.94317,46.104604],[-122.94294,46.104591],[-122.942934,46.104535],[-122.942884,46.104504],[-122.942742,46.104477],[-122.942599,46.104505],[-122.942557,46.104535],[-122.942551,46.104591],[-122.94247,46.104595],[-122.942425,46.104629],[-122.942422,46.104722],[-122.94245,46.104759],[-122.94268,46.104771],[-122.942686,46.104828],[-122.942735,46.104859],[-122.942939,46.104861],[-122.942945,46.104918],[-122.942994,46.104949],[-122.943198,46.104952],[-122.943282,46.104974],[-122.943434,46.104936]],[[-122.943476,46.104547],[-122.943457,46.104322],[-122.943546,46.104315],[-122.943585,46.104278],[-122.943569,46.104071],[-122.943517,46.104052],[-122.943383,46.104054],[-122.943334,46.104085],[-122.943328,46.104141],[-122.943199,46.104141],[-122.943195,46.10409],[-122.943158,46.104058],[-122.942973,46.104047],[-122.94294,46.104086],[-122.94294,46.104321],[-122.942905,46.104364],[-122.942957,46.104482],[-122.94301,46.104501],[-122.943198,46.104502],[-122.943207,46.104563],[-122.943268,46.104591],[-122.943443,46.104582],[-122.943476,46.104547]],[[-122.944363,46.104592],[-122.944444,46.104588],[-122.944486,46.104559],[-122.944492,46.104461],[-122.944464,46.104424],[-122.944281,46.104416],[-122.944239,46.104445],[-122.944233,46.104502],[-122.944115,46.104513],[-122.944082,46.104248],[-122.943794,46.104232],[-122.943734,46.104252],[-122.943719,46.104463],[-122.943764,46.104498],[-122.943845,46.104502],[-122.943874,46.10458],[-122.944093,46.104581],[-122.944117,46.104658],[-122.944181,46.104682],[-122.944328,46.104673],[-122.944363,46.104592]],[[-122.947854,46.106524],[-122.947787,46.10647],[-122.947466,46.106484],[-122.947449,46.106413],[-122.947337,46.106393],[-122.947328,46.106332],[-122.947275,46.106305],[-122.947004,46.106306],[-122.946955,46.106337],[-122.946949,46.106393],[-122.946819,46.106393],[-122.946797,46.106319],[-122.94669,46.106303],[-122.94669,46.106082],[-122.946642,46.106037],[-122.946473,46.106039],[-122.946435,46.106071],[-122.946431,46.106123],[-122.946175,46.106123],[-122.946138,46.106042],[-122.945984,46.106033],[-122.945923,46.106061],[-122.945914,46.106123],[-122.945785,46.106123],[-122.945771,46.106057],[-122.945655,46.106033],[-122.945621,46.105952],[-122.945397,46.105943],[-122.945368,46.105865],[-122.945206,46.105828],[-122.945138,46.105852],[-122.944949,46.105853],[-122.944897,46.105872],[-122.944879,46.106032],[-122.944762,46.106056],[-122.944749,46.106212],[-122.944637,46.106232],[-122.944585,46.106345],[-122.944633,46.106458],[-122.944749,46.106482],[-122.944755,46.106539],[-122.944804,46.10657],[-122.945137,46.106573],[-122.945165,46.10665],[-122.945321,46.106676],[-122.945387,46.106647],[-122.945396,46.106573],[-122.945525,46.106573],[-122.945525,46.106794],[-122.94556,46.106834],[-122.945784,46.106843],[-122.945793,46.106904],[-122.945846,46.106932],[-122.946172,46.106933],[-122.946175,46.106985],[-122.946213,46.107017],[-122.94643,46.107023],[-122.946444,46.107089],[-122.94656,46.107113],[-122.946594,46.107194],[-122.946818,46.107203],[-122.946847,46.107281],[-122.947077,46.107293],[-122.947086,46.107355],[-122.947147,46.107383],[-122.947313,46.107368],[-122.947336,46.107294],[-122.947418,46.107289],[-122.94746,46.10726],[-122.947466,46.107114],[-122.947561,46.107105],[-122.947595,46.107024],[-122.947669,46.107021],[-122.947715,46.106995],[-122.947725,46.106844],[-122.947813,46.106837],[-122.947853,46.1068],[-122.947854,46.106524]],[[-122.945136,46.107562],[-122.945102,46.107482],[-122.944932,46.107475],[-122.944883,46.107506],[-122.944877,46.107562],[-122.944761,46.107586],[-122.944748,46.107652],[-122.944641,46.107668],[-122.944618,46.107706],[-122.944641,46.107906],[-122.944808,46.107946],[-122.944958,46.107918],[-122.945,46.107889],[-122.945007,46.107833],[-122.945123,46.107809],[-122.945136,46.107743],[-122.945243,46.107727],[-122.94526,46.107596],[-122.945218,46.107567],[-122.945136,46.107562]],[[-122.946295,46.107363],[-122.94632,46.107248],[-122.946287,46.107213],[-122.946097,46.107205],[-122.946046,46.107241],[-122.946045,46.107345],[-122.946097,46.107381],[-122.946248,46.107394],[-122.946295,46.107363]],[[-122.948388,46.107344],[-122.948371,46.107163],[-122.948337,46.107123],[-122.948058,46.1071],[-122.947996,46.107125],[-122.947983,46.107335],[-122.948017,46.107375],[-122.948336,46.107382],[-122.948388,46.107344]],[[-122.94879,46.106997],[-122.94876,46.106844],[-122.948841,46.10684],[-122.948886,46.106806],[-122.948867,46.10668],[-122.948819,46.106664],[-122.94843,46.106664],[-122.948374,46.10668],[-122.948352,46.10672],[-122.948374,46.106918],[-122.94863,46.106934],[-122.948639,46.107009],[-122.948705,46.107038],[-122.94879,46.106997]],[[-122.948762,46.107296],[-122.948706,46.107271],[-122.948648,46.107281],[-122.948598,46.107326],[-122.948611,46.107371],[-122.948676,46.107407],[-122.948741,46.107398],[-122.948793,46.107347],[-122.948762,46.107296]],[[-122.948949,46.107487],[-122.949092,46.107472],[-122.949138,46.107446],[-122.949142,46.107328],[-122.949085,46.107295],[-122.948916,46.107299],[-122.948869,46.107345],[-122.948894,46.107454],[-122.948949,46.107487]],[[-122.949337,46.107397],[-122.949481,46.107382],[-122.949527,46.107356],[-122.94953,46.107238],[-122.949473,46.107206],[-122.949305,46.107209],[-122.949257,46.107255],[-122.949283,46.107365],[-122.949337,46.107397]],[[-122.949409,46.107566],[-122.949352,46.107551],[-122.949294,46.107571],[-122.949277,46.107619],[-122.949304,46.107655],[-122.949367,46.107668],[-122.949426,46.107642],[-122.94944,46.107602],[-122.949409,46.107566]],[[-122.949927,46.107563],[-122.949958,46.107517],[-122.949908,46.107467],[-122.949911,46.107305],[-122.949849,46.107281],[-122.949706,46.107301],[-122.949667,46.107338],[-122.949674,46.107446],[-122.94981,46.107482],[-122.949795,46.10753],[-122.949828,46.107569],[-122.949927,46.107563]]]}},{"type":"Feature","properties":{"id":1,"area_m2":45300,"px":453,"rank":3,"persistent":false},"geometry":{"type":"Polygon","coordinates":[[[-122.944614,46.111702],[-122.944614,46.111792],[-122.944519,46.111801],[-122.944485,46.111882],[-122.94441,46.111885],[-122.944365,46.111911],[-122.944355,46.112062],[-122.944274,46.112066],[-122.944229,46.1121],[-122.944226,46.112242],[-122.944029,46.112243],[-122.943976,46.112271],[-122.943967,46.112422],[-122.943932,46.112464],[-122.943966,46.112512],[-122.943966,46.112602],[-122.943872,46.112604],[-122.943825,46.112632],[-122.943837,46.112782],[-122.943735,46.112786],[-122.94369,46.112822],[-122.943707,46.112962],[-122.943495,46.112953],[-122.943452,46.112987],[-122.943448,46.113052],[-122.94306,46.113052],[-122.943047,46.112986],[-122.942983,46.112962],[-122.942727,46.112964],[-122.942678,46.112995],[-122.942672,46.113051],[-122.942543,46.113051],[-122.94252,46.112977],[-122.942413,46.112961],[-122.942404,46.11281],[-122.942358,46.112784],[-122.942284,46.112781],[-122.942281,46.11273],[-122.942243,46.112698],[-122.941637,46.112691],[-122.941636,46.112554],[-122.941596,46.112517],[-122.941378,46.112511],[-122.941317,46.112487],[-122.941249,46.112511],[-122.94099,46.11251],[-122.940987,46.112459],[-122.940949,46.112427],[-122.940732,46.11242],[-122.940718,46.112354],[-122.940602,46.11233],[-122.940568,46.112249],[-122.940343,46.11224],[-122.940344,46.11215],[-122.940602,46.11215],[-122.940606,46.112202],[-122.940643,46.112234],[-122.940861,46.112241],[-122.940867,46.112297],[-122.940916,46.112328],[-122.941085,46.112321],[-122.94112,46.112241],[-122.941201,46.112237],[-122.941243,46.112207],[-122.94125,46.112061],[-122.941331,46.112057],[-122.941373,46.112027],[-122.941379,46.111881],[-122.941453,46.111878],[-122.941499,46.111852],[-122.941509,46.111701],[-122.94159,46.111697],[-122.941632,46.111668],[-122.941632,46.111464],[-122.94159,46.111435],[-122.941509,46.111431],[-122.941509,46.111251],[-122.941542,46.111193],[-122.941487,46.111087],[-122.94138,46.111071],[-122.94138,46.110891],[-122.941468,46.110884],[-122.941509,46.110842],[-122.94151,46.110711],[-122.941544,46.110668],[-122.94151,46.110621],[-122.94151,46.110441],[-122.941769,46.110441],[-122.94183,46.110465],[-122.941898,46.110441],[-122.942027,46.110441],[-122.94205,46.110515],[-122.942157,46.110531],[-122.94217,46.110687],[-122.942286,46.110711],[-122.942299,46.110867],[-122.942348,46.11089],[-122.942502,46.11089],[-122.942564,46.110841],[-122.942545,46.110351],[-122.942652,46.110336],[-122.942675,46.110261],[-122.942933,46.110262],[-122.942937,46.110313],[-122.942975,46.110345],[-122.943192,46.110352],[-122.943215,46.110426],[-122.943322,46.110442],[-122.943323,46.110578],[-122.943369,46.110618],[-122.943527,46.110633],[-122.943575,46.110602],[-122.94358,46.110532],[-122.94371,46.110532],[-122.943713,46.110584],[-122.943751,46.110616],[-122.943968,46.110622],[-122.943997,46.1107],[-122.944227,46.110712],[-122.944233,46.110769],[-122.944275,46.110798],[-122.944486,46.110802],[-122.944486,46.110982],[-122.944003,46.110991],[-122.943968,46.111072],[-122.943894,46.111074],[-122.943848,46.1111],[-122.943838,46.111252],[-122.943727,46.111272],[-122.943689,46.111381],[-122.943729,46.111425],[-122.943838,46.111432],[-122.943841,46.111484],[-122.943879,46.111516],[-122.944097,46.111522],[-122.944098,46.111659],[-122.944138,46.111696],[-122.944614,46.111702]],[[-122.942157,46.111161],[-122.942175,46.111116],[-122.942143,46.111081],[-122.942069,46.111072],[-122.942019,46.111096],[-122.942009,46.111138],[-122.942045,46.111175],[-122.942103,46.111185],[-122.942157,46.111161]],[[-122.942775,46.111329],[-122.942818,46.111196],[-122.942761,46.111162],[-122.942555,46.111172],[-122.942476,46.111137],[-122.942397,46.111185],[-122.942435,46.111245],[-122.942533,46.11124],[-122.94255,46.111321],[-122.942605,46.111354],[-122.942775,46.111329]],[[-122.94344,46.112033],[-122.943453,46.111902],[-122.94332,46.111882],[-122.943307,46.111816],[-122.943191,46.111792],[-122.943156,46.111711],[-122.942885,46.111688],[-122.942806,46.111726],[-122.942802,46.111881],[-122.942694,46.111888],[-122.942653,46.111932],[-122.942682,46.112033],[-122.942743,46.112061],[-122.943387,46.112061],[-122.94344,46.112033]],[[-122.94272,46.112597],[-122.942871,46.112614],[-122.942922,46.112586],[-122.942925,46.112455],[-122.942869,46.112423],[-122.9427,46.112426],[-122.942653,46.112472],[-122.942678,46.112568],[-122.94272,46.112597]],[[-122.943209,46.110852],[-122.943189,46.11075],[-122.943151,46.110718],[-122.942981,46.110716],[-122.942935,46.110755],[-122.942939,46.110872],[-122.943001,46.110905],[-122.943164,46.110887],[-122.943209,46.110852]]]}},{"type":"Feature","properties":{"id":26,"area_m2":28000,"px":280,"rank":4,"persistent":false},"geometry":{"type":"Polygon","coordinates":[[[-122.946823,46.102523],[-122.946822,46.103063],[-122.946728,46.103072],[-122.946693,46.103153],[-122.946612,46.103157],[-122.94657,46.103186],[-122.946563,46.103513],[-122.945917,46.103513],[-122.945911,46.103456],[-122.945869,46.103427],[-122.945598,46.103423],[-122.945537,46.103451],[-122.945528,46.103513],[-122.945416,46.103532],[-122.945399,46.103602],[-122.945269,46.103602],[-122.94527,46.103513],[-122.945364,46.103503],[-122.945399,46.103423],[-122.945473,46.10342],[-122.945519,46.103394],[-122.945528,46.103291],[-122.945473,46.103245],[-122.94527,46.103242],[-122.945257,46.103176],[-122.945192,46.103152],[-122.945029,46.103172],[-122.945011,46.103332],[-122.944929,46.103336],[-122.944885,46.103371],[-122.944881,46.103512],[-122.944752,46.103512],[-122.944743,46.103091],[-122.944697,46.103065],[-122.944623,46.103062],[-122.94462,46.10301],[-122.944582,46.102979],[-122.944364,46.102972],[-122.944342,46.102898],[-122.944235,46.102882],[-122.944236,46.102432],[-122.944352,46.102408],[-122.944365,46.102301],[-122.944324,46.102258],[-122.944236,46.102252],[-122.944227,46.102177],[-122.944161,46.102148],[-122.944,46.102178],[-122.943977,46.102252],[-122.943882,46.102261],[-122.943847,46.102342],[-122.943736,46.102361],[-122.943718,46.102432],[-122.943589,46.102432],[-122.94352,46.102408],[-122.943358,46.102444],[-122.94333,46.10248],[-122.94333,46.102611],[-122.943248,46.102616],[-122.943204,46.10265],[-122.9432,46.102791],[-122.943126,46.102794],[-122.94308,46.10282],[-122.943093,46.102956],[-122.943274,46.102969],[-122.943323,46.102938],[-122.943329,46.102882],[-122.943404,46.102879],[-122.94345,46.102853],[-122.943459,46.102702],[-122.943718,46.102702],[-122.943718,46.102792],[-122.943636,46.102796],[-122.943592,46.10283],[-122.943588,46.102972],[-122.943493,46.102974],[-122.943444,46.103006],[-122.943458,46.103152],[-122.943329,46.103151],[-122.94332,46.10309],[-122.943267,46.103063],[-122.94307,46.103061],[-122.943002,46.103037],[-122.94286,46.103065],[-122.942817,46.103095],[-122.942811,46.103151],[-122.94273,46.103155],[-122.942688,46.103185],[-122.942682,46.103331],[-122.942575,46.103347],[-122.942552,46.103421],[-122.942423,46.103421],[-122.942411,46.103252],[-122.942348,46.103227],[-122.942165,46.103241],[-122.942165,46.103151],[-122.942259,46.103142],[-122.942294,46.103061],[-122.94241,46.103037],[-122.942424,46.102881],[-122.942553,46.102881],[-122.942559,46.102938],[-122.942608,46.102969],[-122.942789,46.102955],[-122.942812,46.102791],[-122.9429,46.102785],[-122.94294,46.102748],[-122.942942,46.102431],[-122.94306,46.10242],[-122.943155,46.102454],[-122.94322,46.102392],[-122.943173,46.102346],[-122.943082,46.102352],[-122.94303,46.102258],[-122.942813,46.102251],[-122.942807,46.102195],[-122.942757,46.102164],[-122.942602,46.102165],[-122.94256,46.102194],[-122.942554,46.102251],[-122.942426,46.102251],[-122.942421,46.102186],[-122.942378,46.102152],[-122.942166,46.102161],[-122.942166,46.101891],[-122.942261,46.101882],[-122.942295,46.101837],[-122.942282,46.101735],[-122.942166,46.101711],[-122.942166,46.101621],[-122.942261,46.101612],[-122.942296,46.101567],[-122.942292,46.101389],[-122.942248,46.101355],[-122.942167,46.101351],[-122.942167,46.101261],[-122.942384,46.101255],[-122.942422,46.101223],[-122.942426,46.101171],[-122.942813,46.101171],[-122.942847,46.101265],[-122.943072,46.101261],[-122.943101,46.101339],[-122.943331,46.101352],[-122.943337,46.101408],[-122.943379,46.101437],[-122.943719,46.101442],[-122.94372,46.101592],[-122.943765,46.101631],[-122.944107,46.101622],[-122.94411,46.101674],[-122.944148,46.101706],[-122.944366,46.101712],[-122.944379,46.101778],[-122.944495,46.101802],[-122.944501,46.101859],[-122.94455,46.10189],[-122.944754,46.101892],[-122.944815,46.101916],[-122.944883,46.101892],[-122.945142,46.101892],[-122.945145,46.101944],[-122.945183,46.101976],[-122.9454,46.101983],[-122.945404,46.102034],[-122.945441,46.102066],[-122.945659,46.102073],[-122.945662,46.102124],[-122.9457,46.102156],[-122.945918,46.102163],[-122.945921,46.102214],[-122.945959,46.102246],[-122.946176,46.102253],[-122.946211,46.102334],[-122.946435,46.102343],[-122.94647,46.102424],[-122.946694,46.102433],[-122.946716,46.102507],[-122.946823,46.102523]],[[-122.942716,46.101923],[-122.942678,46.101835],[-122.942628,46.101803],[-122.94248,46.101803],[-122.942428,46.101839],[-122.942438,46.101957],[-122.9426,46.102004],[-122.942652,46.102],[-122.942707,46.101964],[-122.942716,46.101923]],[[-122.946564,46.102613],[-122.946561,46.102561],[-122.946523,46.102529],[-122.946306,46.102523],[-122.946302,46.102471],[-122.946265,46.102439],[-122.946047,46.102433],[-122.946044,46.102381],[-122.946006,46.102349],[-122.945788,46.102343],[-122.945785,46.102291],[-122.945747,46.102259],[-122.94553,46.102253],[-122.945526,46.102201],[-122.945489,46.102169],[-122.945271,46.102162],[-122.945268,46.102111],[-122.94523,46.102079],[-122.945012,46.102072],[-122.944944,46.102048],[-122.944776,46.102088],[-122.944753,46.102252],[-122.944658,46.102261],[-122.944624,46.102342],[-122.944549,46.102344],[-122.944503,46.102371],[-122.944494,46.102612],[-122.944459,46.10266],[-122.944507,46.102768],[-122.944623,46.102792],[-122.944627,46.102844],[-122.944664,46.102876],[-122.944882,46.102882],[-122.944885,46.102934],[-122.944923,46.102966],[-122.945141,46.102972],[-122.945175,46.103053],[-122.945399,46.103063],[-122.945405,46.103119],[-122.945454,46.10315],[-122.945658,46.103153],[-122.945664,46.103209],[-122.945706,46.103239],[-122.945917,46.103243],[-122.945923,46.103299],[-122.945965,46.103329],[-122.946227,46.103333],[-122.946301,46.103295],[-122.946305,46.103153],[-122.9464,46.103144],[-122.946434,46.103063],[-122.946546,46.103043],[-122.946564,46.102883],[-122.946645,46.102879],[-122.94669,46.102845],[-122.946688,46.102646],[-122.946646,46.102617],[-122.946564,46.102613]]]}},{"type":"Feature","properties":{"id":3,"area_m2":16500,"px":165,"rank":5,"persistent":false},"geometry":{"type":"Polygon","coordinates":[[[-122.94151,46.109991],[-122.94151,46.110171],[-122.941422,46.110177],[-122.941382,46.110214],[-122.94138,46.110441],[-122.941122,46.110441],[-122.941109,46.110375],[-122.940993,46.11035],[-122.940987,46.11028],[-122.940939,46.110249],[-122.940789,46.110263],[-122.94074,46.110294],[-122.940733,46.11062],[-122.940622,46.11064],[-122.940604,46.1108],[-122.940515,46.110807],[-122.940476,46.110844],[-122.940474,46.11125],[-122.940392,46.111254],[-122.94035,46.111284],[-122.940344,46.11152],[-122.94027,46.111522],[-122.940224,46.111549],[-122.940214,46.11179],[-122.940126,46.111796],[-122.940087,46.111834],[-122.940088,46.112022],[-122.940133,46.112056],[-122.940214,46.11206],[-122.940214,46.11215],[-122.940085,46.11215],[-122.940079,46.112093],[-122.94003,46.112062],[-122.939826,46.11206],[-122.93982,46.112003],[-122.939778,46.111974],[-122.939567,46.11197],[-122.939561,46.111913],[-122.939519,46.111884],[-122.939309,46.11188],[-122.939303,46.111823],[-122.939261,46.111794],[-122.93905,46.111789],[-122.939027,46.111715],[-122.938921,46.111699],[-122.93892,46.111478],[-122.93888,46.111436],[-122.938464,46.111417],[-122.938409,46.111449],[-122.938403,46.111519],[-122.938276,46.111519],[-122.938251,46.111445],[-122.938144,46.111429],[-122.938145,46.111249],[-122.938219,46.111247],[-122.938265,46.111221],[-122.938274,46.111069],[-122.938356,46.111065],[-122.9384,46.111031],[-122.938404,46.110889],[-122.93851,46.110873],[-122.938533,46.110799],[-122.938663,46.110799],[-122.938697,46.11088],[-122.938921,46.110889],[-122.938927,46.110946],[-122.938976,46.110977],[-122.93918,46.11098],[-122.939186,46.111036],[-122.939228,46.111065],[-122.939568,46.11107],[-122.939568,46.11116],[-122.939467,46.111172],[-122.939439,46.11125],[-122.93935,46.111256],[-122.939311,46.111293],[-122.939325,46.111602],[-122.939275,46.111663],[-122.939327,46.111708],[-122.939399,46.111707],[-122.939437,46.11167],[-122.939422,46.111617],[-122.939533,46.111601],[-122.939568,46.11152],[-122.939642,46.111517],[-122.939688,46.111491],[-122.939697,46.11134],[-122.939779,46.111336],[-122.939823,46.111302],[-122.939827,46.11116],[-122.939901,46.111158],[-122.939947,46.111131],[-122.939957,46.11089],[-122.940031,46.110888],[-122.940077,46.110861],[-122.940086,46.11071],[-122.940168,46.110706],[-122.940212,46.110672],[-122.940216,46.11053],[-122.940311,46.110521],[-122.940345,46.11044],[-122.940457,46.11042],[-122.940475,46.11026],[-122.940549,46.110258],[-122.940595,46.110232],[-122.940605,46.10999],[-122.9407,46.109981],[-122.940734,46.1099],[-122.940808,46.109898],[-122.940854,46.109872],[-122.940864,46.10963],[-122.940993,46.109631],[-122.940999,46.109777],[-122.941041,46.109806],[-122.941122,46.109811],[-122.941151,46.109888],[-122.941381,46.109901],[-122.941404,46.109975],[-122.94151,46.109991]],[[-122.938792,46.111159],[-122.938873,46.111155],[-122.938918,46.111121],[-122.938918,46.111018],[-122.938866,46.110982],[-122.938704,46.110986],[-122.938666,46.111018],[-122.938662,46.111069],[-122.938581,46.111073],[-122.938536,46.111108],[-122.938536,46.111211],[-122.938588,46.111247],[-122.938752,46.111256],[-122.938788,46.111225],[-122.938792,46.111159]]]}},{"type":"Feature","properties":{"id":30,"area_m2":13300,"px":133,"rank":6,"persistent":false},"geometry":{"type":"Polygon","coordinates":[[[-122.941907,46.101891],[-122.941907,46.102251],[-122.941594,46.102237],[-122.94154,46.102253],[-122.941484,46.102383],[-122.941518,46.102431],[-122.941518,46.102521],[-122.941389,46.10252],[-122.941383,46.102464],[-122.941334,46.102433],[-122.941159,46.102443],[-122.94113,46.10252],[-122.941049,46.102524],[-122.941007,46.102554],[-122.941001,46.1027],[-122.940919,46.102704],[-122.940877,46.102734],[-122.940871,46.10288],[-122.940764,46.102896],[-122.940741,46.10297],[-122.940612,46.10297],[-122.940612,46.10279],[-122.940647,46.102748],[-122.940613,46.1027],[-122.940613,46.102299],[-122.940572,46.102256],[-122.940484,46.10225],[-122.940483,46.101754],[-122.940443,46.101716],[-122.940355,46.10171],[-122.940337,46.10155],[-122.940226,46.10153],[-122.940213,46.101374],[-122.940096,46.10135],[-122.940097,46.10117],[-122.940131,46.101127],[-122.940097,46.10108],[-122.940097,46.10099],[-122.940226,46.10099],[-122.940235,46.101051],[-122.940289,46.101079],[-122.940614,46.10108],[-122.940642,46.101158],[-122.940873,46.10117],[-122.940879,46.101227],[-122.940921,46.101256],[-122.941131,46.10126],[-122.941154,46.101335],[-122.941261,46.101351],[-122.941295,46.101431],[-122.94139,46.101441],[-122.94139,46.10162],[-122.941316,46.101623],[-122.94127,46.101649],[-122.941278,46.101781],[-122.94133,46.1018],[-122.941464,46.101798],[-122.941513,46.101767],[-122.941519,46.101711],[-122.941648,46.101711],[-122.94167,46.101888],[-122.941723,46.101905],[-122.941907,46.101891]]]}},{"type":"Feature","properties":{"id":19,"area_m2":8900,"px":89,"rank":7,"persistent":false},"geometry":{"type":"Polygon","coordinates":[[[-122.953419,46.105856],[-122.953419,46.105946],[-122.95333,46.105952],[-122.953291,46.10599],[-122.953289,46.106216],[-122.953187,46.10622],[-122.953143,46.106256],[-122.953159,46.106486],[-122.95303,46.106486],[-122.953025,46.106416],[-122.95297,46.106383],[-122.952642,46.106396],[-122.952633,46.106244],[-122.952587,46.106218],[-122.952513,46.106216],[-122.952504,46.106154],[-122.95245,46.106127],[-122.952262,46.106138],[-122.952234,46.106176],[-122.952254,46.106306],[-122.952125,46.106306],[-122.952121,46.106254],[-122.952084,46.106222],[-122.951866,46.106215],[-122.951853,46.10606],[-122.951737,46.106035],[-122.951702,46.105955],[-122.951607,46.105945],[-122.951579,46.105868],[-122.951478,46.105855],[-122.95145,46.105778],[-122.951219,46.105765],[-122.951219,46.105675],[-122.951308,46.105669],[-122.951347,46.105632],[-122.951349,46.105274],[-122.951294,46.105228],[-122.95109,46.105225],[-122.951091,46.105135],[-122.951349,46.105135],[-122.951353,46.105187],[-122.95139,46.105219],[-122.951608,46.105225],[-122.951621,46.105291],[-122.951737,46.105316],[-122.951772,46.105396],[-122.951996,46.105406],[-122.952019,46.10557],[-122.952254,46.105586],[-122.95227,46.105668],[-122.95222,46.105723],[-122.952273,46.105774],[-122.952367,46.105759],[-122.952384,46.105676],[-122.952513,46.105676],[-122.952519,46.105732],[-122.952568,46.105763],[-122.952901,46.105766],[-122.952914,46.105832],[-122.953031,46.105856],[-122.953037,46.105913],[-122.953086,46.105944],[-122.953241,46.105942],[-122.953284,46.105913],[-122.95329,46.105856],[-122.953419,46.105856]]]}},{"type":"Feature","properties":{"id":22,"area_m2":5700,"px":57,"rank":8,"persistent":false},"geometry":{"type":"Polygon","coordinates":[[[-122.948891,46.104864],[-122.948891,46.104954],[-122.948784,46.10497],[-122.948761,46.105044],[-122.948645,46.105068],[-122.948632,46.105134],[-122.948185,46.105134],[-122.948124,46.105162],[-122.948124,46.105285],[-122.948169,46.105312],[-122.948244,46.105314],[-122.948278,46.105395],[-122.948373,46.105404],[-122.948373,46.105494],[-122.948244,46.105494],[-122.948238,46.105437],[-122.948189,46.105406],[-122.947985,46.105404],[-122.947972,46.105338],[-122.947856,46.105314],[-122.94785,46.105257],[-122.947801,46.105226],[-122.947645,46.105228],[-122.947603,46.105257],[-122.947597,46.105314],[-122.947467,46.105313],[-122.947458,46.105162],[-122.947412,46.105136],[-122.947338,46.105133],[-122.947338,46.104954],[-122.947457,46.104943],[-122.947544,46.104977],[-122.947615,46.10493],[-122.947577,46.10487],[-122.947479,46.104875],[-122.947439,46.104786],[-122.947338,46.104772],[-122.947339,46.104684],[-122.947433,46.104674],[-122.947468,46.104594],[-122.947563,46.104591],[-122.947609,46.104564],[-122.947598,46.104414],[-122.947727,46.104414],[-122.94775,46.104488],[-122.947856,46.104504],[-122.947858,46.10464],[-122.947897,46.104677],[-122.948244,46.104684],[-122.948271,46.104775],[-122.948503,46.104774],[-122.948509,46.104831],[-122.948558,46.104862],[-122.948891,46.104864]]]}},{"type":"Feature","properties":{"id":13,"area_m2":4100,"px":41,"rank":9,"persistent":false},"geometry":{"type":"Polygon","coordinates":[[[-122.945264,46.108913],[-122.945264,46.109183],[-122.945169,46.109192],[-122.945134,46.109272],[-122.94506,46.109275],[-122.945014,46.109301],[-122.945005,46.109542],[-122.944746,46.109542],[-122.94474,46.109472],[-122.944686,46.10944],[-122.944358,46.109452],[-122.944358,46.109362],[-122.944446,46.109356],[-122.944487,46.109314],[-122.944472,46.1091],[-122.944522,46.109044],[-122.944497,46.109007],[-122.944441,46.108988],[-122.944367,46.109017],[-122.944374,46.109085],[-122.944238,46.109121],[-122.944229,46.109272],[-122.944147,46.109276],[-122.944105,46.109305],[-122.944064,46.109404],[-122.944099,46.109452],[-122.944099,46.109542],[-122.94397,46.109542],[-122.943964,46.109485],[-122.943915,46.109454],[-122.943711,46.109452],[-122.943711,46.109362],[-122.943907,46.109361],[-122.943961,46.109333],[-122.94397,46.109182],[-122.944082,46.109162],[-122.9441,46.109002],[-122.944181,46.108998],[-122.944226,46.108964],[-122.944229,46.108732],[-122.944488,46.108732],[-122.944516,46.10881],[-122.944671,46.108846],[-122.944747,46.108822],[-122.945005,46.108823],[-122.945011,46.108893],[-122.945066,46.108925],[-122.945264,46.108913]]]}},{"type":"Feature","properties":{"id":11,"area_m2":1900,"px":19,"rank":10,"persistent":false},"geometry":{"type":"Polygon","coordinates":[[[-122.95264,46.109186],[-122.95264,46.109276],[-122.952558,46.10928],[-122.952514,46.109314],[-122.95251,46.109456],[-122.952403,46.109472],[-122.95238,46.109546],[-122.952122,46.109546],[-122.952099,46.109471],[-122.951993,46.109456],[-122.951958,46.109375],[-122.951863,46.109366],[-122.951863,46.109276],[-122.951945,46.109271],[-122.951989,46.109237],[-122.951993,46.109096],[-122.952381,46.109096],[-122.952384,46.109147],[-122.952422,46.109179],[-122.95264,46.109186]]]}},{"type":"Feature","properties":{"id":12,"area_m2":1900,"px":19,"rank":11,"persistent":false},"geometry":{"type":"Polygon","coordinates":[[[-122.951734,46.108916],[-122.951734,46.109455],[-122.951627,46.109471],[-122.951602,46.109545],[-122.951345,46.109545],[-122.951342,46.109494],[-122.951304,46.109462],[-122.951087,46.109455],[-122.951087,46.109365],[-122.951427,46.109361],[-122.951469,46.109332],[-122.951475,46.109275],[-122.951556,46.109271],[-122.951601,46.109237],[-122.951601,46.109134],[-122.951542,46.109096],[-122.951394,46.109099],[-122.951352,46.109129],[-122.951346,46.109185],[-122.951216,46.109185],[-122.951216,46.109095],[-122.951298,46.109091],[-122.951342,46.109057],[-122.951346,46.108915],[-122.951453,46.1089],[-122.951477,46.108825],[-122.951605,46.108826],[-122.951627,46.1089],[-122.951734,46.108916]]]}},{"type":"Feature","properties":{"id":31,"area_m2":1900,"px":19,"rank":12,"persistent":false},"geometry":{"type":"Polygon","coordinates":[[[-122.940226,46.10081],[-122.940226,46.1009],[-122.939838,46.1009],[-122.939825,46.100834],[-122.939709,46.10081],[-122.939674,46.100729],[-122.93945,46.100719],[-122.93945,46.10054],[-122.939525,46.100537],[-122.939571,46.100511],[-122.93958,46.10036],[-122.939839,46.10036],[-122.939861,46.100434],[-122.939968,46.10045],[-122.939977,46.100691],[-122.940023,46.100717],[-122.940097,46.10072],[-122.940131,46.100801],[-122.940226,46.10081]]]}},{"type":"Feature","properties":{"id":5,"area_m2":1800,"px":18,"rank":13,"persistent":false},"geometry":{"type":"Polygon","coordinates":[[[-122.946945,46.110353],[-122.946945,46.110443],[-122.946838,46.110459],[-122.946815,46.110533],[-122.946686,46.110533],[-122.946683,46.110482],[-122.946645,46.11045],[-122.946427,46.110443],[-122.946399,46.110365],[-122.946169,46.110353],[-122.946163,46.110296],[-122.946121,46.110267],[-122.94591,46.110263],[-122.94591,46.110083],[-122.946169,46.110083],[-122.946245,46.110107],[-122.946399,46.110071],[-122.946428,46.109993],[-122.946557,46.109993],[-122.946557,46.110083],[-122.946522,46.110131],[-122.946574,46.110243],[-122.946627,46.110263],[-122.946816,46.110263],[-122.946838,46.110338],[-122.946945,46.110353]]]}},{"type":"Feature","properties":{"id":14,"area_m2":1600,"px":16,"rank":14,"persistent":false},"geometry":{"type":"Polygon","coordinates":[[[-122.943841,46.108552],[-122.943841,46.108822],[-122.943752,46.108828],[-122.943712,46.108871],[-122.943711,46.109272],[-122.943604,46.109288],[-122.943581,46.109362],[-122.943452,46.109362],[-122.943452,46.109272],[-122.943487,46.109229],[-122.943452,46.109182],[-122.943453,46.109002],[-122.943569,46.108978],[-122.943582,46.10887],[-122.943527,46.108824],[-122.943323,46.108822],[-122.943324,46.108642],[-122.94343,46.108626],[-122.943453,46.108552],[-122.943582,46.108552],[-122.943643,46.108576],[-122.943712,46.108552],[-122.943841,46.108552]]]}},{"type":"Feature","properties":{"id":16,"area_m2":1200,"px":12,"rank":15,"persistent":false},"geometry":{"type":"Polygon","coordinates":[[[-122.941902,46.107111],[-122.941901,46.107201],[-122.941772,46.107201],[-122.941711,46.107177],[-122.941643,46.107201],[-122.941255,46.107201],[-122.941255,46.107111],[-122.941336,46.107106],[-122.941381,46.107072],[-122.941384,46.106931],[-122.941466,46.106927],[-122.941508,46.106897],[-122.941514,46.106751],[-122.941643,46.106751],[-122.941652,46.106902],[-122.941698,46.106928],[-122.941772,46.106931],[-122.94179,46.107091],[-122.941902,46.107111]]]}},{"type":"Feature","properties":{"id":17,"area_m2":1200,"px":12,"rank":16,"persistent":false},"geometry":{"type":"Polygon","coordinates":[[[-122.951995,46.106576],[-122.951995,46.106846],[-122.951865,46.106845],[-122.951852,46.10669],[-122.951736,46.106665],[-122.951702,46.106585],[-122.951607,46.106575],[-122.951605,46.106349],[-122.951566,46.106312],[-122.951478,46.106305],[-122.951478,46.106125],[-122.951607,46.106125],[-122.95163,46.1062],[-122.951736,46.106216],[-122.951745,46.106367],[-122.951791,46.106393],[-122.951866,46.106396],[-122.951883,46.106556],[-122.951995,46.106576]]]}},{"type":"Feature","properties":{"id":20,"area_m2":900,"px":9,"rank":17,"persistent":false},"geometry":{"type":"Polygon","coordinates":[[[-122.948502,46.105764],[-122.948502,46.106124],[-122.948395,46.10614],[-122.948372,46.106214],[-122.948114,46.106214],[-122.948114,46.106034],[-122.948209,46.106025],[-122.948243,46.105944],[-122.948359,46.10592],[-122.948373,46.105764],[-122.948502,46.105764]]]}},{"type":"Feature","properties":{"id":6,"area_m2":700,"px":7,"rank":18,"persistent":false},"geometry":{"type":"Polygon","coordinates":[[[-122.942025,46.110082],[-122.941993,46.110129],[-122.942028,46.110171],[-122.942028,46.110351],[-122.941769,46.110351],[-122.941769,46.109991],[-122.942028,46.109991],[-122.942025,46.110082]]]}},{"type":"Feature","properties":{"id":7,"area_m2":700,"px":7,"rank":19,"persistent":false},"geometry":{"type":"Polygon","coordinates":[[[-122.947334,46.109904],[-122.947333,46.109994],[-122.947077,46.109993],[-122.947052,46.109919],[-122.946945,46.109903],[-122.946946,46.109723],[-122.947052,46.109708],[-122.947075,46.109634],[-122.947204,46.109634],[-122.947208,46.109865],[-122.947252,46.109899],[-122.947334,46.109904]]]}},{"type":"Feature","properties":{"id":18,"area_m2":700,"px":7,"rank":20,"persistent":false},"geometry":{"type":"Polygon","coordinates":[[[-122.956006,46.106397],[-122.956006,46.106487],[-122.955877,46.106487],[-122.955816,46.106463],[-122.955747,46.106487],[-122.955618,46.106487],[-122.955595,46.106413],[-122.955489,46.106397],[-122.955489,46.106217],[-122.955748,46.106217],[-122.95577,46.106291],[-122.955877,46.106307],[-122.955911,46.106388],[-122.956006,46.106397]]]}},{"type":"Feature","properties":{"id":21,"area_m2":700,"px":7,"rank":21,"persistent":false},"geometry":{"type":"Polygon","coordinates":[[[-122.947338,46.105404],[-122.947338,46.105673],[-122.947113,46.105683],[-122.947079,46.105722],[-122.947079,46.105853],[-122.946949,46.105853],[-122.94695,46.105673],[-122.947024,46.105671],[-122.94707,46.105645],[-122.947079,46.105493],[-122.947186,46.105478],[-122.947209,46.105404],[-122.947338,46.105404]]]}},{"type":"Feature","properties":{"id":23,"area_m2":500,"px":5,"rank":22,"persistent":false},"geometry":{"type":"Polygon","coordinates":[[[-122.949797,46.104595],[-122.949797,46.104775],[-122.949668,46.104774],[-122.949645,46.10461],[-122.94928,46.104594],[-122.94928,46.104504],[-122.949668,46.104505],[-122.94969,46.104579],[-122.949797,46.104595]]]}},{"type":"Feature","properties":{"id":29,"area_m2":500,"px":5,"rank":23,"persistent":false},"geometry":{"type":"Polygon","coordinates":[[[-122.944623,46.103152],[-122.944623,46.103242],[-122.944364,46.103242],[-122.944361,46.10319],[-122.944323,46.103158],[-122.944105,46.103152],[-122.944106,46.103062],[-122.944494,46.103062],[-122.944516,46.103136],[-122.944623,46.103152]]]}},{"type":"Feature","properties":{"id":10,"area_m2":400,"px":4,"rank":24,"persistent":false},"geometry":{"type":"Polygon","coordinates":[[[-122.945393,46.109273],[-122.945393,46.109633],[-122.945264,46.109633],[-122.945264,46.109273],[-122.945393,46.109273]]]}},{"type":"Feature","properties":{"id":25,"area_m2":400,"px":4,"rank":25,"persistent":false},"geometry":{"type":"Polygon","coordinates":[[[-122.947081,46.103603],[-122.947081,46.103693],[-122.946953,46.103693],[-122.946948,46.103642],[-122.94691,46.10361],[-122.946693,46.103603],[-122.946693,46.103423],[-122.946822,46.103423],[-122.946845,46.103497],[-122.946951,46.103513],[-122.946986,46.103594],[-122.947081,46.103603]]]}},{"type":"Feature","properties":{"id":4,"area_m2":300,"px":3,"rank":26,"persistent":false},"geometry":{"type":"Polygon","coordinates":[[[-122.944485,46.111162],[-122.944485,46.111342],[-122.944227,46.111342],[-122.944227,46.111252],[-122.944333,46.111236],[-122.944356,46.111162],[-122.944485,46.111162]]]}},{"type":"Feature","properties":{"id":8,"area_m2":300,"px":3,"rank":27,"persistent":false},"geometry":{"type":"Polygon","coordinates":[[[-122.946816,46.109543],[-122.946816,46.109633],[-122.94671,46.109649],[-122.946687,46.109723],[-122.946557,46.109723],[-122.946558,46.109543],[-122.946816,46.109543]]]}},{"type":"Feature","properties":{"id":9,"area_m2":300,"px":3,"rank":28,"persistent":false},"geometry":{"type":"Polygon","coordinates":[[[-122.945652,46.109363],[-122.945652,46.109633],[-122.945522,46.109633],[-122.945523,46.109363],[-122.945652,46.109363]]]}},{"type":"Feature","properties":{"id":24,"area_m2":300,"px":3,"rank":29,"persistent":false},"geometry":{"type":"Polygon","coordinates":[[[-122.945528,46.104143],[-122.945527,46.104413],[-122.945398,46.104413],[-122.945398,46.104143],[-122.945528,46.104143]]]}},{"type":"Feature","properties":{"id":27,"area_m2":300,"px":3,"rank":30,"persistent":false},"geometry":{"type":"Polygon","coordinates":[[[-122.943329,46.103332],[-122.943329,46.103421],[-122.943199,46.103421],[-122.943177,46.103347],[-122.94307,46.103331],[-122.943036,46.10325],[-122.942941,46.103241],[-122.942941,46.103151],[-122.94307,46.103151],[-122.943093,46.103226],[-122.943199,46.103242],[-122.943234,46.103322],[-122.943329,46.103332]]]}},{"type":"Feature","properties":{"id":28,"area_m2":300,"px":3,"rank":31,"persistent":false},"geometry":{"type":"Polygon","coordinates":[[[-122.947469,46.102974],[-122.947469,46.103243],[-122.94734,46.103243],[-122.94734,46.102974],[-122.947469,46.102974]]]}}]}