{"type":"FeatureCollection","features":[{"type":"Feature","properties":{"id":1,"area_m2":105200,"px":1052,"rank":1,"persistent":false},"geometry":{"type":"Polygon","coordinates":[[[-122.962085,46.109999],[-122.962085,46.110539],[-122.961849,46.110555],[-122.961826,46.110629],[-122.961745,46.110633],[-122.961703,46.110663],[-122.961696,46.110809],[-122.961596,46.110822],[-122.961567,46.110899],[-122.961479,46.110906],[-122.961438,46.110948],[-122.961438,46.111044],[-122.961465,46.11108],[-122.96152,46.111093],[-122.961641,46.111077],[-122.96169,46.111046],[-122.961696,46.110989],[-122.961813,46.110965],[-122.961826,46.110899],[-122.961938,46.11088],[-122.961955,46.110809],[-122.962085,46.11081],[-122.962084,46.111169],[-122.961973,46.111189],[-122.961955,46.111349],[-122.961873,46.111353],[-122.961829,46.111388],[-122.961791,46.111482],[-122.961825,46.111529],[-122.961825,46.111799],[-122.961751,46.111802],[-122.961705,46.111828],[-122.961696,46.111979],[-122.960015,46.111979],[-122.959952,46.111955],[-122.959884,46.111979],[-122.959625,46.111979],[-122.959612,46.111823],[-122.959555,46.111799],[-122.959367,46.111798],[-122.959344,46.111724],[-122.959237,46.111708],[-122.959234,46.111567],[-122.95916,46.111528],[-122.958919,46.111529],[-122.958858,46.111557],[-122.958849,46.111978],[-122.956908,46.111978],[-122.956885,46.111903],[-122.956778,46.111888],[-122.956744,46.111807],[-122.956649,46.111797],[-122.956646,46.111642],[-122.956574,46.111604],[-122.956431,46.111624],[-122.956391,46.111666],[-122.956394,46.111849],[-122.956438,46.111883],[-122.956519,46.111888],[-122.956519,46.111977],[-122.956002,46.111977],[-122.956002,46.111887],[-122.956097,46.111878],[-122.956131,46.111797],[-122.956206,46.111795],[-122.956252,46.111769],[-122.956261,46.111617],[-122.956356,46.111608],[-122.956391,46.111527],[-122.956472,46.111523],[-122.956514,46.111494],[-122.95652,46.111258],[-122.956632,46.111238],[-122.95665,46.111078],[-122.956731,46.111073],[-122.956773,46.111044],[-122.956779,46.110808],[-122.956874,46.110805],[-122.95692,46.110778],[-122.956909,46.110628],[-122.957004,46.110619],[-122.957038,46.110538],[-122.957155,46.110514],[-122.957168,46.110358],[-122.957384,46.110357],[-122.957438,46.110328],[-122.957427,46.110088],[-122.957533,46.110072],[-122.957556,46.109998],[-122.957996,46.109998],[-122.958051,46.109982],[-122.958074,46.109728],[-122.958162,46.109722],[-122.958202,46.109685],[-122.958204,46.109458],[-122.95831,46.109442],[-122.958333,46.109368],[-122.958569,46.109352],[-122.958592,46.109188],[-122.958781,46.109188],[-122.958833,46.109169],[-122.958851,46.109008],[-122.958946,46.108999],[-122.958981,46.108918],[-122.959092,46.108899],[-122.95911,46.108738],[-122.959217,46.108723],[-122.95924,46.108648],[-122.959356,46.108624],[-122.959369,46.108559],[-122.959707,46.108558],[-122.959755,46.108542],[-122.959777,46.108503],[-122.959757,46.108379],[-122.959864,46.108363],[-122.959887,46.108289],[-122.960275,46.108289],[-122.960278,46.10834],[-122.960316,46.108372],[-122.960534,46.108379],[-122.960535,46.108515],[-122.960596,46.108558],[-122.960742,46.108559],[-122.960796,46.108538],[-122.960793,46.108379],[-122.960922,46.108379],[-122.960928,46.108436],[-122.960977,46.108467],[-122.96118,46.108469],[-122.96118,46.108559],[-122.960992,46.108559],[-122.960939,46.108579],[-122.960922,46.108685],[-122.960977,46.108737],[-122.96118,46.108739],[-122.96118,46.108829],[-122.961146,46.108877],[-122.961189,46.108981],[-122.961235,46.109007],[-122.961309,46.109009],[-122.961344,46.10909],[-122.961439,46.109099],[-122.961439,46.109189],[-122.96125,46.109189],[-122.961198,46.109209],[-122.961186,46.109336],[-122.961228,46.109365],[-122.961309,46.109369],[-122.961344,46.10945],[-122.961439,46.109459],[-122.961473,46.10954],[-122.961697,46.109549],[-122.961698,46.109681],[-122.961732,46.10972],[-122.961956,46.109729],[-122.961959,46.109961],[-122.962004,46.109995],[-122.962085,46.109999]],[[-122.957445,46.111033],[-122.95742,46.110931],[-122.957378,46.110902],[-122.957235,46.110884],[-122.957173,46.110918],[-122.957169,46.111034],[-122.957215,46.111074],[-122.957406,46.111071],[-122.957445,46.111033]],[[-122.957555,46.111708],[-122.957636,46.111704],[-122.957678,46.111675],[-122.957684,46.111577],[-122.957656,46.11154],[-122.957426,46.111528],[-122.957365,46.111504],[-122.957282,46.111537],[-122.957262,46.111581],[-122.957296,46.111618],[-122.957296,46.111749],[-122.957324,46.111786],[-122.957514,46.111791],[-122.957552,46.11176],[-122.957555,46.111708]],[[-122.957944,46.110448],[-122.958026,46.110444],[-122.95807,46.11041],[-122.958065,46.110207],[-122.958011,46.110179],[-122.957725,46.110171],[-122.957689,46.110203],[-122.957685,46.110268],[-122.957591,46.11027],[-122.957541,46.110302],[-122.957556,46.110448],[-122.957461,46.110457],[-122.957426,46.110538],[-122.957352,46.11054],[-122.957306,46.110566],[-122.957306,46.110689],[-122.957367,46.110718],[-122.957644,46.110712],[-122.957682,46.11068],[-122.957685,46.110628],[-122.957801,46.110604],[-122.957815,46.110538],[-122.957926,46.110518],[-122.957944,46.110448]],[[-122.959872,46.110065],[-122.959904,46.109864],[-122.959865,46.109825],[-122.959638,46.10983],[-122.959592,46.109738],[-122.959444,46.109705],[-122.95938,46.109718],[-122.959333,46.109776],[-122.959381,46.109885],[-122.959438,46.109908],[-122.959616,46.109898],[-122.959627,46.109999],[-122.95952,46.110014],[-122.959497,46.110088],[-122.959402,46.110098],[-122.959368,46.110178],[-122.959256,46.110198],[-122.959238,46.110268],[-122.959002,46.110284],[-122.958979,46.110322],[-122.958997,46.110429],[-122.959109,46.110448],[-122.959115,46.110505],[-122.959157,46.110534],[-122.959339,46.110526],[-122.959367,46.11049],[-122.959368,46.110359],[-122.959469,46.110346],[-122.959497,46.110269],[-122.959598,46.110256],[-122.959627,46.110179],[-122.959721,46.11017],[-122.959756,46.110089],[-122.959872,46.110065]],[[-122.960065,46.111799],[-122.960142,46.111755],[-122.960142,46.111662],[-122.960115,46.111631],[-122.959945,46.111595],[-122.959772,46.111638],[-122.959755,46.11175],[-122.959783,46.111786],[-122.960065,46.111799]],[[-122.960219,46.109551],[-122.960048,46.109545],[-122.960015,46.109639],[-122.959941,46.109641],[-122.959895,46.109667],[-122.959886,46.109784],[-122.959925,46.109826],[-122.960103,46.109812],[-122.960141,46.10978],[-122.960145,46.109729],[-122.960219,46.109726],[-122.960265,46.1097],[-122.960265,46.109577],[-122.960219,46.109551]],[[-122.961049,46.110849],[-122.960982,46.110796],[-122.960813,46.110825],[-122.960791,46.110899],[-122.960696,46.110908],[-122.960661,46.110989],[-122.960587,46.110991],[-122.960541,46.111017],[-122.960553,46.111166],[-122.960614,46.111183],[-122.960768,46.111153],[-122.960791,46.111079],[-122.960885,46.11107],[-122.96092,46.110989],[-122.961036,46.110965],[-122.961049,46.110849]],[[-122.961437,46.111209],[-122.96137,46.111156],[-122.961201,46.111185],[-122.961179,46.111259],[-122.961084,46.111268],[-122.961049,46.111349],[-122.960975,46.111351],[-122.960929,46.111378],[-122.960941,46.111526],[-122.961002,46.111543],[-122.961156,46.111513],[-122.961179,46.111439],[-122.961273,46.11143],[-122.961308,46.111349],[-122.961424,46.111325],[-122.961437,46.111209]]]}},{"type":"Feature","properties":{"id":9,"area_m2":6900,"px":69,"rank":2,"persistent":false},"geometry":{"type":"Polygon","coordinates":[[[-122.951606,46.107025],[-122.951606,46.107385],[-122.951532,46.107388],[-122.951486,46.107414],[-122.951476,46.107565],[-122.951395,46.107569],[-122.95135,46.107604],[-122.951347,46.107745],[-122.95124,46.107761],[-122.951217,46.107835],[-122.9507,46.107835],[-122.950677,46.107761],[-122.950571,46.107744],[-122.950571,46.107205],[-122.950645,46.107203],[-122.950691,46.107176],[-122.950701,46.107025],[-122.950807,46.107009],[-122.95083,46.106935],[-122.950937,46.106919],[-122.95096,46.106845],[-122.951076,46.106821],[-122.951091,46.106755],[-122.951218,46.106755],[-122.951241,46.106829],[-122.951348,46.106845],[-122.951361,46.106911],[-122.951477,46.106935],[-122.951505,46.107013],[-122.951606,46.107025]]]}},{"type":"Feature","properties":{"id":4,"area_m2":2500,"px":25,"rank":3,"persistent":false},"geometry":{"type":"Polygon","coordinates":[[[-122.948756,46.110984],[-122.948756,46.111074],[-122.948238,46.111074],[-122.94821,46.110996],[-122.94798,46.110984],[-122.947974,46.110927],[-122.947932,46.110898],[-122.947592,46.110894],[-122.947578,46.110828],[-122.947462,46.110804],[-122.947428,46.110723],[-122.947204,46.110713],[-122.947181,46.110639],[-122.947074,46.110623],[-122.947074,46.110534],[-122.947333,46.110534],[-122.947342,46.110595],[-122.947395,46.110623],[-122.947721,46.110624],[-122.94773,46.110685],[-122.947784,46.110713],[-122.948109,46.110714],[-122.948113,46.110766],[-122.94815,46.110798],[-122.948368,46.110804],[-122.948381,46.11087],[-122.948497,46.110894],[-122.948532,46.110975],[-122.948756,46.110984]]]}},{"type":"Feature","properties":{"id":7,"area_m2":1300,"px":13,"rank":4,"persistent":false},"geometry":{"type":"Polygon","coordinates":[[[-122.955099,46.108287],[-122.955099,46.108467],[-122.95497,46.108467],[-122.954964,46.10832],[-122.954922,46.108291],[-122.95484,46.108287],[-122.954834,46.10814],[-122.954792,46.108111],[-122.954711,46.108107],[-122.954705,46.10796],[-122.954663,46.107931],[-122.954582,46.107927],[-122.954576,46.10778],[-122.954534,46.107751],[-122.954453,46.107747],[-122.954447,46.1076],[-122.954405,46.107571],[-122.954323,46.107566],[-122.95432,46.107425],[-122.954275,46.107391],[-122.954194,46.107386],[-122.954194,46.107297],[-122.954323,46.107297],[-122.954346,46.107371],[-122.954453,46.107387],[-122.954462,46.107538],[-122.954508,46.107564],[-122.954582,46.107567],[-122.954591,46.107718],[-122.954637,46.107744],[-122.954711,46.107747],[-122.954717,46.107893],[-122.954759,46.107923],[-122.95484,46.107927],[-122.954844,46.108068],[-122.954888,46.108103],[-122.95497,46.108107],[-122.954983,46.108263],[-122.955099,46.108287]]]}},{"type":"Feature","properties":{"id":6,"area_m2":1200,"px":12,"rank":5,"persistent":false},"geometry":{"type":"Polygon","coordinates":[[[-122.954969,46.108647],[-122.954969,46.108827],[-122.954862,46.108843],[-122.95484,46.108917],[-122.954385,46.108918],[-122.954331,46.108945],[-122.954322,46.109007],[-122.954092,46.109019],[-122.954063,46.109096],[-122.953804,46.109096],[-122.953805,46.109006],[-122.954015,46.109002],[-122.954057,46.108973],[-122.954063,46.108917],[-122.954274,46.108912],[-122.954316,46.108883],[-122.954322,46.108827],[-122.954533,46.108823],[-122.954575,46.108793],[-122.954581,46.108737],[-122.954785,46.108734],[-122.954834,46.108703],[-122.95484,46.108647],[-122.954969,46.108647]]]}},{"type":"Feature","properties":{"id":3,"area_m2":400,"px":4,"rank":6,"persistent":false},"geometry":{"type":"Polygon","coordinates":[[[-122.951214,46.111705],[-122.951214,46.111795],[-122.950955,46.111795],[-122.950932,46.111721],[-122.950826,46.111705],[-122.950791,46.111624],[-122.950697,46.111615],[-122.950697,46.111525],[-122.950826,46.111525],[-122.950839,46.111591],[-122.950955,46.111615],[-122.950959,46.111667],[-122.950996,46.111699],[-122.951214,46.111705]]]}},{"type":"Feature","properties":{"id":5,"area_m2":400,"px":4,"rank":7,"persistent":false},"geometry":{"type":"Polygon","coordinates":[[[-122.955098,46.109097],[-122.955098,46.109277],[-122.954969,46.109277],[-122.954946,46.109203],[-122.95484,46.109187],[-122.95484,46.109007],[-122.954969,46.109007],[-122.954992,46.109081],[-122.955098,46.109097]]]}},{"type":"Feature","properties":{"id":2,"area_m2":300,"px":3,"rank":8,"persistent":false},"geometry":{"type":"Polygon","coordinates":[[[-122.951861,46.111616],[-122.951861,46.111796],[-122.951754,46.111811],[-122.951731,46.111886],[-122.951602,46.111885],[-122.951602,46.111796],[-122.951684,46.111791],[-122.951728,46.111757],[-122.951732,46.111616],[-122.951861,46.111616]]]}},{"type":"Feature","properties":{"id":8,"area_m2":300,"px":3,"rank":9,"persistent":false},"geometry":{"type":"Polygon","coordinates":[[[-122.951606,46.107745],[-122.951606,46.107835],[-122.951524,46.10784],[-122.95148,46.107874],[-122.951476,46.108015],[-122.951347,46.108015],[-122.951347,46.107835],[-122.951454,46.10782],[-122.951476,46.107745],[-122.951606,46.107745]]]}},{"type":"Feature","properties":{"id":10,"area_m2":300,"px":3,"rank":10,"persistent":false},"geometry":{"type":"Polygon","coordinates":[[[-122.955877,46.106757],[-122.955876,46.106847],[-122.955795,46.106851],[-122.95575,46.106885],[-122.955747,46.107027],[-122.955618,46.107027],[-122.955618,46.106847],[-122.955724,46.106831],[-122.955747,46.106757],[-122.955877,46.106757]]]}},{"type":"Feature","properties":{"id":11,"area_m2":300,"px":3,"rank":11,"persistent":false},"geometry":{"type":"Polygon","coordinates":[[[-122.954712,46.106667],[-122.954712,46.106757],[-122.954583,46.106757],[-122.954579,46.106705],[-122.954542,46.106673],[-122.954324,46.106666],[-122.954324,46.106577],[-122.954583,46.106577],[-122.954605,46.106651],[-122.954712,46.106667]]]}}]}