{"type":"FeatureCollection","features":[{"type":"Feature","properties":{"id":3,"area_m2":95800,"px":958,"rank":1,"persistent":false},"geometry":{"type":"Polygon","coordinates":[[[-122.960921,46.109819],[-122.960921,46.109999],[-122.960814,46.110015],[-122.960791,46.110089],[-122.96069,46.110101],[-122.960662,46.110179],[-122.960561,46.110191],[-122.960532,46.110269],[-122.960437,46.110278],[-122.960403,46.110359],[-122.960291,46.110379],[-122.960273,46.110449],[-122.960155,46.11046],[-122.960075,46.110425],[-122.96001,46.110453],[-122.959995,46.110488],[-122.960022,46.110526],[-122.960144,46.110539],[-122.960144,46.110629],[-122.960037,46.110645],[-122.960014,46.110719],[-122.959919,46.110728],[-122.959885,46.110809],[-122.959773,46.110828],[-122.959755,46.110899],[-122.959572,46.110885],[-122.959509,46.110909],[-122.959496,46.111169],[-122.959422,46.111171],[-122.959376,46.111197],[-122.959367,46.111348],[-122.959149,46.111355],[-122.959111,46.111387],[-122.959108,46.111438],[-122.958878,46.111451],[-122.958849,46.111528],[-122.95859,46.111528],[-122.958581,46.111467],[-122.958528,46.111439],[-122.958121,46.111442],[-122.958079,46.111471],[-122.958073,46.111528],[-122.957956,46.111552],[-122.957943,46.111618],[-122.957725,46.111624],[-122.957688,46.111656],[-122.957684,46.111708],[-122.957568,46.111732],[-122.957555,46.111798],[-122.957443,46.111818],[-122.957425,46.111978],[-122.957167,46.111978],[-122.957151,46.111895],[-122.957248,46.111884],[-122.957293,46.111849],[-122.957296,46.111708],[-122.957329,46.11165],[-122.957279,46.111548],[-122.957167,46.111528],[-122.957149,46.111457],[-122.957038,46.111438],[-122.957024,46.111372],[-122.95696,46.111348],[-122.956841,46.111349],[-122.956792,46.111372],[-122.956778,46.111618],[-122.95669,46.111624],[-122.956649,46.111666],[-122.95665,46.111844],[-122.956711,46.111887],[-122.956879,46.111875],[-122.956907,46.111839],[-122.956908,46.111708],[-122.957037,46.111708],[-122.957053,46.11188],[-122.95693,46.111903],[-122.956908,46.111978],[-122.955873,46.111977],[-122.955873,46.111887],[-122.955961,46.111881],[-122.956,46.111844],[-122.956002,46.111617],[-122.95609,46.111611],[-122.95613,46.111574],[-122.956132,46.111257],[-122.95622,46.111251],[-122.95626,46.111214],[-122.956258,46.111102],[-122.956194,46.111064],[-122.956031,46.11109],[-122.956002,46.111167],[-122.955744,46.111167],[-122.955675,46.111143],[-122.955614,46.111167],[-122.955384,46.111179],[-122.955356,46.111216],[-122.955355,46.111437],[-122.955144,46.111441],[-122.955102,46.11147],[-122.955096,46.111527],[-122.954985,46.111547],[-122.954967,46.111707],[-122.954872,46.111716],[-122.954837,46.111797],[-122.954756,46.111801],[-122.954714,46.11183],[-122.954706,46.111977],[-122.954061,46.111976],[-122.954045,46.111894],[-122.954163,46.111882],[-122.954209,46.111842],[-122.954181,46.111735],[-122.954113,46.111707],[-122.95396,46.111719],[-122.953932,46.111755],[-122.953947,46.111879],[-122.953825,46.111902],[-122.953802,46.111976],[-122.953673,46.111976],[-122.953673,46.111796],[-122.953774,46.111784],[-122.953802,46.111706],[-122.953897,46.111697],[-122.953932,46.111617],[-122.954043,46.111597],[-122.954044,46.111456],[-122.953932,46.111436],[-122.953926,46.11138],[-122.953877,46.111349],[-122.953544,46.111346],[-122.953538,46.11129],[-122.953496,46.11126],[-122.953226,46.111256],[-122.953159,46.111294],[-122.953157,46.111393],[-122.953196,46.11143],[-122.953285,46.111436],[-122.953285,46.111526],[-122.953026,46.111526],[-122.953013,46.11137],[-122.952897,46.111346],[-122.952891,46.111289],[-122.952849,46.11126],[-122.952638,46.111256],[-122.952635,46.111101],[-122.952563,46.111062],[-122.952414,46.111085],[-122.952379,46.111166],[-122.952263,46.11119],[-122.95225,46.111346],[-122.952175,46.111348],[-122.952129,46.111374],[-122.95212,46.111526],[-122.952004,46.11155],[-122.95199,46.111706],[-122.951874,46.11173],[-122.951861,46.111886],[-122.951754,46.111901],[-122.951731,46.111976],[-122.951473,46.111975],[-122.951464,46.111914],[-122.95141,46.111886],[-122.951085,46.111885],[-122.951067,46.111815],[-122.950955,46.111795],[-122.950946,46.111734],[-122.950893,46.111706],[-122.950438,46.111705],[-122.950361,46.111681],[-122.950207,46.111717],[-122.950179,46.111795],[-122.950049,46.111795],[-122.950049,46.111705],[-122.950131,46.111701],[-122.950175,46.111667],[-122.950161,46.111545],[-122.95005,46.111525],[-122.950044,46.111468],[-122.950002,46.111439],[-122.949791,46.111435],[-122.949785,46.111378],[-122.949743,46.111349],[-122.949532,46.111345],[-122.949532,46.111255],[-122.949567,46.111207],[-122.949519,46.111099],[-122.949462,46.111075],[-122.949274,46.111074],[-122.949274,46.110895],[-122.949403,46.110895],[-122.949412,46.110956],[-122.949466,46.110984],[-122.949921,46.110985],[-122.949949,46.111063],[-122.950104,46.111089],[-122.950171,46.11106],[-122.95018,46.110985],[-122.950309,46.110985],[-122.950377,46.111009],[-122.950513,46.110983],[-122.950562,46.110952],[-122.950568,46.110895],[-122.950697,46.110895],[-122.950725,46.110973],[-122.950888,46.110999],[-122.95095,46.110965],[-122.950956,46.110895],[-122.951174,46.110889],[-122.951211,46.110857],[-122.951215,46.110805],[-122.951474,46.110805],[-122.951473,46.110895],[-122.951392,46.1109],[-122.951347,46.110934],[-122.951357,46.111051],[-122.951534,46.1111],[-122.951603,46.111076],[-122.951732,46.111076],[-122.951745,46.111155],[-122.951829,46.111178],[-122.951896,46.111128],[-122.951846,46.111068],[-122.951862,46.110986],[-122.952309,46.110986],[-122.95237,46.110957],[-122.95238,46.110806],[-122.952414,46.110763],[-122.95238,46.110716],[-122.95238,46.110536],[-122.95272,46.110532],[-122.952762,46.110503],[-122.952768,46.110446],[-122.952884,46.110422],[-122.952898,46.110356],[-122.953027,46.110356],[-122.953027,46.110487],[-122.953061,46.110527],[-122.953415,46.110536],[-122.953428,46.110602],[-122.953544,46.110626],[-122.953579,46.110707],[-122.953803,46.110716],[-122.953809,46.110953],[-122.953851,46.110982],[-122.953932,46.110987],[-122.953967,46.111067],[-122.954061,46.111077],[-122.95405,46.111227],[-122.954096,46.111254],[-122.954191,46.111257],[-122.954213,46.111511],[-122.954394,46.111524],[-122.954443,46.111493],[-122.95445,46.111437],[-122.954568,46.111426],[-122.954613,46.111518],[-122.954791,46.111536],[-122.954836,46.111497],[-122.954858,46.111403],[-122.954836,46.111363],[-122.95478,46.111347],[-122.95459,46.111358],[-122.954556,46.111273],[-122.95445,46.111257],[-122.954415,46.111176],[-122.95432,46.111167],[-122.95432,46.110987],[-122.954551,46.110974],[-122.954578,46.110943],[-122.954578,46.11085],[-122.954524,46.110809],[-122.954383,46.110808],[-122.95433,46.110835],[-122.954309,46.110908],[-122.954191,46.110896],[-122.954191,46.110807],[-122.954226,46.110764],[-122.954191,46.110717],[-122.954191,46.110495],[-122.95415,46.110453],[-122.954062,46.110446],[-122.954062,46.110087],[-122.954192,46.110087],[-122.954214,46.110161],[-122.954321,46.110177],[-122.954324,46.110588],[-122.954376,46.110624],[-122.95454,46.110634],[-122.954576,46.110602],[-122.95458,46.110537],[-122.954654,46.110534],[-122.9547,46.110508],[-122.954726,46.110397],[-122.954682,46.110361],[-122.95458,46.110357],[-122.954578,46.11004],[-122.954539,46.110003],[-122.954451,46.109997],[-122.954458,46.109842],[-122.954401,46.109817],[-122.954192,46.109816],[-122.954192,46.109547],[-122.954321,46.109547],[-122.954335,46.109613],[-122.954451,46.109637],[-122.954457,46.109693],[-122.954499,46.109723],[-122.954649,46.109751],[-122.954811,46.109715],[-122.954839,46.109678],[-122.954839,46.109547],[-122.954921,46.109543],[-122.954965,46.109509],[-122.954969,46.109367],[-122.955057,46.10936],[-122.955097,46.109323],[-122.955092,46.10922],[-122.95505,46.109191],[-122.954969,46.109187],[-122.954971,46.109097],[-122.955098,46.109097],[-122.955159,46.109121],[-122.955228,46.109097],[-122.955357,46.109097],[-122.955357,46.109187],[-122.955276,46.109191],[-122.955231,46.109225],[-122.955227,46.109367],[-122.955146,46.109371],[-122.955101,46.109405],[-122.955098,46.109763],[-122.955132,46.109808],[-122.955227,46.109817],[-122.955255,46.109895],[-122.955356,46.109907],[-122.955357,46.110218],[-122.955397,46.110261],[-122.955615,46.110267],[-122.955638,46.110341],[-122.95579,46.11038],[-122.955969,46.110348],[-122.956002,46.110314],[-122.956,46.110216],[-122.955955,46.110181],[-122.955874,46.110177],[-122.955874,46.110087],[-122.956098,46.110078],[-122.956133,46.109997],[-122.956249,46.109973],[-122.956262,46.109907],[-122.956374,46.109888],[-122.956392,46.109817],[-122.956504,46.109798],[-122.956521,46.109728],[-122.956651,46.109728],[-122.95665,46.109907],[-122.956556,46.109917],[-122.956521,46.109997],[-122.956447,46.11],[-122.956401,46.110026],[-122.956391,46.110267],[-122.95628,46.110287],[-122.956243,46.110386],[-122.956282,46.110441],[-122.956391,46.110447],[-122.95642,46.110525],[-122.956521,46.110538],[-122.95652,46.110627],[-122.956391,46.110627],[-122.956382,46.110566],[-122.956321,46.110538],[-122.95618,46.110541],[-122.956132,46.110591],[-122.956145,46.110693],[-122.956262,46.110717],[-122.956261,46.110807],[-122.956227,46.110855],[-122.956275,46.110963],[-122.956391,46.110987],[-122.956394,46.111039],[-122.956432,46.111071],[-122.956602,46.111073],[-122.956649,46.111029],[-122.95665,46.110808],[-122.956751,46.110795],[-122.956779,46.110718],[-122.956874,46.110708],[-122.956909,46.110628],[-122.957021,46.110608],[-122.957038,46.110448],[-122.957145,46.110432],[-122.957168,46.110358],[-122.957284,46.110334],[-122.957297,46.110268],[-122.957427,46.110268],[-122.957495,46.110292],[-122.957672,46.110244],[-122.957686,46.109728],[-122.957787,46.109716],[-122.957815,46.109638],[-122.95791,46.109629],[-122.957945,46.109548],[-122.958057,46.109528],[-122.958074,46.109368],[-122.958415,46.109364],[-122.958461,46.109325],[-122.958463,46.109188],[-122.95868,46.109182],[-122.958718,46.10915],[-122.958722,46.109098],[-122.958851,46.109098],[-122.95892,46.109122],[-122.959087,46.109083],[-122.959127,46.108958],[-122.959082,46.108923],[-122.958981,46.108918],[-122.958981,46.108828],[-122.959082,46.108816],[-122.95911,46.108738],[-122.959211,46.108726],[-122.95924,46.108648],[-122.959334,46.108639],[-122.959369,46.108559],[-122.959481,46.108539],[-122.959499,46.108379],[-122.959605,46.108363],[-122.959628,46.108289],[-122.959757,46.108289],[-122.959758,46.10842],[-122.959792,46.10846],[-122.960145,46.108469],[-122.960168,46.108543],[-122.960275,46.10856],[-122.960275,46.108649],[-122.959934,46.108653],[-122.959892,46.108682],[-122.959886,46.108739],[-122.95977,46.108763],[-122.959757,46.108829],[-122.959624,46.108849],[-122.959637,46.10907],[-122.95969,46.109098],[-122.959886,46.109099],[-122.959909,46.109173],[-122.960015,46.109189],[-122.960038,46.109353],[-122.960274,46.109369],[-122.960297,46.109443],[-122.960403,46.109459],[-122.960421,46.109529],[-122.960533,46.109549],[-122.960567,46.10963],[-122.960662,46.109639],[-122.96069,46.109717],[-122.960791,46.109729],[-122.96082,46.109807],[-122.960921,46.109819]],[[-122.951732,46.111706],[-122.95182,46.111699],[-122.95186,46.111662],[-122.951861,46.111394],[-122.951813,46.11135],[-122.951344,46.111345],[-122.95134,46.111294],[-122.951303,46.111262],[-122.951085,46.111255],[-122.951072,46.111189],[-122.950956,46.111165],[-122.950947,46.11109],[-122.950881,46.111061],[-122.950725,46.111087],[-122.950697,46.111165],[-122.950602,46.111174],[-122.950567,46.111255],[-122.950486,46.111259],[-122.950444,46.111288],[-122.950444,46.111402],[-122.950486,46.111431],[-122.950567,46.111435],[-122.950596,46.111513],[-122.950826,46.111525],[-122.950832,46.111582],[-122.950881,46.111613],[-122.951085,46.111615],[-122.951098,46.111681],[-122.951214,46.111705],[-122.95122,46.111762],[-122.951262,46.111791],[-122.951473,46.111796],[-122.951557,46.111818],[-122.951709,46.11178],[-122.951732,46.111706]],[[-122.953156,46.110846],[-122.953096,46.110794],[-122.952932,46.110815],[-122.952897,46.110855],[-122.95291,46.110962],[-122.952967,46.110986],[-122.953121,46.110977],[-122.953154,46.110943],[-122.953156,46.110846]],[[-122.954708,46.111117],[-122.954681,46.111076],[-122.954626,46.111063],[-122.954564,46.111085],[-122.954544,46.111124],[-122.95457,46.111162],[-122.954633,46.111181],[-122.954692,46.11116],[-122.954708,46.111117]],[[-122.954914,46.110191],[-122.95505,46.110173],[-122.955092,46.110144],[-122.955096,46.10995],[-122.955043,46.109909],[-122.954901,46.109908],[-122.954845,46.10994],[-122.954805,46.11005],[-122.954861,46.110174],[-122.954914,46.110191]],[[-122.956166,46.11086],[-122.956126,46.110751],[-122.956091,46.110724],[-122.955914,46.110724],[-122.955877,46.110756],[-122.955873,46.110807],[-122.955799,46.11081],[-122.955753,46.110836],[-122.955753,46.110959],[-122.955934,46.111011],[-122.956091,46.110981],[-122.956166,46.11086]],[[-122.957426,46.110988],[-122.95742,46.110931],[-122.957371,46.1109],[-122.957228,46.110874],[-122.957072,46.110907],[-122.957038,46.110946],[-122.957038,46.111078],[-122.956956,46.111082],[-122.956912,46.111116],[-122.956921,46.111234],[-122.956978,46.111257],[-122.957167,46.111258],[-122.95717,46.111309],[-122.957208,46.111341],[-122.957393,46.111352],[-122.957425,46.111313],[-122.957426,46.111168],[-122.95763,46.111166],[-122.957684,46.111119],[-122.957683,46.111031],[-122.95765,46.110997],[-122.957426,46.110988]],[[-122.958108,46.110316],[-122.958039,46.110187],[-122.957885,46.110178],[-122.957824,46.110206],[-122.957815,46.110268],[-122.957699,46.110292],[-122.957685,46.110588],[-122.957718,46.110632],[-122.957775,46.110641],[-122.957931,46.110604],[-122.957944,46.110448],[-122.958026,46.110444],[-122.95807,46.11041],[-122.958108,46.110316]],[[-122.958122,46.110084],[-122.958265,46.110101],[-122.95832,46.110077],[-122.958329,46.109946],[-122.958278,46.10991],[-122.958129,46.10991],[-122.958077,46.109946],[-122.958077,46.11005],[-122.958122,46.110084]],[[-122.958983,46.11],[-122.958925,46.109985],[-122.958867,46.110005],[-122.958851,46.110053],[-122.958877,46.110089],[-122.95894,46.110101],[-122.958999,46.110076],[-122.959014,46.110035],[-122.958983,46.11]],[[-122.959627,46.109639],[-122.959604,46.109474],[-122.959549,46.109459],[-122.959391,46.109474],[-122.959368,46.109728],[-122.959273,46.109738],[-122.959239,46.109818],[-122.959157,46.109823],[-122.959113,46.109857],[-122.959089,46.110033],[-122.959117,46.110076],[-122.959333,46.110079],[-122.959368,46.109999],[-122.959484,46.109975],[-122.959497,46.109909],[-122.959609,46.109889],[-122.959627,46.109819],[-122.959739,46.109799],[-122.959747,46.109667],[-122.959701,46.109641],[-122.959627,46.109639]],[[-122.959515,46.110854],[-122.959491,46.110752],[-122.959449,46.110723],[-122.959306,46.110705],[-122.959244,46.110738],[-122.959239,46.110855],[-122.959286,46.110894],[-122.959476,46.110892],[-122.959515,46.110854]]]}},{"type":"Feature","properties":{"id":1,"area_m2":23900,"px":239,"rank":2,"persistent":false},"geometry":{"type":"Polygon","coordinates":[[[-122.962085,46.110269],[-122.962084,46.111439],[-122.962003,46.111444],[-122.961958,46.111478],[-122.961955,46.111709],[-122.961843,46.111729],[-122.961791,46.111836],[-122.961825,46.111889],[-122.961825,46.111979],[-122.961178,46.111979],[-122.961155,46.111905],[-122.961049,46.111889],[-122.961026,46.111815],[-122.960919,46.111799],[-122.960897,46.111725],[-122.96079,46.111709],[-122.960772,46.111639],[-122.960661,46.111619],[-122.960626,46.111538],[-122.960531,46.111529],[-122.960503,46.111451],[-122.960402,46.111439],[-122.960374,46.111361],[-122.960273,46.111349],[-122.960244,46.111271],[-122.960143,46.111259],[-122.960115,46.111181],[-122.960014,46.111169],[-122.960014,46.110899],[-122.960089,46.110896],[-122.960134,46.11087],[-122.960144,46.110719],[-122.960239,46.11071],[-122.960273,46.110629],[-122.96039,46.110605],[-122.960403,46.110449],[-122.960509,46.110433],[-122.960532,46.110359],[-122.960633,46.110347],[-122.960662,46.110269],[-122.960757,46.11026],[-122.960791,46.110179],[-122.960903,46.110159],[-122.960921,46.110089],[-122.961151,46.110077],[-122.96118,46.109999],[-122.961438,46.109999],[-122.961451,46.110065],[-122.961568,46.110089],[-122.961602,46.11017],[-122.961826,46.110179],[-122.961832,46.110236],[-122.961881,46.110267],[-122.962085,46.110269]]]}},{"type":"Feature","properties":{"id":9,"area_m2":17800,"px":178,"rank":3,"persistent":false},"geometry":{"type":"Polygon","coordinates":[[[-122.95044,46.108555],[-122.95044,46.108915],[-122.950307,46.108935],[-122.95031,46.109095],[-122.950216,46.109104],[-122.950181,46.109185],[-122.950065,46.109209],[-122.950051,46.109365],[-122.949957,46.109367],[-122.949911,46.109394],[-122.949922,46.109545],[-122.949848,46.109547],[-122.949802,46.109573],[-122.949792,46.109725],[-122.949697,46.109734],[-122.949663,46.109815],[-122.949589,46.109817],[-122.949543,46.109843],[-122.949533,46.110085],[-122.949459,46.110087],[-122.949413,46.110113],[-122.949404,46.110264],[-122.949292,46.110284],[-122.949274,46.110444],[-122.949193,46.110449],[-122.949151,46.110478],[-122.949144,46.110624],[-122.949038,46.11064],[-122.949015,46.110714],[-122.948899,46.110738],[-122.948885,46.110804],[-122.948497,46.110804],[-122.948475,46.11073],[-122.948368,46.110714],[-122.948368,46.110444],[-122.948498,46.110444],[-122.948499,46.110581],[-122.948539,46.110618],[-122.94884,46.110633],[-122.948884,46.110594],[-122.948886,46.110444],[-122.948967,46.11044],[-122.949012,46.110406],[-122.949016,46.110264],[-122.94905,46.110217],[-122.948962,46.110151],[-122.948791,46.110183],[-122.948757,46.110223],[-122.948757,46.110354],[-122.948627,46.110354],[-122.948621,46.110298],[-122.948572,46.110266],[-122.948369,46.110264],[-122.948369,46.110084],[-122.948593,46.110082],[-122.948647,46.110028],[-122.948625,46.109659],[-122.94856,46.109621],[-122.948369,46.109634],[-122.948369,46.109454],[-122.948476,46.109438],[-122.948499,46.109364],[-122.948628,46.109364],[-122.948697,46.109388],[-122.948846,46.109358],[-122.948884,46.109326],[-122.948887,46.109274],[-122.949016,46.109274],[-122.949085,46.109298],[-122.949247,46.109262],[-122.949275,46.109226],[-122.949275,46.109095],[-122.949357,46.10909],[-122.949401,46.109056],[-122.949405,46.108915],[-122.94944,46.108867],[-122.949405,46.108824],[-122.949388,46.108664],[-122.949335,46.108645],[-122.949194,46.108649],[-122.949148,46.108688],[-122.949146,46.108824],[-122.949065,46.108828],[-122.94902,46.108863],[-122.949017,46.109004],[-122.948887,46.109004],[-122.948888,46.108644],[-122.949118,46.108632],[-122.949146,46.108596],[-122.949141,46.108498],[-122.949077,46.108465],[-122.948758,46.108464],[-122.948749,46.108403],[-122.948696,46.108375],[-122.94837,46.108374],[-122.948371,46.108104],[-122.9485,46.108104],[-122.948509,46.108166],[-122.94857,46.108194],[-122.949147,46.108194],[-122.949208,46.108219],[-122.949276,46.108194],[-122.949664,46.108195],[-122.949673,46.108256],[-122.949734,46.108284],[-122.949997,46.108282],[-122.950047,46.108251],[-122.950053,46.108195],[-122.950182,46.108195],[-122.950205,46.108269],[-122.950311,46.108285],[-122.95032,46.108526],[-122.950366,46.108553],[-122.95044,46.108555]],[[-122.948889,46.109813],[-122.94892,46.109777],[-122.948906,46.109737],[-122.948847,46.109711],[-122.948784,46.109723],[-122.948758,46.109759],[-122.948774,46.109808],[-122.948832,46.109828],[-122.948889,46.109813]],[[-122.949144,46.109362],[-122.949092,46.109341],[-122.949035,46.109351],[-122.948997,46.109393],[-122.949013,46.109434],[-122.949066,46.109454],[-122.949138,46.109442],[-122.949165,46.109404],[-122.949144,46.109362]],[[-122.949666,46.109366],[-122.949609,46.109351],[-122.949551,46.109371],[-122.949534,46.10942],[-122.949561,46.109456],[-122.949624,46.109468],[-122.949683,46.109442],[-122.949697,46.109402],[-122.949666,46.109366]],[[-122.949922,46.109045],[-122.949895,46.109004],[-122.94984,46.108991],[-122.949778,46.109013],[-122.949758,46.109052],[-122.949784,46.10909],[-122.949847,46.109109],[-122.949905,46.109088],[-122.949922,46.109045]],[[-122.950215,46.108788],[-122.950176,46.108678],[-122.950134,46.108649],[-122.949945,46.108661],[-122.949923,46.108699],[-122.949945,46.108899],[-122.95,46.108915],[-122.950159,46.108899],[-122.950215,46.108788]]]}},{"type":"Feature","properties":{"id":31,"area_m2":17300,"px":173,"rank":4,"persistent":false},"geometry":{"type":"Polygon","coordinates":[[[-122.957558,46.107208],[-122.957558,46.107298],[-122.957452,46.107314],[-122.957396,46.10742],[-122.957429,46.107568],[-122.957238,46.107554],[-122.957176,46.107588],[-122.95717,46.107838],[-122.956911,46.107837],[-122.956911,46.107658],[-122.956946,46.107615],[-122.956911,46.107568],[-122.956911,46.107478],[-122.9571,46.107477],[-122.957157,46.107454],[-122.957153,46.107227],[-122.957108,46.107209],[-122.956974,46.107209],[-122.956921,46.107236],[-122.956911,46.107297],[-122.956653,46.107297],[-122.95663,46.107223],[-122.956523,46.107207],[-122.956522,46.107057],[-122.956484,46.107021],[-122.956076,46.107027],[-122.956023,46.107047],[-122.955989,46.107167],[-122.956033,46.107203],[-122.956135,46.107207],[-122.956148,46.107363],[-122.956264,46.107387],[-122.956299,46.107468],[-122.956394,46.107477],[-122.956422,46.107555],[-122.956523,46.107567],[-122.956551,46.107645],[-122.956652,46.107658],[-122.956654,46.107974],[-122.956693,46.108011],[-122.956781,46.108018],[-122.956781,46.108107],[-122.956564,46.108114],[-122.956526,46.108146],[-122.956522,46.108197],[-122.956406,46.108221],[-122.956393,46.108287],[-122.956264,46.108287],[-122.956264,46.108197],[-122.95638,46.108173],[-122.956393,46.108066],[-122.956352,46.108024],[-122.956264,46.108017],[-122.956235,46.10794],[-122.956135,46.107927],[-122.956117,46.107587],[-122.956005,46.107567],[-122.955992,46.107501],[-122.955876,46.107477],[-122.955873,46.107425],[-122.955835,46.107394],[-122.955488,46.107387],[-122.955453,46.107306],[-122.955229,46.107297],[-122.955196,46.107203],[-122.954971,46.107207],[-122.954948,46.107133],[-122.954841,46.107117],[-122.954841,46.107027],[-122.954923,46.107023],[-122.954967,46.106988],[-122.954971,46.106847],[-122.9551,46.106847],[-122.955106,46.106904],[-122.955155,46.106935],[-122.955359,46.106937],[-122.955365,46.106994],[-122.955407,46.107023],[-122.955562,46.107025],[-122.955612,46.106994],[-122.955618,46.106937],[-122.955734,46.106913],[-122.955747,46.106847],[-122.955863,46.106823],[-122.955877,46.106667],[-122.955979,46.106663],[-122.956023,46.106627],[-122.956006,46.106356],[-122.955958,46.106311],[-122.955789,46.106313],[-122.955751,46.106345],[-122.955747,46.106397],[-122.955631,46.106421],[-122.955618,46.106487],[-122.955489,46.106487],[-122.955489,46.106307],[-122.95559,46.106295],[-122.955618,46.106217],[-122.955713,46.106208],[-122.955748,46.106127],[-122.955859,46.106107],[-122.95586,46.105967],[-122.955807,46.105947],[-122.955666,46.105951],[-122.955624,46.10598],[-122.955618,46.106037],[-122.955232,46.106037],[-122.95523,46.105947],[-122.955337,46.105931],[-122.95536,46.105857],[-122.955489,46.105857],[-122.95555,46.105881],[-122.955619,46.105857],[-122.955877,46.105857],[-122.95589,46.105923],[-122.956007,46.105947],[-122.956041,46.106028],[-122.956265,46.106037],[-122.956278,46.106103],[-122.956395,46.106127],[-122.956417,46.106202],[-122.956653,46.106217],[-122.956666,46.106283],[-122.956783,46.106308],[-122.956786,46.106359],[-122.956824,46.106391],[-122.957041,46.106398],[-122.957064,46.106472],[-122.957171,46.106488],[-122.957159,46.106728],[-122.957205,46.106755],[-122.9573,46.106758],[-122.9573,46.106848],[-122.957193,46.106863],[-122.957138,46.10697],[-122.957176,46.107084],[-122.957218,46.107114],[-122.9573,46.107118],[-122.957306,46.107174],[-122.957348,46.107204],[-122.957558,46.107208]],[[-122.956388,46.106904],[-122.956428,46.106794],[-122.956366,46.10668],[-122.956193,46.106667],[-122.956137,46.106684],[-122.956116,46.106723],[-122.956164,46.106925],[-122.956353,46.106931],[-122.956388,46.106904]]]}},{"type":"Feature","properties":{"id":22,"area_m2":14900,"px":149,"rank":5,"persistent":false},"geometry":{"type":"Polygon","coordinates":[[[-122.955355,46.108648],[-122.955323,46.108695],[-122.955357,46.108737],[-122.955357,46.108827],[-122.955024,46.108829],[-122.954975,46.10886],[-122.954969,46.108917],[-122.954739,46.108929],[-122.95471,46.109007],[-122.954581,46.109007],[-122.954512,46.108983],[-122.954451,46.109007],[-122.954255,46.109008],[-122.954202,46.109035],[-122.954192,46.109096],[-122.953962,46.109109],[-122.953934,46.109186],[-122.953832,46.109191],[-122.953787,46.109226],[-122.953804,46.109546],[-122.953675,46.109546],[-122.953669,46.10931],[-122.953627,46.10928],[-122.953545,46.109276],[-122.953511,46.109195],[-122.953416,46.109186],[-122.953388,46.109108],[-122.953287,46.109096],[-122.953284,46.108774],[-122.953239,46.10874],[-122.953158,46.108736],[-122.95314,46.108576],[-122.953028,46.108556],[-122.952994,46.108475],[-122.952899,46.108466],[-122.952896,46.108234],[-122.952851,46.1082],[-122.95277,46.108196],[-122.952752,46.108036],[-122.952641,46.108016],[-122.952652,46.107825],[-122.95277,46.107836],[-122.952779,46.107987],[-122.952825,46.108014],[-122.952899,46.108016],[-122.952917,46.108176],[-122.953029,46.108196],[-122.953034,46.108433],[-122.953076,46.108462],[-122.953158,46.108466],[-122.953192,46.108547],[-122.953287,46.108556],[-122.953293,46.108703],[-122.953335,46.108732],[-122.953416,46.108736],[-122.95342,46.108878],[-122.953464,46.108912],[-122.953546,46.108916],[-122.953547,46.109053],[-122.953593,46.109092],[-122.953886,46.109092],[-122.953928,46.109063],[-122.953934,46.109006],[-122.954145,46.109002],[-122.954187,46.108973],[-122.954193,46.108917],[-122.954396,46.108914],[-122.954446,46.108883],[-122.954452,46.108827],[-122.954676,46.108818],[-122.954711,46.108737],[-122.954928,46.10873],[-122.954966,46.108698],[-122.954969,46.108647],[-122.955044,46.108645],[-122.95509,46.108618],[-122.955093,46.1085],[-122.955051,46.108471],[-122.95497,46.108467],[-122.954964,46.10832],[-122.954922,46.108291],[-122.95484,46.108287],[-122.954834,46.10814],[-122.954792,46.108111],[-122.954711,46.108107],[-122.954705,46.10796],[-122.954663,46.107931],[-122.954582,46.107927],[-122.954576,46.10778],[-122.954534,46.107751],[-122.954453,46.107747],[-122.954447,46.1076],[-122.954405,46.107571],[-122.954323,46.107566],[-122.95432,46.107425],[-122.954275,46.107391],[-122.954194,46.107386],[-122.954193,46.10725],[-122.954146,46.107211],[-122.953724,46.10721],[-122.953682,46.10724],[-122.953676,46.107296],[-122.95356,46.10732],[-122.953547,46.107386],[-122.953336,46.10739],[-122.953294,46.107419],[-122.953288,46.107476],[-122.953058,46.107488],[-122.953029,46.107566],[-122.952811,46.107572],[-122.952774,46.107604],[-122.95277,46.107656],[-122.952654,46.10768],[-122.95263,46.107757],[-122.952512,46.107746],[-122.952512,46.107566],[-122.952618,46.10755],[-122.952641,46.107476],[-122.952859,46.10747],[-122.952897,46.107438],[-122.9529,46.107386],[-122.953016,46.107362],[-122.95303,46.107296],[-122.953233,46.107294],[-122.953282,46.107263],[-122.953288,46.107206],[-122.953477,46.107206],[-122.953534,46.107182],[-122.953534,46.10705],[-122.953477,46.107026],[-122.953289,46.107026],[-122.953289,46.106936],[-122.953547,46.106936],[-122.95356,46.107002],[-122.953677,46.107026],[-122.953683,46.107083],[-122.953732,46.107114],[-122.953885,46.107116],[-122.953939,46.107096],[-122.953955,46.107061],[-122.953922,46.10696],[-122.953806,46.106936],[-122.953772,46.106855],[-122.953677,46.106846],[-122.953649,46.106769],[-122.953548,46.106756],[-122.953548,46.106666],[-122.953806,46.106666],[-122.953815,46.106728],[-122.953869,46.106755],[-122.954119,46.10677],[-122.954178,46.10675],[-122.954182,46.1066],[-122.954065,46.106576],[-122.954031,46.106496],[-122.953936,46.106486],[-122.953936,46.106306],[-122.954154,46.1063],[-122.954193,46.106263],[-122.954195,46.106127],[-122.954384,46.106126],[-122.954436,46.106107],[-122.954489,46.105994],[-122.954454,46.105947],[-122.954454,46.105857],[-122.954583,46.105857],[-122.954606,46.105931],[-122.954713,46.105947],[-122.954712,46.106127],[-122.954618,46.106136],[-122.954583,46.106217],[-122.954467,46.106241],[-122.954453,46.106397],[-122.954337,46.106421],[-122.954327,46.106538],[-122.954387,46.106576],[-122.954583,46.106577],[-122.954589,46.106633],[-122.954631,46.106663],[-122.954842,46.106668],[-122.954841,46.106847],[-122.95474,46.106859],[-122.954712,46.106937],[-122.954617,46.106946],[-122.954582,46.107027],[-122.954471,46.107046],[-122.954454,46.107163],[-122.954494,46.1072],[-122.954582,46.107207],[-122.954611,46.107284],[-122.954712,46.107297],[-122.95474,46.107374],[-122.954841,46.107387],[-122.954841,46.107477],[-122.954746,46.107479],[-122.954697,46.107511],[-122.954715,46.107618],[-122.954759,46.107653],[-122.954841,46.107657],[-122.954858,46.107817],[-122.95497,46.107837],[-122.954983,46.107993],[-122.955099,46.108017],[-122.955102,46.108429],[-122.955147,46.108463],[-122.955228,46.108467],[-122.955263,46.108548],[-122.955357,46.108557],[-122.955355,46.108648]]]}},{"type":"Feature","properties":{"id":2,"area_m2":7500,"px":75,"rank":6,"persistent":false},"geometry":{"type":"Polygon","coordinates":[[[-122.96066,46.111889],[-122.96066,46.111979],[-122.960272,46.111979],[-122.96028,46.111824],[-122.960074,46.111775],[-122.959981,46.111831],[-122.960013,46.111889],[-122.960013,46.111979],[-122.959237,46.111978],[-122.959237,46.111847],[-122.959209,46.111811],[-122.958919,46.111799],[-122.958858,46.111827],[-122.958849,46.111888],[-122.958737,46.111908],[-122.958719,46.111978],[-122.958072,46.111978],[-122.958069,46.111836],[-122.958025,46.111802],[-122.957943,46.111798],[-122.957943,46.111708],[-122.958161,46.111702],[-122.958199,46.11167],[-122.958204,46.111618],[-122.95872,46.111618],[-122.958726,46.111675],[-122.958775,46.111706],[-122.959189,46.111704],[-122.959231,46.111675],[-122.959237,46.111619],[-122.959354,46.111595],[-122.959367,46.111529],[-122.959479,46.111509],[-122.959496,46.111439],[-122.959608,46.111419],[-122.959626,46.111349],[-122.959742,46.111325],[-122.959755,46.111169],[-122.959885,46.111169],[-122.959902,46.111329],[-122.960014,46.111349],[-122.960048,46.11143],[-122.960143,46.111439],[-122.960172,46.111517],[-122.960272,46.111529],[-122.960301,46.111607],[-122.960402,46.111619],[-122.96043,46.111697],[-122.960531,46.111709],[-122.96054,46.11186],[-122.960586,46.111887],[-122.96066,46.111889]]]}},{"type":"Feature","properties":{"id":8,"area_m2":7000,"px":70,"rank":7,"persistent":false},"geometry":{"type":"Polygon","coordinates":[[[-122.951086,46.109995],[-122.951086,46.110085],[-122.951005,46.110089],[-122.95096,46.110124],[-122.950956,46.110265],[-122.95085,46.110281],[-122.950825,46.110355],[-122.950698,46.110355],[-122.950675,46.110281],[-122.950568,46.110265],[-122.950588,46.110051],[-122.950567,46.110012],[-122.950387,46.109995],[-122.950327,46.110015],[-122.950309,46.110175],[-122.950198,46.110195],[-122.950145,46.110307],[-122.950226,46.110377],[-122.950309,46.110355],[-122.950439,46.110355],[-122.950439,46.110535],[-122.950364,46.110537],[-122.950318,46.110563],[-122.950309,46.110715],[-122.950191,46.110726],[-122.950178,46.110578],[-122.950125,46.110537],[-122.949603,46.110535],[-122.949546,46.110559],[-122.949533,46.110666],[-122.949561,46.110702],[-122.949921,46.110715],[-122.949927,46.110771],[-122.949969,46.110801],[-122.950169,46.110794],[-122.950179,46.110895],[-122.949791,46.110895],[-122.949782,46.110833],[-122.949721,46.110805],[-122.949274,46.110804],[-122.949274,46.110715],[-122.949355,46.11071],[-122.9494,46.110676],[-122.949404,46.110535],[-122.949485,46.11053],[-122.949527,46.110501],[-122.949533,46.110355],[-122.949614,46.110351],[-122.949657,46.110321],[-122.949663,46.110175],[-122.949744,46.110171],[-122.949786,46.110141],[-122.949792,46.109995],[-122.949874,46.109991],[-122.949916,46.109961],[-122.949922,46.109815],[-122.950017,46.109806],[-122.950051,46.109725],[-122.950125,46.109723],[-122.950171,46.109696],[-122.950181,46.109545],[-122.95031,46.109545],[-122.950312,46.109681],[-122.950358,46.109721],[-122.950828,46.109725],[-122.95082,46.10988],[-122.950862,46.109903],[-122.950957,46.109905],[-122.95098,46.109979],[-122.951086,46.109995]]]}},{"type":"Feature","properties":{"id":21,"area_m2":4800,"px":48,"rank":8,"persistent":false},"geometry":{"type":"Polygon","coordinates":[[[-122.957687,46.108378],[-122.957687,46.108468],[-122.957456,46.10848],[-122.957428,46.108516],[-122.957428,46.108648],[-122.95734,46.108654],[-122.9573,46.108691],[-122.957298,46.108828],[-122.957264,46.108881],[-122.957316,46.108988],[-122.957428,46.109008],[-122.957427,46.109278],[-122.957298,46.109278],[-122.957229,46.109254],[-122.957074,46.109287],[-122.95704,46.109326],[-122.957039,46.109458],[-122.956932,46.109473],[-122.956909,46.109548],[-122.95678,46.109547],[-122.95678,46.109368],[-122.956815,46.109325],[-122.95678,46.109277],[-122.956781,46.109008],[-122.956876,46.108998],[-122.95691,46.108954],[-122.956907,46.108776],[-122.956862,46.108742],[-122.956781,46.108737],[-122.956781,46.108648],[-122.956965,46.108661],[-122.957018,46.108645],[-122.95704,46.108378],[-122.957149,46.108371],[-122.957189,46.108327],[-122.957136,46.108194],[-122.956911,46.108198],[-122.956911,46.108108],[-122.956992,46.108103],[-122.957037,46.108069],[-122.95704,46.107928],[-122.95717,46.107928],[-122.957231,46.107952],[-122.957299,46.107928],[-122.957428,46.107928],[-122.957428,46.108198],[-122.957394,46.108245],[-122.957434,46.108344],[-122.957491,46.108377],[-122.957687,46.108378]]]}},{"type":"Feature","properties":{"id":13,"area_m2":4500,"px":45,"rank":9,"persistent":false},"geometry":{"type":"Polygon","coordinates":[[[-122.94811,46.110084],[-122.94811,46.110264],[-122.947906,46.110266],[-122.947857,46.110297],[-122.947851,46.110354],[-122.947721,46.110354],[-122.947699,46.11019],[-122.947333,46.110174],[-122.947316,46.110103],[-122.947204,46.110083],[-122.947191,46.110018],[-122.947075,46.109993],[-122.947071,46.109942],[-122.947034,46.10991],[-122.946869,46.109892],[-122.946822,46.109923],[-122.946816,46.109993],[-122.946687,46.109993],[-122.946664,46.109919],[-122.946557,46.109903],[-122.946557,46.109723],[-122.946592,46.109681],[-122.946558,46.109633],[-122.946558,46.109453],[-122.946763,46.109464],[-122.946811,46.109433],[-122.946817,46.109363],[-122.947047,46.109351],[-122.947075,46.109315],[-122.947076,46.109094],[-122.947205,46.109094],[-122.947228,46.109168],[-122.947334,46.109184],[-122.947334,46.109364],[-122.94726,46.109366],[-122.947214,46.109392],[-122.947204,46.109543],[-122.947021,46.10953],[-122.946963,46.10955],[-122.946938,46.109698],[-122.94698,46.109721],[-122.947075,46.109724],[-122.947084,46.109785],[-122.947137,46.109812],[-122.947463,46.109814],[-122.947524,46.109838],[-122.947593,46.109814],[-122.947851,46.109814],[-122.947843,46.109969],[-122.947886,46.109991],[-122.94798,46.109994],[-122.948003,46.110068],[-122.94811,46.110084]],[[-122.947592,46.109944],[-122.947565,46.109903],[-122.94751,46.10989],[-122.947448,46.109912],[-122.947428,46.109951],[-122.947454,46.109989],[-122.947517,46.110007],[-122.947575,46.109987],[-122.947592,46.109944]]]}},{"type":"Feature","properties":{"id":41,"area_m2":4100,"px":41,"rank":10,"persistent":false},"geometry":{"type":"Polygon","coordinates":[[[-122.948114,46.105944],[-122.948114,46.106034],[-122.948025,46.10604],[-122.947986,46.106077],[-122.947984,46.106304],[-122.947872,46.106324],[-122.947854,46.106484],[-122.947773,46.106488],[-122.947731,46.106517],[-122.947725,46.106664],[-122.947466,46.106664],[-122.947463,46.106612],[-122.947425,46.10658],[-122.947207,46.106573],[-122.94719,46.106503],[-122.947078,46.106483],[-122.947069,46.106422],[-122.947016,46.106394],[-122.946854,46.106402],[-122.946819,46.106483],[-122.946561,46.106483],[-122.946561,46.106213],[-122.946949,46.106213],[-122.946958,46.106275],[-122.947019,46.106303],[-122.94765,46.106317],[-122.947708,46.106297],[-122.947719,46.106157],[-122.947677,46.106128],[-122.947596,46.106124],[-122.947596,46.106034],[-122.947631,46.105986],[-122.947587,46.105882],[-122.947534,46.105855],[-122.947338,46.105853],[-122.947338,46.105764],[-122.947726,46.105764],[-122.947739,46.10583],[-122.947855,46.105854],[-122.947889,46.105935],[-122.948114,46.105944]]]}},{"type":"Feature","properties":{"id":27,"area_m2":3300,"px":33,"rank":11,"persistent":false},"geometry":{"type":"Polygon","coordinates":[[[-122.949147,46.107834],[-122.949147,46.107924],[-122.948929,46.107931],[-122.948892,46.107963],[-122.948888,46.108014],[-122.948371,46.108014],[-122.948367,46.107962],[-122.94833,46.10793],[-122.948132,46.107931],[-122.948092,46.107974],[-122.948111,46.108284],[-122.947758,46.108293],[-122.947724,46.108332],[-122.947723,46.108464],[-122.947616,46.10848],[-122.947594,46.108554],[-122.947464,46.108554],[-122.947465,46.108374],[-122.947576,46.108354],[-122.947626,46.108225],[-122.94756,46.108113],[-122.947335,46.108103],[-122.947313,46.108029],[-122.947206,46.108013],[-122.947206,46.107924],[-122.947465,46.107924],[-122.947474,46.107985],[-122.947527,46.108013],[-122.947812,46.108007],[-122.947852,46.10797],[-122.947852,46.107877],[-122.947812,46.10784],[-122.947724,46.107834],[-122.947724,46.107744],[-122.947853,46.107744],[-122.947862,46.107805],[-122.947923,46.107834],[-122.948629,46.107834],[-122.948639,46.107896],[-122.948699,46.107924],[-122.948854,46.107915],[-122.948888,46.107834],[-122.949147,46.107834]]]}},{"type":"Feature","properties":{"id":5,"area_m2":2600,"px":26,"rank":12,"persistent":false},"geometry":{"type":"Polygon","coordinates":[[[-122.947979,46.111884],[-122.947979,46.111974],[-122.947591,46.111974],[-122.947585,46.111827],[-122.947543,46.111798],[-122.947461,46.111794],[-122.947433,46.111716],[-122.947143,46.111704],[-122.947076,46.111742],[-122.947073,46.111883],[-122.946966,46.111899],[-122.946943,46.111973],[-122.946685,46.111973],[-122.946662,46.111899],[-122.946555,46.111883],[-122.946555,46.111793],[-122.946812,46.111777],[-122.946834,46.111738],[-122.946814,46.111613],[-122.947032,46.111607],[-122.94707,46.111575],[-122.947073,46.111524],[-122.947406,46.111521],[-122.947456,46.11149],[-122.947462,46.111434],[-122.947591,46.111434],[-122.947594,46.111575],[-122.947639,46.11161],[-122.94772,46.111614],[-122.947733,46.11177],[-122.947849,46.111794],[-122.947884,46.111875],[-122.947979,46.111884]]]}},{"type":"Feature","properties":{"id":18,"area_m2":2300,"px":23,"rank":13,"persistent":false},"geometry":{"type":"Polygon","coordinates":[[[-122.962086,46.109549],[-122.962085,46.109729],[-122.961902,46.109716],[-122.961849,46.109732],[-122.961826,46.109909],[-122.961568,46.109909],[-122.961545,46.109835],[-122.961439,46.109819],[-122.961439,46.109549],[-122.961473,46.109507],[-122.961439,46.109459],[-122.961438,46.109328],[-122.961398,46.109286],[-122.961309,46.109279],[-122.96131,46.109189],[-122.961439,46.109189],[-122.961445,46.109246],[-122.961494,46.109277],[-122.961698,46.109279],[-122.96172,46.109353],[-122.961827,46.109369],[-122.96184,46.109435],[-122.961956,46.109459],[-122.961985,46.109537],[-122.962086,46.109549]]]}},{"type":"Feature","properties":{"id":20,"area_m2":2300,"px":23,"rank":14,"persistent":false},"geometry":{"type":"Polygon","coordinates":[[[-122.95251,46.109186],[-122.95251,46.109276],[-122.952422,46.109282],[-122.952382,46.109319],[-122.95238,46.109636],[-122.952122,46.109636],[-122.952118,46.109584],[-122.952081,46.109552],[-122.951863,46.109546],[-122.951857,46.109489],[-122.951808,46.109458],[-122.951604,46.109455],[-122.951598,46.109309],[-122.951556,46.10928],[-122.951475,46.109275],[-122.951472,46.109134],[-122.951427,46.109099],[-122.951346,46.109095],[-122.951346,46.109005],[-122.951475,46.109005],[-122.951488,46.109071],[-122.951553,46.109095],[-122.951699,46.109086],[-122.951734,46.109006],[-122.951863,46.109006],[-122.951843,46.109315],[-122.951905,46.109365],[-122.952203,46.109362],[-122.952245,46.109332],[-122.952251,46.109276],[-122.952368,46.109252],[-122.952381,46.109186],[-122.95251,46.109186]]]}},{"type":"Feature","properties":{"id":30,"area_m2":2200,"px":22,"rank":15,"persistent":false},"geometry":{"type":"Polygon","coordinates":[[[-122.952382,46.107926],[-122.952382,46.108016],[-122.952123,46.108016],[-122.9521,46.107941],[-122.951994,46.107926],[-122.951976,46.107765],[-122.951924,46.107746],[-122.951783,46.10775],[-122.951741,46.107779],[-122.951735,46.107835],[-122.951654,46.10784],[-122.951612,46.107869],[-122.951606,46.108057],[-122.951661,46.108103],[-122.951864,46.108106],[-122.951864,46.108196],[-122.951829,46.108238],[-122.951864,46.108286],[-122.951864,46.108375],[-122.951605,46.108375],[-122.951596,46.108314],[-122.951543,46.108286],[-122.951217,46.108285],[-122.951217,46.108195],[-122.951434,46.108194],[-122.951491,46.108161],[-122.951476,46.107745],[-122.951583,46.10773],[-122.951606,46.107655],[-122.952123,46.107656],[-122.952146,46.10773],[-122.952253,46.107746],[-122.952266,46.107902],[-122.952382,46.107926]]]}},{"type":"Feature","properties":{"id":43,"area_m2":2000,"px":20,"rank":16,"persistent":false},"geometry":{"type":"Polygon","coordinates":[[[-122.950184,46.106035],[-122.950184,46.106125],[-122.949973,46.106129],[-122.949931,46.106158],[-122.949914,46.106226],[-122.949838,46.106216],[-122.949781,46.106249],[-122.949786,46.106296],[-122.949841,46.106327],[-122.949936,46.106294],[-122.950184,46.106305],[-122.950183,46.106395],[-122.949966,46.106401],[-122.949928,46.106433],[-122.949925,46.106485],[-122.949795,46.106485],[-122.949789,46.106428],[-122.94974,46.106397],[-122.949537,46.106394],[-122.949514,46.10632],[-122.949407,46.106304],[-122.949408,46.105945],[-122.949666,46.105945],[-122.949727,46.105969],[-122.949796,46.105945],[-122.949925,46.105945],[-122.949929,46.105996],[-122.949966,46.106028],[-122.950184,46.106035]]]}},{"type":"Feature","properties":{"id":42,"area_m2":2000,"px":20,"rank":17,"persistent":false},"geometry":{"type":"Polygon","coordinates":[[[-122.953677,46.106306],[-122.953677,46.106486],[-122.953418,46.106486],[-122.953405,46.10642],[-122.953289,46.106396],[-122.953255,46.106315],[-122.95303,46.106306],[-122.953024,46.106249],[-122.952975,46.106218],[-122.952772,46.106216],[-122.952766,46.106069],[-122.952724,46.10604],[-122.952642,46.106036],[-122.952614,46.105958],[-122.952254,46.105946],[-122.952254,46.105856],[-122.952642,46.105856],[-122.95266,46.105926],[-122.952772,46.105946],[-122.952781,46.106007],[-122.952834,46.106035],[-122.953289,46.106036],[-122.953269,46.10616],[-122.953291,46.1062],[-122.953548,46.106216],[-122.953571,46.10629],[-122.953677,46.106306]]]}},{"type":"Feature","properties":{"id":15,"area_m2":1800,"px":18,"rank":18,"persistent":false},"geometry":{"type":"Polygon","coordinates":[[[-122.956004,46.109097],[-122.956004,46.109547],[-122.955929,46.10955],[-122.955884,46.109576],[-122.955874,46.109727],[-122.955779,46.109736],[-122.955745,46.109817],[-122.955663,46.109821],[-122.955621,46.10985],[-122.955619,46.110049],[-122.955663,46.110083],[-122.955744,46.110087],[-122.955744,46.110176],[-122.955615,46.110177],[-122.955592,46.110103],[-122.955486,46.110087],[-122.955485,46.109771],[-122.955445,46.109733],[-122.955357,46.109727],[-122.955357,46.109547],[-122.955486,46.109547],[-122.955555,46.109571],[-122.95569,46.109545],[-122.955739,46.109514],[-122.955745,46.109457],[-122.955852,46.109441],[-122.955874,46.109403],[-122.955875,46.109097],[-122.956004,46.109097]]]}},{"type":"Feature","properties":{"id":19,"area_m2":1600,"px":16,"rank":19,"persistent":false},"geometry":{"type":"Polygon","coordinates":[[[-122.953416,46.109366],[-122.953416,46.109726],[-122.953198,46.109733],[-122.95316,46.109764],[-122.953157,46.109816],[-122.95304,46.10984],[-122.953027,46.109906],[-122.952898,46.109906],[-122.952898,46.109816],[-122.952993,46.109807],[-122.953027,46.109726],[-122.953102,46.109724],[-122.953148,46.109698],[-122.953157,46.109595],[-122.953116,46.109552],[-122.953028,46.109546],[-122.952999,46.109468],[-122.952898,46.109456],[-122.95287,46.109378],[-122.952769,46.109366],[-122.952769,46.109186],[-122.952898,46.109186],[-122.952904,46.109256],[-122.952952,46.109287],[-122.953157,46.109276],[-122.953163,46.109333],[-122.953205,46.109362],[-122.953416,46.109366]]]}},{"type":"Feature","properties":{"id":12,"area_m2":1500,"px":15,"rank":20,"persistent":false},"geometry":{"type":"Polygon","coordinates":[[[-122.953933,46.110447],[-122.953932,46.110536],[-122.953803,46.110536],[-122.9538,46.110485],[-122.953762,46.110453],[-122.953544,46.110446],[-122.953539,46.11039],[-122.953489,46.110359],[-122.953286,46.110356],[-122.953286,46.110176],[-122.953402,46.110152],[-122.953415,46.109996],[-122.953522,46.10998],[-122.953545,46.109906],[-122.953674,46.109906],[-122.953659,46.110142],[-122.953709,46.110174],[-122.953803,46.110176],[-122.953807,46.110408],[-122.953851,46.110442],[-122.953933,46.110447]]]}},{"type":"Feature","properties":{"id":47,"area_m2":1400,"px":14,"rank":21,"persistent":false},"geometry":{"type":"Polygon","coordinates":[[[-122.946823,46.102523],[-122.946822,46.103243],[-122.946716,46.103259],[-122.946693,46.103333],[-122.946564,46.103333],[-122.946564,46.102883],[-122.946659,46.102874],[-122.946693,46.102829],[-122.94669,46.102651],[-122.946646,46.102617],[-122.946564,46.102613],[-122.946564,46.102523],[-122.946823,46.102523]]]}},{"type":"Feature","properties":{"id":4,"area_m2":1100,"px":11,"rank":22,"persistent":false},"geometry":{"type":"Polygon","coordinates":[[[-122.952767,46.111526],[-122.952767,46.111796],[-122.95266,46.111812],[-122.952637,46.111886],[-122.952521,46.11191],[-122.952508,46.111976],[-122.952249,46.111976],[-122.952249,46.111796],[-122.952356,46.11178],[-122.952379,46.111706],[-122.952474,46.111697],[-122.952508,46.111616],[-122.95262,46.111596],[-122.952638,46.111526],[-122.952767,46.111526]]]}},{"type":"Feature","properties":{"id":17,"area_m2":1100,"px":11,"rank":23,"persistent":false},"geometry":{"type":"Polygon","coordinates":[[[-122.948369,46.109724],[-122.948369,46.109994],[-122.948239,46.109994],[-122.948234,46.109924],[-122.948186,46.109893],[-122.947981,46.109904],[-122.947981,46.109724],[-122.948015,46.109681],[-122.947981,46.109634],[-122.947981,46.109454],[-122.94824,46.109454],[-122.948243,46.109686],[-122.948288,46.10972],[-122.948369,46.109724]]]}},{"type":"Feature","properties":{"id":25,"area_m2":800,"px":8,"rank":24,"persistent":false},"geometry":{"type":"Polygon","coordinates":[[[-122.961309,46.109009],[-122.961309,46.109099],[-122.961051,46.109099],[-122.961033,46.109029],[-122.960921,46.109009],[-122.960887,46.108928],[-122.960792,46.108919],[-122.960764,46.108841],[-122.960663,46.108829],[-122.960634,46.108751],[-122.960404,46.108739],[-122.960404,46.108649],[-122.960663,46.108649],[-122.960676,46.108715],[-122.960792,46.108739],[-122.960827,46.10882],[-122.961051,46.108829],[-122.961051,46.10896],[-122.961079,46.108997],[-122.961309,46.109009]]]}},{"type":"Feature","properties":{"id":40,"area_m2":800,"px":8,"rank":25,"persistent":false},"geometry":{"type":"Polygon","coordinates":[[[-122.949795,46.106935],[-122.949795,46.107115],[-122.949665,46.107115],[-122.949652,46.107049],[-122.949536,46.107024],[-122.949502,46.106944],[-122.949277,46.106934],[-122.949271,46.106878],[-122.949222,46.106847],[-122.949019,46.106844],[-122.949019,46.106664],[-122.949148,46.106664],[-122.949161,46.10673],[-122.949277,46.106754],[-122.949281,46.106806],[-122.949318,46.106838],[-122.949536,46.106845],[-122.949542,46.106901],[-122.949591,46.106932],[-122.949795,46.106935]]]}},{"type":"Feature","properties":{"id":26,"area_m2":700,"px":7,"rank":26,"persistent":false},"geometry":{"type":"Polygon","coordinates":[[[-122.956648,46.108919],[-122.956617,46.108965],[-122.956651,46.109008],[-122.956651,46.109097],[-122.956522,46.109097],[-122.956461,46.109073],[-122.956392,46.109097],[-122.956263,46.109097],[-122.956263,46.108917],[-122.95637,46.108902],[-122.956393,46.108827],[-122.956509,46.108803],[-122.956522,46.108737],[-122.956651,46.108738],[-122.956648,46.108919]]]}},{"type":"Feature","properties":{"id":39,"area_m2":700,"px":7,"rank":27,"persistent":false},"geometry":{"type":"Polygon","coordinates":[[[-122.950442,46.106755],[-122.950442,46.107025],[-122.950238,46.107027],[-122.950189,46.107058],[-122.950183,46.107115],[-122.950054,46.107115],[-122.950054,46.106935],[-122.95016,46.106919],[-122.950183,46.106845],[-122.9503,46.106821],[-122.950313,46.106755],[-122.950442,46.106755]]]}},{"type":"Feature","properties":{"id":24,"area_m2":600,"px":6,"rank":28,"persistent":false},"geometry":{"type":"Polygon","coordinates":[[[-122.946817,46.108823],[-122.946817,46.109093],[-122.94671,46.109109],[-122.946687,46.109183],[-122.946558,46.109183],[-122.946558,46.108913],[-122.946665,46.108897],[-122.946688,46.108823],[-122.946817,46.108823]]]}},{"type":"Feature","properties":{"id":29,"area_m2":600,"px":6,"rank":29,"persistent":false},"geometry":{"type":"Polygon","coordinates":[[[-122.952511,46.108106],[-122.952511,46.108376],[-122.952252,46.108376],[-122.952252,46.108106],[-122.952511,46.108106]]]}},{"type":"Feature","properties":{"id":23,"area_m2":500,"px":5,"rank":30,"persistent":false},"geometry":{"type":"Polygon","coordinates":[[[-122.955875,46.108737],[-122.955875,46.108917],[-122.955787,46.108924],[-122.955747,46.108961],[-122.955745,46.109187],[-122.955616,46.109187],[-122.955616,46.108917],[-122.95569,46.108915],[-122.955736,46.108889],[-122.955746,46.108737],[-122.955875,46.108737]]]}},{"type":"Feature","properties":{"id":32,"area_m2":500,"px":5,"rank":31,"persistent":false},"geometry":{"type":"Polygon","coordinates":[[[-122.950312,46.107655],[-122.950312,46.107925],[-122.950182,46.107925],[-122.950173,46.107773],[-122.950127,46.107747],[-122.950053,46.107745],[-122.950053,46.107565],[-122.950182,46.107565],[-122.950205,46.107639],[-122.950312,46.107655]]]}},{"type":"Feature","properties":{"id":44,"area_m2":500,"px":5,"rank":32,"persistent":false},"geometry":{"type":"Polygon","coordinates":[[[-122.947208,46.105584],[-122.947208,46.105673],[-122.94682,46.105673],[-122.946797,46.105599],[-122.946691,46.105583],[-122.946691,46.105493],[-122.94695,46.105493],[-122.946953,46.105545],[-122.946991,46.105577],[-122.947208,46.105584]]]}},{"type":"Feature","properties":{"id":7,"area_m2":400,"px":4,"rank":33,"persistent":false},"geometry":{"type":"Polygon","coordinates":[[[-122.949403,46.111165],[-122.949403,46.111254],[-122.949015,46.111254],[-122.949015,46.111074],[-122.949144,46.111074],[-122.94915,46.111131],[-122.949199,46.111162],[-122.949403,46.111165]]]}},{"type":"Feature","properties":{"id":10,"area_m2":400,"px":4,"rank":34,"persistent":false},"geometry":{"type":"Polygon","coordinates":[[[-122.952121,46.110536],[-122.952121,46.110626],[-122.952014,46.110641],[-122.951991,46.110716],[-122.951733,46.110715],[-122.951733,46.110626],[-122.951839,46.11061],[-122.951862,46.110536],[-122.952121,46.110536]]]}},{"type":"Feature","properties":{"id":14,"area_m2":400,"px":4,"rank":35,"persistent":false},"geometry":{"type":"Polygon","coordinates":[[[-122.946816,46.110083],[-122.946816,46.110263],[-122.946557,46.110263],[-122.946557,46.110083],[-122.946816,46.110083]]]}},{"type":"Feature","properties":{"id":28,"area_m2":400,"px":4,"rank":36,"persistent":false},"geometry":{"type":"Polygon","coordinates":[[[-122.95691,46.108288],[-122.95691,46.108378],[-122.956804,46.108393],[-122.956781,46.108467],[-122.956522,46.108467],[-122.956522,46.108287],[-122.956652,46.108288],[-122.956713,46.108312],[-122.956781,46.108288],[-122.95691,46.108288]]]}},{"type":"Feature","properties":{"id":36,"area_m2":400,"px":4,"rank":37,"persistent":false},"geometry":{"type":"Polygon","coordinates":[[[-122.955358,46.107567],[-122.955358,46.107657],[-122.9551,46.107657],[-122.9551,46.107387],[-122.955229,46.107387],[-122.955238,46.107538],[-122.955284,46.107565],[-122.955358,46.107567]]]}},{"type":"Feature","properties":{"id":37,"area_m2":400,"px":4,"rank":38,"persistent":false},"geometry":{"type":"Polygon","coordinates":[[[-122.949536,46.107385],[-122.949536,46.107474],[-122.949277,46.107474],[-122.949274,46.107423],[-122.949236,46.107391],[-122.949018,46.107384],[-122.949018,46.107294],[-122.949277,46.107294],[-122.94928,46.107346],[-122.949318,46.107378],[-122.949536,46.107385]]]}},{"type":"Feature","properties":{"id":6,"area_m2":300,"px":3,"rank":39,"persistent":false},"geometry":{"type":"Polygon","coordinates":[[[-122.949014,46.111524],[-122.949014,46.111614],[-122.948933,46.111618],[-122.948888,46.111653],[-122.948885,46.111794],[-122.948755,46.111794],[-122.948756,46.111614],[-122.948862,46.111598],[-122.948885,46.111524],[-122.949014,46.111524]]]}},{"type":"Feature","properties":{"id":11,"area_m2":300,"px":3,"rank":40,"persistent":false},"geometry":{"type":"Polygon","coordinates":[[[-122.948239,46.110444],[-122.948239,46.110624],[-122.94798,46.110624],[-122.94798,46.110534],[-122.948087,46.110518],[-122.94811,46.110444],[-122.948239,46.110444]]]}},{"type":"Feature","properties":{"id":16,"area_m2":300,"px":3,"rank":41,"persistent":false},"geometry":{"type":"Polygon","coordinates":[[[-122.951992,46.110086],[-122.951992,46.110176],[-122.951604,46.110175],[-122.951604,46.110086],[-122.951992,46.110086]]]}},{"type":"Feature","properties":{"id":34,"area_m2":300,"px":3,"rank":42,"persistent":false},"geometry":{"type":"Polygon","coordinates":[[[-122.949794,46.107745],[-122.949794,46.107835],[-122.949406,46.107834],[-122.949406,46.107745],[-122.949794,46.107745]]]}},{"type":"Feature","properties":{"id":33,"area_m2":300,"px":3,"rank":43,"persistent":false},"geometry":{"type":"Polygon","coordinates":[[[-122.955876,46.107657],[-122.955876,46.107837],[-122.955746,46.107837],[-122.955724,46.107763],[-122.955617,46.107747],[-122.955617,46.107657],[-122.955876,46.107657]]]}},{"type":"Feature","properties":{"id":35,"area_m2":300,"px":3,"rank":44,"persistent":false},"geometry":{"type":"Polygon","coordinates":[[[-122.947594,46.107654],[-122.947594,46.107744],[-122.947465,46.107744],[-122.947404,46.107719],[-122.947336,46.107743],[-122.947206,46.107743],[-122.947206,46.107654],[-122.947313,46.107638],[-122.947336,46.107564],[-122.947465,46.107564],[-122.947488,46.107638],[-122.947594,46.107654]]]}},{"type":"Feature","properties":{"id":38,"area_m2":300,"px":3,"rank":45,"persistent":false},"geometry":{"type":"Polygon","coordinates":[[[-122.947724,46.107294],[-122.947724,46.107384],[-122.947618,46.107399],[-122.947595,46.107474],[-122.947465,46.107474],[-122.947466,46.107294],[-122.947724,46.107294]]]}},{"type":"Feature","properties":{"id":45,"area_m2":300,"px":3,"rank":46,"persistent":false},"geometry":{"type":"Polygon","coordinates":[[[-122.947726,46.104954],[-122.947726,46.105224],[-122.947597,46.105224],[-122.947597,46.104954],[-122.947726,46.104954]]]}},{"type":"Feature","properties":{"id":46,"area_m2":300,"px":3,"rank":47,"persistent":false},"geometry":{"type":"Polygon","coordinates":[[[-122.947338,46.104774],[-122.947338,46.104863],[-122.94695,46.104863],[-122.94695,46.104773],[-122.947338,46.104774]]]}}]}