{"type":"FeatureCollection","features":[{"type":"Feature","properties":{"id":2,"area_m2":588800,"px":5888,"rank":1,"persistent":false},"geometry":{"type":"Polygon","coordinates":[[[-122.958464,46.107568],[-122.958464,46.107748],[-122.958369,46.107757],[-122.958334,46.107838],[-122.958253,46.107842],[-122.958208,46.107876],[-122.958205,46.108198],[-122.958086,46.108209],[-122.958007,46.108174],[-122.957935,46.108209],[-122.957628,46.108198],[-122.957571,46.108222],[-122.957559,46.108334],[-122.957605,46.108374],[-122.957891,46.108376],[-122.95794,46.108345],[-122.957957,46.108277],[-122.958064,46.108277],[-122.958075,46.108378],[-122.957968,46.108394],[-122.957946,46.108468],[-122.957851,46.10847],[-122.957808,46.108493],[-122.957816,46.108648],[-122.957687,46.108648],[-122.957652,46.108567],[-122.957498,46.108558],[-122.957437,46.108586],[-122.957428,46.108648],[-122.957312,46.108672],[-122.957298,46.108774],[-122.957321,46.108812],[-122.957557,46.108828],[-122.957557,46.108918],[-122.957476,46.108922],[-122.957431,46.108956],[-122.957427,46.109098],[-122.957333,46.109107],[-122.957298,46.109188],[-122.957191,46.109204],[-122.957168,46.109368],[-122.957074,46.109377],[-122.957039,46.109458],[-122.956923,46.109482],[-122.956909,46.109638],[-122.956828,46.109642],[-122.956783,46.109676],[-122.95678,46.109817],[-122.956673,46.109833],[-122.95665,46.109907],[-122.956556,46.10991],[-122.956513,46.109932],[-122.956521,46.110087],[-122.956426,46.110097],[-122.956391,46.110177],[-122.956275,46.110201],[-122.956262,46.110357],[-122.95618,46.110361],[-122.956136,46.110396],[-122.956132,46.110537],[-122.956037,46.110546],[-122.956003,46.110627],[-122.955896,46.110643],[-122.955873,46.110807],[-122.955778,46.110816],[-122.955744,46.110897],[-122.955628,46.110921],[-122.955614,46.111077],[-122.955533,46.111081],[-122.955488,46.111115],[-122.955485,46.111257],[-122.95539,46.111266],[-122.955355,46.111347],[-122.955274,46.111351],[-122.955232,46.11138],[-122.955226,46.111527],[-122.955119,46.111543],[-122.955096,46.111617],[-122.95498,46.111641],[-122.954967,46.111707],[-122.954783,46.111693],[-122.954721,46.111717],[-122.954708,46.111887],[-122.954596,46.111906],[-122.954578,46.112067],[-122.954497,46.112071],[-122.954452,46.112105],[-122.954414,46.112199],[-122.954449,46.112247],[-122.954449,46.112337],[-122.954374,46.112339],[-122.954328,46.112365],[-122.954319,46.112517],[-122.954212,46.112532],[-122.95419,46.112607],[-122.954095,46.112616],[-122.95406,46.112696],[-122.953948,46.112716],[-122.953931,46.112786],[-122.953672,46.112786],[-122.953669,46.112721],[-122.953626,46.112687],[-122.953413,46.112696],[-122.95341,46.112645],[-122.953372,46.112613],[-122.953154,46.112606],[-122.953126,46.112528],[-122.952896,46.112516],[-122.95289,46.112459],[-122.952848,46.11243],[-122.952637,46.112426],[-122.952634,46.112361],[-122.952591,46.112327],[-122.952378,46.112336],[-122.952365,46.11227],[-122.952249,46.112246],[-122.952246,46.112194],[-122.952208,46.112162],[-122.95199,46.112156],[-122.951956,46.112075],[-122.951731,46.112066],[-122.951725,46.112009],[-122.951676,46.111978],[-122.951473,46.111975],[-122.951467,46.111919],[-122.951425,46.11189],[-122.951214,46.111885],[-122.951208,46.111829],[-122.951166,46.111799],[-122.950955,46.111795],[-122.950942,46.111729],[-122.950826,46.111705],[-122.950823,46.111653],[-122.950785,46.111622],[-122.950567,46.111615],[-122.950564,46.111563],[-122.950526,46.111531],[-122.950308,46.111525],[-122.950305,46.111473],[-122.950267,46.111441],[-122.95005,46.111435],[-122.950015,46.111354],[-122.949791,46.111345],[-122.949756,46.111264],[-122.949532,46.111255],[-122.94951,46.11118],[-122.949403,46.111164],[-122.949404,46.110535],[-122.949478,46.110532],[-122.949524,46.110506],[-122.949533,46.110355],[-122.949628,46.110346],[-122.949663,46.110265],[-122.949737,46.110262],[-122.949783,46.110236],[-122.949792,46.110085],[-122.949866,46.110082],[-122.949912,46.110056],[-122.949922,46.109905],[-122.950038,46.109881],[-122.950051,46.109725],[-122.950133,46.109721],[-122.950177,46.109687],[-122.950181,46.109545],[-122.950262,46.109541],[-122.950304,46.109512],[-122.95031,46.109365],[-122.950392,46.109361],[-122.950434,46.109332],[-122.95044,46.109185],[-122.950569,46.109185],[-122.950569,46.109455],[-122.950474,46.109464],[-122.950439,46.109545],[-122.950328,46.109565],[-122.950313,46.109687],[-122.950358,46.109721],[-122.950439,46.109725],[-122.950443,46.109777],[-122.95048,46.109809],[-122.950698,46.109816],[-122.950698,46.110085],[-122.950663,46.110128],[-122.950698,46.110175],[-122.950698,46.110265],[-122.950603,46.110274],[-122.950568,46.110355],[-122.950462,46.110371],[-122.950405,46.110482],[-122.950439,46.110535],[-122.95044,46.110672],[-122.95048,46.110709],[-122.950774,46.110726],[-122.950821,46.110695],[-122.950827,46.110625],[-122.950939,46.110605],[-122.950956,46.110445],[-122.951051,46.110436],[-122.951086,46.110355],[-122.951202,46.110331],[-122.951216,46.110085],[-122.951322,46.11007],[-122.951345,46.109995],[-122.951604,46.109996],[-122.951607,46.110047],[-122.951645,46.110079],[-122.951862,46.110086],[-122.95188,46.110156],[-122.951992,46.110176],[-122.952026,46.110257],[-122.952121,46.110266],[-122.952149,46.110343],[-122.95225,46.110356],[-122.952273,46.11043],[-122.952509,46.110446],[-122.952518,46.110507],[-122.952572,46.110535],[-122.952727,46.11053],[-122.952765,46.110498],[-122.952768,46.110446],[-122.95288,46.110426],[-122.952898,46.110266],[-122.953089,46.110279],[-122.953153,46.110241],[-122.953168,46.110116],[-122.953122,46.110089],[-122.953027,46.110086],[-122.953028,46.109726],[-122.953062,46.109678],[-122.953,46.109545],[-122.952945,46.109532],[-122.952674,46.109555],[-122.95264,46.109595],[-122.952639,46.109726],[-122.95251,46.109726],[-122.952501,46.109664],[-122.952447,46.109637],[-122.951992,46.109636],[-122.951983,46.109484],[-122.951937,46.109458],[-122.951863,46.109456],[-122.951883,46.109326],[-122.951856,46.109288],[-122.951475,46.109275],[-122.951472,46.109224],[-122.951434,46.109192],[-122.951216,46.109185],[-122.951217,46.109005],[-122.951291,46.109003],[-122.951337,46.108977],[-122.951346,46.108825],[-122.951448,46.108821],[-122.951493,46.108786],[-122.951447,46.108658],[-122.951134,46.108636],[-122.951089,46.108675],[-122.951087,46.108825],[-122.950883,46.108827],[-122.950834,46.108858],[-122.950828,46.108915],[-122.950699,46.108915],[-122.950699,46.108825],[-122.950794,46.108816],[-122.950829,46.108735],[-122.950903,46.108733],[-122.950949,46.108707],[-122.950958,46.108555],[-122.95107,46.108535],[-122.951088,46.108375],[-122.951169,46.108371],[-122.951211,46.108342],[-122.951217,46.108195],[-122.951312,46.108193],[-122.951358,46.108166],[-122.951347,46.108015],[-122.951421,46.108013],[-122.951467,46.107987],[-122.951476,46.107835],[-122.951583,46.10782],[-122.951606,46.107745],[-122.951701,46.107736],[-122.951735,46.107656],[-122.951847,46.107636],[-122.951865,46.107566],[-122.952437,46.10758],[-122.952508,46.107541],[-122.952506,46.107419],[-122.952464,46.10739],[-122.952383,46.107386],[-122.952355,46.107295],[-122.952124,46.107296],[-122.952101,46.107221],[-122.951994,46.107206],[-122.951989,46.106969],[-122.951947,46.10694],[-122.951865,46.106935],[-122.951848,46.106775],[-122.951736,46.106755],[-122.951736,46.106354],[-122.951688,46.10631],[-122.951553,46.106292],[-122.95149,46.106316],[-122.951477,46.106575],[-122.951371,46.106591],[-122.951348,46.106665],[-122.951124,46.106674],[-122.951089,46.106755],[-122.950973,46.106779],[-122.950959,46.106845],[-122.950848,46.106865],[-122.95083,46.106935],[-122.950619,46.106939],[-122.950577,46.106968],[-122.950571,46.107025],[-122.95049,46.107029],[-122.950448,46.107058],[-122.950441,46.107295],[-122.950407,46.107337],[-122.950441,46.107385],[-122.950442,46.107696],[-122.950482,46.107739],[-122.95057,46.107745],[-122.95057,46.108195],[-122.950311,46.108195],[-122.950302,46.108133],[-122.950241,46.108105],[-122.949665,46.108105],[-122.949655,46.108043],[-122.949595,46.108015],[-122.948658,46.108026],[-122.94863,46.108063],[-122.948629,46.108284],[-122.948534,46.108293],[-122.9485,46.108374],[-122.948405,46.108376],[-122.948359,46.108404],[-122.94837,46.108644],[-122.948296,46.108646],[-122.94825,46.108673],[-122.94824,46.108824],[-122.948159,46.108828],[-122.948114,46.108862],[-122.948111,46.109004],[-122.948016,46.109013],[-122.947981,46.109094],[-122.947907,46.109096],[-122.947861,46.109122],[-122.947852,46.109274],[-122.947735,46.109298],[-122.947722,46.109454],[-122.947641,46.109458],[-122.947596,46.109492],[-122.947593,46.109634],[-122.947511,46.109638],[-122.947469,46.109667],[-122.947463,46.109814],[-122.947382,46.109818],[-122.94734,46.109847],[-122.947333,46.109994],[-122.947239,46.110003],[-122.947204,46.110083],[-122.947088,46.110107],[-122.947074,46.110263],[-122.946958,46.110287],[-122.946945,46.110443],[-122.946838,46.110459],[-122.946815,46.110533],[-122.946686,46.110533],[-122.94668,46.110477],[-122.946631,46.110446],[-122.946427,46.110443],[-122.946421,46.110387],[-122.946379,46.110357],[-122.946169,46.110353],[-122.946163,46.110296],[-122.946121,46.110267],[-122.94591,46.110263],[-122.945904,46.110206],[-122.945862,46.110177],[-122.945651,46.110173],[-122.945645,46.110116],[-122.945603,46.110087],[-122.945392,46.110083],[-122.945387,46.110026],[-122.945345,46.109997],[-122.945134,46.109992],[-122.945128,46.109936],[-122.945086,46.109907],[-122.944875,46.109902],[-122.944869,46.109846],[-122.944827,46.109817],[-122.944616,46.109812],[-122.944613,46.109761],[-122.944575,46.109729],[-122.944358,46.109722],[-122.944335,46.109648],[-122.944228,46.109632],[-122.944213,46.10955],[-122.94431,46.109538],[-122.944354,46.109504],[-122.944356,46.109392],[-122.944312,46.109353],[-122.944107,46.109375],[-122.944079,46.109418],[-122.944115,46.109534],[-122.94397,46.109542],[-122.943966,46.10949],[-122.943929,46.109458],[-122.943711,46.109452],[-122.943683,46.109374],[-122.943452,46.109362],[-122.943446,46.109305],[-122.943404,46.109276],[-122.943193,46.109272],[-122.94318,46.109206],[-122.943064,46.109181],[-122.943061,46.10913],[-122.943023,46.109098],[-122.942874,46.109067],[-122.942805,46.109091],[-122.942676,46.109091],[-122.942676,46.108911],[-122.94275,46.108909],[-122.942796,46.108883],[-122.942806,46.108731],[-122.942901,46.108722],[-122.942935,46.108642],[-122.94301,46.108639],[-122.943056,46.108613],[-122.943065,46.108372],[-122.94316,46.108362],[-122.943195,46.108282],[-122.943311,46.108258],[-122.943324,46.108102],[-122.943405,46.108098],[-122.94345,46.108063],[-122.943454,46.107922],[-122.94356,46.107906],[-122.943583,46.107832],[-122.943842,46.107832],[-122.94391,46.107856],[-122.944072,46.10782],[-122.944101,46.107742],[-122.944182,46.107738],[-122.944227,46.107704],[-122.94423,46.107472],[-122.944325,46.107463],[-122.94436,46.107382],[-122.944441,46.107378],[-122.944486,46.107344],[-122.944484,46.107146],[-122.944442,46.107116],[-122.94436,46.107112],[-122.94436,46.106932],[-122.944395,46.106884],[-122.944355,46.106785],[-122.944298,46.106753],[-122.944102,46.106752],[-122.944079,46.106678],[-122.943973,46.106662],[-122.943973,46.106572],[-122.944006,46.106519],[-122.943967,46.106425],[-122.943925,46.106396],[-122.943784,46.106392],[-122.943727,46.106416],[-122.943714,46.106572],[-122.943619,46.106581],[-122.943584,46.106662],[-122.943468,46.106686],[-122.943455,46.106842],[-122.943338,46.106866],[-122.943325,46.107022],[-122.943218,46.107037],[-122.943196,46.107111],[-122.943066,46.107111],[-122.943057,46.10705],[-122.943004,46.107022],[-122.94287,46.107022],[-122.942817,46.10705],[-122.942811,46.107253],[-122.942855,46.107287],[-122.942937,46.107291],[-122.942936,46.107561],[-122.942841,46.10757],[-122.942807,46.107651],[-122.9427,46.107667],[-122.942677,46.107831],[-122.942582,46.10784],[-122.942548,46.107921],[-122.942473,46.107924],[-122.942428,46.10795],[-122.942418,46.108191],[-122.942344,46.108193],[-122.942298,46.10822],[-122.942288,46.108371],[-122.942194,46.10838],[-122.942159,46.108461],[-122.942078,46.108465],[-122.942033,46.108499],[-122.942029,46.108821],[-122.9419,46.108821],[-122.941882,46.108751],[-122.941771,46.108731],[-122.941758,46.108665],[-122.941693,46.108641],[-122.94154,46.108653],[-122.941512,46.108731],[-122.941395,46.108755],[-122.941382,46.108821],[-122.941124,46.10882],[-122.94112,46.108769],[-122.941083,46.108737],[-122.940865,46.10873],[-122.940836,46.108653],[-122.940606,46.10864],[-122.9406,46.108584],[-122.940558,46.108554],[-122.940347,46.10855],[-122.940334,46.108484],[-122.940218,46.10846],[-122.940184,46.108379],[-122.939959,46.10837],[-122.939954,46.108313],[-122.939904,46.108282],[-122.939701,46.10828],[-122.939701,46.10783],[-122.939775,46.107827],[-122.939821,46.107801],[-122.939831,46.10765],[-122.939958,46.10765],[-122.939966,46.10772],[-122.940013,46.107751],[-122.940348,46.10774],[-122.940354,46.107797],[-122.940396,46.107826],[-122.940676,46.107843],[-122.940731,46.10781],[-122.940737,46.10774],[-122.940853,46.107716],[-122.940866,46.10765],[-122.940999,46.10763],[-122.940996,46.107381],[-122.941091,46.107371],[-122.941125,46.107291],[-122.941199,46.107288],[-122.941245,46.107262],[-122.941255,46.107111],[-122.941366,46.107091],[-122.941384,46.106931],[-122.941466,46.106927],[-122.941508,46.106897],[-122.941514,46.106751],[-122.941726,46.10676],[-122.941769,46.106726],[-122.941773,46.106661],[-122.941854,46.106657],[-122.941896,46.106628],[-122.941903,46.106391],[-122.941937,46.106348],[-122.941903,46.106301],[-122.941903,46.106211],[-122.942014,46.106191],[-122.942032,46.106031],[-122.942114,46.106027],[-122.942156,46.105998],[-122.942161,46.10581],[-122.942107,46.105763],[-122.941903,46.105761],[-122.94188,46.105687],[-122.941774,46.105671],[-122.941756,46.105601],[-122.941645,46.105581],[-122.94161,46.1055],[-122.941515,46.105491],[-122.941487,46.105413],[-122.941386,46.105401],[-122.941358,46.105323],[-122.941257,46.10531],[-122.941248,46.105159],[-122.941202,46.105133],[-122.941127,46.10513],[-122.941124,46.104809],[-122.94108,46.104775],[-122.940998,46.10477],[-122.940999,46.10459],[-122.941033,46.104543],[-122.940995,46.104449],[-122.940951,46.104414],[-122.940869,46.10441],[-122.94086,46.104169],[-122.940815,46.104143],[-122.94074,46.10414],[-122.940758,46.10382],[-122.940713,46.103785],[-122.940611,46.10378],[-122.940612,46.10351],[-122.940706,46.103501],[-122.940741,46.10342],[-122.940857,46.103396],[-122.940871,46.10324],[-122.940952,46.103236],[-122.940997,46.103202],[-122.941,46.10306],[-122.94113,46.10306],[-122.941135,46.103117],[-122.941185,46.103148],[-122.941354,46.103141],[-122.941388,46.103102],[-122.941389,46.102971],[-122.941505,46.102947],[-122.941515,46.102829],[-122.941456,46.102792],[-122.941259,46.10279],[-122.94126,46.102611],[-122.941293,46.102557],[-122.941199,46.102496],[-122.941024,46.102536],[-122.941001,46.10261],[-122.940906,46.102619],[-122.940871,46.1027],[-122.940759,46.10272],[-122.940742,46.10279],[-122.940612,46.10279],[-122.940613,46.102299],[-122.940572,46.102256],[-122.940484,46.10225],[-122.940483,46.101754],[-122.940443,46.101716],[-122.940355,46.10171],[-122.940337,46.10155],[-122.940226,46.10153],[-122.940213,46.101374],[-122.940096,46.10135],[-122.940091,46.101023],[-122.940027,46.10099],[-122.939709,46.10099],[-122.939686,46.100915],[-122.939579,46.1009],[-122.939545,46.100819],[-122.93945,46.100809],[-122.93945,46.10054],[-122.939525,46.100537],[-122.939571,46.100511],[-122.93958,46.10036],[-122.939687,46.100344],[-122.939709,46.10027],[-122.939968,46.10027],[-122.939986,46.10043],[-122.940038,46.10045],[-122.940179,46.100446],[-122.940221,46.100417],[-122.940227,46.10036],[-122.940343,46.100336],[-122.940356,46.10027],[-122.940473,46.100246],[-122.940486,46.10009],[-122.940615,46.10009],[-122.940615,46.100221],[-122.94065,46.100261],[-122.941003,46.10027],[-122.941016,46.100336],[-122.941132,46.10036],[-122.941136,46.100412],[-122.941173,46.100444],[-122.941391,46.100451],[-122.9414,46.100512],[-122.941454,46.10054],[-122.941779,46.100541],[-122.94178,46.100691],[-122.941818,46.100728],[-122.942038,46.100721],[-122.942037,46.100901],[-122.941779,46.100901],[-122.941761,46.10083],[-122.94165,46.100811],[-122.941615,46.10073],[-122.94152,46.100721],[-122.941492,46.100643],[-122.941289,46.100635],[-122.941242,46.100681],[-122.941261,46.10081],[-122.941173,46.100817],[-122.941133,46.100854],[-122.941133,46.100947],[-122.941173,46.100984],[-122.941335,46.100988],[-122.941385,46.100957],[-122.941391,46.100901],[-122.94152,46.100901],[-122.941533,46.100967],[-122.941649,46.100991],[-122.941678,46.101068],[-122.941908,46.101081],[-122.941914,46.101151],[-122.941976,46.101184],[-122.942138,46.101159],[-122.942169,46.101081],[-122.942555,46.101081],[-122.942564,46.101143],[-122.942625,46.101171],[-122.943331,46.101172],[-122.943334,46.101237],[-122.943377,46.101271],[-122.94359,46.101262],[-122.94359,46.101393],[-122.943618,46.101429],[-122.943848,46.101442],[-122.94385,46.101578],[-122.943889,46.101615],[-122.944495,46.101622],[-122.944518,46.101696],[-122.944624,46.101712],[-122.944626,46.101849],[-122.944665,46.101886],[-122.945012,46.101892],[-122.945041,46.10197],[-122.945271,46.101983],[-122.945277,46.102039],[-122.945319,46.102068],[-122.945659,46.102073],[-122.945662,46.102124],[-122.9457,46.102156],[-122.945918,46.102163],[-122.945952,46.102244],[-122.946176,46.102253],[-122.946182,46.10231],[-122.946231,46.102341],[-122.946435,46.102343],[-122.946441,46.1024],[-122.946483,46.102429],[-122.946694,46.102433],[-122.946716,46.102507],[-122.946823,46.102523],[-122.946823,46.102703],[-122.946789,46.102756],[-122.94684,46.102863],[-122.946952,46.102883],[-122.946932,46.103013],[-122.946972,46.103057],[-122.947278,46.103062],[-122.947331,46.103035],[-122.94734,46.102974],[-122.947599,46.102974],[-122.947599,46.103244],[-122.94734,46.103243],[-122.947337,46.103192],[-122.947299,46.10316],[-122.947129,46.103157],[-122.947082,46.103202],[-122.947081,46.103423],[-122.946952,46.103423],[-122.946946,46.103367],[-122.946897,46.103336],[-122.946728,46.103336],[-122.946674,46.103378],[-122.946693,46.103513],[-122.945528,46.103513],[-122.945528,46.103381],[-122.945494,46.103342],[-122.944763,46.103343],[-122.944755,46.103173],[-122.944702,46.103152],[-122.944494,46.103152],[-122.944488,46.103082],[-122.944426,46.103049],[-122.944248,46.103086],[-122.944216,46.103287],[-122.944277,46.103331],[-122.944493,46.103332],[-122.944499,46.103402],[-122.944546,46.103433],[-122.944741,46.103411],[-122.944775,46.103496],[-122.944881,46.103512],[-122.944883,46.103649],[-122.944922,46.103686],[-122.945072,46.103717],[-122.94514,46.103692],[-122.945269,46.103693],[-122.945273,46.103834],[-122.945317,46.103868],[-122.945398,46.103873],[-122.945398,46.103962],[-122.945304,46.103972],[-122.945269,46.104052],[-122.945174,46.104055],[-122.945128,46.104082],[-122.945139,46.104232],[-122.945105,46.10428],[-122.945139,46.104322],[-122.945139,46.104412],[-122.945065,46.104415],[-122.945019,46.104441],[-122.945011,46.104563],[-122.945077,46.104606],[-122.945268,46.104593],[-122.945268,46.104682],[-122.945187,46.104687],[-122.945142,46.104721],[-122.945148,46.104834],[-122.945194,46.10486],[-122.945268,46.104863],[-122.945274,46.104919],[-122.945316,46.104948],[-122.945527,46.104953],[-122.94554,46.105019],[-122.945656,46.105043],[-122.945659,46.105094],[-122.945697,46.105126],[-122.945846,46.105157],[-122.945917,46.105133],[-122.946303,46.105133],[-122.946372,46.105157],[-122.946527,46.105124],[-122.946561,46.105084],[-122.946562,46.104953],[-122.946773,46.104949],[-122.946815,46.10492],[-122.946821,46.104863],[-122.946937,46.104839],[-122.946951,46.104593],[-122.947187,46.104578],[-122.947211,46.104413],[-122.947727,46.104414],[-122.947733,46.104484],[-122.947795,46.104517],[-122.948244,46.104504],[-122.948244,46.104594],[-122.948036,46.104594],[-122.947978,46.104619],[-122.948003,46.104754],[-122.948199,46.104796],[-122.948351,46.104758],[-122.948374,46.104684],[-122.948503,46.104684],[-122.948503,46.104774],[-122.948468,46.104822],[-122.94852,46.104934],[-122.948632,46.104954],[-122.948638,46.105011],[-122.94868,46.10504],[-122.948891,46.105044],[-122.948891,46.105134],[-122.948809,46.105138],[-122.948765,46.105172],[-122.948764,46.105289],[-122.948829,46.105328],[-122.94902,46.105314],[-122.94902,46.105404],[-122.948938,46.105408],[-122.948894,46.105443],[-122.94889,46.105674],[-122.948795,46.105683],[-122.948761,46.105764],[-122.948679,46.105768],[-122.948637,46.105797],[-122.948631,46.106034],[-122.948557,46.106036],[-122.948511,46.106063],[-122.948501,46.106304],[-122.948413,46.10631],[-122.948372,46.106353],[-122.948385,46.10646],[-122.948501,46.106484],[-122.948501,46.106574],[-122.94839,46.106594],[-122.948372,46.106754],[-122.948283,46.10676],[-122.948244,46.106797],[-122.948223,46.106979],[-122.94827,46.10702],[-122.948371,46.107024],[-122.948352,46.107244],[-122.948392,46.107287],[-122.948582,46.10729],[-122.948624,46.107261],[-122.94863,46.107204],[-122.948749,46.107193],[-122.948765,46.107274],[-122.948813,46.107305],[-122.948963,46.107292],[-122.949012,46.107261],[-122.949038,46.10717],[-122.949011,46.107127],[-122.94876,46.107114],[-122.94876,46.107024],[-122.948871,46.107004],[-122.948924,46.106892],[-122.948872,46.106774],[-122.94876,46.106754],[-122.94876,46.106664],[-122.948889,46.106664],[-122.948895,46.106721],[-122.948944,46.106752],[-122.949347,46.106767],[-122.949401,46.106735],[-122.949407,46.106665],[-122.949596,46.106664],[-122.949648,46.106645],[-122.949666,46.106485],[-122.949795,46.106485],[-122.949792,46.106734],[-122.949985,46.106779],[-122.950128,46.106752],[-122.950182,46.106711],[-122.950184,46.106575],[-122.95029,46.106559],[-122.950313,46.106485],[-122.950543,46.106473],[-122.950571,46.106436],[-122.950572,46.106305],[-122.950667,46.106296],[-122.950701,46.106215],[-122.950776,46.106213],[-122.950822,46.106187],[-122.950846,46.10607],[-122.950796,46.106037],[-122.950702,46.106035],[-122.950702,46.105945],[-122.950808,46.105929],[-122.950842,46.105844],[-122.951007,46.105869],[-122.951063,46.105856],[-122.951089,46.10582],[-122.951088,46.105719],[-122.951049,46.105682],[-122.950945,46.105667],[-122.950948,46.105429],[-122.95077,46.105392],[-122.950703,46.105435],[-122.950702,46.105626],[-122.950743,46.105669],[-122.950847,46.105683],[-122.950831,46.105765],[-122.950572,46.105765],[-122.950563,46.105433],[-122.950518,46.105407],[-122.950443,46.105405],[-122.950409,46.105324],[-122.950314,46.105315],[-122.950286,46.105237],[-122.950185,46.105225],[-122.950185,46.105045],[-122.950436,46.105032],[-122.950463,46.104989],[-122.950431,46.104889],[-122.950374,46.104865],[-122.949867,46.104865],[-122.949806,46.104893],[-122.949797,46.104955],[-122.949538,46.104954],[-122.949538,46.104865],[-122.949647,46.104858],[-122.949687,46.104809],[-122.94965,46.104704],[-122.949538,46.104684],[-122.949538,46.104595],[-122.949668,46.104595],[-122.949681,46.104661],[-122.949797,46.104685],[-122.949803,46.104741],[-122.949845,46.104771],[-122.950237,46.104775],[-122.950311,46.104736],[-122.950315,46.104595],[-122.950442,46.104595],[-122.950453,46.104746],[-122.950499,46.104773],[-122.950573,46.104775],[-122.950608,46.104856],[-122.950702,46.104865],[-122.950731,46.104943],[-122.950832,46.104955],[-122.950832,46.105086],[-122.95086,46.105123],[-122.951349,46.105135],[-122.951362,46.105201],[-122.951478,46.105225],[-122.951482,46.105277],[-122.95152,46.105309],[-122.951867,46.105316],[-122.951872,46.105462],[-122.951914,46.105491],[-122.951996,46.105496],[-122.951999,46.105547],[-122.952037,46.105579],[-122.952254,46.105586],[-122.952264,46.105647],[-122.952317,46.105675],[-122.952643,46.105676],[-122.952671,46.105754],[-122.952901,46.105766],[-122.952907,46.105823],[-122.952956,46.105854],[-122.953419,46.105856],[-122.953422,46.105908],[-122.95346,46.10594],[-122.953677,46.105946],[-122.953695,46.106017],[-122.953807,46.106036],[-122.953841,46.106117],[-122.953936,46.106126],[-122.953942,46.106196],[-122.953989,46.106227],[-122.95416,46.106207],[-122.954195,46.106127],[-122.954454,46.106127],[-122.954454,46.106217],[-122.954419,46.106259],[-122.954454,46.106307],[-122.954453,46.106397],[-122.954379,46.106399],[-122.954333,46.106425],[-122.954337,46.106553],[-122.954394,46.106576],[-122.954583,46.106577],[-122.954589,46.106633],[-122.954638,46.106664],[-122.954841,46.106667],[-122.954858,46.10684],[-122.954916,46.106861],[-122.9551,46.106847],[-122.955113,46.106913],[-122.955229,46.106937],[-122.955233,46.106989],[-122.95527,46.107021],[-122.955577,46.107021],[-122.955614,46.106989],[-122.955618,46.106937],[-122.955713,46.106928],[-122.955747,46.106847],[-122.955821,46.106845],[-122.955867,46.106819],[-122.955877,46.106667],[-122.956135,46.106667],[-122.956136,46.106889],[-122.956176,46.106931],[-122.956353,46.106931],[-122.956391,46.106899],[-122.956394,46.106847],[-122.956653,46.106848],[-122.956656,46.106899],[-122.956694,46.106931],[-122.956912,46.106938],[-122.956925,46.107004],[-122.957041,46.107028],[-122.957044,46.107079],[-122.957082,46.107111],[-122.9573,46.107118],[-122.957306,46.107174],[-122.957355,46.107205],[-122.957558,46.107208],[-122.957571,46.107274],[-122.957688,46.107298],[-122.957691,46.10735],[-122.957729,46.107381],[-122.957946,46.107388],[-122.957975,46.107466],[-122.958205,46.107478],[-122.958211,46.107535],[-122.958253,46.107564],[-122.958464,46.107568]],[[-122.940618,46.100452],[-122.940561,46.100436],[-122.940502,46.100457],[-122.940486,46.100505],[-122.940513,46.100541],[-122.940575,46.100553],[-122.940634,46.100527],[-122.940649,46.100487],[-122.940618,46.100452]],[[-122.941213,46.107657],[-122.941063,46.107637],[-122.941012,46.107657],[-122.940961,46.107793],[-122.941023,46.107908],[-122.941186,46.107934],[-122.941252,46.107891],[-122.941253,46.107694],[-122.941213,46.107657]],[[-122.942426,46.103242],[-122.942431,46.103086],[-122.942389,46.103063],[-122.942294,46.103061],[-122.942281,46.102995],[-122.942165,46.102971],[-122.942142,46.102897],[-122.941844,46.102867],[-122.941782,46.102901],[-122.941777,46.102971],[-122.941682,46.102973],[-122.941636,46.103],[-122.941647,46.103151],[-122.941417,46.103163],[-122.941388,46.10324],[-122.941314,46.103243],[-122.941268,46.103269],[-122.94124,46.103375],[-122.941301,46.103419],[-122.941517,46.103421],[-122.941535,46.103491],[-122.941647,46.103511],[-122.941681,46.103592],[-122.941776,46.103601],[-122.941804,46.103679],[-122.941972,46.10369],[-122.942026,46.103662],[-122.942035,46.103601],[-122.942247,46.10361],[-122.94229,46.103576],[-122.942294,46.103511],[-122.94241,46.103487],[-122.942423,46.103331],[-122.942458,46.103289],[-122.942426,46.103242]],[[-122.942481,46.106738],[-122.942313,46.106767],[-122.942279,46.106852],[-122.941806,46.106837],[-122.941772,46.106931],[-122.941698,46.106933],[-122.941652,46.106959],[-122.941644,46.107067],[-122.941705,46.10711],[-122.941902,46.107111],[-122.941901,46.107201],[-122.941439,46.107203],[-122.94139,46.107234],[-122.941384,46.107291],[-122.941268,46.107315],[-122.94126,46.107527],[-122.941302,46.107556],[-122.941384,46.107561],[-122.941418,46.107642],[-122.941513,46.107651],[-122.941547,46.107732],[-122.941772,46.107741],[-122.941848,46.107764],[-122.942002,46.107729],[-122.942031,46.107651],[-122.942214,46.107665],[-122.942277,46.10764],[-122.94229,46.107201],[-122.942385,46.107192],[-122.942419,46.107147],[-122.942406,46.107045],[-122.94229,46.107021],[-122.94229,46.106931],[-122.942494,46.106929],[-122.942549,46.106883],[-122.942536,46.106762],[-122.942481,46.106738]],[[-122.942829,46.102752],[-122.942809,46.10265],[-122.942771,46.102618],[-122.942553,46.102611],[-122.942553,46.102521],[-122.942648,46.102519],[-122.942698,46.102487],[-122.94267,46.102365],[-122.942613,46.102341],[-122.942424,46.102341],[-122.942418,46.102284],[-122.942376,46.102255],[-122.941589,46.102251],[-122.941524,46.102284],[-122.941515,46.10241],[-122.941648,46.102431],[-122.941665,46.102501],[-122.941777,46.102521],[-122.94179,46.102587],[-122.941906,46.102611],[-122.941912,46.102667],[-122.941954,46.102697],[-122.942424,46.102701],[-122.942437,46.102767],[-122.942501,46.102791],[-122.942784,46.102787],[-122.942829,46.102752]],[[-122.941904,46.104451],[-122.941883,46.104413],[-122.941829,46.104397],[-122.941694,46.104415],[-122.941649,46.104449],[-122.941645,46.104681],[-122.941611,46.104728],[-122.941651,46.104841],[-122.941698,46.104872],[-122.941849,46.104859],[-122.941901,46.104823],[-122.941904,46.104451]],[[-122.942423,46.104411],[-122.942441,46.104366],[-122.942408,46.104331],[-122.942335,46.104322],[-122.942285,46.104346],[-122.942275,46.104388],[-122.942311,46.104425],[-122.942369,46.104435],[-122.942423,46.104411]],[[-122.943491,46.104819],[-122.943422,46.104691],[-122.943198,46.104681],[-122.94317,46.104604],[-122.94294,46.104591],[-122.94293,46.10453],[-122.942877,46.104502],[-122.942599,46.104505],[-122.942557,46.104535],[-122.942551,46.104591],[-122.942463,46.104598],[-122.942423,46.104635],[-122.942444,46.104755],[-122.942551,46.104771],[-122.942564,46.104837],[-122.94268,46.104861],[-122.942684,46.104913],[-122.942721,46.104945],[-122.942939,46.104951],[-122.942948,46.105013],[-122.943001,46.10504],[-122.943198,46.105042],[-122.943266,46.105066],[-122.943428,46.105029],[-122.943456,46.104993],[-122.943457,46.104862],[-122.943491,46.104819]],[[-122.944229,46.108552],[-122.944557,46.108565],[-122.944612,46.108532],[-122.944617,46.108331],[-122.944577,46.108289],[-122.944488,46.108282],[-122.944483,46.108226],[-122.944433,46.108195],[-122.94429,46.108168],[-122.94423,46.108192],[-122.943999,46.108204],[-122.943971,46.108241],[-122.943971,46.108462],[-122.943712,46.108462],[-122.94371,46.108325],[-122.943664,46.108286],[-122.943522,46.108258],[-122.943372,46.108286],[-122.943325,46.108325],[-122.943324,46.108462],[-122.943242,46.108466],[-122.943198,46.1085],[-122.943194,46.108642],[-122.943113,46.108646],[-122.943071,46.108675],[-122.943064,46.108821],[-122.942983,46.108826],[-122.942941,46.108855],[-122.942941,46.108968],[-122.942983,46.108997],[-122.943064,46.109002],[-122.943073,46.109063],[-122.943127,46.109091],[-122.94329,46.109096],[-122.943325,46.109002],[-122.943582,46.109002],[-122.943585,46.109053],[-122.943623,46.109085],[-122.943793,46.109088],[-122.943835,46.109059],[-122.943841,46.109002],[-122.943922,46.108998],[-122.943967,46.108964],[-122.94397,46.108732],[-122.944077,46.108716],[-122.9441,46.108642],[-122.944216,46.108618],[-122.944229,46.108552]],[[-122.943131,46.102894],[-122.943396,46.102881],[-122.94345,46.102853],[-122.943459,46.10266],[-122.943418,46.102618],[-122.943241,46.102618],[-122.943204,46.10265],[-122.9432,46.102701],[-122.943126,46.102704],[-122.94308,46.10273],[-122.943079,46.102866],[-122.943131,46.102894]],[[-122.944096,46.103483],[-122.944124,46.103377],[-122.944085,46.103339],[-122.943846,46.103332],[-122.94377,46.103308],[-122.943601,46.103356],[-122.943589,46.103482],[-122.943655,46.103525],[-122.944043,46.103511],[-122.944096,46.103483]],[[-122.943849,46.10324],[-122.94388,46.103205],[-122.943866,46.103165],[-122.943807,46.103139],[-122.943745,46.103151],[-122.943718,46.103187],[-122.943734,46.103235],[-122.943792,46.103256],[-122.943849,46.10324]],[[-122.944175,46.102779],[-122.943886,46.102785],[-122.94385,46.102817],[-122.943828,46.102911],[-122.943867,46.102965],[-122.943976,46.102972],[-122.943982,46.103042],[-122.944044,46.103075],[-122.944187,46.103058],[-122.944233,46.103019],[-122.944229,46.102812],[-122.944175,46.102779]],[[-122.946728,46.102751],[-122.946681,46.102637],[-122.946564,46.102613],[-122.94653,46.102532],[-122.946306,46.102523],[-122.946296,46.102462],[-122.946243,46.102434],[-122.945918,46.102433],[-122.945904,46.102367],[-122.945788,46.102343],[-122.945754,46.102262],[-122.9454,46.102252],[-122.945383,46.102182],[-122.945271,46.102162],[-122.945258,46.102096],[-122.945193,46.102072],[-122.944823,46.102073],[-122.944776,46.102088],[-122.944753,46.102252],[-122.944637,46.102276],[-122.944624,46.102432],[-122.944512,46.102452],[-122.944494,46.102612],[-122.944399,46.102621],[-122.944365,46.102666],[-122.944366,46.102749],[-122.944399,46.102783],[-122.944623,46.102792],[-122.944629,46.102849],[-122.944678,46.10288],[-122.944882,46.102882],[-122.944888,46.102939],[-122.94493,46.102968],[-122.945141,46.102972],[-122.945146,46.103029],[-122.945188,46.103058],[-122.945399,46.103063],[-122.945405,46.103119],[-122.945447,46.103148],[-122.945658,46.103153],[-122.945676,46.103223],[-122.945787,46.103243],[-122.9458,46.103309],[-122.945865,46.103333],[-122.94625,46.103331],[-122.946299,46.1033],[-122.946305,46.103243],[-122.946412,46.103227],[-122.946434,46.103063],[-122.946516,46.103059],[-122.94656,46.103025],[-122.946564,46.102883],[-122.946645,46.102879],[-122.946687,46.10285],[-122.946728,46.102751]],[[-122.944803,46.104052],[-122.944879,46.104009],[-122.944875,46.103726],[-122.944833,46.103696],[-122.944752,46.103692],[-122.944748,46.103641],[-122.944711,46.103609],[-122.944541,46.103606],[-122.944499,46.103635],[-122.944458,46.103735],[-122.944493,46.103782],[-122.944499,46.103929],[-122.944541,46.103958],[-122.944622,46.103962],[-122.944625,46.104014],[-122.944663,46.104046],[-122.944803,46.104052]],[[-122.944876,46.109313],[-122.944808,46.109259],[-122.944634,46.109292],[-122.944632,46.109445],[-122.944496,46.109481],[-122.944467,46.109576],[-122.944495,46.109619],[-122.944668,46.109632],[-122.944728,46.109613],[-122.94473,46.10946],[-122.944862,46.109428],[-122.944876,46.109313]],[[-122.944737,46.108974],[-122.944764,46.108682],[-122.944719,46.108647],[-122.944563,46.108628],[-122.944497,46.108657],[-122.944488,46.108967],[-122.944527,46.109009],[-122.944684,46.109001],[-122.944737,46.108974]],[[-122.945266,46.107563],[-122.94526,46.107506],[-122.94521,46.107475],[-122.944906,46.107485],[-122.944877,46.107562],[-122.944782,46.107571],[-122.944748,46.107652],[-122.944666,46.107656],[-122.944624,46.107686],[-122.944636,46.107903],[-122.944808,46.107946],[-122.944951,46.10792],[-122.945,46.107889],[-122.945007,46.107833],[-122.945123,46.107809],[-122.945136,46.107743],[-122.945366,46.10773],[-122.945394,46.107694],[-122.945389,46.107596],[-122.945347,46.107567],[-122.945266,46.107563]],[[-122.945058,46.108924],[-122.945251,46.108889],[-122.945261,46.108771],[-122.945209,46.108735],[-122.945061,46.108735],[-122.945007,46.108776],[-122.945009,46.108888],[-122.945058,46.108924]],[[-122.945786,46.107654],[-122.945729,46.107639],[-122.945671,46.107659],[-122.945654,46.107708],[-122.945681,46.107744],[-122.945743,46.107756],[-122.945802,46.10773],[-122.945817,46.10769],[-122.945786,46.107654]],[[-122.946535,46.108987],[-122.946577,46.108868],[-122.946538,46.10883],[-122.9463,46.108823],[-122.946296,46.108771],[-122.946258,46.108739],[-122.946123,46.108719],[-122.946068,46.108732],[-122.946041,46.108823],[-122.945932,46.10883],[-122.945891,46.108873],[-122.945929,46.108983],[-122.94604,46.109003],[-122.94604,46.109093],[-122.945852,46.109093],[-122.945795,46.109117],[-122.945799,46.109343],[-122.945972,46.109387],[-122.946141,46.109351],[-122.94617,46.109273],[-122.946264,46.109264],[-122.946299,46.109183],[-122.946415,46.109159],[-122.946429,46.109003],[-122.946535,46.108987]],[[-122.946171,46.107743],[-122.94619,46.107698],[-122.946157,46.107662],[-122.946092,46.107653],[-122.946039,46.107673],[-122.946023,46.107714],[-122.94606,46.107756],[-122.946118,46.107767],[-122.946171,46.107743]],[[-122.946174,46.107834],[-122.946117,46.107819],[-122.946059,46.107839],[-122.946042,46.107888],[-122.946069,46.107924],[-122.946131,46.107936],[-122.94619,46.10791],[-122.946205,46.10787],[-122.946174,46.107834]],[[-122.946751,46.108282],[-122.946924,46.108268],[-122.946947,46.108235],[-122.946947,46.108062],[-122.946913,46.108022],[-122.946699,46.108024],[-122.94666,46.107935],[-122.946507,46.107923],[-122.946443,46.107947],[-122.94643,46.108013],[-122.946313,46.108037],[-122.9463,46.108158],[-122.946333,46.108197],[-122.946511,46.108189],[-122.946553,46.10816],[-122.946559,46.108103],[-122.946677,46.108092],[-122.946701,46.108259],[-122.946751,46.108282]],[[-122.94661,46.108553],[-122.946685,46.108515],[-122.946679,46.108402],[-122.946626,46.108374],[-122.946469,46.108366],[-122.94643,46.108408],[-122.946438,46.108525],[-122.946492,46.108552],[-122.94661,46.108553]],[[-122.946965,46.107794],[-122.946934,46.107677],[-122.946818,46.107653],[-122.946815,46.107602],[-122.946777,46.10757],[-122.946622,46.107564],[-122.946569,46.107592],[-122.94654,46.107783],[-122.94658,46.107827],[-122.946913,46.107831],[-122.946965,46.107794]],[[-122.946946,46.109314],[-122.946878,46.10926],[-122.946586,46.109285],[-122.946558,46.109327],[-122.946575,46.109523],[-122.946635,46.109543],[-122.946917,46.109531],[-122.946945,46.109495],[-122.946946,46.109314]],[[-122.947076,46.108643],[-122.947053,46.108479],[-122.946999,46.108463],[-122.94684,46.108479],[-122.946817,46.108517],[-122.946817,46.108859],[-122.946858,46.108907],[-122.94703,46.108923],[-122.947073,46.108889],[-122.947076,46.108824],[-122.94715,46.108821],[-122.947196,46.108795],[-122.947196,46.108672],[-122.94715,46.108646],[-122.947076,46.108643]],[[-122.947209,46.108285],[-122.947151,46.10827],[-122.947093,46.10829],[-122.947077,46.108338],[-122.947104,46.108374],[-122.947166,46.108387],[-122.947225,46.108361],[-122.94724,46.108321],[-122.947209,46.108285]],[[-122.947594,46.108824],[-122.947675,46.10882],[-122.94772,46.108785],[-122.947714,46.108582],[-122.947661,46.108555],[-122.947475,46.108565],[-122.947426,46.108533],[-122.947359,46.108537],[-122.947319,46.108572],[-122.94732,46.108609],[-122.947377,46.108642],[-122.947453,46.108633],[-122.947464,46.108734],[-122.947348,46.108758],[-122.947301,46.108861],[-122.947311,46.108896],[-122.947396,46.108938],[-122.947545,46.10891],[-122.947587,46.10888],[-122.947594,46.108824]],[[-122.947468,46.108195],[-122.94741,46.10818],[-122.947352,46.1082],[-122.947336,46.108249],[-122.947362,46.108285],[-122.947425,46.108297],[-122.947484,46.108271],[-122.947498,46.108231],[-122.947468,46.108195]],[[-122.94826,46.108419],[-122.948235,46.108317],[-122.948186,46.108286],[-122.948024,46.108285],[-122.947965,46.108324],[-122.947988,46.108431],[-122.948037,46.108462],[-122.948227,46.108454],[-122.94826,46.108419]],[[-122.949588,46.107025],[-122.949662,46.106986],[-122.949656,46.106873],[-122.949603,46.106846],[-122.949448,46.106851],[-122.949408,46.106888],[-122.949416,46.106996],[-122.949469,46.107023],[-122.949588,46.107025]],[[-122.950054,46.106975],[-122.949993,46.106922],[-122.949829,46.106944],[-122.949795,46.106983],[-122.949808,46.107091],[-122.949865,46.107114],[-122.950019,46.107106],[-122.950052,46.107071],[-122.950054,46.106975]],[[-122.951732,46.111706],[-122.95182,46.111699],[-122.95186,46.111662],[-122.951861,46.111394],[-122.951813,46.11135],[-122.951344,46.111345],[-122.95134,46.111294],[-122.951303,46.111262],[-122.951085,46.111255],[-122.951067,46.111185],[-122.950956,46.111165],[-122.950947,46.111104],[-122.950886,46.111075],[-122.950731,46.111084],[-122.950697,46.111165],[-122.950602,46.111174],[-122.950567,46.111255],[-122.950486,46.111259],[-122.950444,46.111288],[-122.950444,46.111402],[-122.950486,46.111431],[-122.950567,46.111435],[-122.950596,46.111513],[-122.950826,46.111525],[-122.950839,46.111591],[-122.950955,46.111615],[-122.950984,46.111693],[-122.951214,46.111705],[-122.95122,46.111762],[-122.951262,46.111791],[-122.951473,46.111796],[-122.951556,46.111818],[-122.951709,46.11178],[-122.951732,46.111706]],[[-122.95162,46.110856],[-122.95159,46.110739],[-122.951474,46.110715],[-122.95147,46.110664],[-122.951433,46.110632],[-122.951277,46.110626],[-122.951224,46.110654],[-122.951195,46.110845],[-122.951235,46.110889],[-122.951568,46.110893],[-122.95162,46.110856]],[[-122.953154,46.106556],[-122.953177,46.106436],[-122.953132,46.1064],[-122.952901,46.106396],[-122.952892,46.106334],[-122.952838,46.106307],[-122.952653,46.106317],[-122.952619,46.106232],[-122.952513,46.106216],[-122.9525,46.10615],[-122.952384,46.106126],[-122.952355,46.106048],[-122.952254,46.106036],[-122.952253,46.105899],[-122.952213,46.105862],[-122.952037,46.105862],[-122.951999,46.105894],[-122.951994,46.105946],[-122.951866,46.105945],[-122.951857,46.105884],[-122.951804,46.105857],[-122.951528,46.105856],[-122.951466,46.105885],[-122.951481,46.105997],[-122.951519,46.106029],[-122.951737,46.106036],[-122.951746,46.106097],[-122.951799,46.106124],[-122.952125,46.106126],[-122.952124,46.106306],[-122.952008,46.10633],[-122.951995,46.106437],[-122.952036,46.106479],[-122.952124,46.106486],[-122.952128,46.106537],[-122.952165,46.106569],[-122.952383,46.106576],[-122.952389,46.106632],[-122.952438,46.106663],[-122.952621,46.106659],[-122.952662,46.106615],[-122.952639,46.106524],[-122.952594,46.10649],[-122.952513,46.106486],[-122.952513,46.106397],[-122.952631,46.106385],[-122.952655,46.106462],[-122.952771,46.106486],[-122.952777,46.106543],[-122.952826,46.106574],[-122.953106,46.106587],[-122.953154,46.106556]],[[-122.951993,46.108916],[-122.952074,46.108912],[-122.952119,46.108877],[-122.952119,46.108774],[-122.952067,46.108738],[-122.951917,46.108725],[-122.951869,46.108755],[-122.951863,46.108825],[-122.951625,46.108832],[-122.951585,46.108876],[-122.951614,46.109067],[-122.951667,46.109094],[-122.951822,46.109089],[-122.95186,46.109057],[-122.951864,46.109006],[-122.95198,46.108982],[-122.951993,46.108916]],[[-122.9523,46.108642],[-122.95258,46.108658],[-122.952634,46.108626],[-122.952618,46.108482],[-122.952511,46.108466],[-122.952505,46.108409],[-122.952456,46.108378],[-122.952123,46.108376],[-122.952107,46.108293],[-122.952218,46.108277],[-122.952252,46.108196],[-122.952327,46.108193],[-122.952373,46.108167],[-122.952373,46.108044],[-122.952319,46.108017],[-122.952123,46.108016],[-122.9521,46.107941],[-122.951994,46.107926],[-122.951971,46.107761],[-122.951776,46.107752],[-122.951738,46.107784],[-122.951735,46.107835],[-122.951654,46.10784],[-122.951612,46.107869],[-122.951606,46.108057],[-122.951646,46.108099],[-122.951735,46.108106],[-122.951738,46.108171],[-122.951774,46.108202],[-122.951993,46.108196],[-122.952009,46.108278],[-122.951877,46.10831],[-122.951856,46.108441],[-122.951899,46.108463],[-122.951993,46.108466],[-122.951999,46.108522],[-122.952041,46.108552],[-122.952252,46.108556],[-122.952258,46.108612],[-122.9523,46.108642]],[[-122.952638,46.111346],[-122.952635,46.111294],[-122.952597,46.111262],[-122.952427,46.11126],[-122.952381,46.111299],[-122.952368,46.111447],[-122.952168,46.11144],[-122.952126,46.111469],[-122.95212,46.111526],[-122.952008,46.111545],[-122.95199,46.111706],[-122.951902,46.111712],[-122.951863,46.111749],[-122.951861,46.111927],[-122.951889,46.111963],[-122.952059,46.112],[-122.952231,46.111956],[-122.952249,46.111796],[-122.952338,46.111789],[-122.952377,46.111752],[-122.95239,46.111515],[-122.952577,46.11155],[-122.952638,46.111526],[-122.952826,46.111526],[-122.952879,46.111506],[-122.952897,46.1114],[-122.952874,46.111362],[-122.952638,46.111346]],[[-122.952462,46.10919],[-122.952312,46.109162],[-122.952145,46.109202],[-122.952103,46.109304],[-122.952124,46.109349],[-122.95218,46.109366],[-122.952487,46.10935],[-122.952504,46.109219],[-122.952462,46.10919]],[[-122.952433,46.109006],[-122.952507,46.108968],[-122.952501,46.108854],[-122.952448,46.108827],[-122.952293,46.108832],[-122.952253,46.108869],[-122.952261,46.108977],[-122.952314,46.109005],[-122.952433,46.109006]],[[-122.952564,46.106936],[-122.952638,46.106898],[-122.952633,46.106784],[-122.952579,46.106757],[-122.952424,46.106762],[-122.952386,46.106794],[-122.952371,46.106906],[-122.952425,46.106935],[-122.952564,46.106936]],[[-122.952389,46.107149],[-122.952364,46.107251],[-122.952396,46.107286],[-122.952586,46.107294],[-122.952638,46.107258],[-122.952638,46.107154],[-122.952586,46.107118],[-122.952438,46.107118],[-122.952389,46.107149]],[[-122.95264,46.112245],[-122.952671,46.112209],[-122.952656,46.112169],[-122.952598,46.112143],[-122.952535,46.112155],[-122.952508,46.112191],[-122.952525,46.112239],[-122.952583,46.11226],[-122.95264,46.112245]],[[-122.95497,46.108467],[-122.954964,46.10832],[-122.954922,46.108291],[-122.95484,46.108287],[-122.954834,46.10814],[-122.954792,46.108111],[-122.954711,46.108107],[-122.954705,46.10796],[-122.954663,46.107931],[-122.954582,46.107927],[-122.954576,46.10778],[-122.954534,46.107751],[-122.954453,46.107747],[-122.954447,46.1076],[-122.954405,46.107571],[-122.954323,46.107566],[-122.95432,46.107425],[-122.954275,46.107391],[-122.954194,46.107386],[-122.954193,46.10725],[-122.954153,46.107213],[-122.953724,46.10721],[-122.953682,46.10724],[-122.953676,46.107296],[-122.95356,46.10732],[-122.953547,46.107386],[-122.953329,46.107393],[-122.953291,46.107424],[-122.953288,46.107476],[-122.953077,46.10748],[-122.953035,46.107509],[-122.953029,46.107566],[-122.952818,46.10757],[-122.952776,46.107599],[-122.95277,46.107656],[-122.952696,46.107658],[-122.95265,46.107684],[-122.952647,46.107893],[-122.952689,46.107922],[-122.95277,46.107926],[-122.952788,46.108086],[-122.952899,46.108106],[-122.952934,46.108187],[-122.953029,46.108196],[-122.953038,46.108347],[-122.953084,46.108374],[-122.953158,46.108376],[-122.953164,46.108613],[-122.953206,46.108642],[-122.953287,46.108646],[-122.953293,46.108793],[-122.953335,46.108822],[-122.953416,46.108826],[-122.953422,46.108973],[-122.953464,46.109002],[-122.953546,46.109006],[-122.953549,46.109058],[-122.953587,46.10909],[-122.953886,46.109092],[-122.953928,46.109063],[-122.953934,46.109006],[-122.954145,46.109002],[-122.954187,46.108973],[-122.954193,46.108917],[-122.954404,46.108912],[-122.954446,46.108883],[-122.954452,46.108827],[-122.954655,46.108824],[-122.954704,46.108793],[-122.954711,46.108737],[-122.954935,46.108728],[-122.954969,46.108647],[-122.955058,46.10864],[-122.955098,46.108598],[-122.955086,46.108491],[-122.95497,46.108467]],[[-122.953322,46.107079],[-122.95326,46.106948],[-122.95303,46.106936],[-122.953024,46.106879],[-122.952982,46.10685],[-122.952834,46.106847],[-122.952777,46.106879],[-122.952756,46.107081],[-122.952806,46.107113],[-122.9529,46.107116],[-122.952906,46.107173],[-122.952948,46.107202],[-122.953098,46.10723],[-122.953254,46.107197],[-122.953322,46.107079]],[[-122.953543,46.111656],[-122.953483,46.111604],[-122.953285,46.111616],[-122.953279,46.11156],[-122.95323,46.111529],[-122.952944,46.11153],[-122.952902,46.111559],[-122.952896,46.111616],[-122.952815,46.11162],[-122.952773,46.111649],[-122.952773,46.111853],[-122.952829,46.111885],[-122.953085,46.111886],[-122.953146,46.111858],[-122.953155,46.111796],[-122.953495,46.111792],[-122.953542,46.111753],[-122.953543,46.111656]],[[-122.953311,46.10683],[-122.953617,46.106859],[-122.953671,46.106826],[-122.953654,46.106682],[-122.953418,46.106666],[-122.953412,46.106609],[-122.953363,46.106578],[-122.953161,46.106593],[-122.95314,46.106632],[-122.953165,46.106723],[-122.953207,46.106752],[-122.953289,46.106756],[-122.953311,46.10683]],[[-122.95321,46.110007],[-122.953367,46.109992],[-122.95341,46.109963],[-122.953414,46.10977],[-122.953361,46.109729],[-122.953219,46.109727],[-122.953158,46.10977],[-122.953158,46.109966],[-122.95321,46.110007]],[[-122.953467,46.11155],[-122.953618,46.111524],[-122.953664,46.111498],[-122.953655,46.111366],[-122.953603,46.111347],[-122.953414,46.111346],[-122.953361,46.111323],[-122.953297,46.111336],[-122.95325,46.111394],[-122.953302,46.111506],[-122.953467,46.11155]],[[-122.953672,46.112426],[-122.953666,46.11237],[-122.953617,46.112339],[-122.953469,46.112339],[-122.953417,46.112375],[-122.953422,46.112488],[-122.953468,46.112514],[-122.953543,46.112516],[-122.953548,46.112586],[-122.953603,46.112619],[-122.953753,46.112602],[-122.9538,46.112563],[-122.953788,46.11245],[-122.953672,46.112426]],[[-122.954969,46.109457],[-122.955043,46.109455],[-122.955089,46.109428],[-122.955085,46.109301],[-122.955028,46.109277],[-122.954839,46.109277],[-122.954822,46.109207],[-122.95471,46.109187],[-122.954676,46.109106],[-122.954581,46.109097],[-122.954575,46.109027],[-122.954528,46.108996],[-122.954241,46.109011],[-122.954198,46.10904],[-122.954192,46.109096],[-122.954076,46.10912],[-122.954063,46.109186],[-122.953867,46.109187],[-122.953808,46.109225],[-122.953817,46.109342],[-122.953933,46.109366],[-122.953934,46.109588],[-122.953988,46.109634],[-122.954451,46.109637],[-122.954479,46.109714],[-122.954664,46.109749],[-122.954805,46.109718],[-122.954839,46.109637],[-122.954955,46.109613],[-122.954969,46.109457]],[[-122.954583,46.110358],[-122.954574,46.11003],[-122.954532,46.110001],[-122.95436,46.109976],[-122.954287,46.110044],[-122.954321,46.110088],[-122.954321,46.110578],[-122.954362,46.11062],[-122.954517,46.110626],[-122.95457,46.110598],[-122.95458,46.110447],[-122.954614,46.110404],[-122.954583,46.110358]],[[-122.955031,46.107411],[-122.955174,46.107385],[-122.95522,46.107358],[-122.955212,46.107227],[-122.955159,46.107207],[-122.954971,46.107207],[-122.954948,46.107133],[-122.954841,46.107117],[-122.954841,46.106972],[-122.954808,46.106933],[-122.954751,46.106924],[-122.954611,46.106949],[-122.954582,46.107027],[-122.954501,46.107031],[-122.954459,46.10706],[-122.954471,46.107187],[-122.954582,46.107207],[-122.954595,46.107273],[-122.954712,46.107297],[-122.954717,46.107353],[-122.954759,46.107383],[-122.95497,46.107387],[-122.955031,46.107411]],[[-122.955098,46.110037],[-122.95503,46.109983],[-122.954867,46.110009],[-122.954839,46.110046],[-122.954856,46.11017],[-122.954921,46.110191],[-122.955069,46.110165],[-122.955096,46.110133],[-122.955098,46.110037]],[[-122.95515,46.109097],[-122.955224,46.109059],[-122.955219,46.108945],[-122.955165,46.108918],[-122.95501,46.108923],[-122.954971,46.10896],[-122.954978,46.109068],[-122.955031,46.109096],[-122.95515,46.109097]],[[-122.95528,46.108017],[-122.955355,46.107979],[-122.955349,46.107866],[-122.955296,46.107838],[-122.955139,46.10783],[-122.9551,46.107872],[-122.955108,46.107988],[-122.955162,46.108016],[-122.95528,46.108017]],[[-122.955421,46.107746],[-122.955594,46.107731],[-122.955617,46.107698],[-122.955608,46.107416],[-122.955547,46.107387],[-122.95527,46.107393],[-122.955231,46.10743],[-122.955231,46.107523],[-122.95527,46.107561],[-122.955358,46.107567],[-122.955367,46.107718],[-122.955421,46.107746]],[[-122.955399,46.108281],[-122.955549,46.1083],[-122.955604,46.108276],[-122.955615,46.108151],[-122.955569,46.108111],[-122.955418,46.108095],[-122.955361,46.108132],[-122.955359,46.108244],[-122.955399,46.108281]],[[-122.955616,46.108417],[-122.955556,46.108365],[-122.955392,46.108386],[-122.955358,46.108426],[-122.955371,46.108533],[-122.955526,46.10857],[-122.955583,46.108561],[-122.955615,46.108527],[-122.955616,46.108417]],[[-122.957041,46.107388],[-122.957122,46.107384],[-122.957167,46.107349],[-122.957169,46.107251],[-122.957129,46.107214],[-122.956952,46.107214],[-122.956915,46.107246],[-122.956911,46.107297],[-122.956653,46.107297],[-122.95663,46.107223],[-122.956523,46.107207],[-122.956522,46.107071],[-122.956482,46.107034],[-122.956081,46.107013],[-122.956015,46.107042],[-122.956009,46.107169],[-122.956054,46.107203],[-122.956135,46.107207],[-122.956153,46.107368],[-122.956264,46.107387],[-122.956277,46.107453],[-122.956394,46.107477],[-122.956397,46.107529],[-122.956435,46.107561],[-122.956652,46.107568],[-122.956656,46.107619],[-122.956693,46.107651],[-122.956888,46.107642],[-122.956911,46.107478],[-122.957018,46.107462],[-122.957041,46.107388]],[[-122.95626,46.109725],[-122.956209,46.109704],[-122.956151,46.109714],[-122.956114,46.109756],[-122.95613,46.109797],[-122.956183,46.109817],[-122.956255,46.109805],[-122.956282,46.109767],[-122.95626,46.109725]],[[-122.956524,46.109816],[-122.956555,46.109764],[-122.956503,46.109714],[-122.956438,46.109705],[-122.956372,46.10974],[-122.956359,46.109786],[-122.95641,46.109831],[-122.956468,46.109841],[-122.956524,46.109816]]]}},{"type":"Feature","properties":{"id":1,"area_m2":80900,"px":809,"rank":2,"persistent":false},"geometry":{"type":"Polygon","coordinates":[[[-122.944874,46.110983],[-122.944874,46.111072],[-122.944792,46.111077],[-122.944748,46.111111],[-122.944744,46.111252],[-122.944656,46.111259],[-122.944616,46.111296],[-122.944614,46.111522],[-122.94458,46.111565],[-122.944614,46.111612],[-122.944614,46.111792],[-122.944519,46.111801],[-122.944485,46.111882],[-122.944368,46.111906],[-122.944355,46.112062],[-122.944274,46.112066],[-122.944229,46.1121],[-122.944226,46.112242],[-122.944119,46.112258],[-122.944096,46.112332],[-122.9439,46.112333],[-122.943846,46.112361],[-122.943837,46.112602],[-122.943802,46.112644],[-122.943837,46.112692],[-122.943837,46.112782],[-122.943742,46.112784],[-122.943696,46.112812],[-122.943707,46.112962],[-122.943482,46.112958],[-122.943448,46.113052],[-122.943342,46.113068],[-122.943319,46.113142],[-122.943202,46.113166],[-122.943189,46.113232],[-122.94306,46.113232],[-122.943054,46.113175],[-122.943005,46.113144],[-122.942801,46.113141],[-122.942795,46.113085],[-122.942753,46.113056],[-122.942543,46.113051],[-122.942537,46.112995],[-122.942495,46.112965],[-122.942284,46.112961],[-122.942271,46.112895],[-122.942155,46.112871],[-122.942151,46.112819],[-122.942113,46.112787],[-122.941766,46.112781],[-122.941763,46.112729],[-122.941725,46.112697],[-122.941508,46.112691],[-122.941473,46.11261],[-122.941249,46.112601],[-122.941243,46.112544],[-122.941194,46.112513],[-122.94099,46.11251],[-122.940984,46.112454],[-122.940942,46.112425],[-122.940732,46.11242],[-122.940718,46.112354],[-122.940602,46.11233],[-122.940599,46.112279],[-122.940561,46.112247],[-122.940343,46.11224],[-122.940344,46.11215],[-122.940602,46.11215],[-122.940606,46.112202],[-122.940643,46.112234],[-122.940861,46.112241],[-122.940867,46.112297],[-122.940916,46.112328],[-122.941085,46.112321],[-122.94112,46.112241],[-122.941201,46.112237],[-122.941243,46.112207],[-122.94125,46.112061],[-122.941331,46.112057],[-122.941373,46.112027],[-122.941379,46.111881],[-122.941453,46.111878],[-122.941499,46.111852],[-122.941509,46.111701],[-122.941583,46.111698],[-122.941629,46.111672],[-122.941635,46.111469],[-122.94159,46.111435],[-122.941509,46.111431],[-122.941509,46.111251],[-122.941542,46.111193],[-122.941487,46.111087],[-122.94138,46.111069],[-122.94138,46.110891],[-122.941492,46.110871],[-122.94151,46.110711],[-122.941598,46.110704],[-122.941638,46.110667],[-122.941639,46.11049],[-122.941598,46.110447],[-122.940992,46.11044],[-122.940992,46.110309],[-122.940964,46.110273],[-122.940804,46.110261],[-122.940743,46.110289],[-122.940733,46.11071],[-122.940621,46.11073],[-122.940604,46.11089],[-122.940515,46.110897],[-122.940475,46.110939],[-122.940487,46.111046],[-122.940603,46.11107],[-122.940603,46.11116],[-122.940529,46.111163],[-122.940483,46.111189],[-122.940474,46.11134],[-122.940362,46.11136],[-122.940344,46.11152],[-122.940263,46.111524],[-122.940218,46.111558],[-122.940214,46.11179],[-122.940126,46.111796],[-122.940087,46.111834],[-122.940088,46.112022],[-122.940133,46.112056],[-122.940214,46.11206],[-122.940214,46.11215],[-122.940085,46.11215],[-122.940079,46.112093],[-122.94003,46.112062],[-122.939826,46.11206],[-122.93982,46.112003],[-122.939778,46.111974],[-122.939567,46.11197],[-122.939561,46.111913],[-122.939519,46.111884],[-122.939309,46.11188],[-122.939303,46.111823],[-122.939261,46.111794],[-122.93905,46.111789],[-122.939044,46.111733],[-122.939002,46.111704],[-122.938791,46.111699],[-122.938791,46.111478],[-122.93875,46.111436],[-122.938458,46.111432],[-122.938409,46.111462],[-122.938403,46.111519],[-122.938276,46.111519],[-122.938251,46.111445],[-122.938144,46.111429],[-122.938145,46.111249],[-122.938263,46.111238],[-122.938308,46.11133],[-122.938463,46.111339],[-122.938524,46.111311],[-122.938544,46.111238],[-122.938851,46.111249],[-122.938915,46.111216],[-122.93892,46.111023],[-122.938851,46.11098],[-122.938691,46.110992],[-122.938662,46.111069],[-122.938546,46.111093],[-122.938522,46.11117],[-122.938274,46.111159],[-122.938274,46.111069],[-122.938356,46.111065],[-122.9384,46.111031],[-122.938404,46.110889],[-122.93851,46.110873],[-122.938533,46.110799],[-122.938663,46.110799],[-122.938669,46.110856],[-122.938718,46.110887],[-122.938921,46.110889],[-122.938927,46.110946],[-122.938969,46.110975],[-122.93918,46.11098],[-122.939186,46.111036],[-122.939228,46.111065],[-122.939498,46.111069],[-122.939546,46.111054],[-122.939568,46.11098],[-122.93965,46.110976],[-122.939692,46.110946],[-122.939698,46.1108],[-122.939793,46.110797],[-122.939839,46.11077],[-122.939828,46.11062],[-122.939902,46.110618],[-122.939948,46.110591],[-122.939957,46.11044],[-122.940039,46.110436],[-122.940083,46.110402],[-122.940087,46.11026],[-122.940193,46.110244],[-122.940216,46.11017],[-122.940349,46.11015],[-122.940346,46.10999],[-122.940452,46.109974],[-122.940475,46.1099],[-122.940686,46.109896],[-122.940728,46.109867],[-122.940734,46.10981],[-122.940846,46.109791],[-122.940864,46.10963],[-122.941252,46.109631],[-122.941255,46.109682],[-122.941293,46.109714],[-122.941511,46.109721],[-122.941539,46.109799],[-122.941769,46.109811],[-122.941775,46.109868],[-122.941817,46.109897],[-122.942028,46.109901],[-122.942051,46.109975],[-122.942157,46.109992],[-122.942157,46.110081],[-122.942076,46.110085],[-122.942031,46.110119],[-122.942031,46.110313],[-122.94209,46.11035],[-122.942286,46.110351],[-122.942288,46.110488],[-122.942327,46.110525],[-122.942769,46.110522],[-122.942802,46.110488],[-122.942801,46.11039],[-122.942756,46.110356],[-122.942675,46.110351],[-122.942675,46.110261],[-122.942933,46.110262],[-122.942937,46.110327],[-122.942973,46.110358],[-122.943192,46.110352],[-122.943196,46.110403],[-122.943233,46.110435],[-122.943451,46.110442],[-122.943454,46.110493],[-122.943492,46.110525],[-122.94371,46.110532],[-122.943713,46.110584],[-122.943751,46.110616],[-122.943968,46.110622],[-122.943972,46.110674],[-122.944009,46.110706],[-122.944227,46.110712],[-122.944262,46.110793],[-122.944486,46.110802],[-122.94452,46.110883],[-122.944744,46.110892],[-122.944767,46.110967],[-122.944874,46.110983]],[[-122.941691,46.110261],[-122.941768,46.110217],[-122.941768,46.109944],[-122.941714,46.109903],[-122.941573,46.109902],[-122.941514,46.109939],[-122.94151,46.110081],[-122.941478,46.110139],[-122.941539,46.110249],[-122.941691,46.110261]],[[-122.943599,46.110757],[-122.943552,46.110634],[-122.943322,46.110622],[-122.943318,46.11057],[-122.94328,46.110538],[-122.943085,46.110547],[-122.943063,46.110621],[-122.942974,46.110628],[-122.942935,46.110665],[-122.942933,46.111107],[-122.942955,46.111146],[-122.943109,46.111175],[-122.94317,46.111159],[-122.943192,46.110982],[-122.943273,46.110978],[-122.943318,46.110943],[-122.943321,46.110802],[-122.94356,46.110795],[-122.943599,46.110757]],[[-122.944149,46.111432],[-122.944221,46.111399],[-122.944225,46.111296],[-122.944186,46.111258],[-122.944097,46.111252],[-122.944069,46.111174],[-122.943787,46.111162],[-122.943727,46.111182],[-122.943709,46.111378],[-122.943737,46.11142],[-122.944149,46.111432]],[[-122.944049,46.111796],[-122.943871,46.111788],[-122.943838,46.111882],[-122.943756,46.111886],[-122.943714,46.111915],[-122.943708,46.112117],[-122.943754,46.112161],[-122.943926,46.112146],[-122.943964,46.112114],[-122.943967,46.112062],[-122.944048,46.112058],[-122.94409,46.112029],[-122.944091,46.111825],[-122.944049,46.111796]]]}},{"type":"Feature","properties":{"id":4,"area_m2":1000,"px":10,"rank":3,"persistent":false},"geometry":{"type":"Polygon","coordinates":[[[-122.956265,46.106397],[-122.956265,46.106487],[-122.955877,46.106487],[-122.955816,46.106463],[-122.955747,46.106487],[-122.955489,46.106487],[-122.955489,46.106397],[-122.95557,46.106393],[-122.955615,46.106359],[-122.955618,46.106217],[-122.955877,46.106217],[-122.95589,46.106283],[-122.956006,46.106307],[-122.956041,46.106388],[-122.956265,46.106397]]]}},{"type":"Feature","properties":{"id":10,"area_m2":800,"px":8,"rank":4,"persistent":false},"geometry":{"type":"Polygon","coordinates":[[[-122.947468,46.104234],[-122.947468,46.104323],[-122.94708,46.104323],[-122.947079,46.104097],[-122.947039,46.10406],[-122.946951,46.104053],[-122.946951,46.103963],[-122.94708,46.103963],[-122.947086,46.10402],[-122.947135,46.104051],[-122.947339,46.104054],[-122.947348,46.104205],[-122.947394,46.104231],[-122.947468,46.104234]]]}},{"type":"Feature","properties":{"id":5,"area_m2":500,"px":5,"rank":5,"persistent":false},"geometry":{"type":"Polygon","coordinates":[[[-122.954713,46.105857],[-122.954713,46.105947],[-122.954454,46.105947],[-122.954431,46.105872],[-122.954325,46.105856],[-122.95429,46.105776],[-122.954195,46.105766],[-122.954195,46.105677],[-122.954325,46.105677],[-122.954331,46.105733],[-122.95438,46.105764],[-122.954583,46.105767],[-122.954606,46.105841],[-122.954713,46.105857]]]}},{"type":"Feature","properties":{"id":6,"area_m2":400,"px":4,"rank":6,"persistent":false},"geometry":{"type":"Polygon","coordinates":[[[-122.954325,46.105497],[-122.954325,46.105586],[-122.953937,46.105586],[-122.953937,46.105496],[-122.954043,46.105481],[-122.954066,46.105406],[-122.954196,46.105407],[-122.954218,46.105481],[-122.954325,46.105497]]]}},{"type":"Feature","properties":{"id":7,"area_m2":400,"px":4,"rank":7,"persistent":false},"geometry":{"type":"Polygon","coordinates":[[[-122.946692,46.104683],[-122.946691,46.104773],[-122.946303,46.104773],[-122.946304,46.104683],[-122.94641,46.104667],[-122.946433,46.104593],[-122.946562,46.104593],[-122.946585,46.104667],[-122.946692,46.104683]]]}},{"type":"Feature","properties":{"id":8,"area_m2":400,"px":4,"rank":8,"persistent":false},"geometry":{"type":"Polygon","coordinates":[[[-122.948633,46.104414],[-122.948633,46.104504],[-122.948505,46.104504],[-122.9485,46.104452],[-122.948462,46.10442],[-122.948245,46.104414],[-122.948245,46.104234],[-122.948374,46.104234],[-122.948397,46.104308],[-122.948503,46.104324],[-122.948538,46.104405],[-122.948633,46.104414]]]}},{"type":"Feature","properties":{"id":3,"area_m2":300,"px":3,"rank":9,"persistent":false},"geometry":{"type":"Polygon","coordinates":[[[-122.941901,46.107291],[-122.941901,46.107471],[-122.941643,46.107471],[-122.941643,46.107381],[-122.941749,46.107365],[-122.941772,46.107291],[-122.941901,46.107291]]]}},{"type":"Feature","properties":{"id":9,"area_m2":300,"px":3,"rank":10,"persistent":false},"geometry":{"type":"Polygon","coordinates":[[[-122.948892,46.104234],[-122.948891,46.104324],[-122.948762,46.104324],[-122.948759,46.104272],[-122.948721,46.10424],[-122.948504,46.104234],[-122.948504,46.104144],[-122.948762,46.104144],[-122.948785,46.104218],[-122.948892,46.104234]]]}},{"type":"Feature","properties":{"id":11,"area_m2":300,"px":3,"rank":11,"persistent":false},"geometry":{"type":"Polygon","coordinates":[[[-122.948115,46.104144],[-122.948115,46.104234],[-122.947727,46.104234],[-122.947727,46.104144],[-122.948115,46.104144]]]}}]}