{"type":"FeatureCollection","features":[{"type":"Feature","properties":{"id":9,"area_m2":22100,"px":221,"rank":1,"persistent":true},"geometry":{"type":"Polygon","coordinates":[[[-122.954969,46.108377],[-122.954969,46.108647],[-122.954863,46.108663],[-122.95484,46.108737],[-122.954629,46.108741],[-122.954587,46.10877],[-122.954581,46.108827],[-122.95437,46.108831],[-122.954328,46.10886],[-122.954322,46.108917],[-122.954111,46.108921],[-122.954069,46.10895],[-122.954063,46.109006],[-122.95386,46.109009],[-122.95381,46.10904],[-122.953804,46.109096],[-122.953675,46.109096],[-122.953652,46.109022],[-122.953546,46.109006],[-122.953511,46.108925],[-122.953416,46.108916],[-122.953407,46.108765],[-122.953361,46.108739],[-122.953287,46.108736],[-122.953278,46.108585],[-122.953232,46.108558],[-122.953158,46.108556],[-122.953149,46.108405],[-122.953103,46.108378],[-122.953029,46.108376],[-122.953023,46.108229],[-122.952981,46.1082],[-122.952899,46.108196],[-122.952896,46.108054],[-122.952852,46.10802],[-122.95277,46.108016],[-122.952757,46.10786],[-122.952641,46.107836],[-122.952641,46.107656],[-122.952748,46.10764],[-122.952771,46.107566],[-122.952995,46.107557],[-122.953029,46.107476],[-122.953376,46.10747],[-122.953414,46.107438],[-122.953418,46.107386],[-122.953534,46.107362],[-122.953547,46.107296],[-122.953765,46.10729],[-122.953803,46.107258],[-122.953806,46.107206],[-122.954065,46.107206],[-122.954087,46.107281],[-122.954194,46.107297],[-122.954207,46.107452],[-122.954323,46.107477],[-122.954336,46.107633],[-122.954452,46.107657],[-122.954462,46.107808],[-122.954507,46.107834],[-122.954582,46.107837],[-122.954591,46.107988],[-122.954637,46.108014],[-122.954711,46.108017],[-122.95472,46.108168],[-122.954766,46.108194],[-122.95484,46.108197],[-122.954849,46.108348],[-122.954895,46.108374],[-122.954969,46.108377]]]}},{"type":"Feature","properties":{"id":10,"area_m2":20200,"px":202,"rank":2,"persistent":true},"geometry":{"type":"Polygon","coordinates":[[[-122.944489,46.107112],[-122.944489,46.107202],[-122.944408,46.107206],[-122.944363,46.10724],[-122.94436,46.107382],[-122.944278,46.107386],[-122.944236,46.107415],[-122.94423,46.107562],[-122.944149,46.107566],[-122.944107,46.107595],[-122.944101,46.107742],[-122.943994,46.107758],[-122.943971,46.107832],[-122.943524,46.107832],[-122.943471,46.107851],[-122.943453,46.108012],[-122.943359,46.108021],[-122.943324,46.108102],[-122.943208,46.108126],[-122.943194,46.108282],[-122.943113,46.108286],[-122.943068,46.10832],[-122.943065,46.108461],[-122.942983,46.108466],[-122.942941,46.108495],[-122.942935,46.108641],[-122.942861,46.108644],[-122.942815,46.10867],[-122.942806,46.108821],[-122.942699,46.108837],[-122.942676,46.108911],[-122.94256,46.108935],[-122.942547,46.109001],[-122.942417,46.109001],[-122.942404,46.108935],[-122.942288,46.108911],[-122.942285,46.108859],[-122.942247,46.108827],[-122.942029,46.108821],[-122.94203,46.108551],[-122.942104,46.108549],[-122.94215,46.108523],[-122.942159,46.108371],[-122.942271,46.108351],[-122.942289,46.108191],[-122.94237,46.108187],[-122.942412,46.108158],[-122.942418,46.108011],[-122.942513,46.108002],[-122.942548,46.107921],[-122.942622,46.107919],[-122.942668,46.107893],[-122.942678,46.107651],[-122.942772,46.107642],[-122.942807,46.107561],[-122.942888,46.107557],[-122.942933,46.107523],[-122.942935,46.107245],[-122.942896,46.107208],[-122.942807,46.107201],[-122.942808,46.107021],[-122.943066,46.107022],[-122.943135,46.107046],[-122.943291,46.107012],[-122.943325,46.106973],[-122.943325,46.106842],[-122.943407,46.106838],[-122.943451,46.106803],[-122.943455,46.106662],[-122.943562,46.106646],[-122.943584,46.106572],[-122.943701,46.106548],[-122.943714,46.106482],[-122.943973,46.106482],[-122.943972,46.106572],[-122.943938,46.10662],[-122.943982,46.106723],[-122.944035,46.106751],[-122.944231,46.106752],[-122.944254,46.106826],[-122.94436,46.106842],[-122.944364,46.107074],[-122.944408,46.107108],[-122.944489,46.107112]]]}},{"type":"Feature","properties":{"id":19,"area_m2":14000,"px":140,"rank":3,"persistent":true},"geometry":{"type":"Polygon","coordinates":[[[-122.946693,46.102703],[-122.946693,46.102793],[-122.946612,46.102797],[-122.946567,46.102831],[-122.946564,46.102973],[-122.946482,46.102977],[-122.94644,46.103006],[-122.946434,46.103153],[-122.946353,46.103157],[-122.946311,46.103186],[-122.946305,46.103333],[-122.945917,46.103333],[-122.945913,46.103281],[-122.945876,46.103249],[-122.945658,46.103243],[-122.945623,46.103162],[-122.945399,46.103152],[-122.945393,46.103096],[-122.945344,46.103065],[-122.945141,46.103062],[-122.945135,46.103006],[-122.945093,46.102977],[-122.944882,46.102972],[-122.944869,46.102906],[-122.944753,46.102882],[-122.944718,46.102801],[-122.944494,46.102792],[-122.944471,46.102718],[-122.944365,46.102702],[-122.944365,46.102612],[-122.944439,46.10261],[-122.944485,46.102584],[-122.944494,46.102432],[-122.944606,46.102412],[-122.944624,46.102252],[-122.944705,46.102248],[-122.944747,46.102219],[-122.944753,46.102072],[-122.945141,46.102072],[-122.945145,46.102124],[-122.945182,46.102156],[-122.9454,46.102163],[-122.945429,46.10224],[-122.945659,46.102253],[-122.945665,46.102309],[-122.945707,46.102339],[-122.945917,46.102343],[-122.945931,46.102409],[-122.946047,46.102433],[-122.94605,46.102485],[-122.946088,46.102516],[-122.946435,46.102523],[-122.946458,46.102597],[-122.946564,46.102613],[-122.946599,46.102694],[-122.946693,46.102703]]]}},{"type":"Feature","properties":{"id":2,"area_m2":8200,"px":82,"rank":4,"persistent":true},"geometry":{"type":"Polygon","coordinates":[[[-122.941509,46.111431],[-122.941508,46.111791],[-122.94132,46.111791],[-122.941263,46.111815],[-122.941249,46.112151],[-122.941143,46.112166],[-122.94112,46.112241],[-122.941003,46.112265],[-122.94099,46.11233],[-122.940861,46.11233],[-122.940855,46.112274],[-122.940806,46.112243],[-122.940602,46.11224],[-122.940596,46.112184],[-122.940554,46.112154],[-122.940344,46.11215],[-122.940321,46.112076],[-122.940214,46.11206],[-122.940215,46.1117],[-122.940533,46.1117],[-122.94059,46.111676],[-122.940603,46.11134],[-122.94072,46.111316],[-122.940733,46.11116],[-122.940839,46.111145],[-122.940862,46.111071],[-122.941121,46.111071],[-122.941182,46.111095],[-122.941251,46.111071],[-122.94138,46.111071],[-122.941381,46.111387],[-122.941421,46.111424],[-122.941509,46.111431]]]}},{"type":"Feature","properties":{"id":16,"area_m2":5400,"px":54,"rank":5,"persistent":true},"geometry":{"type":"Polygon","coordinates":[[[-122.955877,46.106577],[-122.955877,46.106757],[-122.95577,46.106773],[-122.955747,46.106847],[-122.955631,46.106871],[-122.955618,46.106937],[-122.95523,46.106937],[-122.955216,46.106871],[-122.9551,46.106847],[-122.955066,46.106766],[-122.954842,46.106757],[-122.954828,46.106691],[-122.954712,46.106667],[-122.954706,46.10661],[-122.954664,46.106581],[-122.954454,46.106577],[-122.954431,46.106502],[-122.954324,46.106486],[-122.954324,46.106397],[-122.95444,46.106373],[-122.954454,46.106217],[-122.95456,46.106201],[-122.954583,46.106127],[-122.954842,46.106127],[-122.954855,46.106193],[-122.954971,46.106217],[-122.954975,46.106268],[-122.955012,46.1063],[-122.955359,46.106307],[-122.955365,46.106454],[-122.955407,46.106483],[-122.955489,46.106487],[-122.955523,46.106568],[-122.955877,46.106577]]]}},{"type":"Feature","properties":{"id":5,"area_m2":4600,"px":46,"rank":6,"persistent":true},"geometry":{"type":"Polygon","coordinates":[[[-122.951861,46.111436],[-122.951861,46.111616],[-122.951787,46.111618],[-122.951741,46.111644],[-122.951732,46.111795],[-122.951343,46.111795],[-122.95134,46.111744],[-122.951302,46.111712],[-122.951085,46.111705],[-122.951056,46.111628],[-122.950826,46.111615],[-122.95082,46.111559],[-122.950778,46.111529],[-122.950567,46.111525],[-122.950545,46.111451],[-122.950438,46.111435],[-122.950438,46.111255],[-122.950545,46.111239],[-122.950568,46.111165],[-122.950684,46.111141],[-122.950697,46.111075],[-122.950826,46.111075],[-122.950839,46.111141],[-122.950956,46.111165],[-122.950959,46.111217],[-122.950997,46.111249],[-122.951214,46.111255],[-122.951224,46.111317],[-122.951277,46.111344],[-122.951732,46.111346],[-122.951755,46.11142],[-122.951861,46.111436]]]}},{"type":"Feature","properties":{"id":7,"area_m2":3200,"px":32,"rank":7,"persistent":true},"geometry":{"type":"Polygon","coordinates":[[[-122.94151,46.110621],[-122.941509,46.110801],[-122.941326,46.110787],[-122.941273,46.110803],[-122.94125,46.110981],[-122.941121,46.110981],[-122.94106,46.110956],[-122.940992,46.11098],[-122.940793,46.110968],[-122.940739,46.111],[-122.940731,46.11107],[-122.940604,46.11107],[-122.940581,46.110996],[-122.940474,46.11098],[-122.940474,46.1108],[-122.940569,46.110791],[-122.940604,46.11071],[-122.940685,46.110706],[-122.94073,46.110672],[-122.940734,46.11035],[-122.940992,46.110351],[-122.94101,46.110421],[-122.941122,46.110441],[-122.941156,46.110521],[-122.941251,46.110531],[-122.941279,46.110608],[-122.94151,46.110621]]]}},{"type":"Feature","properties":{"id":8,"area_m2":2200,"px":22,"rank":8,"persistent":false},"geometry":{"type":"Polygon","coordinates":[[[-122.954969,46.109277],[-122.954969,46.109457],[-122.954894,46.109459],[-122.954848,46.109485],[-122.954839,46.109637],[-122.954322,46.109637],[-122.954299,46.109562],[-122.954192,46.109546],[-122.954192,46.109457],[-122.954281,46.10945],[-122.95432,46.109413],[-122.954322,46.109187],[-122.95471,46.109187],[-122.954713,46.109238],[-122.954751,46.10927],[-122.954969,46.109277]]]}},{"type":"Feature","properties":{"id":13,"area_m2":1600,"px":16,"rank":9,"persistent":false},"geometry":{"type":"Polygon","coordinates":[[[-122.957041,46.107208],[-122.957041,46.107388],[-122.956946,46.107397],[-122.956911,46.107477],[-122.956795,46.107502],[-122.956782,46.107657],[-122.956652,46.107657],[-122.956639,46.107591],[-122.956523,46.107567],[-122.95652,46.107516],[-122.956482,46.107484],[-122.956264,46.107477],[-122.956265,46.107117],[-122.956394,46.107117],[-122.956411,46.107188],[-122.956523,46.107207],[-122.956541,46.107278],[-122.956652,46.107298],[-122.956662,46.107359],[-122.956715,46.107386],[-122.956883,46.107375],[-122.956911,46.107339],[-122.956911,46.107208],[-122.957041,46.107208]]]}},{"type":"Feature","properties":{"id":11,"area_m2":1500,"px":15,"rank":10,"persistent":false},"geometry":{"type":"Polygon","coordinates":[[[-122.952252,46.108016],[-122.952252,46.108196],[-122.951864,46.108195],[-122.951861,46.108144],[-122.951823,46.108112],[-122.951606,46.108105],[-122.951606,46.107835],[-122.951712,46.10782],[-122.951735,46.107746],[-122.951864,46.107746],[-122.951887,46.10782],[-122.951994,46.107836],[-122.952016,46.108],[-122.952252,46.108016]]]}},{"type":"Feature","properties":{"id":4,"area_m2":900,"px":9,"rank":11,"persistent":false},"geometry":{"type":"Polygon","coordinates":[[[-122.953544,46.111346],[-122.953543,46.111706],[-122.953437,46.111722],[-122.953414,46.111796],[-122.953285,46.111796],[-122.953262,46.111722],[-122.953155,46.111705],[-122.953155,46.111616],[-122.953257,46.111612],[-122.953302,46.111576],[-122.953285,46.111346],[-122.953544,46.111346]]]}},{"type":"Feature","properties":{"id":1,"area_m2":700,"px":7,"rank":12,"persistent":false},"geometry":{"type":"Polygon","coordinates":[[[-122.953801,46.112426],[-122.953801,46.112606],[-122.953695,46.112622],[-122.953672,46.112696],[-122.953543,46.112696],[-122.953539,46.112555],[-122.953495,46.11252],[-122.953413,46.112516],[-122.953413,46.112426],[-122.95352,46.11241],[-122.953545,46.112336],[-122.953672,46.112336],[-122.953695,46.112411],[-122.953801,46.112426]]]}},{"type":"Feature","properties":{"id":14,"area_m2":700,"px":7,"rank":13,"persistent":false},"geometry":{"type":"Polygon","coordinates":[[[-122.955617,46.107477],[-122.955617,46.107657],[-122.955358,46.107657],[-122.955336,46.107583],[-122.955229,46.107567],[-122.955229,46.107387],[-122.955488,46.107387],[-122.955511,46.107461],[-122.955617,46.107477]]]}},{"type":"Feature","properties":{"id":6,"area_m2":600,"px":6,"rank":14,"persistent":false},"geometry":{"type":"Polygon","coordinates":[[[-122.952379,46.111526],[-122.952379,46.111616],[-122.952272,46.111632],[-122.952249,46.111706],[-122.951991,46.111706],[-122.951991,46.111526],[-122.952097,46.11151],[-122.95212,46.111436],[-122.952249,46.111436],[-122.952272,46.11151],[-122.952379,46.111526]]]}},{"type":"Feature","properties":{"id":12,"area_m2":600,"px":6,"rank":15,"persistent":false},"geometry":{"type":"Polygon","coordinates":[[[-122.945006,46.107743],[-122.945006,46.107922],[-122.944748,46.107922],[-122.944748,46.107562],[-122.944877,46.107562],[-122.944886,46.107714],[-122.944932,46.10774],[-122.945006,46.107743]]]}},{"type":"Feature","properties":{"id":18,"area_m2":600,"px":6,"rank":16,"persistent":false},"geometry":{"type":"Polygon","coordinates":[[[-122.942423,46.103241],[-122.942423,46.103421],[-122.942349,46.103423],[-122.942303,46.10345],[-122.942293,46.103601],[-122.942035,46.103601],[-122.942035,46.103511],[-122.942116,46.103507],[-122.942161,46.103473],[-122.942164,46.103331],[-122.942271,46.103315],[-122.942294,46.103241],[-122.942423,46.103241]]]}},{"type":"Feature","properties":{"id":3,"area_m2":500,"px":5,"rank":17,"persistent":false},"geometry":{"type":"Polygon","coordinates":[[[-122.952249,46.111796],[-122.952249,46.111886],[-122.952142,46.111902],[-122.95212,46.111976],[-122.951861,46.111976],[-122.951861,46.111796],[-122.952249,46.111796]]]}},{"type":"Feature","properties":{"id":17,"area_m2":400,"px":4,"rank":18,"persistent":false},"geometry":{"type":"Polygon","coordinates":[[[-122.95536,46.106037],[-122.955359,46.106217],[-122.95523,46.106217],[-122.955207,46.106143],[-122.955101,46.106127],[-122.955101,46.105947],[-122.95523,46.105947],[-122.955253,46.106021],[-122.95536,46.106037]]]}},{"type":"Feature","properties":{"id":20,"area_m2":400,"px":4,"rank":19,"persistent":false},"geometry":{"type":"Polygon","coordinates":[[[-122.941388,46.102881],[-122.941388,46.10306],[-122.941282,46.103076],[-122.941259,46.10315],[-122.94113,46.10315],[-122.94113,46.10297],[-122.941236,46.102955],[-122.941259,46.102881],[-122.941388,46.102881]]]}},{"type":"Feature","properties":{"id":15,"area_m2":300,"px":3,"rank":20,"persistent":false},"geometry":{"type":"Polygon","coordinates":[[[-122.954712,46.107027],[-122.954712,46.107207],[-122.954453,46.107207],[-122.954453,46.107117],[-122.95456,46.107101],[-122.954583,46.107027],[-122.954712,46.107027]]]}}]}