{"type":"FeatureCollection","features":[{"type":"Feature","properties":{"id":1,"area_m2":36900,"px":369,"rank":1,"persistent":false},"geometry":{"type":"Polygon","coordinates":[[[-122.944485,46.111072],[-122.944485,46.111252],[-122.944356,46.111252],[-122.944343,46.111186],[-122.944227,46.111162],[-122.944221,46.111105],[-122.944172,46.111074],[-122.943839,46.111072],[-122.943829,46.11101],[-122.943769,46.110982],[-122.943396,46.110968],[-122.943327,46.111002],[-122.943339,46.111142],[-122.943391,46.111161],[-122.94358,46.111162],[-122.943568,46.111312],[-122.943614,46.111339],[-122.943709,46.111342],[-122.943722,46.111588],[-122.943838,46.111612],[-122.943851,46.111678],[-122.943967,46.111702],[-122.943971,46.111754],[-122.944008,46.111786],[-122.944226,46.111792],[-122.944226,46.111881],[-122.944144,46.111886],[-122.944102,46.111915],[-122.944096,46.112152],[-122.944022,46.112154],[-122.943976,46.112181],[-122.943967,46.112332],[-122.943866,46.112344],[-122.943837,46.112422],[-122.943742,46.112431],[-122.943708,46.112512],[-122.943633,46.112514],[-122.943587,46.11254],[-122.943578,46.112872],[-122.943483,46.112881],[-122.943448,46.112962],[-122.943332,46.112986],[-122.943319,46.113142],[-122.94319,46.113142],[-122.94318,46.11299],[-122.943134,46.112964],[-122.94306,46.112962],[-122.943043,46.112711],[-122.94287,46.112667],[-122.942802,46.112691],[-122.942543,46.112691],[-122.942563,46.112562],[-122.942516,46.112516],[-122.942359,46.112497],[-122.942297,46.112522],[-122.942293,46.112663],[-122.942429,46.112699],[-122.942413,46.112781],[-122.942284,46.112781],[-122.942256,46.112703],[-122.942025,46.112691],[-122.942019,46.112634],[-122.941977,46.112605],[-122.941637,46.112601],[-122.941609,46.112523],[-122.941378,46.112511],[-122.941373,46.112454],[-122.941331,46.112425],[-122.940861,46.11242],[-122.940838,46.112346],[-122.940732,46.11233],[-122.940732,46.11224],[-122.940861,46.112241],[-122.940895,46.112321],[-122.941042,46.112331],[-122.941107,46.112307],[-122.94112,46.112241],[-122.941227,46.112225],[-122.94125,46.112061],[-122.941331,46.112057],[-122.941376,46.112022],[-122.941379,46.111881],[-122.941461,46.111877],[-122.941503,46.111847],[-122.941509,46.111701],[-122.94159,46.111697],[-122.941635,46.111663],[-122.941625,46.111545],[-122.941509,46.111521],[-122.941509,46.111251],[-122.941543,46.111198],[-122.941492,46.111091],[-122.94138,46.111071],[-122.94138,46.110892],[-122.941462,46.110887],[-122.941506,46.110852],[-122.94151,46.110711],[-122.941544,46.110668],[-122.94151,46.110621],[-122.94151,46.110531],[-122.941584,46.110528],[-122.94163,46.110502],[-122.94164,46.110351],[-122.941769,46.110351],[-122.941775,46.110408],[-122.941824,46.110439],[-122.942027,46.110441],[-122.942033,46.110498],[-122.942075,46.110527],[-122.942286,46.110531],[-122.942292,46.110588],[-122.942334,46.110617],[-122.942545,46.110621],[-122.942545,46.110711],[-122.942035,46.110724],[-122.942008,46.110772],[-122.942033,46.110858],[-122.942075,46.110887],[-122.942626,46.110887],[-122.942674,46.110843],[-122.942659,46.110719],[-122.942781,46.110696],[-122.942804,46.110621],[-122.943146,46.110631],[-122.943189,46.110597],[-122.943192,46.110532],[-122.943308,46.110508],[-122.943322,46.110442],[-122.943451,46.110442],[-122.943454,46.110493],[-122.943492,46.110525],[-122.94371,46.110532],[-122.943716,46.110589],[-122.943765,46.11062],[-122.943968,46.110622],[-122.943949,46.110752],[-122.943989,46.110795],[-122.944356,46.110802],[-122.94436,46.111034],[-122.944404,46.111068],[-122.944485,46.111072]],[[-122.941913,46.112381],[-122.941862,46.11225],[-122.941693,46.112243],[-122.941643,46.112274],[-122.941605,46.112389],[-122.941691,46.112444],[-122.941861,46.112419],[-122.941913,46.112381]],[[-122.942075,46.111247],[-122.942355,46.111264],[-122.942409,46.111231],[-122.942392,46.111087],[-122.942156,46.111071],[-122.94215,46.111014],[-122.942101,46.110983],[-122.94192,46.110997],[-122.941898,46.111035],[-122.94192,46.111145],[-122.942027,46.111161],[-122.942033,46.111218],[-122.942075,46.111247]],[[-122.943082,46.111201],[-122.943053,46.11092],[-122.942887,46.110869],[-122.942828,46.110875],[-122.942769,46.110934],[-122.942803,46.110981],[-122.942803,46.111161],[-122.942715,46.111168],[-122.942675,46.111205],[-122.942696,46.111416],[-122.942751,46.111431],[-122.94291,46.111416],[-122.942933,46.111252],[-122.94306,46.111235],[-122.943082,46.111201]],[[-122.94321,46.111837],[-122.943185,46.111735],[-122.943136,46.111704],[-122.942974,46.111703],[-122.942915,46.111741],[-122.942938,46.111848],[-122.942987,46.111879],[-122.943177,46.111872],[-122.94321,46.111837]],[[-122.943451,46.111341],[-122.943469,46.111297],[-122.943436,46.111261],[-122.943363,46.111253],[-122.943313,46.111277],[-122.943303,46.111318],[-122.943339,46.111355],[-122.943397,46.111365],[-122.943451,46.111341]]]}},{"type":"Feature","properties":{"id":33,"area_m2":31900,"px":319,"rank":2,"persistent":false},"geometry":{"type":"Polygon","coordinates":[[[-122.947466,46.107024],[-122.947466,46.107114],[-122.947377,46.10712],[-122.947338,46.107157],[-122.947336,46.107383],[-122.947207,46.107383],[-122.947203,46.107332],[-122.947166,46.1073],[-122.946948,46.107293],[-122.946913,46.107212],[-122.946689,46.107203],[-122.946683,46.107147],[-122.946634,46.107116],[-122.946431,46.107113],[-122.946425,46.107056],[-122.946383,46.107027],[-122.946172,46.107023],[-122.946159,46.106957],[-122.946043,46.106933],[-122.946039,46.106881],[-122.946002,46.106849],[-122.945784,46.106843],[-122.945755,46.106765],[-122.945525,46.106753],[-122.945519,46.106696],[-122.94547,46.106665],[-122.945277,46.106674],[-122.945232,46.106582],[-122.945008,46.106572],[-122.945002,46.106516],[-122.944953,46.106485],[-122.94476,46.106493],[-122.944743,46.106426],[-122.944701,46.106396],[-122.944504,46.106402],[-122.944471,46.106443],[-122.944499,46.106544],[-122.94456,46.106572],[-122.944738,46.106561],[-122.94475,46.106709],[-122.944783,46.106743],[-122.945255,46.106742],[-122.945266,46.106842],[-122.945172,46.106845],[-122.945122,46.106877],[-122.94514,46.106984],[-122.945185,46.107018],[-122.945266,46.107023],[-122.9453,46.107103],[-122.945395,46.107113],[-122.945418,46.107187],[-122.945721,46.107202],[-122.945774,46.107174],[-122.945784,46.107113],[-122.945913,46.107113],[-122.945901,46.107263],[-122.945947,46.10729],[-122.946042,46.107293],[-122.946077,46.107374],[-122.946171,46.107383],[-122.946171,46.107473],[-122.945654,46.107473],[-122.945636,46.107312],[-122.945584,46.107293],[-122.945406,46.107304],[-122.945382,46.107227],[-122.945266,46.107202],[-122.945231,46.107122],[-122.944782,46.107108],[-122.94475,46.107142],[-122.944748,46.107238],[-122.944783,46.107283],[-122.945007,46.107293],[-122.945016,46.107354],[-122.945069,46.107381],[-122.945384,46.107372],[-122.945395,46.107604],[-122.945423,46.10764],[-122.945783,46.107653],[-122.945783,46.107743],[-122.945688,46.107752],[-122.945653,46.107833],[-122.945572,46.107837],[-122.94553,46.107866],[-122.945524,46.108103],[-122.945423,46.108115],[-122.945394,46.108193],[-122.945299,46.108202],[-122.945265,46.108283],[-122.94519,46.108285],[-122.945145,46.108311],[-122.945135,46.108552],[-122.944876,46.108552],[-122.944877,46.108282],[-122.944958,46.108278],[-122.945,46.108249],[-122.945026,46.108153],[-122.944986,46.108109],[-122.944788,46.108109],[-122.944751,46.108141],[-122.944747,46.108192],[-122.944528,46.108185],[-122.94449,46.108222],[-122.944488,46.108372],[-122.944361,46.108372],[-122.944359,46.108241],[-122.944325,46.108201],[-122.943971,46.108192],[-122.943936,46.108111],[-122.943751,46.108081],[-122.943677,46.108144],[-122.943712,46.108192],[-122.943712,46.108372],[-122.943583,46.108372],[-122.943573,46.10831],[-122.94352,46.108283],[-122.943386,46.108283],[-122.94333,46.108315],[-122.943323,46.108552],[-122.943212,46.108571],[-122.943194,46.108732],[-122.943106,46.108738],[-122.943066,46.108775],[-122.943064,46.109091],[-122.942935,46.109091],[-122.942874,46.109067],[-122.942805,46.109091],[-122.942676,46.109091],[-122.942676,46.108911],[-122.94275,46.108909],[-122.942796,46.108883],[-122.942806,46.108731],[-122.942918,46.108712],[-122.942935,46.108552],[-122.943017,46.108547],[-122.943059,46.108518],[-122.943065,46.108372],[-122.94316,46.108362],[-122.943195,46.108282],[-122.943269,46.108279],[-122.943315,46.108253],[-122.943324,46.108102],[-122.943405,46.108098],[-122.94345,46.108063],[-122.943454,46.107922],[-122.94356,46.107906],[-122.943583,46.107832],[-122.943842,46.107832],[-122.94391,46.107856],[-122.944078,46.107816],[-122.944101,46.107652],[-122.944182,46.107648],[-122.944227,46.107614],[-122.94423,46.107472],[-122.944312,46.107468],[-122.944354,46.107439],[-122.94436,46.107292],[-122.944448,46.107286],[-122.944488,46.107249],[-122.944476,46.107136],[-122.94436,46.107112],[-122.94436,46.106932],[-122.944395,46.106884],[-122.944351,46.106781],[-122.944298,46.106753],[-122.944102,46.106752],[-122.944079,46.106678],[-122.943973,46.106662],[-122.943971,46.106512],[-122.943912,46.106469],[-122.943755,46.106488],[-122.943717,46.10652],[-122.943714,46.106572],[-122.943602,46.106591],[-122.943584,46.106752],[-122.943503,46.106756],[-122.943458,46.10679],[-122.943454,46.106932],[-122.943348,46.106947],[-122.943325,46.107022],[-122.943209,46.107046],[-122.943196,46.107111],[-122.943066,46.107111],[-122.943044,46.107037],[-122.942937,46.107021],[-122.942937,46.106931],[-122.943044,46.106916],[-122.943067,46.106842],[-122.943263,46.106841],[-122.943319,46.106808],[-122.943326,46.106572],[-122.94342,46.106563],[-122.943455,46.106518],[-122.943442,46.106416],[-122.943326,46.106392],[-122.943326,46.106302],[-122.943585,46.106302],[-122.943619,46.106383],[-122.943766,46.106392],[-122.94383,46.106368],[-122.943843,46.106302],[-122.944209,46.106286],[-122.944232,46.106032],[-122.944327,46.106023],[-122.944361,46.105942],[-122.944478,46.105918],[-122.944491,46.105762],[-122.944572,46.105758],[-122.944617,46.105724],[-122.944621,46.105582],[-122.944715,46.105573],[-122.94475,46.105492],[-122.944862,46.105473],[-122.94488,46.105312],[-122.944986,46.105297],[-122.945009,46.105222],[-122.945125,46.105198],[-122.945139,46.105133],[-122.945268,46.105133],[-122.945268,46.105222],[-122.945233,46.105265],[-122.945268,46.105313],[-122.945267,46.105582],[-122.945138,46.105582],[-122.945062,46.105559],[-122.94492,46.105589],[-122.94488,46.105631],[-122.94486,46.105897],[-122.944906,46.105938],[-122.945008,46.105942],[-122.945026,46.106103],[-122.945078,46.106122],[-122.945267,46.106123],[-122.94525,46.106263],[-122.945324,46.106303],[-122.945476,46.106302],[-122.945529,46.106282],[-122.945526,46.106123],[-122.945784,46.106123],[-122.945788,46.106444],[-122.945832,46.106479],[-122.945913,46.106483],[-122.945942,46.106561],[-122.946302,46.106573],[-122.946363,46.106597],[-122.946431,46.106573],[-122.94656,46.106573],[-122.946553,46.106728],[-122.946595,46.106751],[-122.94669,46.106753],[-122.946703,46.106819],[-122.946819,46.106843],[-122.946853,46.106924],[-122.947207,46.106934],[-122.94721,46.106985],[-122.947248,46.107017],[-122.947466,46.107024]],[[-122.945136,46.107743],[-122.945217,46.107738],[-122.945262,46.107704],[-122.945256,46.107501],[-122.945196,46.107473],[-122.944925,46.107477],[-122.944883,46.107506],[-122.944877,46.107562],[-122.944803,46.107565],[-122.944757,46.107591],[-122.944748,46.107742],[-122.944673,46.107745],[-122.944627,46.107771],[-122.944624,46.107889],[-122.944666,46.107918],[-122.944801,46.107946],[-122.944958,46.107918],[-122.945,46.107889],[-122.945007,46.107833],[-122.945123,46.107809],[-122.945136,46.107743]]]}},{"type":"Feature","properties":{"id":6,"area_m2":11500,"px":115,"rank":3,"persistent":false},"geometry":{"type":"Polygon","coordinates":[[[-122.953544,46.110806],[-122.953544,46.110896],[-122.953415,46.110896],[-122.953406,46.110835],[-122.953352,46.110807],[-122.953218,46.110807],[-122.953162,46.110839],[-122.953165,46.110958],[-122.953211,46.110984],[-122.953285,46.110986],[-122.953285,46.111076],[-122.95325,46.111124],[-122.953285,46.111166],[-122.953285,46.111255],[-122.953203,46.11126],[-122.953159,46.111294],[-122.953155,46.111526],[-122.953026,46.111526],[-122.953025,46.11139],[-122.952964,46.111347],[-122.952815,46.11135],[-122.952773,46.111379],[-122.952767,46.111436],[-122.952638,46.111436],[-122.952632,46.111289],[-122.95259,46.11126],[-122.952509,46.111256],[-122.952487,46.111168],[-122.952426,46.111152],[-122.952272,46.111182],[-122.95225,46.111346],[-122.952168,46.11135],[-122.952124,46.111384],[-122.95212,46.111526],[-122.952039,46.11153],[-122.951997,46.111559],[-122.95199,46.111706],[-122.951909,46.11171],[-122.951867,46.111739],[-122.951861,46.111976],[-122.951473,46.111975],[-122.95145,46.111901],[-122.951343,46.111885],[-122.951328,46.111803],[-122.951473,46.111796],[-122.951541,46.11182],[-122.951709,46.11178],[-122.951732,46.111706],[-122.951813,46.111701],[-122.951858,46.111667],[-122.951848,46.11146],[-122.951732,46.111435],[-122.951726,46.111379],[-122.951684,46.11135],[-122.951344,46.111345],[-122.95134,46.111294],[-122.951303,46.111262],[-122.951085,46.111255],[-122.951072,46.111189],[-122.950956,46.111165],[-122.95095,46.111109],[-122.950908,46.111079],[-122.950738,46.111082],[-122.9507,46.111113],[-122.950697,46.111165],[-122.950623,46.111167],[-122.950577,46.111194],[-122.950567,46.111345],[-122.950533,46.111387],[-122.950571,46.111487],[-122.95063,46.111524],[-122.950826,46.111525],[-122.950832,46.111582],[-122.950874,46.111611],[-122.951085,46.111615],[-122.951107,46.111689],[-122.951214,46.111705],[-122.951214,46.111795],[-122.950955,46.111795],[-122.950942,46.111729],[-122.950826,46.111705],[-122.950823,46.111653],[-122.950785,46.111622],[-122.950567,46.111615],[-122.950539,46.111537],[-122.950308,46.111525],[-122.950303,46.111468],[-122.950261,46.111439],[-122.95005,46.111435],[-122.95005,46.111345],[-122.950131,46.111341],[-122.950176,46.111307],[-122.950179,46.111165],[-122.950368,46.111165],[-122.950425,46.111141],[-122.950438,46.110985],[-122.950893,46.110984],[-122.950947,46.110957],[-122.950956,46.110895],[-122.951085,46.110895],[-122.951098,46.110961],[-122.951215,46.110985],[-122.951221,46.111042],[-122.95127,46.111073],[-122.951473,46.111076],[-122.951534,46.1111],[-122.951603,46.111076],[-122.951732,46.111076],[-122.951712,46.1112],[-122.951734,46.111239],[-122.951782,46.111255],[-122.95197,46.111249],[-122.952011,46.111205],[-122.951988,46.111114],[-122.951943,46.11108],[-122.951846,46.111068],[-122.951862,46.110986],[-122.95225,46.110986],[-122.952319,46.11101],[-122.95248,46.110974],[-122.952543,46.110853],[-122.952509,46.110806],[-122.952509,46.110626],[-122.952616,46.11061],[-122.952639,46.110536],[-122.952755,46.110512],[-122.952768,46.110446],[-122.953027,46.110446],[-122.953036,46.110508],[-122.953089,46.110535],[-122.953415,46.110536],[-122.953418,46.110768],[-122.953463,46.110802],[-122.953544,46.110806]]]}},{"type":"Feature","properties":{"id":7,"area_m2":8000,"px":80,"rank":4,"persistent":false},"geometry":{"type":"Polygon","coordinates":[[[-122.956262,46.110177],[-122.956262,46.110357],[-122.956188,46.11036],[-122.956142,46.110386],[-122.956132,46.110537],[-122.956031,46.11055],[-122.956003,46.110627],[-122.955908,46.110636],[-122.955873,46.110717],[-122.955757,46.110741],[-122.955744,46.110897],[-122.955662,46.110901],[-122.955618,46.110935],[-122.955614,46.111077],[-122.955519,46.111086],[-122.955485,46.111167],[-122.955373,46.111187],[-122.955355,46.111347],[-122.955274,46.111351],[-122.955232,46.11138],[-122.955226,46.111527],[-122.955001,46.111536],[-122.954967,46.111576],[-122.954967,46.111707],[-122.954837,46.111707],[-122.954838,46.111527],[-122.954939,46.111515],[-122.954967,46.111437],[-122.955062,46.111428],[-122.955097,46.111347],[-122.955208,46.111327],[-122.955223,46.111192],[-122.955158,46.111154],[-122.955015,46.111171],[-122.954973,46.1112],[-122.954967,46.111257],[-122.954851,46.111281],[-122.954838,46.111347],[-122.954708,46.111347],[-122.954708,46.111257],[-122.95479,46.111253],[-122.954834,46.111218],[-122.954822,46.111084],[-122.954926,46.11107],[-122.954967,46.111028],[-122.954979,46.110837],[-122.954933,46.110809],[-122.954791,46.110793],[-122.95471,46.110837],[-122.954724,46.111069],[-122.954602,46.111093],[-122.954579,46.111167],[-122.95432,46.111167],[-122.95432,46.110987],[-122.954551,46.110974],[-122.954578,46.110943],[-122.954578,46.11085],[-122.954517,46.110808],[-122.954321,46.110807],[-122.954315,46.11075],[-122.954273,46.110721],[-122.954062,46.110716],[-122.954062,46.110627],[-122.954097,46.110584],[-122.954062,46.110535],[-122.954062,46.110087],[-122.954192,46.110087],[-122.954193,46.110313],[-122.954233,46.11035],[-122.954321,46.110357],[-122.954321,46.110668],[-122.954391,46.110716],[-122.954562,46.110697],[-122.95458,46.110537],[-122.954686,46.110521],[-122.954709,46.110447],[-122.954893,46.110461],[-122.954946,46.110444],[-122.954968,46.110177],[-122.955194,46.110181],[-122.955227,46.110087],[-122.955334,46.110071],[-122.955356,46.109997],[-122.955615,46.109997],[-122.955615,46.110177],[-122.955396,46.11017],[-122.955359,46.110202],[-122.955356,46.110267],[-122.955261,46.110276],[-122.955227,46.110357],[-122.955115,46.110377],[-122.955099,46.110493],[-122.955152,46.110535],[-122.955457,46.110525],[-122.955485,46.110488],[-122.955486,46.110357],[-122.955615,46.110357],[-122.955638,46.110431],[-122.95579,46.11047],[-122.955955,46.110443],[-122.955997,46.110414],[-122.956003,46.110357],[-122.956085,46.110353],[-122.956127,46.110324],[-122.956133,46.110177],[-122.956262,46.110177]],[[-122.955554,46.110705],[-122.955404,46.110721],[-122.955362,46.11075],[-122.955371,46.110889],[-122.955274,46.110901],[-122.955232,46.11093],[-122.955228,46.111047],[-122.955272,46.111086],[-122.955462,46.111061],[-122.955485,46.111023],[-122.955469,46.110905],[-122.955567,46.110893],[-122.955609,46.110864],[-122.955606,46.110732],[-122.955554,46.110705]]]}},{"type":"Feature","properties":{"id":64,"area_m2":7800,"px":78,"rank":5,"persistent":false},"geometry":{"type":"Polygon","coordinates":[[[-122.946823,46.102613],[-122.946822,46.103153],[-122.946586,46.103169],[-122.946563,46.103333],[-122.946457,46.103349],[-122.946434,46.103423],[-122.946318,46.103447],[-122.946304,46.103513],[-122.945917,46.103513],[-122.945913,46.103461],[-122.945875,46.103429],[-122.945658,46.103423],[-122.945629,46.103345],[-122.945399,46.103332],[-122.945393,46.103276],[-122.945351,46.103247],[-122.94514,46.103242],[-122.945127,46.103176],[-122.945011,46.103152],[-122.945008,46.103101],[-122.94497,46.103069],[-122.944623,46.103062],[-122.94461,46.102996],[-122.944494,46.102972],[-122.944459,46.102891],[-122.944235,46.102882],[-122.944236,46.102252],[-122.944419,46.102266],[-122.944473,46.102249],[-122.944495,46.102072],[-122.944601,46.102056],[-122.944624,46.101982],[-122.945271,46.101983],[-122.945277,46.102039],[-122.945326,46.10207],[-122.945659,46.102073],[-122.945672,46.102139],[-122.945788,46.102163],[-122.945794,46.102219],[-122.945836,46.102249],[-122.946176,46.102253],[-122.94618,46.102305],[-122.946217,46.102337],[-122.946435,46.102343],[-122.946458,46.102417],[-122.946564,46.102433],[-122.946577,46.102499],[-122.946694,46.102523],[-122.946722,46.102601],[-122.946823,46.102613]],[[-122.946564,46.102883],[-122.946645,46.102879],[-122.94669,46.102845],[-122.946693,46.102662],[-122.946665,46.102625],[-122.946435,46.102613],[-122.946429,46.102556],[-122.94638,46.102525],[-122.946176,46.102523],[-122.94617,46.102466],[-122.946128,46.102437],[-122.945918,46.102433],[-122.945912,46.102376],[-122.94587,46.102347],[-122.945659,46.102343],[-122.945646,46.102277],[-122.94553,46.102253],[-122.945501,46.102175],[-122.945271,46.102162],[-122.945262,46.102101],[-122.945201,46.102073],[-122.944823,46.102073],[-122.944776,46.102088],[-122.944753,46.102252],[-122.944637,46.102276],[-122.944624,46.102432],[-122.944512,46.102452],[-122.944494,46.102612],[-122.944406,46.102618],[-122.944365,46.102661],[-122.944366,46.102749],[-122.944399,46.102783],[-122.944623,46.102792],[-122.944629,46.102849],[-122.944678,46.10288],[-122.944882,46.102882],[-122.944888,46.102939],[-122.94493,46.102968],[-122.945141,46.102972],[-122.945146,46.103029],[-122.945188,46.103058],[-122.945399,46.103063],[-122.945405,46.103119],[-122.945447,46.103148],[-122.945658,46.103153],[-122.945664,46.103209],[-122.945706,46.103239],[-122.945917,46.103243],[-122.945934,46.103313],[-122.946046,46.103333],[-122.946055,46.103394],[-122.946116,46.103423],[-122.946282,46.103407],[-122.946305,46.103243],[-122.9464,46.103234],[-122.946434,46.103153],[-122.946509,46.103151],[-122.946555,46.103125],[-122.946564,46.102883]]]}},{"type":"Feature","properties":{"id":23,"area_m2":6700,"px":67,"rank":6,"persistent":false},"geometry":{"type":"Polygon","coordinates":[[[-122.945781,46.109093],[-122.945781,46.109453],[-122.945675,46.109469],[-122.945652,46.109543],[-122.945522,46.109543],[-122.945513,46.109481],[-122.94546,46.109454],[-122.945319,46.109455],[-122.945265,46.109496],[-122.945273,46.109604],[-122.945319,46.10963],[-122.945393,46.109633],[-122.945427,46.109714],[-122.945522,46.109723],[-122.945522,46.109813],[-122.945415,46.109828],[-122.945392,46.109903],[-122.945134,46.109902],[-122.945134,46.109813],[-122.945215,46.109808],[-122.94526,46.109774],[-122.945241,46.109648],[-122.94506,46.109635],[-122.945011,46.109666],[-122.945004,46.109722],[-122.944875,46.109721],[-122.944875,46.109632],[-122.944957,46.109628],[-122.945001,46.109594],[-122.945005,46.109453],[-122.945099,46.10945],[-122.945149,46.109418],[-122.945117,46.109292],[-122.945064,46.109273],[-122.944672,46.109275],[-122.944618,46.109316],[-122.944617,46.109452],[-122.944229,46.109452],[-122.944206,46.109378],[-122.944099,46.109362],[-122.944065,46.109281],[-122.94397,46.109272],[-122.94397,46.109182],[-122.944005,46.10914],[-122.94397,46.109092],[-122.94397,46.108822],[-122.944077,46.108806],[-122.9441,46.108732],[-122.944313,46.108755],[-122.944465,46.108716],[-122.944488,46.108642],[-122.944617,46.108642],[-122.944619,46.108792],[-122.944657,46.108829],[-122.944828,46.108818],[-122.94487,46.108789],[-122.944876,46.108732],[-122.945005,46.108733],[-122.945006,46.108877],[-122.945039,46.108917],[-122.945264,46.108913],[-122.945267,46.108978],[-122.94531,46.109012],[-122.945523,46.109003],[-122.945526,46.109054],[-122.945564,46.109086],[-122.945781,46.109093]],[[-122.944358,46.108862],[-122.944298,46.10881],[-122.944134,46.108831],[-122.9441,46.108871],[-122.944113,46.108978],[-122.944268,46.109015],[-122.944325,46.109006],[-122.944357,46.108972],[-122.944358,46.108862]],[[-122.944447,46.109099],[-122.944289,46.10908],[-122.944234,46.109112],[-122.94423,46.109319],[-122.944284,46.10936],[-122.944425,46.109361],[-122.944486,46.109319],[-122.944486,46.109136],[-122.944447,46.109099]]]}},{"type":"Feature","properties":{"id":52,"area_m2":6700,"px":67,"rank":7,"persistent":false},"geometry":{"type":"Polygon","coordinates":[[[-122.95717,46.107388],[-122.95717,46.107658],[-122.957096,46.10766],[-122.95705,46.107686],[-122.95704,46.107838],[-122.956911,46.107837],[-122.95685,46.107813],[-122.95678,46.107838],[-122.956264,46.107837],[-122.956203,46.107813],[-122.956134,46.107837],[-122.956005,46.107837],[-122.955977,46.107759],[-122.955822,46.107733],[-122.955755,46.107762],[-122.955746,46.107837],[-122.955617,46.107837],[-122.955617,46.107567],[-122.955652,46.107519],[-122.955604,46.107411],[-122.955547,46.107387],[-122.955359,46.107387],[-122.955353,46.10724],[-122.955311,46.107211],[-122.955229,46.107207],[-122.955223,46.10715],[-122.955181,46.107121],[-122.955018,46.107121],[-122.954976,46.10715],[-122.95497,46.107207],[-122.954841,46.107207],[-122.954841,46.106937],[-122.954948,46.106921],[-122.954971,46.106847],[-122.9551,46.106847],[-122.955103,46.106899],[-122.955141,46.10693],[-122.955359,46.106937],[-122.955393,46.107018],[-122.955562,46.107025],[-122.955612,46.106994],[-122.955618,46.106937],[-122.955734,46.106913],[-122.955747,46.106847],[-122.955863,46.106823],[-122.955877,46.106667],[-122.956135,46.106667],[-122.956137,46.106894],[-122.956176,46.106931],[-122.956265,46.106937],[-122.956264,46.107027],[-122.956054,46.107031],[-122.956012,46.107061],[-122.956006,46.107117],[-122.955809,46.107118],[-122.955748,46.107161],[-122.95575,46.107349],[-122.955795,46.107383],[-122.955876,46.107387],[-122.955899,46.107551],[-122.956005,46.107567],[-122.956009,46.107619],[-122.956046,46.107651],[-122.956202,46.107656],[-122.956263,46.107614],[-122.956264,46.107477],[-122.956523,46.107477],[-122.956536,46.107543],[-122.956652,46.107568],[-122.956656,46.107619],[-122.956693,46.107651],[-122.956978,46.107657],[-122.957039,46.107614],[-122.957041,46.107388],[-122.95717,46.107388]]]}},{"type":"Feature","properties":{"id":2,"area_m2":6400,"px":64,"rank":8,"persistent":false},"geometry":{"type":"Polygon","coordinates":[[[-122.954708,46.111527],[-122.954708,46.111617],[-122.954601,46.111633],[-122.954546,46.111739],[-122.954578,46.111797],[-122.954578,46.111977],[-122.954472,46.111993],[-122.954449,46.112067],[-122.954333,46.112091],[-122.954319,46.112157],[-122.954225,46.112159],[-122.954175,46.112191],[-122.95419,46.112607],[-122.954083,46.112622],[-122.95406,46.112696],[-122.953944,46.11272],[-122.953931,46.112786],[-122.953801,46.112786],[-122.953801,46.112385],[-122.953754,46.112341],[-122.953448,46.112345],[-122.953413,46.112426],[-122.953332,46.11243],[-122.95329,46.11246],[-122.953284,46.112606],[-122.953154,46.112606],[-122.953132,46.112532],[-122.953025,46.112515],[-122.953025,46.112426],[-122.953113,46.11242],[-122.953153,46.112383],[-122.953174,46.112207],[-122.953134,46.112163],[-122.952578,46.112156],[-122.952517,46.112184],[-122.952508,46.112246],[-122.952249,46.112246],[-122.952249,46.112156],[-122.952479,46.112144],[-122.952508,46.112066],[-122.952603,46.112057],[-122.952637,46.111976],[-122.952749,46.111956],[-122.952767,46.111886],[-122.952896,46.111886],[-122.952902,46.111943],[-122.952951,46.111974],[-122.95312,46.111967],[-122.953155,46.111927],[-122.953157,46.111796],[-122.953284,46.111796],[-122.953297,46.112132],[-122.953413,46.112156],[-122.953417,46.112208],[-122.953455,46.11224],[-122.953624,46.112242],[-122.953666,46.112213],[-122.953672,46.112156],[-122.953789,46.112132],[-122.953802,46.112066],[-122.953986,46.11208],[-122.954044,46.11206],[-122.954061,46.111887],[-122.954142,46.111882],[-122.954187,46.111848],[-122.95419,46.111707],[-122.954297,46.111691],[-122.95432,46.111617],[-122.954436,46.111593],[-122.954449,46.111527],[-122.954708,46.111527]]]}},{"type":"Feature","properties":{"id":3,"area_m2":6000,"px":60,"rank":9,"persistent":false},"geometry":{"type":"Polygon","coordinates":[[[-122.940863,46.11008],[-122.940863,46.11017],[-122.940775,46.110177],[-122.940734,46.110219],[-122.940733,46.11071],[-122.940621,46.11073],[-122.940604,46.11089],[-122.940515,46.110897],[-122.940476,46.110934],[-122.940487,46.111046],[-122.940603,46.11107],[-122.940603,46.11125],[-122.940491,46.11127],[-122.940474,46.11143],[-122.940392,46.111434],[-122.94035,46.111464],[-122.940344,46.1117],[-122.94027,46.111702],[-122.940224,46.111729],[-122.940214,46.11188],[-122.94018,46.111923],[-122.940227,46.112036],[-122.940343,46.11206],[-122.940372,46.112138],[-122.940602,46.11215],[-122.940602,46.11224],[-122.940343,46.11224],[-122.94034,46.112189],[-122.940302,46.112157],[-122.940085,46.11215],[-122.940081,46.112008],[-122.940037,46.111974],[-122.939956,46.11197],[-122.939934,46.111793],[-122.939881,46.111776],[-122.939568,46.11179],[-122.939568,46.1117],[-122.939649,46.111696],[-122.939691,46.111667],[-122.939697,46.11143],[-122.939772,46.111428],[-122.939818,46.111401],[-122.939827,46.11125],[-122.939908,46.111246],[-122.939953,46.111212],[-122.939957,46.11107],[-122.940188,46.111071],[-122.940215,46.11098],[-122.940297,46.110976],[-122.940339,46.110947],[-122.940345,46.1108],[-122.940426,46.110796],[-122.940468,46.110767],[-122.940475,46.11035],[-122.940549,46.110348],[-122.940595,46.110322],[-122.940605,46.11017],[-122.940711,46.110155],[-122.940734,46.11008],[-122.940863,46.11008]]]}},{"type":"Feature","properties":{"id":35,"area_m2":5800,"px":58,"rank":10,"persistent":false},"geometry":{"type":"Polygon","coordinates":[[[-122.955357,46.108557],[-122.955357,46.108917],[-122.955228,46.108917],[-122.955167,46.108893],[-122.955098,46.108917],[-122.95484,46.108917],[-122.954817,46.108843],[-122.95471,46.108827],[-122.954711,46.108737],[-122.954923,46.108746],[-122.954966,46.108712],[-122.954969,46.108647],[-122.955081,46.108627],[-122.955097,46.10851],[-122.955058,46.108473],[-122.95497,46.108467],[-122.954964,46.10832],[-122.954922,46.108291],[-122.95484,46.108287],[-122.954834,46.10814],[-122.954792,46.108111],[-122.954711,46.108107],[-122.954705,46.10796],[-122.954663,46.107931],[-122.954582,46.107927],[-122.954576,46.10778],[-122.954534,46.107751],[-122.954453,46.107747],[-122.954447,46.1076],[-122.954405,46.107571],[-122.954323,46.107566],[-122.95432,46.107425],[-122.954275,46.107391],[-122.954194,46.107386],[-122.954194,46.107255],[-122.95416,46.107216],[-122.953854,46.10721],[-122.953812,46.10724],[-122.953806,46.107296],[-122.953575,46.107308],[-122.953547,46.107386],[-122.953431,46.10741],[-122.953417,46.107476],[-122.953084,46.107478],[-122.953035,46.107509],[-122.953029,46.107566],[-122.952771,46.107566],[-122.952771,46.107476],[-122.952877,46.10746],[-122.9529,46.107386],[-122.953124,46.107377],[-122.953159,46.107296],[-122.953383,46.107287],[-122.953418,46.107206],[-122.953534,46.107182],[-122.953547,46.107116],[-122.954194,46.107117],[-122.954217,46.107191],[-122.954323,46.107207],[-122.954337,46.107273],[-122.954453,46.107297],[-122.954481,46.107374],[-122.954582,46.107387],[-122.9546,46.107637],[-122.954652,46.107656],[-122.954841,46.107657],[-122.95485,46.107808],[-122.954896,46.107834],[-122.95497,46.107837],[-122.954987,46.107997],[-122.955099,46.108017],[-122.955105,46.108344],[-122.955147,46.108373],[-122.955228,46.108377],[-122.955246,46.108537],[-122.955357,46.108557]]]}},{"type":"Feature","properties":{"id":65,"area_m2":4600,"px":46,"rank":11,"persistent":false},"geometry":{"type":"Polygon","coordinates":[[[-122.944107,46.101892],[-122.944106,46.102072],[-122.944032,46.102074],[-122.943986,46.1021],[-122.943977,46.102252],[-122.943759,46.102258],[-122.943721,46.10229],[-122.943718,46.102342],[-122.943201,46.102341],[-122.943166,46.102261],[-122.942942,46.102251],[-122.942919,46.102177],[-122.942813,46.102161],[-122.942813,46.102071],[-122.943138,46.10207],[-122.943201,46.102017],[-122.943183,46.101911],[-122.943072,46.101891],[-122.943037,46.10181],[-122.942942,46.101801],[-122.942914,46.101724],[-122.942813,46.101711],[-122.942813,46.101621],[-122.94292,46.101605],[-122.942943,46.101531],[-122.943072,46.101531],[-122.943073,46.101758],[-122.943142,46.101801],[-122.943534,46.101799],[-122.943583,46.101768],[-122.943589,46.101712],[-122.943977,46.101712],[-122.943986,46.101863],[-122.944032,46.10189],[-122.944107,46.101892]]]}},{"type":"Feature","properties":{"id":56,"area_m2":3300,"px":33,"rank":12,"persistent":false},"geometry":{"type":"Polygon","coordinates":[[[-122.954841,46.106667],[-122.954841,46.106847],[-122.954735,46.106863],[-122.954712,46.106937],[-122.954596,46.106961],[-122.954582,46.107027],[-122.954453,46.107027],[-122.95443,46.106952],[-122.954324,46.106936],[-122.954289,46.106856],[-122.954194,46.106846],[-122.954189,46.10661],[-122.954147,46.106581],[-122.954065,46.106576],[-122.954031,46.106496],[-122.953936,46.106486],[-122.953933,46.106345],[-122.953888,46.10631],[-122.953807,46.106306],[-122.953807,46.106216],[-122.953936,46.106216],[-122.953942,46.106273],[-122.953984,46.106302],[-122.954147,46.106302],[-122.954189,46.106273],[-122.954195,46.106217],[-122.954276,46.106212],[-122.954318,46.106183],[-122.954325,46.106037],[-122.954454,46.106037],[-122.954477,46.106111],[-122.954583,46.106128],[-122.954583,46.106217],[-122.954495,46.106223],[-122.954455,46.10626],[-122.954453,46.106397],[-122.954419,46.106444],[-122.954459,46.106543],[-122.954501,46.106572],[-122.954583,46.106577],[-122.954589,46.106633],[-122.954631,46.106663],[-122.954841,46.106667]]]}},{"type":"Feature","properties":{"id":30,"area_m2":3100,"px":31,"rank":13,"persistent":false},"geometry":{"type":"Polygon","coordinates":[[[-122.95471,46.108917],[-122.95471,46.109007],[-122.95437,46.109011],[-122.954328,46.10904],[-122.954322,46.109097],[-122.954118,46.109099],[-122.954069,46.10913],[-122.954063,46.109186],[-122.953839,46.109195],[-122.953804,46.109276],[-122.953675,46.109276],[-122.953669,46.10922],[-122.95362,46.109189],[-122.953416,46.109186],[-122.953393,46.109112],[-122.953287,46.109096],[-122.953281,46.108769],[-122.953239,46.10874],[-122.953158,46.108736],[-122.953152,46.108589],[-122.95311,46.10856],[-122.953028,46.108556],[-122.953023,46.108409],[-122.952981,46.10838],[-122.952899,46.108376],[-122.952893,46.108229],[-122.952851,46.1082],[-122.95277,46.108196],[-122.952764,46.108049],[-122.952722,46.10802],[-122.952641,46.108016],[-122.952637,46.107874],[-122.952593,46.10784],[-122.952512,46.107836],[-122.952512,46.107746],[-122.952641,46.107746],[-122.952664,46.10782],[-122.95277,46.107836],[-122.952776,46.107983],[-122.952818,46.108012],[-122.952899,46.108016],[-122.952905,46.108163],[-122.952947,46.108192],[-122.953029,46.108196],[-122.953034,46.108343],[-122.953076,46.108372],[-122.953158,46.108376],[-122.953164,46.108523],[-122.953206,46.108552],[-122.953287,46.108556],[-122.953293,46.108703],[-122.953335,46.108732],[-122.953416,46.108736],[-122.95342,46.108878],[-122.953464,46.108912],[-122.953546,46.108916],[-122.953546,46.109048],[-122.953574,46.109084],[-122.953886,46.109092],[-122.953928,46.109063],[-122.953934,46.109006],[-122.954138,46.109004],[-122.954187,46.108973],[-122.954193,46.108917],[-122.954417,46.108908],[-122.954452,46.108827],[-122.954581,46.108827],[-122.954604,46.108901],[-122.95471,46.108917]]]}},{"type":"Feature","properties":{"id":16,"area_m2":3000,"px":30,"rank":14,"persistent":false},"geometry":{"type":"Polygon","coordinates":[[[-122.955227,46.109817],[-122.955227,46.109907],[-122.954909,46.109907],[-122.954848,46.109935],[-122.954838,46.110357],[-122.95458,46.110357],[-122.954574,46.10994],[-122.954532,46.109911],[-122.954451,46.109907],[-122.954445,46.10985],[-122.954403,46.109821],[-122.954192,46.109816],[-122.954192,46.109637],[-122.954451,46.109637],[-122.95446,46.109698],[-122.954513,46.109726],[-122.954791,46.109723],[-122.954833,46.109693],[-122.954839,46.109637],[-122.954921,46.109633],[-122.954965,46.109599],[-122.954969,46.109367],[-122.955098,46.109367],[-122.955099,46.109773],[-122.955139,46.109811],[-122.955227,46.109817]]]}},{"type":"Feature","properties":{"id":22,"area_m2":2700,"px":27,"rank":15,"persistent":false},"geometry":{"type":"Polygon","coordinates":[[[-122.947334,46.109454],[-122.947334,46.109634],[-122.947116,46.10964],[-122.947078,46.109672],[-122.947075,46.109723],[-122.946728,46.10973],[-122.946688,46.109767],[-122.946686,46.109903],[-122.946557,46.109903],[-122.946548,46.109752],[-122.946502,46.109726],[-122.946428,46.109723],[-122.946428,46.109633],[-122.946463,46.109591],[-122.946428,46.109543],[-122.946428,46.109363],[-122.946503,46.109361],[-122.946549,46.109335],[-122.946558,46.109093],[-122.946665,46.109077],[-122.946688,46.109003],[-122.946817,46.109003],[-122.946797,46.109217],[-122.946819,46.109257],[-122.947075,46.109274],[-122.947098,46.109348],[-122.947205,46.109364],[-122.947239,46.109444],[-122.947334,46.109454]]]}},{"type":"Feature","properties":{"id":55,"area_m2":2200,"px":22,"rank":16,"persistent":false},"geometry":{"type":"Polygon","coordinates":[[[-122.957688,46.107298],[-122.957688,46.107388],[-122.957581,46.107404],[-122.957558,46.107478],[-122.957301,46.107478],[-122.957294,46.107331],[-122.957252,46.107302],[-122.95717,46.107298],[-122.957164,46.107241],[-122.957122,46.107212],[-122.956952,46.107214],[-122.956915,46.107246],[-122.956911,46.107297],[-122.956653,46.107297],[-122.95663,46.107223],[-122.956523,46.107207],[-122.95652,46.107066],[-122.956475,46.107031],[-122.956394,46.107027],[-122.956394,46.106937],[-122.956912,46.106938],[-122.956929,46.107008],[-122.957041,46.107028],[-122.957054,46.107094],[-122.95717,46.107118],[-122.957205,46.107199],[-122.957429,46.107208],[-122.957435,46.107264],[-122.957484,46.107295],[-122.957688,46.107298]]]}},{"type":"Feature","properties":{"id":63,"area_m2":1900,"px":19,"rank":17,"persistent":false},"geometry":{"type":"Polygon","coordinates":[[[-122.941518,46.103061],[-122.941518,46.103151],[-122.941423,46.10316],[-122.941388,46.10324],[-122.941282,46.103256],[-122.941226,46.103362],[-122.941259,46.103421],[-122.941258,46.10369],[-122.94087,46.10369],[-122.940848,46.103616],[-122.940741,46.1036],[-122.940741,46.10351],[-122.940853,46.103491],[-122.940871,46.10333],[-122.940952,46.103326],[-122.940994,46.103297],[-122.941,46.10306],[-122.94113,46.10306],[-122.941143,46.103126],[-122.941207,46.10315],[-122.941354,46.103141],[-122.941388,46.103061],[-122.941518,46.103061]]]}},{"type":"Feature","properties":{"id":45,"area_m2":1600,"px":16,"rank":18,"persistent":false},"geometry":{"type":"Polygon","coordinates":[[[-122.948112,46.108014],[-122.948111,46.108284],[-122.947982,46.108284],[-122.947954,46.108206],[-122.947724,46.108194],[-122.947718,46.108137],[-122.947676,46.108108],[-122.947335,46.108103],[-122.947313,46.108029],[-122.947206,46.108013],[-122.947172,46.107933],[-122.947077,46.107923],[-122.947077,46.107833],[-122.947335,46.107834],[-122.947364,46.107911],[-122.947594,46.107924],[-122.947603,46.107985],[-122.947657,46.108013],[-122.947805,46.10801],[-122.947847,46.10798],[-122.947853,46.107924],[-122.947981,46.107924],[-122.948005,46.107998],[-122.948112,46.108014]]]}},{"type":"Feature","properties":{"id":5,"area_m2":1500,"px":15,"rank":19,"persistent":false},"geometry":{"type":"Polygon","coordinates":[[[-122.952767,46.111616],[-122.952767,46.111796],[-122.95266,46.111812],[-122.952637,46.111886],[-122.952542,46.111895],[-122.952508,46.111976],[-122.952396,46.111996],[-122.952378,46.112066],[-122.95212,46.112066],[-122.95212,46.111976],[-122.952201,46.111972],[-122.952246,46.111937],[-122.952249,46.111796],[-122.952331,46.111792],[-122.952375,46.111758],[-122.952379,46.111526],[-122.952638,46.111526],[-122.95266,46.1116],[-122.952767,46.111616]]]}},{"type":"Feature","properties":{"id":13,"area_m2":1500,"px":15,"rank":20,"persistent":false},"geometry":{"type":"Polygon","coordinates":[[[-122.953933,46.110447],[-122.953932,46.110536],[-122.953803,46.110536],[-122.9538,46.110485],[-122.953762,46.110453],[-122.953544,46.110446],[-122.953539,46.11039],[-122.953489,46.110359],[-122.953286,46.110356],[-122.953286,46.110176],[-122.953381,46.110167],[-122.953415,46.110086],[-122.953497,46.110082],[-122.953541,46.110048],[-122.953545,46.109816],[-122.953674,46.109816],[-122.953677,46.110228],[-122.953722,46.110262],[-122.953803,46.110266],[-122.953821,46.110427],[-122.953933,46.110447]]]}},{"type":"Feature","properties":{"id":54,"area_m2":1100,"px":11,"rank":21,"persistent":false},"geometry":{"type":"Polygon","coordinates":[[[-122.943066,46.107292],[-122.943066,46.107381],[-122.942984,46.107386],[-122.94294,46.10742],[-122.942936,46.107561],[-122.94283,46.107577],[-122.942807,46.107651],[-122.942678,46.107651],[-122.942668,46.1075],[-122.942623,46.107474],[-122.942548,46.107471],[-122.942549,46.107291],[-122.942766,46.107285],[-122.942804,46.107253],[-122.942809,46.107201],[-122.942937,46.107201],[-122.942959,46.107276],[-122.943066,46.107292]]]}},{"type":"Feature","properties":{"id":49,"area_m2":1000,"px":10,"rank":22,"persistent":false},"geometry":{"type":"Polygon","coordinates":[[[-122.950441,46.107745],[-122.950441,46.107925],[-122.950334,46.107941],[-122.950311,46.108015],[-122.949923,46.108015],[-122.949924,46.107925],[-122.950025,46.10792],[-122.950072,46.10788],[-122.950053,46.107565],[-122.950182,46.107565],[-122.950205,46.107639],[-122.950312,46.107655],[-122.950346,46.107736],[-122.950441,46.107745]]]}},{"type":"Feature","properties":{"id":66,"area_m2":1000,"px":10,"rank":23,"persistent":false},"geometry":{"type":"Polygon","coordinates":[[[-122.941778,46.101891],[-122.941778,46.101981],[-122.941671,46.101996],[-122.941648,46.102071],[-122.94126,46.10207],[-122.94126,46.101801],[-122.941367,46.101785],[-122.94139,46.101711],[-122.941519,46.101711],[-122.941519,46.101842],[-122.941554,46.101882],[-122.941778,46.101891]]]}},{"type":"Feature","properties":{"id":10,"area_m2":900,"px":9,"rank":24,"persistent":false},"geometry":{"type":"Polygon","coordinates":[[[-122.954061,46.111077],[-122.954061,46.111166],[-122.95398,46.111171],[-122.953935,46.111205],[-122.953932,46.111346],[-122.953544,46.111346],[-122.953544,46.111166],[-122.95365,46.111151],[-122.953673,46.111076],[-122.954061,46.111077]]]}},{"type":"Feature","properties":{"id":19,"area_m2":900,"px":9,"rank":25,"persistent":false},"geometry":{"type":"Polygon","coordinates":[[[-122.950439,46.109815],[-122.950439,46.109905],[-122.950344,46.109914],[-122.95031,46.109995],[-122.950215,46.109997],[-122.950169,46.110025],[-122.95018,46.110175],[-122.950051,46.110175],[-122.94999,46.110151],[-122.949921,46.110175],[-122.949792,46.110175],[-122.949792,46.110085],[-122.949874,46.110081],[-122.949918,46.110046],[-122.949922,46.109905],[-122.950028,46.109889],[-122.950051,46.109815],[-122.950439,46.109815]]]}},{"type":"Feature","properties":{"id":11,"area_m2":800,"px":8,"rank":26,"persistent":false},"geometry":{"type":"Polygon","coordinates":[[[-122.95005,46.111075],[-122.95005,46.111165],[-122.949968,46.111169],[-122.949924,46.111203],[-122.94992,46.111345],[-122.949791,46.111345],[-122.949778,46.111279],[-122.949662,46.111255],[-122.949658,46.111203],[-122.949621,46.111171],[-122.949403,46.111164],[-122.949403,46.111075],[-122.95005,46.111075]]]}},{"type":"Feature","properties":{"id":15,"area_m2":800,"px":8,"rank":27,"persistent":false},"geometry":{"type":"Polygon","coordinates":[[[-122.94151,46.110261],[-122.94151,46.110351],[-122.941403,46.110367],[-122.94138,46.110441],[-122.940992,46.11044],[-122.940993,46.110261],[-122.94121,46.110254],[-122.941248,46.110222],[-122.941252,46.110171],[-122.941381,46.110171],[-122.941404,46.110245],[-122.94151,46.110261]]]}},{"type":"Feature","properties":{"id":31,"area_m2":800,"px":8,"rank":28,"persistent":false},"geometry":{"type":"Polygon","coordinates":[[[-122.94384,46.109092],[-122.94384,46.109272],[-122.943452,46.109272],[-122.94343,46.109198],[-122.943323,46.109182],[-122.943323,46.109002],[-122.943582,46.109002],[-122.943587,46.109072],[-122.943642,46.109104],[-122.94384,46.109092]]]}},{"type":"Feature","properties":{"id":44,"area_m2":800,"px":8,"rank":29,"persistent":false},"geometry":{"type":"Polygon","coordinates":[[[-122.951865,46.107656],[-122.951864,46.107745],[-122.951783,46.10775],[-122.951738,46.107784],[-122.951735,46.107925],[-122.951647,46.107932],[-122.951607,46.107969],[-122.951611,46.108072],[-122.951653,46.108101],[-122.951735,46.108106],[-122.951735,46.108195],[-122.951628,46.108211],[-122.951605,46.108285],[-122.951476,46.108285],[-122.951476,46.108195],[-122.951511,46.108153],[-122.951476,46.108105],[-122.951476,46.107835],[-122.951583,46.10782],[-122.951606,46.107745],[-122.951722,46.107721],[-122.951735,46.107656],[-122.951865,46.107656]]]}},{"type":"Feature","properties":{"id":9,"area_m2":700,"px":7,"rank":30,"persistent":false},"geometry":{"type":"Polygon","coordinates":[[[-122.939051,46.11107],[-122.93905,46.111249],[-122.938976,46.111252],[-122.93893,46.111278],[-122.938921,46.111429],[-122.938791,46.111429],[-122.93873,46.111405],[-122.938662,46.111429],[-122.938533,46.111429],[-122.938533,46.111249],[-122.93888,46.111243],[-122.93892,46.111206],[-122.938921,46.111069],[-122.939051,46.11107]]]}},{"type":"Feature","properties":{"id":38,"area_m2":700,"px":7,"rank":31,"persistent":false},"geometry":{"type":"Polygon","coordinates":[[[-122.957687,46.108378],[-122.957687,46.108468],[-122.957498,46.108468],[-122.957441,46.108492],[-122.957428,46.108648],[-122.957299,46.108648],[-122.957276,46.108574],[-122.957169,46.108558],[-122.957169,46.108468],[-122.957251,46.108464],[-122.957295,46.108429],[-122.957299,46.108288],[-122.957428,46.108288],[-122.957434,46.108344],[-122.957483,46.108375],[-122.957687,46.108378]]]}},{"type":"Feature","properties":{"id":39,"area_m2":700,"px":7,"rank":32,"persistent":false},"geometry":{"type":"Polygon","coordinates":[[[-122.94565,46.108284],[-122.945618,46.10833],[-122.945653,46.108373],[-122.945653,46.108463],[-122.945546,46.108479],[-122.945523,46.108553],[-122.945407,46.108577],[-122.945394,46.108643],[-122.945265,46.108643],[-122.945265,46.108463],[-122.945339,46.10846],[-122.945385,46.108434],[-122.945394,46.108283],[-122.945501,46.108267],[-122.945524,46.108193],[-122.945651,46.108193],[-122.94565,46.108284]]]}},{"type":"Feature","properties":{"id":50,"area_m2":700,"px":7,"rank":33,"persistent":false},"geometry":{"type":"Polygon","coordinates":[[[-122.949276,46.107924],[-122.949276,46.108014],[-122.949147,46.108014],[-122.949138,46.107953],[-122.949085,46.107925],[-122.948371,46.107924],[-122.948371,46.107834],[-122.949147,46.107834],[-122.94917,46.107909],[-122.949276,46.107924]]]}},{"type":"Feature","properties":{"id":4,"area_m2":600,"px":6,"rank":34,"persistent":false},"geometry":{"type":"Polygon","coordinates":[[[-122.954061,46.111617],[-122.954061,46.111706],[-122.953973,46.111713],[-122.953933,46.11175],[-122.953931,46.111976],[-122.953728,46.111979],[-122.953678,46.11201],[-122.953672,46.112066],[-122.953543,46.112066],[-122.953543,46.111976],[-122.953638,46.111967],[-122.953673,46.111886],[-122.953747,46.111884],[-122.953793,46.111858],[-122.953802,46.111706],[-122.953909,46.111691],[-122.953932,46.111617],[-122.954061,46.111617]]]}},{"type":"Feature","properties":{"id":36,"area_m2":600,"px":6,"rank":35,"persistent":false},"geometry":{"type":"Polygon","coordinates":[[[-122.942029,46.108641],[-122.942029,46.108821],[-122.9419,46.108821],[-122.941877,46.108747],[-122.941771,46.108731],[-122.941736,46.10865],[-122.941641,46.108641],[-122.941641,46.108551],[-122.941748,46.108535],[-122.941771,46.108461],[-122.9419,46.108461],[-122.941909,46.108612],[-122.941955,46.108639],[-122.942029,46.108641]]]}},{"type":"Feature","properties":{"id":51,"area_m2":600,"px":6,"rank":36,"persistent":false},"geometry":{"type":"Polygon","coordinates":[[[-122.940477,46.10792],[-122.940477,46.10801],[-122.940219,46.10801],[-122.940196,46.107936],[-122.940089,46.10792],[-122.940055,46.107839],[-122.93996,46.10783],[-122.93996,46.10774],[-122.940219,46.10774],[-122.940242,46.107814],[-122.940348,46.10783],[-122.940383,46.107911],[-122.940477,46.10792]]]}},{"type":"Feature","properties":{"id":57,"area_m2":600,"px":6,"rank":37,"persistent":false},"geometry":{"type":"Polygon","coordinates":[[[-122.955877,46.106397],[-122.955877,46.106487],[-122.95577,46.106503],[-122.955747,46.106577],[-122.955618,46.106577],[-122.955595,46.106503],[-122.955489,46.106487],[-122.955489,46.106307],[-122.955747,46.106307],[-122.95577,46.106381],[-122.955877,46.106397]]]}},{"type":"Feature","properties":{"id":12,"area_m2":500,"px":5,"rank":38,"persistent":false},"geometry":{"type":"Polygon","coordinates":[[[-122.949662,46.110805],[-122.949662,46.110895],[-122.949403,46.110894],[-122.949404,46.110535],[-122.949533,46.110535],[-122.949536,46.110766],[-122.949581,46.110801],[-122.949662,46.110805]]]}},{"type":"Feature","properties":{"id":17,"area_m2":500,"px":5,"rank":39,"persistent":false},"geometry":{"type":"Polygon","coordinates":[[[-122.947074,46.110174],[-122.947074,46.110263],[-122.946968,46.110279],[-122.946945,46.110353],[-122.946427,46.110353],[-122.946428,46.110263],[-122.946883,46.110262],[-122.946936,46.110235],[-122.946945,46.110173],[-122.947074,46.110174]]]}},{"type":"Feature","properties":{"id":28,"area_m2":500,"px":5,"rank":40,"persistent":false},"geometry":{"type":"Polygon","coordinates":[[[-122.956134,46.108917],[-122.956133,46.109367],[-122.956004,46.109367],[-122.956004,46.108917],[-122.956134,46.108917]]]}},{"type":"Feature","properties":{"id":47,"area_m2":500,"px":5,"rank":41,"persistent":false},"geometry":{"type":"Polygon","coordinates":[[[-122.946042,46.107833],[-122.946041,46.107923],[-122.94596,46.107927],[-122.945915,46.107961],[-122.945912,46.108103],[-122.945653,46.108103],[-122.945653,46.108013],[-122.945735,46.108009],[-122.945779,46.107974],[-122.945783,46.107833],[-122.946042,46.107833]]]}},{"type":"Feature","properties":{"id":67,"area_m2":500,"px":5,"rank":42,"persistent":false},"geometry":{"type":"Polygon","coordinates":[[[-122.940097,46.10081],[-122.940097,46.1009],[-122.939969,46.1009],[-122.939964,46.100848],[-122.939927,46.100816],[-122.939709,46.10081],[-122.939686,46.100735],[-122.93958,46.10072],[-122.93958,46.10063],[-122.939838,46.10063],[-122.939861,46.100704],[-122.939968,46.10072],[-122.940002,46.100801],[-122.940097,46.10081]]]}},{"type":"Feature","properties":{"id":21,"area_m2":400,"px":4,"rank":43,"persistent":false},"geometry":{"type":"Polygon","coordinates":[[[-122.947334,46.109814],[-122.947333,46.109994],[-122.947075,46.109993],[-122.947075,46.109814],[-122.947334,46.109814]]]}},{"type":"Feature","properties":{"id":40,"area_m2":400,"px":4,"rank":44,"persistent":false},"geometry":{"type":"Polygon","coordinates":[[[-122.956781,46.108198],[-122.956781,46.108557],[-122.956652,46.108557],[-122.956652,46.108198],[-122.956781,46.108198]]]}},{"type":"Feature","properties":{"id":43,"area_m2":400,"px":4,"rank":45,"persistent":false},"geometry":{"type":"Polygon","coordinates":[[[-122.952511,46.108196],[-122.952511,46.108376],[-122.952252,46.108376],[-122.952252,46.108196],[-122.952511,46.108196]]]}},{"type":"Feature","properties":{"id":48,"area_m2":400,"px":4,"rank":46,"persistent":false},"geometry":{"type":"Polygon","coordinates":[[[-122.952382,46.107836],[-122.952382,46.108016],[-122.952123,46.108016],[-122.952123,46.107836],[-122.952382,46.107836]]]}},{"type":"Feature","properties":{"id":58,"area_m2":400,"px":4,"rank":47,"persistent":false},"geometry":{"type":"Polygon","coordinates":[[[-122.942549,46.106391],[-122.942549,46.106481],[-122.942344,46.10647],[-122.942296,46.106501],[-122.94229,46.106571],[-122.942161,46.106571],[-122.942161,46.106391],[-122.942268,46.106375],[-122.942291,46.106301],[-122.94242,46.106301],[-122.942443,46.106375],[-122.942549,46.106391]]]}},{"type":"Feature","properties":{"id":59,"area_m2":400,"px":4,"rank":48,"persistent":false},"geometry":{"type":"Polygon","coordinates":[[[-122.94255,46.106031],[-122.94255,46.106121],[-122.942032,46.106121],[-122.942032,46.106031],[-122.94255,46.106031]]]}},{"type":"Feature","properties":{"id":61,"area_m2":400,"px":4,"rank":49,"persistent":false},"geometry":{"type":"Polygon","coordinates":[[[-122.944621,46.105042],[-122.944621,46.105132],[-122.944514,46.105148],[-122.944491,46.105222],[-122.944397,46.105231],[-122.944362,46.105312],[-122.94425,46.105332],[-122.944232,46.105402],[-122.944103,46.105402],[-122.944103,46.105312],[-122.94421,46.105296],[-122.944233,46.105222],[-122.944328,46.105213],[-122.944362,46.105132],[-122.944474,46.105112],[-122.944492,46.105042],[-122.944621,46.105042]]]}},{"type":"Feature","properties":{"id":8,"area_m2":300,"px":3,"rank":50,"persistent":false},"geometry":{"type":"Polygon","coordinates":[[[-122.954191,46.111257],[-122.95419,46.111527],[-122.954061,46.111526],[-122.954061,46.111257],[-122.954191,46.111257]]]}},{"type":"Feature","properties":{"id":14,"area_m2":300,"px":3,"rank":51,"persistent":false},"geometry":{"type":"Polygon","coordinates":[[[-122.942675,46.110351],[-122.942674,46.110441],[-122.942416,46.110441],[-122.942393,46.110367],[-122.942287,46.110351],[-122.942287,46.110261],[-122.942416,46.110261],[-122.942422,46.110318],[-122.942471,46.110349],[-122.942675,46.110351]]]}},{"type":"Feature","properties":{"id":18,"area_m2":300,"px":3,"rank":52,"persistent":false},"geometry":{"type":"Polygon","coordinates":[[[-122.950698,46.109995],[-122.950698,46.110085],[-122.950591,46.110101],[-122.950568,46.110175],[-122.95031,46.110175],[-122.95031,46.110085],[-122.950513,46.110083],[-122.950563,46.110052],[-122.950569,46.109995],[-122.950698,46.109995]]]}},{"type":"Feature","properties":{"id":20,"area_m2":300,"px":3,"rank":53,"persistent":false},"geometry":{"type":"Polygon","coordinates":[[[-122.94151,46.109991],[-122.94151,46.110081],[-122.941252,46.110081],[-122.941252,46.109901],[-122.941381,46.109901],[-122.941404,46.109975],[-122.94151,46.109991]]]}},{"type":"Feature","properties":{"id":25,"area_m2":300,"px":3,"rank":54,"persistent":false},"geometry":{"type":"Polygon","coordinates":[[[-122.94604,46.109543],[-122.94604,46.109723],[-122.945781,46.109723],[-122.945781,46.109633],[-122.945888,46.109617],[-122.945911,46.109543],[-122.94604,46.109543]]]}},{"type":"Feature","properties":{"id":24,"area_m2":300,"px":3,"rank":55,"persistent":false},"geometry":{"type":"Polygon","coordinates":[[[-122.955745,46.109457],[-122.955745,46.109727],[-122.955616,46.109727],[-122.955616,46.109457],[-122.955745,46.109457]]]}},{"type":"Feature","properties":{"id":27,"area_m2":300,"px":3,"rank":56,"persistent":false},"geometry":{"type":"Polygon","coordinates":[[[-122.946299,46.109273],[-122.946299,46.109453],[-122.94604,46.109453],[-122.94604,46.109363],[-122.946147,46.109347],[-122.94617,46.109273],[-122.946299,46.109273]]]}},{"type":"Feature","properties":{"id":26,"area_m2":300,"px":3,"rank":57,"persistent":false},"geometry":{"type":"Polygon","coordinates":[[[-122.954322,46.109187],[-122.954322,46.109367],[-122.954215,46.109382],[-122.954192,46.109456],[-122.954063,46.109456],[-122.954063,46.109367],[-122.954144,46.109362],[-122.954189,46.109328],[-122.954193,46.109187],[-122.954322,46.109187]]]}},{"type":"Feature","properties":{"id":29,"area_m2":300,"px":3,"rank":58,"persistent":false},"geometry":{"type":"Polygon","coordinates":[[[-122.955745,46.109007],[-122.955745,46.109277],[-122.955616,46.109277],[-122.955616,46.109007],[-122.955745,46.109007]]]}},{"type":"Feature","properties":{"id":32,"area_m2":300,"px":3,"rank":59,"persistent":false},"geometry":{"type":"Polygon","coordinates":[[[-122.957169,46.108918],[-122.957169,46.109188],[-122.957039,46.109188],[-122.95704,46.108918],[-122.957169,46.108918]]]}},{"type":"Feature","properties":{"id":34,"area_m2":300,"px":3,"rank":60,"persistent":false},"geometry":{"type":"Polygon","coordinates":[[[-122.94617,46.108733],[-122.94617,46.109003],[-122.946041,46.109003],[-122.946041,46.108733],[-122.94617,46.108733]]]}},{"type":"Feature","properties":{"id":37,"area_m2":300,"px":3,"rank":61,"persistent":false},"geometry":{"type":"Polygon","coordinates":[[[-122.94397,46.108552],[-122.94397,46.108642],[-122.943864,46.108658],[-122.943841,46.108732],[-122.943712,46.108732],[-122.943712,46.108552],[-122.94397,46.108552]]]}},{"type":"Feature","properties":{"id":42,"area_m2":300,"px":3,"rank":62,"persistent":false},"geometry":{"type":"Polygon","coordinates":[[[-122.940865,46.10837],[-122.940865,46.10846],[-122.940758,46.108476],[-122.940735,46.10855],[-122.940606,46.10855],[-122.940606,46.10837],[-122.940865,46.10837]]]}},{"type":"Feature","properties":{"id":41,"area_m2":300,"px":3,"rank":63,"persistent":false},"geometry":{"type":"Polygon","coordinates":[[[-122.947723,46.108284],[-122.947723,46.108554],[-122.947594,46.108554],[-122.947594,46.108284],[-122.947723,46.108284]]]}},{"type":"Feature","properties":{"id":46,"area_m2":300,"px":3,"rank":64,"persistent":false},"geometry":{"type":"Polygon","coordinates":[[[-122.957428,46.107928],[-122.957428,46.108198],[-122.957299,46.108198],[-122.957299,46.107928],[-122.957428,46.107928]]]}},{"type":"Feature","properties":{"id":53,"area_m2":300,"px":3,"rank":65,"persistent":false},"geometry":{"type":"Polygon","coordinates":[[[-122.947465,46.107564],[-122.947465,46.107654],[-122.947261,46.107656],[-122.947212,46.107687],[-122.947206,46.107743],[-122.947077,46.107743],[-122.947077,46.107653],[-122.947184,46.107638],[-122.947207,46.107564],[-122.947465,46.107564]]]}},{"type":"Feature","properties":{"id":60,"area_m2":300,"px":3,"rank":66,"persistent":false},"geometry":{"type":"Polygon","coordinates":[[[-122.954713,46.105857],[-122.954713,46.105947],[-122.954454,46.105947],[-122.954431,46.105872],[-122.954325,46.105856],[-122.954325,46.105767],[-122.954454,46.105767],[-122.95446,46.105823],[-122.954509,46.105854],[-122.954713,46.105857]]]}},{"type":"Feature","properties":{"id":62,"area_m2":300,"px":3,"rank":67,"persistent":false},"geometry":{"type":"Polygon","coordinates":[[[-122.941258,46.104141],[-122.941258,46.10432],[-122.941128,46.10432],[-122.941125,46.104179],[-122.941081,46.104145],[-122.940999,46.10414],[-122.940999,46.10405],[-122.941128,46.104051],[-122.941151,46.104125],[-122.941258,46.104141]]]}}]}