{"type":"FeatureCollection","features":[{"type":"Feature","properties":{"id":6,"area_m2":311100,"px":3111,"rank":1,"persistent":false},"geometry":{"type":"Polygon","coordinates":[[[-122.95665,46.110088],[-122.95665,46.110177],[-122.956555,46.110187],[-122.956521,46.110231],[-122.956522,46.110494],[-122.956562,46.110531],[-122.95665,46.110538],[-122.95665,46.110627],[-122.956549,46.11064],[-122.95652,46.110717],[-122.956426,46.110727],[-122.956391,46.110807],[-122.956279,46.110827],[-122.956261,46.110987],[-122.956155,46.111003],[-122.956132,46.111077],[-122.955902,46.111089],[-122.955873,46.111167],[-122.955757,46.111191],[-122.955744,46.111257],[-122.955513,46.111269],[-122.955485,46.111306],[-122.955485,46.111437],[-122.955378,46.111453],[-122.955355,46.111527],[-122.955029,46.111528],[-122.954976,46.111555],[-122.954967,46.111617],[-122.954607,46.111629],[-122.954579,46.111665],[-122.954578,46.111977],[-122.95432,46.111977],[-122.954259,46.111952],[-122.954188,46.111977],[-122.953543,46.111976],[-122.95353,46.11191],[-122.953466,46.111886],[-122.953319,46.111895],[-122.953284,46.111976],[-122.953026,46.111976],[-122.952964,46.111952],[-122.952894,46.111976],[-122.952249,46.111976],[-122.952249,46.111796],[-122.952338,46.111789],[-122.952377,46.111752],[-122.95239,46.111515],[-122.952508,46.111526],[-122.952517,46.111587],[-122.952571,46.111615],[-122.952712,46.111614],[-122.952764,46.111578],[-122.952782,46.111381],[-122.952732,46.111348],[-122.952638,46.111346],[-122.952625,46.11128],[-122.95256,46.111256],[-122.952442,46.111257],[-122.952392,46.11128],[-122.952368,46.111447],[-122.952168,46.11144],[-122.952126,46.111469],[-122.95212,46.111526],[-122.952004,46.11155],[-122.95199,46.111706],[-122.951902,46.111712],[-122.951863,46.111749],[-122.951861,46.111976],[-122.951343,46.111975],[-122.95134,46.111924],[-122.951302,46.111892],[-122.950955,46.111885],[-122.950927,46.111807],[-122.950696,46.111795],[-122.950687,46.111734],[-122.950626,46.111705],[-122.950438,46.111705],[-122.950354,46.111682],[-122.950202,46.111721],[-122.950179,46.111795],[-122.950049,46.111795],[-122.950049,46.111705],[-122.950131,46.111701],[-122.950175,46.111667],[-122.950161,46.111545],[-122.95005,46.111525],[-122.950044,46.111468],[-122.950002,46.111439],[-122.949791,46.111435],[-122.949785,46.111378],[-122.949743,46.111349],[-122.949532,46.111345],[-122.949519,46.111279],[-122.949455,46.111255],[-122.949314,46.111261],[-122.949277,46.111293],[-122.949273,46.111344],[-122.949161,46.111364],[-122.949144,46.111524],[-122.949062,46.111529],[-122.949018,46.111563],[-122.949014,46.111704],[-122.948907,46.11172],[-122.948885,46.111794],[-122.94879,46.111803],[-122.948755,46.111884],[-122.948643,46.111904],[-122.948626,46.111974],[-122.947461,46.111974],[-122.947452,46.111822],[-122.947399,46.111795],[-122.947202,46.111793],[-122.947214,46.111643],[-122.947168,46.111616],[-122.947073,46.111613],[-122.947073,46.111524],[-122.947108,46.111476],[-122.947067,46.111377],[-122.947025,46.111348],[-122.946944,46.111342],[-122.946944,46.111163],[-122.947332,46.111164],[-122.94743,46.111183],[-122.947496,46.111121],[-122.947453,46.111012],[-122.947407,46.110986],[-122.947333,46.110984],[-122.947323,46.110922],[-122.947263,46.110894],[-122.947108,46.110903],[-122.947074,46.110983],[-122.946815,46.110983],[-122.946802,46.110737],[-122.946745,46.110714],[-122.946556,46.110713],[-122.946557,46.110085],[-122.946592,46.110041],[-122.946557,46.109992],[-122.946557,46.109723],[-122.946592,46.109681],[-122.946557,46.109632],[-122.946558,46.109543],[-122.946592,46.109501],[-122.946558,46.109452],[-122.946558,46.109003],[-122.946665,46.108987],[-122.946688,46.108913],[-122.946946,46.108913],[-122.947015,46.108938],[-122.947076,46.108914],[-122.947324,46.108903],[-122.947348,46.10898],[-122.947464,46.109004],[-122.947467,46.109055],[-122.947505,46.109087],[-122.947654,46.109118],[-122.947804,46.10909],[-122.947851,46.10905],[-122.947851,46.108957],[-122.947811,46.10892],[-122.947723,46.108914],[-122.947723,46.108734],[-122.94783,46.108718],[-122.947852,46.108644],[-122.947947,46.108641],[-122.94799,46.108619],[-122.947982,46.108464],[-122.948359,46.108453],[-122.948372,46.108601],[-122.948425,46.108642],[-122.948758,46.108644],[-122.948819,46.108668],[-122.948888,46.108644],[-122.949146,46.108644],[-122.949149,46.10907],[-122.949214,46.109108],[-122.949342,46.109093],[-122.949401,46.109056],[-122.949405,46.108915],[-122.949439,46.108877],[-122.949405,46.108824],[-122.949405,46.108645],[-122.949754,46.108652],[-122.949792,46.108615],[-122.949793,46.108505],[-122.949733,46.108452],[-122.949535,46.108464],[-122.949533,46.108238],[-122.949494,46.108201],[-122.94939,46.108187],[-122.949426,46.10807],[-122.949404,46.108031],[-122.949356,46.108015],[-122.94908,46.108015],[-122.949021,46.108053],[-122.949014,46.108174],[-122.949067,46.108194],[-122.949292,46.108202],[-122.949276,46.108374],[-122.949169,46.10839],[-122.949146,46.108464],[-122.949017,46.108464],[-122.949012,46.108394],[-122.948957,46.108362],[-122.948381,46.108385],[-122.948364,46.108317],[-122.948315,46.108286],[-122.947887,46.108286],[-122.947833,46.108334],[-122.947868,46.108456],[-122.947642,46.108468],[-122.9476,46.108497],[-122.947594,46.108554],[-122.947487,46.108569],[-122.947464,46.108824],[-122.947346,46.108835],[-122.947335,46.108374],[-122.947565,46.108361],[-122.947621,46.108215],[-122.947569,46.108177],[-122.94751,46.108171],[-122.947358,46.108209],[-122.947324,46.108295],[-122.947206,46.108283],[-122.947183,46.108119],[-122.946947,46.108103],[-122.946924,46.108029],[-122.946818,46.108013],[-122.946818,46.107653],[-122.946848,46.10759],[-122.946765,46.10754],[-122.946689,46.107563],[-122.94656,46.107563],[-122.946562,46.105313],[-122.946643,46.105309],[-122.946688,46.105275],[-122.946726,46.105181],[-122.946691,46.105133],[-122.946691,46.105043],[-122.946927,46.105027],[-122.94695,46.104863],[-122.947032,46.104859],[-122.947076,46.104825],[-122.94708,46.104683],[-122.947175,46.104674],[-122.947209,46.104593],[-122.947291,46.104589],[-122.947333,46.10456],[-122.947336,46.104362],[-122.947291,46.104328],[-122.94721,46.104323],[-122.94721,46.104233],[-122.947598,46.104234],[-122.947615,46.104394],[-122.947668,46.104413],[-122.947856,46.104414],[-122.947869,46.10448],[-122.947986,46.104504],[-122.947992,46.10456],[-122.948034,46.10459],[-122.948374,46.104594],[-122.948383,46.104655],[-122.948436,46.104683],[-122.948762,46.104684],[-122.948762,46.104774],[-122.948553,46.104774],[-122.9485,46.104795],[-122.948506,46.104916],[-122.948573,46.104954],[-122.948891,46.104954],[-122.948891,46.105134],[-122.948707,46.10512],[-122.948649,46.105141],[-122.948597,46.105267],[-122.948632,46.105314],[-122.948632,46.105404],[-122.948543,46.10541],[-122.948504,46.105447],[-122.948502,46.105674],[-122.948467,46.105716],[-122.948502,46.105764],[-122.948502,46.105854],[-122.948393,46.105861],[-122.948353,46.105904],[-122.948372,46.106484],[-122.948256,46.106508],[-122.948242,46.106664],[-122.948126,46.106688],[-122.948113,46.106844],[-122.948001,46.106864],[-122.947983,46.107024],[-122.947895,46.10703],[-122.947855,46.107067],[-122.947854,46.107204],[-122.947821,46.107262],[-122.947867,46.10736],[-122.947983,46.107384],[-122.948011,46.107462],[-122.948187,46.107472],[-122.948236,46.107441],[-122.948242,46.107384],[-122.94846,46.107378],[-122.948497,46.107346],[-122.948501,46.107294],[-122.948617,46.10727],[-122.94863,46.107204],[-122.948759,46.107204],[-122.948828,46.107228],[-122.94899,46.107192],[-122.949018,46.107156],[-122.949015,46.107063],[-122.948971,46.107028],[-122.948889,46.107024],[-122.948889,46.106934],[-122.949125,46.106919],[-122.949148,46.106754],[-122.949277,46.106754],[-122.949283,46.106824],[-122.949331,46.106856],[-122.949508,46.106832],[-122.949536,46.106796],[-122.949537,46.106575],[-122.949666,46.106575],[-122.949667,46.106711],[-122.949707,46.106748],[-122.949856,46.106779],[-122.950006,46.106751],[-122.950048,46.106721],[-122.950054,46.106665],[-122.95017,46.106641],[-122.950184,46.106575],[-122.950372,46.106575],[-122.950425,46.106555],[-122.950442,46.106395],[-122.950932,46.106383],[-122.95096,46.106346],[-122.95096,46.106215],[-122.951067,46.106199],[-122.95109,46.106125],[-122.951184,46.106123],[-122.951227,46.1061],[-122.951206,46.105969],[-122.95109,46.105945],[-122.951084,46.105709],[-122.951042,46.105679],[-122.950961,46.105675],[-122.950943,46.105515],[-122.950831,46.105495],[-122.950814,46.105335],[-122.950761,46.105315],[-122.950628,46.105317],[-122.950579,46.105348],[-122.950573,46.105405],[-122.950443,46.105405],[-122.950421,46.105331],[-122.950314,46.105315],[-122.950314,46.105225],[-122.950533,46.105232],[-122.950607,46.105098],[-122.950555,46.104975],[-122.950444,46.104955],[-122.950409,46.104874],[-122.950314,46.104865],[-122.950315,46.104685],[-122.950444,46.104685],[-122.950467,46.104759],[-122.950573,46.104775],[-122.950586,46.104841],[-122.950702,46.104865],[-122.950731,46.104943],[-122.950832,46.104955],[-122.950832,46.105086],[-122.95086,46.105123],[-122.951035,46.105133],[-122.951085,46.105102],[-122.951091,46.105045],[-122.95122,46.105045],[-122.951233,46.105111],[-122.951349,46.105135],[-122.951384,46.105216],[-122.951608,46.105225],[-122.951614,46.105282],[-122.951663,46.105313],[-122.951867,46.105316],[-122.951889,46.10557],[-122.952254,46.105586],[-122.952258,46.105637],[-122.952296,46.105669],[-122.952513,46.105676],[-122.952519,46.105732],[-122.952568,46.105763],[-122.952772,46.105766],[-122.952752,46.105895],[-122.952792,46.105939],[-122.953098,46.105945],[-122.953151,46.105917],[-122.95316,46.105856],[-122.953419,46.105856],[-122.953447,46.105934],[-122.953677,46.105946],[-122.9537,46.10602],[-122.953807,46.106036],[-122.953841,46.106117],[-122.953936,46.106126],[-122.953917,46.106261],[-122.953986,46.106306],[-122.954125,46.106306],[-122.954177,46.106287],[-122.954195,46.106127],[-122.954583,46.106127],[-122.954583,46.106217],[-122.954502,46.106221],[-122.954457,46.106255],[-122.954453,46.106397],[-122.954372,46.106401],[-122.95433,46.10643],[-122.954326,46.106533],[-122.954387,46.106576],[-122.954583,46.106577],[-122.954589,46.106633],[-122.954631,46.106663],[-122.954841,46.106667],[-122.954841,46.106847],[-122.954735,46.106863],[-122.954712,46.106937],[-122.954596,46.106961],[-122.954582,46.107027],[-122.954488,46.107029],[-122.954445,46.107052],[-122.954454,46.107253],[-122.954494,46.10729],[-122.954582,46.107297],[-122.954595,46.107543],[-122.954711,46.107567],[-122.954717,46.107623],[-122.954759,46.107653],[-122.95497,46.107657],[-122.954979,46.107898],[-122.955025,46.107925],[-122.955099,46.107927],[-122.955134,46.108008],[-122.955229,46.108017],[-122.955228,46.108107],[-122.955147,46.108111],[-122.955102,46.108145],[-122.955112,46.108263],[-122.955169,46.108287],[-122.955358,46.108287],[-122.95538,46.108361],[-122.955487,46.108377],[-122.955502,46.109089],[-122.955405,46.109101],[-122.955363,46.10913],[-122.95536,46.109329],[-122.955427,46.109367],[-122.955598,46.109347],[-122.955616,46.109097],[-122.955745,46.109097],[-122.955746,46.109242],[-122.955778,46.109281],[-122.956004,46.109277],[-122.956004,46.109457],[-122.955909,46.109466],[-122.955874,46.109547],[-122.955763,46.109567],[-122.955745,46.109727],[-122.955643,46.109731],[-122.955597,46.109772],[-122.955598,46.110047],[-122.955643,46.110083],[-122.955745,46.110088],[-122.955744,46.110177],[-122.955656,46.110183],[-122.955617,46.110221],[-122.955624,46.110509],[-122.955677,46.110536],[-122.955833,46.110531],[-122.95587,46.110499],[-122.955874,46.110447],[-122.95599,46.110423],[-122.956003,46.110357],[-122.956115,46.110338],[-122.956133,46.110267],[-122.956244,46.110248],[-122.956262,46.110177],[-122.956374,46.110158],[-122.956392,46.110087],[-122.95665,46.110088]],[[-122.947157,46.109008],[-122.947,46.10898],[-122.946834,46.109023],[-122.946817,46.109143],[-122.946844,46.109184],[-122.94713,46.109197],[-122.947188,46.109177],[-122.947199,46.109037],[-122.947157,46.109008]],[[-122.947352,46.110219],[-122.947327,46.110117],[-122.947285,46.110088],[-122.947086,46.110094],[-122.947069,46.110027],[-122.947027,46.109998],[-122.946878,46.109994],[-122.946822,46.110027],[-122.946833,46.110154],[-122.946886,46.110173],[-122.947064,46.110162],[-122.94708,46.11023],[-122.947122,46.110259],[-122.947313,46.110257],[-122.947352,46.110219]],[[-122.947853,46.107654],[-122.947836,46.107584],[-122.947724,46.107564],[-122.947715,46.107502],[-122.947654,46.107474],[-122.947132,46.107476],[-122.947086,46.107502],[-122.947042,46.107606],[-122.9471,46.107728],[-122.947336,46.107744],[-122.947342,46.1078],[-122.947391,46.107831],[-122.94756,46.107825],[-122.947596,46.107744],[-122.947724,46.107744],[-122.947733,46.107805],[-122.947786,46.107833],[-122.948089,46.107818],[-122.948112,46.10778],[-122.948089,46.10767],[-122.947853,46.107654]],[[-122.947725,46.109272],[-122.947756,46.109221],[-122.947704,46.10917],[-122.947639,46.109161],[-122.947574,46.109197],[-122.947561,46.109242],[-122.947611,46.109287],[-122.947669,46.109297],[-122.947725,46.109272]],[[-122.949148,46.107335],[-122.94912,46.107293],[-122.949065,46.107281],[-122.949004,46.107303],[-122.948984,46.107342],[-122.949009,46.107379],[-122.949072,46.107398],[-122.949131,46.107378],[-122.949148,46.107335]],[[-122.949318,46.107468],[-122.949482,46.107486],[-122.949532,46.10745],[-122.949536,46.107163],[-122.949488,46.107119],[-122.949347,46.107115],[-122.949279,46.107158],[-122.949277,46.107426],[-122.949318,46.107468]],[[-122.949791,46.108733],[-122.94974,46.108711],[-122.949682,46.108721],[-122.949645,46.108763],[-122.949661,46.108804],[-122.949714,46.108824],[-122.949786,46.108812],[-122.949813,46.108774],[-122.949791,46.108733]],[[-122.950102,46.110445],[-122.950178,46.110401],[-122.950177,46.110213],[-122.950125,46.110177],[-122.949976,46.110177],[-122.949927,46.110208],[-122.949921,46.110265],[-122.949847,46.110267],[-122.949801,46.110293],[-122.949795,46.110406],[-122.949854,46.110444],[-122.950102,46.110445]],[[-122.949976,46.107205],[-122.950052,46.107161],[-122.95005,46.106973],[-122.949999,46.106937],[-122.94985,46.106937],[-122.949796,46.106978],[-122.949798,46.107166],[-122.94985,46.107202],[-122.949976,46.107205]],[[-122.950569,46.109045],[-122.950502,46.108992],[-122.95021,46.109017],[-122.950181,46.109059],[-122.950198,46.109268],[-122.950264,46.109289],[-122.950411,46.109263],[-122.95044,46.109185],[-122.950514,46.109183],[-122.95056,46.109156],[-122.950569,46.109045]],[[-122.953286,46.109996],[-122.953482,46.109995],[-122.953536,46.109968],[-122.953545,46.109775],[-122.953504,46.109733],[-122.953191,46.109735],[-122.953157,46.109816],[-122.953075,46.10982],[-122.953033,46.109849],[-122.953027,46.109996],[-122.952898,46.109996],[-122.952918,46.109776],[-122.952878,46.109733],[-122.952639,46.109726],[-122.95263,46.109664],[-122.952569,46.109636],[-122.952122,46.109636],[-122.952061,46.109612],[-122.951992,46.109636],[-122.951863,46.109636],[-122.951863,46.109366],[-122.952094,46.109353],[-122.952122,46.109317],[-122.952119,46.109224],[-122.952081,46.109192],[-122.951939,46.109162],[-122.951863,46.109186],[-122.951605,46.109185],[-122.951605,46.109006],[-122.951721,46.108982],[-122.951731,46.108864],[-122.951672,46.108827],[-122.951475,46.108825],[-122.951466,46.108764],[-122.951413,46.108736],[-122.951217,46.108735],[-122.951148,46.108711],[-122.950981,46.108751],[-122.950958,46.108915],[-122.950863,46.108924],[-122.950828,46.109005],[-122.950716,46.109025],[-122.950699,46.109185],[-122.950617,46.109189],[-122.950575,46.109218],[-122.950569,46.109455],[-122.950373,46.109456],[-122.950312,46.109498],[-122.950328,46.109705],[-122.950439,46.109725],[-122.950445,46.109782],[-122.950487,46.109811],[-122.950698,46.109815],[-122.950698,46.110265],[-122.950603,46.110274],[-122.950568,46.110355],[-122.950462,46.110371],[-122.950404,46.110487],[-122.950452,46.110601],[-122.950568,46.110625],[-122.950574,46.110682],[-122.950616,46.110711],[-122.950804,46.110699],[-122.950827,46.110625],[-122.950908,46.110621],[-122.95095,46.110592],[-122.950956,46.110445],[-122.951051,46.110436],[-122.951086,46.110355],[-122.951202,46.110331],[-122.951216,46.110085],[-122.951322,46.11007],[-122.951345,46.109995],[-122.951549,46.109993],[-122.951598,46.109962],[-122.951604,46.109906],[-122.951733,46.109906],[-122.951733,46.110085],[-122.951652,46.11009],[-122.95161,46.110119],[-122.951603,46.110301],[-122.951638,46.110346],[-122.951733,46.110356],[-122.951749,46.110438],[-122.951603,46.110445],[-122.951527,46.110422],[-122.951386,46.110452],[-122.951346,46.110489],[-122.951344,46.110625],[-122.95131,46.110678],[-122.951344,46.110715],[-122.951348,46.110857],[-122.951407,46.110894],[-122.951662,46.110895],[-122.951715,46.110876],[-122.951733,46.110626],[-122.951849,46.110602],[-122.951846,46.110453],[-122.951969,46.11043],[-122.951992,46.110356],[-122.952121,46.110356],[-122.952127,46.110412],[-122.952176,46.110443],[-122.95238,46.110446],[-122.952386,46.110502],[-122.952435,46.110534],[-122.952733,46.110527],[-122.952768,46.110446],[-122.952849,46.110442],[-122.952892,46.110413],[-122.952898,46.110266],[-122.953108,46.110262],[-122.95315,46.110233],[-122.953157,46.110176],[-122.953273,46.110152],[-122.953286,46.109996]],[[-122.951732,46.111706],[-122.95182,46.111699],[-122.95186,46.111662],[-122.951861,46.111394],[-122.951827,46.111355],[-122.951344,46.111345],[-122.95134,46.111294],[-122.951303,46.111262],[-122.951085,46.111255],[-122.951067,46.111185],[-122.950956,46.111165],[-122.950947,46.111104],[-122.950893,46.111076],[-122.950738,46.111082],[-122.9507,46.111113],[-122.950697,46.111165],[-122.950581,46.111189],[-122.950567,46.111345],[-122.950533,46.111393],[-122.950602,46.111516],[-122.950826,46.111525],[-122.950832,46.111582],[-122.950881,46.111613],[-122.951085,46.111615],[-122.951102,46.111686],[-122.951214,46.111705],[-122.951223,46.111767],[-122.951276,46.111794],[-122.951473,46.111796],[-122.951556,46.111818],[-122.951709,46.11178],[-122.951732,46.111706]],[[-122.950958,46.108505],[-122.95089,46.108452],[-122.950717,46.108485],[-122.950715,46.108637],[-122.950611,46.108651],[-122.950571,46.108688],[-122.95057,46.10879],[-122.950597,46.108826],[-122.95066,46.108838],[-122.950811,46.108805],[-122.950813,46.108653],[-122.950945,46.108621],[-122.950958,46.108505]],[[-122.951642,46.105548],[-122.951602,46.105439],[-122.951553,46.105408],[-122.951254,46.105414],[-122.951185,46.105538],[-122.951232,46.105665],[-122.951294,46.105689],[-122.951573,46.105666],[-122.951642,46.105548]],[[-122.952184,46.10822],[-122.952327,46.108193],[-122.952373,46.108167],[-122.952364,46.108035],[-122.952312,46.108016],[-122.952123,46.108016],[-122.9521,46.107941],[-122.951994,46.107926],[-122.951994,46.107794],[-122.951959,46.107755],[-122.951764,46.107758],[-122.951735,46.107835],[-122.951654,46.10784],[-122.951609,46.107874],[-122.951623,46.108086],[-122.951675,46.108105],[-122.951864,46.108106],[-122.95187,46.108162],[-122.951919,46.108193],[-122.952123,46.108196],[-122.952184,46.10822]],[[-122.954191,46.107078],[-122.954214,46.106987],[-122.954192,46.106953],[-122.954065,46.106936],[-122.954042,46.106862],[-122.953936,46.106846],[-122.953936,46.106756],[-122.954017,46.106752],[-122.954062,46.106718],[-122.954065,46.106625],[-122.954037,46.106589],[-122.95386,46.106565],[-122.953812,46.106596],[-122.953806,46.106666],[-122.953677,46.106666],[-122.953659,46.106596],[-122.953548,46.106576],[-122.953513,46.106495],[-122.953418,46.106486],[-122.95339,46.106408],[-122.95316,46.106396],[-122.953142,46.106326],[-122.95303,46.106306],[-122.952996,46.106225],[-122.952901,46.106216],[-122.952878,46.106142],[-122.952642,46.106126],[-122.952629,46.10606],[-122.952513,46.106036],[-122.95251,46.105984],[-122.952472,46.105952],[-122.952254,46.105946],[-122.952251,46.105894],[-122.952213,46.105862],[-122.952023,46.10586],[-122.951976,46.105906],[-122.952001,46.106092],[-122.952058,46.106125],[-122.952254,46.106126],[-122.952272,46.106196],[-122.952383,46.106216],[-122.952418,46.106297],[-122.952513,46.106306],[-122.952541,46.106384],[-122.952771,46.106396],[-122.952771,46.106486],[-122.952513,46.106486],[-122.952495,46.106416],[-122.952383,46.106396],[-122.952349,46.106315],[-122.952254,46.106306],[-122.952226,46.106228],[-122.951995,46.106216],[-122.951989,46.106159],[-122.951947,46.10613],[-122.95179,46.106102],[-122.951709,46.106147],[-122.951749,46.106281],[-122.951866,46.106306],[-122.951879,46.106552],[-122.951995,46.106576],[-122.951998,46.106641],[-122.952041,46.106675],[-122.952254,46.106666],[-122.952253,46.106756],[-122.952219,46.106803],[-122.952271,46.106916],[-122.952323,46.106935],[-122.952657,46.106943],[-122.952641,46.107026],[-122.952445,46.107027],[-122.952384,46.107069],[-122.952388,46.107262],[-122.95243,46.107292],[-122.952512,46.107296],[-122.952515,46.107347],[-122.952553,46.107379],[-122.952852,46.107382],[-122.952894,46.107353],[-122.9529,46.107296],[-122.953118,46.10729],[-122.953156,46.107258],[-122.953159,46.107206],[-122.95324,46.107202],[-122.953285,46.107168],[-122.953279,46.107055],[-122.953233,46.107028],[-122.953159,46.107026],[-122.953125,46.106945],[-122.952755,46.106928],[-122.952771,46.106846],[-122.952878,46.10683],[-122.952933,46.106724],[-122.952901,46.106666],[-122.952901,46.106576],[-122.95303,46.106576],[-122.953048,46.106646],[-122.953159,46.106666],[-122.953172,46.106732],[-122.953289,46.106756],[-122.953292,46.106808],[-122.95333,46.10684],[-122.953547,46.106846],[-122.953553,46.106903],[-122.953602,46.106934],[-122.953806,46.106936],[-122.953819,46.107002],[-122.953935,46.107026],[-122.953939,46.107078],[-122.953976,46.10711],[-122.954153,46.10711],[-122.954191,46.107078]],[[-122.952043,46.110986],[-122.952117,46.110947],[-122.952111,46.110834],[-122.952058,46.110807],[-122.951903,46.110812],[-122.951863,46.110849],[-122.951871,46.110957],[-122.951924,46.110985],[-122.952043,46.110986]],[[-122.952433,46.108556],[-122.952508,46.108517],[-122.952498,46.1084],[-122.952441,46.108376],[-122.952266,46.108385],[-122.952232,46.108432],[-122.952265,46.108532],[-122.952315,46.108555],[-122.952433,46.108556]],[[-122.95497,46.108467],[-122.954964,46.10832],[-122.954922,46.108291],[-122.95484,46.108287],[-122.954834,46.10814],[-122.954792,46.108111],[-122.954711,46.108107],[-122.954705,46.10796],[-122.954663,46.107931],[-122.954582,46.107927],[-122.954576,46.10778],[-122.954534,46.107751],[-122.954453,46.107747],[-122.954447,46.1076],[-122.954405,46.107571],[-122.954323,46.107566],[-122.95432,46.107425],[-122.954275,46.107391],[-122.954194,46.107386],[-122.954193,46.10725],[-122.954153,46.107213],[-122.953724,46.10721],[-122.953682,46.10724],[-122.953676,46.107296],[-122.95356,46.10732],[-122.953547,46.107386],[-122.953329,46.107393],[-122.953291,46.107424],[-122.953288,46.107476],[-122.953077,46.10748],[-122.953035,46.107509],[-122.953029,46.107566],[-122.952818,46.10757],[-122.952776,46.107599],[-122.95277,46.107656],[-122.952696,46.107658],[-122.95265,46.107684],[-122.952647,46.107803],[-122.952689,46.107832],[-122.95277,46.107836],[-122.952776,46.107983],[-122.952818,46.108012],[-122.952899,46.108016],[-122.952905,46.108163],[-122.952947,46.108192],[-122.953029,46.108196],[-122.953034,46.108343],[-122.953076,46.108372],[-122.953158,46.108376],[-122.953164,46.108523],[-122.953206,46.108552],[-122.953287,46.108556],[-122.953293,46.108703],[-122.953335,46.108732],[-122.953416,46.108736],[-122.95342,46.108878],[-122.953464,46.108912],[-122.953546,46.108916],[-122.953547,46.109053],[-122.953587,46.10909],[-122.953886,46.109092],[-122.953928,46.109063],[-122.953934,46.109006],[-122.954145,46.109002],[-122.954187,46.108973],[-122.954193,46.108917],[-122.954404,46.108912],[-122.954446,46.108883],[-122.954452,46.108827],[-122.954657,46.108838],[-122.954705,46.108807],[-122.954711,46.108737],[-122.954935,46.108728],[-122.954969,46.108647],[-122.955058,46.10864],[-122.955098,46.108598],[-122.955086,46.108491],[-122.95497,46.108467]],[[-122.952772,46.109277],[-122.952715,46.109262],[-122.952657,46.109282],[-122.95264,46.109331],[-122.952667,46.109367],[-122.952729,46.109379],[-122.952788,46.109353],[-122.952803,46.109313],[-122.952772,46.109277]],[[-122.953483,46.111604],[-122.953285,46.111616],[-122.953279,46.11156],[-122.95323,46.111529],[-122.952938,46.111532],[-122.952898,46.11157],[-122.952896,46.111706],[-122.952815,46.11171],[-122.95277,46.111744],[-122.952776,46.111857],[-122.952972,46.11191],[-122.953127,46.111874],[-122.953155,46.111796],[-122.953502,46.11179],[-122.953542,46.111753],[-122.953538,46.111636],[-122.953483,46.111604]],[[-122.953026,46.109274],[-122.952974,46.109252],[-122.952917,46.109263],[-122.952879,46.109305],[-122.952895,46.109345],[-122.952948,46.109366],[-122.95302,46.109353],[-122.953047,46.109316],[-122.953026,46.109274]],[[-122.953337,46.110986],[-122.953411,46.110948],[-122.953406,46.110835],[-122.953352,46.110807],[-122.953197,46.110813],[-122.953157,46.11085],[-122.953165,46.110958],[-122.953218,46.110985],[-122.953337,46.110986]],[[-122.953667,46.111493],[-122.953693,46.111397],[-122.953665,46.111359],[-122.953414,46.111346],[-122.953408,46.11129],[-122.953366,46.11126],[-122.953218,46.111257],[-122.953161,46.111289],[-122.953165,46.111408],[-122.95321,46.111434],[-122.953285,46.111436],[-122.953291,46.111493],[-122.953333,46.111522],[-122.953475,46.11155],[-122.953625,46.111522],[-122.953667,46.111493]],[[-122.953674,46.111076],[-122.953692,46.111031],[-122.95366,46.110996],[-122.953586,46.110987],[-122.953536,46.111011],[-122.953526,46.111053],[-122.953562,46.11109],[-122.95362,46.1111],[-122.953674,46.111076]],[[-122.953936,46.106347],[-122.953876,46.106294],[-122.953712,46.106315],[-122.953678,46.106355],[-122.95369,46.106462],[-122.953846,46.106499],[-122.953903,46.10649],[-122.953935,46.106457],[-122.953936,46.106347]],[[-122.953826,46.110732],[-122.953786,46.110947],[-122.95383,46.110982],[-122.954039,46.110971],[-122.954062,46.110933],[-122.954039,46.110732],[-122.953984,46.110716],[-122.953826,46.110732]],[[-122.954969,46.109457],[-122.955043,46.109455],[-122.955089,46.109428],[-122.955085,46.109301],[-122.955028,46.109277],[-122.954839,46.109277],[-122.954822,46.109207],[-122.95471,46.109187],[-122.954676,46.109106],[-122.954581,46.109097],[-122.954575,46.109027],[-122.954528,46.108996],[-122.954241,46.109011],[-122.954198,46.10904],[-122.954192,46.109096],[-122.954076,46.10912],[-122.954063,46.109186],[-122.953867,46.109187],[-122.953808,46.109225],[-122.953817,46.109342],[-122.953933,46.109366],[-122.953934,46.109601],[-122.953986,46.109648],[-122.954158,46.109627],[-122.954192,46.109547],[-122.954321,46.109547],[-122.954335,46.109613],[-122.954451,46.109637],[-122.954479,46.109714],[-122.954664,46.109749],[-122.954805,46.109718],[-122.954839,46.109637],[-122.954955,46.109613],[-122.954969,46.109457]],[[-122.95458,46.110357],[-122.954574,46.11003],[-122.954532,46.110001],[-122.95436,46.109976],[-122.954287,46.110044],[-122.954321,46.110088],[-122.954321,46.110578],[-122.954362,46.11062],[-122.954533,46.110636],[-122.954576,46.110602],[-122.95458,46.110537],[-122.954654,46.110534],[-122.9547,46.110508],[-122.9547,46.110385],[-122.954654,46.110359],[-122.95458,46.110357]],[[-122.954967,46.110937],[-122.9549,46.110883],[-122.954737,46.110909],[-122.954709,46.110987],[-122.954634,46.110989],[-122.954588,46.111015],[-122.954545,46.111114],[-122.95456,46.111154],[-122.95464,46.111191],[-122.954809,46.111155],[-122.954838,46.111077],[-122.954912,46.111075],[-122.954958,46.111048],[-122.954967,46.110937]],[[-122.955098,46.110037],[-122.95503,46.109983],[-122.954846,46.11001],[-122.954819,46.110053],[-122.954856,46.11017],[-122.954921,46.110191],[-122.955069,46.110165],[-122.955096,46.110133],[-122.955098,46.110037]],[[-122.955074,46.110701],[-122.955114,46.110487],[-122.95507,46.110451],[-122.954861,46.110463],[-122.954838,46.110501],[-122.954861,46.110701],[-122.954916,46.110717],[-122.955074,46.110701]],[[-122.955613,46.111034],[-122.955633,46.110762],[-122.955601,46.110727],[-122.955426,46.110717],[-122.955365,46.110746],[-122.955356,46.110807],[-122.955244,46.110827],[-122.955226,46.111077],[-122.955131,46.111086],[-122.955097,46.111167],[-122.95498,46.111191],[-122.954947,46.111291],[-122.954975,46.111334],[-122.95518,46.111369],[-122.955321,46.111338],[-122.955355,46.111257],[-122.955467,46.111237],[-122.955485,46.111077],[-122.955573,46.111071],[-122.955613,46.111034]],[[-122.955228,46.109007],[-122.955247,46.108962],[-122.955214,46.108926],[-122.955141,46.108918],[-122.955091,46.108942],[-122.955081,46.108983],[-122.955117,46.10902],[-122.955175,46.10903],[-122.955228,46.109007]],[[-122.955356,46.110307],[-122.955289,46.110254],[-122.955126,46.110279],[-122.955098,46.110316],[-122.955114,46.11044],[-122.95518,46.110461],[-122.955328,46.110435],[-122.955355,46.110404],[-122.955356,46.110307]]]}},{"type":"Feature","properties":{"id":1,"area_m2":60200,"px":602,"rank":2,"persistent":false},"geometry":{"type":"Polygon","coordinates":[[[-122.962082,46.110991],[-122.96205,46.111037],[-122.962085,46.111081],[-122.962084,46.111709],[-122.961989,46.111719],[-122.961955,46.111799],[-122.961838,46.111823],[-122.961825,46.111979],[-122.961696,46.111979],[-122.961678,46.111909],[-122.961566,46.111889],[-122.961553,46.111823],[-122.961437,46.111799],[-122.961434,46.111748],[-122.961396,46.111716],[-122.96092,46.111709],[-122.960916,46.111567],[-122.960872,46.111533],[-122.96079,46.111529],[-122.96079,46.111398],[-122.960756,46.111358],[-122.960402,46.111349],[-122.960402,46.111079],[-122.960435,46.111021],[-122.960389,46.110923],[-122.960273,46.110899],[-122.960245,46.110821],[-122.959885,46.110809],[-122.959857,46.110731],[-122.959702,46.110695],[-122.959626,46.110719],[-122.959367,46.110718],[-122.959345,46.110644],[-122.959238,46.110628],[-122.95922,46.110558],[-122.959109,46.110538],[-122.959074,46.110458],[-122.958979,46.110448],[-122.958951,46.110371],[-122.95885,46.110358],[-122.958827,46.110104],[-122.958462,46.110088],[-122.958439,46.110014],[-122.958333,46.109998],[-122.958331,46.109862],[-122.958285,46.109822],[-122.957686,46.109818],[-122.957686,46.109638],[-122.957798,46.109618],[-122.957816,46.109458],[-122.957922,46.109442],[-122.957945,46.109368],[-122.958061,46.109344],[-122.958074,46.109278],[-122.958204,46.109278],[-122.958272,46.109302],[-122.958333,46.109278],[-122.958529,46.109277],[-122.958583,46.10925],[-122.958592,46.109188],[-122.958822,46.109176],[-122.958851,46.10914],[-122.958851,46.109008],[-122.958946,46.108999],[-122.958981,46.108918],[-122.959092,46.108899],[-122.95911,46.108738],[-122.959191,46.108734],[-122.959234,46.108705],[-122.95924,46.108558],[-122.959476,46.108543],[-122.959499,46.108379],[-122.959757,46.108379],[-122.95978,46.108543],[-122.959886,46.108559],[-122.959892,46.108615],[-122.959934,46.108645],[-122.960145,46.108649],[-122.960163,46.108719],[-122.960274,46.108739],[-122.960309,46.10882],[-122.960404,46.108829],[-122.960432,46.108907],[-122.960533,46.108919],[-122.960562,46.108997],[-122.960662,46.109009],[-122.960691,46.109087],[-122.960792,46.109099],[-122.96082,46.109177],[-122.961051,46.109189],[-122.961068,46.109259],[-122.96118,46.109279],[-122.961193,46.109345],[-122.961309,46.109369],[-122.961315,46.109426],[-122.961357,46.109455],[-122.961827,46.109459],[-122.96185,46.109534],[-122.961956,46.109549],[-122.961991,46.10963],[-122.962085,46.109639],[-122.962084,46.109729],[-122.961827,46.109729],[-122.961823,46.109678],[-122.961786,46.109646],[-122.961616,46.109643],[-122.961569,46.109683],[-122.961568,46.109819],[-122.961364,46.109822],[-122.961309,46.109873],[-122.961309,46.11004],[-122.961337,46.110077],[-122.961568,46.110089],[-122.961585,46.11016],[-122.961697,46.110179],[-122.96171,46.110245],[-122.961826,46.110269],[-122.96183,46.110321],[-122.961867,46.110353],[-122.962085,46.110359],[-122.962082,46.110991]],[[-122.958645,46.109469],[-122.958838,46.109434],[-122.958847,46.109317],[-122.958796,46.109281],[-122.958647,46.109281],[-122.958593,46.109322],[-122.958595,46.109433],[-122.958645,46.109469]],[[-122.959938,46.109369],[-122.960014,46.109325],[-122.959998,46.109118],[-122.959938,46.109099],[-122.959656,46.109111],[-122.959627,46.109153],[-122.959645,46.109349],[-122.959697,46.109368],[-122.959938,46.109369]]]}},{"type":"Feature","properties":{"id":4,"area_m2":32900,"px":329,"rank":3,"persistent":false},"geometry":{"type":"Polygon","coordinates":[[[-122.959496,46.110989],[-122.959496,46.111169],[-122.95939,46.111184],[-122.959367,46.111258],[-122.959149,46.111265],[-122.959111,46.111297],[-122.959108,46.111348],[-122.958878,46.111361],[-122.958849,46.111438],[-122.958121,46.111442],[-122.958079,46.111471],[-122.958073,46.111528],[-122.957956,46.111552],[-122.957943,46.111618],[-122.95774,46.11162],[-122.95769,46.111651],[-122.957684,46.111708],[-122.957454,46.11172],[-122.957425,46.111798],[-122.957331,46.111807],[-122.957296,46.111888],[-122.957184,46.111907],[-122.957166,46.111978],[-122.955743,46.111977],[-122.955743,46.111797],[-122.955838,46.111788],[-122.955873,46.111707],[-122.955984,46.111688],[-122.956002,46.111527],[-122.956084,46.111523],[-122.956126,46.111494],[-122.956132,46.111257],[-122.956227,46.111248],[-122.956261,46.111167],[-122.956378,46.111143],[-122.956391,46.110987],[-122.956486,46.110978],[-122.95652,46.110898],[-122.956602,46.110893],[-122.956644,46.110864],[-122.95665,46.110718],[-122.956751,46.110705],[-122.956779,46.110628],[-122.956874,46.110618],[-122.956909,46.110538],[-122.957025,46.110514],[-122.957038,46.110358],[-122.95712,46.110354],[-122.957164,46.110319],[-122.957168,46.110178],[-122.957427,46.110178],[-122.957495,46.110202],[-122.957644,46.110171],[-122.957684,46.110134],[-122.957686,46.109998],[-122.957944,46.109998],[-122.957945,46.110143],[-122.957972,46.110179],[-122.958203,46.110178],[-122.958221,46.110248],[-122.958332,46.110268],[-122.958367,46.110349],[-122.958462,46.110358],[-122.95849,46.110436],[-122.958591,46.110448],[-122.958619,46.110526],[-122.95885,46.110538],[-122.958873,46.110613],[-122.958979,46.110628],[-122.958997,46.110699],[-122.959108,46.110718],[-122.959143,46.110799],[-122.959238,46.110809],[-122.959266,46.110886],[-122.959367,46.110899],[-122.959396,46.110976],[-122.959496,46.110989]]]}},{"type":"Feature","properties":{"id":10,"area_m2":31000,"px":310,"rank":4,"persistent":false},"geometry":{"type":"Polygon","coordinates":[[[-122.958463,46.108198],[-122.958463,46.108738],[-122.958274,46.108738],[-122.958222,46.108758],[-122.958204,46.108918],[-122.958123,46.108922],[-122.958078,46.108956],[-122.958074,46.109098],[-122.957945,46.109098],[-122.957876,46.109074],[-122.957796,46.109111],[-122.957815,46.109368],[-122.957686,46.109368],[-122.95768,46.109311],[-122.957638,46.109282],[-122.957427,46.109278],[-122.957374,46.109254],[-122.957298,46.109278],[-122.95678,46.109277],[-122.956764,46.109104],[-122.956705,46.109084],[-122.956584,46.109098],[-122.956523,46.109141],[-122.956521,46.109367],[-122.956489,46.109426],[-122.956556,46.109538],[-122.95678,46.109548],[-122.95678,46.109637],[-122.956521,46.109637],[-122.956493,46.10956],[-122.956331,46.109523],[-122.956162,46.10956],[-122.956133,46.109637],[-122.956004,46.109637],[-122.956004,46.109547],[-122.956099,46.109538],[-122.956133,46.109457],[-122.95624,46.109442],[-122.956282,46.109339],[-122.956242,46.109284],[-122.956133,46.109276],[-122.956134,46.109187],[-122.956222,46.109181],[-122.956263,46.109139],[-122.95626,46.108236],[-122.956223,46.108204],[-122.956081,46.108174],[-122.956005,46.108197],[-122.955876,46.108197],[-122.955866,46.107956],[-122.955821,46.107929],[-122.955746,46.107927],[-122.955712,46.107846],[-122.955617,46.107837],[-122.955608,46.107416],[-122.955555,46.107388],[-122.955359,46.107387],[-122.955345,46.107321],[-122.955229,46.107297],[-122.955226,46.107232],[-122.955183,46.107198],[-122.954841,46.107207],[-122.954841,46.106937],[-122.954948,46.106921],[-122.954971,46.106847],[-122.9551,46.106847],[-122.955103,46.106899],[-122.955141,46.10693],[-122.955359,46.106937],[-122.955362,46.106989],[-122.9554,46.107021],[-122.95557,46.107023],[-122.955612,46.106994],[-122.955618,46.106937],[-122.955734,46.106913],[-122.955747,46.106847],[-122.955842,46.106845],[-122.955884,46.106822],[-122.955877,46.106667],[-122.956135,46.106667],[-122.956137,46.106894],[-122.956198,46.106936],[-122.956366,46.106925],[-122.956394,46.106847],[-122.95651,46.106823],[-122.956524,46.106757],[-122.956653,46.106757],[-122.956671,46.106828],[-122.956782,46.106848],[-122.956791,46.106909],[-122.956845,46.106936],[-122.957007,46.106928],[-122.957041,46.106848],[-122.9573,46.106848],[-122.9573,46.106938],[-122.957198,46.106942],[-122.957153,46.106977],[-122.957188,46.107098],[-122.9573,46.107118],[-122.957303,46.107169],[-122.957341,46.107201],[-122.957558,46.107208],[-122.957593,46.107289],[-122.957817,46.107298],[-122.95784,46.107372],[-122.957946,46.107388],[-122.957946,46.107568],[-122.957845,46.10758],[-122.957817,46.107658],[-122.957716,46.10767],[-122.957687,46.107748],[-122.957592,46.107757],[-122.957558,46.107838],[-122.957476,46.107842],[-122.957434,46.107871],[-122.957441,46.108264],[-122.957557,46.108288],[-122.957563,46.108344],[-122.957613,46.108376],[-122.958005,46.108378],[-122.958072,46.10834],[-122.958075,46.108198],[-122.958205,46.108198],[-122.958265,46.108222],[-122.958334,46.108198],[-122.958463,46.108198]],[[-122.955917,46.107921],[-122.956081,46.107938],[-122.956131,46.107902],[-122.956133,46.107611],[-122.956094,46.107574],[-122.95599,46.10756],[-122.956005,46.107441],[-122.955983,46.107403],[-122.955807,46.107375],[-122.95575,46.107412],[-122.955747,46.107518],[-122.955788,46.107561],[-122.955892,46.107575],[-122.955877,46.107884],[-122.955917,46.107921]],[[-122.95693,46.107613],[-122.956911,46.107478],[-122.957107,46.107477],[-122.957164,46.107444],[-122.95717,46.107256],[-122.957142,46.10722],[-122.956952,46.107214],[-122.956915,46.107246],[-122.956911,46.107297],[-122.956653,46.107297],[-122.95663,46.107223],[-122.956523,46.107207],[-122.956523,46.107076],[-122.956489,46.107036],[-122.956135,46.107027],[-122.956126,46.106966],[-122.956073,46.106938],[-122.955939,46.106938],[-122.955894,46.106957],[-122.95588,46.107079],[-122.955924,46.107113],[-122.956006,46.107117],[-122.956019,46.107273],[-122.956135,46.107297],[-122.956169,46.107378],[-122.956264,46.107387],[-122.956293,46.107465],[-122.956394,46.107477],[-122.956422,46.107555],[-122.956652,46.107568],[-122.956665,46.107633],[-122.95673,46.107657],[-122.956897,46.107648],[-122.95693,46.107613]],[[-122.956908,46.108916],[-122.956857,46.108894],[-122.956799,46.108904],[-122.956761,46.108946],[-122.956777,46.108987],[-122.956831,46.109007],[-122.956902,46.108995],[-122.95693,46.108957],[-122.956908,46.108916]],[[-122.956829,46.108553],[-122.957017,46.108542],[-122.957039,46.108509],[-122.95704,46.108066],[-122.956992,46.108022],[-122.956849,46.108004],[-122.956782,46.108052],[-122.956781,46.108509],[-122.956829,46.108553]],[[-122.957429,46.107518],[-122.957361,46.107464],[-122.957183,46.107502],[-122.95717,46.107713],[-122.957203,46.107752],[-122.95726,46.107761],[-122.957416,46.107724],[-122.957429,46.107518]],[[-122.957557,46.108738],[-122.957639,46.108734],[-122.957683,46.1087],[-122.957683,46.108596],[-122.957632,46.10856],[-122.957469,46.108564],[-122.957431,46.108596],[-122.957428,46.108648],[-122.957346,46.108652],[-122.957302,46.108686],[-122.957302,46.108789],[-122.957353,46.108825],[-122.957523,46.108819],[-122.957557,46.108738]]]}},{"type":"Feature","properties":{"id":16,"area_m2":3600,"px":36,"rank":5,"persistent":false},"geometry":{"type":"Polygon","coordinates":[[[-122.947596,46.103065],[-122.947564,46.103111],[-122.947599,46.103154],[-122.947598,46.103424],[-122.947469,46.103423],[-122.947441,46.103346],[-122.9473,46.10332],[-122.947223,46.103344],[-122.947208,46.103423],[-122.946952,46.103423],[-122.946942,46.103362],[-122.946889,46.103334],[-122.946564,46.103333],[-122.946564,46.102883],[-122.946671,46.102867],[-122.946694,46.102793],[-122.946823,46.102793],[-122.946857,46.102874],[-122.947081,46.102883],[-122.94711,46.102961],[-122.94725,46.102987],[-122.947328,46.102963],[-122.94734,46.102884],[-122.947599,46.102884],[-122.947596,46.103065]]]}},{"type":"Feature","properties":{"id":2,"area_m2":2900,"px":29,"rank":6,"persistent":false},"geometry":{"type":"Polygon","coordinates":[[[-122.960272,46.111619],[-122.960272,46.111709],[-122.960166,46.111725],[-122.960143,46.111799],[-122.960048,46.111808],[-122.960013,46.111889],[-122.959902,46.111908],[-122.959884,46.111979],[-122.959366,46.111978],[-122.959367,46.111709],[-122.959483,46.111685],[-122.959496,46.111529],[-122.959603,46.111513],[-122.959626,46.111439],[-122.960014,46.111439],[-122.960037,46.111513],[-122.960143,46.111529],[-122.960178,46.11161],[-122.960272,46.111619]]]}},{"type":"Feature","properties":{"id":3,"area_m2":1800,"px":18,"rank":7,"persistent":false},"geometry":{"type":"Polygon","coordinates":[[[-122.958849,46.111708],[-122.958849,46.111888],[-122.958742,46.111904],[-122.958719,46.111978],[-122.958072,46.111978],[-122.95805,46.111904],[-122.957943,46.111888],[-122.957943,46.111798],[-122.95805,46.111782],[-122.958073,46.111708],[-122.958849,46.111708]]]}},{"type":"Feature","properties":{"id":5,"area_m2":600,"px":6,"rank":8,"persistent":false},"geometry":{"type":"Polygon","coordinates":[[[-122.955614,46.111617],[-122.955614,46.111707],[-122.955507,46.111723],[-122.955484,46.111797],[-122.955389,46.111806],[-122.955355,46.111887],[-122.955243,46.111907],[-122.955225,46.111977],[-122.955096,46.111977],[-122.955096,46.111797],[-122.955203,46.111781],[-122.955226,46.111707],[-122.955429,46.111705],[-122.955479,46.111674],[-122.955485,46.111617],[-122.955614,46.111617]]]}},{"type":"Feature","properties":{"id":15,"area_m2":600,"px":6,"rank":9,"persistent":false},"geometry":{"type":"Polygon","coordinates":[[[-122.94889,46.105404],[-122.94889,46.105674],[-122.948784,46.10569],[-122.948761,46.105764],[-122.948632,46.105764],[-122.948632,46.105494],[-122.948738,46.105478],[-122.948761,46.105404],[-122.94889,46.105404]]]}},{"type":"Feature","properties":{"id":14,"area_m2":500,"px":5,"rank":10,"persistent":false},"geometry":{"type":"Polygon","coordinates":[[[-122.956136,46.106487],[-122.956135,46.106577],[-122.956006,46.106577],[-122.955997,46.106516],[-122.955944,46.106488],[-122.955489,46.106487],[-122.955489,46.106397],[-122.956006,46.106397],[-122.956029,46.106471],[-122.956136,46.106487]]]}},{"type":"Feature","properties":{"id":17,"area_m2":500,"px":5,"rank":11,"persistent":false},"geometry":{"type":"Polygon","coordinates":[[[-122.946952,46.102613],[-122.946952,46.102703],[-122.946694,46.102703],[-122.946671,46.102629],[-122.946564,46.102613],[-122.946564,46.102433],[-122.946694,46.102433],[-122.946716,46.102507],[-122.946823,46.102523],[-122.946858,46.102604],[-122.946952,46.102613]]]}},{"type":"Feature","properties":{"id":7,"area_m2":400,"px":4,"rank":12,"persistent":false},"geometry":{"type":"Polygon","coordinates":[[[-122.957038,46.110088],[-122.957038,46.110178],[-122.956957,46.110182],[-122.956912,46.110216],[-122.956909,46.110358],[-122.956802,46.110373],[-122.956779,46.110447],[-122.95665,46.110447],[-122.95665,46.110358],[-122.956732,46.110353],[-122.956776,46.110319],[-122.95678,46.110178],[-122.956886,46.110162],[-122.956909,46.110088],[-122.957038,46.110088]]]}},{"type":"Feature","properties":{"id":12,"area_m2":400,"px":4,"rank":13,"persistent":false},"geometry":{"type":"Polygon","coordinates":[[[-122.946947,46.108283],[-122.946947,46.108373],[-122.946559,46.108373],[-122.946559,46.108193],[-122.946688,46.108193],[-122.946694,46.10825],[-122.946743,46.108281],[-122.946947,46.108283]]]}},{"type":"Feature","properties":{"id":8,"area_m2":300,"px":3,"rank":14,"persistent":false},"geometry":{"type":"Polygon","coordinates":[[[-122.957297,46.109818],[-122.957297,46.109908],[-122.957191,46.109924],[-122.957168,46.109998],[-122.957039,46.109998],[-122.957039,46.109818],[-122.957297,46.109818]]]}},{"type":"Feature","properties":{"id":9,"area_m2":300,"px":3,"rank":15,"persistent":false},"geometry":{"type":"Polygon","coordinates":[[[-122.957556,46.109548],[-122.957556,46.109638],[-122.95745,46.109654],[-122.957427,46.109728],[-122.957298,46.109728],[-122.957298,46.109548],[-122.957556,46.109548]]]}},{"type":"Feature","properties":{"id":11,"area_m2":300,"px":3,"rank":16,"persistent":false},"geometry":{"type":"Polygon","coordinates":[[[-122.955875,46.108647],[-122.955875,46.108917],[-122.955746,46.108917],[-122.955746,46.108647],[-122.955875,46.108647]]]}},{"type":"Feature","properties":{"id":13,"area_m2":300,"px":3,"rank":17,"persistent":false},"geometry":{"type":"Polygon","coordinates":[[[-122.955358,46.107567],[-122.955358,46.107657],[-122.955231,46.107657],[-122.955206,46.107583],[-122.9551,46.107567],[-122.9551,46.107387],[-122.955229,46.107387],[-122.955238,46.107538],[-122.955284,46.107565],[-122.955358,46.107567]]]}}]}