{"type":"FeatureCollection","features":[{"type":"Feature","properties":{"id":7,"area_m2":20600,"px":206,"rank":1,"persistent":true},"geometry":{"type":"Polygon","coordinates":[[[-122.95497,46.108287],[-122.954969,46.108557],[-122.954752,46.108563],[-122.954714,46.108595],[-122.95471,46.108647],[-122.9545,46.108651],[-122.954458,46.10868],[-122.954452,46.108737],[-122.954248,46.108739],[-122.954199,46.10877],[-122.954193,46.108826],[-122.953968,46.108836],[-122.953934,46.108916],[-122.953546,46.108916],[-122.953537,46.108765],[-122.953491,46.108739],[-122.953417,46.108736],[-122.953407,46.108585],[-122.953361,46.108559],[-122.953287,46.108556],[-122.953278,46.108405],[-122.953232,46.108378],[-122.953158,46.108376],[-122.953152,46.108229],[-122.95311,46.1082],[-122.953029,46.108196],[-122.953025,46.108054],[-122.952981,46.10802],[-122.9529,46.108016],[-122.952887,46.10786],[-122.95277,46.107836],[-122.952771,46.107566],[-122.952877,46.10755],[-122.9529,46.107476],[-122.953016,46.107452],[-122.953029,46.107386],[-122.95337,46.107382],[-122.953412,46.107353],[-122.953418,46.107296],[-122.953648,46.107284],[-122.953677,46.107206],[-122.953793,46.107182],[-122.953806,46.107116],[-122.954065,46.107116],[-122.954087,46.107191],[-122.954194,46.107207],[-122.954207,46.107362],[-122.954323,46.107387],[-122.954336,46.107543],[-122.954453,46.107567],[-122.954462,46.107718],[-122.954508,46.107744],[-122.954582,46.107747],[-122.954591,46.107898],[-122.954637,46.107924],[-122.954711,46.107927],[-122.95472,46.108078],[-122.954766,46.108104],[-122.95484,46.108107],[-122.954849,46.108258],[-122.954895,46.108284],[-122.95497,46.108287]]]}},{"type":"Feature","properties":{"id":12,"area_m2":12600,"px":126,"rank":2,"persistent":true},"geometry":{"type":"Polygon","coordinates":[[[-122.946564,46.102523],[-122.946564,46.102793],[-122.94649,46.102795],[-122.946444,46.102822],[-122.946434,46.102973],[-122.946353,46.102977],[-122.946308,46.103011],[-122.946305,46.103153],[-122.945787,46.103153],[-122.945784,46.103101],[-122.945746,46.103069],[-122.945529,46.103063],[-122.945516,46.102997],[-122.9454,46.102972],[-122.945396,46.102921],[-122.945358,46.102889],[-122.945141,46.102882],[-122.945112,46.102805],[-122.944882,46.102792],[-122.944876,46.102736],[-122.944834,46.102706],[-122.944623,46.102702],[-122.944601,46.102628],[-122.944494,46.102612],[-122.944494,46.102342],[-122.944569,46.10234],[-122.944615,46.102314],[-122.944624,46.102162],[-122.944705,46.102158],[-122.94475,46.102124],[-122.944754,46.101982],[-122.945142,46.101982],[-122.945145,46.102034],[-122.945183,46.102066],[-122.9454,46.102073],[-122.945404,46.102124],[-122.945441,46.102156],[-122.945659,46.102163],[-122.945662,46.102214],[-122.9457,46.102246],[-122.945918,46.102253],[-122.945952,46.102334],[-122.946176,46.102343],[-122.946211,46.102424],[-122.946435,46.102433],[-122.946458,46.102507],[-122.946564,46.102523]]]}},{"type":"Feature","properties":{"id":1,"area_m2":11800,"px":118,"rank":3,"persistent":true},"geometry":{"type":"Polygon","coordinates":[[[-122.941509,46.111431],[-122.941509,46.111521],[-122.94142,46.111527],[-122.941381,46.111564],[-122.941379,46.111791],[-122.941267,46.11181],[-122.941249,46.111971],[-122.941168,46.111975],[-122.941126,46.112004],[-122.94112,46.112151],[-122.940732,46.11215],[-122.940728,46.112099],[-122.940691,46.112067],[-122.940473,46.11206],[-122.940467,46.112004],[-122.940418,46.111973],[-122.940214,46.11197],[-122.940215,46.1117],[-122.940326,46.11168],[-122.940344,46.11152],[-122.940426,46.111516],[-122.940468,46.111487],[-122.940474,46.11116],[-122.940581,46.111144],[-122.940636,46.111038],[-122.940604,46.11098],[-122.940604,46.11071],[-122.940716,46.110691],[-122.940734,46.11053],[-122.940822,46.110524],[-122.940861,46.110487],[-122.940857,46.110384],[-122.940815,46.110355],[-122.940734,46.11035],[-122.940734,46.11026],[-122.940992,46.110261],[-122.941015,46.110425],[-122.941251,46.110441],[-122.941274,46.110515],[-122.94138,46.110531],[-122.94138,46.110801],[-122.941285,46.11081],[-122.941251,46.110855],[-122.941256,46.111037],[-122.941298,46.111067],[-122.94138,46.111071],[-122.94138,46.111251],[-122.941263,46.111275],[-122.941251,46.111382],[-122.941305,46.111428],[-122.941509,46.111431]]]}},{"type":"Feature","properties":{"id":8,"area_m2":10400,"px":104,"rank":4,"persistent":true},"geometry":{"type":"Polygon","coordinates":[[[-122.943973,46.106392],[-122.943973,46.106482],[-122.943878,46.106491],[-122.943843,46.106572],[-122.943769,46.106574],[-122.943723,46.1066],[-122.943713,46.106752],[-122.943632,46.106756],[-122.943587,46.10679],[-122.943584,46.106932],[-122.943496,46.106938],[-122.943456,46.106975],[-122.943454,46.107382],[-122.943359,46.107391],[-122.943325,46.107436],[-122.943338,46.107538],[-122.943454,46.107562],[-122.943454,46.107832],[-122.943359,46.107841],[-122.943324,46.107922],[-122.94325,46.107924],[-122.943204,46.10795],[-122.943195,46.108102],[-122.943078,46.108126],[-122.943065,46.108281],[-122.942984,46.108286],[-122.942939,46.10832],[-122.942935,46.108461],[-122.942854,46.108466],[-122.942812,46.108495],[-122.942806,46.108641],[-122.942699,46.108657],[-122.942676,46.108731],[-122.94256,46.108755],[-122.942547,46.108821],[-122.942418,46.108821],[-122.942383,46.10874],[-122.942159,46.108731],[-122.942136,46.108657],[-122.94203,46.108641],[-122.94203,46.108461],[-122.942125,46.108452],[-122.942159,46.108371],[-122.942275,46.108347],[-122.942289,46.108191],[-122.94237,46.108187],[-122.942415,46.108153],[-122.942418,46.108011],[-122.9425,46.108007],[-122.942542,46.107978],[-122.942548,46.107831],[-122.942629,46.107827],[-122.942671,46.107798],[-122.942678,46.107651],[-122.942759,46.107647],[-122.942801,46.107618],[-122.942807,46.107471],[-122.942902,46.107462],[-122.942937,46.107381],[-122.943018,46.107377],[-122.94306,46.107348],[-122.943065,46.107155],[-122.943025,46.107118],[-122.942937,46.107111],[-122.942937,46.106931],[-122.943066,46.106932],[-122.943072,46.106988],[-122.943121,46.107019],[-122.943297,46.107009],[-122.943325,46.106932],[-122.943407,46.106928],[-122.943451,46.106893],[-122.943455,46.106662],[-122.94355,46.106653],[-122.943584,46.106572],[-122.943666,46.106568],[-122.943708,46.106538],[-122.943714,46.106302],[-122.943843,46.106302],[-122.943866,46.106376],[-122.943973,46.106392]]]}},{"type":"Feature","properties":{"id":11,"area_m2":4400,"px":44,"rank":5,"persistent":true},"geometry":{"type":"Polygon","coordinates":[[[-122.955747,46.106577],[-122.955747,46.106667],[-122.955641,46.106683],[-122.955618,46.106757],[-122.955501,46.106781],[-122.955488,46.106847],[-122.955359,46.106847],[-122.955346,46.106781],[-122.95523,46.106757],[-122.955195,46.106676],[-122.954971,46.106667],[-122.954965,46.10661],[-122.954916,46.106579],[-122.954712,46.106577],[-122.95469,46.106502],[-122.954583,46.106487],[-122.954548,46.106406],[-122.954454,46.106397],[-122.954454,46.106127],[-122.95456,46.106111],[-122.954583,46.106037],[-122.954842,46.106037],[-122.954855,46.106103],[-122.954971,46.106127],[-122.954975,46.106178],[-122.955012,46.10621],[-122.955359,46.106217],[-122.955377,46.106377],[-122.955489,46.106397],[-122.955523,46.106478],[-122.955618,46.106487],[-122.955646,46.106565],[-122.955747,46.106577]]]}},{"type":"Feature","properties":{"id":3,"area_m2":3400,"px":34,"rank":6,"persistent":true},"geometry":{"type":"Polygon","coordinates":[[[-122.951732,46.111346],[-122.951732,46.111615],[-122.951625,46.111631],[-122.951602,46.111705],[-122.951473,46.111705],[-122.95147,46.111654],[-122.951432,46.111622],[-122.951214,46.111615],[-122.951208,46.111559],[-122.951159,46.111528],[-122.950955,46.111525],[-122.950942,46.111459],[-122.950826,46.111435],[-122.950823,46.111383],[-122.950785,46.111352],[-122.950567,46.111345],[-122.950568,46.111075],[-122.950956,46.111075],[-122.950959,46.111127],[-122.950997,46.111159],[-122.951214,46.111165],[-122.951224,46.111227],[-122.951277,46.111254],[-122.951603,46.111256],[-122.951625,46.11133],[-122.951732,46.111346]]]}},{"type":"Feature","properties":{"id":6,"area_m2":1500,"px":15,"rank":7,"persistent":false},"geometry":{"type":"Polygon","coordinates":[[[-122.954969,46.109187],[-122.954969,46.109367],[-122.954733,46.109383],[-122.95471,46.109547],[-122.954451,46.109547],[-122.954428,46.109472],[-122.954322,46.109457],[-122.954322,46.109187],[-122.954429,46.109171],[-122.954451,46.109097],[-122.95471,46.109097],[-122.954716,46.109167],[-122.95477,46.109199],[-122.954969,46.109187]]]}},{"type":"Feature","properties":{"id":9,"area_m2":1200,"px":12,"rank":8,"persistent":false},"geometry":{"type":"Polygon","coordinates":[[[-122.952252,46.107926],[-122.952252,46.108016],[-122.952146,46.108031],[-122.952123,46.108106],[-122.951994,46.108106],[-122.951988,46.108049],[-122.951939,46.108018],[-122.951606,46.108015],[-122.951606,46.107835],[-122.95168,46.107833],[-122.951726,46.107807],[-122.951735,46.107656],[-122.951865,46.107656],[-122.951887,46.10773],[-122.951994,46.107746],[-122.952017,46.10791],[-122.952252,46.107926]]]}},{"type":"Feature","properties":{"id":13,"area_m2":500,"px":5,"rank":9,"persistent":false},"geometry":{"type":"Polygon","coordinates":[[[-122.941389,46.102701],[-122.941388,46.10297],[-122.941282,46.102986],[-122.941259,46.10306],[-122.94113,46.10306],[-122.94113,46.10288],[-122.941204,46.102878],[-122.94125,46.102852],[-122.941259,46.102701],[-122.941389,46.102701]]]}},{"type":"Feature","properties":{"id":4,"area_m2":400,"px":4,"rank":10,"persistent":false},"geometry":{"type":"Polygon","coordinates":[[[-122.952379,46.111436],[-122.952379,46.111526],[-122.951991,46.111526],[-122.951991,46.111436],[-122.952097,46.11142],[-122.95212,46.111346],[-122.95225,46.111346],[-122.952272,46.11142],[-122.952379,46.111436]]]}},{"type":"Feature","properties":{"id":2,"area_m2":300,"px":3,"rank":11,"persistent":false},"geometry":{"type":"Polygon","coordinates":[[[-122.952117,46.111707],[-122.952085,46.111753],[-122.95212,46.111796],[-122.95212,46.111886],[-122.95199,46.111886],[-122.951968,46.111811],[-122.951861,46.111796],[-122.951861,46.111706],[-122.951968,46.11169],[-122.951991,46.111616],[-122.952118,46.111616],[-122.952117,46.111707]]]}},{"type":"Feature","properties":{"id":5,"area_m2":300,"px":3,"rank":12,"persistent":false},"geometry":{"type":"Polygon","coordinates":[[[-122.953544,46.111256],[-122.953543,46.111436],[-122.953414,46.111436],[-122.953391,46.111362],[-122.953285,46.111346],[-122.953285,46.111256],[-122.953544,46.111256]]]}},{"type":"Feature","properties":{"id":10,"area_m2":300,"px":3,"rank":13,"persistent":false},"geometry":{"type":"Polygon","coordinates":[[[-122.945136,46.107383],[-122.945136,46.107562],[-122.945007,46.107562],[-122.944984,46.107488],[-122.944877,46.107472],[-122.944878,46.107382],[-122.945136,46.107383]]]}}]}