{"type":"FeatureCollection","features":[{"type":"Feature","properties":{"id":9,"area_m2":21600,"px":216,"rank":1,"persistent":true},"geometry":{"type":"Polygon","coordinates":[[[-122.954969,46.108377],[-122.954969,46.108647],[-122.954863,46.108663],[-122.95484,46.108737],[-122.954629,46.108741],[-122.954587,46.10877],[-122.954581,46.108827],[-122.95437,46.108831],[-122.954328,46.10886],[-122.954322,46.108917],[-122.954111,46.108921],[-122.954069,46.10895],[-122.954063,46.109006],[-122.95386,46.109009],[-122.95381,46.10904],[-122.953804,46.109096],[-122.953675,46.109096],[-122.953652,46.109022],[-122.953546,46.109006],[-122.953511,46.108925],[-122.953416,46.108916],[-122.953411,46.10868],[-122.953369,46.10865],[-122.953287,46.108646],[-122.953284,46.108504],[-122.953239,46.10847],[-122.953158,46.108466],[-122.953145,46.10831],[-122.953029,46.108286],[-122.952994,46.108205],[-122.952899,46.108196],[-122.95289,46.108045],[-122.952844,46.108018],[-122.95277,46.108016],[-122.952753,46.107856],[-122.952641,46.107836],[-122.952641,46.107656],[-122.952852,46.107652],[-122.952894,46.107623],[-122.9529,46.107566],[-122.95313,46.107554],[-122.953159,46.107476],[-122.953376,46.10747],[-122.953414,46.107438],[-122.953418,46.107386],[-122.953534,46.107362],[-122.953547,46.107296],[-122.953765,46.10729],[-122.953803,46.107258],[-122.953806,46.107206],[-122.954065,46.107206],[-122.954087,46.107281],[-122.954194,46.107297],[-122.954207,46.107452],[-122.954323,46.107477],[-122.954336,46.107633],[-122.954452,46.107657],[-122.954462,46.107808],[-122.954507,46.107834],[-122.954582,46.107837],[-122.954591,46.107988],[-122.954637,46.108014],[-122.954711,46.108017],[-122.95472,46.108168],[-122.954766,46.108194],[-122.95484,46.108197],[-122.954849,46.108348],[-122.954895,46.108374],[-122.954969,46.108377]]]}},{"type":"Feature","properties":{"id":10,"area_m2":18700,"px":187,"rank":2,"persistent":true},"geometry":{"type":"Polygon","coordinates":[[[-122.944357,46.107024],[-122.944326,46.10707],[-122.94436,46.107112],[-122.94436,46.107382],[-122.944286,46.107384],[-122.94424,46.107411],[-122.94423,46.107562],[-122.944149,46.107566],[-122.944104,46.1076],[-122.944101,46.107742],[-122.943994,46.107758],[-122.943971,46.107832],[-122.943502,46.107836],[-122.94346,46.107865],[-122.943453,46.107922],[-122.943342,46.107941],[-122.943324,46.108102],[-122.943243,46.108106],[-122.943198,46.10814],[-122.943194,46.108282],[-122.943113,46.108286],[-122.943071,46.108315],[-122.943065,46.108461],[-122.942983,46.108466],[-122.942941,46.108495],[-122.942935,46.108641],[-122.942854,46.108646],[-122.942812,46.108675],[-122.942806,46.108821],[-122.942699,46.108837],[-122.942674,46.108911],[-122.942288,46.108911],[-122.942285,46.108859],[-122.942247,46.108827],[-122.942029,46.108821],[-122.94203,46.108641],[-122.942118,46.108635],[-122.942157,46.108598],[-122.942159,46.108371],[-122.942348,46.108371],[-122.942405,46.108347],[-122.942418,46.108101],[-122.942493,46.108099],[-122.942538,46.108073],[-122.942548,46.107921],[-122.942643,46.107912],[-122.942677,46.107831],[-122.942752,46.107829],[-122.942798,46.107803],[-122.942807,46.107561],[-122.942902,46.107552],[-122.942937,46.107471],[-122.943018,46.107467],[-122.943063,46.107433],[-122.943057,46.10732],[-122.943011,46.107294],[-122.942937,46.107291],[-122.942902,46.107211],[-122.942807,46.107201],[-122.942808,46.107111],[-122.942914,46.107096],[-122.942939,46.107021],[-122.943066,46.107022],[-122.943072,46.107078],[-122.943121,46.107109],[-122.943302,46.107096],[-122.943325,46.106932],[-122.943442,46.106908],[-122.943455,46.106752],[-122.943571,46.106728],[-122.943584,46.106572],[-122.943691,46.106556],[-122.943714,46.106482],[-122.943973,46.106482],[-122.943982,46.106723],[-122.944035,46.106751],[-122.944231,46.106752],[-122.944254,46.106826],[-122.94436,46.106842],[-122.944357,46.107024]]]}},{"type":"Feature","properties":{"id":15,"area_m2":14000,"px":140,"rank":3,"persistent":true},"geometry":{"type":"Polygon","coordinates":[[[-122.946693,46.102703],[-122.946693,46.102793],[-122.946612,46.102797],[-122.946567,46.102831],[-122.946564,46.102973],[-122.946482,46.102977],[-122.94644,46.103006],[-122.946434,46.103153],[-122.946353,46.103157],[-122.946311,46.103186],[-122.946305,46.103333],[-122.945917,46.103333],[-122.945913,46.103281],[-122.945876,46.103249],[-122.945658,46.103243],[-122.945623,46.103162],[-122.945399,46.103152],[-122.945393,46.103096],[-122.945344,46.103065],[-122.945141,46.103062],[-122.945135,46.103006],[-122.945093,46.102977],[-122.944882,46.102972],[-122.944876,46.102916],[-122.944834,46.102886],[-122.944623,46.102882],[-122.944601,46.102808],[-122.944494,46.102792],[-122.944459,46.102711],[-122.944365,46.102702],[-122.944365,46.102612],[-122.944439,46.10261],[-122.944485,46.102584],[-122.944494,46.102432],[-122.944606,46.102412],[-122.944624,46.102252],[-122.944705,46.102248],[-122.944747,46.102219],[-122.944753,46.102072],[-122.945141,46.102072],[-122.945145,46.102124],[-122.945182,46.102156],[-122.9454,46.102163],[-122.945406,46.102219],[-122.945455,46.10225],[-122.945659,46.102253],[-122.945672,46.102319],[-122.945788,46.102343],[-122.945791,46.102394],[-122.945829,46.102426],[-122.946176,46.102433],[-122.946189,46.102499],[-122.946305,46.102523],[-122.946334,46.102601],[-122.946564,46.102613],[-122.946587,46.102687],[-122.946693,46.102703]]]}},{"type":"Feature","properties":{"id":2,"area_m2":10300,"px":103,"rank":4,"persistent":true},"geometry":{"type":"Polygon","coordinates":[[[-122.941638,46.111521],[-122.941638,46.111611],[-122.941557,46.111615],[-122.941512,46.111649],[-122.941508,46.111791],[-122.941427,46.111795],[-122.941385,46.111824],[-122.941379,46.111971],[-122.941284,46.11198],[-122.941249,46.112061],[-122.941168,46.112065],[-122.941126,46.112094],[-122.94112,46.112331],[-122.940861,46.11233],[-122.940827,46.11225],[-122.940602,46.11224],[-122.940568,46.112159],[-122.940344,46.11215],[-122.940321,46.112076],[-122.940214,46.11206],[-122.940215,46.11179],[-122.94036,46.111798],[-122.940344,46.111921],[-122.940372,46.111958],[-122.940532,46.11197],[-122.940599,46.111932],[-122.940601,46.111834],[-122.940562,46.111797],[-122.940458,46.111783],[-122.940473,46.1117],[-122.940592,46.111689],[-122.940612,46.111762],[-122.940665,46.111789],[-122.940806,46.111788],[-122.940858,46.111752],[-122.940861,46.111645],[-122.940834,46.111609],[-122.940603,46.11161],[-122.940603,46.11134],[-122.940685,46.111336],[-122.940727,46.111307],[-122.940729,46.111109],[-122.94067,46.111071],[-122.940474,46.11107],[-122.940474,46.110982],[-122.940556,46.110976],[-122.9406,46.110942],[-122.940604,46.11071],[-122.940711,46.110695],[-122.940733,46.11062],[-122.94085,46.110596],[-122.940863,46.11053],[-122.941251,46.110531],[-122.941274,46.110695],[-122.94151,46.110711],[-122.941509,46.110801],[-122.941428,46.110805],[-122.941383,46.110839],[-122.94138,46.110981],[-122.941154,46.110976],[-122.941101,46.11111],[-122.941163,46.11116],[-122.941509,46.111161],[-122.941509,46.111341],[-122.941477,46.111399],[-122.941532,46.111505],[-122.941638,46.111521]]]}},{"type":"Feature","properties":{"id":13,"area_m2":5700,"px":57,"rank":5,"persistent":true},"geometry":{"type":"Polygon","coordinates":[[[-122.955877,46.106667],[-122.955877,46.106757],[-122.955782,46.106766],[-122.955747,46.106847],[-122.955673,46.106849],[-122.955627,46.106876],[-122.955618,46.107027],[-122.955359,46.107027],[-122.955346,46.106961],[-122.95523,46.106937],[-122.955226,46.106885],[-122.955189,46.106853],[-122.954841,46.106847],[-122.954824,46.106686],[-122.954771,46.106667],[-122.954583,46.106667],[-122.95456,46.106592],[-122.954454,46.106577],[-122.954419,46.106496],[-122.954324,46.106486],[-122.954324,46.106397],[-122.954398,46.106394],[-122.954444,46.106368],[-122.954454,46.106217],[-122.954971,46.106217],[-122.954977,46.106273],[-122.955026,46.106304],[-122.955359,46.106307],[-122.955382,46.106471],[-122.955618,46.106487],[-122.955641,46.106561],[-122.955747,46.106577],[-122.955782,46.106658],[-122.955877,46.106667]]]}},{"type":"Feature","properties":{"id":5,"area_m2":4300,"px":43,"rank":6,"persistent":true},"geometry":{"type":"Polygon","coordinates":[[[-122.951861,46.111526],[-122.951861,46.111616],[-122.95178,46.11162],[-122.951735,46.111654],[-122.951732,46.111795],[-122.951343,46.111795],[-122.95134,46.111744],[-122.951302,46.111712],[-122.951085,46.111705],[-122.951056,46.111628],[-122.950826,46.111615],[-122.95082,46.111559],[-122.950778,46.111529],[-122.950567,46.111525],[-122.950545,46.111451],[-122.950438,46.111435],[-122.950438,46.111345],[-122.950512,46.111343],[-122.950558,46.111317],[-122.950568,46.111165],[-122.950956,46.111165],[-122.950984,46.111243],[-122.951214,46.111255],[-122.95122,46.111312],[-122.951269,46.111343],[-122.951732,46.111346],[-122.951741,46.111497],[-122.951787,46.111523],[-122.951861,46.111526]]]}},{"type":"Feature","properties":{"id":8,"area_m2":2400,"px":24,"rank":7,"persistent":false},"geometry":{"type":"Polygon","coordinates":[[[-122.954969,46.109367],[-122.954968,46.109547],[-122.954862,46.109563],[-122.954839,46.109637],[-122.954723,46.109661],[-122.95471,46.109727],[-122.954451,46.109727],[-122.954428,46.109652],[-122.954322,46.109637],[-122.954287,46.109556],[-122.954192,46.109546],[-122.954192,46.109367],[-122.954299,46.109351],[-122.954322,46.109277],[-122.954438,46.109253],[-122.954451,46.109187],[-122.95471,46.109187],[-122.954733,46.109261],[-122.954839,46.109277],[-122.954874,46.109358],[-122.954969,46.109367]]]}},{"type":"Feature","properties":{"id":11,"area_m2":1400,"px":14,"rank":8,"persistent":false},"geometry":{"type":"Polygon","coordinates":[[[-122.952252,46.108016],[-122.952252,46.108196],[-122.951864,46.108195],[-122.951861,46.108144],[-122.951823,46.108112],[-122.951606,46.108105],[-122.951606,46.107925],[-122.95168,46.107923],[-122.951726,46.107897],[-122.951735,46.107746],[-122.951864,46.107746],[-122.951887,46.10782],[-122.951994,46.107836],[-122.952016,46.108],[-122.952252,46.108016]]]}},{"type":"Feature","properties":{"id":3,"area_m2":1100,"px":11,"rank":9,"persistent":false},"geometry":{"type":"Polygon","coordinates":[[[-122.952379,46.111526],[-122.952379,46.111616],[-122.95229,46.111622],[-122.952251,46.111659],[-122.952249,46.111886],[-122.952142,46.111902],[-122.95212,46.111976],[-122.951861,46.111976],[-122.951861,46.111796],[-122.951956,46.111787],[-122.951991,46.111706],[-122.952072,46.111702],[-122.952117,46.111667],[-122.95212,46.111436],[-122.952249,46.111436],[-122.952272,46.11151],[-122.952379,46.111526]]]}},{"type":"Feature","properties":{"id":12,"area_m2":700,"px":7,"rank":10,"persistent":false},"geometry":{"type":"Polygon","coordinates":[[[-122.955617,46.107477],[-122.955617,46.107657],[-122.955358,46.107657],[-122.955336,46.107583],[-122.955229,46.107567],[-122.955229,46.107387],[-122.955488,46.107387],[-122.955511,46.107461],[-122.955617,46.107477]]]}},{"type":"Feature","properties":{"id":14,"area_m2":500,"px":5,"rank":11,"persistent":false},"geometry":{"type":"Polygon","coordinates":[[[-122.942423,46.103241],[-122.942423,46.103421],[-122.942349,46.103423],[-122.942303,46.10345],[-122.942293,46.103601],[-122.942164,46.103601],[-122.942164,46.103331],[-122.942271,46.103315],[-122.942294,46.103241],[-122.942423,46.103241]]]}},{"type":"Feature","properties":{"id":1,"area_m2":400,"px":4,"rank":12,"persistent":false},"geometry":{"type":"Polygon","coordinates":[[[-122.953801,46.112426],[-122.953801,46.112606],[-122.953543,46.112606],[-122.953543,46.112426],[-122.953801,46.112426]]]}},{"type":"Feature","properties":{"id":16,"area_m2":400,"px":4,"rank":13,"persistent":false},"geometry":{"type":"Polygon","coordinates":[[[-122.941388,46.102881],[-122.941388,46.10306],[-122.941282,46.103076],[-122.941259,46.10315],[-122.94113,46.10315],[-122.94113,46.10297],[-122.941236,46.102955],[-122.941259,46.102881],[-122.941388,46.102881]]]}},{"type":"Feature","properties":{"id":4,"area_m2":300,"px":3,"rank":14,"persistent":false},"geometry":{"type":"Polygon","coordinates":[[[-122.953026,46.111616],[-122.953025,46.111886],[-122.952896,46.111886],[-122.952896,46.111616],[-122.953026,46.111616]]]}},{"type":"Feature","properties":{"id":6,"area_m2":300,"px":3,"rank":15,"persistent":false},"geometry":{"type":"Polygon","coordinates":[[[-122.953543,46.111436],[-122.953543,46.111526],[-122.953285,46.111526],[-122.953285,46.111346],[-122.953414,46.111346],[-122.953437,46.11142],[-122.953543,46.111436]]]}},{"type":"Feature","properties":{"id":7,"area_m2":300,"px":3,"rank":16,"persistent":false},"geometry":{"type":"Polygon","coordinates":[[[-122.95458,46.110357],[-122.954579,46.110537],[-122.954321,46.110537],[-122.954321,46.110447],[-122.954428,46.110431],[-122.95445,46.110357],[-122.95458,46.110357]]]}}]}