{"type":"FeatureCollection","features":[{"type":"Feature","properties":{"id":4,"area_m2":8300,"px":83,"rank":1,"persistent":false},"geometry":{"type":"Polygon","coordinates":[[[-122.948497,46.111434],[-122.948497,46.111524],[-122.948367,46.111524],[-122.948299,46.1115],[-122.948101,46.111549],[-122.948114,46.111671],[-122.948156,46.1117],[-122.948238,46.111704],[-122.948238,46.111794],[-122.948131,46.11181],[-122.948108,46.111884],[-122.947992,46.111908],[-122.947979,46.111974],[-122.947461,46.111974],[-122.947461,46.111842],[-122.947427,46.111803],[-122.947073,46.111793],[-122.94707,46.111742],[-122.947032,46.11171],[-122.946814,46.111703],[-122.946834,46.111574],[-122.946801,46.111533],[-122.946556,46.111523],[-122.946556,46.110893],[-122.946686,46.110893],[-122.946695,46.110955],[-122.946748,46.110982],[-122.947332,46.110984],[-122.947367,46.111065],[-122.947591,46.111074],[-122.947597,46.11113],[-122.947646,46.111161],[-122.94785,46.111164],[-122.947856,46.111221],[-122.947898,46.11125],[-122.948238,46.111254],[-122.948261,46.111328],[-122.948367,46.111344],[-122.948402,46.111425],[-122.948497,46.111434]],[[-122.947332,46.111524],[-122.947528,46.111523],[-122.947585,46.11149],[-122.947591,46.111212],[-122.947543,46.111168],[-122.947273,46.111164],[-122.947209,46.111197],[-122.947203,46.111434],[-122.94717,46.111492],[-122.947248,46.111546],[-122.947332,46.111524]]]}},{"type":"Feature","properties":{"id":22,"area_m2":7200,"px":72,"rank":2,"persistent":false},"geometry":{"type":"Polygon","coordinates":[[[-122.961309,46.109189],[-122.961309,46.109279],[-122.961214,46.109288],[-122.96118,46.109333],[-122.961193,46.109435],[-122.961309,46.109459],[-122.961309,46.109639],[-122.961202,46.109655],[-122.961178,46.109729],[-122.96105,46.109729],[-122.961044,46.109672],[-122.960995,46.109641],[-122.960826,46.109648],[-122.960793,46.109682],[-122.960795,46.109781],[-122.960839,46.109815],[-122.960921,46.109819],[-122.960921,46.109909],[-122.960814,46.109925],[-122.960791,46.109999],[-122.960533,46.109999],[-122.960519,46.109933],[-122.960403,46.109909],[-122.9604,46.109857],[-122.960362,46.109825],[-122.960015,46.109819],[-122.960015,46.109639],[-122.960103,46.109632],[-122.960143,46.109595],[-122.960127,46.109388],[-122.960075,46.109369],[-122.959886,46.109369],[-122.95988,46.109312],[-122.959831,46.109281],[-122.959627,46.109279],[-122.959605,46.109204],[-122.959498,46.109188],[-122.959463,46.109108],[-122.959369,46.109098],[-122.959369,46.109009],[-122.959627,46.109009],[-122.959704,46.109032],[-122.959858,46.108996],[-122.959886,46.108919],[-122.960145,46.108919],[-122.960168,46.108993],[-122.960274,46.109009],[-122.96029,46.109091],[-122.960091,46.109085],[-122.960032,46.109105],[-122.960017,46.109235],[-122.960085,46.109278],[-122.960375,46.109267],[-122.960403,46.10923],[-122.960404,46.109099],[-122.960662,46.109099],[-122.96068,46.109169],[-122.960792,46.109189],[-122.960801,46.10925],[-122.960862,46.109279],[-122.961125,46.109277],[-122.961174,46.109246],[-122.96118,46.109189],[-122.961309,46.109189]]]}},{"type":"Feature","properties":{"id":25,"area_m2":3400,"px":34,"rank":3,"persistent":false},"geometry":{"type":"Polygon","coordinates":[[[-122.955228,46.108467],[-122.955228,46.108647],[-122.955133,46.108649],[-122.955087,46.108677],[-122.955098,46.108827],[-122.954969,46.108827],[-122.954946,46.108753],[-122.95484,46.108735],[-122.95484,46.108647],[-122.954947,46.108631],[-122.955002,46.108525],[-122.95497,46.108467],[-122.954964,46.10832],[-122.954922,46.108291],[-122.95484,46.108287],[-122.954834,46.10814],[-122.954792,46.108111],[-122.954711,46.108107],[-122.954705,46.10796],[-122.954663,46.107931],[-122.954582,46.107927],[-122.954576,46.10778],[-122.954534,46.107751],[-122.954453,46.107747],[-122.954447,46.1076],[-122.954405,46.107571],[-122.954323,46.107566],[-122.954317,46.10742],[-122.954275,46.107391],[-122.954194,46.107386],[-122.954191,46.107245],[-122.954146,46.107211],[-122.954065,46.107206],[-122.954065,46.107116],[-122.954194,46.107117],[-122.954255,46.107141],[-122.954324,46.107117],[-122.954453,46.107117],[-122.954456,46.107168],[-122.954494,46.1072],[-122.954712,46.107207],[-122.954712,46.107297],[-122.954523,46.107297],[-122.95447,46.107316],[-122.954456,46.107438],[-122.954501,46.107473],[-122.954582,46.107477],[-122.954617,46.107558],[-122.954711,46.107567],[-122.95474,46.107644],[-122.954841,46.107657],[-122.954844,46.107888],[-122.954888,46.107923],[-122.95497,46.107927],[-122.954971,46.108153],[-122.955011,46.10819],[-122.955099,46.108197],[-122.955105,46.108434],[-122.955147,46.108463],[-122.955228,46.108467]]]}},{"type":"Feature","properties":{"id":10,"area_m2":2200,"px":22,"rank":4,"persistent":false},"geometry":{"type":"Polygon","coordinates":[[[-122.958591,46.110988],[-122.958591,46.111078],[-122.95849,46.11109],[-122.958461,46.111168],[-122.958366,46.111177],[-122.958332,46.111222],[-122.958349,46.111328],[-122.958461,46.111348],[-122.958495,46.111429],[-122.95859,46.111438],[-122.95859,46.111528],[-122.958006,46.111529],[-122.957952,46.111557],[-122.957943,46.111618],[-122.957814,46.111618],[-122.957814,46.111528],[-122.957902,46.111522],[-122.957942,46.111485],[-122.957944,46.111078],[-122.958269,46.111077],[-122.958323,46.11105],[-122.958332,46.110988],[-122.958591,46.110988]]]}},{"type":"Feature","properties":{"id":30,"area_m2":2100,"px":21,"rank":5,"persistent":false},"geometry":{"type":"Polygon","coordinates":[[[-122.954065,46.106936],[-122.954065,46.107026],[-122.953983,46.107031],[-122.953939,46.107065],[-122.953935,46.107206],[-122.953595,46.10721],[-122.953553,46.10724],[-122.953547,46.107296],[-122.953431,46.10732],[-122.953417,46.107386],[-122.953077,46.10739],[-122.953035,46.107419],[-122.953029,46.107476],[-122.952913,46.1075],[-122.9529,46.107566],[-122.952696,46.107568],[-122.952647,46.107599],[-122.952641,46.107656],[-122.952512,46.107656],[-122.952512,46.107566],[-122.952613,46.107554],[-122.952641,46.107476],[-122.952736,46.107467],[-122.952771,46.107386],[-122.952887,46.107362],[-122.9529,46.107206],[-122.95303,46.107206],[-122.953098,46.10723],[-122.953159,46.107206],[-122.953363,46.107204],[-122.953412,46.107173],[-122.953418,46.107116],[-122.953534,46.107092],[-122.953547,46.107026],[-122.953873,46.107025],[-122.953926,46.106998],[-122.953936,46.106936],[-122.954065,46.106936]]]}},{"type":"Feature","properties":{"id":7,"area_m2":1900,"px":19,"rank":6,"persistent":false},"geometry":{"type":"Polygon","coordinates":[[[-122.957297,46.111078],[-122.957296,46.111258],[-122.957202,46.111267],[-122.957167,46.111312],[-122.957173,46.111494],[-122.957215,46.111524],[-122.957296,46.111528],[-122.957296,46.111708],[-122.957167,46.111708],[-122.957154,46.111642],[-122.957037,46.111618],[-122.957032,46.111561],[-122.956982,46.11153],[-122.95652,46.111527],[-122.95652,46.111438],[-122.956627,46.111422],[-122.956649,46.111348],[-122.956744,46.111338],[-122.956779,46.111258],[-122.956891,46.111238],[-122.956908,46.111168],[-122.957112,46.111165],[-122.957161,46.111134],[-122.957167,46.111078],[-122.957297,46.111078]]]}},{"type":"Feature","properties":{"id":32,"area_m2":1600,"px":16,"rank":7,"persistent":false},"geometry":{"type":"Polygon","coordinates":[[[-122.954712,46.106757],[-122.954712,46.106847],[-122.954605,46.106862],[-122.954582,46.106937],[-122.954324,46.106936],[-122.954322,46.10662],[-122.954283,46.106583],[-122.954195,46.106576],[-122.954195,46.106217],[-122.954302,46.106201],[-122.954324,46.106127],[-122.954441,46.106103],[-122.954454,46.106037],[-122.954583,46.106037],[-122.954583,46.106127],[-122.954509,46.106129],[-122.954463,46.106155],[-122.954454,46.106307],[-122.954379,46.106309],[-122.954333,46.106335],[-122.954327,46.106462],[-122.954392,46.1065],[-122.954583,46.106487],[-122.954583,46.106577],[-122.954548,46.106624],[-122.954586,46.106718],[-122.954631,46.106753],[-122.954712,46.106757]]]}},{"type":"Feature","properties":{"id":12,"area_m2":1500,"px":15,"rank":8,"persistent":false},"geometry":{"type":"Polygon","coordinates":[[[-122.95212,46.111346],[-122.95212,46.111436],[-122.952013,46.111451],[-122.951991,46.111526],[-122.951861,46.111526],[-122.95186,46.111389],[-122.95182,46.111352],[-122.951603,46.111345],[-122.951593,46.111284],[-122.95154,46.111257],[-122.951085,46.111255],[-122.951062,46.111181],[-122.950956,46.111165],[-122.950952,46.111024],[-122.950908,46.110989],[-122.950827,46.110985],[-122.950827,46.110895],[-122.951085,46.110895],[-122.951086,46.111027],[-122.95112,46.111066],[-122.951344,46.111075],[-122.95135,46.111132],[-122.951399,46.111163],[-122.951603,46.111166],[-122.951609,46.111222],[-122.951651,46.111251],[-122.951861,46.111256],[-122.951867,46.111312],[-122.951909,46.111342],[-122.95212,46.111346]]]}},{"type":"Feature","properties":{"id":21,"area_m2":1500,"px":15,"rank":9,"persistent":false},"geometry":{"type":"Polygon","coordinates":[[[-122.955097,46.110087],[-122.955097,46.110177],[-122.954991,46.110193],[-122.954968,46.110267],[-122.954764,46.110269],[-122.954715,46.1103],[-122.954709,46.110357],[-122.95458,46.110357],[-122.95458,46.109775],[-122.954539,46.109733],[-122.954451,46.109727],[-122.954451,46.109637],[-122.95458,46.109637],[-122.954586,46.109693],[-122.954635,46.109724],[-122.954839,46.109727],[-122.954839,46.109907],[-122.954804,46.109955],[-122.954848,46.110072],[-122.954906,46.1101],[-122.955097,46.110087]]]}},{"type":"Feature","properties":{"id":14,"area_m2":1400,"px":14,"rank":10,"persistent":false},"geometry":{"type":"Polygon","coordinates":[[[-122.94992,46.111165],[-122.94992,46.111255],[-122.949814,46.111271],[-122.949791,46.111345],[-122.949662,46.111345],[-122.949652,46.111283],[-122.949599,46.111256],[-122.949144,46.111254],[-122.949144,46.111074],[-122.949239,46.111072],[-122.949285,46.111045],[-122.949274,46.110895],[-122.949403,46.110895],[-122.949416,46.110961],[-122.949532,46.110985],[-122.949561,46.111062],[-122.949791,46.111075],[-122.949814,46.111149],[-122.94992,46.111165]]]}},{"type":"Feature","properties":{"id":28,"area_m2":1400,"px":14,"rank":11,"persistent":false},"geometry":{"type":"Polygon","coordinates":[[[-122.952253,46.107746],[-122.952252,46.107926],[-122.951994,46.107926],[-122.951991,46.107784],[-122.951916,46.107746],[-122.951776,46.107752],[-122.951738,46.107784],[-122.951735,46.107835],[-122.951623,46.107855],[-122.951605,46.108015],[-122.951476,46.108015],[-122.951453,46.107941],[-122.951347,46.107925],[-122.951347,46.107835],[-122.951536,46.107835],[-122.951588,46.107816],[-122.951606,46.107655],[-122.951712,46.10764],[-122.951735,46.107566],[-122.951865,46.107566],[-122.951926,46.10759],[-122.951994,46.107566],[-122.952123,46.107566],[-122.952133,46.107717],[-122.952178,46.107743],[-122.952253,46.107746]]]}},{"type":"Feature","properties":{"id":16,"area_m2":1200,"px":12,"rank":12,"persistent":false},"geometry":{"type":"Polygon","coordinates":[[[-122.958979,46.110628],[-122.958979,46.110718],[-122.958653,46.110719],[-122.9586,46.110747],[-122.958591,46.110808],[-122.958462,46.110808],[-122.958456,46.110482],[-122.958399,46.110449],[-122.958203,46.110448],[-122.958203,46.110358],[-122.95831,46.110342],[-122.958333,46.110268],[-122.958462,46.110268],[-122.958484,46.110432],[-122.95872,46.110448],[-122.958722,46.110585],[-122.958761,46.110622],[-122.958979,46.110628]]]}},{"type":"Feature","properties":{"id":18,"area_m2":1200,"px":12,"rank":13,"persistent":false},"geometry":{"type":"Polygon","coordinates":[[[-122.961826,46.110359],[-122.961826,46.110449],[-122.961567,46.110449],[-122.961484,46.110427],[-122.961331,46.110465],[-122.961308,46.110539],[-122.961179,46.110539],[-122.96117,46.110388],[-122.961124,46.110361],[-122.96105,46.110359],[-122.96105,46.110179],[-122.961309,46.110179],[-122.961318,46.110241],[-122.961371,46.110268],[-122.961697,46.110269],[-122.96172,46.110343],[-122.961826,46.110359]]]}},{"type":"Feature","properties":{"id":35,"area_m2":1200,"px":12,"rank":14,"persistent":false},"geometry":{"type":"Polygon","coordinates":[[[-122.955357,46.106038],[-122.955325,46.106085],[-122.955359,46.106127],[-122.955359,46.106307],[-122.955101,46.106307],[-122.955088,46.106241],[-122.954971,46.106217],[-122.954937,46.106136],[-122.954713,46.106127],[-122.954713,46.106037],[-122.954921,46.106036],[-122.954979,46.106012],[-122.954972,46.105857],[-122.955101,46.105857],[-122.955107,46.105913],[-122.955156,46.105945],[-122.95536,46.105947],[-122.955357,46.106038]]]}},{"type":"Feature","properties":{"id":19,"area_m2":1100,"px":11,"rank":15,"persistent":false},"geometry":{"type":"Polygon","coordinates":[[[-122.960273,46.110179],[-122.960273,46.110449],[-122.960056,46.110455],[-122.960018,46.110487],[-122.960013,46.110539],[-122.959885,46.110539],[-122.959862,46.110464],[-122.959756,46.110449],[-122.959756,46.110359],[-122.95979,46.110316],[-122.959756,46.110269],[-122.959756,46.110089],[-122.959885,46.110089],[-122.959887,46.110225],[-122.959948,46.110268],[-122.960096,46.110265],[-122.960138,46.110235],[-122.960144,46.110179],[-122.960273,46.110179]]]}},{"type":"Feature","properties":{"id":5,"area_m2":1000,"px":10,"rank":16,"persistent":false},"geometry":{"type":"Polygon","coordinates":[[[-122.958849,46.111708],[-122.958849,46.111798],[-122.958631,46.111805],[-122.958593,46.111837],[-122.95859,46.111888],[-122.958202,46.111888],[-122.958202,46.111708],[-122.95842,46.111702],[-122.958457,46.11167],[-122.958461,46.111618],[-122.95872,46.111618],[-122.958742,46.111692],[-122.958849,46.111708]]]}},{"type":"Feature","properties":{"id":3,"area_m2":700,"px":7,"rank":17,"persistent":false},"geometry":{"type":"Polygon","coordinates":[[[-122.950438,46.111525],[-122.950438,46.111615],[-122.950249,46.111615],[-122.950192,46.111639],[-122.950179,46.111795],[-122.950097,46.111799],[-122.950053,46.111833],[-122.950049,46.111975],[-122.94979,46.111975],[-122.949791,46.111885],[-122.949885,46.111876],[-122.94992,46.111795],[-122.950032,46.111775],[-122.95005,46.111615],[-122.950156,46.111599],[-122.950179,46.111525],[-122.950438,46.111525]]]}},{"type":"Feature","properties":{"id":29,"area_m2":700,"px":7,"rank":18,"persistent":false},"geometry":{"type":"Polygon","coordinates":[[[-122.956005,46.107567],[-122.956005,46.107657],[-122.955876,46.107657],[-122.955815,46.107633],[-122.955746,46.107657],[-122.955617,46.107657],[-122.955617,46.107297],[-122.955747,46.107297],[-122.955769,46.107371],[-122.955876,46.107387],[-122.955885,46.107539],[-122.955931,46.107565],[-122.956005,46.107567]]]}},{"type":"Feature","properties":{"id":31,"area_m2":700,"px":7,"rank":19,"persistent":false},"geometry":{"type":"Polygon","coordinates":[[[-122.947207,46.106754],[-122.947207,46.106933],[-122.946983,46.106942],[-122.946949,46.106982],[-122.946948,46.107113],[-122.946819,46.107113],[-122.946819,46.106843],[-122.946926,46.106828],[-122.946949,46.106753],[-122.947207,46.106754]]]}},{"type":"Feature","properties":{"id":34,"area_m2":700,"px":7,"rank":20,"persistent":false},"geometry":{"type":"Polygon","coordinates":[[[-122.955877,46.106307],[-122.955877,46.106487],[-122.95577,46.106503],[-122.955747,46.106577],[-122.955618,46.106577],[-122.955595,46.106503],[-122.955489,46.106487],[-122.955489,46.106217],[-122.955618,46.106217],[-122.955624,46.106287],[-122.955671,46.106318],[-122.955877,46.106307]]]}},{"type":"Feature","properties":{"id":2,"area_m2":600,"px":6,"rank":21,"persistent":false},"geometry":{"type":"Polygon","coordinates":[[[-122.956649,46.111708],[-122.956649,46.111887],[-122.956445,46.11189],[-122.956396,46.111921],[-122.95639,46.111977],[-122.956261,46.111977],[-122.956261,46.111797],[-122.956367,46.111782],[-122.95639,46.111707],[-122.956649,46.111708]]]}},{"type":"Feature","properties":{"id":9,"area_m2":600,"px":6,"rank":22,"persistent":false},"geometry":{"type":"Polygon","coordinates":[[[-122.960014,46.111439],[-122.960014,46.111529],[-122.959907,46.111545],[-122.959884,46.111619],[-122.959755,46.111619],[-122.959749,46.111562],[-122.9597,46.111531],[-122.959496,46.111529],[-122.959496,46.111439],[-122.959603,46.111423],[-122.959626,46.111349],[-122.959755,46.111349],[-122.959761,46.111405],[-122.95981,46.111436],[-122.960014,46.111439]]]}},{"type":"Feature","properties":{"id":17,"area_m2":600,"px":6,"rank":23,"persistent":false},"geometry":{"type":"Polygon","coordinates":[[[-122.957556,46.110538],[-122.957556,46.110808],[-122.957167,46.110808],[-122.957168,46.110718],[-122.957274,46.110702],[-122.957297,46.110628],[-122.957413,46.110604],[-122.957427,46.110538],[-122.957556,46.110538]]]}},{"type":"Feature","properties":{"id":20,"area_m2":600,"px":6,"rank":24,"persistent":false},"geometry":{"type":"Polygon","coordinates":[[[-122.958203,46.110088],[-122.958203,46.110268],[-122.957999,46.11027],[-122.95795,46.110301],[-122.957944,46.110358],[-122.957815,46.110358],[-122.957815,46.110268],[-122.95785,46.110226],[-122.957815,46.110178],[-122.957815,46.110088],[-122.958203,46.110088]]]}},{"type":"Feature","properties":{"id":36,"area_m2":600,"px":6,"rank":25,"persistent":false},"geometry":{"type":"Polygon","coordinates":[[[-122.947467,46.105854],[-122.947467,46.105944],[-122.94736,46.105959],[-122.947337,46.106033],[-122.947012,46.106034],[-122.946958,46.106062],[-122.946949,46.106123],[-122.94682,46.106123],[-122.94682,46.105943],[-122.947275,46.105942],[-122.947328,46.105915],[-122.947338,46.105854],[-122.947467,46.105854]]]}},{"type":"Feature","properties":{"id":8,"area_m2":500,"px":5,"rank":26,"persistent":false},"geometry":{"type":"Polygon","coordinates":[[[-122.961437,46.111349],[-122.961437,46.111529],[-122.961331,46.111545],[-122.961308,46.111619],[-122.961049,46.111619],[-122.961049,46.111529],[-122.961156,46.111513],[-122.961179,46.111439],[-122.961295,46.111415],[-122.961308,46.111349],[-122.961437,46.111349]]]}},{"type":"Feature","properties":{"id":11,"area_m2":500,"px":5,"rank":27,"persistent":false},"geometry":{"type":"Polygon","coordinates":[[[-122.953285,46.111436],[-122.953285,46.111526],[-122.952897,46.111526],[-122.952897,46.111346],[-122.953155,46.111346],[-122.953178,46.11142],[-122.953285,46.111436]]]}},{"type":"Feature","properties":{"id":24,"area_m2":500,"px":5,"rank":28,"persistent":false},"geometry":{"type":"Polygon","coordinates":[[[-122.953546,46.108916],[-122.953546,46.109006],[-122.953439,46.109022],[-122.953416,46.109096],[-122.953287,46.109096],[-122.953287,46.108736],[-122.953416,46.108736],[-122.953425,46.108888],[-122.953471,46.108914],[-122.953546,46.108916]]]}},{"type":"Feature","properties":{"id":37,"area_m2":500,"px":5,"rank":29,"persistent":false},"geometry":{"type":"Polygon","coordinates":[[[-122.946823,46.102703],[-122.946823,46.102973],[-122.946716,46.102989],[-122.946693,46.103063],[-122.946564,46.103063],[-122.946564,46.102973],[-122.946599,46.102931],[-122.946564,46.102883],[-122.946564,46.102793],[-122.946671,46.102777],[-122.946694,46.102703],[-122.946823,46.102703]]]}},{"type":"Feature","properties":{"id":1,"area_m2":400,"px":4,"rank":30,"persistent":false},"geometry":{"type":"Polygon","coordinates":[[[-122.961825,46.111889],[-122.961825,46.111979],[-122.961437,46.111979],[-122.961437,46.111889],[-122.961544,46.111873],[-122.961567,46.111799],[-122.961696,46.111799],[-122.961719,46.111874],[-122.961825,46.111889]]]}},{"type":"Feature","properties":{"id":13,"area_m2":400,"px":4,"rank":31,"persistent":false},"geometry":{"type":"Polygon","coordinates":[[[-122.950567,46.111075],[-122.950567,46.111255],[-122.950493,46.111257],[-122.950447,46.111284],[-122.950438,46.111435],[-122.950309,46.111435],[-122.950309,46.111255],[-122.950383,46.111253],[-122.950429,46.111226],[-122.950438,46.111075],[-122.950567,46.111075]]]}},{"type":"Feature","properties":{"id":27,"area_m2":400,"px":4,"rank":32,"persistent":false},"geometry":{"type":"Polygon","coordinates":[[[-122.953029,46.108106],[-122.953028,46.108376],[-122.952899,46.108376],[-122.952898,46.108149],[-122.952858,46.108112],[-122.95277,46.108106],[-122.95277,46.108016],[-122.952899,46.108016],[-122.952922,46.10809],[-122.953029,46.108106]]]}},{"type":"Feature","properties":{"id":33,"area_m2":400,"px":4,"rank":33,"persistent":false},"geometry":{"type":"Polygon","coordinates":[[[-122.94669,46.106573],[-122.946689,46.106933],[-122.94656,46.106933],[-122.94656,46.106573],[-122.94669,46.106573]]]}},{"type":"Feature","properties":{"id":6,"area_m2":300,"px":3,"rank":34,"persistent":false},"geometry":{"type":"Polygon","coordinates":[[[-122.952379,46.111616],[-122.952379,46.111796],[-122.95212,46.111796],[-122.95212,46.111706],[-122.952227,46.11169],[-122.952249,46.111616],[-122.952379,46.111616]]]}},{"type":"Feature","properties":{"id":15,"area_m2":300,"px":3,"rank":35,"persistent":false},"geometry":{"type":"Polygon","coordinates":[[[-122.959367,46.110809],[-122.959367,46.110988],[-122.959238,46.110988],[-122.959234,46.110847],[-122.95919,46.110813],[-122.959109,46.110808],[-122.959109,46.110718],[-122.959238,46.110719],[-122.959261,46.110793],[-122.959367,46.110809]]]}},{"type":"Feature","properties":{"id":23,"area_m2":300,"px":3,"rank":36,"persistent":false},"geometry":{"type":"Polygon","coordinates":[[[-122.958462,46.109728],[-122.958462,46.109908],[-122.958333,46.109908],[-122.95831,46.109834],[-122.958203,46.109818],[-122.958204,46.109728],[-122.958462,46.109728]]]}},{"type":"Feature","properties":{"id":26,"area_m2":300,"px":3,"rank":37,"persistent":false},"geometry":{"type":"Polygon","coordinates":[[[-122.953287,46.108466],[-122.953287,46.108646],[-122.953158,46.108646],[-122.953135,46.108572],[-122.953028,46.108556],[-122.953029,46.108466],[-122.953287,46.108466]]]}}]}