{"type":"FeatureCollection","features":[{"type":"Feature","properties":{"id":9,"area_m2":22400,"px":224,"rank":1,"persistent":true},"geometry":{"type":"Polygon","coordinates":[[[-122.955099,46.108557],[-122.955099,46.108647],[-122.954992,46.108663],[-122.954969,46.108737],[-122.954751,46.108743],[-122.954714,46.108775],[-122.95471,46.108827],[-122.954377,46.108829],[-122.954328,46.10886],[-122.954322,46.108917],[-122.954092,46.108929],[-122.954063,46.109006],[-122.953839,46.109015],[-122.953804,46.109096],[-122.953546,46.109096],[-122.953537,46.108945],[-122.953491,46.108919],[-122.953416,46.108916],[-122.953407,46.108765],[-122.953361,46.108739],[-122.953287,46.108736],[-122.953278,46.108585],[-122.953232,46.108558],[-122.953158,46.108556],[-122.953149,46.108405],[-122.953103,46.108378],[-122.953029,46.108376],[-122.953023,46.108229],[-122.952981,46.1082],[-122.952899,46.108196],[-122.952896,46.108054],[-122.952852,46.10802],[-122.95277,46.108016],[-122.952757,46.10786],[-122.952641,46.107836],[-122.952641,46.107656],[-122.952865,46.107647],[-122.9529,46.107566],[-122.953016,46.107542],[-122.953029,46.107476],[-122.953376,46.10747],[-122.953414,46.107438],[-122.953418,46.107386],[-122.953534,46.107362],[-122.953547,46.107296],[-122.953765,46.10729],[-122.953803,46.107258],[-122.953806,46.107206],[-122.954065,46.107206],[-122.954087,46.107281],[-122.954194,46.107297],[-122.954207,46.107452],[-122.954323,46.107477],[-122.954336,46.107633],[-122.954452,46.107657],[-122.954462,46.107808],[-122.954507,46.107834],[-122.954582,46.107837],[-122.954591,46.107988],[-122.954637,46.108014],[-122.954711,46.108017],[-122.95472,46.108168],[-122.954766,46.108194],[-122.95484,46.108197],[-122.954849,46.108348],[-122.954895,46.108374],[-122.954969,46.108377],[-122.954979,46.108528],[-122.955024,46.108555],[-122.955099,46.108557]]]}},{"type":"Feature","properties":{"id":10,"area_m2":18800,"px":188,"rank":2,"persistent":true},"geometry":{"type":"Polygon","coordinates":[[[-122.944357,46.107024],[-122.944326,46.10707],[-122.94436,46.107112],[-122.94436,46.107382],[-122.944286,46.107384],[-122.94424,46.107411],[-122.94423,46.107562],[-122.944149,46.107566],[-122.944104,46.1076],[-122.944101,46.107742],[-122.943994,46.107758],[-122.943971,46.107832],[-122.943713,46.107832],[-122.943644,46.107808],[-122.943471,46.107851],[-122.943453,46.108012],[-122.943359,46.108021],[-122.943324,46.108102],[-122.943208,46.108126],[-122.943194,46.108282],[-122.943113,46.108286],[-122.943068,46.10832],[-122.943065,46.108461],[-122.942983,46.108466],[-122.942941,46.108495],[-122.942935,46.108641],[-122.942861,46.108644],[-122.942815,46.10867],[-122.942806,46.108821],[-122.942699,46.108837],[-122.942674,46.108911],[-122.942288,46.108911],[-122.942285,46.108859],[-122.942247,46.108827],[-122.942029,46.108821],[-122.94203,46.108551],[-122.942104,46.108549],[-122.94215,46.108523],[-122.942159,46.108371],[-122.942254,46.108362],[-122.942289,46.108281],[-122.942405,46.108257],[-122.942418,46.108101],[-122.9425,46.108097],[-122.942544,46.108063],[-122.942548,46.107921],[-122.942629,46.107917],[-122.942671,46.107888],[-122.942677,46.107741],[-122.942759,46.107737],[-122.942801,46.107708],[-122.942807,46.107561],[-122.942902,46.107552],[-122.942937,46.107471],[-122.943018,46.107467],[-122.943063,46.107433],[-122.943057,46.10723],[-122.943004,46.107202],[-122.942807,46.107201],[-122.942808,46.107111],[-122.943247,46.107112],[-122.943302,46.107096],[-122.943325,46.106932],[-122.943442,46.106908],[-122.943455,46.106752],[-122.943571,46.106728],[-122.943584,46.106572],[-122.943691,46.106556],[-122.943714,46.106482],[-122.943973,46.106482],[-122.943982,46.106723],[-122.944035,46.106751],[-122.944231,46.106752],[-122.944254,46.106826],[-122.94436,46.106842],[-122.944357,46.107024]]]}},{"type":"Feature","properties":{"id":17,"area_m2":14000,"px":140,"rank":3,"persistent":true},"geometry":{"type":"Polygon","coordinates":[[[-122.946693,46.102703],[-122.946693,46.102793],[-122.946605,46.102799],[-122.946566,46.102837],[-122.946564,46.103063],[-122.946469,46.103072],[-122.946434,46.103153],[-122.946318,46.103177],[-122.946305,46.103333],[-122.945917,46.103333],[-122.945913,46.103281],[-122.945876,46.103249],[-122.945658,46.103243],[-122.945623,46.103162],[-122.945399,46.103152],[-122.945393,46.103096],[-122.945344,46.103065],[-122.945141,46.103062],[-122.945135,46.103006],[-122.945093,46.102977],[-122.944882,46.102972],[-122.944876,46.102916],[-122.944834,46.102886],[-122.944623,46.102882],[-122.944601,46.102808],[-122.944494,46.102792],[-122.944494,46.102432],[-122.944606,46.102412],[-122.944624,46.102252],[-122.94473,46.102236],[-122.944753,46.102162],[-122.94487,46.102138],[-122.944883,46.102072],[-122.945141,46.102072],[-122.945145,46.102124],[-122.945182,46.102156],[-122.9454,46.102163],[-122.945429,46.10224],[-122.945659,46.102253],[-122.945665,46.102309],[-122.945707,46.102339],[-122.945917,46.102343],[-122.945931,46.102409],[-122.946047,46.102433],[-122.94605,46.102485],[-122.946088,46.102516],[-122.946435,46.102523],[-122.946458,46.102597],[-122.946564,46.102613],[-122.946599,46.102694],[-122.946693,46.102703]]]}},{"type":"Feature","properties":{"id":2,"area_m2":13800,"px":138,"rank":4,"persistent":true},"geometry":{"type":"Polygon","coordinates":[[[-122.941506,46.111342],[-122.941474,46.111388],[-122.941509,46.111431],[-122.941508,46.111791],[-122.941392,46.111815],[-122.941379,46.111971],[-122.941263,46.111995],[-122.941249,46.112151],[-122.941143,46.112166],[-122.94112,46.112241],[-122.940732,46.11224],[-122.940726,46.112184],[-122.940677,46.112153],[-122.940344,46.11215],[-122.940321,46.112076],[-122.940214,46.11206],[-122.94018,46.111979],[-122.940085,46.11197],[-122.940085,46.11188],[-122.940166,46.111876],[-122.940211,46.111842],[-122.940215,46.1117],[-122.940309,46.111691],[-122.940344,46.11161],[-122.940426,46.111606],[-122.94047,46.111572],[-122.940468,46.111464],[-122.940426,46.111434],[-122.940344,46.11143],[-122.940344,46.11134],[-122.940663,46.11134],[-122.940729,46.111302],[-122.940727,46.111104],[-122.94067,46.111071],[-122.940474,46.11107],[-122.940474,46.110892],[-122.940586,46.110871],[-122.940604,46.11071],[-122.940685,46.110706],[-122.94073,46.110672],[-122.940734,46.11035],[-122.940992,46.110351],[-122.94101,46.110421],[-122.941122,46.110441],[-122.941156,46.110521],[-122.941251,46.110531],[-122.941279,46.110608],[-122.94151,46.110621],[-122.941509,46.110801],[-122.941435,46.110803],[-122.941389,46.110829],[-122.94138,46.110981],[-122.941345,46.111023],[-122.941397,46.111141],[-122.941509,46.111161],[-122.941506,46.111342]]]}},{"type":"Feature","properties":{"id":15,"area_m2":5800,"px":58,"rank":5,"persistent":true},"geometry":{"type":"Polygon","coordinates":[[[-122.955877,46.106577],[-122.955877,46.106757],[-122.955782,46.106766],[-122.955747,46.106847],[-122.955631,46.106871],[-122.955618,46.107027],[-122.955359,46.107027],[-122.955346,46.106961],[-122.95523,46.106937],[-122.955226,46.106885],[-122.955189,46.106853],[-122.954841,46.106847],[-122.954824,46.106686],[-122.954712,46.106667],[-122.954706,46.10661],[-122.954664,46.106581],[-122.954454,46.106577],[-122.954431,46.106502],[-122.954324,46.106486],[-122.954324,46.106397],[-122.95444,46.106373],[-122.954454,46.106217],[-122.95456,46.106201],[-122.954583,46.106127],[-122.954842,46.106127],[-122.954842,46.106258],[-122.954876,46.106298],[-122.95523,46.106307],[-122.955291,46.106331],[-122.955359,46.106307],[-122.955489,46.106307],[-122.955511,46.106561],[-122.955877,46.106577]]]}},{"type":"Feature","properties":{"id":5,"area_m2":4600,"px":46,"rank":6,"persistent":true},"geometry":{"type":"Polygon","coordinates":[[[-122.951861,46.111436],[-122.951861,46.111616],[-122.951787,46.111618],[-122.951741,46.111644],[-122.951732,46.111795],[-122.951343,46.111795],[-122.95134,46.111744],[-122.951302,46.111712],[-122.951085,46.111705],[-122.951056,46.111628],[-122.950826,46.111615],[-122.95082,46.111559],[-122.950778,46.111529],[-122.950567,46.111525],[-122.950545,46.111451],[-122.950438,46.111435],[-122.950438,46.111345],[-122.950512,46.111343],[-122.950558,46.111317],[-122.950568,46.111165],[-122.950674,46.111149],[-122.950697,46.111075],[-122.950826,46.111075],[-122.950839,46.111141],[-122.950956,46.111165],[-122.950959,46.111217],[-122.950997,46.111249],[-122.951344,46.111255],[-122.951347,46.111307],[-122.951385,46.111339],[-122.951732,46.111346],[-122.951755,46.11142],[-122.951861,46.111436]]]}},{"type":"Feature","properties":{"id":8,"area_m2":3200,"px":32,"rank":7,"persistent":false},"geometry":{"type":"Polygon","coordinates":[[[-122.954969,46.109277],[-122.954968,46.109547],[-122.954862,46.109563],[-122.954839,46.109637],[-122.954723,46.109661],[-122.95471,46.109727],[-122.95458,46.109727],[-122.954577,46.109675],[-122.954539,46.109643],[-122.954322,46.109637],[-122.954299,46.109562],[-122.954192,46.109546],[-122.954175,46.109373],[-122.954117,46.109353],[-122.953934,46.109366],[-122.953911,46.109292],[-122.953804,46.109276],[-122.953804,46.109186],[-122.954008,46.109184],[-122.954057,46.109153],[-122.954063,46.109097],[-122.954191,46.109097],[-122.954209,46.10918],[-122.954297,46.109197],[-122.954357,46.109144],[-122.954306,46.109089],[-122.954322,46.109007],[-122.954451,46.109007],[-122.954474,46.109081],[-122.954581,46.109097],[-122.954581,46.109228],[-122.954609,46.109264],[-122.954969,46.109277]]]}},{"type":"Feature","properties":{"id":11,"area_m2":1400,"px":14,"rank":8,"persistent":false},"geometry":{"type":"Polygon","coordinates":[[[-122.952252,46.108016],[-122.952252,46.108196],[-122.951864,46.108195],[-122.951861,46.108144],[-122.951823,46.108112],[-122.951606,46.108105],[-122.951606,46.107925],[-122.95168,46.107923],[-122.951726,46.107897],[-122.951735,46.107746],[-122.951864,46.107746],[-122.951887,46.10782],[-122.951994,46.107836],[-122.952016,46.108],[-122.952252,46.108016]]]}},{"type":"Feature","properties":{"id":3,"area_m2":1300,"px":13,"rank":9,"persistent":false},"geometry":{"type":"Polygon","coordinates":[[[-122.952379,46.111526],[-122.952379,46.111616],[-122.95229,46.111622],[-122.952251,46.111659],[-122.952249,46.111886],[-122.952142,46.111902],[-122.95212,46.111976],[-122.951861,46.111976],[-122.951861,46.111706],[-122.951956,46.111697],[-122.951991,46.111616],[-122.952107,46.111592],[-122.95212,46.111436],[-122.952249,46.111436],[-122.952272,46.11151],[-122.952379,46.111526]]]}},{"type":"Feature","properties":{"id":4,"area_m2":1300,"px":13,"rank":10,"persistent":false},"geometry":{"type":"Polygon","coordinates":[[[-122.953673,46.111436],[-122.953673,46.111526],[-122.953591,46.11153],[-122.953547,46.111565],[-122.953543,46.111706],[-122.953437,46.111722],[-122.953414,46.111796],[-122.953155,46.111796],[-122.953149,46.111726],[-122.953095,46.111694],[-122.952896,46.111706],[-122.952896,46.111616],[-122.953003,46.1116],[-122.953026,46.111526],[-122.95321,46.11154],[-122.953268,46.11152],[-122.953285,46.111346],[-122.953544,46.111346],[-122.953566,46.11142],[-122.953673,46.111436]]]}},{"type":"Feature","properties":{"id":13,"area_m2":700,"px":7,"rank":11,"persistent":false},"geometry":{"type":"Polygon","coordinates":[[[-122.955617,46.107477],[-122.955617,46.107657],[-122.955358,46.107657],[-122.955336,46.107583],[-122.955229,46.107567],[-122.955229,46.107387],[-122.955488,46.107387],[-122.955511,46.107461],[-122.955617,46.107477]]]}},{"type":"Feature","properties":{"id":12,"area_m2":600,"px":6,"rank":12,"persistent":false},"geometry":{"type":"Polygon","coordinates":[[[-122.945004,46.107744],[-122.944972,46.10779],[-122.945006,46.107832],[-122.945006,46.107922],[-122.944618,46.107922],[-122.944618,46.107742],[-122.944725,46.107726],[-122.944748,46.107652],[-122.945007,46.107653],[-122.945004,46.107744]]]}},{"type":"Feature","properties":{"id":14,"area_m2":600,"px":6,"rank":13,"persistent":false},"geometry":{"type":"Polygon","coordinates":[[[-122.954838,46.107118],[-122.954806,46.107164],[-122.954841,46.107207],[-122.954841,46.107387],[-122.954712,46.107387],[-122.954699,46.107231],[-122.954642,46.107207],[-122.954453,46.107207],[-122.954453,46.107117],[-122.95456,46.107101],[-122.954583,46.107027],[-122.954839,46.107027],[-122.954838,46.107118]]]}},{"type":"Feature","properties":{"id":16,"area_m2":600,"px":6,"rank":14,"persistent":false},"geometry":{"type":"Polygon","coordinates":[[[-122.942423,46.103241],[-122.942423,46.103421],[-122.942349,46.103423],[-122.942303,46.10345],[-122.942293,46.103601],[-122.942035,46.103601],[-122.942035,46.103511],[-122.942116,46.103507],[-122.942161,46.103473],[-122.942164,46.103331],[-122.942271,46.103315],[-122.942294,46.103241],[-122.942423,46.103241]]]}},{"type":"Feature","properties":{"id":1,"area_m2":500,"px":5,"rank":15,"persistent":false},"geometry":{"type":"Polygon","coordinates":[[[-122.953801,46.112426],[-122.953801,46.112606],[-122.953543,46.112606],[-122.953543,46.112336],[-122.953672,46.112336],[-122.953695,46.112411],[-122.953801,46.112426]]]}},{"type":"Feature","properties":{"id":7,"area_m2":500,"px":5,"rank":16,"persistent":false},"geometry":{"type":"Polygon","coordinates":[[[-122.95458,46.109997],[-122.95458,46.110267],[-122.95445,46.110267],[-122.954428,46.110192],[-122.954321,46.110177],[-122.954321,46.109997],[-122.95458,46.109997]]]}},{"type":"Feature","properties":{"id":18,"area_m2":500,"px":5,"rank":17,"persistent":false},"geometry":{"type":"Polygon","coordinates":[[[-122.941389,46.102791],[-122.941388,46.10306],[-122.941282,46.103076],[-122.941259,46.10315],[-122.94113,46.10315],[-122.94113,46.10297],[-122.941204,46.102968],[-122.94125,46.102942],[-122.941259,46.102791],[-122.941389,46.102791]]]}},{"type":"Feature","properties":{"id":6,"area_m2":300,"px":3,"rank":18,"persistent":false},"geometry":{"type":"Polygon","coordinates":[[[-122.95458,46.110357],[-122.954579,46.110537],[-122.954321,46.110537],[-122.954321,46.110447],[-122.954428,46.110431],[-122.95445,46.110357],[-122.95458,46.110357]]]}}]}