{"type":"FeatureCollection","features":[{"type":"Feature","properties":{"id":5,"area_m2":21900,"px":219,"rank":1,"persistent":true},"geometry":{"type":"Polygon","coordinates":[[[-122.95497,46.108287],[-122.954969,46.108557],[-122.954863,46.108573],[-122.95484,46.108647],[-122.9545,46.108651],[-122.954458,46.10868],[-122.954452,46.108737],[-122.954335,46.108761],[-122.954322,46.108827],[-122.953982,46.108831],[-122.95394,46.10886],[-122.953934,46.108916],[-122.953818,46.10894],[-122.953804,46.109006],[-122.953675,46.109006],[-122.953652,46.108932],[-122.953546,46.108916],[-122.953511,46.108835],[-122.953416,46.108826],[-122.953407,46.108675],[-122.953361,46.108649],[-122.953287,46.108646],[-122.953278,46.108495],[-122.953232,46.108468],[-122.953158,46.108466],[-122.953149,46.108315],[-122.953103,46.108288],[-122.953029,46.108286],[-122.953023,46.108139],[-122.952981,46.10811],[-122.952899,46.108106],[-122.952896,46.107964],[-122.952852,46.10793],[-122.95277,46.107926],[-122.952757,46.10777],[-122.952641,46.107746],[-122.952641,46.107566],[-122.952748,46.10755],[-122.952771,46.107476],[-122.952995,46.107467],[-122.953029,46.107386],[-122.953377,46.10738],[-122.953414,46.107348],[-122.953418,46.107296],[-122.953534,46.107272],[-122.953547,46.107206],[-122.953765,46.1072],[-122.953803,46.107168],[-122.953806,46.107116],[-122.954065,46.107116],[-122.954087,46.107191],[-122.954194,46.107207],[-122.954207,46.107362],[-122.954323,46.107387],[-122.954336,46.107543],[-122.954453,46.107567],[-122.954462,46.107718],[-122.954508,46.107744],[-122.954582,46.107747],[-122.954591,46.107898],[-122.954637,46.107924],[-122.954711,46.107927],[-122.95472,46.108078],[-122.954766,46.108104],[-122.95484,46.108107],[-122.954849,46.108258],[-122.954895,46.108284],[-122.95497,46.108287]]]}},{"type":"Feature","properties":{"id":6,"area_m2":18000,"px":180,"rank":2,"persistent":true},"geometry":{"type":"Polygon","coordinates":[[[-122.94436,46.107022],[-122.94436,46.107202],[-122.944286,46.107204],[-122.94424,46.107231],[-122.94423,46.107382],[-122.944149,46.107386],[-122.944104,46.10742],[-122.944101,46.107562],[-122.943994,46.107578],[-122.943971,46.107652],[-122.943855,46.107676],[-122.943842,46.107742],[-122.943713,46.107742],[-122.943707,46.107685],[-122.943658,46.107654],[-122.943488,46.107661],[-122.943454,46.1077],[-122.943454,46.107832],[-122.943359,46.107841],[-122.943324,46.107922],[-122.943208,46.107946],[-122.943194,46.108192],[-122.9431,46.108201],[-122.943065,46.108281],[-122.942991,46.108284],[-122.942945,46.10831],[-122.942935,46.108461],[-122.942824,46.108481],[-122.942806,46.108641],[-122.942724,46.108645],[-122.942682,46.108675],[-122.942676,46.108821],[-122.942288,46.108821],[-122.942285,46.108769],[-122.942247,46.108737],[-122.942029,46.108731],[-122.94203,46.108461],[-122.942104,46.108459],[-122.94215,46.108433],[-122.942159,46.108281],[-122.942254,46.108272],[-122.942289,46.108191],[-122.942363,46.108189],[-122.942409,46.108163],[-122.942418,46.108011],[-122.94253,46.107991],[-122.942548,46.107831],[-122.942629,46.107827],[-122.942674,46.107793],[-122.942678,46.107561],[-122.942772,46.107552],[-122.942807,46.107471],[-122.942889,46.107467],[-122.942933,46.107433],[-122.942937,46.107291],[-122.942971,46.107238],[-122.942919,46.107131],[-122.942808,46.107111],[-122.942808,46.106931],[-122.943066,46.106932],[-122.943135,46.106956],[-122.943291,46.106922],[-122.943325,46.106883],[-122.943325,46.106752],[-122.94342,46.106743],[-122.943455,46.106662],[-122.943536,46.106658],[-122.943578,46.106628],[-122.943585,46.106482],[-122.943691,46.106466],[-122.943714,46.106392],[-122.943973,46.106392],[-122.943973,46.106482],[-122.943891,46.106486],[-122.943849,46.106515],[-122.943849,46.106629],[-122.943906,46.106661],[-122.944102,46.106662],[-122.944124,46.106736],[-122.944231,46.106752],[-122.944234,46.106984],[-122.944279,46.107018],[-122.94436,46.107022]]]}},{"type":"Feature","properties":{"id":13,"area_m2":13300,"px":133,"rank":3,"persistent":true},"geometry":{"type":"Polygon","coordinates":[[[-122.946564,46.102523],[-122.946564,46.102793],[-122.946448,46.102817],[-122.946434,46.102973],[-122.946318,46.102997],[-122.946305,46.103153],[-122.946198,46.103169],[-122.946175,46.103243],[-122.945917,46.103243],[-122.945913,46.103191],[-122.945876,46.103159],[-122.945658,46.103153],[-122.94563,46.103075],[-122.945399,46.103062],[-122.945393,46.103006],[-122.945351,46.102977],[-122.945141,46.102972],[-122.945128,46.102906],[-122.945011,46.102882],[-122.944977,46.102801],[-122.944753,46.102792],[-122.944718,46.102711],[-122.944494,46.102702],[-122.944471,46.102628],[-122.944365,46.102612],[-122.944365,46.102522],[-122.944446,46.102518],[-122.944491,46.102484],[-122.944494,46.102342],[-122.944576,46.102338],[-122.944618,46.102309],[-122.944624,46.102162],[-122.944731,46.102146],[-122.944753,46.102072],[-122.94487,46.102048],[-122.944883,46.101982],[-122.945142,46.101982],[-122.945145,46.102034],[-122.945183,46.102066],[-122.9454,46.102073],[-122.945429,46.10215],[-122.945659,46.102163],[-122.945665,46.102219],[-122.945707,46.102249],[-122.945918,46.102253],[-122.945931,46.102319],[-122.946047,46.102343],[-122.94605,46.102395],[-122.946088,46.102426],[-122.946306,46.102433],[-122.946311,46.10249],[-122.946361,46.102521],[-122.946564,46.102523]]]}},{"type":"Feature","properties":{"id":1,"area_m2":13000,"px":130,"rank":4,"persistent":true},"geometry":{"type":"Polygon","coordinates":[[[-122.94151,46.110531],[-122.94151,46.110621],[-122.941428,46.110625],[-122.941384,46.110659],[-122.94138,46.110801],[-122.941268,46.11082],[-122.941216,46.110933],[-122.941268,46.111051],[-122.94138,46.111071],[-122.941381,46.111387],[-122.941421,46.111424],[-122.941509,46.111431],[-122.941509,46.111611],[-122.941434,46.111613],[-122.941388,46.111639],[-122.941379,46.111791],[-122.941267,46.11181],[-122.941249,46.111971],[-122.941168,46.111975],[-122.941126,46.112004],[-122.94112,46.112151],[-122.940732,46.11215],[-122.940726,46.112094],[-122.940677,46.112063],[-122.940344,46.11206],[-122.940321,46.111986],[-122.940214,46.11197],[-122.94018,46.111889],[-122.940085,46.11188],[-122.940085,46.11179],[-122.940197,46.11177],[-122.940215,46.11161],[-122.940296,46.111606],[-122.940341,46.111572],[-122.940345,46.11125],[-122.940536,46.111264],[-122.9406,46.111226],[-122.940622,46.111025],[-122.940576,46.110985],[-122.940474,46.11098],[-122.940474,46.1108],[-122.940586,46.110781],[-122.940604,46.11062],[-122.940685,46.110616],[-122.94073,46.110582],[-122.940734,46.11044],[-122.940768,46.110398],[-122.940734,46.11035],[-122.940734,46.11026],[-122.940992,46.110261],[-122.94101,46.110331],[-122.941122,46.110351],[-122.941156,46.110431],[-122.941251,46.110441],[-122.941279,46.110518],[-122.94151,46.110531]]]}},{"type":"Feature","properties":{"id":11,"area_m2":5000,"px":50,"rank":5,"persistent":true},"geometry":{"type":"Polygon","coordinates":[[[-122.955747,46.106487],[-122.955747,46.106757],[-122.955641,46.106773],[-122.955618,46.106847],[-122.95523,46.106847],[-122.955217,46.106781],[-122.9551,46.106757],[-122.955066,46.106676],[-122.954842,46.106667],[-122.954828,46.106601],[-122.954712,46.106577],[-122.954706,46.10652],[-122.954664,46.106491],[-122.954454,46.106487],[-122.954431,46.106412],[-122.954324,46.106396],[-122.954324,46.106307],[-122.954399,46.106304],[-122.954444,46.106278],[-122.954454,46.106127],[-122.95456,46.106111],[-122.954583,46.106037],[-122.954713,46.106037],[-122.954716,46.106088],[-122.954754,46.10612],[-122.954971,46.106127],[-122.954977,46.106183],[-122.955026,46.106214],[-122.95523,46.106217],[-122.955248,46.106287],[-122.955359,46.106307],[-122.955372,46.106373],[-122.955489,46.106397],[-122.955523,46.106478],[-122.955747,46.106487]]]}},{"type":"Feature","properties":{"id":3,"area_m2":3800,"px":38,"rank":6,"persistent":true},"geometry":{"type":"Polygon","coordinates":[[[-122.951732,46.111346],[-122.951732,46.111615],[-122.951625,46.111631],[-122.951602,46.111705],[-122.951344,46.111705],[-122.951309,46.111624],[-122.951085,46.111615],[-122.951072,46.111549],[-122.950955,46.111525],[-122.950927,46.111447],[-122.950697,46.111435],[-122.950674,46.111361],[-122.950567,46.111345],[-122.950568,46.111075],[-122.950674,46.111059],[-122.950697,46.110985],[-122.950826,46.110985],[-122.950839,46.111051],[-122.950956,46.111075],[-122.950959,46.111127],[-122.950997,46.111159],[-122.951214,46.111165],[-122.951224,46.111227],[-122.951277,46.111254],[-122.951603,46.111256],[-122.951625,46.11133],[-122.951732,46.111346]]]}},{"type":"Feature","properties":{"id":4,"area_m2":2200,"px":22,"rank":7,"persistent":false},"geometry":{"type":"Polygon","coordinates":[[[-122.954969,46.109187],[-122.954969,46.109367],[-122.954894,46.109369],[-122.954848,46.109395],[-122.954839,46.109547],[-122.954322,46.109547],[-122.954299,46.109472],[-122.954192,46.109456],[-122.954192,46.109367],[-122.954281,46.10936],[-122.95432,46.109323],[-122.954322,46.109097],[-122.954429,46.109081],[-122.954452,46.109007],[-122.954581,46.109007],[-122.954582,46.109143],[-122.954622,46.10918],[-122.954969,46.109187]]]}},{"type":"Feature","properties":{"id":7,"area_m2":1500,"px":15,"rank":8,"persistent":false},"geometry":{"type":"Polygon","coordinates":[[[-122.952252,46.107926],[-122.952252,46.108106],[-122.951864,46.108105],[-122.951861,46.108054],[-122.951823,46.108022],[-122.951606,46.108015],[-122.951606,46.107745],[-122.951712,46.10773],[-122.951735,46.107656],[-122.951865,46.107656],[-122.951887,46.10773],[-122.951994,46.107746],[-122.952017,46.10791],[-122.952252,46.107926]]]}},{"type":"Feature","properties":{"id":2,"area_m2":1100,"px":11,"rank":9,"persistent":false},"geometry":{"type":"Polygon","coordinates":[[[-122.95225,46.111346],[-122.952249,46.111796],[-122.952143,46.111812],[-122.95212,46.111886],[-122.951861,46.111886],[-122.951861,46.111706],[-122.951963,46.111701],[-122.952009,46.111661],[-122.951991,46.111436],[-122.952097,46.11142],[-122.95212,46.111346],[-122.95225,46.111346]]]}},{"type":"Feature","properties":{"id":8,"area_m2":700,"px":7,"rank":10,"persistent":false},"geometry":{"type":"Polygon","coordinates":[[[-122.945136,46.107473],[-122.945136,46.107562],[-122.945055,46.107567],[-122.94501,46.107601],[-122.945006,46.107742],[-122.9449,46.107758],[-122.944877,46.107832],[-122.944748,46.107832],[-122.944725,46.107758],[-122.944618,46.107742],[-122.944619,46.107652],[-122.944807,46.107652],[-122.944864,46.107628],[-122.944877,46.107472],[-122.945136,46.107473]]]}},{"type":"Feature","properties":{"id":14,"area_m2":500,"px":5,"rank":11,"persistent":false},"geometry":{"type":"Polygon","coordinates":[[[-122.941389,46.102701],[-122.941388,46.10297],[-122.941282,46.102986],[-122.941259,46.10306],[-122.94113,46.10306],[-122.94113,46.10288],[-122.941204,46.102878],[-122.94125,46.102852],[-122.941259,46.102701],[-122.941389,46.102701]]]}},{"type":"Feature","properties":{"id":9,"area_m2":400,"px":4,"rank":12,"persistent":false},"geometry":{"type":"Polygon","coordinates":[[[-122.955485,46.107388],[-122.955453,46.107435],[-122.955488,46.107477],[-122.955488,46.107567],[-122.955358,46.107567],[-122.955336,46.107493],[-122.955229,46.107477],[-122.955229,46.107297],[-122.955488,46.107297],[-122.955485,46.107388]]]}},{"type":"Feature","properties":{"id":12,"area_m2":400,"px":4,"rank":13,"persistent":false},"geometry":{"type":"Polygon","coordinates":[[[-122.942423,46.103151],[-122.942423,46.103241],[-122.942342,46.103245],[-122.942297,46.103279],[-122.942294,46.103421],[-122.942187,46.103437],[-122.942164,46.103511],[-122.942035,46.103511],[-122.942035,46.103421],[-122.942116,46.103417],[-122.942161,46.103383],[-122.942165,46.103241],[-122.942271,46.103225],[-122.942294,46.103151],[-122.942423,46.103151]]]}},{"type":"Feature","properties":{"id":10,"area_m2":300,"px":3,"rank":14,"persistent":false},"geometry":{"type":"Polygon","coordinates":[[[-122.954841,46.107117],[-122.954841,46.107207],[-122.954714,46.107207],[-122.954689,46.107132],[-122.954582,46.107117],[-122.954583,46.106937],[-122.954712,46.106937],[-122.954721,46.107088],[-122.954767,46.107114],[-122.954841,46.107117]]]}}]}