{"type":"FeatureCollection","features":[{"type":"Feature","properties":{"id":1,"area_m2":100300,"px":1003,"rank":1,"persistent":false},"geometry":{"type":"Polygon","coordinates":[[[-122.962086,46.109549],[-122.962084,46.111349],[-122.961973,46.111369],[-122.961955,46.111529],[-122.961873,46.111533],[-122.961829,46.111568],[-122.961825,46.111979],[-122.960272,46.111979],[-122.960264,46.111904],[-122.960197,46.111875],[-122.959925,46.111895],[-122.959887,46.111927],[-122.959884,46.111979],[-122.959108,46.111978],[-122.959079,46.111901],[-122.958917,46.111864],[-122.958748,46.111901],[-122.958719,46.111978],[-122.958331,46.111978],[-122.958303,46.1119],[-122.958073,46.111888],[-122.958059,46.111822],[-122.957995,46.111798],[-122.957876,46.111799],[-122.957827,46.111822],[-122.957813,46.111978],[-122.956392,46.111977],[-122.956329,46.111953],[-122.956261,46.111977],[-122.955873,46.111977],[-122.955873,46.111797],[-122.955974,46.111785],[-122.956002,46.111707],[-122.95609,46.111701],[-122.95613,46.111664],[-122.956132,46.111257],[-122.956206,46.111255],[-122.956252,46.111229],[-122.956261,46.111077],[-122.956343,46.111073],[-122.956387,46.111039],[-122.956391,46.110897],[-122.956498,46.110882],[-122.95652,46.110808],[-122.956615,46.110805],[-122.956658,46.110783],[-122.95665,46.110628],[-122.956886,46.110612],[-122.956909,46.110448],[-122.957016,46.110432],[-122.957038,46.110358],[-122.957133,46.110349],[-122.957168,46.110268],[-122.95728,46.110248],[-122.957297,46.110178],[-122.957556,46.110178],[-122.957572,46.11026],[-122.957475,46.110272],[-122.95743,46.110306],[-122.95743,46.110423],[-122.957502,46.110462],[-122.957663,46.110432],[-122.957685,46.110394],[-122.95767,46.110276],[-122.957797,46.110248],[-122.957834,46.110133],[-122.957788,46.110092],[-122.957686,46.110088],[-122.957682,46.109946],[-122.957638,46.109912],[-122.957556,46.109908],[-122.957556,46.109818],[-122.957657,46.109806],[-122.957686,46.109728],[-122.957781,46.109719],[-122.957815,46.109638],[-122.957932,46.109614],[-122.957979,46.109506],[-122.957945,46.109458],[-122.957945,46.109368],[-122.958271,46.109367],[-122.958324,46.10934],[-122.958333,46.109278],[-122.958564,46.109266],[-122.958592,46.109188],[-122.958693,46.109176],[-122.958722,46.109098],[-122.958823,46.109086],[-122.958851,46.109008],[-122.958952,46.108996],[-122.958981,46.108918],[-122.959075,46.108909],[-122.95911,46.108828],[-122.959222,46.108809],[-122.95924,46.108648],[-122.959346,46.108633],[-122.959369,46.108559],[-122.959628,46.108559],[-122.959645,46.108629],[-122.959757,46.108649],[-122.959791,46.10873],[-122.959886,46.108739],[-122.959915,46.108816],[-122.960016,46.108829],[-122.960044,46.108906],[-122.960274,46.108919],[-122.960287,46.108985],[-122.960404,46.109009],[-122.96041,46.109066],[-122.960452,46.109095],[-122.960662,46.109099],[-122.96068,46.109259],[-122.960732,46.109279],[-122.960921,46.109279],[-122.960934,46.109345],[-122.96105,46.109369],[-122.961054,46.109421],[-122.961092,46.109453],[-122.961309,46.109459],[-122.961386,46.109483],[-122.961439,46.109459],[-122.961656,46.109453],[-122.961694,46.109421],[-122.961698,46.109369],[-122.961956,46.109369],[-122.961965,46.109521],[-122.962011,46.109547],[-122.962086,46.109549]],[[-122.956908,46.111478],[-122.95684,46.111424],[-122.956662,46.111462],[-122.956649,46.111659],[-122.956684,46.111698],[-122.956838,46.111707],[-122.956895,46.111684],[-122.956908,46.111478]],[[-122.956911,46.111259],[-122.956854,46.111244],[-122.956796,46.111264],[-122.956779,46.111313],[-122.956806,46.111349],[-122.956869,46.111361],[-122.956928,46.111335],[-122.956942,46.111295],[-122.956911,46.111259]],[[-122.957478,46.111348],[-122.957552,46.11131],[-122.957538,46.111188],[-122.957426,46.111168],[-122.957413,46.111102],[-122.957297,46.111078],[-122.957293,46.111026],[-122.957256,46.110994],[-122.957066,46.111],[-122.957038,46.111036],[-122.957055,46.111148],[-122.957167,46.111168],[-122.95718,46.111234],[-122.957296,46.111258],[-122.957331,46.111339],[-122.957478,46.111348]],[[-122.95876,46.110995],[-122.958931,46.110984],[-122.958976,46.11095],[-122.95897,46.110747],[-122.958909,46.110719],[-122.958632,46.110725],[-122.958592,46.110762],[-122.958583,46.110873],[-122.958626,46.110896],[-122.95872,46.110898],[-122.958723,46.110963],[-122.95876,46.110995]],[[-122.959319,46.110993],[-122.959161,46.110977],[-122.959112,46.111013],[-122.959108,46.111258],[-122.958996,46.111278],[-122.958959,46.111377],[-122.959013,46.111436],[-122.959196,46.111432],[-122.959234,46.1114],[-122.959238,46.111349],[-122.959319,46.111344],[-122.959364,46.11131],[-122.959364,46.111027],[-122.959319,46.110993]],[[-122.960015,46.109999],[-122.959997,46.109928],[-122.959886,46.109909],[-122.959851,46.109828],[-122.959756,46.109819],[-122.959728,46.109741],[-122.959545,46.109733],[-122.959503,46.109762],[-122.959497,46.109818],[-122.959381,46.109842],[-122.959368,46.109908],[-122.959252,46.109932],[-122.959238,46.110088],[-122.959143,46.110098],[-122.959109,46.110178],[-122.958993,46.110202],[-122.958985,46.110325],[-122.959027,46.110354],[-122.959109,46.110358],[-122.959115,46.110415],[-122.959157,46.110444],[-122.959299,46.110473],[-122.959449,46.110444],[-122.959491,46.110415],[-122.959497,46.110359],[-122.959613,46.110335],[-122.959627,46.110269],[-122.959738,46.110249],[-122.959756,46.110179],[-122.959885,46.110179],[-122.959954,46.110203],[-122.960127,46.110159],[-122.960135,46.110027],[-122.960089,46.110001],[-122.960015,46.109999]],[[-122.960566,46.111577],[-122.960514,46.111459],[-122.960402,46.111439],[-122.960368,46.111358],[-122.960273,46.111349],[-122.960244,46.111271],[-122.960097,46.111245],[-122.960031,46.111265],[-122.96002,46.111405],[-122.960062,46.111435],[-122.960143,46.111439],[-122.960149,46.111585],[-122.960191,46.111615],[-122.960272,46.111619],[-122.960301,46.111697],[-122.960449,46.111723],[-122.960509,46.111706],[-122.960566,46.111577]],[[-122.961942,46.110653],[-122.961758,46.110605],[-122.961697,46.110629],[-122.961567,46.110629],[-122.961558,46.110478],[-122.961512,46.110452],[-122.961438,46.110449],[-122.961404,46.110368],[-122.961309,46.110359],[-122.961305,46.110307],[-122.961268,46.110276],[-122.960962,46.110275],[-122.960922,46.110313],[-122.96092,46.110449],[-122.960819,46.110461],[-122.960791,46.110539],[-122.96069,46.110551],[-122.960661,46.110629],[-122.960567,46.110638],[-122.960532,46.110719],[-122.960458,46.110721],[-122.960412,46.110747],[-122.960402,46.110899],[-122.960296,46.110915],[-122.96024,46.111021],[-122.960282,46.11114],[-122.960343,46.111169],[-122.960661,46.111169],[-122.960662,46.111306],[-122.960709,46.111345],[-122.960859,46.111373],[-122.961008,46.111343],[-122.961046,46.111311],[-122.961049,46.111259],[-122.961166,46.111235],[-122.961179,46.111169],[-122.96129,46.111149],[-122.961308,46.111079],[-122.96142,46.111059],[-122.961438,46.110989],[-122.961567,46.110989],[-122.961636,46.111013],[-122.961808,46.11097],[-122.961826,46.110809],[-122.961921,46.1108],[-122.961955,46.110755],[-122.961942,46.110653]]]}},{"type":"Feature","properties":{"id":2,"area_m2":87600,"px":876,"rank":2,"persistent":false},"geometry":{"type":"Polygon","coordinates":[[[-122.95445,46.111167],[-122.954449,46.111257],[-122.954361,46.111263],[-122.954322,46.1113],[-122.954326,46.111403],[-122.954368,46.111433],[-122.954449,46.111437],[-122.954449,46.111525],[-122.954368,46.111531],[-122.954323,46.111565],[-122.9543,46.111831],[-122.95434,46.11188],[-122.954449,46.111887],[-122.954449,46.111977],[-122.953673,46.111976],[-122.953673,46.111796],[-122.953774,46.111784],[-122.953802,46.111706],[-122.953891,46.1117],[-122.95393,46.111663],[-122.953932,46.111526],[-122.953966,46.111479],[-122.953891,46.111353],[-122.953728,46.111349],[-122.953679,46.11138],[-122.953673,46.111436],[-122.953544,46.111436],[-122.953526,46.111366],[-122.953414,46.111346],[-122.953401,46.11128],[-122.953337,46.111256],[-122.95319,46.111265],[-122.953155,46.111346],[-122.952897,46.111346],[-122.952862,46.111265],[-122.952638,46.111256],[-122.95261,46.111178],[-122.952454,46.111152],[-122.952382,46.111191],[-122.952379,46.111346],[-122.952278,46.111358],[-122.952249,46.111436],[-122.952155,46.111445],[-122.95212,46.111526],[-122.952046,46.111528],[-122.952,46.111554],[-122.95199,46.111706],[-122.951902,46.111712],[-122.951863,46.111749],[-122.951861,46.111976],[-122.951084,46.111975],[-122.951081,46.111924],[-122.951043,46.111892],[-122.950826,46.111885],[-122.950808,46.111815],[-122.950696,46.111795],[-122.950687,46.111734],[-122.950626,46.111705],[-122.950241,46.111706],[-122.950188,46.111733],[-122.950179,46.111795],[-122.950049,46.111795],[-122.950049,46.111705],[-122.950131,46.111701],[-122.950175,46.111667],[-122.950161,46.111545],[-122.950109,46.111525],[-122.94992,46.111525],[-122.949907,46.111459],[-122.949791,46.111435],[-122.949763,46.111357],[-122.949532,46.111345],[-122.949519,46.111279],[-122.949455,46.111255],[-122.949296,46.11127],[-122.949273,46.111344],[-122.949192,46.111349],[-122.94915,46.111378],[-122.949144,46.111524],[-122.949049,46.111533],[-122.949014,46.111614],[-122.948898,46.111638],[-122.948884,46.111884],[-122.948778,46.1119],[-122.948755,46.111974],[-122.948496,46.111974],[-122.948496,46.111884],[-122.948578,46.11188],[-122.948622,46.111846],[-122.948626,46.111704],[-122.948707,46.1117],[-122.948749,46.111671],[-122.948756,46.111524],[-122.948837,46.11152],[-122.948879,46.111491],[-122.948885,46.111344],[-122.948967,46.11134],[-122.949009,46.111311],[-122.949005,46.111193],[-122.948952,46.111165],[-122.948756,46.111164],[-122.94875,46.111108],[-122.948701,46.111077],[-122.948368,46.111074],[-122.948339,46.110996],[-122.948109,46.110984],[-122.948103,46.110927],[-122.948054,46.110896],[-122.947721,46.110894],[-122.947715,46.110837],[-122.947673,46.110808],[-122.947333,46.110804],[-122.947327,46.110747],[-122.947285,46.110718],[-122.946945,46.110713],[-122.946941,46.110662],[-122.946904,46.11063],[-122.946686,46.110623],[-122.946663,46.110549],[-122.946557,46.110533],[-122.946558,46.109543],[-122.946746,46.109543],[-122.946799,46.109524],[-122.946817,46.109273],[-122.946923,46.109258],[-122.946946,46.109183],[-122.947137,46.109197],[-122.947196,46.109168],[-122.947202,46.109042],[-122.947157,46.109008],[-122.947076,46.109003],[-122.947076,46.108914],[-122.947334,46.108914],[-122.947344,46.109065],[-122.947389,46.109091],[-122.947464,46.109094],[-122.947452,46.109244],[-122.947498,46.109271],[-122.947593,46.109274],[-122.947593,46.109495],[-122.947627,46.109535],[-122.947783,46.109568],[-122.947852,46.109544],[-122.948048,46.109543],[-122.948101,46.109515],[-122.948111,46.109454],[-122.948328,46.109448],[-122.948368,46.109411],[-122.948369,46.109274],[-122.948451,46.10927],[-122.948495,46.109236],[-122.948499,46.109094],[-122.948587,46.109088],[-122.948628,46.109045],[-122.948627,46.108778],[-122.948588,46.108741],[-122.948499,46.108734],[-122.948499,46.108644],[-122.949276,46.108645],[-122.949293,46.108728],[-122.949387,46.108743],[-122.94944,46.108692],[-122.949389,46.108637],[-122.949406,46.108285],[-122.94963,46.108275],[-122.949664,46.108195],[-122.949781,46.108171],[-122.949794,46.108105],[-122.950182,46.108105],[-122.950205,46.108179],[-122.950311,46.108195],[-122.950312,46.108416],[-122.950366,46.108463],[-122.9505,46.108465],[-122.950552,46.108445],[-122.95057,46.108285],[-122.950699,46.108285],[-122.95076,46.108309],[-122.950829,46.108285],[-122.950958,46.108285],[-122.950958,46.108375],[-122.950863,46.108384],[-122.950829,46.108465],[-122.950754,46.108467],[-122.950708,46.108494],[-122.950699,46.108645],[-122.950587,46.108665],[-122.95057,46.108825],[-122.950488,46.108829],[-122.950446,46.108858],[-122.95044,46.109005],[-122.950359,46.109009],[-122.950314,46.109043],[-122.950327,46.109178],[-122.950386,46.109199],[-122.950569,46.109185],[-122.950569,46.109274],[-122.950457,46.109295],[-122.95044,46.109455],[-122.950358,46.109459],[-122.950316,46.109488],[-122.95031,46.109766],[-122.950351,46.109809],[-122.950493,46.109839],[-122.950569,46.109815],[-122.950698,46.109815],[-122.950711,46.109881],[-122.950827,46.109905],[-122.950862,46.109986],[-122.951086,46.109997],[-122.951086,46.110085],[-122.95087,46.110086],[-122.95081,46.110125],[-122.95084,46.110241],[-122.950956,46.110265],[-122.950956,46.110355],[-122.950467,46.110367],[-122.950439,46.110404],[-122.950439,46.110535],[-122.950357,46.110539],[-122.950313,46.110573],[-122.950332,46.110699],[-122.950568,46.110715],[-122.950577,46.110777],[-122.950638,46.110805],[-122.950792,46.110796],[-122.950827,46.110715],[-122.951204,46.110704],[-122.951256,46.110799],[-122.95146,46.110796],[-122.951494,46.11075],[-122.951451,46.110641],[-122.951215,46.110625],[-122.951215,46.110535],[-122.951322,46.11052],[-122.951377,46.110413],[-122.951345,46.110355],[-122.951345,46.110175],[-122.951549,46.110173],[-122.951598,46.110142],[-122.951604,46.110086],[-122.951733,46.110086],[-122.951755,46.110353],[-122.951808,46.110369],[-122.951937,46.110353],[-122.951986,46.110322],[-122.951992,46.110266],[-122.952121,46.110266],[-122.952118,46.110515],[-122.95225,46.110536],[-122.952256,46.110592],[-122.952298,46.110622],[-122.952509,46.110626],[-122.952525,46.110708],[-122.952421,46.110722],[-122.952381,46.110759],[-122.952381,46.110866],[-122.952419,46.110903],[-122.952615,46.11088],[-122.952638,46.110842],[-122.952623,46.110724],[-122.952759,46.110687],[-122.952768,46.110536],[-122.952875,46.11052],[-122.952897,46.110446],[-122.953027,46.110446],[-122.953043,46.11071],[-122.953102,46.11073],[-122.953285,46.110716],[-122.953308,46.11079],[-122.953415,46.110806],[-122.953415,46.110896],[-122.95338,46.110944],[-122.953414,46.110986],[-122.953415,46.111131],[-122.953448,46.11117],[-122.953504,46.111179],[-122.953656,46.111147],[-122.953675,46.110986],[-122.953803,46.110986],[-122.953809,46.111043],[-122.953858,46.111074],[-122.954061,46.111077],[-122.954067,46.111133],[-122.954117,46.111164],[-122.95445,46.111167]],[[-122.947428,46.110345],[-122.94748,46.110213],[-122.947428,46.110176],[-122.947246,46.110175],[-122.947187,46.110213],[-122.94721,46.11032],[-122.947259,46.110351],[-122.947428,46.110345]],[[-122.947869,46.110669],[-122.947845,46.110477],[-122.947803,46.110448],[-122.947721,46.110444],[-122.947715,46.110387],[-122.947673,46.110358],[-122.947504,46.11036],[-122.947466,46.110392],[-122.947462,46.110444],[-122.947381,46.110448],[-122.947339,46.110477],[-122.947351,46.110604],[-122.947403,46.110623],[-122.947592,46.110624],[-122.947598,46.11068],[-122.94764,46.11071],[-122.94783,46.110707],[-122.947869,46.110669]],[[-122.948498,46.110444],[-122.948505,46.110379],[-122.948456,46.110355],[-122.948379,46.110365],[-122.948327,46.11027],[-122.948172,46.110265],[-122.948119,46.110292],[-122.948111,46.1104],[-122.948151,46.110438],[-122.948357,46.110433],[-122.948429,46.110468],[-122.948498,46.110444]],[[-122.949144,46.110845],[-122.949077,46.110791],[-122.948914,46.110817],[-122.948886,46.110853],[-122.948902,46.110978],[-122.948968,46.110998],[-122.949116,46.110972],[-122.949143,46.110941],[-122.949144,46.110845]],[[-122.949017,46.109184],[-122.948983,46.109221],[-122.948997,46.109262],[-122.949056,46.109288],[-122.949113,46.109278],[-122.949144,46.109245],[-122.949133,46.109195],[-122.949078,46.109171],[-122.949017,46.109184]],[[-122.949404,46.109635],[-122.949486,46.10963],[-122.949528,46.109601],[-122.949511,46.10947],[-122.949203,46.109454],[-122.949148,46.109471],[-122.949126,46.10951],[-122.949173,46.109725],[-122.949228,46.109738],[-122.949363,46.109718],[-122.949401,46.109686],[-122.949404,46.109635]],[[-122.949663,46.110215],[-122.949595,46.110161],[-122.949432,46.110187],[-122.949404,46.110223],[-122.949421,46.110348],[-122.949486,46.110368],[-122.949634,46.110342],[-122.949661,46.110311],[-122.949663,46.110215]],[[-122.949664,46.108734],[-122.949683,46.10869],[-122.94965,46.108654],[-122.949577,46.108646],[-122.949527,46.10867],[-122.949517,46.108711],[-122.949553,46.108748],[-122.949611,46.108758],[-122.949664,46.108734]],[[-122.949745,46.108829],[-122.949602,46.108811],[-122.949547,46.108835],[-122.949538,46.108966],[-122.949589,46.109002],[-122.949738,46.109002],[-122.94979,46.108966],[-122.94979,46.108863],[-122.949745,46.108829]],[[-122.950051,46.109675],[-122.949984,46.109621],[-122.949821,46.109647],[-122.949793,46.109683],[-122.949809,46.109808],[-122.949875,46.109828],[-122.950023,46.109803],[-122.95005,46.109771],[-122.950051,46.109675]],[[-122.949967,46.110737],[-122.950167,46.110691],[-122.950176,46.110573],[-122.950125,46.110537],[-122.949976,46.110537],[-122.949927,46.110568],[-122.949889,46.110683],[-122.949967,46.110737]],[[-122.951732,46.111435],[-122.951726,46.111379],[-122.951684,46.11135],[-122.951344,46.111345],[-122.95134,46.111294],[-122.951303,46.111262],[-122.951085,46.111255],[-122.951067,46.111185],[-122.950956,46.111165],[-122.950947,46.111104],[-122.950893,46.111076],[-122.950731,46.111084],[-122.950697,46.111165],[-122.950596,46.111177],[-122.950567,46.111255],[-122.950479,46.111261],[-122.950439,46.111298],[-122.950451,46.111411],[-122.950567,46.111435],[-122.950602,46.111516],[-122.950696,46.111525],[-122.950725,46.111603],[-122.950955,46.111615],[-122.950984,46.111693],[-122.951214,46.111705],[-122.951223,46.111767],[-122.951276,46.111794],[-122.951473,46.111796],[-122.951556,46.111818],[-122.951697,46.111786],[-122.951732,46.111706],[-122.951843,46.111686],[-122.951858,46.111474],[-122.951813,46.11144],[-122.951732,46.111435]],[[-122.951655,46.110626],[-122.951729,46.110587],[-122.951724,46.110474],[-122.95167,46.110447],[-122.951515,46.110452],[-122.951475,46.110489],[-122.951483,46.110597],[-122.951536,46.110624],[-122.951655,46.110626]]]}},{"type":"Feature","properties":{"id":5,"area_m2":73200,"px":732,"rank":3,"persistent":false},"geometry":{"type":"Polygon","coordinates":[[[-122.957557,46.108468],[-122.957557,46.108558],[-122.957462,46.108567],[-122.957428,46.108648],[-122.957321,46.108664],[-122.957264,46.10878],[-122.957298,46.108828],[-122.957311,46.108984],[-122.957428,46.109008],[-122.957462,46.109089],[-122.957557,46.109098],[-122.957557,46.109278],[-122.957039,46.109278],[-122.957039,46.109098],[-122.957156,46.109074],[-122.957169,46.108972],[-122.957134,46.108927],[-122.95704,46.108918],[-122.957039,46.108786],[-122.957005,46.108747],[-122.956836,46.10874],[-122.956787,46.108771],[-122.956781,46.108827],[-122.956651,46.108827],[-122.956629,46.108753],[-122.956522,46.108737],[-122.956519,46.108672],[-122.956483,46.108641],[-122.956326,46.108648],[-122.956276,46.108671],[-122.956276,46.108893],[-122.956333,46.108917],[-122.956522,46.108917],[-122.956522,46.109007],[-122.956433,46.109014],[-122.956394,46.109051],[-122.956392,46.109367],[-122.956057,46.109356],[-122.95601,46.109387],[-122.956004,46.109457],[-122.955888,46.109481],[-122.955863,46.109608],[-122.955909,46.109635],[-122.956004,46.109637],[-122.956003,46.109907],[-122.955897,46.109923],[-122.955874,46.109997],[-122.955638,46.110013],[-122.955615,46.110177],[-122.955503,46.110197],[-122.955467,46.110312],[-122.955528,46.110356],[-122.955744,46.110357],[-122.95575,46.110427],[-122.955797,46.110458],[-122.955955,46.110443],[-122.955997,46.110414],[-122.956003,46.110357],[-122.956119,46.110333],[-122.956133,46.110267],[-122.956249,46.110243],[-122.956262,46.110087],[-122.956369,46.110072],[-122.956392,46.109997],[-122.956521,46.109998],[-122.956521,46.110087],[-122.956439,46.110092],[-122.956395,46.110126],[-122.956393,46.110314],[-122.956432,46.110351],[-122.956521,46.110358],[-122.956549,46.110435],[-122.95665,46.110448],[-122.95665,46.110537],[-122.956543,46.110553],[-122.95652,46.110627],[-122.956402,46.110638],[-122.956322,46.110603],[-122.956257,46.110631],[-122.956242,46.110667],[-122.956269,46.110705],[-122.956391,46.110717],[-122.956391,46.110807],[-122.956296,46.110816],[-122.956261,46.110897],[-122.956145,46.110921],[-122.956132,46.111077],[-122.956003,46.111077],[-122.955934,46.111053],[-122.955778,46.111086],[-122.955744,46.111167],[-122.955662,46.111171],[-122.95562,46.1112],[-122.955614,46.111347],[-122.95541,46.111349],[-122.955361,46.11138],[-122.955355,46.111437],[-122.955131,46.111446],[-122.955096,46.111527],[-122.95498,46.111551],[-122.954967,46.111617],[-122.954579,46.111617],[-122.954579,46.111527],[-122.954673,46.111524],[-122.954723,46.111492],[-122.954708,46.111347],[-122.954827,46.111336],[-122.954866,46.111425],[-122.955019,46.111437],[-122.955083,46.111413],[-122.955097,46.111347],[-122.955285,46.111347],[-122.955338,46.111327],[-122.955356,46.111077],[-122.955437,46.111073],[-122.955479,46.111044],[-122.955469,46.110905],[-122.955512,46.110875],[-122.955515,46.110834],[-122.95546,46.110797],[-122.955395,46.1108],[-122.955357,46.110837],[-122.955371,46.110889],[-122.955261,46.110906],[-122.955226,46.110987],[-122.955114,46.111007],[-122.955097,46.111167],[-122.95499,46.111183],[-122.954967,46.111257],[-122.954849,46.111268],[-122.954838,46.111167],[-122.95495,46.111147],[-122.954967,46.110987],[-122.955049,46.110983],[-122.955091,46.110954],[-122.955095,46.11085],[-122.955056,46.110813],[-122.954907,46.110783],[-122.954838,46.110807],[-122.954709,46.110807],[-122.95464,46.110783],[-122.954579,46.110807],[-122.954376,46.110809],[-122.954322,46.11085],[-122.95432,46.110987],[-122.954191,46.110986],[-122.954185,46.11075],[-122.954143,46.110721],[-122.954062,46.110716],[-122.954027,46.110636],[-122.953933,46.110626],[-122.953904,46.110549],[-122.953803,46.110536],[-122.953786,46.110363],[-122.953728,46.110343],[-122.953415,46.110356],[-122.953415,46.109996],[-122.95351,46.109987],[-122.953545,46.109942],[-122.953544,46.10968],[-122.953504,46.109643],[-122.953416,46.109636],[-122.953416,46.109456],[-122.953525,46.10945],[-122.953565,46.1094],[-122.953528,46.109296],[-122.953416,46.109276],[-122.953382,46.109195],[-122.953287,46.109186],[-122.953287,46.108916],[-122.953546,46.108916],[-122.953547,46.109053],[-122.953593,46.109092],[-122.953871,46.109095],[-122.953925,46.109068],[-122.953934,46.109006],[-122.954145,46.109002],[-122.954187,46.108973],[-122.954193,46.108917],[-122.954404,46.108912],[-122.954446,46.108883],[-122.954452,46.108827],[-122.954662,46.108823],[-122.954704,46.108793],[-122.954711,46.108737],[-122.954907,46.108736],[-122.954966,46.108698],[-122.955004,46.108599],[-122.954969,46.108557],[-122.954964,46.10841],[-122.954922,46.108381],[-122.95484,46.108377],[-122.954834,46.10823],[-122.954792,46.108201],[-122.954711,46.108197],[-122.954708,46.108055],[-122.954663,46.108021],[-122.954582,46.108017],[-122.954569,46.107861],[-122.954452,46.107837],[-122.954443,46.107685],[-122.954397,46.107659],[-122.954323,46.107656],[-122.954314,46.107505],[-122.954268,46.107479],[-122.954194,46.107476],[-122.954185,46.107325],[-122.954139,46.107299],[-122.954065,46.107296],[-122.954061,46.107245],[-122.954024,46.107213],[-122.953861,46.107209],[-122.953812,46.10724],[-122.953806,46.107296],[-122.953575,46.107308],[-122.953547,46.107386],[-122.953431,46.10741],[-122.953417,46.107476],[-122.953077,46.10748],[-122.953035,46.107509],[-122.953029,46.107566],[-122.952818,46.10757],[-122.952776,46.107599],[-122.95277,46.107656],[-122.952689,46.10766],[-122.952647,46.107689],[-122.952626,46.107891],[-122.952675,46.107923],[-122.95277,46.107926],[-122.952805,46.108007],[-122.952899,46.108016],[-122.952909,46.108167],[-122.952954,46.108194],[-122.953029,46.108196],[-122.953032,46.108338],[-122.953076,46.108372],[-122.953158,46.108376],[-122.953171,46.108532],[-122.953287,46.108556],[-122.953287,46.108736],[-122.953158,46.108736],[-122.953149,46.108675],[-122.953095,46.108647],[-122.95277,46.108646],[-122.952789,46.108426],[-122.952742,46.10838],[-122.952511,46.108376],[-122.95245,46.108352],[-122.952382,46.108376],[-122.952123,46.108376],[-122.952123,46.108286],[-122.952235,46.108266],[-122.952286,46.108143],[-122.95223,46.108032],[-122.952123,46.108016],[-122.952089,46.107935],[-122.951994,46.107926],[-122.951994,46.107781],[-122.951961,46.107741],[-122.951904,46.107732],[-122.951758,46.107761],[-122.951735,46.107925],[-122.951653,46.10793],[-122.951609,46.107964],[-122.951611,46.108072],[-122.951653,46.108101],[-122.951735,46.108106],[-122.951735,46.108195],[-122.951605,46.108195],[-122.951583,46.108121],[-122.951476,46.108105],[-122.951442,46.108024],[-122.951347,46.108015],[-122.951347,46.107835],[-122.951448,46.107823],[-122.951476,46.107745],[-122.951577,46.107733],[-122.951606,46.107655],[-122.951701,46.107646],[-122.951735,46.107566],[-122.951847,46.107546],[-122.951865,46.107386],[-122.951972,46.10737],[-122.951994,46.107296],[-122.952124,46.107296],[-122.952136,46.107632],[-122.952253,46.107656],[-122.952256,46.107707],[-122.952294,46.107739],[-122.952472,46.107753],[-122.952511,46.107711],[-122.952512,46.107386],[-122.952641,46.107386],[-122.95271,46.10741],[-122.952845,46.107384],[-122.952894,46.107353],[-122.9529,46.107296],[-122.953016,46.107272],[-122.95303,46.107206],[-122.953383,46.107197],[-122.953417,46.107157],[-122.953418,46.107026],[-122.953525,46.10701],[-122.953547,46.106936],[-122.953928,46.106924],[-122.953955,46.106886],[-122.953936,46.106756],[-122.954031,46.106747],[-122.954065,46.106702],[-122.954052,46.1066],[-122.953936,46.106576],[-122.953936,46.106486],[-122.954031,46.106477],[-122.954065,46.106396],[-122.954177,46.106377],[-122.954195,46.106217],[-122.954302,46.106201],[-122.954324,46.106127],[-122.954583,46.106128],[-122.954583,46.106217],[-122.954488,46.106226],[-122.954454,46.106307],[-122.954372,46.106311],[-122.95433,46.10634],[-122.954324,46.106528],[-122.954347,46.106561],[-122.954453,46.106577],[-122.954459,46.106633],[-122.954501,46.106662],[-122.954712,46.106667],[-122.954735,46.106741],[-122.954841,46.106757],[-122.954845,46.106822],[-122.954881,46.106854],[-122.9551,46.106847],[-122.955113,46.106913],[-122.955229,46.106937],[-122.955233,46.106989],[-122.95527,46.107021],[-122.955577,46.107021],[-122.955614,46.106989],[-122.955618,46.106937],[-122.955699,46.106933],[-122.955741,46.106904],[-122.955747,46.106757],[-122.955829,46.106753],[-122.955871,46.106724],[-122.955876,46.106536],[-122.955814,46.106488],[-122.955489,46.106487],[-122.955489,46.106217],[-122.955748,46.106217],[-122.955765,46.106287],[-122.955877,46.106307],[-122.955911,46.106388],[-122.956006,46.106397],[-122.956035,46.106475],[-122.956265,46.106487],[-122.956288,46.106561],[-122.956394,46.106577],[-122.956429,46.106658],[-122.956524,46.106667],[-122.956522,46.106757],[-122.956394,46.106757],[-122.956388,46.106701],[-122.956339,46.10667],[-122.956211,46.106653],[-122.956152,46.106674],[-122.956135,46.106847],[-122.95604,46.106856],[-122.956006,46.106937],[-122.955924,46.106941],[-122.95588,46.106975],[-122.955899,46.107191],[-122.956006,46.107207],[-122.956012,46.107264],[-122.956053,46.107293],[-122.956264,46.107297],[-122.95627,46.107354],[-122.956312,46.107383],[-122.956523,46.107387],[-122.956541,46.107458],[-122.956652,46.107478],[-122.956662,46.107539],[-122.956715,46.107566],[-122.956877,46.107558],[-122.956911,46.107478],[-122.957129,46.107471],[-122.957167,46.107439],[-122.95717,46.107388],[-122.957429,46.107388],[-122.957428,46.107928],[-122.957203,46.107924],[-122.957171,46.107958],[-122.95717,46.108059],[-122.957211,46.108101],[-122.957299,46.108108],[-122.957327,46.108185],[-122.957428,46.108198],[-122.957431,46.108429],[-122.957476,46.108464],[-122.957557,46.108468]],[[-122.954839,46.109277],[-122.954839,46.109145],[-122.954811,46.109109],[-122.954581,46.109097],[-122.954546,46.109016],[-122.954392,46.109007],[-122.954331,46.109035],[-122.954322,46.109097],[-122.954092,46.109109],[-122.954052,46.109197],[-122.953833,46.109199],[-122.953805,46.109235],[-122.953805,46.109331],[-122.953864,46.109379],[-122.954,46.109365],[-122.954054,46.109338],[-122.954074,46.109265],[-122.954192,46.109277],[-122.954205,46.109613],[-122.954262,46.109636],[-122.954451,46.109637],[-122.954485,46.109718],[-122.95464,46.109726],[-122.9547,46.109698],[-122.95471,46.109637],[-122.954906,46.109636],[-122.954965,46.109599],[-122.954965,46.109315],[-122.954921,46.109281],[-122.954839,46.109277]],[[-122.954301,46.106952],[-122.953996,46.106924],[-122.953941,46.106956],[-122.953958,46.107101],[-122.954013,46.107116],[-122.954301,46.107101],[-122.954324,46.107063],[-122.954301,46.106952]],[[-122.954583,46.110448],[-122.954567,46.110021],[-122.954451,46.109997],[-122.954445,46.10994],[-122.954396,46.109909],[-122.954097,46.109916],[-122.954063,46.109955],[-122.954068,46.110053],[-122.95411,46.110082],[-122.954192,46.110087],[-122.954193,46.110493],[-122.954232,46.11053],[-122.954321,46.110537],[-122.954322,46.110673],[-122.954362,46.11071],[-122.954517,46.110716],[-122.95457,46.110688],[-122.95458,46.110537],[-122.954614,46.110494],[-122.954583,46.110448]],[[-122.95549,46.108016],[-122.955522,46.107969],[-122.955484,46.107875],[-122.95544,46.107841],[-122.955358,46.107837],[-122.955358,46.107747],[-122.955547,46.107747],[-122.955604,46.107723],[-122.955608,46.107506],[-122.955562,46.107479],[-122.955488,46.107477],[-122.955482,46.10742],[-122.95544,46.107391],[-122.955229,46.107387],[-122.955223,46.10724],[-122.955181,46.107211],[-122.9551,46.107207],[-122.955065,46.107126],[-122.954841,46.107117],[-122.954841,46.106972],[-122.954814,46.106936],[-122.954759,46.106923],[-122.954624,46.106943],[-122.954586,46.106975],[-122.954582,46.107027],[-122.954501,46.107031],[-122.954459,46.10706],[-122.954454,46.107253],[-122.954494,46.10729],[-122.954582,46.107297],[-122.954586,46.107348],[-122.954623,46.10738],[-122.954841,46.107387],[-122.954841,46.107477],[-122.954806,46.107524],[-122.954841,46.107567],[-122.954863,46.107731],[-122.955099,46.107747],[-122.955099,46.107927],[-122.954997,46.107931],[-122.954951,46.107972],[-122.954979,46.108168],[-122.955025,46.108195],[-122.955099,46.108197],[-122.955105,46.108254],[-122.955154,46.108285],[-122.955289,46.108311],[-122.955358,46.108287],[-122.95557,46.108296],[-122.955615,46.108257],[-122.955615,46.108151],[-122.955576,46.108113],[-122.955487,46.108107],[-122.95549,46.108016]],[[-122.955098,46.110037],[-122.95503,46.109983],[-122.954852,46.110021],[-122.954839,46.110232],[-122.954872,46.110271],[-122.954929,46.11028],[-122.955084,46.110243],[-122.955098,46.110037]],[[-122.955353,46.110512],[-122.955373,46.110397],[-122.955329,46.110361],[-122.955165,46.110344],[-122.955103,46.110377],[-122.955099,46.110493],[-122.955145,46.110533],[-122.955316,46.110544],[-122.955353,46.110512]],[[-122.955486,46.109317],[-122.955419,46.109264],[-122.955256,46.109289],[-122.955228,46.109326],[-122.955244,46.10945],[-122.95531,46.109471],[-122.955458,46.109445],[-122.955485,46.109414],[-122.955486,46.109317]],[[-122.955619,46.108916],[-122.955651,46.108869],[-122.955594,46.10874],[-122.955534,46.108723],[-122.95538,46.108753],[-122.955357,46.109007],[-122.955323,46.109055],[-122.955397,46.109194],[-122.955553,46.109186],[-122.955607,46.109159],[-122.955619,46.108916]],[[-122.955733,46.108623],[-122.955766,46.108428],[-122.955738,46.10839],[-122.95554,46.108353],[-122.955375,46.108397],[-122.955359,46.108514],[-122.955399,46.108551],[-122.955487,46.108557],[-122.955499,46.108636],[-122.955577,46.10866],[-122.955733,46.108623]],[[-122.955748,46.109549],[-122.955691,46.109533],[-122.955632,46.109554],[-122.955616,46.109602],[-122.955643,46.109638],[-122.955705,46.10965],[-122.955764,46.109624],[-122.955779,46.109584],[-122.955748,46.109549]],[[-122.955999,46.107907],[-122.956024,46.107792],[-122.955991,46.107757],[-122.955802,46.107749],[-122.95575,46.107785],[-122.95575,46.107889],[-122.955801,46.107925],[-122.955952,46.107938],[-122.955999,46.107907]],[[-122.956126,46.110864],[-122.956151,46.110762],[-122.956118,46.110727],[-122.955929,46.11072],[-122.955877,46.110756],[-122.955877,46.110859],[-122.955928,46.110895],[-122.956077,46.110895],[-122.956126,46.110864]],[[-122.956801,46.108412],[-122.956798,46.108147],[-122.956747,46.10811],[-122.956463,46.108108],[-122.956416,46.108123],[-122.956393,46.108161],[-122.956393,46.108419],[-122.956416,46.108452],[-122.956591,46.108492],[-122.956779,46.108451],[-122.956801,46.108412]]]}},{"type":"Feature","properties":{"id":23,"area_m2":10100,"px":101,"rank":4,"persistent":false},"geometry":{"type":"Polygon","coordinates":[[[-122.948501,46.106574],[-122.948499,46.106664],[-122.948113,46.106664],[-122.948107,46.106607],[-122.948065,46.106578],[-122.947877,46.10659],[-122.947856,46.10671],[-122.947895,46.106747],[-122.947983,46.106754],[-122.947983,46.106934],[-122.947888,46.106943],[-122.947854,46.107024],[-122.947738,46.107048],[-122.947724,46.107204],[-122.947643,46.107208],[-122.947598,46.107242],[-122.947595,46.107384],[-122.947391,46.107386],[-122.947342,46.107417],[-122.947336,46.107473],[-122.947207,46.107473],[-122.947184,46.107399],[-122.947077,46.107383],[-122.947077,46.107293],[-122.947178,46.107281],[-122.947207,46.107204],[-122.947302,46.107194],[-122.947336,46.107114],[-122.947448,46.107094],[-122.947466,46.106934],[-122.947578,46.106914],[-122.947628,46.106786],[-122.947573,46.106679],[-122.947466,46.106664],[-122.947443,46.106589],[-122.947207,46.106573],[-122.94719,46.106503],[-122.947078,46.106483],[-122.947065,46.106417],[-122.946949,46.106393],[-122.946945,46.106342],[-122.946908,46.10631],[-122.946745,46.106306],[-122.946696,46.106337],[-122.94669,46.106393],[-122.946561,46.106393],[-122.946561,46.106123],[-122.946656,46.106114],[-122.94669,46.106069],[-122.946677,46.105967],[-122.946561,46.105943],[-122.946561,46.105763],[-122.94668,46.105752],[-122.946713,46.105837],[-122.946859,46.105866],[-122.946922,46.105854],[-122.946949,46.105813],[-122.946932,46.105693],[-122.946879,46.105674],[-122.946702,46.105684],[-122.946668,46.105599],[-122.946561,46.105583],[-122.946562,46.105493],[-122.94682,46.105493],[-122.946824,46.105545],[-122.946861,46.105577],[-122.947079,46.105583],[-122.947102,46.105658],[-122.947208,46.105674],[-122.947243,46.105754],[-122.947337,46.105764],[-122.947341,46.105905],[-122.947385,46.105939],[-122.947467,46.105944],[-122.947468,46.10608],[-122.947508,46.106117],[-122.947922,46.106123],[-122.947975,46.106095],[-122.947984,46.106034],[-122.948114,46.106034],[-122.948122,46.106455],[-122.948176,46.106483],[-122.948372,46.106484],[-122.948395,46.106558],[-122.948501,46.106574]]]}},{"type":"Feature","properties":{"id":19,"area_m2":6300,"px":63,"rank":5,"persistent":false},"geometry":{"type":"Polygon","coordinates":[[[-122.951348,46.106395],[-122.951348,46.106575],[-122.951137,46.106579],[-122.951095,46.106609],[-122.951089,46.106665],[-122.950885,46.106667],[-122.950836,46.106698],[-122.95083,46.106755],[-122.950606,46.106764],[-122.950572,46.106804],[-122.950571,46.106935],[-122.950476,46.106944],[-122.950442,46.107025],[-122.950368,46.107027],[-122.950322,46.107053],[-122.950312,46.107295],[-122.950277,46.107337],[-122.950312,46.107385],[-122.950312,46.107745],[-122.949864,46.107745],[-122.949803,46.107773],[-122.949794,46.107835],[-122.949406,46.107834],[-122.949397,46.107773],[-122.949344,46.107745],[-122.948888,46.107744],[-122.948866,46.10767],[-122.948759,46.107654],[-122.948725,46.107573],[-122.94863,46.107564],[-122.94863,46.107474],[-122.948759,46.107474],[-122.948772,46.10754],[-122.948837,46.107564],[-122.949092,46.107562],[-122.949141,46.107531],[-122.949148,46.107474],[-122.949277,46.107474],[-122.949258,46.107609],[-122.949311,46.107652],[-122.949612,46.107666],[-122.949659,46.107635],[-122.949667,46.107565],[-122.949794,46.107565],[-122.9498,46.107621],[-122.949849,46.107652],[-122.950019,46.107646],[-122.950053,46.107606],[-122.950052,46.107428],[-122.950012,46.107391],[-122.949924,46.107385],[-122.949924,46.107295],[-122.950012,46.107288],[-122.950052,46.107251],[-122.950054,46.107025],[-122.950088,46.106982],[-122.950054,46.106935],[-122.950054,46.106755],[-122.950128,46.106752],[-122.950174,46.106726],[-122.950184,46.106575],[-122.950313,46.106575],[-122.950313,46.106706],[-122.950341,46.106743],[-122.950509,46.106754],[-122.950571,46.106706],[-122.950572,46.106395],[-122.951348,46.106395]]]}},{"type":"Feature","properties":{"id":36,"area_m2":5800,"px":58,"rank":6,"persistent":false},"geometry":{"type":"Polygon","coordinates":[[[-122.947728,46.102974],[-122.947728,46.103064],[-122.947647,46.103068],[-122.947602,46.103102],[-122.947599,46.103244],[-122.947492,46.103259],[-122.947469,46.103333],[-122.947278,46.10332],[-122.947214,46.103358],[-122.947211,46.103465],[-122.947239,46.103501],[-122.947469,46.103514],[-122.947469,46.103693],[-122.947362,46.103709],[-122.947339,46.103783],[-122.947081,46.103783],[-122.947072,46.103722],[-122.947018,46.103694],[-122.946693,46.103693],[-122.94667,46.103619],[-122.946563,46.103603],[-122.946564,46.103333],[-122.946693,46.103333],[-122.946769,46.103357],[-122.946917,46.103324],[-122.946952,46.103279],[-122.946948,46.103192],[-122.946904,46.103157],[-122.946564,46.103153],[-122.946564,46.102883],[-122.946659,46.102874],[-122.946693,46.102829],[-122.946688,46.102646],[-122.946646,46.102617],[-122.946564,46.102613],[-122.946564,46.102433],[-122.946694,46.102433],[-122.946716,46.102507],[-122.946823,46.102523],[-122.946826,46.102845],[-122.946871,46.102879],[-122.946952,46.102883],[-122.946987,46.102964],[-122.947278,46.102972],[-122.947331,46.102945],[-122.94734,46.102884],[-122.947468,46.102884],[-122.947473,46.102949],[-122.947516,46.102983],[-122.947728,46.102974]]]}},{"type":"Feature","properties":{"id":4,"area_m2":5700,"px":57,"rank":7,"persistent":false},"geometry":{"type":"Polygon","coordinates":[[[-122.948367,46.111434],[-122.948367,46.111614],[-122.948293,46.111616],[-122.948247,46.111643],[-122.948238,46.111794],[-122.948131,46.11181],[-122.948108,46.111884],[-122.947992,46.111908],[-122.947979,46.111974],[-122.947461,46.111974],[-122.947438,46.111899],[-122.947332,46.111884],[-122.947297,46.111803],[-122.947202,46.111793],[-122.947203,46.111704],[-122.947277,46.111701],[-122.947323,46.111675],[-122.947332,46.111524],[-122.947528,46.111523],[-122.947582,46.111495],[-122.947626,46.111386],[-122.947591,46.111344],[-122.947574,46.111183],[-122.947514,46.111164],[-122.947231,46.111176],[-122.947203,46.111253],[-122.947108,46.111263],[-122.947073,46.111343],[-122.946999,46.111346],[-122.946953,46.111372],[-122.946944,46.111523],[-122.946815,46.111523],[-122.946792,46.111449],[-122.946685,46.111433],[-122.946685,46.111343],[-122.946916,46.111331],[-122.946944,46.111295],[-122.946944,46.111163],[-122.947162,46.111157],[-122.9472,46.111125],[-122.947203,46.111074],[-122.947591,46.111074],[-122.947626,46.111155],[-122.94785,46.111164],[-122.947863,46.11123],[-122.947979,46.111254],[-122.948008,46.111332],[-122.948238,46.111344],[-122.948261,46.111418],[-122.948367,46.111434]]]}},{"type":"Feature","properties":{"id":16,"area_m2":5200,"px":52,"rank":8,"persistent":false},"geometry":{"type":"Polygon","coordinates":[[[-122.949276,46.108194],[-122.949276,46.108464],[-122.948629,46.108464],[-122.948623,46.108407],[-122.948581,46.108378],[-122.948252,46.108385],[-122.948206,46.108293],[-122.948032,46.108284],[-122.947963,46.108329],[-122.947995,46.10844],[-122.948052,46.108464],[-122.94823,46.108453],[-122.948263,46.108538],[-122.94837,46.108554],[-122.94837,46.108644],[-122.948111,46.108644],[-122.948089,46.10857],[-122.947936,46.108531],[-122.947852,46.108554],[-122.947723,46.108554],[-122.947714,46.108402],[-122.947668,46.108376],[-122.947594,46.108374],[-122.947594,46.108284],[-122.947629,46.108236],[-122.947576,46.108123],[-122.947524,46.108104],[-122.947335,46.108103],[-122.947322,46.108038],[-122.947206,46.108013],[-122.9472,46.107957],[-122.947158,46.107928],[-122.946947,46.107923],[-122.946948,46.107653],[-122.947077,46.107653],[-122.947094,46.107724],[-122.947206,46.107744],[-122.947219,46.107809],[-122.947335,46.107834],[-122.947341,46.10789],[-122.947383,46.107919],[-122.947594,46.107924],[-122.947655,46.107948],[-122.947724,46.107924],[-122.947982,46.107924],[-122.948005,46.107998],[-122.948112,46.108014],[-122.948146,46.108095],[-122.948241,46.108104],[-122.948242,46.108241],[-122.948296,46.108282],[-122.948465,46.108275],[-122.9485,46.108194],[-122.948759,46.108194],[-122.948772,46.10826],[-122.948836,46.108284],[-122.948983,46.108275],[-122.949017,46.108194],[-122.949276,46.108194]]]}},{"type":"Feature","properties":{"id":35,"area_m2":3300,"px":33,"rank":9,"persistent":false},"geometry":{"type":"Polygon","coordinates":[[[-122.950833,46.103605],[-122.950833,46.103695],[-122.950726,46.103711],[-122.950703,46.103785],[-122.950587,46.103809],[-122.950574,46.103875],[-122.950445,46.103875],[-122.950416,46.103797],[-122.950186,46.103785],[-122.95018,46.103728],[-122.950138,46.103699],[-122.949798,46.103695],[-122.949795,46.103643],[-122.949757,46.103611],[-122.949539,46.103604],[-122.94954,46.103335],[-122.949646,46.103319],[-122.949669,46.103245],[-122.949928,46.103245],[-122.949941,46.103311],[-122.950057,46.103335],[-122.95006,46.103386],[-122.950098,46.103418],[-122.950316,46.103425],[-122.950344,46.103503],[-122.950574,46.103515],[-122.95058,46.103572],[-122.950622,46.103601],[-122.950833,46.103605]]]}},{"type":"Feature","properties":{"id":3,"area_m2":1700,"px":17,"rank":10,"persistent":false},"geometry":{"type":"Polygon","coordinates":[[[-122.953026,46.111436],[-122.953026,46.111526],[-122.952944,46.11153],[-122.9529,46.111564],[-122.952896,46.111706],[-122.952815,46.11171],[-122.95277,46.111744],[-122.952767,46.111976],[-122.952249,46.111976],[-122.952249,46.111886],[-122.952338,46.111879],[-122.952377,46.111842],[-122.952379,46.111526],[-122.952508,46.111526],[-122.952514,46.111583],[-122.952556,46.111612],[-122.952704,46.111615],[-122.952758,46.111587],[-122.952767,46.111526],[-122.952879,46.111506],[-122.952897,46.111436],[-122.953026,46.111436]]]}},{"type":"Feature","properties":{"id":10,"area_m2":1500,"px":15,"rank":11,"persistent":false},"geometry":{"type":"Polygon","coordinates":[[[-122.961698,46.109189],[-122.961698,46.109279],[-122.961568,46.109279],[-122.961551,46.109209],[-122.961439,46.109189],[-122.961404,46.109108],[-122.96131,46.109099],[-122.961281,46.109021],[-122.96118,46.109009],[-122.961152,46.108931],[-122.960922,46.108919],[-122.960904,46.108849],[-122.960792,46.108829],[-122.960775,46.108759],[-122.960663,46.108739],[-122.96065,46.108673],[-122.960534,46.108649],[-122.960499,46.108568],[-122.960275,46.108559],[-122.960252,46.108485],[-122.960145,46.108469],[-122.960132,46.108403],[-122.960016,46.108379],[-122.959988,46.108301],[-122.959887,46.108289],[-122.959887,46.108199],[-122.960016,46.108199],[-122.960034,46.108269],[-122.960145,46.108289],[-122.960159,46.108355],[-122.960275,46.108379],[-122.960309,46.10846],[-122.960533,46.108469],[-122.960551,46.108539],[-122.960663,46.108559],[-122.960676,46.108625],[-122.960792,46.108649],[-122.960827,46.10873],[-122.961051,46.108739],[-122.961074,46.108813],[-122.96118,46.108829],[-122.961198,46.108899],[-122.96131,46.108919],[-122.961344,46.109],[-122.961439,46.109009],[-122.961467,46.109087],[-122.961568,46.109099],[-122.961597,46.109177],[-122.961698,46.109189]]]}},{"type":"Feature","properties":{"id":32,"area_m2":1500,"px":15,"rank":12,"persistent":false},"geometry":{"type":"Polygon","coordinates":[[[-122.947985,46.104774],[-122.947985,46.104954],[-122.947789,46.104955],[-122.947728,46.104997],[-122.947732,46.1051],[-122.947774,46.10513],[-122.947856,46.105134],[-122.947856,46.105224],[-122.947749,46.10524],[-122.947726,46.105314],[-122.947467,46.105313],[-122.947466,46.105087],[-122.947427,46.10505],[-122.947338,46.105043],[-122.947338,46.104954],[-122.947656,46.104953],[-122.947713,46.10493],[-122.947723,46.104812],[-122.947679,46.104778],[-122.947597,46.104774],[-122.947597,46.104684],[-122.947727,46.104684],[-122.947733,46.10474],[-122.947782,46.104771],[-122.947985,46.104774]]]}},{"type":"Feature","properties":{"id":24,"area_m2":1300,"px":13,"rank":13,"persistent":false},"geometry":{"type":"Polygon","coordinates":[[[-122.9573,46.107118],[-122.957299,46.107298],[-122.956911,46.107297],[-122.956898,46.107232],[-122.956782,46.107207],[-122.956754,46.10713],[-122.956523,46.107117],[-122.956501,46.107043],[-122.956394,46.107027],[-122.956394,46.106847],[-122.956653,46.106848],[-122.956659,46.106994],[-122.956701,46.107023],[-122.956782,46.107028],[-122.956788,46.107084],[-122.95683,46.107113],[-122.956988,46.107129],[-122.957035,46.107098],[-122.957041,46.107028],[-122.957168,46.107028],[-122.957193,46.107102],[-122.9573,46.107118]]]}},{"type":"Feature","properties":{"id":15,"area_m2":900,"px":9,"rank":14,"persistent":false},"geometry":{"type":"Polygon","coordinates":[[[-122.951347,46.108105],[-122.951346,46.108555],[-122.951128,46.108562],[-122.951091,46.108594],[-122.951087,46.108645],[-122.950971,46.108669],[-122.950958,46.108735],[-122.950829,46.108735],[-122.950829,46.108645],[-122.950923,46.108636],[-122.950958,46.108555],[-122.951032,46.108553],[-122.951078,46.108527],[-122.951088,46.108375],[-122.951169,46.108371],[-122.951211,46.108342],[-122.951217,46.108105],[-122.951347,46.108105]]]}},{"type":"Feature","properties":{"id":14,"area_m2":800,"px":8,"rank":15,"persistent":false},"geometry":{"type":"Polygon","coordinates":[[[-122.947852,46.108734],[-122.947852,46.109004],[-122.947593,46.109004],[-122.947592,46.108777],[-122.947552,46.10874],[-122.947464,46.108734],[-122.947464,46.108554],[-122.947594,46.108554],[-122.947594,46.108685],[-122.947628,46.108725],[-122.947852,46.108734]]]}},{"type":"Feature","properties":{"id":34,"area_m2":800,"px":8,"rank":16,"persistent":false},"geometry":{"type":"Polygon","coordinates":[[[-122.949926,46.104775],[-122.949926,46.104865],[-122.949667,46.104864],[-122.949645,46.1047],[-122.949409,46.104684],[-122.949396,46.104618],[-122.94928,46.104594],[-122.949245,46.104513],[-122.949021,46.104504],[-122.949021,46.104414],[-122.94928,46.104414],[-122.949293,46.10448],[-122.949409,46.104504],[-122.949437,46.104582],[-122.949668,46.104595],[-122.94969,46.104669],[-122.949797,46.104685],[-122.949831,46.104766],[-122.949926,46.104775]]]}},{"type":"Feature","properties":{"id":12,"area_m2":700,"px":7,"rank":17,"persistent":false},"geometry":{"type":"Polygon","coordinates":[[[-122.948499,46.108824],[-122.948499,46.108914],[-122.948411,46.10892],[-122.948371,46.108958],[-122.948369,46.109184],[-122.94824,46.109184],[-122.948231,46.109033],[-122.948185,46.109006],[-122.948111,46.109004],[-122.948111,46.108824],[-122.948499,46.108824]]]}},{"type":"Feature","properties":{"id":37,"area_m2":700,"px":7,"rank":18,"persistent":false},"geometry":{"type":"Polygon","coordinates":[[[-122.94941,46.103244],[-122.94941,46.103424],[-122.949281,46.103424],[-122.94922,46.1034],[-122.949151,46.103424],[-122.949022,46.103424],[-122.949022,46.103154],[-122.949129,46.103138],[-122.949152,46.103064],[-122.949281,46.103064],[-122.949269,46.103215],[-122.949315,46.103242],[-122.94941,46.103244]]]}},{"type":"Feature","properties":{"id":29,"area_m2":600,"px":6,"rank":19,"persistent":false},"geometry":{"type":"Polygon","coordinates":[[[-122.954713,46.105947],[-122.954713,46.106037],[-122.954585,46.106037],[-122.95458,46.105985],[-122.954542,46.105953],[-122.954325,46.105946],[-122.954302,46.105872],[-122.954195,46.105856],[-122.954161,46.105776],[-122.954066,46.105766],[-122.954066,46.105676],[-122.954195,46.105677],[-122.954201,46.105733],[-122.95425,46.105764],[-122.954454,46.105767],[-122.954477,46.105841],[-122.954583,46.105857],[-122.954618,46.105938],[-122.954713,46.105947]]]}},{"type":"Feature","properties":{"id":7,"area_m2":500,"px":5,"rank":20,"persistent":false},"geometry":{"type":"Polygon","coordinates":[[[-122.956906,46.110089],[-122.956874,46.110135],[-122.956909,46.110178],[-122.956909,46.110268],[-122.956802,46.110283],[-122.956779,46.110357],[-122.95665,46.110357],[-122.95665,46.110088],[-122.956757,46.110072],[-122.95678,46.109998],[-122.956907,46.109998],[-122.956906,46.110089]]]}},{"type":"Feature","properties":{"id":11,"area_m2":500,"px":5,"rank":21,"persistent":false},"geometry":{"type":"Polygon","coordinates":[[[-122.946817,46.109003],[-122.946817,46.109183],[-122.94671,46.109199],[-122.946687,46.109273],[-122.946558,46.109273],[-122.946558,46.109003],[-122.946817,46.109003]]]}},{"type":"Feature","properties":{"id":22,"area_m2":500,"px":5,"rank":22,"persistent":false},"geometry":{"type":"Polygon","coordinates":[[[-122.957946,46.107388],[-122.957946,46.107478],[-122.95784,46.107494],[-122.957817,46.107568],[-122.957688,46.107568],[-122.957678,46.107416],[-122.957633,46.10739],[-122.957558,46.107388],[-122.957524,46.107307],[-122.957429,46.107298],[-122.957429,46.107208],[-122.957558,46.107208],[-122.957571,46.107274],[-122.957688,46.107298],[-122.957691,46.10735],[-122.957729,46.107381],[-122.957946,46.107388]]]}},{"type":"Feature","properties":{"id":33,"area_m2":500,"px":5,"rank":23,"persistent":false},"geometry":{"type":"Polygon","coordinates":[[[-122.950444,46.104595],[-122.950444,46.104775],[-122.950337,46.104791],[-122.950314,46.104865],[-122.950056,46.104865],[-122.950056,46.104775],[-122.95015,46.104772],[-122.9502,46.10474],[-122.950185,46.104595],[-122.950444,46.104595]]]}},{"type":"Feature","properties":{"id":8,"area_m2":400,"px":4,"rank":24,"persistent":false},"geometry":{"type":"Polygon","coordinates":[[[-122.95251,46.109546],[-122.95251,46.109636],[-122.952306,46.109638],[-122.952257,46.109669],[-122.952251,46.109726],[-122.952122,46.109726],[-122.952122,46.109546],[-122.95251,46.109546]]]}},{"type":"Feature","properties":{"id":9,"area_m2":400,"px":4,"rank":25,"persistent":false},"geometry":{"type":"Polygon","coordinates":[[[-122.95678,46.109548],[-122.95678,46.109637],[-122.956651,46.109637],[-122.956647,46.109586],[-122.95661,46.109554],[-122.956392,46.109547],[-122.956392,46.109457],[-122.956499,46.109442],[-122.956522,46.109367],[-122.956651,46.109368],[-122.95666,46.109519],[-122.956706,46.109545],[-122.95678,46.109548]]]}},{"type":"Feature","properties":{"id":21,"area_m2":400,"px":4,"rank":26,"persistent":false},"geometry":{"type":"Polygon","coordinates":[[[-122.946818,46.107563],[-122.946818,46.107743],[-122.946559,46.107743],[-122.94656,46.107563],[-122.946818,46.107563]]]}},{"type":"Feature","properties":{"id":26,"area_m2":400,"px":4,"rank":27,"persistent":false},"geometry":{"type":"Polygon","coordinates":[[[-122.953289,46.106666],[-122.953289,46.106846],[-122.953159,46.106846],[-122.953137,46.106772],[-122.95303,46.106756],[-122.952995,46.106675],[-122.952901,46.106666],[-122.952901,46.106576],[-122.95303,46.106576],[-122.953036,46.106633],[-122.953085,46.106664],[-122.953289,46.106666]]]}},{"type":"Feature","properties":{"id":30,"area_m2":400,"px":4,"rank":28,"persistent":false},"geometry":{"type":"Polygon","coordinates":[[[-122.950702,46.105225],[-122.950702,46.105315],[-122.950443,46.105315],[-122.950421,46.105241],[-122.950314,46.105225],[-122.950314,46.105135],[-122.950573,46.105135],[-122.950596,46.105209],[-122.950702,46.105225]]]}},{"type":"Feature","properties":{"id":31,"area_m2":400,"px":4,"rank":29,"persistent":false},"geometry":{"type":"Polygon","coordinates":[[[-122.948632,46.105134],[-122.948632,46.105224],[-122.948428,46.105226],[-122.948379,46.105257],[-122.948373,46.105314],[-122.948244,46.105314],[-122.948244,46.105134],[-122.948632,46.105134]]]}},{"type":"Feature","properties":{"id":6,"area_m2":300,"px":3,"rank":30,"persistent":false},"geometry":{"type":"Polygon","coordinates":[[[-122.947074,46.110804],[-122.947074,46.110983],[-122.946815,46.110983],[-122.946815,46.110893],[-122.946922,46.110878],[-122.946945,46.110803],[-122.947074,46.110804]]]}},{"type":"Feature","properties":{"id":13,"area_m2":300,"px":3,"rank":31,"persistent":false},"geometry":{"type":"Polygon","coordinates":[[[-122.950828,46.108825],[-122.950828,46.108915],[-122.950747,46.108919],[-122.950702,46.108953],[-122.950699,46.109095],[-122.950569,46.109095],[-122.95057,46.108915],[-122.950676,46.108899],[-122.950699,46.108825],[-122.950828,46.108825]]]}},{"type":"Feature","properties":{"id":17,"area_m2":300,"px":3,"rank":32,"persistent":false},"geometry":{"type":"Polygon","coordinates":[[[-122.947464,46.108374],[-122.947464,46.108464],[-122.947383,46.108468],[-122.947338,46.108502],[-122.947335,46.108643],[-122.947205,46.108643],[-122.947206,46.108464],[-122.947312,46.108448],[-122.947335,46.108374],[-122.947464,46.108374]]]}},{"type":"Feature","properties":{"id":18,"area_m2":300,"px":3,"rank":33,"persistent":false},"geometry":{"type":"Polygon","coordinates":[[[-122.946818,46.108013],[-122.946818,46.108103],[-122.946559,46.108103],[-122.946559,46.107923],[-122.946688,46.107923],[-122.946711,46.107997],[-122.946818,46.108013]]]}},{"type":"Feature","properties":{"id":20,"area_m2":300,"px":3,"rank":34,"persistent":false},"geometry":{"type":"Polygon","coordinates":[[[-122.9485,46.107654],[-122.9485,46.107834],[-122.948371,46.107834],[-122.948348,46.10776],[-122.948242,46.107744],[-122.948242,46.107654],[-122.9485,46.107654]]]}},{"type":"Feature","properties":{"id":25,"area_m2":300,"px":3,"rank":35,"persistent":false},"geometry":{"type":"Polygon","coordinates":[[[-122.952642,46.106936],[-122.952641,46.107026],[-122.952535,46.107042],[-122.952512,46.107116],[-122.952253,46.107116],[-122.952253,46.107026],[-122.952457,46.107023],[-122.952506,46.106992],[-122.952512,46.106936],[-122.952642,46.106936]]]}},{"type":"Feature","properties":{"id":27,"area_m2":300,"px":3,"rank":36,"persistent":false},"geometry":{"type":"Polygon","coordinates":[[[-122.94889,46.106394],[-122.948889,46.106484],[-122.948501,46.106484],[-122.948502,46.106394],[-122.94889,46.106394]]]}},{"type":"Feature","properties":{"id":28,"area_m2":300,"px":3,"rank":37,"persistent":false},"geometry":{"type":"Polygon","coordinates":[[[-122.95523,46.106217],[-122.95523,46.106307],[-122.955101,46.106307],[-122.955097,46.106255],[-122.95506,46.106223],[-122.954842,46.106217],[-122.954842,46.106127],[-122.955101,46.106127],[-122.955123,46.106201],[-122.95523,46.106217]]]}}]}