{"type":"FeatureCollection","features":[{"type":"Feature","properties":{"id":2,"area_m2":76300,"px":763,"rank":1,"persistent":false},"geometry":{"type":"Polygon","coordinates":[[[-122.961827,46.109369],[-122.961827,46.109459],[-122.961591,46.109475],[-122.961568,46.109549],[-122.961473,46.109558],[-122.961438,46.109639],[-122.961364,46.109642],[-122.961318,46.109668],[-122.961309,46.109819],[-122.961208,46.109831],[-122.961179,46.109909],[-122.961079,46.109921],[-122.96105,46.109999],[-122.960949,46.110011],[-122.960921,46.110089],[-122.96082,46.110101],[-122.960791,46.110179],[-122.96069,46.110191],[-122.960662,46.110269],[-122.960567,46.110278],[-122.960532,46.110359],[-122.96042,46.110379],[-122.960403,46.110539],[-122.960302,46.110551],[-122.960273,46.110629],[-122.960178,46.110638],[-122.960144,46.110719],[-122.960069,46.110721],[-122.960023,46.110747],[-122.960014,46.110899],[-122.959557,46.110886],[-122.959502,46.110918],[-122.959496,46.110988],[-122.959385,46.111008],[-122.95937,46.11113],[-122.959415,46.111164],[-122.959496,46.111169],[-122.959496,46.111259],[-122.959395,46.111271],[-122.959367,46.111348],[-122.959272,46.111358],[-122.959237,46.111438],[-122.959121,46.111462],[-122.959108,46.111708],[-122.959001,46.111724],[-122.958978,46.111798],[-122.958748,46.111811],[-122.958719,46.111888],[-122.958603,46.111912],[-122.95859,46.111978],[-122.957945,46.111978],[-122.957882,46.111954],[-122.957813,46.111978],[-122.957555,46.111978],[-122.957572,46.111838],[-122.957497,46.111798],[-122.957346,46.111798],[-122.957293,46.111818],[-122.957296,46.111978],[-122.955743,46.111977],[-122.955743,46.111887],[-122.955844,46.111875],[-122.955873,46.111797],[-122.955967,46.111788],[-122.956002,46.111707],[-122.956076,46.111705],[-122.956122,46.111679],[-122.956132,46.111437],[-122.956206,46.111435],[-122.956252,46.111409],[-122.956261,46.111257],[-122.956343,46.111253],[-122.956387,46.111219],[-122.956391,46.111077],[-122.956709,46.111077],[-122.956766,46.111054],[-122.956779,46.110808],[-122.956853,46.110805],[-122.956899,46.110779],[-122.956909,46.110628],[-122.95699,46.110624],[-122.957035,46.110589],[-122.957038,46.110448],[-122.957133,46.110439],[-122.957168,46.110358],[-122.957242,46.110355],[-122.957288,46.110329],[-122.957297,46.110178],[-122.957427,46.110178],[-122.957495,46.110202],[-122.957672,46.110154],[-122.957682,46.110036],[-122.957638,46.110002],[-122.957556,46.109998],[-122.957556,46.109908],[-122.957651,46.109899],[-122.957686,46.109818],[-122.957802,46.109794],[-122.957815,46.109638],[-122.957922,46.109622],[-122.957945,46.109548],[-122.958046,46.109536],[-122.958074,46.109458],[-122.958169,46.109449],[-122.958204,46.109368],[-122.958316,46.109348],[-122.958333,46.109278],[-122.958537,46.109276],[-122.958586,46.109245],[-122.958592,46.109188],[-122.958828,46.109172],[-122.958851,46.109008],[-122.958946,46.108999],[-122.958981,46.108918],[-122.959075,46.108916],[-122.959121,46.108889],[-122.95911,46.108738],[-122.959217,46.108723],[-122.95924,46.108648],[-122.95934,46.108636],[-122.959369,46.108559],[-122.959464,46.108549],[-122.959498,46.108469],[-122.95961,46.108449],[-122.959628,46.108379],[-122.959832,46.108376],[-122.959881,46.108345],[-122.959887,46.108289],[-122.960016,46.108289],[-122.960049,46.108383],[-122.960275,46.108379],[-122.960298,46.108453],[-122.960404,46.108469],[-122.960404,46.108559],[-122.960309,46.108568],[-122.960275,46.108649],[-122.960193,46.108653],[-122.960151,46.108682],[-122.960151,46.108885],[-122.960193,46.108915],[-122.960274,46.108919],[-122.96028,46.108975],[-122.960322,46.109005],[-122.960533,46.109009],[-122.960551,46.109079],[-122.960662,46.109099],[-122.96068,46.109169],[-122.960792,46.109189],[-122.960805,46.109255],[-122.960921,46.109279],[-122.960956,46.10936],[-122.96118,46.109369],[-122.961208,46.109447],[-122.96137,46.109483],[-122.96154,46.109447],[-122.961568,46.109369],[-122.961827,46.109369]],[[-122.957608,46.111809],[-122.957801,46.111774],[-122.95781,46.111656],[-122.957759,46.11162],[-122.95761,46.11162],[-122.957556,46.111661],[-122.957558,46.111773],[-122.957608,46.111809]],[[-122.958869,46.110403],[-122.958844,46.110302],[-122.958795,46.110271],[-122.958646,46.110271],[-122.958595,46.110307],[-122.958594,46.11041],[-122.958646,46.110446],[-122.958836,46.110439],[-122.958869,46.110403]],[[-122.959578,46.110363],[-122.959429,46.110334],[-122.959368,46.110358],[-122.959171,46.110359],[-122.959118,46.110387],[-122.959109,46.110448],[-122.958889,46.110441],[-122.95885,46.110483],[-122.958859,46.1106],[-122.958912,46.110627],[-122.95917,46.110642],[-122.959232,46.110609],[-122.959238,46.110539],[-122.959585,46.110532],[-122.959625,46.110495],[-122.95962,46.110392],[-122.959578,46.110363]],[[-122.959808,46.109549],[-122.959882,46.10951],[-122.959873,46.109393],[-122.959816,46.109369],[-122.959641,46.109378],[-122.959607,46.109424],[-122.95964,46.109525],[-122.959689,46.109548],[-122.959808,46.109549]]]}},{"type":"Feature","properties":{"id":12,"area_m2":44500,"px":445,"rank":2,"persistent":false},"geometry":{"type":"Polygon","coordinates":[[[-122.950958,46.108285],[-122.950958,46.108375],[-122.950746,46.108366],[-122.950703,46.1084],[-122.950699,46.108465],[-122.950625,46.108467],[-122.950579,46.108494],[-122.95057,46.108735],[-122.950495,46.108737],[-122.950449,46.108764],[-122.95044,46.108915],[-122.950229,46.108919],[-122.950187,46.108948],[-122.950181,46.109005],[-122.950107,46.109007],[-122.950061,46.109033],[-122.950055,46.109146],[-122.9501,46.109181],[-122.950181,46.109185],[-122.950181,46.109275],[-122.950107,46.109277],[-122.950061,46.109303],[-122.950051,46.109455],[-122.94995,46.109467],[-122.949922,46.109545],[-122.949827,46.109554],[-122.949792,46.109635],[-122.949718,46.109637],[-122.949672,46.109663],[-122.949663,46.109815],[-122.949551,46.109834],[-122.949533,46.109995],[-122.949452,46.109999],[-122.949407,46.110033],[-122.949404,46.110264],[-122.949287,46.110288],[-122.949274,46.110444],[-122.949193,46.110449],[-122.949148,46.110483],[-122.949144,46.110624],[-122.949038,46.11064],[-122.949015,46.110714],[-122.948899,46.110738],[-122.948885,46.110804],[-122.948497,46.110804],[-122.948494,46.110752],[-122.948456,46.11072],[-122.948239,46.110714],[-122.948235,46.110649],[-122.948193,46.110615],[-122.94798,46.110624],[-122.947977,46.110572],[-122.947939,46.11054],[-122.947721,46.110534],[-122.947706,46.110361],[-122.947823,46.11035],[-122.94787,46.110309],[-122.947845,46.110207],[-122.947796,46.110176],[-122.947662,46.110174],[-122.94761,46.110193],[-122.947592,46.110354],[-122.947333,46.110354],[-122.947249,46.110331],[-122.947097,46.110369],[-122.947074,46.110443],[-122.946945,46.110443],[-122.946932,46.110377],[-122.946816,46.110353],[-122.946812,46.110302],[-122.946775,46.11027],[-122.946557,46.110263],[-122.946557,46.110083],[-122.946592,46.110041],[-122.946557,46.109992],[-122.946558,46.109545],[-122.946592,46.109501],[-122.946558,46.109453],[-122.946558,46.109093],[-122.946817,46.109093],[-122.946839,46.109258],[-122.946894,46.109273],[-122.947041,46.109264],[-122.947076,46.109184],[-122.94715,46.109181],[-122.947196,46.109155],[-122.947205,46.109052],[-122.947164,46.10901],[-122.947076,46.109003],[-122.947072,46.108862],[-122.947028,46.108828],[-122.946947,46.108823],[-122.946947,46.108733],[-122.947076,46.108734],[-122.94711,46.108814],[-122.947265,46.108823],[-122.947325,46.108795],[-122.947335,46.108734],[-122.947423,46.108727],[-122.947463,46.10869],[-122.947468,46.108484],[-122.947414,46.108464],[-122.947076,46.108463],[-122.947076,46.108373],[-122.947409,46.108371],[-122.947459,46.10834],[-122.947465,46.108284],[-122.947853,46.108284],[-122.947866,46.10835],[-122.947982,46.108374],[-122.948016,46.108455],[-122.94837,46.108464],[-122.948383,46.10853],[-122.948499,46.108554],[-122.948505,46.108611],[-122.948554,46.108642],[-122.948724,46.108635],[-122.94876,46.108554],[-122.949017,46.108554],[-122.949026,46.108616],[-122.949079,46.108643],[-122.94935,46.108642],[-122.949404,46.108601],[-122.949406,46.108285],[-122.94944,46.108242],[-122.949406,46.108194],[-122.949406,46.108015],[-122.949535,46.108015],[-122.949563,46.108092],[-122.949719,46.108118],[-122.949785,46.108089],[-122.949794,46.108015],[-122.950141,46.108008],[-122.950216,46.107888],[-122.950182,46.107835],[-122.950184,46.107745],[-122.950312,46.107745],[-122.950334,46.107819],[-122.950441,46.107835],[-122.950464,46.108089],[-122.9507,46.108105],[-122.950722,46.108179],[-122.950829,46.108195],[-122.950863,46.108276],[-122.950958,46.108285]],[[-122.947385,46.109814],[-122.94746,46.109775],[-122.947454,46.109662],[-122.947401,46.109635],[-122.947245,46.10964],[-122.947208,46.109672],[-122.947193,46.109784],[-122.947247,46.109812],[-122.947385,46.109814]],[[-122.947334,46.110263],[-122.947352,46.110219],[-122.94732,46.110183],[-122.947254,46.110174],[-122.947201,46.110194],[-122.947185,46.110235],[-122.947222,46.110277],[-122.94728,46.110287],[-122.947334,46.110263]],[[-122.948625,46.108979],[-122.948647,46.108869],[-122.948615,46.108834],[-122.948447,46.108824],[-122.948383,46.108848],[-122.948359,46.108925],[-122.94824,46.108914],[-122.948218,46.10884],[-122.948111,46.108824],[-122.948131,46.1087],[-122.948109,46.10866],[-122.947982,46.108644],[-122.947976,46.108587],[-122.947934,46.108558],[-122.947763,46.108547],[-122.947726,46.108579],[-122.947723,46.108644],[-122.947628,46.108653],[-122.947593,46.108734],[-122.947477,46.108758],[-122.947445,46.108869],[-122.947499,46.108911],[-122.94766,46.108913],[-122.947714,46.108885],[-122.947723,46.108824],[-122.947852,46.108824],[-122.947852,46.109004],[-122.947641,46.109008],[-122.947599,46.109037],[-122.947593,46.109094],[-122.947481,46.109113],[-122.947472,46.109348],[-122.947531,46.109377],[-122.947667,46.109361],[-122.947716,46.10933],[-122.947722,46.109274],[-122.947852,46.109274],[-122.947874,46.109528],[-122.948042,46.109568],[-122.948219,46.109537],[-122.94826,46.109494],[-122.94824,46.109364],[-122.948328,46.109358],[-122.948368,46.109321],[-122.94837,46.109004],[-122.948582,46.109013],[-122.948625,46.108979]],[[-122.949408,46.108826],[-122.949336,46.1088],[-122.949276,46.108824],[-122.949087,46.108825],[-122.949034,46.108844],[-122.949017,46.109004],[-122.948928,46.109011],[-122.948889,46.109048],[-122.948887,46.109239],[-122.94892,46.109278],[-122.948977,46.109287],[-122.949128,46.109255],[-122.949146,46.109094],[-122.949241,46.109085],[-122.949276,46.109005],[-122.949392,46.10898],[-122.94944,46.108872],[-122.949408,46.108826]],[[-122.949423,46.109589],[-122.949391,46.109479],[-122.949275,46.109454],[-122.949272,46.109403],[-122.949234,46.109371],[-122.949079,46.109365],[-122.949025,46.109393],[-122.949025,46.109516],[-122.949071,46.109542],[-122.949145,46.109544],[-122.949149,46.109596],[-122.949187,46.109628],[-122.949384,46.109628],[-122.949423,46.109589]],[[-122.949787,46.108701],[-122.949812,46.1086],[-122.94978,46.108564],[-122.94959,46.108557],[-122.949538,46.108593],[-122.949538,46.108696],[-122.94959,46.108732],[-122.949738,46.108732],[-122.949787,46.108701]]]}},{"type":"Feature","properties":{"id":9,"area_m2":39600,"px":396,"rank":3,"persistent":false},"geometry":{"type":"Polygon","coordinates":[[[-122.957558,46.107208],[-122.957558,46.107298],[-122.95747,46.107304],[-122.957429,46.107346],[-122.957428,46.108108],[-122.957317,46.108127],[-122.957264,46.10824],[-122.957316,46.108358],[-122.957428,46.108378],[-122.957463,46.108459],[-122.957557,46.108468],[-122.957557,46.108558],[-122.957456,46.10857],[-122.957428,46.108648],[-122.957333,46.108657],[-122.957298,46.108702],[-122.957304,46.108974],[-122.957346,46.109004],[-122.957428,46.109008],[-122.957462,46.109089],[-122.957557,46.109098],[-122.957557,46.109188],[-122.957231,46.109189],[-122.957178,46.109216],[-122.957169,46.109278],[-122.957039,46.109278],[-122.957036,46.108866],[-122.956992,46.108832],[-122.956826,46.108805],[-122.956686,46.108837],[-122.956651,46.108917],[-122.956535,46.108941],[-122.956522,46.109187],[-122.956415,46.109203],[-122.956392,46.109277],[-122.956133,46.109277],[-122.956065,46.109253],[-122.955923,46.109281],[-122.955876,46.109321],[-122.955874,46.109457],[-122.955683,46.109444],[-122.955617,46.109487],[-122.955597,46.109772],[-122.955643,46.109813],[-122.955745,46.109817],[-122.955745,46.109907],[-122.95565,46.109916],[-122.955615,46.109997],[-122.955534,46.110001],[-122.955492,46.11003],[-122.955478,46.110332],[-122.955535,46.110357],[-122.955744,46.110357],[-122.955753,46.110432],[-122.955827,46.110461],[-122.955975,46.110435],[-122.956003,46.110357],[-122.956229,46.110361],[-122.956262,46.110267],[-122.956391,46.110267],[-122.9564,46.110419],[-122.956446,46.110445],[-122.956521,46.110448],[-122.956555,46.110528],[-122.95665,46.110538],[-122.95665,46.110627],[-122.956337,46.110614],[-122.956274,46.110638],[-122.956265,46.110769],[-122.95631,46.110803],[-122.956391,46.110807],[-122.956391,46.110897],[-122.956284,46.110913],[-122.956261,46.110987],[-122.956129,46.111008],[-122.956132,46.111167],[-122.956025,46.111183],[-122.956002,46.111257],[-122.955873,46.111257],[-122.955812,46.111233],[-122.955744,46.111257],[-122.955614,46.111257],[-122.955611,46.111205],[-122.955573,46.111173],[-122.955356,46.111167],[-122.955356,46.111077],[-122.955437,46.111073],[-122.955482,46.111039],[-122.955485,46.110897],[-122.955567,46.110893],[-122.955609,46.110864],[-122.955613,46.110761],[-122.955545,46.110717],[-122.955261,46.110726],[-122.955227,46.110766],[-122.955226,46.110987],[-122.95511,46.111011],[-122.955097,46.111167],[-122.954985,46.111187],[-122.954935,46.111315],[-122.955028,46.111371],[-122.955097,46.111347],[-122.955485,46.111347],[-122.955485,46.111437],[-122.955152,46.111439],[-122.955102,46.11147],[-122.955096,46.111527],[-122.95498,46.111551],[-122.954967,46.111617],[-122.954708,46.111617],[-122.954685,46.111543],[-122.954579,46.111527],[-122.954579,46.111437],[-122.954614,46.111394],[-122.954579,46.111347],[-122.954579,46.111257],[-122.954768,46.111257],[-122.954825,46.111233],[-122.954838,46.111077],[-122.954912,46.111075],[-122.954958,46.111048],[-122.954968,46.110897],[-122.955001,46.110844],[-122.954914,46.110783],[-122.954838,46.110807],[-122.954709,46.110807],[-122.954709,46.110537],[-122.954743,46.110484],[-122.954691,46.110376],[-122.95458,46.110357],[-122.954577,46.110035],[-122.954518,46.109998],[-122.954321,46.109997],[-122.954312,46.109845],[-122.954266,46.109819],[-122.954192,46.109816],[-122.954174,46.109656],[-122.954063,46.109636],[-122.954063,46.109277],[-122.95417,46.109261],[-122.954193,46.109187],[-122.954322,46.109187],[-122.954322,46.109367],[-122.954247,46.109369],[-122.954201,46.109395],[-122.954198,46.109513],[-122.95424,46.109542],[-122.954321,46.109547],[-122.954356,46.109627],[-122.954451,46.109637],[-122.954485,46.109718],[-122.954655,46.109724],[-122.954704,46.109693],[-122.95471,46.109637],[-122.954826,46.109613],[-122.954839,46.109547],[-122.954956,46.109523],[-122.954969,46.109367],[-122.95505,46.109363],[-122.955095,46.109329],[-122.955092,46.10922],[-122.95505,46.109191],[-122.954969,46.109187],[-122.954969,46.109097],[-122.955173,46.109095],[-122.955222,46.109064],[-122.955228,46.109007],[-122.955357,46.109007],[-122.955357,46.109097],[-122.955269,46.109103],[-122.955229,46.10914],[-122.955227,46.109367],[-122.955139,46.109373],[-122.9551,46.10941],[-122.955099,46.109697],[-122.955131,46.109731],[-122.955188,46.10974],[-122.955339,46.109707],[-122.955357,46.109547],[-122.955438,46.109543],[-122.95548,46.109514],[-122.955486,46.109277],[-122.955581,46.109268],[-122.955616,46.109187],[-122.95569,46.109185],[-122.955736,46.109159],[-122.955746,46.108917],[-122.95582,46.108915],[-122.955866,46.108889],[-122.955875,46.108737],[-122.956004,46.108737],[-122.955984,46.109041],[-122.956012,46.109084],[-122.95621,46.109121],[-122.956358,46.109088],[-122.956392,46.109043],[-122.956379,46.108941],[-122.956263,46.108917],[-122.956263,46.108066],[-122.956223,46.108024],[-122.956134,46.108017],[-122.956126,46.107596],[-122.95608,46.10757],[-122.955922,46.107558],[-122.955877,46.107597],[-122.955876,46.107747],[-122.955617,46.107747],[-122.955604,46.107411],[-122.955488,46.107387],[-122.955482,46.10733],[-122.95544,46.107301],[-122.955229,46.107297],[-122.955223,46.10724],[-122.955181,46.107211],[-122.954971,46.107207],[-122.954948,46.107133],[-122.954841,46.107117],[-122.954841,46.106937],[-122.954948,46.106921],[-122.954971,46.106847],[-122.955229,46.106847],[-122.955243,46.106913],[-122.955359,46.106937],[-122.955387,46.107015],[-122.95554,46.107027],[-122.955605,46.107003],[-122.955618,46.106937],[-122.955806,46.106937],[-122.955859,46.106917],[-122.955911,46.106805],[-122.955877,46.106757],[-122.955868,46.106606],[-122.955814,46.106578],[-122.955618,46.106577],[-122.955595,46.106503],[-122.955489,46.106487],[-122.955489,46.106307],[-122.955595,46.106291],[-122.955618,46.106217],[-122.955748,46.106217],[-122.955761,46.106283],[-122.955877,46.106307],[-122.955911,46.106388],[-122.956265,46.106397],[-122.956288,46.106471],[-122.956394,46.106487],[-122.956394,46.106577],[-122.956186,46.106578],[-122.956132,46.106598],[-122.956135,46.106847],[-122.95604,46.106856],[-122.956006,46.106937],[-122.955924,46.106941],[-122.95588,46.106975],[-122.955889,46.107093],[-122.956006,46.107117],[-122.956006,46.107248],[-122.956034,46.107285],[-122.956383,46.107286],[-122.956411,46.107368],[-122.956523,46.107387],[-122.956536,46.107453],[-122.956652,46.107478],[-122.956687,46.107558],[-122.956841,46.107567],[-122.956902,46.107539],[-122.956911,46.107388],[-122.956946,46.10734],[-122.956889,46.107223],[-122.956653,46.107207],[-122.956592,46.107183],[-122.956523,46.107207],[-122.956394,46.107207],[-122.956406,46.107057],[-122.956359,46.10703],[-122.956265,46.107026],[-122.956265,46.106937],[-122.956371,46.106922],[-122.956394,46.106847],[-122.956653,46.106848],[-122.956659,46.106994],[-122.956701,46.107023],[-122.956782,46.107028],[-122.956788,46.107084],[-122.95683,46.107113],[-122.956993,46.107113],[-122.957035,46.107084],[-122.957041,46.107028],[-122.95717,46.107028],[-122.957183,46.107094],[-122.9573,46.107118],[-122.957334,46.107199],[-122.957558,46.107208]],[[-122.955091,46.110684],[-122.955116,46.110582],[-122.955077,46.110544],[-122.954886,46.110541],[-122.95484,46.11058],[-122.954844,46.110697],[-122.954906,46.11073],[-122.955049,46.110713],[-122.955091,46.110684]],[[-122.955098,46.110037],[-122.95503,46.109983],[-122.954867,46.110009],[-122.954839,46.110046],[-122.954856,46.11017],[-122.954921,46.110191],[-122.955069,46.110165],[-122.955096,46.110133],[-122.955098,46.110037]],[[-122.955658,46.107381],[-122.955808,46.107401],[-122.955864,46.107376],[-122.955875,46.107251],[-122.955828,46.107211],[-122.955678,46.107195],[-122.955621,46.107232],[-122.955619,46.107344],[-122.955658,46.107381]],[[-122.957072,46.108256],[-122.957023,46.108037],[-122.956828,46.108008],[-122.956785,46.108042],[-122.956781,46.108107],[-122.956686,46.108117],[-122.956652,46.108197],[-122.956536,46.108221],[-122.956528,46.108344],[-122.956577,46.108375],[-122.956781,46.108378],[-122.956842,46.108402],[-122.956992,46.108373],[-122.957031,46.108349],[-122.957072,46.108256]]]}},{"type":"Feature","properties":{"id":1,"area_m2":24500,"px":245,"rank":4,"persistent":false},"geometry":{"type":"Polygon","coordinates":[[[-122.962085,46.11063],[-122.962084,46.111439],[-122.962003,46.111444],[-122.961958,46.111478],[-122.961955,46.111709],[-122.961866,46.111716],[-122.961827,46.111753],[-122.961825,46.111979],[-122.961051,46.111979],[-122.960988,46.111955],[-122.960917,46.111979],[-122.959366,46.111978],[-122.959367,46.111619],[-122.959462,46.111609],[-122.959496,46.111529],[-122.959612,46.111505],[-122.959626,46.111349],[-122.959843,46.111342],[-122.959881,46.11131],[-122.959885,46.111259],[-122.960068,46.111273],[-122.960122,46.111256],[-122.960144,46.111079],[-122.960225,46.111075],[-122.96027,46.111041],[-122.960273,46.110899],[-122.960374,46.110887],[-122.960403,46.110809],[-122.960504,46.110797],[-122.960532,46.110719],[-122.960633,46.110707],[-122.960662,46.110629],[-122.960762,46.110617],[-122.960791,46.110539],[-122.960886,46.11053],[-122.96092,46.110449],[-122.961032,46.110429],[-122.96105,46.110269],[-122.961254,46.110267],[-122.961303,46.110236],[-122.961309,46.110179],[-122.961438,46.110179],[-122.961461,46.110253],[-122.961567,46.110269],[-122.961585,46.11034],[-122.961697,46.110359],[-122.961731,46.11044],[-122.961826,46.110449],[-122.961855,46.110527],[-122.961955,46.110539],[-122.961984,46.110617],[-122.962085,46.11063]],[[-122.96079,46.111709],[-122.960772,46.111639],[-122.960661,46.111619],[-122.960626,46.111538],[-122.960531,46.111529],[-122.960503,46.111451],[-122.960402,46.111439],[-122.960374,46.111361],[-122.960226,46.111335],[-122.96016,46.111355],[-122.960156,46.111505],[-122.960272,46.111529],[-122.96029,46.111599],[-122.960402,46.111619],[-122.960419,46.111689],[-122.960531,46.111709],[-122.960544,46.111775],[-122.960661,46.111799],[-122.960666,46.111856],[-122.960716,46.111887],[-122.960864,46.111887],[-122.960916,46.111851],[-122.960906,46.111733],[-122.96079,46.111709]]]}},{"type":"Feature","properties":{"id":6,"area_m2":14600,"px":146,"rank":5,"persistent":false},"geometry":{"type":"Polygon","coordinates":[[[-122.95225,46.111166],[-122.95225,46.111346],[-122.952133,46.11137],[-122.95212,46.111526],[-122.952008,46.111545],[-122.95199,46.111706],[-122.951909,46.11171],[-122.951864,46.111744],[-122.951861,46.111976],[-122.951473,46.111975],[-122.95146,46.111909],[-122.951343,46.111885],[-122.951309,46.111804],[-122.950955,46.111795],[-122.950949,46.111739],[-122.9509,46.111708],[-122.950696,46.111705],[-122.950635,46.111681],[-122.950567,46.111705],[-122.950438,46.111705],[-122.950377,46.111681],[-122.950196,46.111725],[-122.950179,46.111885],[-122.950072,46.111901],[-122.950049,46.111975],[-122.949922,46.111975],[-122.94992,46.111885],[-122.950001,46.111881],[-122.950046,46.111847],[-122.950049,46.111705],[-122.950131,46.111701],[-122.950173,46.111672],[-122.950166,46.111549],[-122.95005,46.111525],[-122.950044,46.111468],[-122.950002,46.111439],[-122.949791,46.111435],[-122.949785,46.111378],[-122.949743,46.111349],[-122.949532,46.111345],[-122.949526,46.111288],[-122.949477,46.111257],[-122.949321,46.111259],[-122.949279,46.111288],[-122.949273,46.111344],[-122.949144,46.111344],[-122.949121,46.11127],[-122.949015,46.111254],[-122.949015,46.111076],[-122.949127,46.111055],[-122.949144,46.110894],[-122.949226,46.11089],[-122.949268,46.110861],[-122.949274,46.110625],[-122.949369,46.110615],[-122.949404,46.110535],[-122.94952,46.110511],[-122.949533,46.110355],[-122.949661,46.110355],[-122.949666,46.110406],[-122.949703,46.110438],[-122.949921,46.110445],[-122.949924,46.11051],[-122.949967,46.110544],[-122.95018,46.110535],[-122.950183,46.110587],[-122.950221,46.110619],[-122.950438,46.110625],[-122.950438,46.110715],[-122.950079,46.110727],[-122.950039,46.110816],[-122.949963,46.110806],[-122.949909,46.110834],[-122.949905,46.110877],[-122.949952,46.110914],[-122.950012,46.110916],[-122.950061,46.110884],[-122.950179,46.110895],[-122.950214,46.110976],[-122.950361,46.110985],[-122.950425,46.110961],[-122.950438,46.110895],[-122.950792,46.110893],[-122.950845,46.11085],[-122.950827,46.110715],[-122.951032,46.110726],[-122.95108,46.110695],[-122.951086,46.110625],[-122.951215,46.110625],[-122.951218,46.110857],[-122.951263,46.110891],[-122.951344,46.110895],[-122.951366,46.110983],[-122.951419,46.110999],[-122.951732,46.110986],[-122.951732,46.111075],[-122.951651,46.11108],[-122.951606,46.111114],[-122.951603,46.111207],[-122.951631,46.111243],[-122.951958,46.11126],[-122.951991,46.111221],[-122.951991,46.111076],[-122.95212,46.111076],[-122.952143,46.11115],[-122.95225,46.111166]],[[-122.949714,46.110805],[-122.949788,46.110766],[-122.949782,46.110653],[-122.949729,46.110626],[-122.949572,46.110618],[-122.949534,46.110654],[-122.949521,46.110775],[-122.949575,46.110804],[-122.949714,46.110805]],[[-122.951732,46.111435],[-122.951726,46.111379],[-122.951684,46.11135],[-122.951344,46.111345],[-122.95134,46.111294],[-122.951303,46.111262],[-122.951085,46.111255],[-122.951072,46.111189],[-122.950956,46.111165],[-122.95095,46.111109],[-122.950901,46.111078],[-122.950738,46.111082],[-122.9507,46.111113],[-122.950697,46.111165],[-122.950615,46.111169],[-122.950571,46.111203],[-122.950567,46.111345],[-122.950533,46.111393],[-122.95059,46.111509],[-122.950826,46.111525],[-122.950832,46.111582],[-122.950881,46.111613],[-122.951085,46.111615],[-122.951091,46.111672],[-122.951133,46.111701],[-122.951343,46.111705],[-122.951349,46.111762],[-122.951398,46.111793],[-122.951676,46.111793],[-122.951726,46.111762],[-122.951732,46.111706],[-122.951848,46.111682],[-122.951858,46.111474],[-122.951813,46.11144],[-122.951732,46.111435]]]}},{"type":"Feature","properties":{"id":16,"area_m2":12500,"px":125,"rank":6,"persistent":false},"geometry":{"type":"Polygon","coordinates":[[[-122.955358,46.108467],[-122.955357,46.108917],[-122.955024,46.108919],[-122.954975,46.10895],[-122.954969,46.109007],[-122.95484,46.109007],[-122.954771,46.108983],[-122.95471,46.109007],[-122.954377,46.109009],[-122.954328,46.10904],[-122.954322,46.109097],[-122.954092,46.109109],[-122.954063,46.109186],[-122.953845,46.109193],[-122.953806,46.10923],[-122.953806,46.109323],[-122.953845,46.10936],[-122.953933,46.109366],[-122.953933,46.109456],[-122.953859,46.109459],[-122.953813,46.109485],[-122.953804,46.109636],[-122.953416,46.109636],[-122.953416,46.109546],[-122.953612,46.109545],[-122.953665,46.109518],[-122.953671,46.109315],[-122.953612,46.109277],[-122.953416,46.109276],[-122.953407,46.109125],[-122.953361,46.109099],[-122.953287,46.109096],[-122.953281,46.108769],[-122.953239,46.10874],[-122.953158,46.108736],[-122.953152,46.108589],[-122.95311,46.10856],[-122.953028,46.108556],[-122.953025,46.108414],[-122.952981,46.10838],[-122.952899,46.108376],[-122.952886,46.10822],[-122.95277,46.108196],[-122.952761,46.108044],[-122.952715,46.108018],[-122.952641,46.108016],[-122.952632,46.107864],[-122.952586,46.107838],[-122.952512,46.107836],[-122.952512,46.107386],[-122.952838,46.107385],[-122.952891,46.107357],[-122.9529,46.107296],[-122.953124,46.107287],[-122.953159,46.107206],[-122.953275,46.107182],[-122.953289,46.107116],[-122.953477,46.107116],[-122.95353,46.107096],[-122.953547,46.106936],[-122.953806,46.106936],[-122.953819,46.107002],[-122.953935,46.107026],[-122.953941,46.107083],[-122.95399,46.107114],[-122.954453,46.107117],[-122.954429,46.107279],[-122.954514,46.107321],[-122.954582,46.107297],[-122.954712,46.107297],[-122.954711,46.107387],[-122.954677,46.107434],[-122.954717,46.107533],[-122.954759,46.107563],[-122.954841,46.107567],[-122.954844,46.107708],[-122.954889,46.107743],[-122.95497,46.107747],[-122.954983,46.107903],[-122.955099,46.107927],[-122.955099,46.108017],[-122.955065,46.108064],[-122.955099,46.108107],[-122.955105,46.108434],[-122.955161,46.108466],[-122.955358,46.108467]],[[-122.95497,46.108467],[-122.954964,46.10832],[-122.954922,46.108291],[-122.95484,46.108287],[-122.954834,46.10814],[-122.954792,46.108111],[-122.954711,46.108107],[-122.954705,46.10796],[-122.954663,46.107931],[-122.954582,46.107927],[-122.954576,46.10778],[-122.954534,46.107751],[-122.954453,46.107747],[-122.954447,46.1076],[-122.954405,46.107571],[-122.954323,46.107566],[-122.95432,46.107425],[-122.954275,46.107391],[-122.954194,46.107386],[-122.954193,46.10725],[-122.954153,46.107213],[-122.953724,46.10721],[-122.953682,46.10724],[-122.953676,46.107296],[-122.95356,46.10732],[-122.953547,46.107386],[-122.953329,46.107393],[-122.953291,46.107424],[-122.953288,46.107476],[-122.953077,46.10748],[-122.953035,46.107509],[-122.953029,46.107566],[-122.952818,46.10757],[-122.952776,46.107599],[-122.95277,46.107656],[-122.952696,46.107658],[-122.95265,46.107684],[-122.952647,46.107803],[-122.952689,46.107832],[-122.95277,46.107836],[-122.952776,46.107983],[-122.952818,46.108012],[-122.952899,46.108016],[-122.952905,46.108163],[-122.952947,46.108192],[-122.953029,46.108196],[-122.953034,46.108343],[-122.953076,46.108372],[-122.953158,46.108376],[-122.953164,46.108523],[-122.953206,46.108552],[-122.953287,46.108556],[-122.953293,46.108703],[-122.953335,46.108732],[-122.953416,46.108736],[-122.95342,46.108878],[-122.953464,46.108912],[-122.953546,46.108916],[-122.953547,46.109053],[-122.953587,46.10909],[-122.953886,46.109092],[-122.953928,46.109063],[-122.953934,46.109006],[-122.954164,46.108994],[-122.954193,46.108917],[-122.954309,46.108893],[-122.954322,46.108827],[-122.95465,46.108839],[-122.954705,46.108807],[-122.954711,46.108737],[-122.954936,46.108741],[-122.954969,46.108647],[-122.955058,46.10864],[-122.955098,46.108598],[-122.955086,46.108491],[-122.95497,46.108467]]]}},{"type":"Feature","properties":{"id":32,"area_m2":10400,"px":104,"rank":7,"persistent":false},"geometry":{"type":"Polygon","coordinates":[[[-122.948891,46.104954],[-122.948891,46.105134],[-122.948687,46.105136],[-122.948638,46.105167],[-122.948632,46.105224],[-122.948402,46.105236],[-122.948374,46.105273],[-122.948373,46.105404],[-122.947918,46.105405],[-122.947865,46.105432],[-122.947855,46.105494],[-122.947726,46.105494],[-122.94772,46.105437],[-122.947671,46.105406],[-122.947338,46.105403],[-122.947335,46.105352],[-122.947297,46.10532],[-122.947079,46.105313],[-122.947066,46.105247],[-122.94695,46.105223],[-122.946944,46.105153],[-122.94689,46.105121],[-122.946704,46.105157],[-122.946691,46.105313],[-122.946562,46.105313],[-122.946562,46.104683],[-122.946787,46.104674],[-122.946856,46.104551],[-122.946775,46.104481],[-122.946692,46.104503],[-122.946562,46.104503],[-122.946563,46.104413],[-122.946669,46.104397],[-122.946692,46.104323],[-122.946922,46.104311],[-122.946951,46.104233],[-122.947067,46.104209],[-122.94708,46.104143],[-122.947468,46.104144],[-122.947468,46.104233],[-122.947373,46.104243],[-122.947339,46.104323],[-122.947232,46.104339],[-122.947198,46.104424],[-122.947122,46.104414],[-122.947072,46.104438],[-122.947062,46.10448],[-122.947098,46.104517],[-122.947164,46.104526],[-122.94722,46.104492],[-122.947468,46.104504],[-122.947481,46.10457],[-122.947597,46.104594],[-122.947601,46.104645],[-122.947638,46.104677],[-122.947856,46.104684],[-122.947865,46.104745],[-122.947919,46.104773],[-122.948244,46.104774],[-122.94825,46.104921],[-122.948292,46.10495],[-122.948373,46.104954],[-122.948379,46.105024],[-122.948426,46.105055],[-122.948706,46.105042],[-122.948756,46.105011],[-122.948762,46.104954],[-122.948891,46.104954]],[[-122.947468,46.104773],[-122.947462,46.104717],[-122.94742,46.104688],[-122.947142,46.104684],[-122.947086,46.104717],[-122.947061,46.104818],[-122.947107,46.104859],[-122.947209,46.104863],[-122.947212,46.104929],[-122.947255,46.104963],[-122.947542,46.104951],[-122.947594,46.104915],[-122.947594,46.104812],[-122.947549,46.104778],[-122.947468,46.104773]]]}},{"type":"Feature","properties":{"id":7,"area_m2":10100,"px":101,"rank":8,"persistent":false},"geometry":{"type":"Polygon","coordinates":[[[-122.948497,46.111434],[-122.948497,46.111614],[-122.948402,46.111623],[-122.948367,46.111704],[-122.948255,46.111724],[-122.948237,46.111884],[-122.948131,46.1119],[-122.948108,46.111974],[-122.947461,46.111974],[-122.947438,46.111899],[-122.947332,46.111884],[-122.947297,46.111803],[-122.947202,46.111793],[-122.947203,46.111704],[-122.947291,46.111697],[-122.94733,46.11166],[-122.947332,46.111469],[-122.947299,46.111429],[-122.947114,46.11144],[-122.947077,46.111472],[-122.947073,46.111523],[-122.946855,46.11153],[-122.946818,46.111562],[-122.946814,46.111613],[-122.946685,46.111613],[-122.946662,46.111539],[-122.946556,46.111523],[-122.946556,46.110893],[-122.947074,46.110894],[-122.94708,46.11095],[-122.947129,46.110981],[-122.947462,46.110984],[-122.947475,46.11105],[-122.947591,46.111074],[-122.947614,46.111148],[-122.94785,46.111164],[-122.947863,46.11123],[-122.947979,46.111254],[-122.948014,46.111335],[-122.948238,46.111344],[-122.948244,46.111401],[-122.948293,46.111432],[-122.948497,46.111434]]]}},{"type":"Feature","properties":{"id":35,"area_m2":7500,"px":75,"rank":9,"persistent":false},"geometry":{"type":"Polygon","coordinates":[[[-122.947728,46.102974],[-122.947728,46.103064],[-122.94764,46.10307],[-122.947599,46.103112],[-122.947598,46.103694],[-122.947381,46.1037],[-122.947343,46.103732],[-122.947339,46.103783],[-122.947006,46.103786],[-122.946957,46.103817],[-122.946951,46.103873],[-122.946822,46.103873],[-122.946799,46.103799],[-122.946693,46.103783],[-122.9467,46.103628],[-122.946658,46.103606],[-122.946563,46.103603],[-122.946564,46.102883],[-122.946659,46.102874],[-122.946693,46.102829],[-122.946688,46.102646],[-122.946646,46.102617],[-122.946564,46.102613],[-122.946564,46.102433],[-122.946694,46.102433],[-122.946716,46.102507],[-122.946823,46.102523],[-122.946829,46.10276],[-122.946871,46.102789],[-122.946952,46.102793],[-122.946987,46.102874],[-122.947081,46.102883],[-122.947116,46.102964],[-122.947287,46.102985],[-122.947335,46.102954],[-122.94734,46.102884],[-122.947468,46.102884],[-122.947473,46.102935],[-122.947511,46.102967],[-122.947728,46.102974]],[[-122.947133,46.103513],[-122.947207,46.103475],[-122.947197,46.103357],[-122.94714,46.103334],[-122.946965,46.103343],[-122.946932,46.103389],[-122.946965,46.103489],[-122.947014,46.103512],[-122.947133,46.103513]]]}},{"type":"Feature","properties":{"id":5,"area_m2":6500,"px":65,"rank":10,"persistent":false},"geometry":{"type":"Polygon","coordinates":[[[-122.953415,46.110896],[-122.953414,46.110986],[-122.95332,46.110995],[-122.953285,46.11104],[-122.953298,46.111142],[-122.953414,46.111166],[-122.953414,46.111256],[-122.953226,46.111256],[-122.953173,46.111276],[-122.953155,46.111526],[-122.952925,46.111538],[-122.952897,46.111575],[-122.952896,46.111706],[-122.952801,46.111715],[-122.952767,46.11176],[-122.95277,46.111848],[-122.952822,46.111884],[-122.952991,46.111877],[-122.953026,46.111796],[-122.953412,46.111796],[-122.953414,46.111886],[-122.953196,46.111893],[-122.953158,46.111924],[-122.953155,46.111976],[-122.952249,46.111976],[-122.952249,46.111796],[-122.952338,46.111789],[-122.952377,46.111752],[-122.952379,46.111526],[-122.952508,46.111526],[-122.952514,46.111583],[-122.952556,46.111612],[-122.952719,46.111612],[-122.952766,46.111573],[-122.952767,46.111436],[-122.952856,46.11143],[-122.952895,46.111393],[-122.952884,46.11128],[-122.952767,46.111256],[-122.952733,46.111175],[-122.952638,46.111166],[-122.95261,46.111088],[-122.952379,46.111076],[-122.952379,46.110986],[-122.952461,46.110982],[-122.952505,46.110948],[-122.952509,46.110806],[-122.95259,46.110802],[-122.952632,46.110773],[-122.952639,46.110626],[-122.952745,46.11061],[-122.952768,46.110536],[-122.952884,46.110512],[-122.952897,46.110446],[-122.953156,46.110446],[-122.953156,46.110536],[-122.953121,46.110584],[-122.953162,46.110683],[-122.953204,46.110712],[-122.953285,46.110716],[-122.953282,46.110876],[-122.953415,46.110896]],[[-122.953186,46.110869],[-122.953121,46.110725],[-122.952952,46.110718],[-122.952903,46.110749],[-122.95288,46.110856],[-122.952924,46.110892],[-122.95311,46.110919],[-122.953186,46.110869]]]}},{"type":"Feature","properties":{"id":30,"area_m2":6400,"px":64,"rank":11,"persistent":false},"geometry":{"type":"Polygon","coordinates":[[[-122.95523,46.106127],[-122.95523,46.106307],[-122.955101,46.106307],[-122.955083,46.106237],[-122.954971,46.106217],[-122.954962,46.106155],[-122.954901,46.106127],[-122.954631,46.106131],[-122.954589,46.10616],[-122.954583,46.106217],[-122.954467,46.106241],[-122.954453,46.106397],[-122.954419,46.106439],[-122.954459,46.106543],[-122.954501,46.106572],[-122.954583,46.106577],[-122.954589,46.106633],[-122.954631,46.106663],[-122.954841,46.106667],[-122.954841,46.106845],[-122.954746,46.106856],[-122.954712,46.106937],[-122.954605,46.106952],[-122.954582,46.107027],[-122.954453,46.107027],[-122.954447,46.10697],[-122.954398,46.106939],[-122.954065,46.106936],[-122.954084,46.106621],[-122.954038,46.106581],[-122.953936,46.106576],[-122.953927,46.106425],[-122.953881,46.106399],[-122.953807,46.106396],[-122.953822,46.106161],[-122.953765,46.106127],[-122.953548,46.106126],[-122.953548,46.106036],[-122.954003,46.106035],[-122.954057,46.106008],[-122.954066,46.105946],[-122.954311,46.105937],[-122.954344,46.105896],[-122.954321,46.105805],[-122.954277,46.105771],[-122.954195,46.105766],[-122.954195,46.105678],[-122.954325,46.105677],[-122.954328,46.105728],[-122.954366,46.10576],[-122.954583,46.105767],[-122.954589,46.105823],[-122.954639,46.105854],[-122.954842,46.105857],[-122.954827,46.106002],[-122.954877,46.106034],[-122.954971,46.106037],[-122.955006,46.106118],[-122.95523,46.106127]]]}},{"type":"Feature","properties":{"id":21,"area_m2":5300,"px":53,"rank":12,"persistent":false},"geometry":{"type":"Polygon","coordinates":[[[-122.952382,46.107836],[-122.952382,46.108016],[-122.952123,46.108016],[-122.9521,46.107941],[-122.951994,46.107926],[-122.951972,46.107748],[-122.951911,46.107732],[-122.951758,46.107761],[-122.951735,46.107925],[-122.951653,46.10793],[-122.951609,46.107964],[-122.951615,46.108077],[-122.951668,46.108104],[-122.951864,46.108106],[-122.95187,46.108176],[-122.951917,46.108207],[-122.952123,46.108196],[-122.952123,46.108286],[-122.952016,46.108301],[-122.951993,46.108376],[-122.951757,46.108391],[-122.951734,46.108465],[-122.951653,46.10847],[-122.951611,46.108499],[-122.951605,46.108645],[-122.950992,46.108654],[-122.950958,46.108694],[-122.950958,46.108825],[-122.950851,46.108841],[-122.950828,46.108915],[-122.950699,46.108915],[-122.950699,46.108825],[-122.95078,46.108821],[-122.950825,46.108787],[-122.950829,46.108645],[-122.950923,46.108636],[-122.950958,46.108555],[-122.951032,46.108553],[-122.951078,46.108527],[-122.951088,46.108375],[-122.951169,46.108371],[-122.951214,46.108337],[-122.951217,46.108195],[-122.951434,46.108194],[-122.951488,46.108166],[-122.951463,46.108039],[-122.951347,46.108015],[-122.951347,46.107925],[-122.951459,46.107906],[-122.951476,46.107745],[-122.951583,46.10773],[-122.951606,46.107655],[-122.951722,46.107631],[-122.951735,46.107566],[-122.951939,46.107563],[-122.951988,46.107532],[-122.951994,46.107476],[-122.952123,46.107476],[-122.952133,46.107627],[-122.952178,46.107653],[-122.952253,46.107656],[-122.95227,46.107816],[-122.952382,46.107836]]]}},{"type":"Feature","properties":{"id":24,"area_m2":4900,"px":49,"rank":13,"persistent":false},"geometry":{"type":"Polygon","coordinates":[[[-122.948888,46.108104],[-122.948888,46.108374],[-122.948781,46.10839],[-122.948758,46.108464],[-122.948629,46.108464],[-122.948623,46.108407],[-122.948574,46.108376],[-122.94837,46.108374],[-122.948365,46.108304],[-122.948317,46.108273],[-122.947982,46.108284],[-122.947954,46.108206],[-122.947724,46.108194],[-122.947718,46.108137],[-122.947668,46.108106],[-122.947513,46.108108],[-122.947471,46.108137],[-122.947465,46.108194],[-122.947335,46.108193],[-122.94735,46.108048],[-122.947301,46.108016],[-122.947206,46.108013],[-122.947178,46.107936],[-122.946818,46.107923],[-122.946812,46.107687],[-122.946756,46.107654],[-122.946559,46.107653],[-122.94656,46.107473],[-122.946689,46.107473],[-122.94675,46.107497],[-122.946818,46.107473],[-122.946948,46.107473],[-122.946961,46.107629],[-122.947018,46.107653],[-122.947206,46.107654],[-122.947229,46.107728],[-122.947336,46.107744],[-122.947349,46.1079],[-122.947465,46.107924],[-122.947471,46.10798],[-122.947513,46.10801],[-122.947683,46.108007],[-122.94772,46.107975],[-122.947724,46.107924],[-122.947982,46.107924],[-122.947988,46.107981],[-122.948037,46.108012],[-122.9485,46.108014],[-122.948506,46.108071],[-122.948555,46.108102],[-122.948888,46.108104]]]}},{"type":"Feature","properties":{"id":11,"area_m2":4200,"px":42,"rank":14,"persistent":false},"geometry":{"type":"Polygon","coordinates":[[[-122.95445,46.110627],[-122.95445,46.110807],[-122.954362,46.110813],[-122.954322,46.11085],[-122.95432,46.111077],[-122.954191,46.111076],[-122.954174,46.110646],[-122.954062,46.110626],[-122.954056,46.11057],[-122.954014,46.110541],[-122.953803,46.110536],[-122.953803,46.110315],[-122.953762,46.110273],[-122.9536,46.110269],[-122.95355,46.1103],[-122.953544,46.110356],[-122.953415,46.110356],[-122.953415,46.109996],[-122.953497,46.109992],[-122.953541,46.109958],[-122.953545,46.109726],[-122.953674,46.109726],[-122.953735,46.10975],[-122.953804,46.109726],[-122.953933,46.109726],[-122.953942,46.109878],[-122.953988,46.109904],[-122.954062,46.109907],[-122.954051,46.110057],[-122.954097,46.110084],[-122.954192,46.110087],[-122.954197,46.110323],[-122.954239,46.110352],[-122.954321,46.110357],[-122.954327,46.110593],[-122.954369,46.110623],[-122.95445,46.110627]]]}},{"type":"Feature","properties":{"id":19,"area_m2":3300,"px":33,"rank":15,"persistent":false},"geometry":{"type":"Polygon","coordinates":[[[-122.953028,46.109006],[-122.953028,46.109096],[-122.952921,46.109112],[-122.952898,46.109186],[-122.952782,46.10921],[-122.952769,46.109276],[-122.95264,46.109276],[-122.952622,46.109116],[-122.95251,46.109096],[-122.952497,46.10903],[-122.952381,46.109006],[-122.952347,46.108925],[-122.952183,46.108903],[-122.952131,46.108931],[-122.952088,46.109043],[-122.952122,46.109096],[-122.952122,46.109186],[-122.951863,46.109186],[-122.95186,46.108954],[-122.951816,46.10892],[-122.951734,46.108915],[-122.951734,46.108826],[-122.951769,46.108783],[-122.951734,46.108735],[-122.951734,46.108646],[-122.951993,46.108646],[-122.951996,46.108697],[-122.952034,46.108729],[-122.952306,46.10875],[-122.952372,46.108721],[-122.952381,46.108646],[-122.95264,46.108646],[-122.952663,46.10872],[-122.952769,46.108736],[-122.952804,46.108817],[-122.952899,46.108826],[-122.952916,46.108986],[-122.953028,46.109006]]]}},{"type":"Feature","properties":{"id":26,"area_m2":1900,"px":19,"rank":16,"persistent":false},"geometry":{"type":"Polygon","coordinates":[[[-122.950442,46.106665],[-122.950442,46.106935],[-122.950368,46.106937],[-122.950322,46.106963],[-122.950312,46.107205],[-122.950224,46.107211],[-122.950184,46.107248],[-122.950182,46.107655],[-122.950076,46.107671],[-122.950053,46.107745],[-122.949406,46.107744],[-122.949406,46.107655],[-122.949869,46.107652],[-122.949918,46.107621],[-122.949924,46.107565],[-122.95004,46.107541],[-122.950054,46.107115],[-122.950165,46.107095],[-122.950183,46.106935],[-122.950271,46.106928],[-122.950312,46.106886],[-122.9503,46.106779],[-122.950183,46.106755],[-122.950183,46.106665],[-122.950442,46.106665]]]}},{"type":"Feature","properties":{"id":10,"area_m2":1400,"px":14,"rank":17,"persistent":false},"geometry":{"type":"Polygon","coordinates":[[[-122.95445,46.111167],[-122.954449,46.111257],[-122.954368,46.111261],[-122.954323,46.111295],[-122.95432,46.111437],[-122.954191,46.111437],[-122.954185,46.111366],[-122.954123,46.111333],[-122.953544,46.111346],[-122.953544,46.111166],[-122.953727,46.11118],[-122.953781,46.111164],[-122.953803,46.110986],[-122.953932,46.110987],[-122.953945,46.111052],[-122.954061,46.111077],[-122.954067,46.111133],[-122.954109,46.111162],[-122.954252,46.111191],[-122.95432,46.111167],[-122.95445,46.111167]]]}},{"type":"Feature","properties":{"id":34,"area_m2":1400,"px":14,"rank":18,"persistent":false},"geometry":{"type":"Polygon","coordinates":[[[-122.950833,46.103605],[-122.950833,46.103695],[-122.950726,46.103711],[-122.950671,46.103817],[-122.950703,46.103965],[-122.950574,46.103965],[-122.950561,46.103899],[-122.950445,46.103875],[-122.95041,46.103794],[-122.950186,46.103785],[-122.950185,46.103468],[-122.950145,46.103431],[-122.950057,46.103425],[-122.950057,46.103335],[-122.950186,46.103335],[-122.950192,46.103391],[-122.950241,46.103422],[-122.950445,46.103425],[-122.950458,46.103491],[-122.950574,46.103515],[-122.950578,46.103567],[-122.950615,46.103599],[-122.950833,46.103605]]]}},{"type":"Feature","properties":{"id":4,"area_m2":1200,"px":12,"rank":19,"persistent":false},"geometry":{"type":"Polygon","coordinates":[[[-122.954579,46.111617],[-122.954579,46.111707],[-122.954477,46.111711],[-122.954432,46.111746],[-122.954449,46.111977],[-122.953931,46.111976],[-122.953932,46.111887],[-122.953966,46.111844],[-122.953932,46.111796],[-122.953932,46.111707],[-122.954257,46.111706],[-122.954311,46.111678],[-122.95432,46.111617],[-122.954579,46.111617]]]}},{"type":"Feature","properties":{"id":31,"area_m2":1100,"px":11,"rank":20,"persistent":false},"geometry":{"type":"Polygon","coordinates":[[[-122.951219,46.106395],[-122.951219,46.106485],[-122.95101,46.106485],[-122.950957,46.106506],[-122.95096,46.106665],[-122.950853,46.106681],[-122.95083,46.106755],[-122.950572,46.106755],[-122.950572,46.106575],[-122.950646,46.106573],[-122.950692,46.106546],[-122.950701,46.106395],[-122.950919,46.106389],[-122.950957,46.106357],[-122.950962,46.106305],[-122.951089,46.106305],[-122.951112,46.106379],[-122.951219,46.106395]]]}},{"type":"Feature","properties":{"id":13,"area_m2":1000,"px":10,"rank":21,"persistent":false},"geometry":{"type":"Polygon","coordinates":[[[-122.950439,46.109725],[-122.950439,46.109815],[-122.95022,46.109808],[-122.950184,46.10984],[-122.95018,46.109905],[-122.950086,46.109914],[-122.950051,46.109995],[-122.949939,46.110014],[-122.949921,46.110175],[-122.949815,46.110191],[-122.949792,46.110265],[-122.949663,46.110265],[-122.949663,46.110175],[-122.949744,46.110171],[-122.949789,46.110136],[-122.949792,46.109995],[-122.949874,46.109991],[-122.949916,46.109961],[-122.949922,46.109815],[-122.950017,46.109806],[-122.950051,46.109725],[-122.950125,46.109723],[-122.950171,46.109696],[-122.950181,46.109545],[-122.95031,46.109545],[-122.950319,46.109696],[-122.950365,46.109723],[-122.950439,46.109725]]]}},{"type":"Feature","properties":{"id":15,"area_m2":900,"px":9,"rank":22,"persistent":false},"geometry":{"type":"Polygon","coordinates":[[[-122.956648,46.109459],[-122.956616,46.109505],[-122.956651,46.109548],[-122.956651,46.109637],[-122.956521,46.109637],[-122.956493,46.10956],[-122.956316,46.109524],[-122.956156,46.109563],[-122.956133,46.109637],[-122.956017,46.109661],[-122.956004,46.109727],[-122.955874,46.109727],[-122.955874,46.109637],[-122.955963,46.109631],[-122.956002,46.109594],[-122.956004,46.109367],[-122.956133,46.109367],[-122.956194,46.109391],[-122.956263,46.109367],[-122.956392,46.109367],[-122.956453,46.109392],[-122.956522,46.109368],[-122.956651,46.109368],[-122.956648,46.109459]]]}},{"type":"Feature","properties":{"id":8,"area_m2":600,"px":6,"rank":23,"persistent":false},"geometry":{"type":"Polygon","coordinates":[[[-122.949014,46.111434],[-122.949014,46.111704],[-122.948907,46.11172],[-122.948885,46.111794],[-122.948626,46.111794],[-122.948626,46.111704],[-122.948721,46.111695],[-122.948756,46.111614],[-122.94883,46.111612],[-122.948876,46.111586],[-122.948885,46.111434],[-122.949014,46.111434]]]}},{"type":"Feature","properties":{"id":23,"area_m2":500,"px":5,"rank":24,"persistent":false},"geometry":{"type":"Polygon","coordinates":[[[-122.949276,46.108194],[-122.949276,46.108464],[-122.949017,46.108464],[-122.949017,46.108284],[-122.949124,46.108269],[-122.949147,46.108194],[-122.949276,46.108194]]]}},{"type":"Feature","properties":{"id":3,"area_m2":400,"px":4,"rank":25,"persistent":false},"geometry":{"type":"Polygon","coordinates":[[[-122.955484,46.111617],[-122.955484,46.111797],[-122.955378,46.111813],[-122.955355,46.111887],[-122.955239,46.111911],[-122.955225,46.111977],[-122.955096,46.111977],[-122.955096,46.111887],[-122.955191,46.111878],[-122.955226,46.111797],[-122.9553,46.111795],[-122.955346,46.111768],[-122.955355,46.111617],[-122.955484,46.111617]]]}},{"type":"Feature","properties":{"id":20,"area_m2":400,"px":4,"rank":26,"persistent":false},"geometry":{"type":"Polygon","coordinates":[[[-122.961051,46.108829],[-122.961051,46.108919],[-122.960922,46.108919],[-122.960899,46.108845],[-122.960792,46.108829],[-122.960779,46.108763],[-122.960663,46.108739],[-122.960634,46.108661],[-122.960534,46.108649],[-122.960534,46.108559],[-122.960663,46.108559],[-122.960686,46.108633],[-122.960792,46.108649],[-122.960805,46.108715],[-122.960921,46.108739],[-122.96095,46.108817],[-122.961051,46.108829]]]}},{"type":"Feature","properties":{"id":36,"area_m2":400,"px":4,"rank":27,"persistent":false},"geometry":{"type":"Polygon","coordinates":[[[-122.949927,46.103425],[-122.949927,46.103695],[-122.949798,46.103695],[-122.949775,46.10362],[-122.949669,46.103604],[-122.949669,46.103515],[-122.949775,46.103499],[-122.949798,46.103425],[-122.949927,46.103425]]]}},{"type":"Feature","properties":{"id":14,"area_m2":300,"px":3,"rank":28,"persistent":false},"geometry":{"type":"Polygon","coordinates":[[[-122.951604,46.109996],[-122.951604,46.110175],[-122.951345,46.110175],[-122.951345,46.110085],[-122.951452,46.11007],[-122.951474,46.109995],[-122.951604,46.109996]]]}},{"type":"Feature","properties":{"id":17,"area_m2":300,"px":3,"rank":29,"persistent":false},"geometry":{"type":"Polygon","coordinates":[[[-122.950569,46.109185],[-122.950569,46.109275],[-122.950488,46.109279],[-122.950443,46.109313],[-122.95044,46.109455],[-122.95031,46.109455],[-122.95031,46.109275],[-122.950417,46.109259],[-122.95044,46.109185],[-122.950569,46.109185]]]}},{"type":"Feature","properties":{"id":18,"area_m2":300,"px":3,"rank":30,"persistent":false},"geometry":{"type":"Polygon","coordinates":[[[-122.961698,46.109189],[-122.961698,46.109279],[-122.961568,46.109279],[-122.961546,46.109205],[-122.961439,46.109189],[-122.961404,46.109108],[-122.96131,46.109099],[-122.96131,46.109009],[-122.961439,46.109009],[-122.961462,46.109083],[-122.961568,46.109099],[-122.961603,46.10918],[-122.961698,46.109189]]]}},{"type":"Feature","properties":{"id":22,"area_m2":300,"px":3,"rank":31,"persistent":false},"geometry":{"type":"Polygon","coordinates":[[[-122.956005,46.108287],[-122.956004,46.108557],[-122.955875,46.108557],[-122.955875,46.108287],[-122.956005,46.108287]]]}},{"type":"Feature","properties":{"id":25,"area_m2":300,"px":3,"rank":32,"persistent":false},"geometry":{"type":"Polygon","coordinates":[[[-122.952511,46.108196],[-122.952511,46.108286],[-122.952404,46.108302],[-122.952381,46.108376],[-122.952252,46.108376],[-122.952252,46.108196],[-122.952511,46.108196]]]}},{"type":"Feature","properties":{"id":27,"area_m2":300,"px":3,"rank":33,"persistent":false},"geometry":{"type":"Polygon","coordinates":[[[-122.955358,46.107567],[-122.955358,46.107657],[-122.955231,46.107657],[-122.955206,46.107583],[-122.9551,46.107567],[-122.9551,46.107387],[-122.955229,46.107387],[-122.955238,46.107538],[-122.955284,46.107565],[-122.955358,46.107567]]]}},{"type":"Feature","properties":{"id":28,"area_m2":300,"px":3,"rank":34,"persistent":false},"geometry":{"type":"Polygon","coordinates":[[[-122.957946,46.107388],[-122.957946,46.107478],[-122.95784,46.107494],[-122.957817,46.107568],[-122.957688,46.107568],[-122.957688,46.107478],[-122.957722,46.107435],[-122.957688,46.107388],[-122.957688,46.107298],[-122.957817,46.107298],[-122.95784,46.107372],[-122.957946,46.107388]]]}},{"type":"Feature","properties":{"id":29,"area_m2":300,"px":3,"rank":35,"persistent":false},"geometry":{"type":"Polygon","coordinates":[[[-122.952771,46.107026],[-122.952771,46.107116],[-122.952642,46.107116],[-122.952638,46.107064],[-122.9526,46.107032],[-122.952383,46.107026],[-122.952383,46.106936],[-122.952642,46.106936],[-122.952664,46.10701],[-122.952771,46.107026]]]}},{"type":"Feature","properties":{"id":33,"area_m2":300,"px":3,"rank":36,"persistent":false},"geometry":{"type":"Polygon","coordinates":[[[-122.947857,46.104054],[-122.947856,46.104234],[-122.947598,46.104234],[-122.947598,46.104144],[-122.947705,46.104128],[-122.947727,46.104054],[-122.947857,46.104054]]]}}]}