{"type":"FeatureCollection","features":[{"type":"Feature","properties":{"id":4,"area_m2":104100,"px":1041,"rank":1,"persistent":false},"geometry":{"type":"Polygon","coordinates":[[[-122.737931,45.650498],[-122.73793,45.650678],[-122.737836,45.650687],[-122.737801,45.650768],[-122.737686,45.650791],[-122.737672,45.650947],[-122.737438,45.650963],[-122.737415,45.651037],[-122.737315,45.651049],[-122.737286,45.651126],[-122.737192,45.651135],[-122.737157,45.651216],[-122.737042,45.65124],[-122.737028,45.651396],[-122.736812,45.651402],[-122.736775,45.651434],[-122.736771,45.651485],[-122.736656,45.651509],[-122.736642,45.651575],[-122.736426,45.651581],[-122.736389,45.651613],[-122.736385,45.651664],[-122.736157,45.651676],[-122.736128,45.651754],[-122.736,45.651754],[-122.735997,45.651612],[-122.735953,45.651578],[-122.735873,45.651573],[-122.73586,45.651417],[-122.735745,45.651393],[-122.735728,45.651323],[-122.735617,45.651303],[-122.735604,45.651237],[-122.735489,45.651212],[-122.735484,45.651156],[-122.735435,45.651125],[-122.735282,45.651122],[-122.73523,45.651142],[-122.735232,45.651302],[-122.734869,45.651317],[-122.734846,45.651571],[-122.734612,45.651586],[-122.734588,45.65175],[-122.734333,45.65175],[-122.734314,45.651679],[-122.734204,45.651659],[-122.734191,45.651593],[-122.734076,45.651569],[-122.73407,45.651512],[-122.734029,45.651483],[-122.733434,45.651478],[-122.733431,45.651426],[-122.733394,45.651394],[-122.733178,45.651387],[-122.733175,45.651245],[-122.733131,45.651211],[-122.733051,45.651207],[-122.733029,45.651042],[-122.732974,45.651026],[-122.732694,45.65103],[-122.732647,45.651076],[-122.732665,45.651386],[-122.732557,45.651392],[-122.732516,45.651441],[-122.732564,45.651553],[-122.732792,45.651566],[-122.732814,45.65164],[-122.73292,45.651656],[-122.73292,45.651746],[-122.732839,45.65175],[-122.732795,45.651784],[-122.732789,45.651926],[-122.732534,45.651925],[-122.732512,45.651851],[-122.732406,45.651835],[-122.732406,45.651704],[-122.732373,45.651664],[-122.732022,45.651654],[-122.731988,45.651573],[-122.731766,45.651564],[-122.731743,45.651489],[-122.731638,45.651473],[-122.731629,45.651322],[-122.731584,45.651296],[-122.73151,45.651293],[-122.731493,45.651133],[-122.731383,45.651113],[-122.731402,45.650888],[-122.731357,45.650847],[-122.731256,45.650842],[-122.731268,45.650692],[-122.731215,45.650663],[-122.731,45.65066],[-122.731001,45.650482],[-122.731107,45.650466],[-122.73113,45.650392],[-122.731384,45.650393],[-122.731399,45.650459],[-122.731514,45.650483],[-122.731548,45.650564],[-122.73177,45.650574],[-122.731773,45.650625],[-122.731811,45.650657],[-122.731994,45.650668],[-122.732025,45.650634],[-122.732027,45.650533],[-122.731987,45.65049],[-122.731899,45.650484],[-122.7319,45.650214],[-122.732029,45.650214],[-122.732041,45.65028],[-122.732156,45.650305],[-122.73216,45.650356],[-122.732197,45.650388],[-122.73239,45.650379],[-122.732421,45.65024],[-122.732379,45.650217],[-122.732285,45.650215],[-122.732263,45.650141],[-122.732158,45.650124],[-122.732159,45.649855],[-122.732232,45.649852],[-122.732278,45.649826],[-122.732288,45.649675],[-122.732544,45.649675],[-122.732548,45.649727],[-122.732585,45.649759],[-122.732816,45.649774],[-122.732802,45.649826],[-122.73284,45.649863],[-122.732904,45.649867],[-122.732956,45.649834],[-122.732959,45.649793],[-122.732914,45.649759],[-122.73293,45.64964],[-122.732907,45.649602],[-122.732673,45.649586],[-122.732668,45.649529],[-122.732619,45.649498],[-122.732417,45.649495],[-122.732395,45.649421],[-122.732289,45.649405],[-122.732255,45.649324],[-122.732161,45.649314],[-122.732162,45.649224],[-122.732485,45.649224],[-122.732545,45.649182],[-122.732538,45.649074],[-122.732493,45.649047],[-122.732419,45.649045],[-122.732385,45.648964],[-122.732291,45.648955],[-122.732292,45.648865],[-122.73242,45.648865],[-122.732433,45.648931],[-122.732548,45.648955],[-122.732554,45.649012],[-122.732595,45.649041],[-122.732863,45.649046],[-122.73291,45.64903],[-122.732933,45.648956],[-122.733014,45.648952],[-122.733056,45.648923],[-122.733062,45.648777],[-122.733143,45.648773],[-122.733185,45.648743],[-122.733179,45.648531],[-122.733115,45.648507],[-122.732598,45.648509],[-122.732551,45.648549],[-122.732549,45.648685],[-122.732421,45.648685],[-122.732353,45.648661],[-122.732205,45.648691],[-122.732164,45.648733],[-122.732179,45.648857],[-122.732035,45.648864],[-122.732036,45.648594],[-122.732071,45.648552],[-122.732037,45.648504],[-122.732038,45.648324],[-122.732652,45.648321],[-122.732699,45.648275],[-122.732682,45.648146],[-122.732937,45.648146],[-122.73294,45.648198],[-122.732977,45.64823],[-122.733193,45.648237],[-122.733215,45.648311],[-122.733321,45.648327],[-122.733313,45.648482],[-122.733355,45.648505],[-122.733448,45.648507],[-122.733451,45.648573],[-122.733494,45.648607],[-122.733671,45.648589],[-122.733705,45.648508],[-122.733962,45.648509],[-122.733974,45.648575],[-122.73409,45.648599],[-122.734093,45.648651],[-122.73413,45.648683],[-122.734346,45.64869],[-122.734374,45.648767],[-122.734602,45.64878],[-122.734608,45.648837],[-122.734656,45.648868],[-122.734987,45.648871],[-122.734992,45.648928],[-122.735041,45.648959],[-122.735371,45.648962],[-122.735374,45.649014],[-122.735412,45.649046],[-122.735628,45.649053],[-122.73564,45.649118],[-122.735755,45.649143],[-122.735761,45.649199],[-122.735803,45.649229],[-122.735944,45.649257],[-122.736012,45.649233],[-122.736525,45.649235],[-122.736531,45.649291],[-122.736572,45.649321],[-122.73691,45.649326],[-122.736915,45.649382],[-122.736957,45.649411],[-122.737294,45.649416],[-122.737297,45.649468],[-122.737335,45.6495],[-122.73755,45.649507],[-122.73755,45.649597],[-122.737213,45.6496],[-122.737171,45.649629],[-122.737131,45.649723],[-122.737181,45.649846],[-122.737292,45.649866],[-122.737326,45.649947],[-122.73742,45.649958],[-122.737419,45.650137],[-122.737332,45.650143],[-122.737292,45.65018],[-122.73729,45.650406],[-122.737202,45.650413],[-122.737163,45.65045],[-122.737156,45.650926],[-122.737216,45.650946],[-122.737353,45.650946],[-122.737398,45.650927],[-122.737416,45.650767],[-122.73751,45.650758],[-122.737545,45.650677],[-122.737626,45.650673],[-122.737668,45.650644],[-122.737674,45.650497],[-122.737931,45.650498]],[[-122.73157,45.650843],[-122.731514,45.65086],[-122.731492,45.650893],[-122.731529,45.651093],[-122.731588,45.651113],[-122.731868,45.651102],[-122.731896,45.65106],[-122.73188,45.650864],[-122.731828,45.650844],[-122.73157,45.650843]],[[-122.73396,45.648959],[-122.733951,45.648897],[-122.733898,45.648869],[-122.733475,45.64888],[-122.733446,45.648957],[-122.733338,45.648964],[-122.733298,45.649007],[-122.733335,45.649117],[-122.733445,45.649137],[-122.733445,45.649227],[-122.733211,45.649243],[-122.733188,45.649281],[-122.733205,45.649387],[-122.733257,45.649407],[-122.733444,45.649407],[-122.733457,45.649473],[-122.733572,45.649498],[-122.733578,45.649554],[-122.733619,45.649584],[-122.7338,45.649576],[-122.733828,45.64954],[-122.73383,45.649318],[-122.733941,45.649299],[-122.733959,45.649139],[-122.734046,45.649132],[-122.734086,45.649095],[-122.734075,45.648983],[-122.73396,45.648959]],[[-122.736517,45.651035],[-122.736511,45.650965],[-122.736457,45.650932],[-122.736295,45.650953],[-122.73626,45.651034],[-122.736132,45.651034],[-122.736119,45.650968],[-122.736004,45.650943],[-122.736001,45.650892],[-122.735963,45.65086],[-122.735809,45.650854],[-122.735751,45.650891],[-122.73576,45.651009],[-122.735875,45.651033],[-122.735892,45.651194],[-122.735944,45.651213],[-122.736131,45.651214],[-122.736143,45.65137],[-122.736304,45.651417],[-122.736487,45.651382],[-122.736515,45.651305],[-122.73671,45.651304],[-122.736766,45.651272],[-122.736756,45.651055],[-122.736704,45.651035],[-122.736517,45.651035]],[[-122.736409,45.650275],[-122.736358,45.650143],[-122.736191,45.650136],[-122.736142,45.650167],[-122.736118,45.650274],[-122.736177,45.650313],[-122.736357,45.650312],[-122.736409,45.650275]],[[-122.736698,45.650765],[-122.736752,45.650749],[-122.736774,45.650717],[-122.736775,45.650544],[-122.736748,45.650507],[-122.73632,45.650494],[-122.736259,45.650515],[-122.736268,45.650641],[-122.736309,45.65067],[-122.73639,45.650674],[-122.736418,45.650752],[-122.736698,45.650765]],[[-122.736922,45.650366],[-122.736896,45.650254],[-122.736843,45.650226],[-122.736562,45.650226],[-122.736502,45.65027],[-122.736526,45.650371],[-122.736582,45.650404],[-122.736877,45.650401],[-122.736922,45.650366]]]}},{"type":"Feature","properties":{"id":13,"area_m2":36800,"px":368,"rank":2,"persistent":false},"geometry":{"type":"Polygon","coordinates":[[[-122.729997,45.645709],[-122.729996,45.645799],[-122.72978,45.645805],[-122.729743,45.645837],[-122.729739,45.645888],[-122.729395,45.645894],[-122.729358,45.645926],[-122.729354,45.645977],[-122.729152,45.645979],[-122.729103,45.64601],[-122.729097,45.646067],[-122.728874,45.646075],[-122.72884,45.646156],[-122.728746,45.646165],[-122.728711,45.646246],[-122.728637,45.646248],[-122.728592,45.646274],[-122.728587,45.646482],[-122.728629,45.646512],[-122.72871,45.646516],[-122.728726,45.646676],[-122.728837,45.646696],[-122.728871,45.646777],[-122.728965,45.646787],[-122.728964,45.646967],[-122.728836,45.646966],[-122.728819,45.646896],[-122.728708,45.646876],[-122.728691,45.646806],[-122.72858,45.646786],[-122.728563,45.646715],[-122.728452,45.646695],[-122.72844,45.646629],[-122.728324,45.646605],[-122.728319,45.646548],[-122.728277,45.646519],[-122.727994,45.646517],[-122.727945,45.646548],[-122.727939,45.646604],[-122.727833,45.64662],[-122.727776,45.646736],[-122.72781,45.646784],[-122.72781,45.646874],[-122.727709,45.646886],[-122.727681,45.646964],[-122.727581,45.646976],[-122.727552,45.647053],[-122.727452,45.647065],[-122.727423,45.647143],[-122.727329,45.647152],[-122.727294,45.647233],[-122.727184,45.647252],[-122.727165,45.647412],[-122.727065,45.647424],[-122.727037,45.647502],[-122.726942,45.647511],[-122.726908,45.647592],[-122.726834,45.647594],[-122.726788,45.64762],[-122.726779,45.647771],[-122.726673,45.647787],[-122.72665,45.647861],[-122.726421,45.647873],[-122.726393,45.647951],[-122.726277,45.647974],[-122.726264,45.64804],[-122.725948,45.64804],[-122.725892,45.648063],[-122.725867,45.64819],[-122.725913,45.648217],[-122.726006,45.64822],[-122.726005,45.64858],[-122.725491,45.648578],[-122.725492,45.648489],[-122.725526,45.648441],[-122.725492,45.648398],[-122.725513,45.648274],[-122.725491,45.648235],[-122.725436,45.648218],[-122.72498,45.648217],[-122.72498,45.648127],[-122.725196,45.648121],[-122.725234,45.64809],[-122.725237,45.648038],[-122.725575,45.648035],[-122.725617,45.648005],[-122.725623,45.647949],[-122.725851,45.647937],[-122.72588,45.647859],[-122.725995,45.647836],[-122.726009,45.64777],[-122.726231,45.647761],[-122.726266,45.64768],[-122.726381,45.647657],[-122.726395,45.647591],[-122.726505,45.647571],[-122.726523,45.647501],[-122.726634,45.647481],[-122.726652,45.647411],[-122.726763,45.647392],[-122.726781,45.647322],[-122.726892,45.647302],[-122.72691,45.647232],[-122.727015,45.647216],[-122.727038,45.647142],[-122.727254,45.647136],[-122.727292,45.647104],[-122.727296,45.647053],[-122.727411,45.647029],[-122.727424,45.646963],[-122.727535,45.646943],[-122.727588,45.646831],[-122.727554,45.646783],[-122.727555,45.646423],[-122.727643,45.646417],[-122.727683,45.646375],[-122.727683,45.646197],[-122.727615,45.646154],[-122.727462,45.646162],[-122.727428,45.646243],[-122.727312,45.646267],[-122.727299,45.646333],[-122.727188,45.646352],[-122.72717,45.646422],[-122.727064,45.646438],[-122.727041,45.646602],[-122.726941,45.646614],[-122.726912,45.646692],[-122.726812,45.646704],[-122.726783,45.646781],[-122.726689,45.64679],[-122.726655,45.646871],[-122.726539,45.646895],[-122.726525,45.647051],[-122.72642,45.647066],[-122.726397,45.64714],[-122.726281,45.647164],[-122.726268,45.64723],[-122.72614,45.64723],[-122.72614,45.64714],[-122.726234,45.647131],[-122.726269,45.64705],[-122.726343,45.647048],[-122.726388,45.647022],[-122.726398,45.646871],[-122.726498,45.646858],[-122.726527,45.646781],[-122.726642,45.646757],[-122.726656,45.646691],[-122.726761,45.646676],[-122.726785,45.646511],[-122.726879,45.646503],[-122.726914,45.646422],[-122.727029,45.646398],[-122.727043,45.646242],[-122.727137,45.646233],[-122.727172,45.646152],[-122.727252,45.646148],[-122.727294,45.646119],[-122.7273,45.645836],[-122.727261,45.645799],[-122.727173,45.645792],[-122.727174,45.645702],[-122.72728,45.645687],[-122.727303,45.645613],[-122.727431,45.645613],[-122.727465,45.645694],[-122.72761,45.645703],[-122.727674,45.645679],[-122.727688,45.645614],[-122.728018,45.645612],[-122.728069,45.645576],[-122.728073,45.645488],[-122.728051,45.64545],[-122.728004,45.645434],[-122.727175,45.645432],[-122.727172,45.645381],[-122.727135,45.645348],[-122.726919,45.645342],[-122.72692,45.644755],[-122.726881,45.644718],[-122.726794,45.644711],[-122.72679,45.64466],[-122.726753,45.644628],[-122.726024,45.644619],[-122.726015,45.644558],[-122.725955,45.644529],[-122.724741,45.644526],[-122.724742,45.644436],[-122.724847,45.644421],[-122.72487,45.644347],[-122.725512,45.644348],[-122.725521,45.64441],[-122.725581,45.644438],[-122.726538,45.644441],[-122.726547,45.644502],[-122.7266,45.64453],[-122.727308,45.644533],[-122.727316,45.644594],[-122.727369,45.644622],[-122.72782,45.644624],[-122.727829,45.644685],[-122.727882,45.644713],[-122.728333,45.644715],[-122.728342,45.644776],[-122.728402,45.644805],[-122.728846,45.644806],[-122.728868,45.64488],[-122.728974,45.644898],[-122.728971,45.645436],[-122.728891,45.64544],[-122.728846,45.645475],[-122.728808,45.645574],[-122.72886,45.645687],[-122.729031,45.645731],[-122.7291,45.645707],[-122.729997,45.645709]],[[-122.727966,45.645204],[-122.727941,45.645107],[-122.727899,45.645078],[-122.727624,45.645074],[-122.727567,45.645106],[-122.727542,45.645208],[-122.727588,45.645249],[-122.727765,45.645277],[-122.727938,45.645241],[-122.727966,45.645204]]]}},{"type":"Feature","properties":{"id":9,"area_m2":12800,"px":128,"rank":3,"persistent":false},"geometry":{"type":"Polygon","coordinates":[[[-122.730622,45.649041],[-122.73062,45.649581],[-122.730404,45.649587],[-122.730366,45.649619],[-122.730363,45.64967],[-122.730106,45.64967],[-122.730084,45.649595],[-122.729978,45.649579],[-122.729977,45.649443],[-122.729932,45.649403],[-122.729649,45.649401],[-122.7296,45.649432],[-122.729594,45.649488],[-122.729465,45.649488],[-122.729453,45.649422],[-122.729338,45.649398],[-122.729334,45.649346],[-122.729297,45.649314],[-122.729081,45.649307],[-122.729072,45.649246],[-122.72902,45.649218],[-122.728697,45.649216],[-122.728674,45.649142],[-122.728569,45.649126],[-122.728556,45.64906],[-122.728441,45.649036],[-122.728413,45.648958],[-122.728313,45.648945],[-122.728314,45.648765],[-122.728955,45.648767],[-122.728983,45.648845],[-122.729212,45.648857],[-122.729217,45.648914],[-122.729266,45.648945],[-122.729408,45.648972],[-122.729468,45.648948],[-122.729684,45.648942],[-122.729722,45.64891],[-122.729725,45.648859],[-122.729806,45.648855],[-122.72985,45.648821],[-122.729849,45.648622],[-122.729793,45.64859],[-122.729598,45.648588],[-122.729576,45.648514],[-122.72947,45.648498],[-122.729457,45.648432],[-122.729342,45.648408],[-122.729314,45.64833],[-122.729214,45.648317],[-122.729215,45.648227],[-122.729856,45.648229],[-122.729879,45.648303],[-122.729984,45.648319],[-122.729997,45.648385],[-122.730112,45.64841],[-122.73014,45.648487],[-122.73024,45.6485],[-122.730248,45.648755],[-122.730306,45.648783],[-122.730495,45.64877],[-122.730495,45.64886],[-122.73046,45.648908],[-122.730498,45.649002],[-122.730542,45.649036],[-122.730622,45.649041]]]}},{"type":"Feature","properties":{"id":5,"area_m2":6800,"px":68,"rank":4,"persistent":false},"geometry":{"type":"Polygon","coordinates":[[[-122.730358,45.65057],[-122.730358,45.65075],[-122.730101,45.65075],[-122.730084,45.650679],[-122.729973,45.650659],[-122.72996,45.650593],[-122.729845,45.650569],[-122.729811,45.650488],[-122.729589,45.650478],[-122.729576,45.650412],[-122.729461,45.650388],[-122.729455,45.650331],[-122.729414,45.650302],[-122.729205,45.650297],[-122.729188,45.650227],[-122.729077,45.650207],[-122.729043,45.650126],[-122.728949,45.650117],[-122.728921,45.650039],[-122.728821,45.650027],[-122.728793,45.649949],[-122.728693,45.649936],[-122.728665,45.649858],[-122.728437,45.649846],[-122.728424,45.64978],[-122.728309,45.649755],[-122.728303,45.649699],[-122.728262,45.649669],[-122.728053,45.649665],[-122.728031,45.64959],[-122.727925,45.649574],[-122.727891,45.649493],[-122.727797,45.649484],[-122.727798,45.649304],[-122.727904,45.649289],[-122.727927,45.649214],[-122.728149,45.649206],[-122.728184,45.649125],[-122.72844,45.649126],[-122.72844,45.649216],[-122.728359,45.64922],[-122.728315,45.649254],[-122.728333,45.64938],[-122.728439,45.649396],[-122.728456,45.649466],[-122.728567,45.649486],[-122.72858,45.649552],[-122.728695,45.649576],[-122.728729,45.649657],[-122.728951,45.649667],[-122.728968,45.649737],[-122.729079,45.649757],[-122.729113,45.649838],[-122.729207,45.649848],[-122.729235,45.649925],[-122.729335,45.649938],[-122.729363,45.650016],[-122.729463,45.650028],[-122.729491,45.650106],[-122.729591,45.650118],[-122.729618,45.650196],[-122.729847,45.650209],[-122.729855,45.650361],[-122.729901,45.650387],[-122.729974,45.650389],[-122.730008,45.65047],[-122.730102,45.65048],[-122.73013,45.650557],[-122.730358,45.65057]]]}},{"type":"Feature","properties":{"id":12,"area_m2":4200,"px":42,"rank":5,"persistent":false},"geometry":{"type":"Polygon","coordinates":[[[-122.731906,45.648954],[-122.731905,45.649134],[-122.731521,45.649133],[-122.73146,45.649109],[-122.731392,45.649133],[-122.731264,45.649132],[-122.731242,45.649058],[-122.73109,45.649019],[-122.731007,45.649042],[-122.730751,45.649041],[-122.730729,45.648967],[-122.730623,45.648951],[-122.730624,45.648771],[-122.730718,45.648769],[-122.730764,45.648741],[-122.730753,45.648591],[-122.730969,45.648585],[-122.731007,45.648553],[-122.73101,45.648502],[-122.731267,45.648502],[-122.73127,45.648554],[-122.731307,45.648586],[-122.731523,45.648593],[-122.73154,45.648753],[-122.73165,45.648773],[-122.731684,45.648854],[-122.731778,45.648864],[-122.731806,45.648941],[-122.731906,45.648954]]]}},{"type":"Feature","properties":{"id":14,"area_m2":3600,"px":36,"rank":6,"persistent":false},"geometry":{"type":"Polygon","coordinates":[[[-122.728574,45.647956],[-122.728574,45.648046],[-122.728493,45.64805],[-122.728449,45.648084],[-122.728445,45.648225],[-122.728339,45.648241],[-122.728316,45.648315],[-122.728222,45.648324],[-122.728187,45.648405],[-122.728076,45.648424],[-122.728058,45.648495],[-122.727802,45.648494],[-122.72779,45.648338],[-122.727674,45.648314],[-122.727641,45.648233],[-122.727547,45.648223],[-122.727548,45.647863],[-122.727676,45.647864],[-122.727704,45.647941],[-122.727887,45.647977],[-122.727967,45.647917],[-122.727933,45.647864],[-122.727934,45.647774],[-122.728062,45.647775],[-122.728065,45.647826],[-122.728102,45.647858],[-122.728446,45.647866],[-122.728469,45.64794],[-122.728574,45.647956]]]}},{"type":"Feature","properties":{"id":16,"area_m2":3600,"px":36,"rank":7,"persistent":false},"geometry":{"type":"Polygon","coordinates":[[[-122.733452,45.647697],[-122.73345,45.648147],[-122.733194,45.648147],[-122.73316,45.648066],[-122.732937,45.648056],[-122.732903,45.647975],[-122.732681,45.647965],[-122.732659,45.647891],[-122.732553,45.647875],[-122.732554,45.647785],[-122.732641,45.647779],[-122.732681,45.647742],[-122.732683,45.647516],[-122.732789,45.6475],[-122.732812,45.647426],[-122.733069,45.647426],[-122.733091,45.647501],[-122.733196,45.647517],[-122.733209,45.647583],[-122.733324,45.647607],[-122.733352,45.647685],[-122.733452,45.647697]]]}},{"type":"Feature","properties":{"id":11,"area_m2":3000,"px":30,"rank":8,"persistent":false},"geometry":{"type":"Polygon","coordinates":[[[-122.727801,45.648584],[-122.7278,45.648764],[-122.727706,45.648773],[-122.727672,45.648818],[-122.727674,45.648995],[-122.727718,45.64903],[-122.727799,45.649034],[-122.727799,45.649124],[-122.727542,45.649123],[-122.727508,45.649042],[-122.727348,45.649034],[-122.727295,45.649061],[-122.727285,45.649123],[-122.727174,45.649142],[-122.727155,45.649213],[-122.727028,45.649212],[-122.727006,45.649138],[-122.7269,45.649122],[-122.726901,45.649032],[-122.726995,45.64903],[-122.727044,45.648998],[-122.727028,45.648896],[-122.726989,45.648858],[-122.726902,45.648852],[-122.726874,45.648774],[-122.726774,45.648762],[-122.726774,45.648672],[-122.727475,45.648673],[-122.727535,45.648645],[-122.727545,45.648583],[-122.727801,45.648584]]]}},{"type":"Feature","properties":{"id":17,"area_m2":2900,"px":29,"rank":9,"persistent":false},"geometry":{"type":"Polygon","coordinates":[[[-122.727937,45.646964],[-122.727937,45.647144],[-122.727843,45.647153],[-122.727808,45.647234],[-122.727727,45.647238],[-122.727683,45.647272],[-122.727678,45.647594],[-122.727483,45.647594],[-122.727427,45.647626],[-122.727419,45.647953],[-122.727346,45.647955],[-122.7273,45.647981],[-122.72729,45.648133],[-122.727034,45.648132],[-122.727011,45.648058],[-122.726906,45.648042],[-122.726907,45.647862],[-122.727007,45.64785],[-122.727035,45.647772],[-122.727129,45.647763],[-122.727164,45.647682],[-122.72728,45.647659],[-122.727294,45.647413],[-122.727388,45.647404],[-122.727423,45.647323],[-122.727538,45.647299],[-122.727552,45.647143],[-122.727658,45.647128],[-122.727681,45.647054],[-122.727796,45.64703],[-122.727809,45.646964],[-122.727937,45.646964]]]}},{"type":"Feature","properties":{"id":2,"area_m2":2400,"px":24,"rank":10,"persistent":false},"geometry":{"type":"Polygon","coordinates":[[[-122.737285,45.651487],[-122.737284,45.651576],[-122.737178,45.651592],[-122.737155,45.651666],[-122.736927,45.651678],[-122.736898,45.651756],[-122.736804,45.651765],[-122.736769,45.651845],[-122.736659,45.651865],[-122.736641,45.651935],[-122.736425,45.651941],[-122.736387,45.651973],[-122.736384,45.652024],[-122.73616,45.65202],[-122.736126,45.652114],[-122.736021,45.652129],[-122.735998,45.652204],[-122.735741,45.652203],[-122.735719,45.652129],[-122.735613,45.652113],[-122.735614,45.652023],[-122.735823,45.652019],[-122.735865,45.65199],[-122.735871,45.651933],[-122.73608,45.65193],[-122.736122,45.651901],[-122.736128,45.651844],[-122.73633,45.651842],[-122.736379,45.651811],[-122.736385,45.651755],[-122.736607,45.651746],[-122.736642,45.651665],[-122.736758,45.651641],[-122.736771,45.651575],[-122.736882,45.651556],[-122.7369,45.651486],[-122.737285,45.651487]]]}},{"type":"Feature","properties":{"id":8,"area_m2":1700,"px":17,"rank":11,"persistent":false},"geometry":{"type":"Polygon","coordinates":[[[-122.731,45.650123],[-122.730968,45.650169],[-122.731002,45.650212],[-122.731001,45.650302],[-122.730896,45.650317],[-122.730873,45.650391],[-122.730616,45.650391],[-122.730599,45.650321],[-122.730488,45.650301],[-122.730454,45.65022],[-122.73036,45.65021],[-122.730332,45.650132],[-122.730104,45.65012],[-122.730105,45.65003],[-122.730139,45.649987],[-122.730105,45.64994],[-122.730105,45.64985],[-122.730211,45.649834],[-122.730234,45.64976],[-122.730362,45.64976],[-122.730385,45.649834],[-122.73049,45.649851],[-122.730517,45.649942],[-122.730746,45.649941],[-122.73075,45.649993],[-122.730787,45.650025],[-122.731003,45.650032],[-122.731,45.650123]],[[-122.73062,45.650119],[-122.730651,45.650084],[-122.730637,45.650044],[-122.730579,45.650018],[-122.730517,45.65003],[-122.73049,45.650066],[-122.730506,45.650114],[-122.730563,45.650135],[-122.73062,45.650119]]]}},{"type":"Feature","properties":{"id":10,"area_m2":1700,"px":17,"rank":12,"persistent":false},"geometry":{"type":"Polygon","coordinates":[[[-122.731392,45.649223],[-122.731391,45.649403],[-122.731317,45.649405],[-122.731271,45.649431],[-122.731262,45.649582],[-122.730877,45.649581],[-122.730868,45.64943],[-122.730823,45.649404],[-122.730749,45.649401],[-122.730751,45.649131],[-122.730879,45.649131],[-122.730888,45.649193],[-122.73094,45.64922],[-122.731392,45.649223]]]}},{"type":"Feature","properties":{"id":19,"area_m2":1500,"px":15,"rank":13,"persistent":false},"geometry":{"type":"Polygon","coordinates":[[[-122.73474,45.64671],[-122.73474,45.6468],[-122.734612,45.6468],[-122.734578,45.646719],[-122.734355,45.646709],[-122.73435,45.646653],[-122.734301,45.646621],[-122.734099,45.646619],[-122.734093,45.646562],[-122.734052,45.646533],[-122.733715,45.646528],[-122.733687,45.64645],[-122.733458,45.646437],[-122.733453,45.64638],[-122.733404,45.646349],[-122.733074,45.646346],[-122.733074,45.646256],[-122.733459,45.646257],[-122.733487,45.646335],[-122.733715,45.646348],[-122.733724,45.646409],[-122.733777,45.646437],[-122.734357,45.646439],[-122.734378,45.646603],[-122.734612,45.64662],[-122.734635,45.646694],[-122.73474,45.64671]]]}},{"type":"Feature","properties":{"id":7,"area_m2":900,"px":9,"rank":14,"persistent":false},"geometry":{"type":"Polygon","coordinates":[[[-122.728175,45.650296],[-122.728143,45.650343],[-122.728178,45.650385],[-122.728177,45.650475],[-122.727792,45.650474],[-122.72777,45.6504],[-122.727664,45.650384],[-122.727666,45.650114],[-122.728051,45.650115],[-122.728073,45.650189],[-122.728178,45.650205],[-122.728175,45.650296]],[[-122.728068,45.65034],[-122.728044,45.650238],[-122.727996,45.650207],[-122.727848,45.650207],[-122.727797,45.650243],[-122.727796,45.650346],[-122.727847,45.650382],[-122.728036,45.650375],[-122.728068,45.65034]]]}},{"type":"Feature","properties":{"id":18,"area_m2":700,"px":7,"rank":15,"persistent":false},"geometry":{"type":"Polygon","coordinates":[[[-122.72511,45.647858],[-122.725109,45.647947],[-122.725004,45.647963],[-122.724981,45.648037],[-122.724765,45.648043],[-122.724727,45.648075],[-122.724723,45.648127],[-122.724467,45.648126],[-122.724467,45.648036],[-122.724573,45.64802],[-122.724596,45.647946],[-122.724812,45.64794],[-122.72485,45.647909],[-122.724853,45.647857],[-122.72511,45.647858]]]}},{"type":"Feature","properties":{"id":1,"area_m2":500,"px":5,"rank":16,"persistent":false},"geometry":{"type":"Polygon","coordinates":[[[-122.734841,45.652471],[-122.734841,45.652561],[-122.734625,45.652567],[-122.734587,45.652599],[-122.734584,45.65265],[-122.734468,45.652674],[-122.734455,45.65274],[-122.734327,45.65274],[-122.734328,45.65256],[-122.734544,45.652554],[-122.734581,45.652522],[-122.734585,45.65247],[-122.734841,45.652471]]]}},{"type":"Feature","properties":{"id":3,"area_m2":500,"px":5,"rank":17,"persistent":false},"geometry":{"type":"Polygon","coordinates":[[[-122.733561,45.651928],[-122.73356,45.652018],[-122.733454,45.652034],[-122.733431,45.652108],[-122.733303,45.652107],[-122.733297,45.652051],[-122.733249,45.65202],[-122.733047,45.652017],[-122.733047,45.651927],[-122.733561,45.651928]]]}},{"type":"Feature","properties":{"id":20,"area_m2":500,"px":5,"rank":18,"persistent":false},"geometry":{"type":"Polygon","coordinates":[[[-122.731536,45.645893],[-122.731535,45.645983],[-122.731151,45.645982],[-122.731151,45.645802],[-122.731408,45.645802],[-122.73143,45.645877],[-122.731536,45.645893]]]}},{"type":"Feature","properties":{"id":6,"area_m2":400,"px":4,"rank":19,"persistent":false},"geometry":{"type":"Polygon","coordinates":[[[-122.729076,45.650477],[-122.729075,45.650567],[-122.72869,45.650566],[-122.728691,45.650476],[-122.728796,45.650461],[-122.728819,45.650387],[-122.728948,45.650387],[-122.72897,45.650461],[-122.729076,45.650477]]]}},{"type":"Feature","properties":{"id":15,"area_m2":400,"px":4,"rank":20,"persistent":false},"geometry":{"type":"Polygon","coordinates":[[[-122.737428,45.648157],[-122.737428,45.648246],[-122.737171,45.648246],[-122.737149,45.648172],[-122.737044,45.648156],[-122.737044,45.648066],[-122.7373,45.648066],[-122.737323,45.64814],[-122.737428,45.648157]]]}}]}