{"type":"FeatureCollection","features":[{"type":"Feature","properties":{"id":4,"area_m2":2400,"px":24,"rank":1,"persistent":false},"geometry":{"type":"Polygon","coordinates":[[[-122.733062,45.648777],[-122.733061,45.649046],[-122.732955,45.649062],[-122.732932,45.649136],[-122.732676,45.649136],[-122.732648,45.649058],[-122.732419,45.649045],[-122.732397,45.648971],[-122.732291,45.648955],[-122.732257,45.648874],[-122.732164,45.648864],[-122.732164,45.648684],[-122.732678,45.648686],[-122.732683,45.648742],[-122.732732,45.648773],[-122.733062,45.648777]]]}},{"type":"Feature","properties":{"id":3,"area_m2":1300,"px":13,"rank":2,"persistent":false},"geometry":{"type":"Polygon","coordinates":[[[-122.733829,45.649408],[-122.733828,45.649678],[-122.733571,45.649678],[-122.733559,45.649612],[-122.733443,45.649587],[-122.73341,45.649506],[-122.733187,45.649497],[-122.733165,45.649423],[-122.733059,45.649406],[-122.73306,45.649317],[-122.733445,45.649317],[-122.73345,45.649374],[-122.733499,45.649405],[-122.733829,45.649408]]]}},{"type":"Feature","properties":{"id":5,"area_m2":1100,"px":11,"rank":3,"persistent":false},"geometry":{"type":"Polygon","coordinates":[[[-122.728329,45.645705],[-122.728328,45.645795],[-122.728222,45.645811],[-122.728199,45.645885],[-122.728084,45.645908],[-122.728071,45.645974],[-122.727686,45.645973],[-122.727663,45.645899],[-122.727558,45.645883],[-122.727558,45.645793],[-122.727889,45.645792],[-122.727938,45.645761],[-122.727944,45.645704],[-122.728329,45.645705]]]}},{"type":"Feature","properties":{"id":1,"area_m2":500,"px":5,"rank":4,"persistent":false},"geometry":{"type":"Polygon","coordinates":[[[-122.732662,45.651926],[-122.732661,45.652106],[-122.732533,45.652105],[-122.732511,45.652031],[-122.732405,45.652015],[-122.732371,45.651934],[-122.732277,45.651925],[-122.732278,45.651835],[-122.732534,45.651836],[-122.732556,45.65191],[-122.732662,45.651926]]]}},{"type":"Feature","properties":{"id":2,"area_m2":500,"px":5,"rank":5,"persistent":true},"geometry":{"type":"Polygon","coordinates":[[[-122.72805,45.650205],[-122.728049,45.650475],[-122.727921,45.650474],[-122.727898,45.6504],[-122.727793,45.650384],[-122.727794,45.650204],[-122.72805,45.650205]]]}}]}