{"type":"FeatureCollection","features":[{"type":"Feature","properties":{"id":2,"area_m2":70400,"px":704,"rank":1,"persistent":false},"geometry":{"type":"Polygon","coordinates":[[[-122.737416,45.650857],[-122.737415,45.650947],[-122.737335,45.650951],[-122.73729,45.650985],[-122.737286,45.651126],[-122.73718,45.651142],[-122.737157,45.651216],[-122.736935,45.651225],[-122.7369,45.651306],[-122.736785,45.651329],[-122.736772,45.651395],[-122.736537,45.651411],[-122.736514,45.651485],[-122.736399,45.651508],[-122.736386,45.651574],[-122.736001,45.651574],[-122.735988,45.651508],[-122.735873,45.651483],[-122.735839,45.651402],[-122.735617,45.651393],[-122.735617,45.651171],[-122.73559,45.651135],[-122.735361,45.651122],[-122.735349,45.651056],[-122.735233,45.651032],[-122.735199,45.650951],[-122.734977,45.650941],[-122.734949,45.650863],[-122.734721,45.65085],[-122.734708,45.650784],[-122.734644,45.65076],[-122.734506,45.650761],[-122.734457,45.650785],[-122.734481,45.65092],[-122.734592,45.65094],[-122.734598,45.650997],[-122.734639,45.651026],[-122.734848,45.651031],[-122.734854,45.651088],[-122.734895,45.651117],[-122.735104,45.651122],[-122.735127,45.651196],[-122.735232,45.651212],[-122.735232,45.6513],[-122.734869,45.651317],[-122.734846,45.651571],[-122.73474,45.651586],[-122.734717,45.651661],[-122.734601,45.651684],[-122.734588,45.65175],[-122.734332,45.65175],[-122.734332,45.651618],[-122.734298,45.651579],[-122.734076,45.651569],[-122.734015,45.651545],[-122.733947,45.651569],[-122.733819,45.651568],[-122.733791,45.651491],[-122.733563,45.651478],[-122.733557,45.651421],[-122.733508,45.65139],[-122.733354,45.651392],[-122.733312,45.651421],[-122.733306,45.651477],[-122.733178,45.651477],[-122.73317,45.651145],[-122.733125,45.651119],[-122.733051,45.651117],[-122.733029,45.650952],[-122.732795,45.650936],[-122.732787,45.650785],[-122.732741,45.650758],[-122.732668,45.650756],[-122.732668,45.650666],[-122.732749,45.650662],[-122.732793,45.650628],[-122.732797,45.650486],[-122.73302,45.650477],[-122.733087,45.650365],[-122.733055,45.650307],[-122.73305,45.65007],[-122.733009,45.650041],[-122.732928,45.650036],[-122.732911,45.649876],[-122.7328,45.649855],[-122.732801,45.649766],[-122.732988,45.649766],[-122.73304,45.649747],[-122.733057,45.64963],[-122.733018,45.649593],[-122.73293,45.649586],[-122.732902,45.649508],[-122.732802,45.649496],[-122.732768,45.649415],[-122.732546,45.649405],[-122.732543,45.64934],[-122.732501,45.649306],[-122.732344,45.649317],[-122.732295,45.649348],[-122.732288,45.649675],[-122.7322,45.649681],[-122.73216,45.649723],[-122.732157,45.650124],[-122.732029,45.650124],[-122.732031,45.649674],[-122.732119,45.649668],[-122.732159,45.649626],[-122.732162,45.649093],[-122.732122,45.649051],[-122.732034,45.649044],[-122.732006,45.648966],[-122.731906,45.648954],[-122.731907,45.648864],[-122.732101,45.648863],[-122.73216,45.648826],[-122.732166,45.648324],[-122.732294,45.648325],[-122.732303,45.648386],[-122.732356,45.648414],[-122.732807,45.648416],[-122.732813,45.648473],[-122.732861,45.648504],[-122.733192,45.648507],[-122.733204,45.648573],[-122.73332,45.648597],[-122.733354,45.648678],[-122.733704,45.648688],[-122.73371,45.648745],[-122.733759,45.648776],[-122.734089,45.648779],[-122.734149,45.648803],[-122.734217,45.648779],[-122.734474,45.64878],[-122.734477,45.648831],[-122.734514,45.648863],[-122.734858,45.648871],[-122.734886,45.648948],[-122.735115,45.648961],[-122.73512,45.649018],[-122.735162,45.649047],[-122.735499,45.649052],[-122.735521,45.649126],[-122.735627,45.649143],[-122.735627,45.649232],[-122.735521,45.649248],[-122.735498,45.649322],[-122.735383,45.649346],[-122.735367,45.649412],[-122.735241,45.649412],[-122.735235,45.649355],[-122.735187,45.649324],[-122.734985,45.649321],[-122.734979,45.649264],[-122.734938,45.649235],[-122.7346,45.64923],[-122.734597,45.649178],[-122.73456,45.649146],[-122.734344,45.649139],[-122.734341,45.649088],[-122.734304,45.649056],[-122.734135,45.649053],[-122.734088,45.649098],[-122.734091,45.649466],[-122.734133,45.649495],[-122.734214,45.649499],[-122.734248,45.64958],[-122.734342,45.64959],[-122.734376,45.649671],[-122.734598,45.64968],[-122.734603,45.649827],[-122.734645,45.649856],[-122.734725,45.649861],[-122.734759,45.649941],[-122.734982,45.649951],[-122.73499,45.650013],[-122.735043,45.65004],[-122.735623,45.650043],[-122.735626,45.650094],[-122.735663,45.650126],[-122.735879,45.650133],[-122.735896,45.650203],[-122.736007,45.650224],[-122.736016,45.650285],[-122.736069,45.650313],[-122.736392,45.650314],[-122.73646,45.650339],[-122.73652,45.650315],[-122.736702,45.650329],[-122.736755,45.650313],[-122.736777,45.650094],[-122.736737,45.650051],[-122.73665,45.650045],[-122.736651,45.649776],[-122.736779,45.649775],[-122.736788,45.649927],[-122.736833,45.649953],[-122.736907,45.649956],[-122.736911,45.650282],[-122.736953,45.650312],[-122.737033,45.650316],[-122.737067,45.650397],[-122.737161,45.650406],[-122.73717,45.650558],[-122.737215,45.650584],[-122.737289,45.650586],[-122.737273,45.650822],[-122.737322,45.650854],[-122.737416,45.650857]],[[-122.732548,45.649045],[-122.732542,45.648989],[-122.7325,45.648959],[-122.732293,45.648971],[-122.732271,45.64901],[-122.732313,45.649209],[-122.732479,45.649249],[-122.732653,45.64921],[-122.73267,45.649079],[-122.732628,45.64905],[-122.732548,45.649045]],[[-122.732934,45.648776],[-122.732929,45.648706],[-122.732867,45.648673],[-122.732463,45.648686],[-122.732401,45.648735],[-122.732438,45.648845],[-122.732548,45.648865],[-122.732566,45.648936],[-122.732676,45.648956],[-122.732685,45.649017],[-122.732745,45.649045],[-122.732892,45.64904],[-122.732929,45.649008],[-122.732933,45.648956],[-122.733007,45.648954],[-122.733052,45.648928],[-122.733053,45.648805],[-122.733008,45.648779],[-122.732934,45.648776]],[[-122.736771,45.651123],[-122.73672,45.651102],[-122.736663,45.651112],[-122.736625,45.651154],[-122.736641,45.651194],[-122.736694,45.651215],[-122.736765,45.651203],[-122.736792,45.651165],[-122.736771,45.651123]]]}},{"type":"Feature","properties":{"id":18,"area_m2":21600,"px":216,"rank":2,"persistent":false},"geometry":{"type":"Polygon","coordinates":[[[-122.729102,45.645077],[-122.729101,45.645257],[-122.728985,45.645281],[-122.728971,45.645436],[-122.728861,45.645456],[-122.728823,45.64556],[-122.728863,45.64561],[-122.728971,45.645617],[-122.728971,45.645843],[-122.72901,45.64588],[-122.729098,45.645887],[-122.729097,45.645977],[-122.728991,45.645992],[-122.728968,45.646066],[-122.728746,45.646075],[-122.728711,45.646156],[-122.728529,45.646142],[-122.728467,45.646166],[-122.728463,45.646307],[-122.728509,45.646333],[-122.728582,45.646336],[-122.728581,45.646516],[-122.728196,45.646515],[-122.728113,45.646492],[-122.727962,45.64653],[-122.727939,45.646604],[-122.727824,45.646628],[-122.72781,45.646694],[-122.727682,45.646693],[-122.727684,45.646188],[-122.727652,45.646149],[-122.727596,45.64614],[-122.727456,45.646165],[-122.727428,45.646243],[-122.727327,45.646255],[-122.727299,45.646333],[-122.727205,45.646341],[-122.72717,45.646422],[-122.727059,45.646442],[-122.727041,45.646602],[-122.726935,45.646618],[-122.726912,45.646692],[-122.726784,45.646691],[-122.726785,45.646511],[-122.726885,45.646499],[-122.726914,45.646422],[-122.727008,45.646413],[-122.727042,45.646332],[-122.727153,45.646313],[-122.727172,45.646152],[-122.727282,45.646133],[-122.727301,45.645973],[-122.727388,45.645966],[-122.727428,45.645929],[-122.727421,45.645821],[-122.727375,45.645795],[-122.727302,45.645792],[-122.727268,45.645712],[-122.727174,45.645702],[-122.727174,45.645612],[-122.72801,45.645613],[-122.728069,45.645576],[-122.728081,45.645459],[-122.728016,45.645434],[-122.727303,45.645432],[-122.727291,45.645366],[-122.727176,45.645342],[-122.727142,45.645261],[-122.726919,45.645252],[-122.726921,45.644982],[-122.727001,45.644978],[-122.727043,45.644949],[-122.72705,45.644761],[-122.727009,45.644718],[-122.726922,45.644711],[-122.726916,45.644655],[-122.726875,45.644626],[-122.726409,45.64462],[-122.7264,45.644559],[-122.72634,45.64453],[-122.724741,45.644526],[-122.724742,45.644436],[-122.724847,45.644421],[-122.724872,45.644347],[-122.725769,45.644349],[-122.725777,45.64441],[-122.725838,45.644439],[-122.726666,45.644441],[-122.726675,45.644502],[-122.726728,45.64453],[-122.727179,45.644532],[-122.727196,45.644602],[-122.727307,45.644623],[-122.727316,45.644684],[-122.727369,45.644712],[-122.72782,45.644714],[-122.727881,45.644738],[-122.727949,45.644714],[-122.728077,45.644714],[-122.728086,45.644776],[-122.728146,45.644804],[-122.728846,45.644806],[-122.728868,45.64488],[-122.728974,45.644897],[-122.728986,45.645052],[-122.729102,45.645077]],[[-122.727434,45.644933],[-122.727367,45.644879],[-122.727206,45.644904],[-122.727178,45.644941],[-122.727194,45.645066],[-122.727259,45.645086],[-122.727405,45.64506],[-122.727432,45.645029],[-122.727434,45.644933]],[[-122.728027,45.645078],[-122.727879,45.64505],[-122.727818,45.645074],[-122.727474,45.645079],[-122.727434,45.645122],[-122.727441,45.645238],[-122.727507,45.645267],[-122.728033,45.645248],[-122.728073,45.645211],[-122.728069,45.645108],[-122.728027,45.645078]],[[-122.728784,45.645244],[-122.728482,45.645271],[-122.728458,45.645435],[-122.728251,45.645435],[-122.728198,45.645455],[-122.728201,45.645615],[-122.728113,45.645621],[-122.728074,45.645658],[-122.728072,45.645759],[-122.728099,45.645795],[-122.728153,45.645808],[-122.7283,45.645783],[-122.728329,45.645705],[-122.728429,45.645693],[-122.728457,45.645615],[-122.728558,45.645603],[-122.728586,45.645526],[-122.72868,45.645517],[-122.728715,45.645436],[-122.728826,45.645416],[-122.728835,45.645271],[-122.728784,45.645244]]]}},{"type":"Feature","properties":{"id":1,"area_m2":13600,"px":136,"rank":3,"persistent":false},"geometry":{"type":"Polygon","coordinates":[[[-122.7333,45.652109],[-122.733268,45.652155],[-122.733303,45.652197],[-122.733302,45.652287],[-122.733046,45.652287],[-122.733033,45.652221],[-122.732918,45.652196],[-122.732884,45.652115],[-122.732661,45.652106],[-122.732656,45.652049],[-122.732607,45.652018],[-122.732405,45.652015],[-122.732392,45.651949],[-122.732277,45.651925],[-122.732249,45.651847],[-122.732021,45.651834],[-122.732015,45.651778],[-122.731974,45.651748],[-122.731765,45.651744],[-122.731742,45.651669],[-122.731637,45.651653],[-122.73162,45.651583],[-122.731509,45.651563],[-122.731475,45.651482],[-122.731381,45.651473],[-122.731353,45.651395],[-122.731253,45.651382],[-122.731238,45.6513],[-122.731288,45.65125],[-122.731263,45.651207],[-122.731171,45.651193],[-122.731127,45.651232],[-122.731141,45.651285],[-122.730997,45.651292],[-122.73098,45.651222],[-122.730869,45.651201],[-122.730835,45.651121],[-122.730741,45.651111],[-122.730713,45.651033],[-122.730613,45.651021],[-122.730585,45.650943],[-122.730485,45.650931],[-122.730457,45.650853],[-122.730357,45.65084],[-122.730329,45.650762],[-122.730229,45.65075],[-122.730202,45.650672],[-122.729973,45.650659],[-122.72996,45.650593],[-122.729845,45.650569],[-122.72984,45.650512],[-122.729798,45.650483],[-122.729589,45.650478],[-122.729572,45.650408],[-122.729461,45.650388],[-122.729427,45.650307],[-122.729333,45.650298],[-122.729311,45.650224],[-122.729077,45.650207],[-122.729064,45.650141],[-122.728949,45.650117],[-122.728915,45.650036],[-122.728693,45.650026],[-122.728671,45.649952],[-122.728565,45.649936],[-122.728549,45.649762],[-122.728491,45.649742],[-122.728309,45.649755],[-122.72831,45.649665],[-122.728415,45.64965],[-122.728438,45.649576],[-122.728566,45.649576],[-122.728579,45.649642],[-122.728694,45.649666],[-122.728728,45.649747],[-122.728951,45.649757],[-122.728956,45.649814],[-122.729005,45.649845],[-122.729207,45.649848],[-122.729224,45.649918],[-122.729335,45.649938],[-122.729369,45.650019],[-122.729463,45.650028],[-122.729491,45.650106],[-122.729591,45.650118],[-122.729618,45.650196],[-122.729847,45.650209],[-122.729864,45.650279],[-122.729975,45.650299],[-122.729987,45.650365],[-122.730103,45.65039],[-122.730106,45.650441],[-122.730143,45.650473],[-122.730359,45.65048],[-122.730376,45.650551],[-122.730487,45.650571],[-122.730521,45.650652],[-122.730615,45.650661],[-122.730643,45.650739],[-122.730743,45.650751],[-122.730765,45.650825],[-122.730999,45.650842],[-122.731016,45.650912],[-122.731127,45.650932],[-122.731144,45.651002],[-122.731255,45.651023],[-122.731272,45.651093],[-122.731383,45.651113],[-122.731391,45.651174],[-122.731444,45.651202],[-122.731591,45.651199],[-122.731633,45.65117],[-122.731639,45.651113],[-122.731834,45.651113],[-122.73189,45.651081],[-122.731888,45.650962],[-122.731842,45.650936],[-122.731769,45.650934],[-122.73177,45.650665],[-122.731844,45.650661],[-122.731889,45.650635],[-122.731899,45.650484],[-122.732027,45.650484],[-122.732103,45.650508],[-122.732256,45.650472],[-122.732285,45.650395],[-122.732669,45.650396],[-122.732669,45.650486],[-122.732575,45.650495],[-122.73254,45.650575],[-122.732467,45.650578],[-122.732421,45.650604],[-122.732411,45.650755],[-122.732311,45.650767],[-122.732282,45.650845],[-122.732188,45.650854],[-122.732153,45.650934],[-122.73208,45.650937],[-122.732034,45.650963],[-122.732024,45.651204],[-122.731817,45.651204],[-122.731759,45.651229],[-122.73177,45.651345],[-122.731814,45.65138],[-122.731895,45.651384],[-122.731929,45.651465],[-122.732023,45.651474],[-122.73205,45.651552],[-122.73215,45.651565],[-122.732184,45.651646],[-122.732407,45.651655],[-122.732419,45.651721],[-122.732535,45.651746],[-122.732569,45.651827],[-122.732791,45.651836],[-122.732797,45.651893],[-122.732845,45.651924],[-122.733047,45.651927],[-122.733053,45.651983],[-122.733094,45.652013],[-122.733303,45.652017],[-122.7333,45.652109]]]}},{"type":"Feature","properties":{"id":16,"area_m2":7300,"px":73,"rank":4,"persistent":false},"geometry":{"type":"Polygon","coordinates":[[[-122.728575,45.647866],[-122.728574,45.647956],[-122.728494,45.64796],[-122.728449,45.647994],[-122.728445,45.648135],[-122.728364,45.648139],[-122.728323,45.648169],[-122.728316,45.648315],[-122.72821,45.648331],[-122.728187,45.648405],[-122.727802,45.648404],[-122.727794,45.648253],[-122.727748,45.648226],[-122.727675,45.648224],[-122.727641,45.648143],[-122.727547,45.648133],[-122.727513,45.648052],[-122.727034,45.648042],[-122.727012,45.647968],[-122.726906,45.647952],[-122.726907,45.647862],[-122.727007,45.64785],[-122.727035,45.647772],[-122.727136,45.64776],[-122.727164,45.647682],[-122.727258,45.647674],[-122.727293,45.647593],[-122.727408,45.647569],[-122.727423,45.647323],[-122.727517,45.647314],[-122.727551,45.647233],[-122.727667,45.64721],[-122.727681,45.647054],[-122.727809,45.647055],[-122.727808,45.647234],[-122.727773,45.647276],[-122.727807,45.647324],[-122.727807,45.647504],[-122.727733,45.647506],[-122.727687,45.647532],[-122.727695,45.647664],[-122.727747,45.647684],[-122.728062,45.647685],[-122.728075,45.647751],[-122.72819,45.647775],[-122.728196,45.647832],[-122.728245,45.647863],[-122.728575,45.647866]]]}},{"type":"Feature","properties":{"id":15,"area_m2":6100,"px":61,"rank":5,"persistent":false},"geometry":{"type":"Polygon","coordinates":[[[-122.727295,45.647143],[-122.727294,45.647233],[-122.727214,45.647237],[-122.727169,45.647271],[-122.727165,45.647412],[-122.727065,45.647424],[-122.727037,45.647502],[-122.726942,45.647511],[-122.726908,45.647592],[-122.726797,45.647611],[-122.726779,45.647771],[-122.726673,45.647787],[-122.72665,45.647861],[-122.726441,45.647865],[-122.726399,45.647894],[-122.726393,45.647951],[-122.726191,45.647952],[-122.726142,45.647983],[-122.726136,45.64804],[-122.725948,45.64804],[-122.725892,45.648063],[-122.725859,45.648163],[-122.725886,45.648207],[-122.726135,45.64822],[-122.726134,45.6484],[-122.726028,45.648416],[-122.726005,45.64849],[-122.725877,45.648489],[-122.725871,45.648433],[-122.725823,45.648402],[-122.725621,45.648399],[-122.725603,45.648328],[-122.725493,45.648308],[-122.725484,45.648247],[-122.725424,45.648219],[-122.725265,45.64823],[-122.725236,45.648308],[-122.725121,45.648332],[-122.725107,45.648397],[-122.724722,45.648397],[-122.724723,45.648217],[-122.724829,45.648201],[-122.724852,45.648127],[-122.725068,45.648121],[-122.725105,45.648089],[-122.725109,45.648038],[-122.725568,45.648036],[-122.725617,45.648005],[-122.725623,45.647949],[-122.725851,45.647937],[-122.72588,45.647859],[-122.726096,45.647854],[-122.726133,45.647822],[-122.726137,45.64777],[-122.726252,45.647746],[-122.726266,45.64768],[-122.726377,45.647661],[-122.726395,45.647591],[-122.726505,45.647571],[-122.726523,45.647501],[-122.726634,45.647481],[-122.726652,45.647411],[-122.726886,45.647396],[-122.72691,45.647232],[-122.727015,45.647216],[-122.727038,45.647142],[-122.727295,45.647143]]]}},{"type":"Feature","properties":{"id":9,"area_m2":4800,"px":48,"rank":6,"persistent":false},"geometry":{"type":"Polygon","coordinates":[[[-122.730621,45.649401],[-122.73062,45.649491],[-122.730235,45.64949],[-122.730208,45.649412],[-122.729979,45.649399],[-122.729974,45.649343],[-122.729925,45.649311],[-122.729595,45.649308],[-122.729586,45.649247],[-122.729533,45.649219],[-122.729082,45.649217],[-122.729079,45.649165],[-122.729041,45.649133],[-122.728826,45.649126],[-122.72882,45.64907],[-122.728771,45.649039],[-122.728569,45.649036],[-122.728547,45.648962],[-122.728441,45.648946],[-122.728407,45.648865],[-122.728313,45.648855],[-122.728314,45.648765],[-122.728699,45.648766],[-122.728716,45.648836],[-122.728827,45.648857],[-122.728844,45.648927],[-122.728955,45.648947],[-122.728963,45.649008],[-122.729024,45.649037],[-122.729177,45.649028],[-122.729211,45.648947],[-122.729596,45.648948],[-122.729609,45.649014],[-122.729673,45.649039],[-122.729818,45.64903],[-122.729853,45.648949],[-122.73011,45.64895],[-122.730132,45.649024],[-122.730237,45.64904],[-122.730271,45.649121],[-122.730365,45.64913],[-122.730382,45.64929],[-122.730493,45.649311],[-122.730527,45.649391],[-122.730621,45.649401]]]}},{"type":"Feature","properties":{"id":11,"area_m2":1800,"px":18,"rank":7,"persistent":false},"geometry":{"type":"Polygon","coordinates":[[[-122.727801,45.648584],[-122.7278,45.648764],[-122.727727,45.648766],[-122.727681,45.648792],[-122.727671,45.648944],[-122.727286,45.648943],[-122.727252,45.648862],[-122.72703,45.648852],[-122.727008,45.648778],[-122.726902,45.648762],[-122.726903,45.648582],[-122.727031,45.648582],[-122.727044,45.648648],[-122.727108,45.648672],[-122.727482,45.648672],[-122.727535,45.648645],[-122.727545,45.648583],[-122.727801,45.648584]]]}},{"type":"Feature","properties":{"id":10,"area_m2":1100,"px":11,"rank":8,"persistent":false},"geometry":{"type":"Polygon","coordinates":[[[-122.738452,45.648789],[-122.738451,45.648969],[-122.738323,45.648969],[-122.738301,45.648894],[-122.738195,45.648878],[-122.738193,45.648647],[-122.738149,45.648612],[-122.738068,45.648608],[-122.738068,45.648381],[-122.738029,45.648344],[-122.737941,45.648338],[-122.737941,45.648248],[-122.73807,45.648248],[-122.738092,45.648322],[-122.738198,45.648338],[-122.738231,45.648419],[-122.738325,45.648429],[-122.738326,45.648745],[-122.738365,45.648782],[-122.738452,45.648789]]]}},{"type":"Feature","properties":{"id":3,"area_m2":800,"px":8,"rank":9,"persistent":false},"geometry":{"type":"Polygon","coordinates":[[[-122.733434,45.651568],[-122.733433,45.651748],[-122.733177,45.651747],[-122.733171,45.65169],[-122.733122,45.651659],[-122.732792,45.651656],[-122.73277,45.651582],[-122.732664,45.651566],[-122.732664,45.651476],[-122.732793,45.651476],[-122.732801,45.651538],[-122.732854,45.651565],[-122.733434,45.651568]]]}},{"type":"Feature","properties":{"id":8,"area_m2":600,"px":6,"rank":10,"persistent":false},"geometry":{"type":"Polygon","coordinates":[[[-122.72831,45.649485],[-122.72831,45.649575],[-122.728053,45.649575],[-122.728031,45.6495],[-122.727925,45.649484],[-122.727892,45.649403],[-122.727798,45.649394],[-122.727798,45.649304],[-122.728054,45.649305],[-122.728077,45.649379],[-122.728182,45.649395],[-122.728216,45.649476],[-122.72831,45.649485]]]}},{"type":"Feature","properties":{"id":6,"area_m2":500,"px":5,"rank":11,"persistent":false},"geometry":{"type":"Polygon","coordinates":[[[-122.728178,45.650385],[-122.728177,45.650475],[-122.727921,45.650474],[-122.727898,45.6504],[-122.727793,45.650384],[-122.727759,45.650303],[-122.727665,45.650294],[-122.727666,45.650114],[-122.727794,45.650114],[-122.727799,45.650261],[-122.727841,45.65029],[-122.727921,45.650295],[-122.727949,45.650372],[-122.728178,45.650385]]]}},{"type":"Feature","properties":{"id":12,"area_m2":500,"px":5,"rank":12,"persistent":false},"geometry":{"type":"Polygon","coordinates":[[[-122.731395,45.648593],[-122.731393,45.648862],[-122.731265,45.648862],[-122.731243,45.648788],[-122.731137,45.648772],[-122.731138,45.648592],[-122.731395,45.648593]]]}},{"type":"Feature","properties":{"id":17,"area_m2":500,"px":5,"rank":13,"persistent":false},"geometry":{"type":"Polygon","coordinates":[[[-122.72511,45.647858],[-122.725109,45.647947],[-122.7249,45.647951],[-122.724858,45.64798],[-122.724852,45.648037],[-122.72465,45.648039],[-122.724601,45.64807],[-122.724595,45.648126],[-122.724467,45.648126],[-122.724467,45.648036],[-122.724573,45.64802],[-122.724596,45.647946],[-122.724812,45.64794],[-122.72485,45.647909],[-122.724853,45.647857],[-122.72511,45.647858]]]}},{"type":"Feature","properties":{"id":4,"area_m2":300,"px":3,"rank":14,"persistent":false},"geometry":{"type":"Polygon","coordinates":[[[-122.732537,45.651296],[-122.732536,45.651475],[-122.732408,45.651475],[-122.732385,45.651401],[-122.73228,45.651385],[-122.73228,45.651295],[-122.732537,45.651296]]]}},{"type":"Feature","properties":{"id":5,"area_m2":300,"px":3,"rank":15,"persistent":false},"geometry":{"type":"Polygon","coordinates":[[[-122.731641,45.650843],[-122.73164,45.650933],[-122.731384,45.650933],[-122.731384,45.650753],[-122.731513,45.650753],[-122.731535,45.650827],[-122.731641,45.650843]]]}},{"type":"Feature","properties":{"id":7,"area_m2":300,"px":3,"rank":16,"persistent":false},"geometry":{"type":"Polygon","coordinates":[[[-122.728307,45.650205],[-122.728306,45.650295],[-122.728178,45.650295],[-122.728175,45.650243],[-122.728138,45.650211],[-122.727922,45.650204],[-122.727922,45.650115],[-122.728179,45.650115],[-122.728201,45.650189],[-122.728307,45.650205]]]}},{"type":"Feature","properties":{"id":13,"area_m2":300,"px":3,"rank":17,"persistent":false},"geometry":{"type":"Polygon","coordinates":[[[-122.726645,45.648761],[-122.726645,45.648851],[-122.726388,45.648851],[-122.726389,45.648671],[-122.726518,45.648671],[-122.72654,45.648745],[-122.726645,45.648761]]]}},{"type":"Feature","properties":{"id":14,"area_m2":300,"px":3,"rank":18,"persistent":false},"geometry":{"type":"Polygon","coordinates":[[[-122.733962,45.648509],[-122.733961,45.648598],[-122.733833,45.648598],[-122.73383,45.648547],[-122.733793,45.648515],[-122.733577,45.648508],[-122.733577,45.648418],[-122.733834,45.648418],[-122.733856,45.648492],[-122.733962,45.648509]]]}},{"type":"Feature","properties":{"id":19,"area_m2":300,"px":3,"rank":19,"persistent":false},"geometry":{"type":"Polygon","coordinates":[[[-122.729483,45.645708],[-122.729483,45.645798],[-122.729377,45.645813],[-122.729354,45.645887],[-122.729226,45.645887],[-122.729227,45.645707],[-122.729483,45.645708]]]}}]}