{"type":"FeatureCollection","features":[{"type":"Feature","properties":{"id":105,"area_m2":20700,"px":207,"rank":1,"persistent":false},"geometry":{"type":"Polygon","coordinates":[[[-122.683659,45.624978],[-122.683656,45.625428],[-122.68344,45.625434],[-122.683403,45.625466],[-122.683399,45.625517],[-122.683291,45.625524],[-122.683251,45.625567],[-122.683276,45.625664],[-122.683317,45.625693],[-122.683458,45.625722],[-122.683526,45.625698],[-122.683654,45.625698],[-122.683652,45.626148],[-122.683546,45.626164],[-122.683523,45.626238],[-122.682625,45.626235],[-122.682617,45.62616],[-122.682551,45.626131],[-122.682397,45.626157],[-122.682369,45.626234],[-122.681471,45.626232],[-122.681472,45.625735],[-122.681433,45.625698],[-122.681346,45.62569],[-122.681347,45.625422],[-122.681435,45.625415],[-122.681475,45.625373],[-122.681477,45.624925],[-122.681438,45.624888],[-122.68135,45.624881],[-122.681322,45.624804],[-122.681222,45.624791],[-122.68122,45.624649],[-122.681176,45.624615],[-122.681095,45.624611],[-122.681096,45.624521],[-122.681224,45.624521],[-122.681236,45.624587],[-122.681352,45.624612],[-122.681357,45.624682],[-122.681411,45.624714],[-122.681734,45.624703],[-122.681804,45.624727],[-122.681864,45.624703],[-122.682059,45.624702],[-122.682112,45.624675],[-122.682121,45.624614],[-122.682249,45.624614],[-122.682262,45.62468],[-122.682377,45.624704],[-122.682405,45.624782],[-122.682633,45.624795],[-122.682639,45.624852],[-122.68268,45.624881],[-122.683018,45.624886],[-122.683026,45.624948],[-122.683087,45.624976],[-122.683659,45.624978]],[[-122.682131,45.625569],[-122.682113,45.625174],[-122.682051,45.62514],[-122.681909,45.625157],[-122.681862,45.625202],[-122.68186,45.625423],[-122.681787,45.625425],[-122.681741,45.625451],[-122.681737,45.625569],[-122.6818,45.625603],[-122.682074,45.625603],[-122.682131,45.625569]],[[-122.682577,45.625504],[-122.682407,45.625517],[-122.682365,45.625539],[-122.682373,45.625651],[-122.682419,45.62569],[-122.682568,45.625707],[-122.682627,45.625665],[-122.682626,45.62554],[-122.682577,45.625504]],[[-122.683118,45.625861],[-122.683156,45.625731],[-122.6831,45.625698],[-122.682826,45.625696],[-122.682769,45.62572],[-122.682754,45.626092],[-122.682788,45.626137],[-122.682961,45.626146],[-122.683018,45.626121],[-122.683012,45.625876],[-122.683118,45.625861]],[[-122.683525,45.626008],[-122.683465,45.625955],[-122.683302,45.625976],[-122.683269,45.62601],[-122.68326,45.626122],[-122.683317,45.626147],[-122.68349,45.626138],[-122.683523,45.626104],[-122.683525,45.626008]]]}},{"type":"Feature","properties":{"id":121,"area_m2":17600,"px":176,"rank":2,"persistent":false},"geometry":{"type":"Polygon","coordinates":[[[-122.67713,45.622619],[-122.677129,45.622709],[-122.676746,45.622708],[-122.676741,45.622657],[-122.676704,45.622625],[-122.676521,45.622614],[-122.676489,45.622653],[-122.676487,45.622798],[-122.676387,45.62281],[-122.676359,45.622887],[-122.676265,45.622896],[-122.67623,45.622977],[-122.676114,45.623001],[-122.6761,45.623156],[-122.676006,45.623165],[-122.675972,45.623246],[-122.675891,45.62325],[-122.675849,45.623279],[-122.675842,45.623426],[-122.675737,45.623441],[-122.675714,45.623515],[-122.675585,45.623515],[-122.675525,45.623491],[-122.675457,45.623515],[-122.675329,45.623514],[-122.675316,45.623448],[-122.675201,45.623424],[-122.675173,45.623346],[-122.674945,45.623333],[-122.674923,45.623259],[-122.674817,45.623243],[-122.674818,45.623112],[-122.67479,45.623075],[-122.674434,45.623062],[-122.674411,45.622988],[-122.674306,45.622971],[-122.674307,45.622791],[-122.674394,45.622785],[-122.674434,45.622748],[-122.674413,45.622628],[-122.674113,45.622612],[-122.67406,45.622639],[-122.674051,45.622701],[-122.673923,45.6227],[-122.673919,45.622649],[-122.673882,45.622617],[-122.673667,45.62261],[-122.673668,45.62243],[-122.673741,45.622427],[-122.673787,45.622401],[-122.673797,45.62225],[-122.673903,45.622234],[-122.673926,45.62216],[-122.674054,45.622161],[-122.674059,45.622307],[-122.6741,45.622337],[-122.674181,45.622341],[-122.674187,45.622398],[-122.674228,45.622427],[-122.674811,45.622422],[-122.674827,45.62249],[-122.674869,45.622519],[-122.675124,45.622537],[-122.675179,45.622525],[-122.675207,45.622398],[-122.675173,45.622353],[-122.674823,45.622343],[-122.674825,45.621851],[-122.674785,45.621809],[-122.674697,45.621802],[-122.674698,45.621712],[-122.674954,45.621713],[-122.674988,45.621794],[-122.67521,45.621804],[-122.675216,45.621861],[-122.675265,45.621892],[-122.675466,45.621895],[-122.675472,45.621965],[-122.675519,45.621996],[-122.675722,45.621985],[-122.675728,45.622042],[-122.675769,45.622071],[-122.676107,45.622077],[-122.676167,45.622101],[-122.676235,45.622077],[-122.676363,45.622077],[-122.676368,45.622224],[-122.67641,45.622253],[-122.67649,45.622258],[-122.676512,45.622345],[-122.676564,45.622362],[-122.676746,45.622348],[-122.676769,45.622423],[-122.676874,45.622439],[-122.676887,45.622505],[-122.677002,45.622529],[-122.67703,45.622607],[-122.67713,45.622619]],[[-122.674854,45.622751],[-122.674815,45.622646],[-122.674773,45.622617],[-122.674587,45.622628],[-122.674563,45.622792],[-122.674483,45.622796],[-122.674438,45.62283],[-122.674457,45.622956],[-122.674511,45.622972],[-122.674796,45.622957],[-122.67482,45.622793],[-122.674854,45.622751]],[[-122.675716,45.623065],[-122.675682,45.622984],[-122.67546,45.622975],[-122.675432,45.622897],[-122.675265,45.62286],[-122.67511,45.622893],[-122.675075,45.622974],[-122.674964,45.622993],[-122.674947,45.623105],[-122.674987,45.623147],[-122.675074,45.623154],[-122.675102,45.623231],[-122.675202,45.623244],[-122.67523,45.623322],[-122.67533,45.623334],[-122.675358,45.623412],[-122.675525,45.623449],[-122.675692,45.62341],[-122.675715,45.623246],[-122.675796,45.623242],[-122.67584,45.623207],[-122.675831,45.62309],[-122.675716,45.623065]],[[-122.67574,45.62287],[-122.675907,45.622899],[-122.675961,45.622875],[-122.675971,45.622744],[-122.675927,45.62271],[-122.675764,45.622683],[-122.675699,45.622718],[-122.675686,45.622764],[-122.67574,45.62287]]]}},{"type":"Feature","properties":{"id":118,"area_m2":15400,"px":154,"rank":3,"persistent":false},"geometry":{"type":"Polygon","coordinates":[[[-122.679304,45.623796],[-122.679302,45.624066],[-122.679196,45.624081],[-122.679173,45.624155],[-122.679079,45.624164],[-122.679045,45.624245],[-122.678934,45.624264],[-122.678916,45.624335],[-122.678788,45.624334],[-122.678765,45.62426],[-122.67866,45.624244],[-122.67866,45.624154],[-122.678695,45.624106],[-122.678643,45.62405],[-122.678276,45.624063],[-122.678254,45.623989],[-122.678148,45.623972],[-122.67816,45.623871],[-122.678235,45.623882],[-122.678292,45.623848],[-122.678259,45.623779],[-122.678195,45.62377],[-122.678138,45.623803],[-122.677893,45.623792],[-122.67789,45.62374],[-122.677853,45.623708],[-122.677637,45.623701],[-122.677634,45.623649],[-122.677597,45.623617],[-122.677428,45.623614],[-122.677382,45.623654],[-122.67736,45.623925],[-122.677406,45.623966],[-122.677507,45.623971],[-122.677506,45.624061],[-122.677426,45.624065],[-122.677381,45.624099],[-122.677376,45.62433],[-122.677248,45.62433],[-122.677236,45.624264],[-122.677121,45.624239],[-122.677115,45.624183],[-122.677074,45.624154],[-122.676608,45.624148],[-122.676609,45.623968],[-122.676837,45.623956],[-122.676865,45.62392],[-122.676867,45.623789],[-122.676961,45.62378],[-122.676995,45.623735],[-122.676992,45.623282],[-122.67695,45.623253],[-122.67687,45.623249],[-122.676864,45.623192],[-122.676823,45.623163],[-122.676614,45.623158],[-122.676614,45.623068],[-122.676688,45.623066],[-122.676733,45.62304],[-122.676744,45.622888],[-122.676872,45.622889],[-122.676894,45.622963],[-122.676999,45.622979],[-122.677016,45.623139],[-122.677068,45.623159],[-122.6772,45.623157],[-122.677254,45.623116],[-122.677256,45.62298],[-122.677362,45.622964],[-122.677385,45.62289],[-122.6775,45.622866],[-122.677514,45.622801],[-122.677898,45.622802],[-122.677897,45.623108],[-122.677919,45.623146],[-122.678153,45.623162],[-122.678154,45.623299],[-122.678199,45.623338],[-122.678341,45.623367],[-122.678409,45.623343],[-122.678665,45.623344],[-122.678687,45.623418],[-122.678793,45.623434],[-122.678814,45.623688],[-122.679048,45.623705],[-122.679053,45.623762],[-122.679102,45.623793],[-122.679304,45.623796]]]}},{"type":"Feature","properties":{"id":115,"area_m2":14100,"px":141,"rank":4,"persistent":true},"geometry":{"type":"Polygon","coordinates":[[[-122.681739,45.624163],[-122.681738,45.624252],[-122.681633,45.624268],[-122.68161,45.624342],[-122.681394,45.624348],[-122.681356,45.62438],[-122.681353,45.624431],[-122.681224,45.624431],[-122.681207,45.624361],[-122.681097,45.624341],[-122.681063,45.62426],[-122.680969,45.62425],[-122.680941,45.624173],[-122.680825,45.624152],[-122.680836,45.62409],[-122.680775,45.624056],[-122.680719,45.624067],[-122.680681,45.624101],[-122.680728,45.624167],[-122.680712,45.62425],[-122.680138,45.624235],[-122.680076,45.624268],[-122.68007,45.624338],[-122.679825,45.624348],[-122.679774,45.624253],[-122.679571,45.624256],[-122.679538,45.624302],[-122.679579,45.624411],[-122.679813,45.624427],[-122.679813,45.624517],[-122.679778,45.62456],[-122.679812,45.624607],[-122.679812,45.624697],[-122.679605,45.624697],[-122.679547,45.624721],[-122.67956,45.624843],[-122.679602,45.624872],[-122.679682,45.624877],[-122.679682,45.624967],[-122.679576,45.624982],[-122.679553,45.625056],[-122.679459,45.625065],[-122.679424,45.625146],[-122.679313,45.625166],[-122.679296,45.625236],[-122.678783,45.625234],[-122.67876,45.62516],[-122.678655,45.625144],[-122.678642,45.625078],[-122.678527,45.625054],[-122.678499,45.624976],[-122.678399,45.624963],[-122.6784,45.624873],[-122.67848,45.624869],[-122.678525,45.624835],[-122.678529,45.624694],[-122.678623,45.624685],[-122.678658,45.624604],[-122.678731,45.624602],[-122.678777,45.624576],[-122.678787,45.624424],[-122.678915,45.624425],[-122.678921,45.624481],[-122.67897,45.624512],[-122.679109,45.624514],[-122.679159,45.624491],[-122.679207,45.624383],[-122.679173,45.624335],[-122.679173,45.624245],[-122.679267,45.624236],[-122.679302,45.624156],[-122.679383,45.624152],[-122.679427,45.624118],[-122.679432,45.623796],[-122.679654,45.623788],[-122.679689,45.623707],[-122.679805,45.623683],[-122.679818,45.623617],[-122.680459,45.623619],[-122.680468,45.62368],[-122.680521,45.623708],[-122.680972,45.62371],[-122.680972,45.623842],[-122.680999,45.623878],[-122.681227,45.623891],[-122.681233,45.623948],[-122.681282,45.623979],[-122.681483,45.623982],[-122.681506,45.624056],[-122.681611,45.624072],[-122.681645,45.624153],[-122.681739,45.624163]],[[-122.679446,45.624651],[-122.679422,45.624549],[-122.679373,45.624518],[-122.679226,45.624518],[-122.679175,45.624554],[-122.679174,45.624657],[-122.679225,45.624693],[-122.679413,45.624687],[-122.679446,45.624651]],[[-122.679963,45.623932],[-122.679939,45.623817],[-122.679893,45.623786],[-122.679743,45.623799],[-122.679692,45.623835],[-122.679691,45.623938],[-122.679742,45.623975],[-122.679931,45.623968],[-122.679963,45.623932]]]}},{"type":"Feature","properties":{"id":5,"area_m2":10100,"px":101,"rank":5,"persistent":true},"geometry":{"type":"Polygon","coordinates":[[[-122.690291,45.631837],[-122.690284,45.633097],[-122.690156,45.633097],[-122.690151,45.63304],[-122.690102,45.633009],[-122.6899,45.633006],[-122.689888,45.63285],[-122.689773,45.632825],[-122.689756,45.632755],[-122.689645,45.632735],[-122.689632,45.632669],[-122.689517,45.632645],[-122.689512,45.632588],[-122.689463,45.632557],[-122.689303,45.632555],[-122.68925,45.632584],[-122.68926,45.632824],[-122.688747,45.632823],[-122.688724,45.632748],[-122.688619,45.632732],[-122.68862,45.632462],[-122.688849,45.632451],[-122.688877,45.632373],[-122.688977,45.632361],[-122.689006,45.632283],[-122.6891,45.632275],[-122.689135,45.632194],[-122.689246,45.632174],[-122.689264,45.632104],[-122.689492,45.632092],[-122.689521,45.632015],[-122.689615,45.632006],[-122.68965,45.631925],[-122.68976,45.631906],[-122.689778,45.631835],[-122.690291,45.631837]]]}},{"type":"Feature","properties":{"id":93,"area_m2":9900,"px":99,"rank":6,"persistent":true},"geometry":{"type":"Polygon","coordinates":[[[-122.679925,45.626769],[-122.679894,45.626815],[-122.679928,45.626858],[-122.679926,45.627128],[-122.67982,45.627143],[-122.679797,45.627217],[-122.679413,45.627216],[-122.6794,45.62715],[-122.679336,45.627126],[-122.678585,45.627124],[-122.678524,45.627152],[-122.678515,45.627214],[-122.678258,45.627213],[-122.678263,45.626313],[-122.67852,45.626314],[-122.67858,45.626338],[-122.678648,45.626314],[-122.678776,45.626314],[-122.678779,45.626456],[-122.678823,45.62649],[-122.678903,45.626495],[-122.67892,45.626655],[-122.678964,45.626674],[-122.679228,45.626688],[-122.679282,45.626656],[-122.679323,45.626538],[-122.679271,45.626426],[-122.679161,45.626405],[-122.679162,45.626136],[-122.67929,45.626136],[-122.679313,45.62621],[-122.679418,45.626226],[-122.679435,45.626297],[-122.679546,45.626317],[-122.67958,45.626398],[-122.679674,45.626407],[-122.679701,45.626485],[-122.679801,45.626497],[-122.679829,45.626575],[-122.679929,45.626588],[-122.679925,45.626769]]]}},{"type":"Feature","properties":{"id":95,"area_m2":9400,"px":94,"rank":7,"persistent":false},"geometry":{"type":"Polygon","coordinates":[[[-122.673519,45.62585],[-122.673517,45.626209],[-122.673335,45.626195],[-122.673282,45.626211],[-122.67326,45.626389],[-122.673154,45.626404],[-122.673131,45.626478],[-122.672774,45.62649],[-122.672746,45.626526],[-122.672745,45.626657],[-122.672639,45.626673],[-122.672616,45.626747],[-122.672488,45.626747],[-122.672482,45.62669],[-122.672434,45.626659],[-122.672239,45.626669],[-122.672212,45.626712],[-122.672229,45.627106],[-122.672123,45.627121],[-122.6721,45.627196],[-122.671844,45.627195],[-122.671822,45.627121],[-122.671716,45.627104],[-122.67172,45.626474],[-122.672097,45.626463],[-122.672124,45.626425],[-122.672105,45.626384],[-122.672125,45.626256],[-122.672064,45.626206],[-122.671721,45.626204],[-122.671724,45.625754],[-122.672237,45.625756],[-122.672235,45.626026],[-122.672202,45.626079],[-122.672244,45.626177],[-122.672304,45.626206],[-122.672678,45.626207],[-122.67273,45.626188],[-122.67275,45.625757],[-122.672856,45.625742],[-122.672879,45.625668],[-122.673135,45.625668],[-122.673169,45.625749],[-122.673392,45.625759],[-122.673414,45.625833],[-122.673519,45.62585]],[[-122.67203,45.626025],[-122.672104,45.625987],[-122.672099,45.625874],[-122.672046,45.625846],[-122.671892,45.625851],[-122.671853,45.625888],[-122.67186,45.625996],[-122.671913,45.626024],[-122.67203,45.626025]],[[-122.672024,45.627105],[-122.6721,45.627062],[-122.672099,45.626874],[-122.672048,45.626838],[-122.671901,45.626837],[-122.671847,45.626878],[-122.671848,45.627066],[-122.671899,45.627103],[-122.672024,45.627105]],[[-122.672633,45.626442],[-122.672613,45.62633],[-122.672571,45.626301],[-122.672296,45.626297],[-122.67224,45.626329],[-122.672214,45.626431],[-122.672275,45.626475],[-122.672576,45.626476],[-122.672633,45.626442]]]}},{"type":"Feature","properties":{"id":68,"area_m2":9200,"px":92,"rank":8,"persistent":false},"geometry":{"type":"Polygon","coordinates":[[[-122.679149,45.628476],[-122.679147,45.628746],[-122.677864,45.628742],[-122.677859,45.628685],[-122.67781,45.628654],[-122.67748,45.628651],[-122.677477,45.628599],[-122.67744,45.628567],[-122.677224,45.62856],[-122.677227,45.62802],[-122.677333,45.628005],[-122.677356,45.627931],[-122.677741,45.627932],[-122.677801,45.627956],[-122.677869,45.627932],[-122.678254,45.627933],[-122.678276,45.628007],[-122.678382,45.628024],[-122.67838,45.628335],[-122.678408,45.628371],[-122.678764,45.628385],[-122.678773,45.628446],[-122.678826,45.628474],[-122.679149,45.628476]]]}},{"type":"Feature","properties":{"id":33,"area_m2":7000,"px":70,"rank":9,"persistent":false},"geometry":{"type":"Polygon","coordinates":[[[-122.672595,45.630347],[-122.672593,45.630707],[-122.672512,45.630711],[-122.672468,45.630745],[-122.672463,45.630977],[-122.671884,45.630976],[-122.671831,45.631004],[-122.671819,45.631065],[-122.671693,45.631065],[-122.671687,45.631008],[-122.671646,45.630979],[-122.671484,45.630978],[-122.671437,45.631023],[-122.671435,45.631244],[-122.671307,45.631244],[-122.671285,45.631169],[-122.671179,45.631152],[-122.67118,45.631063],[-122.671274,45.631054],[-122.671309,45.630974],[-122.671382,45.630972],[-122.671428,45.630945],[-122.671415,45.63081],[-122.671115,45.630794],[-122.671062,45.630821],[-122.671052,45.630883],[-122.670926,45.630883],[-122.670902,45.630808],[-122.670797,45.630792],[-122.670799,45.630432],[-122.671015,45.630426],[-122.671052,45.630395],[-122.671056,45.630343],[-122.671184,45.630343],[-122.671201,45.630504],[-122.671311,45.630524],[-122.671345,45.630605],[-122.671493,45.630628],[-122.671564,45.63059],[-122.671568,45.630434],[-122.671779,45.630444],[-122.671822,45.63041],[-122.671826,45.630345],[-122.671954,45.630346],[-122.672014,45.63037],[-122.672082,45.630346],[-122.672595,45.630347]]]}},{"type":"Feature","properties":{"id":46,"area_m2":7000,"px":70,"rank":10,"persistent":false},"geometry":{"type":"Polygon","coordinates":[[[-122.681323,45.629652],[-122.681319,45.630282],[-122.680491,45.63028],[-122.68043,45.630308],[-122.680419,45.630369],[-122.680293,45.630369],[-122.680287,45.630312],[-122.680246,45.630283],[-122.680106,45.630279],[-122.680046,45.630307],[-122.680036,45.630368],[-122.67978,45.630368],[-122.679719,45.630343],[-122.679651,45.630367],[-122.679395,45.630367],[-122.679399,45.629647],[-122.680168,45.629649],[-122.680174,45.629705],[-122.680223,45.629737],[-122.680357,45.629763],[-122.680425,45.629739],[-122.680553,45.62974],[-122.680555,45.629881],[-122.680629,45.62992],[-122.680867,45.62992],[-122.680919,45.629901],[-122.680938,45.629651],[-122.681323,45.629652]],[[-122.68073,45.63019],[-122.680784,45.630175],[-122.680807,45.630142],[-122.680804,45.630049],[-122.68076,45.630014],[-122.680167,45.630009],[-122.680149,45.629938],[-122.680039,45.629918],[-122.68003,45.629857],[-122.679977,45.629829],[-122.679595,45.629827],[-122.679532,45.62986],[-122.679525,45.630062],[-122.67957,45.630106],[-122.679909,45.630098],[-122.679918,45.630159],[-122.679978,45.630188],[-122.68073,45.63019]]]}},{"type":"Feature","properties":{"id":58,"area_m2":6900,"px":69,"rank":11,"persistent":false},"geometry":{"type":"Polygon","coordinates":[[[-122.674783,45.629183],[-122.674781,45.629453],[-122.673883,45.629451],[-122.673881,45.629296],[-122.67381,45.629257],[-122.673656,45.629282],[-122.673627,45.62936],[-122.673405,45.629369],[-122.67337,45.629449],[-122.673114,45.629449],[-122.673114,45.629359],[-122.673202,45.629353],[-122.673242,45.62931],[-122.673237,45.629212],[-122.673166,45.629179],[-122.672887,45.62919],[-122.672859,45.629227],[-122.672857,45.629448],[-122.672729,45.629448],[-122.67273,45.629178],[-122.672811,45.629174],[-122.672855,45.62914],[-122.67286,45.628908],[-122.67344,45.628909],[-122.673493,45.628881],[-122.673502,45.62882],[-122.673759,45.628821],[-122.673767,45.628882],[-122.67382,45.62891],[-122.674143,45.628912],[-122.674177,45.628993],[-122.674399,45.629002],[-122.674433,45.629083],[-122.674655,45.629093],[-122.674677,45.629167],[-122.674783,45.629183]]]}},{"type":"Feature","properties":{"id":4,"area_m2":6600,"px":66,"rank":12,"persistent":false},"geometry":{"type":"Polygon","coordinates":[[[-122.671427,45.632594],[-122.671425,45.632954],[-122.671352,45.632956],[-122.671306,45.632982],[-122.671296,45.633134],[-122.671039,45.633133],[-122.671027,45.633067],[-122.670963,45.633043],[-122.670817,45.633052],[-122.670783,45.633132],[-122.670526,45.633132],[-122.670528,45.632862],[-122.670562,45.632814],[-122.670528,45.632772],[-122.67052,45.63262],[-122.670475,45.632594],[-122.670401,45.632591],[-122.670392,45.63253],[-122.67034,45.632502],[-122.66976,45.632499],[-122.669762,45.632229],[-122.669796,45.632187],[-122.669762,45.632139],[-122.669763,45.632049],[-122.670276,45.632051],[-122.670304,45.632129],[-122.670457,45.632155],[-122.670523,45.632126],[-122.670533,45.632052],[-122.671174,45.632053],[-122.671173,45.632143],[-122.671139,45.632186],[-122.671173,45.632233],[-122.671172,45.632323],[-122.671099,45.632326],[-122.671053,45.632352],[-122.671043,45.632503],[-122.670949,45.632505],[-122.670903,45.632532],[-122.670917,45.632644],[-122.670968,45.632681],[-122.671101,45.632683],[-122.671161,45.632655],[-122.671171,45.632594],[-122.671427,45.632594]],[[-122.670549,45.632367],[-122.670526,45.632251],[-122.670479,45.63222],[-122.670329,45.632233],[-122.670278,45.632269],[-122.670277,45.632373],[-122.670328,45.632409],[-122.670517,45.632402],[-122.670549,45.632367]],[[-122.670657,45.632772],[-122.670623,45.632809],[-122.670637,45.632849],[-122.670695,45.632875],[-122.670751,45.632866],[-122.670783,45.632833],[-122.670772,45.632783],[-122.670718,45.632759],[-122.670657,45.632772]],[[-122.671035,45.632294],[-122.671062,45.632183],[-122.671018,45.632147],[-122.670722,45.632143],[-122.670663,45.63218],[-122.670661,45.632278],[-122.670721,45.632321],[-122.670982,45.632322],[-122.671035,45.632294]],[[-122.671298,45.632814],[-122.671238,45.632761],[-122.671076,45.632782],[-122.671042,45.632822],[-122.671054,45.632929],[-122.67111,45.632953],[-122.671263,45.632945],[-122.671296,45.63291],[-122.671298,45.632814]]]}},{"type":"Feature","properties":{"id":96,"area_m2":6500,"px":65,"rank":13,"persistent":false},"geometry":{"type":"Polygon","coordinates":[[[-122.686727,45.626877],[-122.686725,45.627147],[-122.686597,45.627146],[-122.686591,45.62709],[-122.686543,45.627058],[-122.686341,45.627055],[-122.686338,45.626914],[-122.686265,45.626875],[-122.686027,45.626875],[-122.685974,45.626894],[-122.685956,45.627144],[-122.685443,45.627143],[-122.685434,45.627082],[-122.685381,45.627054],[-122.68493,45.627052],[-122.684922,45.6269],[-122.684876,45.626874],[-122.684803,45.626871],[-122.684804,45.626601],[-122.685189,45.626602],[-122.685189,45.626752],[-122.685255,45.626796],[-122.685444,45.626783],[-122.685512,45.626807],[-122.685573,45.626783],[-122.685767,45.626783],[-122.68582,45.626756],[-122.68583,45.626694],[-122.686068,45.626708],[-122.686121,45.626652],[-122.686087,45.626605],[-122.686086,45.626468],[-122.686047,45.626431],[-122.68596,45.626424],[-122.68596,45.626293],[-122.685932,45.626257],[-122.685745,45.62625],[-122.685707,45.626282],[-122.685703,45.626334],[-122.685449,45.626333],[-122.685425,45.626259],[-122.685319,45.626243],[-122.68532,45.626153],[-122.685426,45.626137],[-122.685449,45.626063],[-122.685833,45.626064],[-122.685855,45.626138],[-122.685961,45.626154],[-122.685995,45.626235],[-122.686089,45.626245],[-122.686105,45.626405],[-122.686216,45.626425],[-122.68625,45.626506],[-122.686344,45.626516],[-122.686361,45.626676],[-122.686471,45.626696],[-122.686505,45.626777],[-122.686599,45.626786],[-122.686627,45.626864],[-122.686727,45.626877]]]}},{"type":"Feature","properties":{"id":43,"area_m2":6000,"px":60,"rank":14,"persistent":false},"geometry":{"type":"Polygon","coordinates":[[[-122.679139,45.630096],[-122.679138,45.630276],[-122.679044,45.630285],[-122.67901,45.63033],[-122.679022,45.630432],[-122.679137,45.630456],[-122.679136,45.630636],[-122.679031,45.630651],[-122.679008,45.630725],[-122.67811,45.630723],[-122.678098,45.630477],[-122.678042,45.630453],[-122.677855,45.630452],[-122.677855,45.630362],[-122.678042,45.630363],[-122.678099,45.630339],[-122.678113,45.630093],[-122.678219,45.630077],[-122.678242,45.630003],[-122.678358,45.62998],[-122.678371,45.629914],[-122.678627,45.629914],[-122.678636,45.629976],[-122.678689,45.630004],[-122.679012,45.630006],[-122.679034,45.63008],[-122.679139,45.630096]]]}},{"type":"Feature","properties":{"id":26,"area_m2":5700,"px":57,"rank":15,"persistent":false},"geometry":{"type":"Polygon","coordinates":[[[-122.674641,45.631523],[-122.67464,45.631613],[-122.674535,45.631629],[-122.674512,45.631703],[-122.674296,45.631709],[-122.674258,45.631741],[-122.674255,45.631792],[-122.67387,45.631791],[-122.673865,45.631721],[-122.673803,45.631688],[-122.673357,45.6317],[-122.673349,45.631458],[-122.673289,45.63143],[-122.672974,45.631428],[-122.672966,45.631277],[-122.67292,45.631251],[-122.672847,45.631248],[-122.672848,45.631068],[-122.673744,45.631071],[-122.673806,45.631095],[-122.673876,45.631071],[-122.674515,45.631073],[-122.674514,45.631343],[-122.674285,45.631355],[-122.674257,45.631391],[-122.674258,45.631492],[-122.674323,45.631536],[-122.674641,45.631523]],[[-122.673667,45.63134],[-122.673743,45.631297],[-122.673743,45.631204],[-122.673717,45.631173],[-122.673437,45.63116],[-122.673378,45.631179],[-122.67336,45.631291],[-122.673387,45.631327],[-122.673667,45.63134]],[[-122.673874,45.63161],[-122.673905,45.631574],[-122.67389,45.631534],[-122.673832,45.631508],[-122.67377,45.63152],[-122.673743,45.631556],[-122.673759,45.631604],[-122.673817,45.631625],[-122.673874,45.63161]],[[-122.674,45.631521],[-122.673966,45.631558],[-122.67398,45.631599],[-122.674038,45.631625],[-122.674094,45.631616],[-122.674126,45.631582],[-122.674115,45.631532],[-122.674061,45.631508],[-122.674,45.631521]]]}},{"type":"Feature","properties":{"id":78,"area_m2":5700,"px":57,"rank":16,"persistent":false},"geometry":{"type":"Polygon","coordinates":[[[-122.681205,45.627851],[-122.681203,45.628211],[-122.680818,45.62821],[-122.680796,45.628136],[-122.68069,45.62812],[-122.680674,45.62796],[-122.680563,45.62794],[-122.680529,45.627859],[-122.68039,45.627827],[-122.680207,45.627861],[-122.680178,45.627938],[-122.679537,45.627937],[-122.679515,45.627862],[-122.679409,45.627845],[-122.67941,45.627666],[-122.679511,45.627662],[-122.679557,45.627622],[-122.67954,45.627307],[-122.680053,45.627308],[-122.680076,45.627382],[-122.680181,45.627399],[-122.68018,45.62762],[-122.680214,45.62766],[-122.680396,45.627663],[-122.680433,45.627631],[-122.680437,45.627579],[-122.680822,45.62758],[-122.680843,45.627745],[-122.680949,45.627761],[-122.680954,45.627817],[-122.680996,45.627847],[-122.681205,45.627851]],[[-122.679974,45.627668],[-122.68005,45.627625],[-122.680047,45.627431],[-122.679991,45.627399],[-122.679824,45.627402],[-122.679777,45.627448],[-122.679801,45.627634],[-122.67985,45.627665],[-122.679974,45.627668]]]}},{"type":"Feature","properties":{"id":32,"area_m2":4900,"px":49,"rank":17,"persistent":true},"geometry":{"type":"Polygon","coordinates":[[[-122.689783,45.630935],[-122.689782,45.631115],[-122.689676,45.631131],[-122.689653,45.631205],[-122.689538,45.631229],[-122.689525,45.631295],[-122.689268,45.631294],[-122.689263,45.631147],[-122.689222,45.631118],[-122.689141,45.631114],[-122.689135,45.631057],[-122.689094,45.631028],[-122.688885,45.631023],[-122.688824,45.630999],[-122.688756,45.631022],[-122.688372,45.631021],[-122.688373,45.630842],[-122.688478,45.630826],[-122.688501,45.630752],[-122.688595,45.630743],[-122.68863,45.630662],[-122.688741,45.630643],[-122.688759,45.630573],[-122.689082,45.630572],[-122.689135,45.630545],[-122.689144,45.630484],[-122.689401,45.630484],[-122.6894,45.630664],[-122.689365,45.630712],[-122.689412,45.63082],[-122.689468,45.630844],[-122.689655,45.630845],[-122.689678,45.630919],[-122.689783,45.630935]]]}},{"type":"Feature","properties":{"id":55,"area_m2":4700,"px":47,"rank":18,"persistent":false},"geometry":{"type":"Polygon","coordinates":[[[-122.681455,45.629022],[-122.681453,45.629292],[-122.681373,45.629296],[-122.681328,45.62933],[-122.681324,45.629562],[-122.681067,45.629561],[-122.681062,45.629491],[-122.681008,45.629459],[-122.680811,45.62947],[-122.68083,45.629336],[-122.680762,45.629291],[-122.680327,45.629301],[-122.680299,45.629338],[-122.680297,45.629559],[-122.679656,45.629557],[-122.679648,45.629406],[-122.679602,45.629379],[-122.679529,45.629377],[-122.679529,45.629287],[-122.679716,45.629287],[-122.679773,45.629264],[-122.679787,45.629108],[-122.680124,45.629104],[-122.680166,45.629075],[-122.680172,45.629019],[-122.680401,45.629007],[-122.680429,45.628929],[-122.680557,45.62893],[-122.680563,45.628986],[-122.680604,45.629016],[-122.680752,45.629019],[-122.680805,45.628992],[-122.680814,45.62893],[-122.680925,45.628911],[-122.680943,45.628841],[-122.681199,45.628842],[-122.681222,45.628916],[-122.681327,45.628932],[-122.681361,45.629013],[-122.681455,45.629022]],[[-122.680093,45.629468],[-122.680168,45.629425],[-122.680167,45.629237],[-122.680116,45.629201],[-122.679969,45.6292],[-122.67992,45.629231],[-122.679914,45.629288],[-122.67984,45.62929],[-122.679795,45.629316],[-122.679788,45.629429],[-122.679847,45.629467],[-122.680093,45.629468]],[[-122.681198,45.629021],[-122.681193,45.628965],[-122.681151,45.628935],[-122.680965,45.628947],[-122.680942,45.628985],[-122.680963,45.629185],[-122.681129,45.629225],[-122.681303,45.629186],[-122.681321,45.629055],[-122.681279,45.629026],[-122.681198,45.629021]]]}},{"type":"Feature","properties":{"id":83,"area_m2":4500,"px":45,"rank":19,"persistent":false},"geometry":{"type":"Polygon","coordinates":[[[-122.673767,45.62729],[-122.673764,45.62783],[-122.673659,45.627846],[-122.673636,45.62792],[-122.672935,45.627918],[-122.672875,45.627946],[-122.672865,45.628008],[-122.672737,45.628007],[-122.672741,45.627287],[-122.672998,45.627288],[-122.673058,45.627312],[-122.673128,45.627289],[-122.673767,45.62729]],[[-122.67356,45.62774],[-122.673635,45.627697],[-122.673637,45.627423],[-122.673584,45.627382],[-122.673444,45.62738],[-122.673382,45.627428],[-122.673382,45.627696],[-122.673435,45.627737],[-122.67356,45.62774]]]}},{"type":"Feature","properties":{"id":117,"area_m2":4400,"px":44,"rank":20,"persistent":false},"geometry":{"type":"Polygon","coordinates":[[[-122.674427,45.624232],[-122.674426,45.624412],[-122.67432,45.624427],[-122.674297,45.624502],[-122.674203,45.62451],[-122.674168,45.624591],[-122.674057,45.624611],[-122.674039,45.624681],[-122.673911,45.62468],[-122.673851,45.624656],[-122.673783,45.62468],[-122.673655,45.62468],[-122.673656,45.624278],[-122.673588,45.62423],[-122.673442,45.62423],[-122.673386,45.624264],[-122.673398,45.624589],[-122.673142,45.624588],[-122.67314,45.624267],[-122.673082,45.624229],[-122.672887,45.624227],[-122.672889,45.624048],[-122.673234,45.624055],[-122.673272,45.624019],[-122.673271,45.623907],[-122.673212,45.623869],[-122.673018,45.623868],[-122.673012,45.623811],[-122.672971,45.623782],[-122.672762,45.623777],[-122.672762,45.623687],[-122.673019,45.623688],[-122.673028,45.623749],[-122.67308,45.623777],[-122.673403,45.623779],[-122.673402,45.624],[-122.673449,45.624045],[-122.673611,45.624045],[-122.673652,45.624016],[-122.673659,45.62396],[-122.673787,45.62396],[-122.673766,45.624084],[-122.673788,45.624124],[-122.674042,45.624141],[-122.674041,45.624362],[-122.674088,45.624407],[-122.674269,45.624399],[-122.674297,45.624363],[-122.674299,45.624232],[-122.674427,45.624232]]]}},{"type":"Feature","properties":{"id":53,"area_m2":4300,"px":43,"rank":21,"persistent":false},"geometry":{"type":"Polygon","coordinates":[[[-122.683377,45.629388],[-122.683376,45.629568],[-122.682607,45.629565],[-122.682585,45.629401],[-122.682479,45.629385],[-122.682467,45.629319],[-122.682352,45.629295],[-122.682348,45.629243],[-122.682311,45.629211],[-122.682095,45.629204],[-122.682097,45.628934],[-122.682241,45.628942],[-122.682225,45.629066],[-122.682258,45.629105],[-122.68244,45.629109],[-122.68248,45.629072],[-122.68248,45.628979],[-122.682441,45.628941],[-122.682338,45.628927],[-122.682354,45.628845],[-122.68246,45.628829],[-122.682483,45.628755],[-122.682611,45.628755],[-122.682633,45.62883],[-122.682739,45.628846],[-122.682756,45.628916],[-122.682867,45.628936],[-122.6829,45.629017],[-122.682994,45.629027],[-122.683022,45.629104],[-122.683122,45.629117],[-122.68315,45.629195],[-122.68325,45.629207],[-122.683258,45.629359],[-122.683304,45.629385],[-122.683377,45.629388]]]}},{"type":"Feature","properties":{"id":94,"area_m2":4300,"px":43,"rank":22,"persistent":false},"geometry":{"type":"Polygon","coordinates":[[[-122.677491,45.626671],[-122.677489,45.627121],[-122.677383,45.627136],[-122.67736,45.62721],[-122.676206,45.627207],[-122.676183,45.627133],[-122.676078,45.627117],[-122.676078,45.627027],[-122.676113,45.626985],[-122.676079,45.626937],[-122.676081,45.626577],[-122.676209,45.626577],[-122.676269,45.626601],[-122.676339,45.626578],[-122.676466,45.626578],[-122.676526,45.626602],[-122.676594,45.626578],[-122.676979,45.626579],[-122.676987,45.626654],[-122.677053,45.626683],[-122.677207,45.626658],[-122.677235,45.62658],[-122.677364,45.626581],[-122.677386,45.626655],[-122.677491,45.626671]],[[-122.676596,45.626757],[-122.676627,45.626721],[-122.676613,45.626681],[-122.676554,45.626655],[-122.676492,45.626667],[-122.676465,45.626703],[-122.676481,45.626751],[-122.676539,45.626772],[-122.676596,45.626757]]]}},{"type":"Feature","properties":{"id":102,"area_m2":4300,"px":43,"rank":23,"persistent":true},"geometry":{"type":"Polygon","coordinates":[[[-122.677496,45.625771],[-122.677495,45.626041],[-122.677401,45.62605],[-122.677366,45.626094],[-122.677379,45.626196],[-122.677494,45.626221],[-122.677492,45.626491],[-122.676851,45.626489],[-122.676843,45.626338],[-122.676797,45.626311],[-122.676724,45.626309],[-122.676724,45.626219],[-122.676812,45.626213],[-122.676851,45.626176],[-122.67685,45.626077],[-122.676799,45.626041],[-122.676509,45.626044],[-122.67647,45.626081],[-122.676468,45.626218],[-122.67634,45.626217],[-122.676341,45.625948],[-122.67692,45.625948],[-122.676981,45.625906],[-122.676984,45.625769],[-122.677496,45.625771]]]}},{"type":"Feature","properties":{"id":86,"area_m2":4200,"px":42,"rank":24,"persistent":false},"geometry":{"type":"Polygon","coordinates":[[[-122.672612,45.627467],[-122.67261,45.627737],[-122.672356,45.627753],[-122.672334,45.627792],[-122.672353,45.627916],[-122.671711,45.627914],[-122.671715,45.627285],[-122.672485,45.627287],[-122.672493,45.627438],[-122.672538,45.627465],[-122.672612,45.627467]]]}},{"type":"Feature","properties":{"id":3,"area_m2":4000,"px":40,"rank":25,"persistent":false},"geometry":{"type":"Polygon","coordinates":[[[-122.67271,45.632598],[-122.67271,45.632688],[-122.672622,45.632694],[-122.672583,45.632731],[-122.672579,45.633137],[-122.672451,45.633137],[-122.672448,45.633072],[-122.672405,45.633038],[-122.672195,45.633046],[-122.672161,45.632965],[-122.672008,45.632956],[-122.671947,45.632984],[-122.671938,45.633046],[-122.671751,45.633045],[-122.671699,45.633065],[-122.67168,45.633225],[-122.671552,45.633225],[-122.671555,45.632685],[-122.671661,45.632669],[-122.671684,45.632595],[-122.67271,45.632598]]]}},{"type":"Feature","properties":{"id":74,"area_m2":3700,"px":37,"rank":26,"persistent":true},"geometry":{"type":"Polygon","coordinates":[[[-122.684795,45.628131],[-122.684795,45.628221],[-122.684707,45.628228],[-122.684668,45.628265],[-122.684665,45.628581],[-122.683767,45.628579],[-122.683758,45.628427],[-122.683713,45.628401],[-122.683639,45.628398],[-122.68364,45.628218],[-122.684234,45.628216],[-122.684281,45.628177],[-122.684283,45.62804],[-122.684668,45.628041],[-122.68469,45.628115],[-122.684795,45.628131]]]}},{"type":"Feature","properties":{"id":60,"area_m2":3600,"px":36,"rank":27,"persistent":false},"geometry":{"type":"Polygon","coordinates":[[[-122.671449,45.628814],[-122.671446,45.629444],[-122.671061,45.629443],[-122.671039,45.629369],[-122.670933,45.629352],[-122.670913,45.629175],[-122.67086,45.629158],[-122.670678,45.629172],[-122.670669,45.62902],[-122.670624,45.628994],[-122.670551,45.628991],[-122.670552,45.628811],[-122.671449,45.628814]]]}},{"type":"Feature","properties":{"id":77,"area_m2":3600,"px":36,"rank":28,"persistent":false},"geometry":{"type":"Polygon","coordinates":[[[-122.68685,45.627777],[-122.686848,45.628137],[-122.686496,45.628132],[-122.686463,45.628171],[-122.686462,45.628316],[-122.686077,45.628315],[-122.686079,45.628045],[-122.686301,45.628043],[-122.686355,45.62799],[-122.686323,45.62789],[-122.686208,45.627865],[-122.68618,45.627787],[-122.685952,45.627774],[-122.685953,45.627595],[-122.686059,45.627579],[-122.686082,45.627505],[-122.686338,45.627506],[-122.686341,45.627557],[-122.686379,45.627589],[-122.686594,45.627596],[-122.686617,45.627671],[-122.686722,45.627687],[-122.686756,45.627768],[-122.68685,45.627777]]]}},{"type":"Feature","properties":{"id":84,"area_m2":3600,"px":36,"rank":29,"persistent":false},"geometry":{"type":"Polygon","coordinates":[[[-122.675948,45.627387],[-122.675945,45.627837],[-122.675839,45.627852],[-122.675816,45.627926],[-122.674919,45.627924],[-122.674919,45.627834],[-122.674954,45.627791],[-122.67492,45.627744],[-122.674922,45.627384],[-122.675027,45.627368],[-122.67505,45.627294],[-122.67582,45.627296],[-122.675842,45.62737],[-122.675948,45.627387]]]}},{"type":"Feature","properties":{"id":85,"area_m2":3500,"px":35,"rank":30,"persistent":false},"geometry":{"type":"Polygon","coordinates":[[[-122.67479,45.627475],[-122.674758,45.627521],[-122.674792,45.627563],[-122.67479,45.627923],[-122.673892,45.627921],[-122.673896,45.627291],[-122.674665,45.627293],[-122.674688,45.627367],[-122.674793,45.627383],[-122.67479,45.627475]]]}},{"type":"Feature","properties":{"id":103,"area_m2":3400,"px":34,"rank":31,"persistent":false},"geometry":{"type":"Polygon","coordinates":[[[-122.671593,45.626114],[-122.671593,45.626204],[-122.671487,45.62622],[-122.671464,45.626294],[-122.671134,45.626295],[-122.671085,45.626326],[-122.671079,45.626382],[-122.670756,45.626383],[-122.670703,45.62641],[-122.670693,45.626471],[-122.670565,45.626471],[-122.670566,45.626291],[-122.670654,45.626285],[-122.670693,45.626248],[-122.670696,45.626021],[-122.67093,45.626006],[-122.670954,45.625842],[-122.67106,45.625827],[-122.671083,45.625753],[-122.671467,45.625754],[-122.671466,45.625934],[-122.671434,45.625992],[-122.671488,45.626098],[-122.671593,45.626114]]]}},{"type":"Feature","properties":{"id":30,"area_m2":3300,"px":33,"rank":32,"persistent":false},"geometry":{"type":"Polygon","coordinates":[[[-122.678748,45.631265],[-122.678747,45.631445],[-122.678531,45.631451],[-122.678494,45.631483],[-122.67849,45.631534],[-122.677335,45.631531],[-122.677336,45.631351],[-122.677442,45.631335],[-122.677465,45.631261],[-122.677688,45.631253],[-122.677722,45.631172],[-122.67785,45.631172],[-122.677911,45.631197],[-122.677981,45.631173],[-122.67862,45.631175],[-122.678642,45.631249],[-122.678748,45.631265]],[[-122.677976,45.631261],[-122.677926,45.631239],[-122.677868,45.631249],[-122.677831,45.631291],[-122.677846,45.631332],[-122.677899,45.631352],[-122.67797,45.63134],[-122.677998,45.631302],[-122.677976,45.631261]]]}},{"type":"Feature","properties":{"id":16,"area_m2":3200,"px":32,"rank":33,"persistent":false},"geometry":{"type":"Polygon","coordinates":[[[-122.675534,45.632426],[-122.675533,45.632516],[-122.673866,45.632511],[-122.673867,45.632331],[-122.67394,45.632329],[-122.673986,45.632303],[-122.673996,45.632152],[-122.674124,45.632152],[-122.67413,45.632209],[-122.674171,45.632238],[-122.674326,45.63224],[-122.674379,45.632199],[-122.674381,45.632063],[-122.674585,45.632074],[-122.674632,45.632043],[-122.674639,45.631973],[-122.674767,45.631974],[-122.674766,45.632105],[-122.674794,45.632142],[-122.675022,45.632154],[-122.675031,45.632216],[-122.675084,45.632244],[-122.675407,45.632246],[-122.675394,45.632396],[-122.67544,45.632423],[-122.675534,45.632426]],[[-122.674711,45.632246],[-122.674568,45.632231],[-122.674514,45.632263],[-122.674488,45.632372],[-122.674535,45.632419],[-122.674702,45.632423],[-122.674758,45.63239],[-122.674756,45.632272],[-122.674711,45.632246]]]}},{"type":"Feature","properties":{"id":18,"area_m2":3100,"px":31,"rank":34,"persistent":false},"geometry":{"type":"Polygon","coordinates":[[[-122.678488,45.631804],[-122.678485,45.632344],[-122.678379,45.63236],[-122.678356,45.632434],[-122.677843,45.632432],[-122.677847,45.631802],[-122.678488,45.631804]]]}},{"type":"Feature","properties":{"id":82,"area_m2":3000,"px":30,"rank":35,"persistent":false},"geometry":{"type":"Polygon","coordinates":[[[-122.679283,45.627396],[-122.679282,45.627576],[-122.679188,45.627585],[-122.679153,45.627666],[-122.679038,45.627689],[-122.679024,45.627935],[-122.678918,45.627951],[-122.678895,45.628025],[-122.678767,45.628025],[-122.678758,45.627963],[-122.678705,45.627935],[-122.678382,45.627933],[-122.678384,45.627664],[-122.678471,45.627657],[-122.678512,45.627615],[-122.678514,45.627304],[-122.679155,45.627306],[-122.679178,45.62738],[-122.679283,45.627396]],[[-122.678898,45.627525],[-122.678838,45.627472],[-122.678675,45.627493],[-122.678641,45.627533],[-122.678653,45.62764],[-122.678808,45.627678],[-122.678864,45.627669],[-122.678896,45.627635],[-122.678898,45.627525]]]}},{"type":"Feature","properties":{"id":15,"area_m2":2900,"px":29,"rank":36,"persistent":false},"geometry":{"type":"Polygon","coordinates":[[[-122.677717,45.631982],[-122.677714,45.632522],[-122.677073,45.63252],[-122.677076,45.63198],[-122.677182,45.631965],[-122.677207,45.631891],[-122.67759,45.631892],[-122.677612,45.631966],[-122.677717,45.631982]],[[-122.677511,45.632251],[-122.677585,45.632213],[-122.677579,45.6321],[-122.677527,45.632073],[-122.677373,45.632077],[-122.677333,45.632114],[-122.67734,45.632222],[-122.677393,45.63225],[-122.677511,45.632251]]]}},{"type":"Feature","properties":{"id":25,"area_m2":2700,"px":27,"rank":37,"persistent":false},"geometry":{"type":"Polygon","coordinates":[[[-122.679773,45.631448],[-122.679773,45.631538],[-122.679679,45.631547],[-122.679644,45.631627],[-122.67957,45.63163],[-122.679525,45.631656],[-122.679515,45.631807],[-122.679258,45.631806],[-122.679236,45.631732],[-122.67913,45.631716],[-122.679097,45.631635],[-122.679003,45.631626],[-122.679004,45.631446],[-122.679119,45.631422],[-122.679133,45.631266],[-122.679239,45.63125],[-122.679262,45.631176],[-122.679647,45.631177],[-122.679649,45.631409],[-122.679693,45.631443],[-122.679773,45.631448]]]}},{"type":"Feature","properties":{"id":61,"area_m2":2700,"px":27,"rank":38,"persistent":false},"geometry":{"type":"Polygon","coordinates":[[[-122.670418,45.629262],[-122.670386,45.629308],[-122.67042,45.629351],[-122.670419,45.629441],[-122.669906,45.629439],[-122.669904,45.629208],[-122.66986,45.629173],[-122.66978,45.629169],[-122.669782,45.628809],[-122.670423,45.628811],[-122.670418,45.629262]],[[-122.670311,45.629306],[-122.670287,45.629204],[-122.670238,45.629173],[-122.670091,45.629172],[-122.670039,45.629208],[-122.670039,45.629312],[-122.67009,45.629348],[-122.670278,45.629341],[-122.670311,45.629306]]]}},{"type":"Feature","properties":{"id":66,"area_m2":2700,"px":27,"rank":39,"persistent":false},"geometry":{"type":"Polygon","coordinates":[[[-122.682355,45.628575],[-122.682354,45.628755],[-122.68197,45.628754],[-122.681964,45.628697],[-122.681915,45.628666],[-122.681585,45.628662],[-122.681587,45.628261],[-122.681547,45.628219],[-122.68146,45.628212],[-122.681461,45.628032],[-122.681589,45.628033],[-122.68159,45.628169],[-122.681629,45.628206],[-122.681973,45.628214],[-122.681995,45.628288],[-122.6821,45.628304],[-122.682117,45.628464],[-122.682228,45.628484],[-122.682261,45.628565],[-122.682355,45.628575]]]}},{"type":"Feature","properties":{"id":111,"area_m2":2700,"px":27,"rank":40,"persistent":false},"geometry":{"type":"Polygon","coordinates":[[[-122.672624,45.625397],[-122.672623,45.625487],[-122.672518,45.625502],[-122.672495,45.625576],[-122.67211,45.625575],[-122.672104,45.625519],[-122.672056,45.625488],[-122.671726,45.625484],[-122.671728,45.625034],[-122.67193,45.625033],[-122.671979,45.625002],[-122.671985,45.624945],[-122.672113,45.624945],[-122.672136,45.62502],[-122.672241,45.625036],[-122.672253,45.625192],[-122.672368,45.625216],[-122.672364,45.625376],[-122.672417,45.625396],[-122.672624,45.625397]]]}},{"type":"Feature","properties":{"id":110,"area_m2":2700,"px":27,"rank":41,"persistent":true},"geometry":{"type":"Polygon","coordinates":[[[-122.674808,45.624863],[-122.674804,45.625493],[-122.674698,45.625509],[-122.674674,45.625583],[-122.674291,45.625582],[-122.674288,45.62553],[-122.67425,45.625498],[-122.674035,45.625491],[-122.674034,45.625264],[-122.673995,45.625227],[-122.673908,45.62522],[-122.673909,45.625041],[-122.674015,45.625025],[-122.674038,45.624951],[-122.674166,45.624951],[-122.674166,45.625178],[-122.674205,45.625215],[-122.674293,45.625222],[-122.674301,45.625373],[-122.674354,45.625401],[-122.674494,45.6254],[-122.674548,45.625354],[-122.67455,45.625132],[-122.674637,45.625126],[-122.674677,45.625089],[-122.67468,45.624863],[-122.674808,45.624863]]]}},{"type":"Feature","properties":{"id":47,"area_m2":2600,"px":26,"rank":42,"persistent":false},"geometry":{"type":"Polygon","coordinates":[[[-122.672599,45.629717],[-122.672598,45.629807],[-122.672511,45.629813],[-122.672471,45.62985],[-122.672468,45.630077],[-122.672363,45.630092],[-122.67234,45.630166],[-122.671753,45.630167],[-122.671699,45.630208],[-122.671697,45.630345],[-122.671569,45.630344],[-122.67157,45.630164],[-122.671676,45.630149],[-122.671731,45.630043],[-122.671699,45.629985],[-122.6717,45.629895],[-122.671787,45.629889],[-122.671828,45.629846],[-122.671816,45.629739],[-122.671701,45.629715],[-122.671701,45.629625],[-122.671958,45.629625],[-122.671958,45.629852],[-122.672026,45.629895],[-122.672151,45.629895],[-122.672204,45.629868],[-122.672215,45.629626],[-122.672343,45.629627],[-122.672348,45.629697],[-122.672395,45.629728],[-122.672599,45.629717]]]}},{"type":"Feature","properties":{"id":28,"area_m2":2500,"px":25,"rank":43,"persistent":true},"geometry":{"type":"Polygon","coordinates":[[[-122.676823,45.63144],[-122.676822,45.631529],[-122.676635,45.631529],[-122.676578,45.631553],[-122.676564,45.631709],[-122.676051,45.631707],[-122.676054,45.631167],[-122.676439,45.631168],[-122.676461,45.631243],[-122.676567,45.631259],[-122.676589,45.631423],[-122.676823,45.63144]]]}},{"type":"Feature","properties":{"id":48,"area_m2":2500,"px":25,"rank":44,"persistent":false},"geometry":{"type":"Polygon","coordinates":[[[-122.676961,45.62973],[-122.67696,45.62982],[-122.676873,45.629826],[-122.676833,45.629863],[-122.67683,45.630179],[-122.676724,45.630195],[-122.676701,45.630269],[-122.676445,45.630268],[-122.676441,45.630217],[-122.676404,45.630185],[-122.676188,45.630177],[-122.67619,45.629998],[-122.676384,45.629997],[-122.676445,45.629955],[-122.676441,45.629852],[-122.676399,45.629822],[-122.676319,45.629818],[-122.676319,45.629728],[-122.676535,45.629722],[-122.676573,45.62969],[-122.676578,45.629639],[-122.676833,45.629639],[-122.676855,45.629714],[-122.676961,45.62973]]]}},{"type":"Feature","properties":{"id":75,"area_m2":2500,"px":25,"rank":45,"persistent":false},"geometry":{"type":"Polygon","coordinates":[[[-122.67248,45.628097],[-122.672479,45.628277],[-122.672284,45.628277],[-122.672228,45.628309],[-122.672221,45.628546],[-122.671708,45.628545],[-122.671711,45.628005],[-122.671839,45.628005],[-122.671848,45.628066],[-122.671901,45.628094],[-122.67248,45.628097]]]}},{"type":"Feature","properties":{"id":24,"area_m2":2300,"px":23,"rank":46,"persistent":false},"geometry":{"type":"Polygon","coordinates":[[[-122.680929,45.631181],[-122.680929,45.631271],[-122.680823,45.631287],[-122.6808,45.631361],[-122.680606,45.631361],[-122.680549,45.631393],[-122.680541,45.63181],[-122.680156,45.631809],[-122.68016,45.631179],[-122.680288,45.631179],[-122.680348,45.631203],[-122.680416,45.63118],[-122.680545,45.63118],[-122.680612,45.631204],[-122.680673,45.63118],[-122.680929,45.631181]]]}},{"type":"Feature","properties":{"id":88,"area_m2":2200,"px":22,"rank":47,"persistent":false},"geometry":{"type":"Polygon","coordinates":[[[-122.671587,45.627284],[-122.671584,45.627734],[-122.671328,45.627733],[-122.671267,45.627709],[-122.671199,45.627733],[-122.671071,45.627733],[-122.671049,45.627658],[-122.670943,45.627642],[-122.670931,45.627576],[-122.670816,45.627552],[-122.670788,45.627474],[-122.670688,45.627461],[-122.670688,45.627372],[-122.670875,45.627372],[-122.670932,45.627348],[-122.670946,45.627192],[-122.671074,45.627193],[-122.671082,45.627344],[-122.671128,45.62737],[-122.671201,45.627373],[-122.67121,45.627434],[-122.671263,45.627462],[-122.671429,45.627451],[-122.671457,45.627415],[-122.671459,45.627284],[-122.671587,45.627284]]]}},{"type":"Feature","properties":{"id":109,"area_m2":2100,"px":21,"rank":48,"persistent":false},"geometry":{"type":"Polygon","coordinates":[[[-122.675829,45.625227],[-122.675797,45.625274],[-122.675831,45.625316],[-122.675831,45.625406],[-122.675796,45.625454],[-122.67583,45.625496],[-122.67583,45.625586],[-122.675573,45.625585],[-122.675513,45.625561],[-122.675445,45.625585],[-122.675317,45.625585],[-122.675295,45.62551],[-122.675189,45.625494],[-122.675191,45.625224],[-122.675296,45.625209],[-122.67532,45.625135],[-122.675435,45.625111],[-122.675448,45.625045],[-122.675576,45.625045],[-122.675582,45.625102],[-122.675631,45.625133],[-122.675832,45.625136],[-122.675829,45.625227]]]}},{"type":"Feature","properties":{"id":49,"area_m2":2000,"px":20,"rank":49,"persistent":true},"geometry":{"type":"Polygon","coordinates":[[[-122.670418,45.629621],[-122.670417,45.629801],[-122.670344,45.629803],[-122.670298,45.629829],[-122.670288,45.629981],[-122.670064,45.629976],[-122.670032,45.630015],[-122.67003,45.63016],[-122.669925,45.630175],[-122.669902,45.630249],[-122.669773,45.630249],[-122.669774,45.630159],[-122.669868,45.63015],[-122.669902,45.630106],[-122.66989,45.630003],[-122.669775,45.629979],[-122.669777,45.629619],[-122.670418,45.629621]]]}},{"type":"Feature","properties":{"id":59,"area_m2":2000,"px":20,"rank":50,"persistent":false},"geometry":{"type":"Polygon","coordinates":[[[-122.672219,45.628816],[-122.672217,45.629176],[-122.672143,45.629178],[-122.672098,45.629204],[-122.672088,45.629356],[-122.671982,45.629371],[-122.671959,45.629445],[-122.671702,45.629445],[-122.671706,45.628815],[-122.671834,45.628815],[-122.671837,45.628957],[-122.67191,45.628995],[-122.672062,45.628983],[-122.67209,45.628947],[-122.672091,45.628816],[-122.672219,45.628816]]]}},{"type":"Feature","properties":{"id":17,"area_m2":1900,"px":19,"rank":51,"persistent":true},"geometry":{"type":"Polygon","coordinates":[[[-122.672073,45.631876],[-122.67207,45.632326],[-122.671965,45.632342],[-122.671942,45.632416],[-122.671826,45.632439],[-122.671813,45.632505],[-122.671685,45.632505],[-122.671685,45.632098],[-122.671646,45.632061],[-122.671559,45.632054],[-122.671559,45.631965],[-122.671665,45.631949],[-122.671688,45.631875],[-122.672073,45.631876]]]}},{"type":"Feature","properties":{"id":73,"area_m2":1900,"px":19,"rank":52,"persistent":false},"geometry":{"type":"Polygon","coordinates":[[[-122.685438,45.627863],[-122.685438,45.627953],[-122.685344,45.627962],[-122.685309,45.628007],[-122.685314,45.628189],[-122.685356,45.628219],[-122.685436,45.628223],[-122.685435,45.628493],[-122.684984,45.628493],[-122.684931,45.62852],[-122.684921,45.628582],[-122.684793,45.628581],[-122.684794,45.628491],[-122.684874,45.628488],[-122.684919,45.628453],[-122.684923,45.628312],[-122.685023,45.6283],[-122.685052,45.628222],[-122.685139,45.628216],[-122.685179,45.628179],[-122.68518,45.627906],[-122.685141,45.627869],[-122.685054,45.627862],[-122.685054,45.627772],[-122.685311,45.627773],[-122.685333,45.627847],[-122.685438,45.627863]]]}},{"type":"Feature","properties":{"id":92,"area_m2":1900,"px":19,"rank":53,"persistent":true},"geometry":{"type":"Polygon","coordinates":[[[-122.682494,45.626685],[-122.682492,45.627045],[-122.682155,45.627048],[-122.682109,45.627087],[-122.682106,45.627224],[-122.68185,45.627223],[-122.681852,45.626863],[-122.681958,45.626848],[-122.681981,45.626774],[-122.682204,45.626778],[-122.682238,45.626684],[-122.682494,45.626685]]]}},{"type":"Feature","properties":{"id":104,"area_m2":1900,"px":19,"rank":54,"persistent":false},"geometry":{"type":"Polygon","coordinates":[[[-122.670436,45.626202],[-122.670404,45.626248],[-122.670438,45.626291],[-122.670437,45.626381],[-122.669796,45.626379],[-122.669797,45.626289],[-122.669884,45.626283],[-122.669924,45.626246],[-122.669927,45.626019],[-122.669961,45.625977],[-122.669927,45.625929],[-122.669928,45.625839],[-122.670312,45.62584],[-122.670312,45.626067],[-122.670351,45.626104],[-122.670439,45.626111],[-122.670436,45.626202]]]}},{"type":"Feature","properties":{"id":108,"area_m2":1800,"px":18,"rank":55,"persistent":false},"geometry":{"type":"Polygon","coordinates":[[[-122.6716,45.624944],[-122.671597,45.625574],[-122.671453,45.625566],[-122.671453,45.62531],[-122.671396,45.62529],[-122.671268,45.625305],[-122.671215,45.625346],[-122.671214,45.625529],[-122.671253,45.625567],[-122.671356,45.625581],[-122.67134,45.625663],[-122.671211,45.625663],[-122.671189,45.625589],[-122.671084,45.625572],[-122.671087,45.625032],[-122.671193,45.625017],[-122.671216,45.624943],[-122.6716,45.624944]]]}},{"type":"Feature","properties":{"id":114,"area_m2":1800,"px":18,"rank":56,"persistent":false},"geometry":{"type":"Polygon","coordinates":[[[-122.670959,45.624942],[-122.670957,45.625212],[-122.670852,45.625228],[-122.670829,45.625302],[-122.670316,45.6253],[-122.670316,45.62521],[-122.670422,45.625195],[-122.670477,45.625089],[-122.670445,45.625031],[-122.670446,45.624851],[-122.670831,45.624852],[-122.670853,45.624926],[-122.670959,45.624942]]]}},{"type":"Feature","properties":{"id":97,"area_m2":1700,"px":17,"rank":57,"persistent":false},"geometry":{"type":"Polygon","coordinates":[[[-122.683648,45.626778],[-122.683647,45.626958],[-122.68331,45.626961],[-122.683264,45.627001],[-122.683262,45.627137],[-122.683005,45.627136],[-122.683007,45.626866],[-122.683122,45.626843],[-122.683136,45.626687],[-122.683242,45.626671],[-122.683265,45.626597],[-122.683393,45.626597],[-122.683415,45.626672],[-122.683521,45.626688],[-122.683554,45.626769],[-122.683648,45.626778]]]}},{"type":"Feature","properties":{"id":45,"area_m2":1600,"px":16,"rank":58,"persistent":false},"geometry":{"type":"Polygon","coordinates":[[[-122.677856,45.630182],[-122.677856,45.630272],[-122.677768,45.630278],[-122.677729,45.630315],[-122.677725,45.630632],[-122.677469,45.630631],[-122.67746,45.63048],[-122.677415,45.630453],[-122.677342,45.630451],[-122.677343,45.630181],[-122.677449,45.630165],[-122.677474,45.630091],[-122.677728,45.630092],[-122.677751,45.630166],[-122.677856,45.630182]]]}},{"type":"Feature","properties":{"id":70,"area_m2":1500,"px":15,"rank":59,"persistent":true},"geometry":{"type":"Polygon","coordinates":[[[-122.671581,45.628184],[-122.671579,45.628634],[-122.671473,45.62865],[-122.67145,45.628724],[-122.671065,45.628723],[-122.671066,45.628633],[-122.6711,45.62859],[-122.671066,45.628541],[-122.671069,45.628093],[-122.671454,45.628094],[-122.671476,45.628168],[-122.671581,45.628184]],[[-122.671202,45.628216],[-122.671177,45.628593],[-122.671228,45.628631],[-122.671389,45.628633],[-122.671445,45.6286],[-122.671453,45.628233],[-122.671406,45.628188],[-122.671259,45.628184],[-122.671202,45.628216]]]}},{"type":"Feature","properties":{"id":22,"area_m2":1400,"px":14,"rank":60,"persistent":false},"geometry":{"type":"Polygon","coordinates":[[[-122.684519,45.631641],[-122.684519,45.631731],[-122.684413,45.631747],[-122.68439,45.631821],[-122.683877,45.631819],[-122.683855,45.631745],[-122.683749,45.631729],[-122.68375,45.631549],[-122.684263,45.63155],[-122.684266,45.631602],[-122.684303,45.631634],[-122.684519,45.631641]]]}},{"type":"Feature","properties":{"id":19,"area_m2":1400,"px":14,"rank":61,"persistent":true},"geometry":{"type":"Polygon","coordinates":[[[-122.689524,45.631475],[-122.689523,45.631565],[-122.689417,45.63158],[-122.689394,45.631654],[-122.689294,45.631666],[-122.689266,45.631744],[-122.689165,45.631756],[-122.689137,45.631834],[-122.689037,45.631846],[-122.689008,45.631923],[-122.688908,45.631935],[-122.688879,45.632013],[-122.688785,45.632022],[-122.68875,45.632103],[-122.68864,45.632122],[-122.688622,45.632192],[-122.688365,45.632192],[-122.688366,45.632102],[-122.688471,45.632086],[-122.688494,45.632012],[-122.688595,45.632],[-122.688623,45.631922],[-122.688717,45.631913],[-122.688752,45.631833],[-122.688863,45.631813],[-122.688881,45.631743],[-122.68909,45.631739],[-122.689132,45.63171],[-122.689138,45.631654],[-122.689249,45.631634],[-122.689267,45.631474],[-122.689524,45.631475]]]}},{"type":"Feature","properties":{"id":40,"area_m2":1400,"px":14,"rank":62,"persistent":false},"geometry":{"type":"Polygon","coordinates":[[[-122.670414,45.630341],[-122.670413,45.630611],[-122.670339,45.630613],[-122.670293,45.630639],[-122.670283,45.630791],[-122.669899,45.63079],[-122.669901,45.63034],[-122.670414,45.630341]],[[-122.670159,45.630522],[-122.670103,45.630506],[-122.670045,45.630526],[-122.670028,45.630575],[-122.670055,45.630611],[-122.670117,45.630623],[-122.670175,45.630598],[-122.67019,45.630557],[-122.670159,45.630522]]]}},{"type":"Feature","properties":{"id":37,"area_m2":1300,"px":13,"rank":63,"persistent":false},"geometry":{"type":"Polygon","coordinates":[[[-122.680291,45.630639],[-122.680291,45.630729],[-122.680203,45.630735],[-122.680164,45.630772],[-122.680161,45.630999],[-122.679904,45.630998],[-122.679903,45.630586],[-122.679845,45.630549],[-122.67965,45.630547],[-122.679651,45.630457],[-122.679907,45.630458],[-122.679941,45.630539],[-122.680163,45.630549],[-122.680185,45.630623],[-122.680291,45.630639]]]}},{"type":"Feature","properties":{"id":50,"area_m2":1300,"px":13,"rank":64,"persistent":false},"geometry":{"type":"Polygon","coordinates":[[[-122.685427,45.629933],[-122.685425,45.630203],[-122.684784,45.630202],[-122.684784,45.630112],[-122.685007,45.630103],[-122.685061,45.629988],[-122.685008,45.629935],[-122.684785,45.629931],[-122.684786,45.629842],[-122.685299,45.629843],[-122.685321,45.629917],[-122.685427,45.629933]]]}},{"type":"Feature","properties":{"id":72,"area_m2":1300,"px":13,"rank":65,"persistent":false},"geometry":{"type":"Polygon","coordinates":[[[-122.674403,45.628372],[-122.674401,45.628642],[-122.674016,45.628641],[-122.674019,45.628191],[-122.674275,45.628192],[-122.674284,45.628343],[-122.674329,45.62837],[-122.674403,45.628372]]]}},{"type":"Feature","properties":{"id":90,"area_m2":1300,"px":13,"rank":66,"persistent":false},"geometry":{"type":"Polygon","coordinates":[[[-122.682362,45.627405],[-122.682362,45.627495],[-122.682281,45.627498],[-122.682236,45.627533],[-122.682232,45.627674],[-122.681847,45.627673],[-122.681787,45.627649],[-122.681719,45.627673],[-122.681591,45.627672],[-122.681592,45.627402],[-122.682362,45.627405]]]}},{"type":"Feature","properties":{"id":51,"area_m2":1200,"px":12,"rank":67,"persistent":false},"geometry":{"type":"Polygon","coordinates":[[[-122.673622,45.629812],[-122.67359,45.629858],[-122.673624,45.6299],[-122.673623,45.63008],[-122.673495,45.63008],[-122.673489,45.630023],[-122.673441,45.629992],[-122.673239,45.629989],[-122.673217,45.629915],[-122.673111,45.629899],[-122.673112,45.629809],[-122.673192,45.629805],[-122.673237,45.629771],[-122.673241,45.629629],[-122.673497,45.62963],[-122.67352,45.629704],[-122.673625,45.62972],[-122.673622,45.629812]]]}},{"type":"Feature","properties":{"id":56,"area_m2":1200,"px":12,"rank":68,"persistent":false},"geometry":{"type":"Polygon","coordinates":[[[-122.679016,45.629195],[-122.679015,45.629375],[-122.678799,45.629381],[-122.678762,45.629413],[-122.678758,45.629465],[-122.678374,45.629464],[-122.678375,45.629284],[-122.67848,45.629268],[-122.678503,45.629194],[-122.679016,45.629195]]]}},{"type":"Feature","properties":{"id":80,"area_m2":1200,"px":12,"rank":69,"persistent":false},"geometry":{"type":"Polygon","coordinates":[[[-122.68313,45.627767],[-122.683129,45.627947],[-122.683028,45.627951],[-122.682983,45.627986],[-122.682999,45.628126],[-122.682743,45.628126],[-122.682744,45.627719],[-122.682705,45.627682],[-122.682617,45.627675],[-122.682618,45.627585],[-122.682874,45.627586],[-122.682896,45.62775],[-122.68313,45.627767]]]}},{"type":"Feature","properties":{"id":116,"area_m2":1200,"px":12,"rank":70,"persistent":false},"geometry":{"type":"Polygon","coordinates":[[[-122.673654,45.62477],[-122.673653,45.62486],[-122.672756,45.624857],[-122.672759,45.624317],[-122.672887,45.624318],[-122.672885,45.624719],[-122.672918,45.624759],[-122.673654,45.62477]]]}},{"type":"Feature","properties":{"id":119,"area_m2":1200,"px":12,"rank":71,"persistent":false},"geometry":{"type":"Polygon","coordinates":[[[-122.676612,45.623428],[-122.676611,45.623518],[-122.676531,45.623522],[-122.676486,45.623556],[-122.676482,45.623698],[-122.676376,45.623713],[-122.676353,45.623787],[-122.676097,45.623787],[-122.676099,45.623517],[-122.676172,45.623514],[-122.676218,45.623488],[-122.676228,45.623337],[-122.676356,45.623337],[-122.676362,45.623394],[-122.67641,45.623425],[-122.676612,45.623428]]]}},{"type":"Feature","properties":{"id":12,"area_m2":1100,"px":11,"rank":72,"persistent":false},"geometry":{"type":"Polygon","coordinates":[[[-122.682077,45.632444],[-122.682076,45.632534],[-122.681948,45.632534],[-122.681888,45.63251],[-122.681818,45.632534],[-122.681179,45.632532],[-122.681179,45.632442],[-122.681285,45.632426],[-122.681308,45.632352],[-122.681949,45.632354],[-122.681971,45.632428],[-122.682077,45.632444]]]}},{"type":"Feature","properties":{"id":29,"area_m2":1100,"px":11,"rank":73,"persistent":false},"geometry":{"type":"Polygon","coordinates":[[[-122.689012,45.631113],[-122.689011,45.631293],[-122.688906,45.631309],[-122.688883,45.631383],[-122.688783,45.631395],[-122.688754,45.631473],[-122.68866,45.631481],[-122.688625,45.631562],[-122.688514,45.631582],[-122.688496,45.631652],[-122.68824,45.631651],[-122.68824,45.631561],[-122.688346,45.631546],[-122.688369,45.631472],[-122.688469,45.63146],[-122.688498,45.631382],[-122.688598,45.63137],[-122.688627,45.631292],[-122.688721,45.631283],[-122.688756,45.631203],[-122.688866,45.631183],[-122.688884,45.631113],[-122.689012,45.631113]]]}},{"type":"Feature","properties":{"id":54,"area_m2":1100,"px":11,"rank":74,"persistent":false},"geometry":{"type":"Polygon","coordinates":[[[-122.681966,45.629294],[-122.681965,45.629474],[-122.68186,45.629489],[-122.681837,45.629563],[-122.68158,45.629563],[-122.681582,45.629293],[-122.681616,45.62925],[-122.681582,45.629203],[-122.681583,45.629113],[-122.681839,45.629113],[-122.681848,45.629265],[-122.681893,45.629291],[-122.681966,45.629294]]]}},{"type":"Feature","properties":{"id":122,"area_m2":1100,"px":11,"rank":75,"persistent":false},"geometry":{"type":"Polygon","coordinates":[[[-122.673535,45.623149],[-122.673534,45.623239],[-122.673429,45.623255],[-122.673406,45.623329],[-122.672893,45.623327],[-122.672895,45.622967],[-122.673151,45.622968],[-122.673164,45.623034],[-122.673279,45.623059],[-122.673313,45.62314],[-122.673535,45.623149]]]}},{"type":"Feature","properties":{"id":20,"area_m2":1000,"px":10,"rank":76,"persistent":false},"geometry":{"type":"Polygon","coordinates":[[[-122.675408,45.631976],[-122.675407,45.632155],[-122.675279,45.632155],[-122.675257,45.632081],[-122.675151,45.632065],[-122.675139,45.631999],[-122.675023,45.631974],[-122.674996,45.631897],[-122.674896,45.631884],[-122.674898,45.631524],[-122.675004,45.631508],[-122.675027,45.631434],[-122.675283,45.631436],[-122.675282,45.631525],[-122.675088,45.631526],[-122.675032,45.631558],[-122.675033,45.631856],[-122.675079,45.631882],[-122.675152,45.631885],[-122.675158,45.631941],[-122.675199,45.631971],[-122.675408,45.631976]]]}},{"type":"Feature","properties":{"id":42,"area_m2":1000,"px":10,"rank":77,"persistent":false},"geometry":{"type":"Polygon","coordinates":[[[-122.680934,45.630461],[-122.680933,45.630641],[-122.680827,45.630656],[-122.680804,45.630731],[-122.680547,45.63073],[-122.680525,45.630656],[-122.68042,45.630639],[-122.680421,45.63046],[-122.680934,45.630461]]]}},{"type":"Feature","properties":{"id":11,"area_m2":900,"px":9,"rank":78,"persistent":false},"geometry":{"type":"Polygon","coordinates":[[[-122.683233,45.632178],[-122.683232,45.632447],[-122.683126,45.632463],[-122.683103,45.632537],[-122.682975,45.632537],[-122.682972,45.632395],[-122.682928,45.632361],[-122.682847,45.632356],[-122.682848,45.632266],[-122.682922,45.632264],[-122.682967,45.632238],[-122.682977,45.632087],[-122.683105,45.632087],[-122.683128,45.632161],[-122.683233,45.632178]]]}},{"type":"Feature","properties":{"id":14,"area_m2":900,"px":9,"rank":79,"persistent":false},"geometry":{"type":"Polygon","coordinates":[[[-122.680796,45.632081],[-122.680796,45.632171],[-122.680587,45.632174],[-122.680545,45.632203],[-122.680538,45.63226],[-122.680423,45.632284],[-122.680375,45.632392],[-122.680409,45.63244],[-122.680409,45.63253],[-122.68028,45.632529],[-122.680258,45.632455],[-122.680153,45.632439],[-122.680154,45.632259],[-122.680259,45.632243],[-122.680283,45.632169],[-122.680398,45.632146],[-122.680411,45.63208],[-122.680796,45.632081]]]}},{"type":"Feature","properties":{"id":34,"area_m2":900,"px":9,"rank":80,"persistent":false},"geometry":{"type":"Polygon","coordinates":[[[-122.682214,45.630825],[-122.682213,45.631094],[-122.681956,45.631094],[-122.681948,45.631032],[-122.681895,45.631005],[-122.681572,45.631003],[-122.681573,45.630913],[-122.681895,45.630913],[-122.681948,45.630885],[-122.681958,45.630824],[-122.682214,45.630825]]]}},{"type":"Feature","properties":{"id":39,"area_m2":900,"px":9,"rank":81,"persistent":false},"geometry":{"type":"Polygon","coordinates":[[[-122.674903,45.630624],[-122.674902,45.630714],[-122.674797,45.630729],[-122.674773,45.630804],[-122.674658,45.630827],[-122.674645,45.630893],[-122.674388,45.630892],[-122.674389,45.630803],[-122.674583,45.630802],[-122.674644,45.63076],[-122.674645,45.630667],[-122.674618,45.630635],[-122.67439,45.630622],[-122.67439,45.630533],[-122.674496,45.630517],[-122.674519,45.630443],[-122.674647,45.630443],[-122.674669,45.630517],[-122.674775,45.630534],[-122.674809,45.630615],[-122.674903,45.630624]]]}},{"type":"Feature","properties":{"id":1,"area_m2":800,"px":8,"rank":82,"persistent":false},"geometry":{"type":"Polygon","coordinates":[[[-122.685794,45.633175],[-122.685793,45.633265],[-122.685408,45.633264],[-122.685386,45.633189],[-122.685281,45.633173],[-122.685282,45.632993],[-122.685538,45.632994],[-122.68556,45.633068],[-122.685666,45.633084],[-122.6857,45.633165],[-122.685794,45.633175]]]}},{"type":"Feature","properties":{"id":9,"area_m2":800,"px":8,"rank":83,"persistent":true},"geometry":{"type":"Polygon","coordinates":[[[-122.682719,45.632356],[-122.682718,45.632536],[-122.682502,45.632542],[-122.682465,45.632574],[-122.682461,45.632625],[-122.682333,45.632625],[-122.68231,45.632551],[-122.682205,45.632535],[-122.682205,45.632445],[-122.682311,45.632429],[-122.682334,45.632355],[-122.682719,45.632356]]]}},{"type":"Feature","properties":{"id":35,"area_m2":800,"px":8,"rank":84,"persistent":false},"geometry":{"type":"Polygon","coordinates":[[[-122.681314,45.630733],[-122.681282,45.63078],[-122.681316,45.630822],[-122.681315,45.631002],[-122.681059,45.631001],[-122.681061,45.630551],[-122.68119,45.630552],[-122.681212,45.630626],[-122.681317,45.630642],[-122.681314,45.630733]]]}},{"type":"Feature","properties":{"id":87,"area_m2":800,"px":8,"rank":85,"persistent":false},"geometry":{"type":"Polygon","coordinates":[[[-122.676973,45.62757],[-122.676973,45.627659],[-122.676867,45.627675],[-122.676844,45.627749],[-122.676716,45.627749],[-122.676693,45.627675],[-122.676588,45.627658],[-122.676575,45.627592],[-122.67646,45.627568],[-122.676432,45.62749],[-122.676332,45.627478],[-122.676333,45.627388],[-122.676717,45.627389],[-122.676738,45.627566],[-122.676791,45.627583],[-122.676973,45.62757]]]}},{"type":"Feature","properties":{"id":98,"area_m2":800,"px":8,"rank":86,"persistent":false},"geometry":{"type":"Polygon","coordinates":[[[-122.670435,45.626741],[-122.670434,45.627011],[-122.670328,45.627026],[-122.670305,45.6271],[-122.66992,45.627099],[-122.669898,45.627025],[-122.669792,45.627009],[-122.669795,45.626919],[-122.670049,45.62692],[-122.670052,45.626971],[-122.67009,45.627003],[-122.670271,45.627001],[-122.670305,45.626962],[-122.670307,45.62674],[-122.670435,45.626741]]]}},{"type":"Feature","properties":{"id":120,"area_m2":800,"px":8,"rank":87,"persistent":false},"geometry":{"type":"Polygon","coordinates":[[[-122.673661,45.62351],[-122.67366,45.62369],[-122.673532,45.623689],[-122.673531,45.623553],[-122.673471,45.62351],[-122.673082,45.623509],[-122.673029,45.623536],[-122.673019,45.623598],[-122.672891,45.623597],[-122.672892,45.623417],[-122.673533,45.623419],[-122.673556,45.623494],[-122.673661,45.62351]]]}},{"type":"Feature","properties":{"id":23,"area_m2":700,"px":7,"rank":88,"persistent":false},"geometry":{"type":"Polygon","coordinates":[[[-122.683237,45.631457],[-122.683235,45.631817],[-122.683107,45.631817],[-122.683085,45.631743],[-122.682979,45.631727],[-122.682981,45.631457],[-122.683237,45.631457]]]}},{"type":"Feature","properties":{"id":41,"area_m2":700,"px":7,"rank":89,"persistent":false},"geometry":{"type":"Polygon","coordinates":[[[-122.68196,45.630464],[-122.681959,45.630644],[-122.681853,45.630659],[-122.68183,45.630733],[-122.681702,45.630733],[-122.68168,45.630659],[-122.681574,45.630643],[-122.681575,45.630463],[-122.68196,45.630464]]]}},{"type":"Feature","properties":{"id":52,"area_m2":700,"px":7,"rank":90,"persistent":false},"geometry":{"type":"Polygon","coordinates":[[[-122.683503,45.629748],[-122.683502,45.630018],[-122.683117,45.630017],[-122.683118,45.629927],[-122.683152,45.629885],[-122.683118,45.629837],[-122.683119,45.629747],[-122.683503,45.629748]]]}},{"type":"Feature","properties":{"id":76,"area_m2":700,"px":7,"rank":91,"persistent":false},"geometry":{"type":"Polygon","coordinates":[[[-122.673634,45.62819],[-122.673633,45.62837],[-122.673505,45.62837],[-122.673492,45.628304],[-122.673428,45.628279],[-122.673175,45.628281],[-122.673126,45.628312],[-122.67312,45.628369],[-122.672992,45.628368],[-122.672993,45.628188],[-122.673634,45.62819]]]}},{"type":"Feature","properties":{"id":99,"area_m2":700,"px":7,"rank":92,"persistent":false},"geometry":{"type":"Polygon","coordinates":[[[-122.673643,45.62666],[-122.673642,45.62684],[-122.673257,45.626839],[-122.673258,45.626659],[-122.673364,45.626643],[-122.673387,45.626569],[-122.673515,45.62657],[-122.673537,45.626644],[-122.673643,45.62666]]]}},{"type":"Feature","properties":{"id":27,"area_m2":600,"px":6,"rank":93,"persistent":false},"geometry":{"type":"Polygon","coordinates":[[[-122.671177,45.631513],[-122.671177,45.631603],[-122.671071,45.631619],[-122.671048,45.631693],[-122.670932,45.631717],[-122.670919,45.631783],[-122.670662,45.631782],[-122.670663,45.631692],[-122.670757,45.63169],[-122.670806,45.631658],[-122.670792,45.631512],[-122.671177,45.631513]]]}},{"type":"Feature","properties":{"id":31,"area_m2":600,"px":6,"rank":94,"persistent":false},"geometry":{"type":"Polygon","coordinates":[[[-122.675669,45.631166],[-122.675668,45.631346],[-122.675155,45.631345],[-122.675156,45.631255],[-122.675372,45.631249],[-122.675409,45.631217],[-122.675413,45.631165],[-122.675669,45.631166]]]}},{"type":"Feature","properties":{"id":100,"area_m2":600,"px":6,"rank":95,"persistent":true},"geometry":{"type":"Polygon","coordinates":[[[-122.671463,45.626564],[-122.671462,45.626744],[-122.671205,45.626743],[-122.671203,45.626601],[-122.671159,45.626567],[-122.671078,45.626562],[-122.671078,45.626473],[-122.671335,45.626473],[-122.671357,45.626548],[-122.671463,45.626564]]]}},{"type":"Feature","properties":{"id":113,"area_m2":600,"px":6,"rank":96,"persistent":false},"geometry":{"type":"Polygon","coordinates":[[[-122.673267,45.625129],[-122.673266,45.625309],[-122.672881,45.625308],[-122.672882,45.625218],[-122.672916,45.625175],[-122.672882,45.625128],[-122.672883,45.625038],[-122.673139,45.625038],[-122.673161,45.625113],[-122.673267,45.625129]]]}},{"type":"Feature","properties":{"id":13,"area_m2":500,"px":5,"rank":97,"persistent":false},"geometry":{"type":"Polygon","coordinates":[[[-122.681051,45.632351],[-122.681051,45.632441],[-122.680945,45.632457],[-122.680922,45.632531],[-122.680537,45.63253],[-122.680538,45.63244],[-122.680753,45.632434],[-122.680791,45.632402],[-122.680795,45.632351],[-122.681051,45.632351]]]}},{"type":"Feature","properties":{"id":21,"area_m2":500,"px":5,"rank":98,"persistent":false},"geometry":{"type":"Polygon","coordinates":[[[-122.675537,45.631796],[-122.675537,45.631886],[-122.675281,45.631885],[-122.675258,45.631811],[-122.675153,45.631795],[-122.675153,45.631705],[-122.675259,45.631689],[-122.675282,45.631615],[-122.67541,45.631616],[-122.675419,45.631767],[-122.675464,45.631793],[-122.675537,45.631796]]]}},{"type":"Feature","properties":{"id":44,"area_m2":500,"px":5,"rank":99,"persistent":false},"geometry":{"type":"Polygon","coordinates":[[[-122.68427,45.63038],[-122.684269,45.63056],[-122.684163,45.630576],[-122.68414,45.63065],[-122.684012,45.630649],[-122.684013,45.63038],[-122.68427,45.63038]]]}},{"type":"Feature","properties":{"id":62,"area_m2":500,"px":5,"rank":100,"persistent":false},"geometry":{"type":"Polygon","coordinates":[[[-122.685687,45.629304],[-122.685686,45.629394],[-122.685173,45.629392],[-122.685174,45.629213],[-122.685302,45.629213],[-122.685311,45.629274],[-122.685364,45.629302],[-122.685687,45.629304]]]}},{"type":"Feature","properties":{"id":81,"area_m2":500,"px":5,"rank":101,"persistent":false},"geometry":{"type":"Polygon","coordinates":[[[-122.682487,45.628035],[-122.682486,45.628125],[-122.68223,45.628124],[-122.682208,45.62805],[-122.682102,45.628034],[-122.682103,45.627944],[-122.682208,45.627928],[-122.682231,45.627854],[-122.682359,45.627855],[-122.682368,45.628006],[-122.682413,45.628032],[-122.682487,45.628035]]]}},{"type":"Feature","properties":{"id":112,"area_m2":500,"px":5,"rank":102,"persistent":false},"geometry":{"type":"Polygon","coordinates":[[[-122.67378,45.62513],[-122.673779,45.62531],[-122.673651,45.62531],[-122.67359,45.625286],[-122.673522,45.625309],[-122.673394,45.625309],[-122.673395,45.625129],[-122.673501,45.625114],[-122.673524,45.625039],[-122.673652,45.62504],[-122.673674,45.625114],[-122.67378,45.62513]]]}},{"type":"Feature","properties":{"id":123,"area_m2":500,"px":5,"rank":103,"persistent":false},"geometry":{"type":"Polygon","coordinates":[[[-122.687156,45.618867],[-122.687155,45.619137],[-122.687027,45.619137],[-122.687004,45.619062],[-122.686899,45.619046],[-122.6869,45.618866],[-122.687156,45.618867]]]}},{"type":"Feature","properties":{"id":2,"area_m2":400,"px":4,"rank":104,"persistent":false},"geometry":{"type":"Polygon","coordinates":[[[-122.673477,45.63305],[-122.673476,45.63323],[-122.67322,45.633229],[-122.673221,45.633049],[-122.673477,45.63305]]]}},{"type":"Feature","properties":{"id":8,"area_m2":400,"px":4,"rank":105,"persistent":false},"geometry":{"type":"Polygon","coordinates":[[[-122.674763,45.632694],[-122.674761,45.632874],[-122.674633,45.632873],[-122.674621,45.632717],[-122.674565,45.632693],[-122.674378,45.632693],[-122.674378,45.632603],[-122.674635,45.632603],[-122.674657,45.632678],[-122.674763,45.632694]]]}},{"type":"Feature","properties":{"id":10,"area_m2":400,"px":4,"rank":106,"persistent":false},"geometry":{"type":"Polygon","coordinates":[[[-122.684002,45.63236],[-122.684001,45.63245],[-122.683896,45.632465],[-122.683873,45.632539],[-122.683744,45.632539],[-122.68376,45.632394],[-122.683711,45.632361],[-122.683617,45.632359],[-122.683618,45.632269],[-122.683874,45.632269],[-122.683896,45.632344],[-122.684002,45.63236]]]}},{"type":"Feature","properties":{"id":63,"area_m2":400,"px":4,"rank":107,"persistent":false},"geometry":{"type":"Polygon","coordinates":[[[-122.675554,45.628916],[-122.675552,45.629276],[-122.675424,45.629275],[-122.675426,45.628915],[-122.675554,45.628916]]]}},{"type":"Feature","properties":{"id":65,"area_m2":400,"px":4,"rank":108,"persistent":false},"geometry":{"type":"Polygon","coordinates":[[[-122.683509,45.628668],[-122.683508,45.628848],[-122.683252,45.628847],[-122.68323,45.628773],[-122.683124,45.628757],[-122.683125,45.628667],[-122.683253,45.628667],[-122.683313,45.628691],[-122.683381,45.628668],[-122.683509,45.628668]]]}},{"type":"Feature","properties":{"id":67,"area_m2":400,"px":4,"rank":109,"persistent":false},"geometry":{"type":"Polygon","coordinates":[[[-122.68056,45.62848],[-122.680559,45.62857],[-122.680372,45.628569],[-122.680316,45.628593],[-122.680302,45.628749],[-122.680174,45.628749],[-122.680175,45.628569],[-122.68028,45.628553],[-122.680304,45.628479],[-122.68056,45.62848]]]}},{"type":"Feature","properties":{"id":79,"area_m2":400,"px":4,"rank":110,"persistent":false},"geometry":{"type":"Polygon","coordinates":[[[-122.679921,45.628118],[-122.67992,45.628208],[-122.679407,45.628206],[-122.679408,45.628116],[-122.679921,45.628118]]]}},{"type":"Feature","properties":{"id":89,"area_m2":400,"px":4,"rank":111,"persistent":false},"geometry":{"type":"Polygon","coordinates":[[[-122.683516,45.627498],[-122.683515,45.627678],[-122.683259,45.627677],[-122.68326,45.627497],[-122.683516,45.627498]]]}},{"type":"Feature","properties":{"id":91,"area_m2":400,"px":4,"rank":112,"persistent":false},"geometry":{"type":"Polygon","coordinates":[[[-122.678,45.627392],[-122.677999,45.627572],[-122.677615,45.627571],[-122.677615,45.627481],[-122.677817,45.62748],[-122.677866,45.627449],[-122.677872,45.627392],[-122.678,45.627392]]]}},{"type":"Feature","properties":{"id":6,"area_m2":300,"px":3,"rank":113,"persistent":false},"geometry":{"type":"Polygon","coordinates":[[[-122.674505,45.632873],[-122.674504,45.632963],[-122.67412,45.632962],[-122.67412,45.632872],[-122.674505,45.632873]]]}},{"type":"Feature","properties":{"id":7,"area_m2":300,"px":3,"rank":114,"persistent":false},"geometry":{"type":"Polygon","coordinates":[[[-122.675789,45.632697],[-122.675788,45.632877],[-122.67566,45.632876],[-122.675657,45.632735],[-122.675613,45.6327],[-122.675532,45.632696],[-122.675533,45.632606],[-122.675661,45.632606],[-122.675683,45.632681],[-122.675789,45.632697]]]}},{"type":"Feature","properties":{"id":36,"area_m2":300,"px":3,"rank":115,"persistent":false},"geometry":{"type":"Polygon","coordinates":[[[-122.680803,45.630911],[-122.680802,45.631001],[-122.680546,45.631],[-122.680547,45.63082],[-122.680675,45.63082],[-122.680697,45.630894],[-122.680803,45.630911]]]}},{"type":"Feature","properties":{"id":38,"area_m2":300,"px":3,"rank":116,"persistent":false},"geometry":{"type":"Polygon","coordinates":[[[-122.69017,45.630666],[-122.690168,45.630936],[-122.69004,45.630936],[-122.690041,45.630666],[-122.69017,45.630666]]]}},{"type":"Feature","properties":{"id":57,"area_m2":300,"px":3,"rank":117,"persistent":false},"geometry":{"type":"Polygon","coordinates":[[[-122.677732,45.629372],[-122.677732,45.629462],[-122.677476,45.629461],[-122.677477,45.629281],[-122.677605,45.629282],[-122.677627,45.629356],[-122.677732,45.629372]]]}},{"type":"Feature","properties":{"id":64,"area_m2":300,"px":3,"rank":118,"persistent":false},"geometry":{"type":"Polygon","coordinates":[[[-122.677607,45.628921],[-122.677605,45.629191],[-122.677477,45.629191],[-122.677479,45.628921],[-122.677607,45.628921]]]}},{"type":"Feature","properties":{"id":69,"area_m2":300,"px":3,"rank":119,"persistent":false},"geometry":{"type":"Polygon","coordinates":[[[-122.676967,45.62865],[-122.676966,45.62874],[-122.676582,45.628738],[-122.676582,45.628649],[-122.676967,45.62865]]]}},{"type":"Feature","properties":{"id":71,"area_m2":300,"px":3,"rank":120,"persistent":false},"geometry":{"type":"Polygon","coordinates":[[[-122.675301,45.628375],[-122.675299,45.628645],[-122.675171,45.628644],[-122.675173,45.628375],[-122.675301,45.628375]]]}},{"type":"Feature","properties":{"id":101,"area_m2":300,"px":3,"rank":121,"persistent":false},"geometry":{"type":"Polygon","coordinates":[[[-122.675825,45.626396],[-122.675824,45.626576],[-122.675568,45.626575],[-122.675568,45.626485],[-122.675674,45.62647],[-122.675697,45.626396],[-122.675825,45.626396]]]}},{"type":"Feature","properties":{"id":106,"area_m2":300,"px":3,"rank":122,"persistent":false},"geometry":{"type":"Polygon","coordinates":[[[-122.674417,45.625852],[-122.674417,45.625942],[-122.674311,45.625958],[-122.674288,45.626032],[-122.67416,45.626031],[-122.674161,45.625851],[-122.674417,45.625852]]]}},{"type":"Feature","properties":{"id":107,"area_m2":300,"px":3,"rank":123,"persistent":false},"geometry":{"type":"Polygon","coordinates":[[[-122.683912,45.625519],[-122.683911,45.625789],[-122.683782,45.625788],[-122.683784,45.625518],[-122.683912,45.625519]]]}}]}