{"type":"FeatureCollection","features":[{"type":"Feature","properties":{"id":1,"area_m2":144900,"px":1449,"rank":1,"persistent":false},"geometry":{"type":"Polygon","coordinates":[[[-122.738188,45.650499],[-122.738187,45.650678],[-122.738093,45.650681],[-122.738047,45.650708],[-122.738057,45.650858],[-122.737984,45.65086],[-122.737938,45.650887],[-122.737928,45.651038],[-122.737705,45.651033],[-122.737671,45.651127],[-122.737565,45.651143],[-122.737542,45.651217],[-122.737198,45.651223],[-122.737161,45.651255],[-122.737157,45.651306],[-122.737042,45.65133],[-122.737028,45.651396],[-122.736917,45.651415],[-122.736899,45.651486],[-122.736789,45.651505],[-122.736771,45.651575],[-122.736562,45.651579],[-122.73652,45.651608],[-122.736514,45.651665],[-122.736398,45.651688],[-122.736385,45.651754],[-122.736156,45.651766],[-122.736093,45.651886],[-122.736127,45.651934],[-122.736127,45.652024],[-122.73587,45.652023],[-122.735862,45.651948],[-122.735789,45.651919],[-122.735648,45.651942],[-122.735614,45.652023],[-122.735503,45.652042],[-122.735484,45.652202],[-122.735411,45.652205],[-122.735365,45.652231],[-122.735336,45.652326],[-122.735352,45.652362],[-122.735405,45.652382],[-122.73555,45.652382],[-122.735603,45.652354],[-122.735612,45.652293],[-122.735869,45.652293],[-122.735869,45.652383],[-122.735653,45.652389],[-122.735615,45.652421],[-122.735611,45.652473],[-122.735153,45.652474],[-122.735104,45.652505],[-122.735098,45.652562],[-122.734767,45.652563],[-122.734718,45.652594],[-122.734712,45.652651],[-122.734597,45.652674],[-122.734583,45.65274],[-122.734327,45.65274],[-122.734328,45.65256],[-122.734436,45.652553],[-122.734476,45.652504],[-122.734444,45.652404],[-122.734329,45.65238],[-122.734295,45.652299],[-122.733749,45.652289],[-122.733696,45.652317],[-122.733687,45.652378],[-122.733559,45.652378],[-122.73356,45.652108],[-122.733794,45.652093],[-122.733837,45.651984],[-122.733804,45.651938],[-122.733176,45.651927],[-122.733148,45.651849],[-122.732919,45.651836],[-122.732914,45.65178],[-122.732872,45.65175],[-122.732604,45.651746],[-122.732544,45.651774],[-122.732534,45.651835],[-122.73244,45.651838],[-122.732391,45.65187],[-122.732405,45.652105],[-122.732148,45.652105],[-122.73215,45.651745],[-122.732223,45.651742],[-122.732269,45.651716],[-122.732298,45.651621],[-122.732277,45.651581],[-122.73209,45.65154],[-122.732022,45.651564],[-122.731894,45.651564],[-122.731877,45.651404],[-122.731766,45.651384],[-122.731749,45.651313],[-122.731639,45.651293],[-122.731621,45.651223],[-122.731511,45.651203],[-122.731493,45.651133],[-122.731383,45.651113],[-122.73137,45.651047],[-122.731255,45.651022],[-122.731252,45.650971],[-122.731214,45.650939],[-122.731039,45.650938],[-122.731002,45.65097],[-122.730998,45.651022],[-122.730743,45.651021],[-122.730719,45.650947],[-122.730614,45.650931],[-122.730646,45.650783],[-122.730592,45.650677],[-122.730487,45.650661],[-122.730487,45.650571],[-122.730872,45.650572],[-122.730932,45.650596],[-122.731,45.650572],[-122.731513,45.650573],[-122.731547,45.650654],[-122.731693,45.650663],[-122.731757,45.65064],[-122.73177,45.650574],[-122.731876,45.650558],[-122.731899,45.65052],[-122.731902,45.649944],[-122.731989,45.649938],[-122.73203,45.649895],[-122.732021,45.649158],[-122.731964,45.649134],[-122.731521,45.649133],[-122.731512,45.649071],[-122.731459,45.649044],[-122.731008,45.649042],[-122.730985,45.648967],[-122.73088,45.648951],[-122.730881,45.648681],[-122.730987,45.648666],[-122.73101,45.648592],[-122.731367,45.64858],[-122.731395,45.648503],[-122.731489,45.648494],[-122.731524,45.648413],[-122.731598,45.648411],[-122.731643,45.648385],[-122.731653,45.648233],[-122.731759,45.648218],[-122.731782,45.648143],[-122.731897,45.64812],[-122.731911,45.648054],[-122.732139,45.648042],[-122.732168,45.647964],[-122.732296,45.647965],[-122.732305,45.648026],[-122.732358,45.648054],[-122.732809,45.648056],[-122.732818,45.648117],[-122.732871,45.648145],[-122.733065,45.648146],[-122.733126,45.648171],[-122.733194,45.648147],[-122.733322,45.648147],[-122.733339,45.648217],[-122.73345,45.648237],[-122.733484,45.648318],[-122.733578,45.648328],[-122.7336,45.648402],[-122.733834,45.648418],[-122.733847,45.648484],[-122.733962,45.648509],[-122.733965,45.64856],[-122.734002,45.648592],[-122.734475,45.6486],[-122.734503,45.648678],[-122.734731,45.64869],[-122.734737,45.648747],[-122.734778,45.648776],[-122.735115,45.648781],[-122.735128,45.648847],[-122.735243,45.648872],[-122.735246,45.648937],[-122.735289,45.648971],[-122.735756,45.648963],[-122.735759,45.649014],[-122.735797,45.649046],[-122.736013,45.649053],[-122.736012,45.649143],[-122.735904,45.64915],[-122.735865,45.649204],[-122.735906,45.649307],[-122.736011,45.649323],[-122.736045,45.649404],[-122.736139,45.649414],[-122.736138,45.649594],[-122.735776,45.649609],[-122.735752,45.649863],[-122.735718,45.649905],[-122.735764,45.650019],[-122.73588,45.650043],[-122.735913,45.650124],[-122.736136,45.650134],[-122.736145,45.650195],[-122.736197,45.650223],[-122.73652,45.650225],[-122.736526,45.650281],[-122.736575,45.650312],[-122.736905,45.650316],[-122.736911,45.650372],[-122.736959,45.650403],[-122.73729,45.650406],[-122.737317,45.650484],[-122.737479,45.65051],[-122.73754,45.650477],[-122.737546,45.650407],[-122.73762,45.650405],[-122.737666,45.650379],[-122.737676,45.650227],[-122.737749,45.650225],[-122.737795,45.650199],[-122.737805,45.650048],[-122.737911,45.650032],[-122.737934,45.649958],[-122.738062,45.649958],[-122.738061,45.650138],[-122.738026,45.650186],[-122.73806,45.650228],[-122.738061,45.650455],[-122.7381,45.650492],[-122.738188,45.650499]],[[-122.732086,45.648864],[-122.732141,45.648848],[-122.732163,45.648816],[-122.732163,45.648728],[-122.732124,45.648691],[-122.731725,45.64867],[-122.73166,45.648698],[-122.731651,45.648814],[-122.731691,45.648857],[-122.732086,45.648864]],[[-122.732678,45.650281],[-122.732658,45.65015],[-122.732543,45.650125],[-122.732539,45.650074],[-122.732502,45.650042],[-122.732354,45.650011],[-122.732205,45.650039],[-122.732159,45.650078],[-122.732156,45.650304],[-122.732126,45.650368],[-122.732217,45.650419],[-122.732285,45.650395],[-122.732494,45.650391],[-122.732535,45.650362],[-122.732542,45.650305],[-122.732635,45.650303],[-122.732678,45.650281]],[[-122.732673,45.649586],[-122.732668,45.649529],[-122.732626,45.6495],[-122.732322,45.649491],[-122.732289,45.64953],[-122.7323,45.649754],[-122.732362,45.649779],[-122.732907,45.64975],[-122.732929,45.649712],[-122.732907,45.649602],[-122.732673,45.649586]],[[-122.73247,45.649225],[-122.732544,45.649187],[-122.732538,45.649074],[-122.732486,45.649046],[-122.73233,45.649038],[-122.732291,45.64908],[-122.732299,45.649196],[-122.732352,45.649224],[-122.73247,45.649225]],[[-122.735219,45.652083],[-122.73524,45.651962],[-122.735172,45.651932],[-122.734124,45.65193],[-122.734054,45.65198],[-122.734082,45.652081],[-122.73415,45.652109],[-122.735159,45.652111],[-122.735219,45.652083]],[[-122.735089,45.652443],[-122.735116,45.652331],[-122.735072,45.652296],[-122.734776,45.652292],[-122.73472,45.652324],[-122.734695,45.652426],[-122.734755,45.65247],[-122.735036,45.65247],[-122.735089,45.652443]],[[-122.735133,45.649006],[-122.735109,45.648905],[-122.73506,45.648873],[-122.734913,45.648873],[-122.734862,45.648909],[-122.734861,45.649012],[-122.734912,45.649048],[-122.735101,45.649042],[-122.735133,45.649006]],[[-122.735666,45.651753],[-122.735738,45.65172],[-122.735743,45.651622],[-122.735703,45.651579],[-122.735616,45.651573],[-122.735607,45.651421],[-122.735555,45.651394],[-122.735399,45.651385],[-122.73536,45.651427],[-122.735367,45.651724],[-122.735428,45.651752],[-122.735666,45.651753]],[[-122.736697,45.650855],[-122.736773,45.650812],[-122.736758,45.650605],[-122.736698,45.650585],[-122.736419,45.650597],[-122.736391,45.650633],[-122.736407,45.650745],[-122.736518,45.650765],[-122.736521,45.650816],[-122.736558,45.650848],[-122.736697,45.650855]],[[-122.737742,45.650575],[-122.737492,45.650573],[-122.737439,45.650589],[-122.737417,45.650713],[-122.737439,45.650751],[-122.737605,45.650791],[-122.737779,45.650752],[-122.737796,45.650608],[-122.737742,45.650575]]]}},{"type":"Feature","properties":{"id":14,"area_m2":94500,"px":945,"rank":2,"persistent":false},"geometry":{"type":"Polygon","coordinates":[[[-122.731025,45.645441],[-122.731024,45.645531],[-122.730837,45.645531],[-122.730781,45.645555],[-122.730767,45.645711],[-122.73051,45.64571],[-122.730507,45.645658],[-122.73047,45.645626],[-122.730254,45.645619],[-122.730201,45.645596],[-122.73001,45.645643],[-122.730014,45.645869],[-122.730065,45.645889],[-122.730381,45.64589],[-122.73038,45.64598],[-122.730171,45.645983],[-122.73013,45.646013],[-122.730123,45.646069],[-122.73003,45.646071],[-122.729984,45.646099],[-122.730007,45.646225],[-122.730123,45.646249],[-122.730122,45.646429],[-122.730028,45.646432],[-122.729986,45.646454],[-122.729992,45.646609],[-122.729887,45.646625],[-122.729864,45.646699],[-122.729736,45.646698],[-122.729727,45.646637],[-122.729666,45.646609],[-122.729398,45.646612],[-122.729357,45.646641],[-122.729349,45.646698],[-122.729222,45.646697],[-122.729217,45.646627],[-122.72917,45.646596],[-122.729021,45.646609],[-122.728972,45.64664],[-122.728965,45.646697],[-122.728736,45.646695],[-122.728708,45.646786],[-122.728358,45.646794],[-122.728323,45.646875],[-122.728242,45.646879],[-122.7282,45.646908],[-122.728183,45.647066],[-122.728007,45.647055],[-122.72795,45.647078],[-122.72794,45.647209],[-122.728018,45.647248],[-122.728165,45.647222],[-122.728204,45.647134],[-122.728373,45.647145],[-122.728428,45.64713],[-122.728451,45.646965],[-122.728579,45.646966],[-122.728601,45.64704],[-122.728707,45.647056],[-122.728706,45.647326],[-122.728349,45.647337],[-122.728286,45.647458],[-122.72832,45.647505],[-122.728319,45.647595],[-122.728218,45.647599],[-122.728172,45.64764],[-122.728194,45.647737],[-122.728231,45.647769],[-122.728379,45.647799],[-122.728447,45.647776],[-122.728575,45.647776],[-122.728573,45.648136],[-122.7285,45.648138],[-122.728454,45.648164],[-122.728444,45.648315],[-122.728364,45.648319],[-122.728319,45.648354],[-122.728315,45.648495],[-122.727985,45.648497],[-122.727936,45.648528],[-122.72793,45.648584],[-122.727812,45.648595],[-122.727796,45.648437],[-122.727755,45.648408],[-122.727674,45.648404],[-122.727646,45.648326],[-122.727418,45.648313],[-122.727409,45.648252],[-122.727356,45.648224],[-122.727033,45.648222],[-122.727016,45.648152],[-122.726905,45.648132],[-122.726896,45.64807],[-122.726844,45.648043],[-122.726683,45.64805],[-122.726648,45.648131],[-122.726333,45.648131],[-122.726269,45.648164],[-122.726263,45.648352],[-122.726285,45.648385],[-122.726519,45.648401],[-122.726532,45.648467],[-122.726647,45.648491],[-122.726675,45.648569],[-122.726903,45.648582],[-122.726909,45.648639],[-122.72695,45.648668],[-122.72779,45.648663],[-122.727813,45.64892],[-122.727869,45.648944],[-122.728056,45.648945],[-122.728078,45.649019],[-122.728184,45.649035],[-122.728218,45.649116],[-122.728312,45.649125],[-122.72832,45.649277],[-122.728366,45.649303],[-122.728439,45.649306],[-122.728473,45.649387],[-122.728567,45.649396],[-122.728567,45.649486],[-122.72831,45.649485],[-122.728293,45.649415],[-122.728183,45.649395],[-122.728165,45.649325],[-122.728055,45.649305],[-122.728046,45.649243],[-122.727986,45.649215],[-122.72784,45.649215],[-122.727787,45.649244],[-122.727797,45.649484],[-122.727669,45.649484],[-122.72766,45.649422],[-122.727607,45.649395],[-122.727412,45.649393],[-122.727352,45.649369],[-122.727284,45.649393],[-122.727028,45.649392],[-122.727005,45.649318],[-122.7269,45.649302],[-122.7269,45.649081],[-122.72686,45.649038],[-122.726259,45.64903],[-122.726247,45.648964],[-122.726131,45.64894],[-122.726104,45.648862],[-122.725875,45.648849],[-122.725862,45.648783],[-122.725747,45.648759],[-122.725742,45.648702],[-122.7257,45.648673],[-122.725234,45.648668],[-122.725229,45.648611],[-122.725187,45.648582],[-122.724721,45.648577],[-122.724699,45.648502],[-122.724594,45.648486],[-122.724593,45.64826],[-122.724554,45.648223],[-122.724467,45.648216],[-122.724467,45.648036],[-122.724573,45.64802],[-122.724596,45.647946],[-122.724919,45.647946],[-122.724972,45.647919],[-122.724982,45.647857],[-122.725198,45.647851],[-122.725235,45.647819],[-122.725239,45.647768],[-122.725354,45.647744],[-122.725368,45.647678],[-122.725602,45.647663],[-122.725625,45.647589],[-122.725725,45.647577],[-122.725753,45.647499],[-122.725854,45.647487],[-122.725882,45.647409],[-122.725976,45.6474],[-122.726011,45.64732],[-122.726122,45.6473],[-122.72614,45.64714],[-122.72624,45.647128],[-122.726269,45.64705],[-122.726363,45.647041],[-122.726398,45.646961],[-122.726509,45.646941],[-122.726527,45.646781],[-122.726621,45.646772],[-122.726656,45.646691],[-122.726767,45.646672],[-122.726785,45.646511],[-122.726885,45.646499],[-122.726914,45.646422],[-122.727008,45.646413],[-122.727042,45.646332],[-122.727153,45.646313],[-122.727172,45.646152],[-122.727266,45.646143],[-122.7273,45.646099],[-122.727288,45.645997],[-122.727172,45.645972],[-122.727151,45.645808],[-122.726917,45.645792],[-122.726894,45.645717],[-122.726789,45.645701],[-122.726792,45.645071],[-122.726873,45.645067],[-122.726917,45.645033],[-122.726899,45.644817],[-122.726793,45.644801],[-122.726784,45.64474],[-122.726732,45.644712],[-122.726024,45.644709],[-122.726011,45.644643],[-122.725947,45.644619],[-122.725188,45.644618],[-122.725135,45.644646],[-122.725125,45.644707],[-122.724923,45.644709],[-122.724874,45.64474],[-122.724868,45.644797],[-122.72474,45.644796],[-122.724718,45.644722],[-122.724612,45.644706],[-122.724613,45.644526],[-122.724719,45.64451],[-122.724742,45.644436],[-122.724857,45.644413],[-122.72487,45.644347],[-122.72564,45.644348],[-122.725649,45.64441],[-122.725702,45.644438],[-122.726538,45.644441],[-122.726547,45.644502],[-122.7266,45.64453],[-122.727308,45.644533],[-122.727313,45.644589],[-122.727362,45.64462],[-122.72782,45.644624],[-122.727826,45.64468],[-122.727875,45.644711],[-122.728333,45.644715],[-122.728339,45.644772],[-122.728388,45.644803],[-122.728718,45.644806],[-122.728727,45.644867],[-122.728779,45.644895],[-122.729102,45.644897],[-122.729106,45.644948],[-122.729143,45.64498],[-122.729359,45.644989],[-122.729358,45.645167],[-122.72927,45.645174],[-122.729231,45.645211],[-122.729228,45.645437],[-122.729141,45.645443],[-122.729101,45.64548],[-122.72908,45.645662],[-122.729141,45.645706],[-122.729355,45.645707],[-122.729423,45.645732],[-122.729484,45.645708],[-122.729693,45.645704],[-122.729735,45.645675],[-122.729741,45.645618],[-122.729856,45.645595],[-122.72987,45.645529],[-122.72998,45.645509],[-122.729998,45.645439],[-122.73058,45.645453],[-122.730634,45.645421],[-122.730642,45.64535],[-122.730768,45.645351],[-122.730774,45.645407],[-122.730823,45.645439],[-122.731025,45.645441]],[[-122.727671,45.646267],[-122.727455,45.646242],[-122.727427,45.646333],[-122.727327,45.646345],[-122.727298,45.646423],[-122.727198,45.646435],[-122.72717,45.646512],[-122.727076,45.646521],[-122.727041,45.646602],[-122.72693,45.646621],[-122.726912,45.646782],[-122.726812,45.646794],[-122.726783,45.646871],[-122.726668,45.646895],[-122.726654,45.646961],[-122.726548,45.646977],[-122.726525,45.647141],[-122.726425,45.647153],[-122.726396,45.64723],[-122.726302,45.647239],[-122.726267,45.64732],[-122.726152,45.647344],[-122.726138,45.6475],[-122.726032,45.647516],[-122.726009,45.64759],[-122.725915,45.647599],[-122.725881,45.647679],[-122.72577,45.647699],[-122.725752,45.647769],[-122.72555,45.647771],[-122.725501,45.647802],[-122.725495,45.647858],[-122.725266,45.64787],[-122.725219,45.647977],[-122.725245,45.648025],[-122.725568,45.648036],[-122.725617,45.648005],[-122.725623,45.647949],[-122.725851,45.647937],[-122.72588,45.647859],[-122.726102,45.647851],[-122.726137,45.64777],[-122.726252,45.647746],[-122.726266,45.64768],[-122.726377,45.647661],[-122.726395,45.647591],[-122.726505,45.647571],[-122.726523,45.647501],[-122.726634,45.647481],[-122.726652,45.647411],[-122.726763,45.647392],[-122.726781,45.647322],[-122.726887,45.647306],[-122.72691,45.647232],[-122.727015,45.647216],[-122.727038,45.647142],[-122.727149,45.647123],[-122.727168,45.646962],[-122.727355,45.646963],[-122.727407,45.646943],[-122.727425,45.646783],[-122.727513,45.646777],[-122.727552,45.64674],[-122.727555,45.646423],[-122.727643,45.646417],[-122.727683,45.646375],[-122.727671,45.646267]]]}},{"type":"Feature","properties":{"id":12,"area_m2":11200,"px":112,"rank":3,"persistent":false},"geometry":{"type":"Polygon","coordinates":[[[-122.730623,45.648861],[-122.730622,45.649221],[-122.730528,45.64923],[-122.730493,45.649274],[-122.730496,45.649452],[-122.73054,45.649486],[-122.73062,45.649491],[-122.73062,45.649581],[-122.730109,45.64958],[-122.730098,45.649518],[-122.730045,45.64949],[-122.729465,45.649488],[-122.729462,45.649436],[-122.729425,45.649404],[-122.729209,45.649397],[-122.729175,45.649316],[-122.728953,45.649307],[-122.728947,45.64925],[-122.728899,45.649219],[-122.728697,45.649216],[-122.728691,45.64916],[-122.72865,45.64913],[-122.728441,45.649126],[-122.728418,45.649051],[-122.728313,45.649035],[-122.728291,45.648871],[-122.727928,45.648854],[-122.727929,45.648766],[-122.728035,45.648749],[-122.728058,45.648675],[-122.728186,45.648675],[-122.728199,45.648741],[-122.728314,45.648765],[-122.728319,45.648822],[-122.728368,45.648853],[-122.729212,45.648857],[-122.729215,45.648909],[-122.729252,45.648941],[-122.729468,45.648948],[-122.729471,45.649],[-122.729508,45.649032],[-122.729677,45.649034],[-122.729719,45.649005],[-122.729725,45.648949],[-122.72984,45.648925],[-122.729853,45.648859],[-122.730055,45.648857],[-122.73011,45.648806],[-122.730098,45.648703],[-122.729983,45.648679],[-122.729949,45.648598],[-122.729855,45.648589],[-122.729821,45.648508],[-122.72947,45.648498],[-122.729471,45.648318],[-122.729726,45.648319],[-122.729745,45.648389],[-122.729855,45.648409],[-122.729889,45.64849],[-122.729983,45.648499],[-122.730011,45.648577],[-122.73024,45.64859],[-122.730262,45.648664],[-122.730368,45.64868],[-122.73038,45.648746],[-122.730495,45.64877],[-122.730523,45.648848],[-122.730623,45.648861]]]}},{"type":"Feature","properties":{"id":17,"area_m2":10600,"px":106,"rank":4,"persistent":false},"geometry":{"type":"Polygon","coordinates":[[[-122.735633,45.647882],[-122.735633,45.647972],[-122.734991,45.647971],[-122.734988,45.647919],[-122.734951,45.647887],[-122.734607,45.64788],[-122.734579,45.647802],[-122.73435,45.647789],[-122.734345,45.647733],[-122.734296,45.647702],[-122.733907,45.647699],[-122.73384,45.647736],[-122.733836,45.647878],[-122.733731,45.647894],[-122.733708,45.647968],[-122.733592,45.647992],[-122.733579,45.648058],[-122.733322,45.648057],[-122.733319,45.648005],[-122.733282,45.647973],[-122.733066,45.647966],[-122.73306,45.64791],[-122.733012,45.647879],[-122.73281,45.647876],[-122.732801,45.647724],[-122.732756,45.647698],[-122.732682,45.647695],[-122.732685,45.647065],[-122.73307,45.647066],[-122.733076,45.647123],[-122.733125,45.647154],[-122.733455,45.647157],[-122.733458,45.647209],[-122.733495,45.647241],[-122.733711,45.647248],[-122.733717,45.647305],[-122.733765,45.647336],[-122.733967,45.647338],[-122.73398,45.647404],[-122.734095,45.647429],[-122.734101,45.647485],[-122.734142,45.647515],[-122.73448,45.64752],[-122.734514,45.647601],[-122.734736,45.64761],[-122.73477,45.647691],[-122.734992,45.647701],[-122.73502,45.647779],[-122.735248,45.647792],[-122.735254,45.647848],[-122.735303,45.647879],[-122.735633,45.647882]]]}},{"type":"Feature","properties":{"id":19,"area_m2":3900,"px":39,"rank":5,"persistent":false},"geometry":{"type":"Polygon","coordinates":[[[-122.731014,45.647692],[-122.731013,45.647872],[-122.730115,45.647869],[-122.730109,45.647813],[-122.730061,45.647782],[-122.72973,45.647778],[-122.729708,45.647704],[-122.729602,45.647688],[-122.729569,45.647607],[-122.729475,45.647598],[-122.729475,45.647508],[-122.729581,45.647492],[-122.729604,45.647418],[-122.730117,45.647419],[-122.730123,45.647476],[-122.730164,45.647505],[-122.73063,45.647511],[-122.730643,45.647577],[-122.730758,45.647601],[-122.730792,45.647682],[-122.731014,45.647692]]]}},{"type":"Feature","properties":{"id":13,"area_m2":3500,"px":35,"rank":6,"persistent":false},"geometry":{"type":"Polygon","coordinates":[[[-122.73858,45.648789],[-122.738577,45.649509],[-122.738321,45.649509],[-122.738321,45.649012],[-122.738282,45.648975],[-122.738195,45.648968],[-122.738187,45.648727],[-122.738141,45.648701],[-122.738068,45.648698],[-122.738063,45.648461],[-122.738021,45.648432],[-122.737941,45.648428],[-122.737942,45.648068],[-122.73807,45.648068],[-122.738093,45.648142],[-122.738198,45.648158],[-122.738207,45.64831],[-122.738252,45.648336],[-122.738326,45.648339],[-122.738331,45.648575],[-122.738372,45.648605],[-122.738453,45.648609],[-122.73847,45.648769],[-122.73858,45.648789]]]}},{"type":"Feature","properties":{"id":20,"area_m2":2200,"px":22,"rank":7,"persistent":false},"geometry":{"type":"Polygon","coordinates":[[[-122.736404,45.647165],[-122.736372,45.647212],[-122.736406,45.647254],[-122.736406,45.647344],[-122.736149,45.647343],[-122.736148,45.647207],[-122.736109,45.64717],[-122.735893,45.647163],[-122.735865,45.647085],[-122.735637,45.647072],[-122.735631,45.647016],[-122.735583,45.646984],[-122.735124,45.646981],[-122.735118,45.646924],[-122.73507,45.646893],[-122.73474,45.64689],[-122.73474,45.6468],[-122.735125,45.646801],[-122.735134,45.646863],[-122.735194,45.646891],[-122.735894,45.646893],[-122.735903,45.646954],[-122.735956,45.646982],[-122.736407,45.646984],[-122.736404,45.647165]]]}},{"type":"Feature","properties":{"id":5,"area_m2":2000,"px":20,"rank":8,"persistent":false},"geometry":{"type":"Polygon","coordinates":[[[-122.730486,45.650751],[-122.730485,45.650841],[-122.73038,45.650856],[-122.730357,45.65093],[-122.730229,45.65093],[-122.730206,45.650856],[-122.730101,45.65084],[-122.730067,45.650759],[-122.729973,45.650749],[-122.72994,45.650655],[-122.729717,45.650659],[-122.729713,45.650607],[-122.729676,45.650575],[-122.72946,45.650568],[-122.729461,45.650388],[-122.729567,45.650373],[-122.729592,45.650298],[-122.729718,45.650299],[-122.729724,45.650355],[-122.729772,45.650387],[-122.729974,45.650389],[-122.729997,45.650464],[-122.730102,45.65048],[-122.730119,45.65055],[-122.73023,45.65057],[-122.730264,45.650651],[-122.730358,45.65066],[-122.730386,45.650738],[-122.730486,45.650751]]]}},{"type":"Feature","properties":{"id":6,"area_m2":1700,"px":17,"rank":9,"persistent":false},"geometry":{"type":"Polygon","coordinates":[[[-122.728307,45.650205],[-122.728306,45.650385],[-122.728218,45.650392],[-122.728179,45.650429],[-122.728176,45.650655],[-122.72792,45.650654],[-122.727907,45.650498],[-122.727792,45.650474],[-122.727758,45.650393],[-122.727664,45.650384],[-122.727665,45.650204],[-122.727739,45.650202],[-122.727785,45.650176],[-122.727794,45.650024],[-122.728051,45.650025],[-122.728073,45.650099],[-122.728179,45.650115],[-122.728213,45.650196],[-122.728307,45.650205]],[[-122.72805,45.650384],[-122.728068,45.65034],[-122.728036,45.650304],[-122.727963,45.650296],[-122.727914,45.650319],[-122.727903,45.650361],[-122.727939,45.650398],[-122.727996,45.650408],[-122.72805,45.650384]]]}},{"type":"Feature","properties":{"id":25,"area_m2":1600,"px":16,"rank":10,"persistent":false},"geometry":{"type":"Polygon","coordinates":[[[-122.733587,45.646348],[-122.733587,45.646437],[-122.733075,45.646436],[-122.733068,45.64638],[-122.733019,45.646348],[-122.732689,45.646345],[-122.73268,45.646194],[-122.732635,45.646168],[-122.732561,45.646165],[-122.732527,45.646084],[-122.732433,45.646075],[-122.732434,45.645985],[-122.73269,45.645985],[-122.732703,45.646051],[-122.732818,45.646076],[-122.732821,45.646127],[-122.732859,45.646159],[-122.733075,45.646166],[-122.733102,45.646244],[-122.733331,45.646257],[-122.733336,45.646314],[-122.733378,45.646343],[-122.733587,45.646348]]]}},{"type":"Feature","properties":{"id":7,"area_m2":1500,"px":15,"rank":11,"persistent":false},"geometry":{"type":"Polygon","coordinates":[[[-122.729334,45.650118],[-122.729333,45.650208],[-122.729077,45.650207],[-122.729074,45.650156],[-122.729037,45.650123],[-122.728821,45.650117],[-122.728815,45.65006],[-122.728766,45.650029],[-122.728565,45.650026],[-122.728542,45.649952],[-122.728437,45.649936],[-122.728437,45.649756],[-122.728694,45.649756],[-122.728697,45.649808],[-122.728734,45.64984],[-122.72895,45.649847],[-122.728972,45.649921],[-122.729078,45.649937],[-122.729091,45.650003],[-122.729206,45.650028],[-122.729234,45.650105],[-122.729334,45.650118]]]}},{"type":"Feature","properties":{"id":3,"area_m2":1300,"px":13,"rank":12,"persistent":false},"geometry":{"type":"Polygon","coordinates":[[[-122.731765,45.651654],[-122.731764,45.651834],[-122.731636,45.651833],[-122.731623,45.651767],[-122.731508,45.651743],[-122.731474,45.651662],[-122.731252,45.651652],[-122.73123,45.651578],[-122.731124,45.651562],[-122.731111,45.651496],[-122.730996,45.651472],[-122.730968,45.651394],[-122.730868,45.651382],[-122.730869,45.651292],[-122.731125,45.651292],[-122.731138,45.651358],[-122.731253,45.651383],[-122.731281,45.65146],[-122.731509,45.651473],[-122.731531,45.651547],[-122.731637,45.651563],[-122.731671,45.651644],[-122.731765,45.651654]]]}},{"type":"Feature","properties":{"id":24,"area_m2":1300,"px":13,"rank":13,"persistent":false},"geometry":{"type":"Polygon","coordinates":[[[-122.734484,45.64653],[-122.734484,45.64671],[-122.734227,45.646709],[-122.734221,45.646652],[-122.734173,45.646621],[-122.733843,45.646618],[-122.73382,45.646544],[-122.733715,45.646528],[-122.733715,45.646438],[-122.734166,45.646438],[-122.734219,45.64641],[-122.734229,45.646349],[-122.734357,45.646349],[-122.734365,45.646501],[-122.734411,45.646527],[-122.734484,45.64653]]]}},{"type":"Feature","properties":{"id":4,"area_m2":1100,"px":11,"rank":14,"persistent":false},"geometry":{"type":"Polygon","coordinates":[[[-122.728689,45.650836],[-122.728688,45.651016],[-122.728582,45.651032],[-122.728559,45.651106],[-122.728431,45.651106],[-122.728409,45.651032],[-122.728303,45.651015],[-122.728269,45.650934],[-122.728175,45.650925],[-122.728176,45.650745],[-122.728561,45.650746],[-122.728583,45.65082],[-122.728689,45.650836]]]}},{"type":"Feature","properties":{"id":8,"area_m2":900,"px":9,"rank":15,"persistent":false},"geometry":{"type":"Polygon","coordinates":[[[-122.738448,45.649599],[-122.738446,45.650139],[-122.738189,45.650138],[-122.738191,45.649868],[-122.738271,45.649865],[-122.738316,45.64983],[-122.73832,45.649599],[-122.738448,45.649599]]]}},{"type":"Feature","properties":{"id":16,"area_m2":800,"px":8,"rank":16,"persistent":false},"geometry":{"type":"Polygon","coordinates":[[[-122.737428,45.648247],[-122.737428,45.648336],[-122.737171,45.648336],[-122.737149,45.648262],[-122.737043,45.648246],[-122.73703,45.64818],[-122.736915,45.648155],[-122.736887,45.648078],[-122.736787,45.648065],[-122.736788,45.647975],[-122.737044,45.647976],[-122.737047,45.648027],[-122.737085,45.648059],[-122.7373,45.648066],[-122.737288,45.648217],[-122.737334,45.648244],[-122.737428,45.648247]]]}},{"type":"Feature","properties":{"id":15,"area_m2":700,"px":7,"rank":17,"persistent":false},"geometry":{"type":"Polygon","coordinates":[[[-122.73781,45.648878],[-122.737809,45.649057],[-122.737553,45.649057],[-122.73753,45.648983],[-122.737425,45.648967],[-122.737426,45.648787],[-122.737682,45.648787],[-122.737704,45.648861],[-122.73781,45.648878]]]}},{"type":"Feature","properties":{"id":18,"area_m2":700,"px":7,"rank":18,"persistent":false},"geometry":{"type":"Polygon","coordinates":[[[-122.731527,45.647783],[-122.731526,45.647873],[-122.731142,45.647872],[-122.731143,45.647602],[-122.731399,45.647603],[-122.731408,45.647754],[-122.731453,45.64778],[-122.731527,45.647783]]]}},{"type":"Feature","properties":{"id":21,"area_m2":500,"px":5,"rank":19,"persistent":false},"geometry":{"type":"Polygon","coordinates":[[[-122.729606,45.646878],[-122.729605,45.647058],[-122.729477,45.647058],[-122.729471,45.647001],[-122.729423,45.64697],[-122.729221,45.646967],[-122.729221,45.646877],[-122.729327,45.646862],[-122.72935,45.646788],[-122.729478,45.646788],[-122.729501,45.646862],[-122.729606,45.646878]]]}},{"type":"Feature","properties":{"id":9,"area_m2":400,"px":4,"rank":20,"persistent":false},"geometry":{"type":"Polygon","coordinates":[[[-122.737164,45.649776],[-122.737164,45.649866],[-122.736907,45.649865],[-122.736885,45.649791],[-122.736779,45.649775],[-122.73678,45.649685],[-122.737036,45.649686],[-122.737059,45.64976],[-122.737164,45.649776]]]}},{"type":"Feature","properties":{"id":10,"area_m2":400,"px":4,"rank":21,"persistent":false},"geometry":{"type":"Polygon","coordinates":[[[-122.728181,45.649575],[-122.728181,45.649755],[-122.727924,45.649754],[-122.727925,45.649574],[-122.728181,45.649575]]]}},{"type":"Feature","properties":{"id":22,"area_m2":400,"px":4,"rank":22,"persistent":false},"geometry":{"type":"Polygon","coordinates":[[[-122.731147,45.646612],[-122.731147,45.646792],[-122.73089,45.646791],[-122.730891,45.646611],[-122.731147,45.646612]]]}},{"type":"Feature","properties":{"id":23,"area_m2":400,"px":4,"rank":23,"persistent":false},"geometry":{"type":"Polygon","coordinates":[[[-122.734869,45.646531],[-122.734869,45.64671],[-122.734612,45.64671],[-122.734613,45.64653],[-122.734869,45.646531]]]}},{"type":"Feature","properties":{"id":2,"area_m2":300,"px":3,"rank":24,"persistent":false},"geometry":{"type":"Polygon","coordinates":[[[-122.737026,45.651846],[-122.737026,45.651936],[-122.736824,45.651938],[-122.736775,45.651969],[-122.736769,45.652025],[-122.73664,45.652025],[-122.736641,45.651935],[-122.736747,45.65192],[-122.73677,45.651845],[-122.737026,45.651846]]]}},{"type":"Feature","properties":{"id":11,"area_m2":300,"px":3,"rank":25,"persistent":false},"geometry":{"type":"Polygon","coordinates":[[[-122.727411,45.649573],[-122.727411,45.649663],[-122.727305,45.649679],[-122.727282,45.649753],[-122.727154,45.649753],[-122.727155,45.649573],[-122.727411,45.649573]]]}}]}