{"type":"FeatureCollection","features":[{"type":"Feature","properties":{"id":3,"area_m2":4200,"px":42,"rank":1,"persistent":false},"geometry":{"type":"Polygon","coordinates":[[[-122.73332,45.648507],[-122.73332,45.648597],[-122.733232,45.648603],[-122.733193,45.64864],[-122.73319,45.648867],[-122.733084,45.648882],[-122.733061,45.648956],[-122.732548,45.648955],[-122.732526,45.648881],[-122.73242,45.648865],[-122.732386,45.648784],[-122.732292,45.648775],[-122.732294,45.648415],[-122.7324,45.648399],[-122.732423,45.648325],[-122.732808,45.648326],[-122.732811,45.648378],[-122.732848,45.64841],[-122.733192,45.648417],[-122.733214,45.648491],[-122.73332,45.648507]]]}},{"type":"Feature","properties":{"id":2,"area_m2":1500,"px":15,"rank":2,"persistent":false},"geometry":{"type":"Polygon","coordinates":[[[-122.733958,45.649229],[-122.733958,45.649319],[-122.733635,45.649319],[-122.733582,45.649346],[-122.733572,45.649408],[-122.733316,45.649407],[-122.733294,45.649333],[-122.733188,45.649317],[-122.733154,45.649236],[-122.73306,45.649226],[-122.733061,45.649137],[-122.733166,45.649121],[-122.733189,45.649047],[-122.733317,45.649047],[-122.733323,45.649104],[-122.733365,45.649133],[-122.73383,45.649138],[-122.733853,45.649213],[-122.733958,45.649229]]]}},{"type":"Feature","properties":{"id":1,"area_m2":600,"px":6,"rank":3,"persistent":false},"geometry":{"type":"Polygon","coordinates":[[[-122.728178,45.650205],[-122.728178,45.650295],[-122.728072,45.650311],[-122.728049,45.650385],[-122.727921,45.650384],[-122.727899,45.65031],[-122.727793,45.650294],[-122.727794,45.650114],[-122.728051,45.650115],[-122.728073,45.650189],[-122.728178,45.650205]]]}}]}