{"type":"FeatureCollection","features":[{"type":"Feature","properties":{"id":69,"area_m2":97500,"px":975,"rank":1,"persistent":false},"geometry":{"type":"Polygon","coordinates":[[[-122.687749,45.6276],[-122.687747,45.627869],[-122.687642,45.627885],[-122.687619,45.627959],[-122.687301,45.627945],[-122.687239,45.627978],[-122.687233,45.628048],[-122.686768,45.628051],[-122.686726,45.62808],[-122.68672,45.628137],[-122.686639,45.628141],[-122.686597,45.62817],[-122.68659,45.628316],[-122.686403,45.628316],[-122.686351,45.628335],[-122.686333,45.628496],[-122.686222,45.628515],[-122.68617,45.628628],[-122.686221,45.628746],[-122.686331,45.628766],[-122.686331,45.628856],[-122.686074,45.628855],[-122.686066,45.628793],[-122.686013,45.628766],[-122.68569,45.628764],[-122.685691,45.628674],[-122.685885,45.628673],[-122.685938,45.628646],[-122.685948,45.628459],[-122.685914,45.628414],[-122.68582,45.628404],[-122.685821,45.628224],[-122.685856,45.628177],[-122.685822,45.628134],[-122.68582,45.627903],[-122.685783,45.62787],[-122.68565,45.627841],[-122.685451,45.627887],[-122.685437,45.628043],[-122.685404,45.62808],[-122.685454,45.628203],[-122.685565,45.628224],[-122.685564,45.628313],[-122.685458,45.628329],[-122.685435,45.628403],[-122.68497,45.628406],[-122.684928,45.628435],[-122.684922,45.628492],[-122.684794,45.628491],[-122.684733,45.628467],[-122.684663,45.628491],[-122.683769,45.628489],[-122.683707,45.628464],[-122.683639,45.628488],[-122.683511,45.628488],[-122.683477,45.628407],[-122.683255,45.628397],[-122.683232,45.628323],[-122.683127,45.628307],[-122.683127,45.628217],[-122.683228,45.628213],[-122.683273,45.628177],[-122.683253,45.628075],[-122.683216,45.628043],[-122.683055,45.628039],[-122.683006,45.62807],[-122.682999,45.628126],[-122.682873,45.628126],[-122.682862,45.628065],[-122.68281,45.628037],[-122.68223,45.628034],[-122.682222,45.627883],[-122.682177,45.627856],[-122.682103,45.627854],[-122.682108,45.627604],[-122.682055,45.627584],[-122.68172,45.627583],[-122.681711,45.627431],[-122.681666,45.627405],[-122.681592,45.627402],[-122.681593,45.627312],[-122.681687,45.627304],[-122.681722,45.627223],[-122.681816,45.627221],[-122.681862,45.627193],[-122.681842,45.627058],[-122.681777,45.627029],[-122.681466,45.627042],[-122.681468,45.626772],[-122.681502,45.62673],[-122.681468,45.626681],[-122.681471,45.626101],[-122.681431,45.626058],[-122.681343,45.62605],[-122.681345,45.625872],[-122.681432,45.625865],[-122.681473,45.625823],[-122.681468,45.625635],[-122.681427,45.625606],[-122.681346,45.625601],[-122.681348,45.625243],[-122.681429,45.625238],[-122.681473,45.625204],[-122.681478,45.624936],[-122.681444,45.624891],[-122.68135,45.624881],[-122.681351,45.624702],[-122.681457,45.624686],[-122.68148,45.624612],[-122.681608,45.624612],[-122.68163,45.624686],[-122.681736,45.624703],[-122.681768,45.624797],[-122.681937,45.624791],[-122.681986,45.62476],[-122.681993,45.624703],[-122.682066,45.624701],[-122.682112,45.624675],[-122.682122,45.624524],[-122.68225,45.624524],[-122.682253,45.624576],[-122.68229,45.624608],[-122.682506,45.624615],[-122.682528,45.624689],[-122.682679,45.624728],[-122.682762,45.624705],[-122.68289,45.624706],[-122.682918,45.624784],[-122.683146,45.624797],[-122.683152,45.624853],[-122.683194,45.624883],[-122.683659,45.624888],[-122.683665,45.625323],[-122.683731,45.625352],[-122.684041,45.625339],[-122.684048,45.625684],[-122.684114,45.625713],[-122.684424,45.6257],[-122.684424,45.62579],[-122.68433,45.625792],[-122.684281,45.625824],[-122.684301,45.625936],[-122.684356,45.625969],[-122.684551,45.625971],[-122.684556,45.626117],[-122.684598,45.626147],[-122.684678,45.626151],[-122.684683,45.626298],[-122.684725,45.626327],[-122.684805,45.626331],[-122.684828,45.626405],[-122.68519,45.626422],[-122.685203,45.626488],[-122.685318,45.626513],[-122.685323,45.626583],[-122.685377,45.626615],[-122.685889,45.626604],[-122.68595,45.626576],[-122.685959,45.626514],[-122.686053,45.626512],[-122.686099,45.626485],[-122.686088,45.626335],[-122.686217,45.626335],[-122.686239,45.626409],[-122.686344,45.626426],[-122.686344,45.626557],[-122.686372,45.626593],[-122.6866,45.626606],[-122.686617,45.626677],[-122.686728,45.626697],[-122.68674,45.626763],[-122.686855,45.626787],[-122.686859,45.626839],[-122.686896,45.626871],[-122.687112,45.626878],[-122.687111,45.627058],[-122.687076,45.627105],[-122.687123,45.627214],[-122.687179,45.627238],[-122.687366,45.627238],[-122.687388,45.627313],[-122.687494,45.627329],[-122.687528,45.62741],[-122.687622,45.627419],[-122.687638,45.627579],[-122.687749,45.6276]],[[-122.682364,45.627044],[-122.68233,45.626964],[-122.682178,45.626954],[-122.682117,45.626982],[-122.682107,45.627044],[-122.682002,45.627059],[-122.681944,45.627176],[-122.682,45.627298],[-122.68218,45.627312],[-122.682229,45.627281],[-122.682235,45.627224],[-122.682469,45.627209],[-122.682486,45.627078],[-122.682445,45.627049],[-122.682364,45.627044]],[[-122.683028,45.626017],[-122.68299,45.625802],[-122.682936,45.625786],[-122.682779,45.625801],[-122.682756,45.62584],[-122.682777,45.62604],[-122.682984,45.626052],[-122.683028,45.626017]],[[-122.683395,45.626327],[-122.683475,45.626323],[-122.68352,45.626289],[-122.683522,45.626191],[-122.683476,45.626152],[-122.682932,45.626146],[-122.682868,45.62618],[-122.682881,45.626457],[-122.682928,45.626502],[-122.683353,45.626501],[-122.683392,45.626464],[-122.683395,45.626327]],[[-122.685826,45.627414],[-122.686664,45.627429],[-122.686718,45.627397],[-122.686722,45.627185],[-122.686678,45.627151],[-122.686597,45.627146],[-122.686589,45.626995],[-122.686543,45.626968],[-122.68647,45.626966],[-122.686436,45.626885],[-122.686342,45.626875],[-122.686339,45.62681],[-122.686297,45.626776],[-122.685992,45.626794],[-122.685958,45.626833],[-122.685956,45.627054],[-122.6857,45.627054],[-122.685699,45.626904],[-122.685648,45.626863],[-122.685478,45.626882],[-122.685443,45.626963],[-122.685315,45.626963],[-122.685303,45.626897],[-122.685239,45.626872],[-122.684736,45.626872],[-122.684683,45.626899],[-122.684674,45.626961],[-122.684546,45.626961],[-122.684528,45.62689],[-122.684418,45.62687],[-122.684384,45.626789],[-122.68429,45.62678],[-122.684262,45.626702],[-122.684096,45.62669],[-122.684034,45.626738],[-122.684032,45.62709],[-122.684072,45.627133],[-122.68416,45.62714],[-122.684159,45.627229],[-122.684044,45.627253],[-122.684015,45.627375],[-122.684079,45.627409],[-122.684415,45.62741],[-122.684437,45.627485],[-122.684542,45.627501],[-122.684542,45.627591],[-122.68432,45.627599],[-122.684285,45.62768],[-122.684169,45.627704],[-122.684156,45.62777],[-122.683542,45.627772],[-122.683496,45.627813],[-122.683515,45.627904],[-122.683554,45.627942],[-122.683642,45.627948],[-122.683647,45.628005],[-122.683689,45.628034],[-122.684026,45.628039],[-122.68406,45.62812],[-122.684213,45.62813],[-122.684281,45.628086],[-122.684284,45.62786],[-122.684797,45.627861],[-122.684801,45.628202],[-122.684862,45.628235],[-122.68499,45.628221],[-122.685043,45.628194],[-122.685052,45.628132],[-122.68514,45.628126],[-122.685179,45.628089],[-122.685183,45.627592],[-122.685312,45.627593],[-122.685345,45.627674],[-122.685508,45.627696],[-122.685562,45.627664],[-122.685568,45.627594],[-122.685662,45.627585],[-122.685697,45.627504],[-122.685808,45.627484],[-122.685826,45.627414]],[[-122.687031,45.627597],[-122.687105,45.627559],[-122.687099,45.627446],[-122.687047,45.627419],[-122.686893,45.627423],[-122.686853,45.62746],[-122.68686,45.627568],[-122.686913,45.627596],[-122.687031,45.627597]]]}},{"type":"Feature","properties":{"id":112,"area_m2":35100,"px":351,"rank":2,"persistent":false},"geometry":{"type":"Polygon","coordinates":[[[-122.681868,45.624073],[-122.681867,45.624163],[-122.681416,45.624163],[-122.681363,45.62419],[-122.681354,45.624251],[-122.681225,45.624251],[-122.681203,45.624177],[-122.681098,45.624161],[-122.681064,45.62408],[-122.68097,45.62407],[-122.680971,45.623849],[-122.680937,45.623809],[-122.680715,45.6238],[-122.680706,45.623738],[-122.680653,45.62371],[-122.680459,45.623709],[-122.680398,45.623685],[-122.68033,45.623708],[-122.680202,45.623708],[-122.680186,45.623548],[-122.680134,45.623528],[-122.679947,45.623527],[-122.679934,45.623461],[-122.679819,45.623437],[-122.679785,45.623356],[-122.679435,45.623346],[-122.679401,45.623265],[-122.679179,45.623255],[-122.679151,45.623177],[-122.678923,45.623164],[-122.67891,45.623098],[-122.678846,45.623074],[-122.678689,45.62309],[-122.678666,45.623205],[-122.678706,45.623248],[-122.678794,45.623254],[-122.678821,45.623332],[-122.678921,45.623345],[-122.678921,45.623435],[-122.678886,45.623482],[-122.67892,45.623525],[-122.678929,45.623676],[-122.679101,45.623729],[-122.679176,45.623705],[-122.679304,45.623706],[-122.679304,45.623796],[-122.679269,45.623838],[-122.679303,45.623886],[-122.679303,45.623976],[-122.679197,45.623991],[-122.679174,45.624065],[-122.679059,45.624089],[-122.679045,45.624155],[-122.678789,45.624154],[-122.678789,45.624023],[-122.678761,45.623986],[-122.678601,45.62395],[-122.678533,45.623973],[-122.678405,45.623973],[-122.678383,45.623899],[-122.678277,45.623883],[-122.678278,45.623738],[-122.678251,45.623702],[-122.678022,45.623702],[-122.678013,45.623641],[-122.67796,45.623613],[-122.677776,45.623622],[-122.677757,45.62355],[-122.677704,45.623522],[-122.677511,45.623537],[-122.677489,45.623576],[-122.67751,45.623671],[-122.677575,45.623714],[-122.677754,45.62369],[-122.677764,45.623791],[-122.677664,45.623803],[-122.677636,45.623881],[-122.67752,45.623905],[-122.677496,45.623982],[-122.677413,45.623973],[-122.67736,45.624015],[-122.677373,45.624056],[-122.677424,45.624083],[-122.677517,45.62405],[-122.677635,45.624061],[-122.677634,45.624151],[-122.677528,45.624167],[-122.677505,45.624241],[-122.677377,45.62424],[-122.677364,45.624174],[-122.677249,45.62415],[-122.677244,45.624093],[-122.677202,45.624064],[-122.677061,45.624035],[-122.676993,45.624059],[-122.676865,45.624059],[-122.676862,45.624007],[-122.676825,45.623975],[-122.676609,45.623968],[-122.676609,45.623879],[-122.67671,45.623866],[-122.676738,45.623788],[-122.676832,45.62378],[-122.676867,45.623699],[-122.676948,45.623695],[-122.67699,45.623666],[-122.67703,45.623567],[-122.676996,45.623519],[-122.676998,45.623249],[-122.677072,45.623247],[-122.677117,45.623221],[-122.677127,45.62307],[-122.677233,45.623054],[-122.677256,45.62298],[-122.677356,45.622968],[-122.677385,45.62289],[-122.677479,45.622881],[-122.677514,45.622801],[-122.677625,45.622781],[-122.677642,45.622711],[-122.678027,45.622712],[-122.678031,45.623039],[-122.678073,45.623068],[-122.678244,45.623094],[-122.678316,45.62303],[-122.678282,45.622983],[-122.678283,45.622803],[-122.678389,45.622787],[-122.678412,45.622713],[-122.678783,45.622705],[-122.678817,45.622664],[-122.678798,45.622444],[-122.678904,45.622429],[-122.678927,45.622355],[-122.679043,45.622331],[-122.679056,45.622265],[-122.679311,45.622266],[-122.67934,45.622343],[-122.679568,45.622356],[-122.679572,45.622408],[-122.679609,45.62244],[-122.679825,45.622447],[-122.679828,45.622499],[-122.679865,45.622531],[-122.680081,45.622538],[-122.680084,45.622589],[-122.680121,45.622621],[-122.680337,45.622628],[-122.680337,45.622765],[-122.680376,45.622802],[-122.680592,45.622809],[-122.680598,45.622866],[-122.680646,45.622897],[-122.680848,45.6229],[-122.68087,45.622974],[-122.680976,45.62299],[-122.680988,45.623146],[-122.681103,45.623171],[-122.681102,45.623441],[-122.680991,45.62346],[-122.680939,45.623567],[-122.680985,45.623686],[-122.6811,45.623711],[-122.681106,45.623767],[-122.681147,45.623797],[-122.681356,45.623801],[-122.681362,45.623858],[-122.681403,45.623887],[-122.681612,45.623892],[-122.681634,45.623966],[-122.68174,45.623983],[-122.681774,45.624063],[-122.681868,45.624073]]]}},{"type":"Feature","properties":{"id":1,"area_m2":13000,"px":130,"rank":3,"persistent":true},"geometry":{"type":"Polygon","coordinates":[[[-122.690292,45.631747],[-122.690283,45.633277],[-122.689514,45.633275],[-122.689514,45.633048],[-122.689475,45.633011],[-122.689387,45.633004],[-122.689375,45.632758],[-122.689326,45.632735],[-122.689132,45.632734],[-122.689071,45.632709],[-122.689003,45.632733],[-122.688875,45.632733],[-122.688853,45.632659],[-122.688748,45.632643],[-122.688714,45.632562],[-122.68862,45.632552],[-122.688621,45.632372],[-122.68885,45.632374],[-122.688878,45.632283],[-122.688984,45.632267],[-122.689007,45.632193],[-122.689122,45.63217],[-122.689135,45.632104],[-122.689322,45.632104],[-122.689375,45.632085],[-122.689393,45.631924],[-122.689615,45.631916],[-122.68965,45.631835],[-122.689765,45.631811],[-122.689779,45.631745],[-122.690292,45.631747]],[[-122.689429,45.632728],[-122.689578,45.632748],[-122.689633,45.632724],[-122.689644,45.632599],[-122.689598,45.632559],[-122.689449,45.632542],[-122.689392,45.632579],[-122.68939,45.632691],[-122.689429,45.632728]]]}},{"type":"Feature","properties":{"id":73,"area_m2":9600,"px":96,"rank":4,"persistent":false},"geometry":{"type":"Polygon","coordinates":[[[-122.679278,45.628386],[-122.679277,45.628566],[-122.679061,45.628572],[-122.679023,45.628604],[-122.679019,45.628655],[-122.67825,45.628653],[-122.678222,45.628575],[-122.677994,45.628562],[-122.677985,45.628501],[-122.677925,45.628473],[-122.677772,45.628481],[-122.677737,45.628562],[-122.677609,45.628561],[-122.677606,45.62851],[-122.677569,45.628478],[-122.677353,45.628471],[-122.677345,45.628319],[-122.677299,45.628293],[-122.677226,45.62829],[-122.677228,45.62793],[-122.677328,45.627918],[-122.677357,45.627841],[-122.677451,45.627832],[-122.677485,45.627751],[-122.677596,45.627732],[-122.677615,45.627571],[-122.677743,45.627572],[-122.677765,45.627646],[-122.677871,45.627662],[-122.67787,45.627793],[-122.677904,45.627833],[-122.678383,45.627844],[-122.67838,45.62824],[-122.678408,45.628281],[-122.67915,45.628296],[-122.679172,45.62837],[-122.679278,45.628386]]]}},{"type":"Feature","properties":{"id":83,"area_m2":8800,"px":88,"rank":5,"persistent":false},"geometry":{"type":"Polygon","coordinates":[[[-122.673768,45.6272],[-122.673764,45.62783],[-122.67274,45.627827],[-122.672678,45.627803],[-122.672608,45.627827],[-122.672097,45.627826],[-122.672036,45.627801],[-122.671968,45.627825],[-122.67184,45.627825],[-122.671818,45.627751],[-122.671712,45.627734],[-122.671713,45.627645],[-122.671807,45.627636],[-122.671842,45.627591],[-122.671829,45.627489],[-122.671714,45.627464],[-122.671716,45.627195],[-122.672485,45.627197],[-122.672513,45.627274],[-122.672674,45.627301],[-122.672736,45.627267],[-122.672742,45.627197],[-122.672857,45.627174],[-122.672871,45.627108],[-122.672999,45.627108],[-122.673016,45.627178],[-122.673127,45.627199],[-122.673139,45.627265],[-122.673254,45.627289],[-122.673288,45.62737],[-122.673564,45.627394],[-122.673636,45.627355],[-122.67364,45.6272],[-122.673768,45.6272]],[[-122.672533,45.627737],[-122.672607,45.627699],[-122.672602,45.627586],[-122.672549,45.627558],[-122.672396,45.627563],[-122.672358,45.627595],[-122.672343,45.627707],[-122.672396,45.627735],[-122.672533,45.627737]]]}},{"type":"Feature","properties":{"id":47,"area_m2":8500,"px":85,"rank":6,"persistent":false},"geometry":{"type":"Polygon","coordinates":[[[-122.681451,45.629652],[-122.681449,45.630102],[-122.681343,45.630118],[-122.68132,45.630192],[-122.679396,45.630187],[-122.679399,45.629557],[-122.680297,45.629559],[-122.680314,45.629719],[-122.680366,45.629739],[-122.680553,45.62974],[-122.680562,45.629801],[-122.680622,45.62983],[-122.680909,45.629819],[-122.680937,45.629782],[-122.680938,45.629651],[-122.681044,45.629635],[-122.681067,45.629561],[-122.681323,45.629562],[-122.681346,45.629636],[-122.681451,45.629652]],[[-122.680314,45.629964],[-122.68029,45.629862],[-122.680241,45.629831],[-122.680081,45.62983],[-122.680022,45.629868],[-122.680044,45.629975],[-122.680093,45.630006],[-122.680281,45.63],[-122.680314,45.629964]]]}},{"type":"Feature","properties":{"id":88,"area_m2":8000,"px":80,"rank":7,"persistent":true},"geometry":{"type":"Polygon","coordinates":[[[-122.67993,45.626408],[-122.679927,45.627038],[-122.679723,45.627026],[-122.679676,45.627057],[-122.67967,45.627127],[-122.679541,45.627127],[-122.679533,45.627065],[-122.67948,45.627038],[-122.679157,45.627036],[-122.679097,45.627011],[-122.679029,45.627035],[-122.678901,45.627035],[-122.67884,45.627011],[-122.678772,45.627034],[-122.678644,45.627034],[-122.67861,45.626953],[-122.678457,45.626944],[-122.678391,45.626982],[-122.678387,45.627123],[-122.678259,45.627123],[-122.678263,45.626313],[-122.678369,45.626297],[-122.678392,45.626223],[-122.678648,45.626224],[-122.678671,45.626298],[-122.678776,45.626314],[-122.67881,45.626395],[-122.678904,45.626405],[-122.678903,45.626626],[-122.678937,45.626666],[-122.679287,45.626676],[-122.679315,45.626754],[-122.679454,45.62678],[-122.679511,45.626771],[-122.679542,45.626737],[-122.679542,45.626445],[-122.679498,45.626411],[-122.679417,45.626406],[-122.679383,45.626325],[-122.67929,45.626316],[-122.679262,45.626238],[-122.679162,45.626225],[-122.679163,45.626046],[-122.679291,45.626046],[-122.679313,45.62612],[-122.679419,45.626136],[-122.679452,45.626217],[-122.679546,45.626227],[-122.679546,45.626358],[-122.67958,45.626398],[-122.67993,45.626408]]]}},{"type":"Feature","properties":{"id":71,"area_m2":6300,"px":63,"rank":8,"persistent":false},"geometry":{"type":"Polygon","coordinates":[[[-122.682484,45.628485],[-122.682484,45.628575],[-122.682378,45.628591],[-122.682355,45.628665],[-122.682099,45.628664],[-122.682076,45.62859],[-122.681925,45.628551],[-122.681842,45.628573],[-122.681714,45.628573],[-122.681692,45.628499],[-122.681586,45.628482],[-122.681579,45.628241],[-122.681533,45.628215],[-122.68146,45.628212],[-122.681426,45.628131],[-122.681332,45.628122],[-122.681304,45.628044],[-122.68113,45.628034],[-122.681081,45.628064],[-122.681075,45.628121],[-122.680947,45.628121],[-122.680925,45.628046],[-122.680819,45.62803],[-122.680802,45.62796],[-122.680691,45.62794],[-122.680658,45.627859],[-122.680564,45.62785],[-122.680536,45.627772],[-122.680436,45.627759],[-122.680437,45.627489],[-122.680472,45.627447],[-122.680438,45.627399],[-122.680438,45.627309],[-122.680567,45.62731],[-122.680572,45.627366],[-122.680621,45.627397],[-122.680823,45.6274],[-122.680835,45.627556],[-122.68095,45.627581],[-122.680984,45.627662],[-122.681078,45.627671],[-122.681105,45.627749],[-122.681205,45.627761],[-122.681233,45.627839],[-122.681333,45.627852],[-122.681367,45.627933],[-122.681589,45.627943],[-122.681602,45.628009],[-122.681717,45.628033],[-122.681723,45.62809],[-122.681764,45.628119],[-122.682101,45.628124],[-122.682124,45.628198],[-122.682229,45.628214],[-122.682246,45.628375],[-122.682356,45.628395],[-122.68239,45.628476],[-122.682484,45.628485]]]}},{"type":"Feature","properties":{"id":22,"area_m2":6100,"px":61,"rank":9,"persistent":false},"geometry":{"type":"Polygon","coordinates":[[[-122.689912,45.630846],[-122.689911,45.630936],[-122.689806,45.630951],[-122.689783,45.631025],[-122.689689,45.631034],[-122.689654,45.631115],[-122.689543,45.631134],[-122.689525,45.631205],[-122.689269,45.631204],[-122.689201,45.63118],[-122.68914,45.631204],[-122.688924,45.631209],[-122.688887,45.631241],[-122.688883,45.631293],[-122.688768,45.631317],[-122.688754,45.631383],[-122.688643,45.631402],[-122.688626,45.631472],[-122.688515,45.631492],[-122.688497,45.631562],[-122.688386,45.631581],[-122.688368,45.631651],[-122.68824,45.631651],[-122.688241,45.631471],[-122.688314,45.631469],[-122.68836,45.631443],[-122.68837,45.631292],[-122.688586,45.631286],[-122.688624,45.631254],[-122.688627,45.631202],[-122.688743,45.631179],[-122.688756,45.631113],[-122.688867,45.631093],[-122.688885,45.631023],[-122.689079,45.631022],[-122.689138,45.630985],[-122.689139,45.630882],[-122.689088,45.630846],[-122.688819,45.630844],[-122.688766,45.630871],[-122.688757,45.630932],[-122.688502,45.630932],[-122.688478,45.630858],[-122.688373,45.630841],[-122.688373,45.630752],[-122.688479,45.630736],[-122.688502,45.630662],[-122.688596,45.630653],[-122.688631,45.630572],[-122.688742,45.630553],[-122.688759,45.630483],[-122.689082,45.630482],[-122.689135,45.630455],[-122.689145,45.630394],[-122.689401,45.630394],[-122.689417,45.630735],[-122.689469,45.630754],[-122.689784,45.630755],[-122.689806,45.63083],[-122.689912,45.630846]]]}},{"type":"Feature","properties":{"id":54,"area_m2":5700,"px":57,"rank":10,"persistent":false},"geometry":{"type":"Polygon","coordinates":[[[-122.683378,45.629208],[-122.683377,45.629478],[-122.682864,45.629476],[-122.682841,45.629402],[-122.682736,45.629386],[-122.682702,45.629305],[-122.682608,45.629295],[-122.682605,45.629154],[-122.68254,45.629116],[-122.682142,45.629105],[-122.682097,45.629144],[-122.682095,45.629294],[-122.681989,45.62931],[-122.681966,45.629384],[-122.681581,45.629383],[-122.681583,45.629023],[-122.681689,45.629007],[-122.681712,45.628933],[-122.681827,45.628909],[-122.681843,45.628843],[-122.682226,45.628844],[-122.682242,45.629005],[-122.682294,45.629024],[-122.682427,45.629023],[-122.682478,45.628987],[-122.682481,45.628889],[-122.682442,45.628851],[-122.682338,45.628837],[-122.682355,45.628755],[-122.682868,45.628756],[-122.68289,45.62883],[-122.682995,45.628847],[-122.683008,45.628913],[-122.683123,45.628937],[-122.683151,45.629015],[-122.683251,45.629027],[-122.683268,45.629188],[-122.683378,45.629208]],[[-122.683172,45.629387],[-122.683246,45.629349],[-122.683241,45.629236],[-122.683188,45.629208],[-122.683033,45.6292],[-122.682994,45.629241],[-122.683002,45.629358],[-122.683054,45.629386],[-122.683172,45.629387]]]}},{"type":"Feature","properties":{"id":41,"area_m2":5600,"px":56,"rank":11,"persistent":false},"geometry":{"type":"Polygon","coordinates":[[[-122.679136,45.630187],[-122.679104,45.630233],[-122.679138,45.630276],[-122.679137,45.630546],[-122.679031,45.630561],[-122.679008,45.630635],[-122.678752,45.630635],[-122.678724,45.630557],[-122.67857,45.63053],[-122.678504,45.630559],[-122.678495,45.630634],[-122.67811,45.630633],[-122.678111,45.630453],[-122.678146,45.630411],[-122.678112,45.630363],[-122.678112,45.630273],[-122.678147,45.630231],[-122.678113,45.630183],[-122.678114,45.630003],[-122.67822,45.629987],[-122.678243,45.629913],[-122.679141,45.629916],[-122.679136,45.630187]]]}},{"type":"Feature","properties":{"id":116,"area_m2":5000,"px":50,"rank":12,"persistent":false},"geometry":{"type":"Polygon","coordinates":[[[-122.675974,45.622886],[-122.675972,45.623156],[-122.675899,45.623158],[-122.675853,45.623184],[-122.675843,45.623336],[-122.675737,45.623351],[-122.675714,45.623425],[-122.675458,45.623425],[-122.67543,45.623347],[-122.675202,45.623334],[-122.675179,45.62326],[-122.675074,45.623244],[-122.67504,45.623163],[-122.674946,45.623153],[-122.674947,45.623008],[-122.674914,45.622969],[-122.674562,45.622972],[-122.67454,45.622898],[-122.674435,45.622882],[-122.674435,45.622792],[-122.67447,45.622749],[-122.674436,45.622702],[-122.674445,45.622457],[-122.674395,45.622433],[-122.674243,45.622432],[-122.674189,45.62246],[-122.67418,45.622521],[-122.674052,45.622521],[-122.67403,45.622446],[-122.673924,45.62243],[-122.673925,45.62225],[-122.674182,45.622251],[-122.67419,45.622312],[-122.674251,45.622341],[-122.674822,45.622343],[-122.67485,45.622421],[-122.675078,45.622434],[-122.675084,45.62249],[-122.675125,45.62252],[-122.675463,45.622525],[-122.675485,45.622599],[-122.67559,45.622615],[-122.675612,45.622779],[-122.675846,45.622796],[-122.675868,45.62287],[-122.675974,45.622886]],[[-122.67482,45.622703],[-122.674901,45.622699],[-122.674943,45.62267],[-122.674927,45.622539],[-122.674873,45.622523],[-122.674587,45.622538],[-122.674564,45.622702],[-122.674529,45.622744],[-122.674585,45.622866],[-122.67464,45.622882],[-122.674797,45.622867],[-122.67482,45.622703]],[[-122.675717,45.622975],[-122.6757,45.622905],[-122.675589,45.622885],[-122.675555,45.622804],[-122.675461,45.622795],[-122.675434,45.622717],[-122.67526,45.622706],[-122.675211,45.622737],[-122.675205,45.622794],[-122.675124,45.622798],[-122.675079,45.622832],[-122.675078,45.623115],[-122.675122,45.62315],[-122.675203,45.623154],[-122.675206,45.623206],[-122.675243,45.623238],[-122.675459,45.623245],[-122.675492,45.623326],[-122.67566,45.623333],[-122.675713,45.623292],[-122.675716,45.623156],[-122.675803,45.623149],[-122.675844,45.623107],[-122.675832,45.623],[-122.675717,45.622975]]]}},{"type":"Feature","properties":{"id":26,"area_m2":4600,"px":46,"rank":13,"persistent":false},"geometry":{"type":"Polygon","coordinates":[[[-122.67477,45.631434],[-122.674769,45.631524],[-122.674664,45.631539],[-122.67464,45.631613],[-122.673873,45.631611],[-122.67381,45.631587],[-122.673742,45.631611],[-122.673358,45.63161],[-122.67336,45.63125],[-122.673675,45.63125],[-122.673732,45.631227],[-122.673742,45.631109],[-122.673698,45.631075],[-122.673617,45.63107],[-122.673618,45.63098],[-122.673746,45.630981],[-122.673807,45.631005],[-122.673875,45.630981],[-122.674062,45.630981],[-122.674122,45.630953],[-122.674132,45.630892],[-122.674516,45.630893],[-122.674515,45.631073],[-122.674481,45.631115],[-122.674515,45.631163],[-122.674499,45.631308],[-122.674548,45.631341],[-122.674642,45.631343],[-122.674676,45.631424],[-122.67477,45.631434]]]}},{"type":"Feature","properties":{"id":94,"area_m2":4500,"px":45,"rank":14,"persistent":true},"geometry":{"type":"Polygon","coordinates":[[[-122.677625,45.625681],[-122.677624,45.625951],[-122.677422,45.625953],[-122.677367,45.626004],[-122.677384,45.626111],[-122.677494,45.626131],[-122.677528,45.626212],[-122.677622,45.626221],[-122.677622,45.626311],[-122.677516,45.626327],[-122.677493,45.626401],[-122.676852,45.626399],[-122.676849,45.625892],[-122.676793,45.62586],[-122.67666,45.625859],[-122.676607,45.625887],[-122.676597,45.625948],[-122.676469,45.625948],[-122.67647,45.625768],[-122.676922,45.625768],[-122.676975,45.625741],[-122.676984,45.625679],[-122.677625,45.625681]]]}},{"type":"Feature","properties":{"id":55,"area_m2":4400,"px":44,"rank":15,"persistent":false},"geometry":{"type":"Polygon","coordinates":[[[-122.681451,45.629204],[-122.681419,45.62925],[-122.681453,45.629292],[-122.681453,45.629382],[-122.681237,45.629388],[-122.681199,45.62942],[-122.681196,45.629471],[-122.680939,45.629471],[-122.680939,45.629244],[-122.680864,45.629201],[-122.680347,45.629203],[-122.680301,45.629242],[-122.680298,45.629379],[-122.680192,45.629395],[-122.680169,45.629469],[-122.680041,45.629468],[-122.680042,45.629378],[-122.680123,45.629374],[-122.680167,45.62934],[-122.680168,45.629147],[-122.680102,45.629109],[-122.679787,45.629108],[-122.679788,45.628928],[-122.679916,45.628928],[-122.679922,45.628985],[-122.67997,45.629016],[-122.680238,45.629018],[-122.680291,45.62899],[-122.680301,45.628929],[-122.680412,45.62891],[-122.68043,45.628839],[-122.680686,45.62884],[-122.680762,45.628864],[-122.680915,45.628828],[-122.680943,45.628751],[-122.681328,45.628752],[-122.68135,45.628826],[-122.681456,45.628842],[-122.681451,45.629204]],[[-122.680704,45.629065],[-122.68068,45.628963],[-122.680631,45.628932],[-122.680484,45.628932],[-122.680432,45.628968],[-122.680432,45.629071],[-122.680483,45.629107],[-122.680671,45.629101],[-122.680704,45.629065]],[[-122.681249,45.629112],[-122.681323,45.629074],[-122.681318,45.62896],[-122.681265,45.628933],[-122.68111,45.628924],[-122.681072,45.628961],[-122.681058,45.629081],[-122.681111,45.62911],[-122.681249,45.629112]]]}},{"type":"Feature","properties":{"id":111,"area_m2":4300,"px":43,"rank":16,"persistent":false},"geometry":{"type":"Polygon","coordinates":[[[-122.674424,45.624143],[-122.674393,45.624189],[-122.674427,45.624232],[-122.674426,45.624412],[-122.67421,45.624418],[-122.674172,45.62445],[-122.674168,45.624501],[-122.67404,45.624501],[-122.674032,45.624426],[-122.673966,45.624397],[-122.673812,45.624422],[-122.673784,45.6245],[-122.673656,45.6245],[-122.673657,45.62432],[-122.673758,45.624316],[-122.673804,45.624275],[-122.67378,45.624173],[-122.673731,45.624142],[-122.673086,45.624138],[-122.673025,45.624166],[-122.673016,45.624228],[-122.672887,45.624227],[-122.672889,45.624048],[-122.672994,45.624032],[-122.673017,45.623958],[-122.673219,45.623956],[-122.673274,45.623905],[-122.673275,45.623737],[-122.673247,45.623701],[-122.672891,45.623687],[-122.672891,45.623598],[-122.673113,45.623596],[-122.673168,45.623542],[-122.673114,45.623427],[-122.672892,45.623417],[-122.672893,45.623327],[-122.673149,45.623328],[-122.673162,45.623394],[-122.673277,45.623419],[-122.673311,45.6235],[-122.673661,45.62351],[-122.673683,45.623584],[-122.673789,45.6236],[-122.673788,45.62369],[-122.67366,45.62369],[-122.673651,45.623628],[-122.673599,45.623601],[-122.673459,45.623601],[-122.673405,45.623642],[-122.673412,45.62384],[-122.673465,45.623868],[-122.673659,45.62387],[-122.673639,45.623999],[-122.673672,45.62404],[-122.674428,45.624052],[-122.674424,45.624143]],[[-122.674292,45.624288],[-122.674317,45.624187],[-122.674285,45.624151],[-122.674097,45.624143],[-122.674045,45.624179],[-122.674045,45.624282],[-122.674096,45.624319],[-122.674243,45.624319],[-122.674292,45.624288]]]}},{"type":"Feature","properties":{"id":82,"area_m2":3600,"px":36,"rank":17,"persistent":false},"geometry":{"type":"Polygon","coordinates":[[[-122.674922,45.627384],[-122.67492,45.627654],[-122.674803,45.627664],[-122.674716,45.62763],[-122.674646,45.627676],[-122.674677,45.627733],[-122.674791,45.627743],[-122.674791,45.627833],[-122.674021,45.627831],[-122.673999,45.627757],[-122.673893,45.627741],[-122.673896,45.627201],[-122.674794,45.627203],[-122.674782,45.627354],[-122.674828,45.627381],[-122.674922,45.627384]]]}},{"type":"Feature","properties":{"id":89,"area_m2":3500,"px":35,"rank":18,"persistent":false},"geometry":{"type":"Polygon","coordinates":[[[-122.677491,45.626761],[-122.677489,45.627121],[-122.676976,45.627119],[-122.676973,45.627068],[-122.676935,45.627036],[-122.676666,45.627015],[-122.6766,45.627044],[-122.676591,45.627118],[-122.676334,45.627118],[-122.676312,45.627043],[-122.676207,45.627027],[-122.676173,45.626946],[-122.676079,45.626937],[-122.676079,45.62671],[-122.67604,45.626673],[-122.675952,45.626666],[-122.675953,45.626577],[-122.676058,45.626561],[-122.676081,45.626487],[-122.676338,45.626488],[-122.67636,45.626562],[-122.676466,45.626578],[-122.676466,45.626728],[-122.676517,45.626769],[-122.676804,45.626768],[-122.676846,45.626734],[-122.676852,45.626669],[-122.676978,45.626669],[-122.677039,45.626694],[-122.677107,45.62667],[-122.677235,45.62667],[-122.677238,45.626735],[-122.67728,45.626769],[-122.677491,45.626761]]]}},{"type":"Feature","properties":{"id":100,"area_m2":3500,"px":35,"rank":19,"persistent":false},"geometry":{"type":"Polygon","coordinates":[[[-122.672625,45.625127],[-122.672624,45.625397],[-122.672367,45.625396],[-122.672307,45.625372],[-122.672239,45.625396],[-122.672111,45.625395],[-122.672051,45.625371],[-122.671983,45.625395],[-122.671854,45.625395],[-122.671827,45.625317],[-122.671665,45.625291],[-122.6716,45.625334],[-122.671597,45.625484],[-122.671212,45.625483],[-122.671213,45.625393],[-122.671408,45.625392],[-122.671464,45.62536],[-122.671491,45.624999],[-122.671438,45.624946],[-122.671216,45.624943],[-122.671216,45.624853],[-122.671601,45.624854],[-122.671614,45.62492],[-122.671677,45.624944],[-122.671823,45.624935],[-122.671858,45.624855],[-122.672242,45.624856],[-122.672263,45.62511],[-122.672625,45.625127]],[[-122.671902,45.625301],[-122.672044,45.625319],[-122.672099,45.625295],[-122.672109,45.625164],[-122.672058,45.625128],[-122.671911,45.625127],[-122.671859,45.625163],[-122.671858,45.625266],[-122.671902,45.625301]]]}},{"type":"Feature","properties":{"id":25,"area_m2":3300,"px":33,"rank":20,"persistent":false},"geometry":{"type":"Polygon","coordinates":[[[-122.67708,45.63135],[-122.677079,45.63153],[-122.676973,45.631546],[-122.67695,45.63162],[-122.67618,45.631618],[-122.676158,45.631543],[-122.676052,45.631527],[-122.676055,45.631077],[-122.676161,45.631062],[-122.676184,45.630988],[-122.67644,45.630988],[-122.676462,45.631063],[-122.676568,45.631079],[-122.676567,45.6313],[-122.676595,45.631337],[-122.67708,45.63135]]]}},{"type":"Feature","properties":{"id":81,"area_m2":3300,"px":33,"rank":21,"persistent":false},"geometry":{"type":"Polygon","coordinates":[[[-122.675948,45.627297],[-122.675945,45.627837],[-122.675047,45.627834],[-122.675049,45.627564],[-122.675083,45.627522],[-122.675049,45.627474],[-122.675051,45.627204],[-122.675821,45.627206],[-122.675843,45.62728],[-122.675948,45.627297]]]}},{"type":"Feature","properties":{"id":95,"area_m2":3100,"px":31,"rank":22,"persistent":false},"geometry":{"type":"Polygon","coordinates":[[[-122.673647,45.62594],[-122.673646,45.62603],[-122.673336,45.626015],[-122.673278,45.626035],[-122.67326,45.626299],[-122.672875,45.626298],[-122.672876,45.625891],[-122.672837,45.625854],[-122.67275,45.625847],[-122.67275,45.625757],[-122.672824,45.625755],[-122.67287,45.625729],[-122.67288,45.625578],[-122.673264,45.625579],[-122.673286,45.625653],[-122.673392,45.625669],[-122.673426,45.62575],[-122.67352,45.62576],[-122.673536,45.62592],[-122.673647,45.62594]]]}},{"type":"Feature","properties":{"id":60,"area_m2":3000,"px":30,"rank":23,"persistent":false},"geometry":{"type":"Polygon","coordinates":[[[-122.674784,45.629003],[-122.674782,45.629273],[-122.67421,45.629272],[-122.67415,45.6293],[-122.67414,45.629362],[-122.673884,45.629361],[-122.673887,45.628821],[-122.674272,45.628822],[-122.674284,45.628888],[-122.6744,45.628912],[-122.674403,45.628964],[-122.67444,45.628996],[-122.674784,45.629003]]]}},{"type":"Feature","properties":{"id":64,"area_m2":3000,"px":30,"rank":24,"persistent":false},"geometry":{"type":"Polygon","coordinates":[[[-122.671578,45.628814],[-122.671577,45.628904],[-122.67149,45.62891],[-122.67145,45.628947],[-122.671447,45.629264],[-122.671062,45.629263],[-122.671063,45.629041],[-122.671009,45.628995],[-122.670855,45.628996],[-122.670813,45.629025],[-122.670806,45.629082],[-122.670678,45.629082],[-122.670681,45.628632],[-122.670809,45.628632],[-122.670818,45.628693],[-122.670871,45.628721],[-122.67145,45.628724],[-122.671472,45.628798],[-122.671578,45.628814]]]}},{"type":"Feature","properties":{"id":4,"area_m2":2900,"px":29,"rank":25,"persistent":false},"geometry":{"type":"Polygon","coordinates":[[[-122.671428,45.632504],[-122.671426,45.632864],[-122.671352,45.632866],[-122.671306,45.632892],[-122.671296,45.633044],[-122.670979,45.63303],[-122.670917,45.633063],[-122.670911,45.633133],[-122.670783,45.633132],[-122.670722,45.633108],[-122.670654,45.633132],[-122.670526,45.633132],[-122.67053,45.632502],[-122.670915,45.632503],[-122.670927,45.632569],[-122.670991,45.632593],[-122.671137,45.632584],[-122.671171,45.632504],[-122.671428,45.632504]],[[-122.670709,45.632783],[-122.6709,45.632749],[-122.670911,45.632631],[-122.67086,45.632595],[-122.670712,45.632594],[-122.670659,45.632635],[-122.67066,45.632747],[-122.670709,45.632783]]]}},{"type":"Feature","properties":{"id":84,"area_m2":2900,"px":29,"rank":26,"persistent":false},"geometry":{"type":"Polygon","coordinates":[[[-122.680309,45.627489],[-122.680307,45.627759],[-122.67941,45.627756],[-122.679411,45.627576],[-122.679498,45.62757],[-122.679538,45.627533],[-122.679541,45.627217],[-122.680182,45.627219],[-122.680184,45.62745],[-122.680228,45.627485],[-122.680309,45.627489]],[[-122.679843,45.627483],[-122.679993,45.6275],[-122.680044,45.627473],[-122.680047,45.627341],[-122.679992,45.627309],[-122.679824,45.627312],[-122.679777,45.627358],[-122.679802,45.627454],[-122.679843,45.627483]]]}},{"type":"Feature","properties":{"id":9,"area_m2":2800,"px":28,"rank":27,"persistent":true},"geometry":{"type":"Polygon","coordinates":[[[-122.672583,45.632418],[-122.672581,45.632777],[-122.672475,45.632793],[-122.672452,45.632867],[-122.671683,45.632865],[-122.671685,45.632505],[-122.672385,45.632507],[-122.672445,45.632479],[-122.672455,45.632417],[-122.672583,45.632418]]]}},{"type":"Feature","properties":{"id":12,"area_m2":2700,"px":27,"rank":28,"persistent":false},"geometry":{"type":"Polygon","coordinates":[[[-122.677718,45.631892],[-122.677715,45.632432],[-122.677202,45.632431],[-122.677205,45.631801],[-122.67759,45.631802],[-122.677612,45.631876],[-122.677718,45.631892]]]}},{"type":"Feature","properties":{"id":29,"area_m2":2700,"px":27,"rank":29,"persistent":false},"geometry":{"type":"Polygon","coordinates":[[[-122.678749,45.631085],[-122.678747,45.631355],[-122.678296,45.631355],[-122.678243,45.631382],[-122.678232,45.631443],[-122.677849,45.631442],[-122.677846,45.631391],[-122.677809,45.631359],[-122.677593,45.631352],[-122.677594,45.631172],[-122.6777,45.631156],[-122.677723,45.631082],[-122.677851,45.631082],[-122.677911,45.631107],[-122.677981,45.631083],[-122.678749,45.631085]]]}},{"type":"Feature","properties":{"id":24,"area_m2":2700,"px":27,"rank":30,"persistent":false},"geometry":{"type":"Polygon","coordinates":[[[-122.679775,45.631088],[-122.679773,45.631448],[-122.679668,45.631463],[-122.679644,45.631537],[-122.679529,45.631561],[-122.679516,45.631627],[-122.679131,45.631626],[-122.679133,45.631266],[-122.679214,45.631262],[-122.679258,45.631228],[-122.679263,45.630996],[-122.679519,45.630997],[-122.679522,45.631049],[-122.67956,45.631081],[-122.679775,45.631088]]]}},{"type":"Feature","properties":{"id":13,"area_m2":2600,"px":26,"rank":31,"persistent":false},"geometry":{"type":"Polygon","coordinates":[[[-122.675406,45.632336],[-122.675406,45.632425],[-122.675277,45.632425],[-122.675255,45.632351],[-122.67515,45.632335],[-122.675149,45.632198],[-122.67511,45.632161],[-122.674949,45.632157],[-122.6749,45.632187],[-122.674893,45.632244],[-122.674765,45.632244],[-122.674738,45.632166],[-122.674576,45.63214],[-122.67451,45.632183],[-122.674507,45.632423],[-122.674251,45.632422],[-122.674191,45.632398],[-122.674123,45.632422],[-122.673994,45.632421],[-122.673972,45.632347],[-122.673867,45.632331],[-122.673868,45.632061],[-122.674334,45.632058],[-122.67438,45.632019],[-122.674382,45.631883],[-122.674488,45.631867],[-122.674511,45.631793],[-122.674768,45.631794],[-122.674784,45.632044],[-122.674836,45.632064],[-122.675151,45.632065],[-122.675173,45.632139],[-122.675279,45.632155],[-122.675291,45.632311],[-122.675406,45.632336]],[[-122.674183,45.632356],[-122.674332,45.632328],[-122.674374,45.632299],[-122.674358,45.632168],[-122.674304,45.632152],[-122.674018,45.632167],[-122.673996,45.632206],[-122.674018,45.632316],[-122.674183,45.632356]]]}},{"type":"Feature","properties":{"id":80,"area_m2":2600,"px":26,"rank":32,"persistent":false},"geometry":{"type":"Polygon","coordinates":[[[-122.679284,45.627216],[-122.679283,45.627486],[-122.679209,45.627488],[-122.679163,45.627514],[-122.679153,45.627666],[-122.679025,45.627665],[-122.67901,45.627325],[-122.678958,45.627305],[-122.67882,45.627305],[-122.678753,45.627344],[-122.678774,45.627721],[-122.678838,45.627754],[-122.679014,45.627744],[-122.679024,45.627845],[-122.678511,45.627844],[-122.678489,45.62777],[-122.678383,45.627753],[-122.678384,45.627574],[-122.678472,45.627567],[-122.678511,45.62753],[-122.678514,45.627304],[-122.67862,45.627288],[-122.678643,45.627214],[-122.679284,45.627216]]]}},{"type":"Feature","properties":{"id":85,"area_m2":2600,"px":26,"rank":33,"persistent":false},"geometry":{"type":"Polygon","coordinates":[[[-122.671587,45.627194],[-122.671585,45.627644],[-122.671072,45.627643],[-122.67105,45.627478],[-122.670816,45.627462],[-122.670808,45.62731],[-122.670762,45.627284],[-122.670689,45.627281],[-122.67069,45.627102],[-122.670818,45.627102],[-122.670878,45.627126],[-122.670946,45.627102],[-122.671459,45.627104],[-122.671482,45.627178],[-122.671587,45.627194]],[[-122.671381,45.627374],[-122.671455,45.627335],[-122.67145,45.627222],[-122.671397,45.627195],[-122.671243,45.627199],[-122.671205,45.627231],[-122.67119,45.627343],[-122.671243,45.627372],[-122.671381,45.627374]]]}},{"type":"Feature","properties":{"id":98,"area_m2":2500,"px":25,"rank":34,"persistent":false},"geometry":{"type":"Polygon","coordinates":[[[-122.670569,45.625841],[-122.670567,45.626201],[-122.670351,45.626207],[-122.670313,45.626239],[-122.670308,45.62629],[-122.670181,45.62629],[-122.670176,45.626233],[-122.670134,45.626204],[-122.669987,45.6262],[-122.669934,45.626228],[-122.669925,45.626289],[-122.669797,45.626289],[-122.669797,45.626199],[-122.669891,45.62619],[-122.669926,45.626145],[-122.669913,45.626043],[-122.669798,45.626019],[-122.6698,45.625749],[-122.669906,45.625733],[-122.669929,45.625659],[-122.670057,45.62566],[-122.670072,45.625742],[-122.669975,45.625753],[-122.669931,45.625787],[-122.669929,45.625899],[-122.669973,45.625939],[-122.670166,45.62591],[-122.670185,45.62575],[-122.670441,45.625751],[-122.670463,45.625825],[-122.670569,45.625841]]]}},{"type":"Feature","properties":{"id":18,"area_m2":2400,"px":24,"rank":35,"persistent":false},"geometry":{"type":"Polygon","coordinates":[[[-122.689652,45.631385],[-122.689652,45.631475],[-122.689546,45.631491],[-122.689523,45.631565],[-122.689423,45.631577],[-122.689394,45.631654],[-122.689294,45.631666],[-122.689266,45.631744],[-122.689171,45.631753],[-122.689137,45.631834],[-122.689026,45.631853],[-122.689008,45.631923],[-122.688786,45.631932],[-122.688751,45.632013],[-122.688635,45.632036],[-122.688622,45.632102],[-122.688366,45.632102],[-122.688366,45.632012],[-122.688466,45.632],[-122.688495,45.631922],[-122.688595,45.63191],[-122.688624,45.631832],[-122.688724,45.63182],[-122.688753,45.631743],[-122.688853,45.631731],[-122.688881,45.631653],[-122.688981,45.631641],[-122.68901,45.631563],[-122.689104,45.631554],[-122.689139,45.631474],[-122.68925,45.631454],[-122.689268,45.631294],[-122.689525,45.631295],[-122.689547,45.631369],[-122.689652,45.631385]]]}},{"type":"Feature","properties":{"id":102,"area_m2":2400,"px":24,"rank":36,"persistent":true},"geometry":{"type":"Polygon","coordinates":[[[-122.674807,45.624953],[-122.674805,45.625403],[-122.674035,45.625401],[-122.674038,45.624861],[-122.674295,45.624862],[-122.674293,45.625173],[-122.674355,45.625221],[-122.674521,45.62521],[-122.67455,45.625132],[-122.674631,45.625128],[-122.674672,45.625099],[-122.674679,45.624953],[-122.674807,45.624953]]]}},{"type":"Feature","properties":{"id":107,"area_m2":2400,"px":24,"rank":37,"persistent":true},"geometry":{"type":"Polygon","coordinates":[[[-122.679427,45.624606],[-122.679427,45.624696],[-122.679326,45.6247],[-122.679281,45.624735],[-122.679297,45.624966],[-122.678967,45.624967],[-122.678918,45.624998],[-122.678912,45.625055],[-122.678784,45.625054],[-122.678761,45.62498],[-122.678656,45.624964],[-122.678668,45.624814],[-122.678622,45.624786],[-122.678529,45.624784],[-122.678529,45.624694],[-122.678623,45.624685],[-122.678658,45.624604],[-122.678769,45.624584],[-122.678787,45.624424],[-122.678893,45.624409],[-122.678916,45.624335],[-122.679044,45.624335],[-122.679066,45.624409],[-122.679172,45.624425],[-122.679185,45.624491],[-122.6793,45.624516],[-122.679327,45.624594],[-122.679427,45.624606]]]}},{"type":"Feature","properties":{"id":77,"area_m2":2300,"px":23,"rank":38,"persistent":false},"geometry":{"type":"Polygon","coordinates":[[[-122.67248,45.628007],[-122.67248,45.628097],[-122.672285,45.628097],[-122.672229,45.628129],[-122.672221,45.628456],[-122.671708,45.628455],[-122.671711,45.627915],[-122.67184,45.627915],[-122.671848,45.627976],[-122.671901,45.628004],[-122.67248,45.628007]]]}},{"type":"Feature","properties":{"id":49,"area_m2":2100,"px":21,"rank":39,"persistent":false},"geometry":{"type":"Polygon","coordinates":[[[-122.676961,45.62964],[-122.676961,45.62973],[-122.676873,45.629736],[-122.676834,45.629773],[-122.67683,45.630089],[-122.676189,45.630087],[-122.67619,45.629908],[-122.676397,45.629908],[-122.67645,45.629888],[-122.676448,45.629638],[-122.676554,45.629623],[-122.676577,45.629549],[-122.676833,45.629549],[-122.676856,45.629624],[-122.676961,45.62964]]]}},{"type":"Feature","properties":{"id":67,"area_m2":2100,"px":21,"rank":40,"persistent":false},"geometry":{"type":"Polygon","coordinates":[[[-122.670424,45.628721],[-122.670421,45.629171],[-122.670293,45.629171],[-122.670284,45.629109],[-122.670231,45.629081],[-122.66978,45.629079],[-122.669782,45.628719],[-122.670424,45.628721]]]}},{"type":"Feature","properties":{"id":90,"area_m2":2100,"px":21,"rank":41,"persistent":true},"geometry":{"type":"Polygon","coordinates":[[[-122.672489,45.626477],[-122.672489,45.626567],[-122.672302,45.626566],[-122.672245,45.62659],[-122.672231,45.626746],[-122.672022,45.626749],[-122.67198,45.626779],[-122.671974,45.626835],[-122.671863,45.626855],[-122.671845,45.627015],[-122.671717,45.627014],[-122.67172,45.626384],[-122.671977,45.626385],[-122.671989,45.626451],[-122.672053,45.626475],[-122.672199,45.626467],[-122.672233,45.626386],[-122.672362,45.626386],[-122.672384,45.62646],[-122.672489,45.626477]]]}},{"type":"Feature","properties":{"id":16,"area_m2":1900,"px":19,"rank":42,"persistent":true},"geometry":{"type":"Polygon","coordinates":[[[-122.678488,45.631894],[-122.678485,45.632344],[-122.677972,45.632343],[-122.67795,45.632269],[-122.677844,45.632252],[-122.677845,45.632162],[-122.677932,45.632156],[-122.677972,45.632119],[-122.677975,45.631893],[-122.678103,45.631893],[-122.678116,45.631959],[-122.678179,45.631983],[-122.678325,45.631975],[-122.67836,45.631894],[-122.678488,45.631894]]]}},{"type":"Feature","properties":{"id":50,"area_m2":1900,"px":19,"rank":43,"persistent":false},"geometry":{"type":"Polygon","coordinates":[[[-122.6726,45.629537],[-122.672597,45.629987],[-122.672491,45.630003],[-122.672468,45.630077],[-122.672084,45.630076],[-122.672085,45.629896],[-122.672172,45.62989],[-122.672212,45.629853],[-122.672215,45.629536],[-122.6726,45.629537]]]}},{"type":"Feature","properties":{"id":52,"area_m2":1800,"px":18,"rank":44,"persistent":true},"geometry":{"type":"Polygon","coordinates":[[[-122.670419,45.629531],[-122.670417,45.629801],[-122.67008,45.629804],[-122.670038,45.629833],[-122.670032,45.62989],[-122.669917,45.629914],[-122.669903,45.629979],[-122.669775,45.629979],[-122.669778,45.629529],[-122.670419,45.629531]]]}},{"type":"Feature","properties":{"id":61,"area_m2":1800,"px":18,"rank":45,"persistent":false},"geometry":{"type":"Polygon","coordinates":[[[-122.673501,45.629],[-122.6735,45.62918],[-122.673426,45.629182],[-122.673381,45.629208],[-122.673371,45.629359],[-122.672858,45.629358],[-122.672858,45.629268],[-122.672893,45.629226],[-122.672859,45.629178],[-122.672861,45.628818],[-122.673245,45.628819],[-122.673267,45.628983],[-122.673501,45.629]],[[-122.673184,45.629076],[-122.673035,45.629093],[-122.672993,45.629122],[-122.672967,45.629218],[-122.673014,45.629264],[-122.673181,45.629268],[-122.673237,45.629236],[-122.673235,45.629104],[-122.673184,45.629076]]]}},{"type":"Feature","properties":{"id":75,"area_m2":1800,"px":18,"rank":46,"persistent":false},"geometry":{"type":"Polygon","coordinates":[[[-122.671582,45.628004],[-122.671579,45.628544],[-122.671435,45.628536],[-122.671452,45.628399],[-122.671419,45.62836],[-122.67125,45.628366],[-122.671199,45.628401],[-122.671196,45.6285],[-122.671235,45.628537],[-122.671338,45.628551],[-122.671322,45.628633],[-122.671194,45.628633],[-122.671172,45.628559],[-122.671066,45.628543],[-122.671069,45.628093],[-122.671175,45.628077],[-122.671198,45.628003],[-122.671582,45.628004]]]}},{"type":"Feature","properties":{"id":21,"area_m2":1700,"px":17,"rank":47,"persistent":false},"geometry":{"type":"Polygon","coordinates":[[[-122.680671,45.63145],[-122.680671,45.63154],[-122.680565,45.631556],[-122.680542,45.63163],[-122.680427,45.631654],[-122.680413,45.63172],[-122.680157,45.631719],[-122.68016,45.631179],[-122.680288,45.631179],[-122.680348,45.631203],[-122.680416,45.63118],[-122.680545,45.63118],[-122.680547,45.631412],[-122.680591,45.631446],[-122.680671,45.63145]]]}},{"type":"Feature","properties":{"id":118,"area_m2":1700,"px":17,"rank":48,"persistent":false},"geometry":{"type":"Polygon","coordinates":[[[-122.676489,45.622528],[-122.676488,45.622708],[-122.676382,45.622723],[-122.676359,45.622797],[-122.676231,45.622797],[-122.676209,45.622723],[-122.676103,45.622706],[-122.676069,45.622626],[-122.675975,45.622616],[-122.675954,45.622452],[-122.67572,45.622435],[-122.675721,45.622255],[-122.675849,45.622256],[-122.67591,45.62228],[-122.675977,45.622256],[-122.676106,45.622257],[-122.676128,45.622331],[-122.676233,45.622347],[-122.676246,45.622413],[-122.676361,45.622437],[-122.676389,45.622515],[-122.676489,45.622528]]]}},{"type":"Feature","properties":{"id":101,"area_m2":1600,"px":16,"rank":49,"persistent":false},"geometry":{"type":"Polygon","coordinates":[[[-122.675961,45.625136],[-122.67596,45.625226],[-122.675854,45.625242],[-122.675831,45.625316],[-122.675509,45.625316],[-122.675456,45.625343],[-122.675446,45.625405],[-122.675318,45.625405],[-122.67532,45.625045],[-122.675426,45.625029],[-122.675449,45.624955],[-122.675705,45.624956],[-122.675727,45.62503],[-122.675833,45.625046],[-122.675867,45.625127],[-122.675961,45.625136]]]}},{"type":"Feature","properties":{"id":17,"area_m2":1500,"px":15,"rank":50,"persistent":true},"geometry":{"type":"Polygon","coordinates":[[[-122.672201,45.631966],[-122.6722,45.632146],[-122.672094,45.632162],[-122.672071,45.632236],[-122.671814,45.632235],[-122.671792,45.632161],[-122.671687,45.632145],[-122.671688,45.631875],[-122.671794,45.631859],[-122.671817,45.631785],[-122.672074,45.631786],[-122.672082,45.631937],[-122.672127,45.631964],[-122.672201,45.631966]]]}},{"type":"Feature","properties":{"id":48,"area_m2":1500,"px":15,"rank":51,"persistent":false},"geometry":{"type":"Polygon","coordinates":[[[-122.685428,45.629753],[-122.685426,45.630113],[-122.684784,45.630112],[-122.684786,45.629752],[-122.685428,45.629753]],[[-122.685164,45.629989],[-122.685189,45.629888],[-122.685157,45.629852],[-122.684969,45.629844],[-122.684917,45.62988],[-122.684917,45.629984],[-122.684968,45.63002],[-122.685115,45.63002],[-122.685164,45.629989]]]}},{"type":"Feature","properties":{"id":63,"area_m2":1500,"px":15,"rank":52,"persistent":false},"geometry":{"type":"Polygon","coordinates":[[[-122.672219,45.628906],[-122.672218,45.629086],[-122.672144,45.629088],[-122.672098,45.629114],[-122.672088,45.629266],[-122.67196,45.629265],[-122.6719,45.629241],[-122.671832,45.629265],[-122.671704,45.629265],[-122.671707,45.628725],[-122.671835,45.628725],[-122.671836,45.628862],[-122.671875,45.628899],[-122.672219,45.628906]]]}},{"type":"Feature","properties":{"id":15,"area_m2":1300,"px":13,"rank":53,"persistent":false},"geometry":{"type":"Polygon","coordinates":[[[-122.670404,45.632051],[-122.670404,45.632141],[-122.670298,45.632157],[-122.670243,45.632263],[-122.670274,45.632411],[-122.669889,45.63241],[-122.669909,45.632095],[-122.669864,45.632054],[-122.669763,45.632049],[-122.669763,45.631959],[-122.670276,45.631961],[-122.670299,45.632035],[-122.670404,45.632051]]]}},{"type":"Feature","properties":{"id":42,"area_m2":1300,"px":13,"rank":54,"persistent":false},"geometry":{"type":"Polygon","coordinates":[[[-122.672852,45.630258],[-122.672852,45.630348],[-122.672746,45.630364],[-122.672723,45.630438],[-122.672629,45.630447],[-122.672594,45.630527],[-122.672483,45.630547],[-122.672465,45.630617],[-122.672337,45.630617],[-122.672315,45.630542],[-122.672209,45.630526],[-122.672211,45.630256],[-122.672852,45.630258]]]}},{"type":"Feature","properties":{"id":44,"area_m2":1300,"px":13,"rank":55,"persistent":false},"geometry":{"type":"Polygon","coordinates":[[[-122.677857,45.630002],[-122.677856,45.630182],[-122.677769,45.630188],[-122.677729,45.630225],[-122.677726,45.630542],[-122.677598,45.630541],[-122.677575,45.630467],[-122.67747,45.630451],[-122.677472,45.630001],[-122.677857,45.630002]]]}},{"type":"Feature","properties":{"id":11,"area_m2":1200,"px":12,"rank":56,"persistent":false},"geometry":{"type":"Polygon","coordinates":[[[-122.681053,45.632081],[-122.681051,45.632351],[-122.680721,45.632353],[-122.680672,45.632384],[-122.680664,45.63244],[-122.680409,45.63244],[-122.680387,45.632365],[-122.680281,45.632349],[-122.680283,45.632169],[-122.680356,45.632167],[-122.680402,45.632141],[-122.680412,45.63199],[-122.680668,45.63199],[-122.680668,45.63208],[-122.680574,45.632089],[-122.680539,45.63217],[-122.680458,45.632174],[-122.680416,45.632203],[-122.680413,45.632311],[-122.680472,45.632349],[-122.680632,45.632341],[-122.680667,45.63226],[-122.680889,45.632252],[-122.680923,45.632212],[-122.680925,45.632081],[-122.681053,45.632081]]]}},{"type":"Feature","properties":{"id":57,"area_m2":1200,"px":12,"rank":57,"persistent":false},"geometry":{"type":"Polygon","coordinates":[[[-122.679145,45.629106],[-122.679145,45.629196],[-122.679039,45.629211],[-122.679016,45.629285],[-122.678693,45.629286],[-122.67864,45.629313],[-122.67863,45.629374],[-122.678374,45.629374],[-122.678375,45.629194],[-122.678609,45.629178],[-122.678633,45.629014],[-122.678761,45.629015],[-122.67877,45.629076],[-122.678822,45.629104],[-122.679145,45.629106]]]}},{"type":"Feature","properties":{"id":2,"area_m2":1100,"px":11,"rank":58,"persistent":false},"geometry":{"type":"Polygon","coordinates":[[[-122.686178,45.633176],[-122.686178,45.633266],[-122.685793,45.633265],[-122.68579,45.633213],[-122.685753,45.633181],[-122.685537,45.633174],[-122.685515,45.6331],[-122.685409,45.633084],[-122.685375,45.633003],[-122.685282,45.632993],[-122.685282,45.632903],[-122.685538,45.632904],[-122.685542,45.632956],[-122.685579,45.632988],[-122.685795,45.632995],[-122.685807,45.633061],[-122.685922,45.633085],[-122.685956,45.633166],[-122.686178,45.633176]]]}},{"type":"Feature","properties":{"id":39,"area_m2":1100,"px":11,"rank":59,"persistent":false},"geometry":{"type":"Polygon","coordinates":[[[-122.674904,45.630444],[-122.674902,45.630714],[-122.674686,45.63072],[-122.674649,45.630752],[-122.674643,45.630803],[-122.674517,45.630803],[-122.674495,45.630729],[-122.674389,45.630712],[-122.674391,45.630443],[-122.674497,45.630427],[-122.67452,45.630353],[-122.674776,45.630354],[-122.674798,45.630428],[-122.674904,45.630444]],[[-122.67465,45.630535],[-122.674593,45.630519],[-122.674535,45.630539],[-122.674519,45.630588],[-122.674545,45.630624],[-122.674607,45.630636],[-122.674666,45.63061],[-122.67468,45.63057],[-122.67465,45.630535]]]}},{"type":"Feature","properties":{"id":76,"area_m2":1100,"px":11,"rank":60,"persistent":false},"geometry":{"type":"Polygon","coordinates":[[[-122.674404,45.628192],[-122.674402,45.628462],[-122.674017,45.628461],[-122.67402,45.628101],[-122.674276,45.628102],[-122.674298,45.628176],[-122.674404,45.628192]]]}},{"type":"Feature","properties":{"id":97,"area_m2":1100,"px":11,"rank":61,"persistent":false},"geometry":{"type":"Polygon","coordinates":[[[-122.671338,45.625933],[-122.671337,45.626113],[-122.671231,45.626129],[-122.671208,45.626203],[-122.671093,45.626227],[-122.671079,45.626292],[-122.670951,45.626292],[-122.670946,45.626235],[-122.670897,45.626204],[-122.670695,45.626201],[-122.670697,45.625931],[-122.670899,45.62593],[-122.670948,45.625899],[-122.670954,45.625842],[-122.671082,45.625843],[-122.671097,45.625925],[-122.670994,45.625939],[-122.670953,45.625981],[-122.670958,45.626092],[-122.671027,45.626126],[-122.671196,45.626089],[-122.671194,45.62594],[-122.671338,45.625933]]]}},{"type":"Feature","properties":{"id":96,"area_m2":1100,"px":11,"rank":62,"persistent":false},"geometry":{"type":"Polygon","coordinates":[[[-122.672491,45.626117],[-122.672491,45.626207],[-122.672289,45.626208],[-122.67224,45.626239],[-122.672234,45.626296],[-122.672106,45.626295],[-122.672126,45.626171],[-122.672105,45.626132],[-122.672057,45.626116],[-122.671722,45.626114],[-122.671722,45.626024],[-122.671796,45.626022],[-122.671842,45.625996],[-122.671852,45.625845],[-122.67198,45.625845],[-122.67204,45.625869],[-122.672108,45.625846],[-122.672236,45.625846],[-122.672236,45.625936],[-122.672201,45.625983],[-122.672248,45.626092],[-122.672304,45.626116],[-122.672491,45.626117]]]}},{"type":"Feature","properties":{"id":109,"area_m2":1100,"px":11,"rank":63,"persistent":false},"geometry":{"type":"Polygon","coordinates":[[[-122.673529,45.624229],[-122.673527,45.624589],[-122.67327,45.624589],[-122.673248,45.624514],[-122.673142,45.624498],[-122.673144,45.624228],[-122.673529,45.624229]]]}},{"type":"Feature","properties":{"id":3,"area_m2":1000,"px":10,"rank":64,"persistent":false},"geometry":{"type":"Polygon","coordinates":[[[-122.673607,45.632871],[-122.673606,45.63305],[-122.6735,45.633066],[-122.673477,45.63314],[-122.673221,45.633139],[-122.673222,45.632959],[-122.673256,45.632917],[-122.673222,45.632869],[-122.673223,45.632689],[-122.67348,45.63269],[-122.673488,45.632842],[-122.673533,45.632868],[-122.673607,45.632871]]]}},{"type":"Feature","properties":{"id":30,"area_m2":1000,"px":10,"rank":65,"persistent":false},"geometry":{"type":"Polygon","coordinates":[[[-122.671565,45.630974],[-122.671564,45.631244],[-122.671458,45.63126],[-122.671435,45.631334],[-122.67105,45.631333],[-122.671052,45.631063],[-122.671157,45.631047],[-122.67118,45.630973],[-122.671565,45.630974]],[[-122.671358,45.631244],[-122.671432,45.631206],[-122.671427,45.631093],[-122.671374,45.631065],[-122.67122,45.63107],[-122.671181,45.631107],[-122.671188,45.631215],[-122.671241,45.631242],[-122.671358,45.631244]]]}},{"type":"Feature","properties":{"id":36,"area_m2":1000,"px":10,"rank":66,"persistent":false},"geometry":{"type":"Polygon","coordinates":[[[-122.680292,45.630459],[-122.680291,45.630729],[-122.680197,45.630731],[-122.680151,45.630758],[-122.680161,45.630909],[-122.680033,45.630908],[-122.680011,45.630834],[-122.679905,45.630818],[-122.679907,45.630458],[-122.680013,45.630443],[-122.680038,45.630368],[-122.680164,45.630369],[-122.680186,45.630443],[-122.680292,45.630459]]]}},{"type":"Feature","properties":{"id":7,"area_m2":900,"px":9,"rank":67,"persistent":false},"geometry":{"type":"Polygon","coordinates":[[[-122.674505,45.632783],[-122.674505,45.632873],[-122.673864,45.632871],[-122.673866,45.632511],[-122.674122,45.632512],[-122.674122,45.632602],[-122.674041,45.632606],[-122.673996,45.63264],[-122.673994,45.632738],[-122.674027,45.632773],[-122.674505,45.632783]]]}},{"type":"Feature","properties":{"id":37,"area_m2":900,"px":9,"rank":68,"persistent":false},"geometry":{"type":"Polygon","coordinates":[[[-122.676955,45.63072],[-122.676954,45.6309],[-122.676441,45.630898],[-122.67638,45.630874],[-122.676312,45.630898],[-122.676184,45.630898],[-122.676162,45.630823],[-122.676057,45.630807],[-122.676057,45.630717],[-122.676185,45.630718],[-122.676246,45.630742],[-122.676314,45.630718],[-122.67657,45.630719],[-122.676583,45.630785],[-122.676647,45.630809],[-122.676792,45.6308],[-122.676827,45.630719],[-122.676955,45.63072]]]}},{"type":"Feature","properties":{"id":51,"area_m2":900,"px":9,"rank":69,"persistent":false},"geometry":{"type":"Polygon","coordinates":[[[-122.673625,45.62972],[-122.673625,45.62981],[-122.673437,45.62981],[-122.673381,45.629834],[-122.673367,45.629989],[-122.673239,45.629989],[-122.673241,45.629539],[-122.673498,45.62954],[-122.673506,45.629691],[-122.673552,45.629718],[-122.673625,45.62972]]]}},{"type":"Feature","properties":{"id":91,"area_m2":900,"px":9,"rank":70,"persistent":false},"geometry":{"type":"Polygon","coordinates":[[[-122.671591,45.626474],[-122.671591,45.626564],[-122.671497,45.626573],[-122.671462,45.626618],[-122.671475,45.62672],[-122.67159,45.626744],[-122.671588,45.627014],[-122.67146,45.627014],[-122.671458,45.626782],[-122.671414,45.626748],[-122.671333,45.626743],[-122.671331,45.626602],[-122.671287,45.626567],[-122.671206,45.626563],[-122.671207,45.626473],[-122.671312,45.626457],[-122.671337,45.626383],[-122.671464,45.626384],[-122.671486,45.626458],[-122.671591,45.626474]]]}},{"type":"Feature","properties":{"id":104,"area_m2":900,"px":9,"rank":71,"persistent":false},"geometry":{"type":"Polygon","coordinates":[[[-122.67096,45.624762],[-122.670957,45.625212],[-122.670701,45.625211],[-122.670703,45.624851],[-122.670809,45.624836],[-122.670832,45.624762],[-122.67096,45.624762]]]}},{"type":"Feature","properties":{"id":14,"area_m2":800,"px":8,"rank":72,"persistent":false},"geometry":{"type":"Polygon","coordinates":[[[-122.671045,45.632233],[-122.671043,45.632413],[-122.670659,45.632412],[-122.670659,45.632185],[-122.67062,45.632148],[-122.670532,45.632142],[-122.670533,45.632052],[-122.670661,45.632052],[-122.670673,45.632118],[-122.670788,45.632142],[-122.670792,45.632194],[-122.670829,45.632226],[-122.671045,45.632233]]]}},{"type":"Feature","properties":{"id":40,"area_m2":800,"px":8,"rank":73,"persistent":false},"geometry":{"type":"Polygon","coordinates":[[[-122.670543,45.630251],[-122.670542,45.630341],[-122.670099,45.63034],[-122.670042,45.630364],[-122.67003,45.630566],[-122.670068,45.630604],[-122.670156,45.63061],[-122.670155,45.6307],[-122.670027,45.6307],[-122.670005,45.630626],[-122.6699,45.63061],[-122.669901,45.63034],[-122.670007,45.630324],[-122.67003,45.63025],[-122.670543,45.630251]]]}},{"type":"Feature","properties":{"id":86,"area_m2":800,"px":8,"rank":74,"persistent":false},"geometry":{"type":"Polygon","coordinates":[[[-122.676974,45.62748],[-122.676973,45.627569],[-122.676718,45.627569],[-122.676711,45.627512],[-122.676662,45.627481],[-122.676332,45.627478],[-122.676333,45.627298],[-122.676718,45.627299],[-122.67674,45.627463],[-122.676974,45.62748]]]}},{"type":"Feature","properties":{"id":117,"area_m2":800,"px":8,"rank":75,"persistent":false},"geometry":{"type":"Polygon","coordinates":[[[-122.673535,45.623059],[-122.673535,45.623149],[-122.673409,45.623149],[-122.673401,45.623092],[-122.67336,45.623063],[-122.673068,45.623049],[-122.673024,45.623088],[-122.673021,45.623238],[-122.672893,45.623237],[-122.672895,45.622877],[-122.673152,45.622878],[-122.673186,45.622959],[-122.673408,45.622969],[-122.67343,45.623043],[-122.673535,45.623059]]]}},{"type":"Feature","properties":{"id":31,"area_m2":700,"px":7,"rank":76,"persistent":false},"geometry":{"type":"Polygon","coordinates":[[[-122.67567,45.631076],[-122.675669,45.631256],[-122.675156,45.631255],[-122.675156,45.631165],[-122.675262,45.631149],[-122.675285,45.631075],[-122.67567,45.631076]]]}},{"type":"Feature","properties":{"id":38,"area_m2":700,"px":7,"rank":77,"persistent":false},"geometry":{"type":"Polygon","coordinates":[[[-122.671698,45.630255],[-122.671694,45.630885],[-122.671566,45.630884],[-122.671569,45.630254],[-122.671698,45.630255]]]}},{"type":"Feature","properties":{"id":78,"area_m2":700,"px":7,"rank":78,"persistent":false},"geometry":{"type":"Polygon","coordinates":[[[-122.679919,45.628298],[-122.679919,45.628388],[-122.679534,45.628387],[-122.679512,45.628313],[-122.679407,45.628296],[-122.679408,45.628026],[-122.679664,45.628027],[-122.679664,45.628117],[-122.679583,45.628121],[-122.679539,45.628155],[-122.679535,45.628248],[-122.679563,45.628285],[-122.679919,45.628298]]]}},{"type":"Feature","properties":{"id":92,"area_m2":700,"px":7,"rank":79,"persistent":false},"geometry":{"type":"Polygon","coordinates":[[[-122.670306,45.62692],[-122.670305,45.62701],[-122.670051,45.62701],[-122.670027,45.626935],[-122.669921,45.626919],[-122.669924,45.626469],[-122.670052,45.62647],[-122.670063,45.626896],[-122.670119,45.62692],[-122.670306,45.62692]]]}},{"type":"Feature","properties":{"id":108,"area_m2":700,"px":7,"rank":80,"persistent":false},"geometry":{"type":"Polygon","coordinates":[[[-122.673783,45.62468],[-122.673782,45.62477],[-122.672884,45.624767],[-122.672885,45.624678],[-122.673783,45.62468]]]}},{"type":"Feature","properties":{"id":6,"area_m2":600,"px":6,"rank":81,"persistent":false},"geometry":{"type":"Polygon","coordinates":[[[-122.686052,45.632815],[-122.686051,45.632995],[-122.685923,45.632995],[-122.685901,45.632921],[-122.685795,45.632905],[-122.685797,45.632545],[-122.685925,45.632545],[-122.685927,45.632777],[-122.685971,45.632811],[-122.686052,45.632815]]]}},{"type":"Feature","properties":{"id":32,"area_m2":600,"px":6,"rank":82,"persistent":false},"geometry":{"type":"Polygon","coordinates":[[[-122.673233,45.630979],[-122.673231,45.631249],[-122.673103,45.631249],[-122.673098,45.631192],[-122.673049,45.631161],[-122.672847,45.631158],[-122.672848,45.631068],[-122.672953,45.631053],[-122.672976,45.630979],[-122.673233,45.630979]]]}},{"type":"Feature","properties":{"id":43,"area_m2":600,"px":6,"rank":83,"persistent":false},"geometry":{"type":"Polygon","coordinates":[[[-122.680934,45.630371],[-122.680933,45.630551],[-122.680548,45.63055],[-122.680549,45.63037],[-122.680934,45.630371]]]}},{"type":"Feature","properties":{"id":58,"area_m2":600,"px":6,"rank":84,"persistent":false},"geometry":{"type":"Polygon","coordinates":[[[-122.677093,45.6291],[-122.677091,45.62928],[-122.676986,45.629296],[-122.676963,45.62937],[-122.676706,45.629369],[-122.676707,45.629279],[-122.676909,45.629277],[-122.676964,45.629226],[-122.676947,45.629119],[-122.676895,45.6291],[-122.676708,45.629099],[-122.676708,45.629009],[-122.676965,45.62901],[-122.676987,45.629084],[-122.677093,45.6291]]]}},{"type":"Feature","properties":{"id":114,"area_m2":600,"px":6,"rank":85,"persistent":false},"geometry":{"type":"Polygon","coordinates":[[[-122.670711,45.623411],[-122.670709,45.623861],[-122.670581,45.623861],[-122.670578,45.623719],[-122.670534,45.623685],[-122.670453,45.62368],[-122.670454,45.623591],[-122.670527,45.623588],[-122.670573,45.623562],[-122.670583,45.623411],[-122.670711,45.623411]]]}},{"type":"Feature","properties":{"id":20,"area_m2":500,"px":5,"rank":86,"persistent":false},"geometry":{"type":"Polygon","coordinates":[[[-122.675794,45.631797],[-122.675794,45.631887],[-122.675667,45.631886],[-122.675662,45.631835],[-122.675625,45.631802],[-122.675409,45.631795],[-122.675387,45.631721],[-122.675282,45.631705],[-122.675283,45.631525],[-122.675411,45.631526],[-122.67541,45.631657],[-122.675438,45.631693],[-122.675666,45.631706],[-122.675689,45.63178],[-122.675794,45.631797]]]}},{"type":"Feature","properties":{"id":23,"area_m2":500,"px":5,"rank":87,"persistent":false},"geometry":{"type":"Polygon","coordinates":[[[-122.68452,45.631551],[-122.684519,45.631641],[-122.684006,45.63164],[-122.684007,45.63146],[-122.684135,45.63146],[-122.684144,45.631521],[-122.684197,45.631549],[-122.68452,45.631551]]]}},{"type":"Feature","properties":{"id":34,"area_m2":500,"px":5,"rank":88,"persistent":false},"geometry":{"type":"Polygon","coordinates":[[[-122.681317,45.630642],[-122.681316,45.630912],[-122.681059,45.630911],[-122.68106,45.630731],[-122.681166,45.630716],[-122.681189,45.630642],[-122.681317,45.630642]]]}},{"type":"Feature","properties":{"id":46,"area_m2":500,"px":5,"rank":89,"persistent":false},"geometry":{"type":"Polygon","coordinates":[[[-122.682089,45.630284],[-122.682088,45.630464],[-122.681703,45.630463],[-122.681704,45.630373],[-122.68181,45.630358],[-122.681833,45.630283],[-122.682089,45.630284]]]}},{"type":"Feature","properties":{"id":59,"area_m2":500,"px":5,"rank":90,"persistent":false},"geometry":{"type":"Polygon","coordinates":[[[-122.675937,45.629187],[-122.675936,45.629367],[-122.67568,45.629366],[-122.675682,45.629096],[-122.67581,45.629096],[-122.675832,45.629171],[-122.675937,45.629187]]]}},{"type":"Feature","properties":{"id":66,"area_m2":500,"px":5,"rank":91,"persistent":false},"geometry":{"type":"Polygon","coordinates":[[[-122.673759,45.628821],[-122.673757,45.62918],[-122.673628,45.62918],[-122.673628,45.628954],[-122.673589,45.628916],[-122.673502,45.62891],[-122.673502,45.62882],[-122.673759,45.628821]]]}},{"type":"Feature","properties":{"id":72,"area_m2":500,"px":5,"rank":92,"persistent":false},"geometry":{"type":"Polygon","coordinates":[[[-122.680688,45.62848],[-122.680688,45.62857],[-122.680582,45.628586],[-122.680559,45.62866],[-122.680302,45.628659],[-122.680303,45.628569],[-122.680338,45.628527],[-122.680304,45.628479],[-122.680304,45.628389],[-122.68056,45.62839],[-122.680583,45.628464],[-122.680688,45.62848]]]}},{"type":"Feature","properties":{"id":106,"area_m2":500,"px":5,"rank":93,"persistent":false},"geometry":{"type":"Polygon","coordinates":[[[-122.681093,45.624881],[-122.681092,45.625061],[-122.680964,45.62506],[-122.680942,45.624986],[-122.680837,45.62497],[-122.680838,45.6247],[-122.680966,45.6247],[-122.680975,45.624852],[-122.68102,45.624878],[-122.681093,45.624881]]]}},{"type":"Feature","properties":{"id":5,"area_m2":400,"px":4,"rank":94,"persistent":false},"geometry":{"type":"Polygon","coordinates":[[[-122.670143,45.632861],[-122.670142,45.63295],[-122.670062,45.632954],[-122.670017,45.632988],[-122.670013,45.63313],[-122.669885,45.63313],[-122.669863,45.633056],[-122.669757,45.633039],[-122.669758,45.632949],[-122.669959,45.632948],[-122.670008,45.632917],[-122.670015,45.63286],[-122.670143,45.632861]]]}},{"type":"Feature","properties":{"id":19,"area_m2":400,"px":4,"rank":95,"persistent":false},"geometry":{"type":"Polygon","coordinates":[[[-122.675536,45.631976],[-122.675536,45.632066],[-122.675408,45.632065],[-122.675386,45.631991],[-122.67528,45.631975],[-122.675267,45.631909],[-122.675152,45.631885],[-122.675124,45.631807],[-122.675024,45.631794],[-122.675025,45.631704],[-122.675153,45.631705],[-122.675175,45.631779],[-122.675281,45.631795],[-122.675294,45.631861],[-122.675409,45.631886],[-122.675436,45.631963],[-122.675536,45.631976]]]}},{"type":"Feature","properties":{"id":53,"area_m2":400,"px":4,"rank":96,"persistent":false},"geometry":{"type":"Polygon","coordinates":[[[-122.683504,45.629658],[-122.683502,45.629928],[-122.683246,45.629927],[-122.683247,45.629837],[-122.683327,45.629833],[-122.683372,45.629799],[-122.683376,45.629658],[-122.683504,45.629658]]]}},{"type":"Feature","properties":{"id":62,"area_m2":400,"px":4,"rank":97,"persistent":false},"geometry":{"type":"Polygon","coordinates":[[[-122.67042,45.629261],[-122.67042,45.629351],[-122.670035,45.62935],[-122.670013,45.629276],[-122.669907,45.629259],[-122.669908,45.62917],[-122.670036,45.62917],[-122.670045,45.629231],[-122.670098,45.629259],[-122.67042,45.629261]]]}},{"type":"Feature","properties":{"id":68,"area_m2":400,"px":4,"rank":98,"persistent":false},"geometry":{"type":"Polygon","coordinates":[[[-122.68864,45.628772],[-122.68864,45.628862],[-122.688255,45.628861],[-122.688256,45.628771],[-122.688362,45.628755],[-122.688385,45.628681],[-122.688513,45.628682],[-122.688535,45.628756],[-122.68864,45.628772]]]}},{"type":"Feature","properties":{"id":87,"area_m2":400,"px":4,"rank":99,"persistent":false},"geometry":{"type":"Polygon","coordinates":[[[-122.677872,45.627392],[-122.677872,45.627482],[-122.677359,45.627481],[-122.677359,45.627391],[-122.677872,45.627392]]]}},{"type":"Feature","properties":{"id":93,"area_m2":400,"px":4,"rank":100,"persistent":false},"geometry":{"type":"Polygon","coordinates":[[[-122.673644,45.62648],[-122.673642,45.62675],[-122.673386,45.626749],[-122.673386,45.626659],[-122.673467,45.626655],[-122.673512,45.626621],[-122.673516,45.62648],[-122.673644,45.62648]]]}},{"type":"Feature","properties":{"id":99,"area_m2":400,"px":4,"rank":101,"persistent":false},"geometry":{"type":"Polygon","coordinates":[[[-122.673651,45.62531],[-122.67365,45.6254],[-122.673544,45.625415],[-122.673521,45.625489],[-122.673137,45.625488],[-122.673137,45.625398],[-122.67346,45.625398],[-122.673513,45.625371],[-122.673523,45.62531],[-122.673651,45.62531]]]}},{"type":"Feature","properties":{"id":103,"area_m2":400,"px":4,"rank":102,"persistent":false},"geometry":{"type":"Polygon","coordinates":[[[-122.6775,45.625231],[-122.677499,45.625321],[-122.676986,45.625319],[-122.676987,45.625229],[-122.6775,45.625231]]]}},{"type":"Feature","properties":{"id":110,"area_m2":400,"px":4,"rank":103,"persistent":false},"geometry":{"type":"Polygon","coordinates":[[[-122.673015,45.624318],[-122.673013,45.624588],[-122.672885,45.624587],[-122.672883,45.624446],[-122.672839,45.624411],[-122.672758,45.624407],[-122.672759,45.624317],[-122.673015,45.624318]]]}},{"type":"Feature","properties":{"id":10,"area_m2":300,"px":3,"rank":104,"persistent":false},"geometry":{"type":"Polygon","coordinates":[[[-122.675532,45.632696],[-122.675532,45.632786],[-122.675147,45.632785],[-122.675148,45.632695],[-122.675532,45.632696]]]}},{"type":"Feature","properties":{"id":8,"area_m2":300,"px":3,"rank":105,"persistent":false},"geometry":{"type":"Polygon","coordinates":[[[-122.673095,45.632599],[-122.673094,45.632869],[-122.672965,45.632869],[-122.672967,45.632599],[-122.673095,45.632599]]]}},{"type":"Feature","properties":{"id":27,"area_m2":300,"px":3,"rank":106,"persistent":false},"geometry":{"type":"Polygon","coordinates":[[[-122.671178,45.631423],[-122.671177,45.631603],[-122.671048,45.631603],[-122.671026,45.631529],[-122.670921,45.631513],[-122.670921,45.631423],[-122.671178,45.631423]]]}},{"type":"Feature","properties":{"id":28,"area_m2":300,"px":3,"rank":107,"persistent":false},"geometry":{"type":"Polygon","coordinates":[[[-122.683238,45.631367],[-122.683237,45.631547],[-122.68298,45.631547],[-122.682981,45.631457],[-122.683087,45.631441],[-122.68311,45.631367],[-122.683238,45.631367]]]}},{"type":"Feature","properties":{"id":35,"area_m2":300,"px":3,"rank":108,"persistent":false},"geometry":{"type":"Polygon","coordinates":[[[-122.680804,45.630731],[-122.680803,45.630821],[-122.680697,45.630836],[-122.680674,45.63091],[-122.680546,45.63091],[-122.680547,45.63073],[-122.680804,45.630731]]]}},{"type":"Feature","properties":{"id":33,"area_m2":300,"px":3,"rank":109,"persistent":false},"geometry":{"type":"Polygon","coordinates":[[[-122.682215,45.630645],[-122.682215,45.630734],[-122.682134,45.630738],[-122.68209,45.630772],[-122.682086,45.630914],[-122.681957,45.630914],[-122.681959,45.630734],[-122.682064,45.630718],[-122.682087,45.630644],[-122.682215,45.630645]]]}},{"type":"Feature","properties":{"id":45,"area_m2":300,"px":3,"rank":110,"persistent":false},"geometry":{"type":"Polygon","coordinates":[[[-122.673493,45.63035],[-122.673493,45.63044],[-122.673387,45.630455],[-122.673364,45.630529],[-122.673236,45.630529],[-122.673237,45.630349],[-122.673493,45.63035]]]}},{"type":"Feature","properties":{"id":56,"area_m2":300,"px":3,"rank":111,"persistent":false},"geometry":{"type":"Polygon","coordinates":[[[-122.679914,45.629288],[-122.679913,45.629378],[-122.679657,45.629377],[-122.679658,45.629197],[-122.679786,45.629198],[-122.679808,45.629272],[-122.679914,45.629288]]]}},{"type":"Feature","properties":{"id":65,"area_m2":300,"px":3,"rank":112,"persistent":false},"geometry":{"type":"Polygon","coordinates":[[[-122.68556,45.629124],[-122.685559,45.629214],[-122.685174,45.629212],[-122.685175,45.629123],[-122.68556,45.629124]]]}},{"type":"Feature","properties":{"id":70,"area_m2":300,"px":3,"rank":113,"persistent":false},"geometry":{"type":"Polygon","coordinates":[[[-122.683638,45.628578],[-122.683637,45.628758],[-122.683381,45.628757],[-122.683381,45.628668],[-122.683487,45.628652],[-122.68351,45.628578],[-122.683638,45.628578]]]}},{"type":"Feature","properties":{"id":74,"area_m2":300,"px":3,"rank":114,"persistent":false},"geometry":{"type":"Polygon","coordinates":[[[-122.676967,45.62856],[-122.676967,45.62865],[-122.676582,45.628648],[-122.676583,45.628559],[-122.676967,45.62856]]]}},{"type":"Feature","properties":{"id":79,"area_m2":300,"px":3,"rank":115,"persistent":false},"geometry":{"type":"Polygon","coordinates":[[[-122.673378,45.628099],[-122.673377,45.628189],[-122.673121,45.628189],[-122.673122,45.628009],[-122.67325,45.628009],[-122.673272,45.628083],[-122.673378,45.628099]]]}},{"type":"Feature","properties":{"id":105,"area_m2":300,"px":3,"rank":116,"persistent":false},"geometry":{"type":"Polygon","coordinates":[[[-122.67314,45.624948],[-122.673139,45.625038],[-122.673033,45.625054],[-122.67301,45.625128],[-122.672882,45.625128],[-122.672883,45.624948],[-122.67314,45.624948]]]}},{"type":"Feature","properties":{"id":113,"area_m2":300,"px":3,"rank":117,"persistent":true},"geometry":{"type":"Polygon","coordinates":[[[-122.679688,45.623887],[-122.679687,45.624067],[-122.679559,45.624066],[-122.679537,45.623992],[-122.679431,45.623976],[-122.679432,45.623886],[-122.679688,45.623887]]]}},{"type":"Feature","properties":{"id":115,"area_m2":300,"px":3,"rank":118,"persistent":false},"geometry":{"type":"Polygon","coordinates":[[[-122.676484,45.623428],[-122.676483,45.623608],[-122.676355,45.623607],[-122.676332,45.623533],[-122.676227,45.623517],[-122.676227,45.623427],[-122.676484,45.623428]]]}}]}