{"type":"FeatureCollection","features":[{"type":"Feature","properties":{"id":114,"area_m2":67500,"px":675,"rank":1,"persistent":false},"geometry":{"type":"Polygon","coordinates":[[[-122.681739,45.624163],[-122.681738,45.624342],[-122.681522,45.624348],[-122.681485,45.62438],[-122.681481,45.624432],[-122.681096,45.624431],[-122.681068,45.624353],[-122.680915,45.624326],[-122.680849,45.624355],[-122.680839,45.62443],[-122.680711,45.62443],[-122.680684,45.624352],[-122.680523,45.624315],[-122.680355,45.624351],[-122.680326,45.624429],[-122.680072,45.624428],[-122.68007,45.624338],[-122.680258,45.624338],[-122.68031,45.624319],[-122.680324,45.624197],[-122.680266,45.624159],[-122.679968,45.624141],[-122.679909,45.6242],[-122.679958,45.62433],[-122.679726,45.624343],[-122.679689,45.624375],[-122.679685,45.624427],[-122.679577,45.624433],[-122.679537,45.624482],[-122.679569,45.624582],[-122.679684,45.624607],[-122.679712,45.624685],[-122.67994,45.624698],[-122.679939,45.624787],[-122.679846,45.62479],[-122.679796,45.624822],[-122.679812,45.624924],[-122.679872,45.624966],[-122.680067,45.624968],[-122.680066,45.625058],[-122.679601,45.625061],[-122.679559,45.62509],[-122.679553,45.625146],[-122.679437,45.62517],[-122.679424,45.625236],[-122.679313,45.625256],[-122.679295,45.625326],[-122.679039,45.625325],[-122.679036,45.625273],[-122.678998,45.625241],[-122.678783,45.625234],[-122.67877,45.625168],[-122.678655,45.625144],[-122.678621,45.625063],[-122.678399,45.625053],[-122.6784,45.624873],[-122.678494,45.624864],[-122.678529,45.624784],[-122.678602,45.624781],[-122.678648,45.624755],[-122.678658,45.624604],[-122.678731,45.624602],[-122.678777,45.624576],[-122.678787,45.624424],[-122.678822,45.624377],[-122.678775,45.624268],[-122.67866,45.624244],[-122.678632,45.624166],[-122.678404,45.624153],[-122.678382,45.624079],[-122.67826,45.624055],[-122.678276,45.623931],[-122.678249,45.623895],[-122.678062,45.623883],[-122.678003,45.623922],[-122.678037,45.624042],[-122.678163,45.62407],[-122.678147,45.624152],[-122.678019,45.624152],[-122.677951,45.624128],[-122.677803,45.624158],[-122.677764,45.624195],[-122.677761,45.624331],[-122.677656,45.624347],[-122.677633,45.624421],[-122.677376,45.62442],[-122.677363,45.624354],[-122.677248,45.62433],[-122.677245,45.624278],[-122.677208,45.624246],[-122.676992,45.624239],[-122.676984,45.624178],[-122.676931,45.62415],[-122.676608,45.624148],[-122.676612,45.623989],[-122.676559,45.623968],[-122.676352,45.623967],[-122.676335,45.623897],[-122.676225,45.623877],[-122.676212,45.623811],[-122.676097,45.623787],[-122.676063,45.623706],[-122.675841,45.623696],[-122.675836,45.623626],[-122.675782,45.623593],[-122.675457,45.623605],[-122.675439,45.623534],[-122.675329,45.623514],[-122.675295,45.623433],[-122.675201,45.623424],[-122.675173,45.623346],[-122.674945,45.623333],[-122.674932,45.623267],[-122.674817,45.623243],[-122.674812,45.623186],[-122.67477,45.623157],[-122.674561,45.623152],[-122.674549,45.623086],[-122.674434,45.623062],[-122.67443,45.62301],[-122.674393,45.622978],[-122.673921,45.62297],[-122.673919,45.622739],[-122.673875,45.622704],[-122.673794,45.6227],[-122.67376,45.622619],[-122.673667,45.62261],[-122.673668,45.62243],[-122.673768,45.622418],[-122.673796,45.62234],[-122.673896,45.622328],[-122.673925,45.62225],[-122.674019,45.622241],[-122.674054,45.622161],[-122.674165,45.622141],[-122.674183,45.621981],[-122.674271,45.621975],[-122.67431,45.621938],[-122.674313,45.621711],[-122.674419,45.621696],[-122.674442,45.621622],[-122.67457,45.621622],[-122.674573,45.621674],[-122.67461,45.621706],[-122.674954,45.621713],[-122.674988,45.621794],[-122.67521,45.621804],[-122.675244,45.621885],[-122.675466,45.621895],[-122.675494,45.621972],[-122.675722,45.621985],[-122.675728,45.622042],[-122.675777,45.622073],[-122.676107,45.622077],[-122.676167,45.622101],[-122.676235,45.622077],[-122.676491,45.622078],[-122.676497,45.622134],[-122.676546,45.622165],[-122.676876,45.622169],[-122.676875,45.622259],[-122.676795,45.622263],[-122.676753,45.622292],[-122.676752,45.622405],[-122.676794,45.622434],[-122.676874,45.622439],[-122.676908,45.62252],[-122.677002,45.622529],[-122.67703,45.622607],[-122.67713,45.622619],[-122.677158,45.622697],[-122.677257,45.62271],[-122.677237,45.622834],[-122.677259,45.622873],[-122.677306,45.62289],[-122.677579,45.62289],[-122.677632,45.622862],[-122.677642,45.622801],[-122.677768,45.622801],[-122.677773,45.622853],[-122.67781,45.622885],[-122.678026,45.622892],[-122.678026,45.622982],[-122.677991,45.62303],[-122.678025,45.623072],[-122.678042,45.623232],[-122.678094,45.623252],[-122.678281,45.623253],[-122.678281,45.623389],[-122.678327,45.623429],[-122.678793,45.623434],[-122.678804,45.62368],[-122.678861,45.623704],[-122.679048,45.623705],[-122.67906,45.623771],[-122.679175,45.623795],[-122.679179,45.623847],[-122.679216,45.623879],[-122.679377,45.623884],[-122.679426,45.623853],[-122.679432,45.623796],[-122.679654,45.623788],[-122.679689,45.623707],[-122.679805,45.623683],[-122.679818,45.623617],[-122.680459,45.623619],[-122.680465,45.623676],[-122.680513,45.623707],[-122.680844,45.62371],[-122.680861,45.62378],[-122.680971,45.6238],[-122.680984,45.623866],[-122.681099,45.623891],[-122.681133,45.623972],[-122.681483,45.623982],[-122.681506,45.624056],[-122.681611,45.624072],[-122.681645,45.624153],[-122.681739,45.624163]],[[-122.674358,45.622792],[-122.674432,45.622753],[-122.674427,45.62264],[-122.674374,45.622613],[-122.67422,45.622618],[-122.674183,45.622649],[-122.674167,45.622761],[-122.67422,45.62279],[-122.674358,45.622792]],[[-122.674819,45.622973],[-122.6749,45.622969],[-122.674941,45.62294],[-122.674947,45.622747],[-122.674894,45.622705],[-122.674754,45.622704],[-122.674701,45.622731],[-122.674691,45.622792],[-122.674611,45.622796],[-122.674569,45.622825],[-122.674565,45.623024],[-122.674616,45.62306],[-122.674764,45.62306],[-122.674813,45.62303],[-122.674819,45.622973]],[[-122.675975,45.623316],[-122.675955,45.623176],[-122.675844,45.623156],[-122.675827,45.623086],[-122.675716,45.623065],[-122.675704,45.622999],[-122.675589,45.622975],[-122.675583,45.622918],[-122.675541,45.622889],[-122.675252,45.622888],[-122.67521,45.622917],[-122.675204,45.622974],[-122.675123,45.622978],[-122.675081,45.623007],[-122.675083,45.623215],[-122.675128,45.623241],[-122.675202,45.623244],[-122.675219,45.623314],[-122.67533,45.623334],[-122.675342,45.6234],[-122.675458,45.623425],[-122.675463,45.623481],[-122.675505,45.623511],[-122.675686,45.623503],[-122.675714,45.623426],[-122.67583,45.623402],[-122.675843,45.623336],[-122.675975,45.623316]],[[-122.676615,45.622928],[-122.676548,45.622874],[-122.676387,45.6229],[-122.676358,45.622977],[-122.676264,45.622979],[-122.676215,45.623011],[-122.676246,45.623137],[-122.676298,45.623157],[-122.676457,45.623145],[-122.676486,45.623068],[-122.67656,45.623066],[-122.676605,45.623039],[-122.676615,45.622928]],[[-122.677634,45.624191],[-122.677574,45.624138],[-122.677391,45.62416],[-122.677358,45.624206],[-122.67739,45.624306],[-122.677446,45.62433],[-122.677599,45.624322],[-122.677632,45.624288],[-122.677634,45.624191]],[[-122.679686,45.624788],[-122.679629,45.624773],[-122.679571,45.624793],[-122.679555,45.624841],[-122.679581,45.624877],[-122.679643,45.62489],[-122.679702,45.624864],[-122.679716,45.624824],[-122.679686,45.624788]]]}},{"type":"Feature","properties":{"id":29,"area_m2":32700,"px":327,"rank":2,"persistent":false},"geometry":{"type":"Polygon","coordinates":[[[-122.683377,45.629388],[-122.683376,45.629658],[-122.682734,45.629656],[-122.682712,45.629582],[-122.682607,45.629565],[-122.682598,45.629414],[-122.682553,45.629388],[-122.682479,45.629385],[-122.682452,45.629307],[-122.682095,45.629294],[-122.682073,45.62913],[-122.681916,45.629114],[-122.681857,45.629133],[-122.681837,45.629473],[-122.681803,45.629516],[-122.681837,45.629563],[-122.681836,45.629653],[-122.681736,45.629665],[-122.681707,45.629743],[-122.68162,45.629749],[-122.68158,45.629786],[-122.681576,45.630324],[-122.681638,45.630372],[-122.68196,45.630374],[-122.681983,45.630448],[-122.682088,45.630464],[-122.682088,45.630554],[-122.681982,45.63057],[-122.681959,45.630644],[-122.681643,45.630643],[-122.681583,45.630671],[-122.681582,45.630794],[-122.681628,45.630821],[-122.681701,45.630823],[-122.6817,45.631093],[-122.681594,45.631109],[-122.681571,45.631183],[-122.681092,45.631191],[-122.681058,45.63123],[-122.681057,45.631361],[-122.6807,45.631373],[-122.680672,45.631409],[-122.680671,45.63154],[-122.68059,45.631544],[-122.680546,45.631578],[-122.680541,45.63181],[-122.680435,45.631825],[-122.680412,45.6319],[-122.680156,45.631899],[-122.680156,45.631582],[-122.680117,45.631545],[-122.680029,45.631537],[-122.68003,45.631449],[-122.680111,45.631445],[-122.680155,45.631411],[-122.68016,45.631179],[-122.680288,45.631179],[-122.680348,45.631203],[-122.680416,45.63118],[-122.680545,45.63118],[-122.680613,45.631204],[-122.680673,45.63118],[-122.68086,45.631181],[-122.680912,45.631161],[-122.680931,45.630911],[-122.681042,45.630892],[-122.681094,45.630784],[-122.68106,45.630731],[-122.681061,45.630415],[-122.680985,45.630371],[-122.679395,45.630367],[-122.679394,45.63014],[-122.679355,45.630103],[-122.679268,45.630096],[-122.679269,45.629916],[-122.67935,45.629912],[-122.679394,45.629878],[-122.679399,45.629647],[-122.679613,45.629646],[-122.67967,45.629613],[-122.679643,45.629491],[-122.679528,45.629467],[-122.679529,45.629377],[-122.679634,45.629361],[-122.679657,45.629287],[-122.679751,45.629278],[-122.679786,45.629198],[-122.679897,45.629178],[-122.679915,45.629108],[-122.680245,45.629107],[-122.680294,45.629076],[-122.6803,45.629019],[-122.680754,45.629033],[-122.680808,45.629001],[-122.680814,45.62893],[-122.681176,45.628916],[-122.6812,45.628752],[-122.681387,45.628752],[-122.681439,45.628732],[-122.681458,45.628482],[-122.681546,45.628476],[-122.681585,45.628439],[-122.681574,45.628326],[-122.681459,45.628302],[-122.681462,45.628122],[-122.681588,45.628123],[-122.681594,45.628193],[-122.68164,45.628224],[-122.681844,45.628213],[-122.681867,45.628287],[-122.681972,45.628304],[-122.681985,45.62837],[-122.6821,45.628394],[-122.682128,45.628472],[-122.682228,45.628484],[-122.682244,45.628645],[-122.682355,45.628665],[-122.682354,45.628755],[-122.68197,45.628754],[-122.681902,45.628729],[-122.681747,45.628762],[-122.681713,45.628807],[-122.681739,45.628934],[-122.681969,45.628934],[-122.682002,45.629015],[-122.682163,45.629023],[-122.682216,45.628996],[-122.682225,45.628934],[-122.682427,45.628933],[-122.682476,45.628902],[-122.682482,45.628845],[-122.68261,45.628845],[-122.682644,45.628926],[-122.682867,45.628936],[-122.682889,45.62901],[-122.682994,45.629027],[-122.683009,45.629289],[-122.682958,45.629344],[-122.683008,45.629394],[-122.682972,45.629511],[-122.682993,45.62955],[-122.683179,45.629567],[-122.683245,45.629529],[-122.683236,45.629411],[-122.683105,45.629379],[-122.683121,45.629297],[-122.683249,45.629297],[-122.683272,45.629371],[-122.683377,45.629388]],[[-122.680387,45.63027],[-122.680426,45.63012],[-122.680294,45.630099],[-122.680277,45.630029],[-122.680167,45.630009],[-122.680154,45.629943],[-122.680039,45.629918],[-122.680036,45.629867],[-122.679998,45.629835],[-122.679595,45.629827],[-122.679535,45.629855],[-122.679525,45.630062],[-122.679564,45.630104],[-122.679781,45.630098],[-122.67979,45.630159],[-122.679842,45.630187],[-122.680165,45.630189],[-122.680174,45.63025],[-122.680234,45.630279],[-122.680387,45.63027]],[[-122.679807,45.629452],[-122.68011,45.629481],[-122.680164,45.629449],[-122.680148,45.629304],[-122.679982,45.629264],[-122.679808,45.629303],[-122.679785,45.629342],[-122.679807,45.629452]],[[-122.680167,45.629557],[-122.680116,45.629535],[-122.680059,45.629545],[-122.680021,45.629587],[-122.680037,45.629628],[-122.68009,45.629648],[-122.680161,45.629636],[-122.680188,45.629598],[-122.680167,45.629557]],[[-122.680898,45.629567],[-122.680757,45.629547],[-122.680704,45.629563],[-122.680682,45.62965],[-122.680346,45.629649],[-122.680299,45.629666],[-122.680277,45.629705],[-122.680318,45.629903],[-122.680372,45.629919],[-122.68086,45.629921],[-122.680914,45.629905],[-122.680937,45.629872],[-122.680937,45.629604],[-122.680898,45.629567]],[[-122.680701,45.62925],[-122.680675,45.629139],[-122.680623,45.629111],[-122.680362,45.62911],[-122.680301,45.629152],[-122.680302,45.629251],[-122.680361,45.629288],[-122.680657,45.629286],[-122.680701,45.62925]],[[-122.6809,45.630272],[-122.680952,45.630141],[-122.680901,45.630103],[-122.680721,45.630101],[-122.680662,45.63014],[-122.680684,45.630247],[-122.680733,45.630278],[-122.6809,45.630272]],[[-122.681248,45.629292],[-122.681324,45.629248],[-122.681309,45.629042],[-122.68125,45.629022],[-122.68097,45.629033],[-122.680941,45.629075],[-122.680958,45.629271],[-122.68101,45.629291],[-122.681248,45.629292]],[[-122.682403,45.629205],[-122.682477,45.629167],[-122.682472,45.629054],[-122.682419,45.629026],[-122.682265,45.629031],[-122.682226,45.629068],[-122.682233,45.629176],[-122.682286,45.629204],[-122.682403,45.629205]]]}},{"type":"Feature","properties":{"id":105,"area_m2":30300,"px":303,"rank":3,"persistent":false},"geometry":{"type":"Polygon","coordinates":[[[-122.673648,45.62585],[-122.673645,45.62621],[-122.673545,45.626222],[-122.673517,45.626299],[-122.673401,45.626323],[-122.673388,45.626389],[-122.673282,45.626405],[-122.673239,45.626513],[-122.673301,45.626568],[-122.673643,45.62657],[-122.67364,45.62711],[-122.673384,45.627109],[-122.673379,45.626873],[-122.673338,45.626843],[-122.673203,45.626825],[-122.67313,45.626868],[-122.673127,45.627108],[-122.672871,45.627108],[-122.672867,45.626781],[-122.672825,45.626752],[-122.672677,45.626723],[-122.672616,45.626747],[-122.672279,45.62675],[-122.672233,45.626789],[-122.67223,45.626926],[-122.672102,45.626925],[-122.672034,45.626901],[-122.671858,45.626949],[-122.671845,45.627051],[-122.671867,45.627089],[-122.672229,45.627106],[-122.672229,45.627196],[-122.671716,45.627194],[-122.671655,45.62717],[-122.671587,45.627194],[-122.671074,45.627193],[-122.671053,45.627015],[-122.671001,45.626999],[-122.670819,45.627012],[-122.67082,45.626832],[-122.670907,45.626826],[-122.670947,45.626789],[-122.67095,45.626562],[-122.671037,45.626556],[-122.671077,45.626519],[-122.671096,45.626422],[-122.671022,45.626382],[-122.670728,45.626391],[-122.670694,45.62643],[-122.670693,45.626561],[-122.670477,45.626567],[-122.670439,45.626599],[-122.670436,45.626651],[-122.670073,45.626665],[-122.670051,45.626704],[-122.670048,45.6271],[-122.66992,45.627099],[-122.669923,45.626559],[-122.670034,45.62654],[-122.670072,45.626435],[-122.670032,45.626386],[-122.669924,45.626379],[-122.669926,45.626109],[-122.670032,45.626094],[-122.670055,45.62602],[-122.67017,45.625996],[-122.670184,45.62593],[-122.670407,45.625935],[-122.670441,45.625841],[-122.670569,45.625841],[-122.670571,45.625996],[-122.67065,45.626035],[-122.67079,45.626013],[-122.670825,45.625932],[-122.67094,45.625908],[-122.670954,45.625842],[-122.671065,45.625823],[-122.671117,45.62571],[-122.671083,45.625661],[-122.671087,45.625032],[-122.671303,45.625027],[-122.67134,45.624995],[-122.671344,45.624943],[-122.6716,45.624944],[-122.671603,45.624996],[-122.671641,45.625028],[-122.671856,45.625035],[-122.671857,45.625171],[-122.671903,45.625211],[-122.67224,45.625216],[-122.672243,45.625267],[-122.67228,45.6253],[-122.672496,45.625307],[-122.672496,45.625396],[-122.672461,45.625439],[-122.672495,45.625487],[-122.672494,45.625666],[-122.672366,45.625666],[-122.672349,45.625596],[-122.672238,45.625576],[-122.672229,45.625514],[-122.672169,45.625486],[-122.671773,45.625489],[-122.671731,45.625518],[-122.671705,45.625614],[-122.671745,45.625658],[-122.671853,45.625665],[-122.671856,45.625716],[-122.671893,45.625748],[-122.672237,45.625756],[-122.672259,45.62583],[-122.672365,45.625846],[-122.672364,45.625936],[-122.672284,45.62594],[-122.672239,45.625974],[-122.672236,45.626162],[-122.672296,45.626205],[-122.672491,45.626207],[-122.672492,45.626357],[-122.672529,45.626394],[-122.672692,45.626385],[-122.672745,45.626344],[-122.67275,45.625757],[-122.673392,45.625759],[-122.673395,45.625811],[-122.673432,45.625843],[-122.673648,45.62585]],[[-122.670431,45.626527],[-122.670472,45.626423],[-122.670416,45.626293],[-122.670356,45.626277],[-122.670204,45.626306],[-122.670146,45.626422],[-122.670202,45.626544],[-122.670389,45.626556],[-122.670431,45.626527]],[[-122.671395,45.626498],[-122.671544,45.62647],[-122.671586,45.626441],[-122.67157,45.62631],[-122.671516,45.626294],[-122.67123,45.626309],[-122.671188,45.626412],[-122.671209,45.626456],[-122.671395,45.626498]],[[-122.671503,45.625447],[-122.671454,45.625311],[-122.671551,45.6253],[-122.671595,45.625266],[-122.671599,45.625083],[-122.671552,45.625038],[-122.671413,45.625034],[-122.671343,45.625082],[-122.671357,45.625296],[-122.671254,45.625309],[-122.671215,45.625346],[-122.671235,45.625557],[-122.671289,45.625573],[-122.671446,45.625558],[-122.671503,45.625447]],[[-122.671383,45.627103],[-122.671456,45.627065],[-122.671451,45.626952],[-122.671399,45.626925],[-122.671245,45.626929],[-122.671205,45.626966],[-122.671212,45.627074],[-122.671265,45.627102],[-122.671383,45.627103]],[[-122.672124,45.62634],[-122.6721,45.626239],[-122.672052,45.626208],[-122.671904,45.626207],[-122.671853,45.626243],[-122.671852,45.626346],[-122.671903,45.626383],[-122.672091,45.626376],[-122.672124,45.62634]],[[-122.67203,45.626025],[-122.672104,45.625987],[-122.672099,45.625874],[-122.672046,45.625846],[-122.671892,45.625851],[-122.671853,45.625888],[-122.67186,45.625996],[-122.671913,45.626024],[-122.67203,45.626025]]]}},{"type":"Feature","properties":{"id":108,"area_m2":22400,"px":224,"rank":4,"persistent":false},"geometry":{"type":"Polygon","coordinates":[[[-122.683912,45.625519],[-122.683911,45.625789],[-122.683823,45.625795],[-122.683782,45.625837],[-122.683781,45.625968],[-122.683747,45.626011],[-122.683781,45.626058],[-122.68378,45.626148],[-122.683674,45.626164],[-122.683651,45.626238],[-122.683536,45.626262],[-122.683523,45.626328],[-122.683266,45.626327],[-122.683267,45.626237],[-122.683461,45.626236],[-122.683518,45.626204],[-122.683524,45.626003],[-122.683492,45.625963],[-122.683309,45.625973],[-122.683271,45.626005],[-122.683268,45.626057],[-122.683011,45.626056],[-122.683012,45.625966],[-122.683106,45.625957],[-122.683141,45.625877],[-122.683214,45.625874],[-122.68326,45.625848],[-122.683252,45.625717],[-122.6832,45.625697],[-122.683013,45.625696],[-122.68301,45.625645],[-122.682973,45.625612],[-122.682768,45.625617],[-122.682697,45.625581],[-122.682636,45.625599],[-122.682609,45.625645],[-122.682649,45.625689],[-122.682757,45.625696],[-122.682757,45.626197],[-122.682816,45.626235],[-122.68301,45.626236],[-122.68301,45.626326],[-122.682753,45.626325],[-122.682744,45.626264],[-122.682684,45.626236],[-122.681471,45.626232],[-122.681492,45.625827],[-122.681446,45.625786],[-122.681345,45.62578],[-122.681347,45.625422],[-122.681455,45.625415],[-122.681495,45.625372],[-122.681477,45.624925],[-122.681416,45.624883],[-122.681222,45.624881],[-122.681237,45.624736],[-122.681188,45.624703],[-122.681095,45.624701],[-122.681095,45.624611],[-122.68148,45.624612],[-122.681555,45.624636],[-122.681708,45.6246],[-122.681737,45.624523],[-122.681993,45.624523],[-122.682006,45.624589],[-122.682121,45.624614],[-122.682155,45.624695],[-122.682377,45.624704],[-122.682383,45.624761],[-122.682431,45.624792],[-122.682633,45.624795],[-122.682639,45.624852],[-122.68268,45.624881],[-122.683018,45.624886],[-122.683021,45.624938],[-122.683058,45.62497],[-122.683274,45.624977],[-122.683327,45.625001],[-122.683402,45.624977],[-122.683659,45.624978],[-122.683681,45.625052],[-122.683786,45.625068],[-122.683769,45.625484],[-122.683818,45.625516],[-122.683912,45.625519]],[[-122.682246,45.625284],[-122.682179,45.62523],[-122.682007,45.625263],[-122.682004,45.625416],[-122.681894,45.625432],[-122.68186,45.625513],[-122.681779,45.625517],[-122.681737,45.625546],[-122.681731,45.625644],[-122.681759,45.62568],[-122.681939,45.625689],[-122.681981,45.62566],[-122.681988,45.625603],[-122.682098,45.625584],[-122.682101,45.625431],[-122.682232,45.6254],[-122.682246,45.625284]],[[-122.68198,45.62593],[-122.682005,45.625828],[-122.681966,45.62579],[-122.681777,45.625787],[-122.681731,45.625826],[-122.681735,45.625943],[-122.681796,45.625976],[-122.681938,45.625959],[-122.68198,45.62593]],[[-122.682421,45.626145],[-122.682496,45.626101],[-122.682498,45.625828],[-122.682445,45.625787],[-122.682305,45.625785],[-122.682244,45.625828],[-122.682224,45.626104],[-122.682275,45.626142],[-122.682421,45.626145]]]}},{"type":"Feature","properties":{"id":36,"area_m2":21000,"px":210,"rank":5,"persistent":false},"geometry":{"type":"Polygon","coordinates":[[[-122.672852,45.630348],[-122.672851,45.630528],[-122.672622,45.63054],[-122.672594,45.630576],[-122.672593,45.630707],[-122.672512,45.630711],[-122.67247,45.63074],[-122.672463,45.630977],[-122.672012,45.630977],[-122.671959,45.631004],[-122.671949,45.631065],[-122.671721,45.631077],[-122.671693,45.631114],[-122.671692,45.631245],[-122.671611,45.631249],[-122.671567,45.631283],[-122.671562,45.631424],[-122.671457,45.63144],[-122.671434,45.631514],[-122.671179,45.63153],[-122.671157,45.631569],[-122.671176,45.631693],[-122.67107,45.631709],[-122.671047,45.631783],[-122.670919,45.631783],[-122.670937,45.631642],[-122.670863,45.631602],[-122.670692,45.631614],[-122.670664,45.631651],[-122.670662,45.631782],[-122.670534,45.631781],[-122.670535,45.631602],[-122.670641,45.631586],[-122.670664,45.631512],[-122.671001,45.631509],[-122.671043,45.63148],[-122.67106,45.631412],[-122.671387,45.63142],[-122.671433,45.631381],[-122.671434,45.631288],[-122.671388,45.631248],[-122.671232,45.63122],[-122.671073,45.631259],[-122.671039,45.631344],[-122.670922,45.631333],[-122.670922,45.631243],[-122.67101,45.631236],[-122.671049,45.631199],[-122.671048,45.631101],[-122.670982,45.631063],[-122.670836,45.631069],[-122.670798,45.631101],[-122.670794,45.631152],[-122.670679,45.631176],[-122.670665,45.631242],[-122.670537,45.631241],[-122.67055,45.631091],[-122.670496,45.631062],[-122.670282,45.631061],[-122.670261,45.630883],[-122.670208,45.630867],[-122.670026,45.63088],[-122.670004,45.630806],[-122.669899,45.63079],[-122.669901,45.63043],[-122.670006,45.630414],[-122.670029,45.63034],[-122.670508,45.630332],[-122.670543,45.630251],[-122.670637,45.630249],[-122.670679,45.630227],[-122.670672,45.630072],[-122.670778,45.630056],[-122.670801,45.629982],[-122.670929,45.629983],[-122.670942,45.630049],[-122.671006,45.630073],[-122.671151,45.630064],[-122.671186,45.629983],[-122.671532,45.629991],[-122.671568,45.62996],[-122.671572,45.629894],[-122.671652,45.62989],[-122.671697,45.629856],[-122.671703,45.629625],[-122.672086,45.629626],[-122.672095,45.629701],[-122.67216,45.62973],[-122.672314,45.629704],[-122.672343,45.629627],[-122.672471,45.629627],[-122.672493,45.629701],[-122.672599,45.629717],[-122.672598,45.629897],[-122.672524,45.629899],[-122.672478,45.629925],[-122.672468,45.630077],[-122.672363,45.630092],[-122.67234,45.630166],[-122.672131,45.63017],[-122.672089,45.630199],[-122.672082,45.630256],[-122.671956,45.630272],[-122.671935,45.630317],[-122.671981,45.630423],[-122.672169,45.63043],[-122.672207,45.630398],[-122.67221,45.630346],[-122.672595,45.630347],[-122.672655,45.630372],[-122.672724,45.630348],[-122.672852,45.630348]],[[-122.670207,45.6307],[-122.670283,45.630657],[-122.670282,45.630469],[-122.670231,45.630433],[-122.670083,45.630432],[-122.67003,45.630473],[-122.670031,45.630662],[-122.670082,45.630698],[-122.670207,45.6307]],[[-122.671075,45.630298],[-122.671051,45.630196],[-122.671002,45.630165],[-122.670842,45.630163],[-122.670783,45.630202],[-122.670805,45.630309],[-122.670854,45.63034],[-122.671042,45.630333],[-122.671075,45.630298]],[[-122.671873,45.630975],[-122.671949,45.630932],[-122.671948,45.630744],[-122.671897,45.630708],[-122.671748,45.630694],[-122.671695,45.63074],[-122.671697,45.630936],[-122.671748,45.630973],[-122.671873,45.630975]],[[-122.671748,45.630626],[-122.671939,45.630591],[-122.67195,45.630474],[-122.671899,45.630438],[-122.671751,45.630437],[-122.671698,45.630478],[-122.671699,45.63059],[-122.671748,45.630626]]]}},{"type":"Feature","properties":{"id":8,"area_m2":14400,"px":144,"rank":6,"persistent":true},"geometry":{"type":"Polygon","coordinates":[[[-122.690291,45.631837],[-122.690284,45.633097],[-122.690028,45.633096],[-122.690025,45.633045],[-122.689988,45.633012],[-122.689772,45.633005],[-122.689771,45.632869],[-122.689711,45.632826],[-122.689516,45.632825],[-122.689433,45.632802],[-122.689282,45.63284],[-122.689259,45.632914],[-122.689131,45.632914],[-122.689125,45.632857],[-122.689084,45.632828],[-122.688747,45.632823],[-122.688743,45.632771],[-122.688706,45.632739],[-122.688437,45.632718],[-122.688371,45.632747],[-122.688361,45.632822],[-122.688233,45.632821],[-122.688242,45.632576],[-122.688185,45.632551],[-122.687978,45.632551],[-122.687979,45.632371],[-122.688213,45.632355],[-122.688236,45.632281],[-122.688317,45.632277],[-122.688359,45.632248],[-122.688366,45.632102],[-122.688471,45.632086],[-122.688494,45.632012],[-122.688723,45.632],[-122.688752,45.631923],[-122.688852,45.631911],[-122.68888,45.631833],[-122.68898,45.631821],[-122.689009,45.631743],[-122.689103,45.631734],[-122.689138,45.631654],[-122.689249,45.631634],[-122.689267,45.631474],[-122.689524,45.631475],[-122.689523,45.631655],[-122.689417,45.63167],[-122.689394,45.631744],[-122.689294,45.631756],[-122.689265,45.631834],[-122.689165,45.631846],[-122.689136,45.631924],[-122.689042,45.631933],[-122.689007,45.632013],[-122.688897,45.632033],[-122.688879,45.632103],[-122.688663,45.632109],[-122.688625,45.632141],[-122.688622,45.632192],[-122.688506,45.632216],[-122.688493,45.632282],[-122.688387,45.632297],[-122.688364,45.632413],[-122.688398,45.632453],[-122.688552,45.632486],[-122.68862,45.632462],[-122.688843,45.632454],[-122.688877,45.632373],[-122.688993,45.632349],[-122.689006,45.632283],[-122.689117,45.632264],[-122.689135,45.632194],[-122.689246,45.632174],[-122.689264,45.632104],[-122.689492,45.632092],[-122.689521,45.632015],[-122.689615,45.632006],[-122.68965,45.631925],[-122.68976,45.631906],[-122.689778,45.631835],[-122.690291,45.631837]]]}},{"type":"Feature","properties":{"id":102,"area_m2":10900,"px":109,"rank":7,"persistent":true},"geometry":{"type":"Polygon","coordinates":[[[-122.679929,45.626588],[-122.679926,45.627128],[-122.67982,45.627143],[-122.679797,45.627217],[-122.678258,45.627213],[-122.678263,45.626403],[-122.678904,45.626405],[-122.67892,45.626655],[-122.678964,45.626674],[-122.679228,45.626688],[-122.679284,45.626651],[-122.679288,45.626545],[-122.679248,45.626502],[-122.67916,45.626495],[-122.679162,45.626226],[-122.679418,45.626226],[-122.67944,45.6263],[-122.679546,45.626317],[-122.679563,45.626387],[-122.679674,45.626407],[-122.679708,45.626488],[-122.679801,45.626497],[-122.679829,45.626575],[-122.679929,45.626588]]]}},{"type":"Feature","properties":{"id":52,"area_m2":10700,"px":107,"rank":8,"persistent":false},"geometry":{"type":"Polygon","coordinates":[[[-122.671577,45.628904],[-122.671574,45.629444],[-122.67148,45.629453],[-122.671445,45.629534],[-122.671334,45.629553],[-122.671316,45.629714],[-122.67121,45.629729],[-122.671187,45.629803],[-122.670931,45.629802],[-122.670932,45.629622],[-122.670966,45.629575],[-122.670932,45.629532],[-122.670934,45.629221],[-122.670906,45.629185],[-122.670481,45.629159],[-122.670427,45.629191],[-122.67042,45.629261],[-122.670292,45.629261],[-122.670271,45.629096],[-122.670216,45.62908],[-122.670059,45.629096],[-122.670036,45.629134],[-122.670044,45.629411],[-122.670097,45.629439],[-122.670291,45.629441],[-122.670279,45.629591],[-122.670325,45.629618],[-122.670418,45.629621],[-122.670416,45.629981],[-122.670311,45.629997],[-122.670287,45.630071],[-122.670105,45.630056],[-122.670053,45.630073],[-122.67003,45.63025],[-122.669773,45.630249],[-122.669774,45.630159],[-122.669868,45.63015],[-122.669902,45.630106],[-122.66989,45.630003],[-122.669775,45.629979],[-122.669777,45.629619],[-122.669871,45.62961],[-122.669906,45.629565],[-122.669907,45.629218],[-122.669867,45.629176],[-122.66978,45.629169],[-122.669781,45.628899],[-122.669997,45.628893],[-122.670035,45.628861],[-122.670038,45.62881],[-122.670632,45.628807],[-122.670679,45.628768],[-122.670683,45.628632],[-122.670809,45.628632],[-122.670814,45.628779],[-122.670856,45.628808],[-122.670936,45.628812],[-122.670942,45.628869],[-122.670983,45.628898],[-122.671152,45.628897],[-122.671189,45.628865],[-122.671193,45.628813],[-122.671448,45.628814],[-122.671472,45.628888],[-122.671577,45.628904]]]}},{"type":"Feature","properties":{"id":88,"area_m2":10600,"px":106,"rank":9,"persistent":false},"geometry":{"type":"Polygon","coordinates":[[[-122.673767,45.62729],[-122.673763,45.62801],[-122.672737,45.628007],[-122.672729,45.627856],[-122.672683,45.62783],[-122.67261,45.627827],[-122.672601,45.627766],[-122.672548,45.627738],[-122.671903,45.627736],[-122.67185,45.627763],[-122.67184,45.627825],[-122.671714,45.627825],[-122.671704,45.62775],[-122.671631,45.627721],[-122.671484,45.627746],[-122.671455,45.627824],[-122.671071,45.627823],[-122.671048,45.627748],[-122.670943,45.627732],[-122.670942,45.627596],[-122.670903,45.627559],[-122.67074,45.627541],[-122.670693,45.627571],[-122.670687,45.627641],[-122.670558,45.627641],[-122.670559,45.627461],[-122.670647,45.627455],[-122.670686,45.627418],[-122.670689,45.627192],[-122.670817,45.627192],[-122.670826,45.627267],[-122.670891,45.627296],[-122.672485,45.627287],[-122.672512,45.627365],[-122.672659,45.627391],[-122.672732,45.627362],[-122.672741,45.627287],[-122.673254,45.627289],[-122.673315,45.627313],[-122.673383,45.627289],[-122.673767,45.62729]],[[-122.673636,45.62778],[-122.67357,45.627726],[-122.673252,45.627739],[-122.673236,45.627489],[-122.673125,45.627468],[-122.67312,45.627412],[-122.673071,45.627381],[-122.672931,45.627379],[-122.672882,45.627402],[-122.672867,45.627774],[-122.672901,45.627819],[-122.673123,45.627829],[-122.673132,45.62789],[-122.673184,45.627918],[-122.673566,45.62792],[-122.673633,45.627882],[-122.673636,45.62778]]]}},{"type":"Feature","properties":{"id":73,"area_m2":10300,"px":103,"rank":10,"persistent":false},"geometry":{"type":"Polygon","coordinates":[[[-122.679151,45.627667],[-122.679119,45.627713],[-122.679153,45.627756],[-122.679152,45.627846],[-122.679079,45.627848],[-122.679033,45.627874],[-122.679023,45.628025],[-122.678459,45.628024],[-122.678399,45.628043],[-122.67838,45.62833],[-122.678414,45.628375],[-122.678508,45.628384],[-122.678513,45.628441],[-122.678562,45.628472],[-122.679149,45.628476],[-122.679148,45.628566],[-122.679114,45.628608],[-122.679148,45.628656],[-122.679147,45.628746],[-122.677864,45.628742],[-122.677837,45.628664],[-122.677608,45.628651],[-122.677603,45.628595],[-122.677561,45.628565],[-122.67742,45.628537],[-122.677352,45.628561],[-122.677224,45.62856],[-122.677227,45.62802],[-122.678348,45.628014],[-122.678382,45.627975],[-122.678384,45.627664],[-122.678471,45.627657],[-122.678511,45.62762],[-122.678514,45.627394],[-122.678642,45.627394],[-122.678702,45.627418],[-122.67877,45.627395],[-122.679155,45.627396],[-122.679151,45.627667]],[[-122.678893,45.62773],[-122.678931,45.627612],[-122.678875,45.627501],[-122.678731,45.627471],[-122.678668,45.627483],[-122.678641,45.627524],[-122.678662,45.627738],[-122.678851,45.627764],[-122.678893,45.62773]]]}},{"type":"Feature","properties":{"id":104,"area_m2":9100,"px":91,"rank":11,"persistent":false},"geometry":{"type":"Polygon","coordinates":[[[-122.677624,45.625861],[-122.677623,45.626041],[-122.677529,45.62605],[-122.677495,45.626095],[-122.677507,45.626197],[-122.677622,45.626221],[-122.677621,45.626491],[-122.677547,45.626493],[-122.677501,45.626519],[-122.677491,45.626671],[-122.677297,45.626671],[-122.677244,45.626699],[-122.677233,45.62703],[-122.677139,45.627032],[-122.677093,45.627059],[-122.677103,45.62721],[-122.676077,45.627207],[-122.67608,45.626667],[-122.676186,45.626651],[-122.676209,45.626577],[-122.676432,45.626569],[-122.676466,45.626488],[-122.676784,45.626502],[-122.67685,45.626459],[-122.676836,45.626059],[-122.676777,45.626039],[-122.676503,45.626047],[-122.676469,45.626087],[-122.676467,45.626308],[-122.676339,45.626307],[-122.676341,45.626038],[-122.676446,45.626022],[-122.676469,45.625948],[-122.67682,45.62594],[-122.676855,45.625859],[-122.67697,45.625835],[-122.676984,45.625769],[-122.677496,45.625771],[-122.677519,45.625845],[-122.677624,45.625861]],[[-122.676589,45.627026],[-122.676539,45.627005],[-122.676481,45.627015],[-122.676444,45.627057],[-122.67646,45.627097],[-122.676512,45.627118],[-122.676583,45.627106],[-122.676611,45.627068],[-122.676589,45.627026]],[[-122.676846,45.627027],[-122.676795,45.627005],[-122.676738,45.627015],[-122.6767,45.627057],[-122.676716,45.627098],[-122.676769,45.627119],[-122.67684,45.627106],[-122.676867,45.627069],[-122.676846,45.627027]],[[-122.677109,45.626668],[-122.67714,45.626633],[-122.677126,45.626593],[-122.677068,45.626566],[-122.677006,45.626579],[-122.676979,45.626614],[-122.676995,45.626663],[-122.677053,45.626683],[-122.677109,45.626668]]]}},{"type":"Feature","properties":{"id":47,"area_m2":7200,"px":72,"rank":12,"persistent":false},"geometry":{"type":"Polygon","coordinates":[[[-122.679139,45.630096],[-122.679136,45.630726],[-122.67903,45.630741],[-122.679007,45.630815],[-122.678751,45.630815],[-122.678738,45.630749],[-122.678674,45.630725],[-122.678529,45.630733],[-122.678494,45.630814],[-122.678238,45.630813],[-122.678215,45.630739],[-122.67811,45.630723],[-122.678093,45.630563],[-122.677936,45.630529],[-122.677863,45.630558],[-122.677853,45.630632],[-122.677743,45.630652],[-122.677725,45.630722],[-122.677597,45.630722],[-122.677605,45.630567],[-122.677563,45.630544],[-122.677469,45.630541],[-122.677447,45.630467],[-122.677342,45.630451],[-122.677342,45.630361],[-122.677377,45.630318],[-122.677343,45.630271],[-122.677343,45.630181],[-122.677449,45.630165],[-122.677472,45.630091],[-122.677857,45.630092],[-122.677857,45.630319],[-122.677932,45.630362],[-122.67805,45.630362],[-122.678099,45.630339],[-122.678147,45.630231],[-122.678113,45.630183],[-122.678113,45.630093],[-122.678219,45.630077],[-122.678242,45.630003],[-122.678499,45.630004],[-122.678507,45.630066],[-122.678568,45.630094],[-122.679139,45.630096]],[[-122.678931,45.630725],[-122.679005,45.630687],[-122.678999,45.630574],[-122.678947,45.630546],[-122.678791,45.630538],[-122.678752,45.63058],[-122.67876,45.630696],[-122.678813,45.630724],[-122.678931,45.630725]]]}},{"type":"Feature","properties":{"id":98,"area_m2":7200,"px":72,"rank":13,"persistent":false},"geometry":{"type":"Polygon","coordinates":[[[-122.687111,45.627058],[-122.68711,45.627148],[-122.687004,45.627163],[-122.686981,45.627237],[-122.686853,45.627237],[-122.686848,45.62718],[-122.686806,45.627151],[-122.686469,45.627146],[-122.686466,45.627094],[-122.686429,45.627062],[-122.686213,45.627055],[-122.686179,45.626974],[-122.686019,45.626966],[-122.685958,45.627008],[-122.685955,45.627234],[-122.685699,45.627234],[-122.685676,45.62716],[-122.685571,45.627143],[-122.685538,45.627049],[-122.685186,45.627052],[-122.685174,45.626986],[-122.685059,45.626962],[-122.685025,45.626881],[-122.684803,45.626871],[-122.684803,45.626781],[-122.68576,45.626784],[-122.68582,45.626756],[-122.68583,45.626694],[-122.686064,45.626679],[-122.686084,45.626553],[-122.68604,45.626519],[-122.685959,45.626514],[-122.685959,45.626383],[-122.685926,45.626343],[-122.685319,45.626333],[-122.68532,45.626153],[-122.685426,45.626137],[-122.685449,45.626063],[-122.685833,45.626064],[-122.685855,45.626138],[-122.685961,45.626154],[-122.685995,45.626235],[-122.686089,45.626245],[-122.686091,45.626386],[-122.686135,45.626421],[-122.686216,45.626425],[-122.686238,45.626589],[-122.686343,45.626606],[-122.686361,45.626676],[-122.686471,45.626696],[-122.686505,45.626777],[-122.686599,45.626786],[-122.686627,45.626864],[-122.686727,45.626877],[-122.686755,45.626954],[-122.686854,45.626967],[-122.686882,45.627045],[-122.687111,45.627058]]]}},{"type":"Feature","properties":{"id":72,"area_m2":6500,"px":65,"rank":14,"persistent":false},"geometry":{"type":"Polygon","coordinates":[[[-122.685438,45.627863],[-122.685437,45.628043],[-122.685343,45.628052],[-122.685309,45.628097],[-122.685314,45.628279],[-122.685355,45.628309],[-122.685436,45.628313],[-122.685435,45.628493],[-122.684999,45.628492],[-122.684944,45.628508],[-122.684924,45.628633],[-122.684968,45.628668],[-122.685049,45.628672],[-122.685048,45.628762],[-122.68492,45.628762],[-122.684911,45.6287],[-122.684859,45.628673],[-122.684664,45.628671],[-122.684604,45.628647],[-122.684536,45.628671],[-122.684408,45.62867],[-122.684399,45.628609],[-122.684346,45.628581],[-122.683957,45.62858],[-122.683904,45.628608],[-122.683894,45.628669],[-122.683768,45.628669],[-122.683744,45.628594],[-122.683638,45.628578],[-122.683639,45.628488],[-122.683673,45.628446],[-122.683639,45.628398],[-122.68364,45.628218],[-122.683769,45.628219],[-122.683774,45.628275],[-122.683823,45.628306],[-122.684106,45.628305],[-122.684147,45.628276],[-122.684154,45.62822],[-122.684234,45.628216],[-122.684276,45.628187],[-122.684283,45.62804],[-122.684796,45.628041],[-122.684795,45.628221],[-122.684707,45.628228],[-122.684668,45.628265],[-122.684667,45.628448],[-122.684727,45.62849],[-122.684899,45.628476],[-122.684923,45.628312],[-122.685034,45.628292],[-122.685052,45.628132],[-122.68514,45.628126],[-122.68518,45.628084],[-122.685168,45.627976],[-122.685053,45.627952],[-122.685054,45.627862],[-122.685148,45.627853],[-122.685182,45.627808],[-122.68517,45.627706],[-122.685055,45.627682],[-122.685055,45.627592],[-122.685312,45.627593],[-122.685314,45.627824],[-122.685358,45.627859],[-122.685438,45.627863]]]}},{"type":"Feature","properties":{"id":31,"area_m2":6200,"px":62,"rank":15,"persistent":false},"geometry":{"type":"Polygon","coordinates":[[[-122.674643,45.631163],[-122.674643,45.631253],[-122.674562,45.631257],[-122.674517,45.631291],[-122.674493,45.631467],[-122.674533,45.631516],[-122.674641,45.631523],[-122.67464,45.631613],[-122.674535,45.631629],[-122.674512,45.631703],[-122.674396,45.631727],[-122.674383,45.631793],[-122.674159,45.631788],[-122.674126,45.631882],[-122.673998,45.631881],[-122.673989,45.63182],[-122.673936,45.631792],[-122.673357,45.63179],[-122.673341,45.631449],[-122.673289,45.63143],[-122.672974,45.631428],[-122.672952,45.631354],[-122.672846,45.631338],[-122.672812,45.631257],[-122.672718,45.631248],[-122.672719,45.631158],[-122.672935,45.631152],[-122.672972,45.63112],[-122.672976,45.631069],[-122.673104,45.631069],[-122.673165,45.631093],[-122.673233,45.631069],[-122.673746,45.631071],[-122.673758,45.631137],[-122.673822,45.631161],[-122.673968,45.631152],[-122.674002,45.631071],[-122.674515,45.631073],[-122.674538,45.631147],[-122.674643,45.631163]],[[-122.67365,45.631303],[-122.673611,45.631194],[-122.673569,45.631164],[-122.673383,45.631175],[-122.67336,45.631214],[-122.673381,45.631414],[-122.673436,45.63143],[-122.673593,45.631414],[-122.67365,45.631303]],[[-122.674136,45.631195],[-122.674111,45.631297],[-122.674143,45.631332],[-122.674331,45.63134],[-122.674382,45.631304],[-122.674383,45.631201],[-122.674332,45.631165],[-122.674185,45.631164],[-122.674136,45.631195]]]}},{"type":"Feature","properties":{"id":83,"area_m2":5800,"px":58,"rank":16,"persistent":false},"geometry":{"type":"Polygon","coordinates":[[[-122.681332,45.628032],[-122.681332,45.628122],[-122.681226,45.628137],[-122.681203,45.628211],[-122.681088,45.628235],[-122.681074,45.628301],[-122.680946,45.628301],[-122.680924,45.628226],[-122.680818,45.62821],[-122.680805,45.628144],[-122.68069,45.62812],[-122.680663,45.628042],[-122.680563,45.62803],[-122.680562,45.627893],[-122.680509,45.627852],[-122.68034,45.627845],[-122.680306,45.627939],[-122.680201,45.627954],[-122.680178,45.628028],[-122.679921,45.628028],[-122.679912,45.627966],[-122.67986,45.627939],[-122.679409,45.627936],[-122.67941,45.627666],[-122.679504,45.627664],[-122.67955,45.627637],[-122.679539,45.627487],[-122.67975,45.627496],[-122.679793,45.627463],[-122.679797,45.627397],[-122.680181,45.627399],[-122.680184,45.627464],[-122.680226,45.627498],[-122.680437,45.627489],[-122.680443,45.627559],[-122.680497,45.627592],[-122.680693,45.62758],[-122.680716,45.627654],[-122.680821,45.62767],[-122.680838,45.627741],[-122.680949,45.627761],[-122.680983,45.627842],[-122.681077,45.627851],[-122.681104,45.627929],[-122.681204,45.627941],[-122.681232,45.628019],[-122.681332,45.628032]],[[-122.679842,45.627663],[-122.679992,45.62768],[-122.680043,45.627653],[-122.680046,45.627521],[-122.679991,45.627489],[-122.679823,45.627492],[-122.679776,45.627538],[-122.679801,45.627634],[-122.679842,45.627663]]]}},{"type":"Feature","properties":{"id":56,"area_m2":4800,"px":48,"rank":17,"persistent":false},"geometry":{"type":"Polygon","coordinates":[[[-122.673886,45.628911],[-122.673886,45.629001],[-122.673798,45.629007],[-122.673759,45.629044],[-122.673755,45.62936],[-122.673418,45.629364],[-122.673376,45.629393],[-122.673336,45.629487],[-122.673387,45.62961],[-122.673497,45.62963],[-122.673531,45.629711],[-122.673625,45.62972],[-122.673624,45.62999],[-122.673111,45.629989],[-122.673112,45.629809],[-122.673199,45.629803],[-122.673239,45.629766],[-122.673238,45.629577],[-122.673172,45.629539],[-122.672857,45.629538],[-122.672857,45.629448],[-122.673214,45.629437],[-122.673277,45.629216],[-122.673191,45.629155],[-122.673115,45.629179],[-122.672906,45.629182],[-122.67286,45.629221],[-122.672847,45.629369],[-122.672729,45.629358],[-122.67273,45.629178],[-122.672818,45.629171],[-122.672857,45.629134],[-122.67286,45.628908],[-122.67344,45.628909],[-122.673493,45.628881],[-122.673504,45.62882],[-122.673759,45.628821],[-122.673781,45.628895],[-122.673886,45.628911]]]}},{"type":"Feature","properties":{"id":4,"area_m2":4700,"px":47,"rank":18,"persistent":false},"geometry":{"type":"Polygon","coordinates":[[[-122.672582,45.632598],[-122.672578,45.633227],[-122.672322,45.633227],[-122.672305,45.633157],[-122.672194,45.633136],[-122.672185,45.633075],[-122.672125,45.633047],[-122.671857,45.63305],[-122.671815,45.633079],[-122.671809,45.633135],[-122.671553,45.633135],[-122.671555,45.632685],[-122.671771,45.632679],[-122.671809,45.632647],[-122.671812,45.632595],[-122.67215,45.632592],[-122.672192,45.632563],[-122.672198,45.632506],[-122.672454,45.632507],[-122.672476,45.632581],[-122.672582,45.632598]]]}},{"type":"Feature","properties":{"id":40,"area_m2":4600,"px":46,"rank":19,"persistent":true},"geometry":{"type":"Polygon","coordinates":[[[-122.689783,45.630935],[-122.689782,45.631205],[-122.689676,45.631221],[-122.689653,45.631295],[-122.689268,45.631294],[-122.689246,45.63122],[-122.68914,45.631204],[-122.68914,45.631067],[-122.689087,45.631026],[-122.688818,45.631024],[-122.688765,45.631051],[-122.688756,45.631112],[-122.688499,45.631112],[-122.688477,45.631038],[-122.688372,45.631021],[-122.688373,45.630842],[-122.688478,45.630826],[-122.688501,45.630752],[-122.688617,45.630728],[-122.68863,45.630662],[-122.688832,45.63066],[-122.688881,45.63063],[-122.688887,45.630573],[-122.68911,45.630564],[-122.689144,45.630484],[-122.689529,45.630485],[-122.689529,45.630575],[-122.689428,45.630579],[-122.689383,45.630614],[-122.689405,45.630811],[-122.689446,45.63084],[-122.689527,45.630845],[-122.689533,45.630901],[-122.689574,45.630931],[-122.689783,45.630935]],[[-122.688679,45.631022],[-122.688753,45.630984],[-122.688748,45.630871],[-122.688695,45.630843],[-122.688541,45.630848],[-122.688502,45.630885],[-122.688509,45.630993],[-122.688562,45.631021],[-122.688679,45.631022]]]}},{"type":"Feature","properties":{"id":75,"area_m2":4600,"px":46,"rank":20,"persistent":false},"geometry":{"type":"Polygon","coordinates":[[[-122.672477,45.628188],[-122.672445,45.628234],[-122.672479,45.628277],[-122.672478,45.628367],[-122.672296,45.628352],[-122.672243,45.628369],[-122.672221,45.628546],[-122.672115,45.628562],[-122.672092,45.628636],[-122.671836,45.628635],[-122.671808,45.628557],[-122.671654,45.628531],[-122.671582,45.628569],[-122.671578,45.628724],[-122.67145,45.628724],[-122.67139,45.6287],[-122.671322,45.628723],[-122.671065,45.628723],[-122.671043,45.628648],[-122.670937,45.628632],[-122.670939,45.628362],[-122.67102,45.628358],[-122.671064,45.628324],[-122.671069,45.628093],[-122.671454,45.628094],[-122.671514,45.628118],[-122.671584,45.628094],[-122.67248,45.628097],[-122.672477,45.628188]],[[-122.671399,45.628443],[-122.671208,45.628477],[-122.671177,45.628593],[-122.671228,45.628631],[-122.671391,45.628646],[-122.671449,45.628604],[-122.671448,45.628479],[-122.671399,45.628443]]]}},{"type":"Feature","properties":{"id":111,"area_m2":4300,"px":43,"rank":21,"persistent":false},"geometry":{"type":"Polygon","coordinates":[[[-122.674936,45.624863],[-122.674936,45.624953],[-122.674842,45.624962],[-122.674807,45.625007],[-122.674819,45.625109],[-122.674935,45.625134],[-122.674932,45.625493],[-122.674827,45.625509],[-122.674804,45.625583],[-122.674034,45.625581],[-122.674032,45.625349],[-122.673988,45.625315],[-122.673907,45.62531],[-122.673909,45.625041],[-122.674015,45.625025],[-122.674038,45.624951],[-122.674294,45.624952],[-122.674295,45.625363],[-122.674346,45.625399],[-122.674486,45.625401],[-122.674547,45.625359],[-122.67455,45.625132],[-122.674637,45.625126],[-122.674678,45.625084],[-122.674666,45.624977],[-122.674551,45.624952],[-122.674551,45.624862],[-122.674645,45.624853],[-122.67468,45.624809],[-122.674668,45.624707],[-122.674552,45.624682],[-122.674553,45.624592],[-122.674681,45.624593],[-122.674703,45.624667],[-122.674809,45.624683],[-122.674817,45.624835],[-122.674863,45.624861],[-122.674936,45.624863]]]}},{"type":"Feature","properties":{"id":80,"area_m2":4100,"px":41,"rank":22,"persistent":false},"geometry":{"type":"Polygon","coordinates":[[[-122.68685,45.627777],[-122.686847,45.628227],[-122.686632,45.628233],[-122.686594,45.628265],[-122.68659,45.628316],[-122.686362,45.628328],[-122.686332,45.628406],[-122.686205,45.628405],[-122.686183,45.628331],[-122.686077,45.628315],[-122.686044,45.628234],[-122.68595,45.628225],[-122.685953,45.627685],[-122.686058,45.627669],[-122.686081,45.627595],[-122.686466,45.627596],[-122.6865,45.627677],[-122.686722,45.627687],[-122.686744,45.627761],[-122.68685,45.627777]],[[-122.686516,45.628057],[-122.686707,45.628023],[-122.686718,45.627905],[-122.686667,45.627869],[-122.686519,45.627868],[-122.686466,45.627909],[-122.686467,45.628021],[-122.686516,45.628057]]]}},{"type":"Feature","properties":{"id":24,"area_m2":3900,"px":39,"rank":23,"persistent":false},"geometry":{"type":"Polygon","coordinates":[[[-122.678617,45.631805],[-122.678616,45.631895],[-122.678528,45.631901],[-122.678488,45.631943],[-122.678485,45.632434],[-122.677843,45.632432],[-122.677847,45.631712],[-122.677976,45.631713],[-122.677988,45.631779],[-122.678052,45.631803],[-122.678198,45.631794],[-122.678232,45.631714],[-122.678489,45.631714],[-122.678511,45.631788],[-122.678617,45.631805]]]}},{"type":"Feature","properties":{"id":38,"area_m2":3900,"px":39,"rank":24,"persistent":false},"geometry":{"type":"Polygon","coordinates":[[[-122.678876,45.631265],[-122.678876,45.631355],[-122.678795,45.631359],[-122.678751,45.631393],[-122.678746,45.631535],[-122.678295,45.631535],[-122.678242,45.631562],[-122.678233,45.631623],[-122.677848,45.631622],[-122.677839,45.631561],[-122.677779,45.631532],[-122.677335,45.631531],[-122.677336,45.631351],[-122.677442,45.631335],[-122.677465,45.631261],[-122.677795,45.63126],[-122.677844,45.631229],[-122.677851,45.631172],[-122.678748,45.631175],[-122.678771,45.631249],[-122.678876,45.631265]],[[-122.678029,45.631443],[-122.678102,45.631405],[-122.678097,45.631292],[-122.678045,45.631264],[-122.677891,45.631269],[-122.677851,45.631306],[-122.677858,45.631414],[-122.677911,45.631441],[-122.678029,45.631443]]]}},{"type":"Feature","properties":{"id":20,"area_m2":3500,"px":35,"rank":25,"persistent":false},"geometry":{"type":"Polygon","coordinates":[[[-122.672073,45.631876],[-122.67207,45.632416],[-122.671964,45.632432],[-122.671941,45.632506],[-122.671556,45.632504],[-122.671553,45.632453],[-122.671516,45.632421],[-122.6713,45.632414],[-122.671301,45.632234],[-122.671389,45.632228],[-122.671428,45.632191],[-122.671432,45.631874],[-122.672073,45.631876]]]}},{"type":"Feature","properties":{"id":41,"area_m2":3400,"px":34,"rank":26,"persistent":false},"geometry":{"type":"Polygon","coordinates":[[[-122.684907,45.631192],[-122.684906,45.631282],[-122.68465,45.631281],[-122.684637,45.631215],[-122.684522,45.631191],[-122.684494,45.631113],[-122.684266,45.6311],[-122.684244,45.631026],[-122.684138,45.63101],[-122.684104,45.630929],[-122.68401,45.630919],[-122.684002,45.630768],[-122.683956,45.630742],[-122.683883,45.630739],[-122.683885,45.630379],[-122.683919,45.630337],[-122.683885,45.630289],[-122.683886,45.630199],[-122.684014,45.6302],[-122.684036,45.630274],[-122.684142,45.63029],[-122.684176,45.630371],[-122.68427,45.63038],[-122.684269,45.630525],[-122.684296,45.630561],[-122.684525,45.630561],[-122.684534,45.630712],[-122.684579,45.630739],[-122.684652,45.630741],[-122.684657,45.630978],[-122.684699,45.631007],[-122.684779,45.631012],[-122.684796,45.631172],[-122.684907,45.631192]],[[-122.684395,45.630871],[-122.684374,45.630833],[-122.684314,45.630817],[-122.684253,45.630839],[-122.684233,45.630878],[-122.684258,45.630915],[-122.68432,45.630934],[-122.684378,45.630914],[-122.684395,45.630871]]]}},{"type":"Feature","properties":{"id":64,"area_m2":3400,"px":34,"rank":27,"persistent":false},"geometry":{"type":"Polygon","coordinates":[[[-122.674783,45.629183],[-122.674781,45.629453],[-122.674676,45.629469],[-122.674652,45.629543],[-122.673883,45.629541],[-122.673885,45.629091],[-122.673991,45.629075],[-122.674014,45.629001],[-122.674399,45.629002],[-122.674399,45.629134],[-122.674432,45.629173],[-122.674783,45.629183]]]}},{"type":"Feature","properties":{"id":60,"area_m2":3400,"px":34,"rank":28,"persistent":false},"geometry":{"type":"Polygon","coordinates":[[[-122.68466,45.629481],[-122.684659,45.629571],[-122.684553,45.629587],[-122.68453,45.629661],[-122.683889,45.629659],[-122.683881,45.629508],[-122.683835,45.629481],[-122.683762,45.629479],[-122.683745,45.629318],[-122.683634,45.629298],[-122.683636,45.628938],[-122.683742,45.628923],[-122.683767,45.628849],[-122.68415,45.62885],[-122.684153,45.628901],[-122.68419,45.628933],[-122.684406,45.62894],[-122.684405,45.62903],[-122.684043,45.629045],[-122.68402,45.629119],[-122.683939,45.629123],[-122.683898,45.629152],[-122.683894,45.629274],[-122.683958,45.629313],[-122.684147,45.6293],[-122.684153,45.629356],[-122.684202,45.629388],[-122.684403,45.62939],[-122.684409,45.629447],[-122.684451,45.629476],[-122.68466,45.629481]]]}},{"type":"Feature","properties":{"id":51,"area_m2":3000,"px":30,"rank":29,"persistent":false},"geometry":{"type":"Polygon","coordinates":[[[-122.676961,45.62973],[-122.676959,45.63009],[-122.676885,45.630092],[-122.676839,45.630118],[-122.676829,45.630269],[-122.676188,45.630267],[-122.67619,45.629998],[-122.676291,45.629994],[-122.676337,45.629953],[-122.676319,45.629728],[-122.676961,45.62973]]]}},{"type":"Feature","properties":{"id":58,"area_m2":3000,"px":30,"rank":30,"persistent":false},"geometry":{"type":"Polygon","coordinates":[[[-122.68607,45.629575],[-122.686069,45.629755],[-122.685685,45.629754],[-122.685662,45.62968],[-122.685557,45.629664],[-122.685548,45.629512],[-122.685503,45.629486],[-122.685429,45.629483],[-122.685407,45.629409],[-122.685045,45.629392],[-122.685046,45.629302],[-122.685151,45.629287],[-122.685174,45.629213],[-122.685519,45.629207],[-122.685556,45.629175],[-122.68556,45.629124],[-122.685675,45.6291],[-122.685689,45.629034],[-122.685817,45.629034],[-122.685825,45.629186],[-122.68587,45.629212],[-122.685944,45.629215],[-122.685946,45.629536],[-122.68599,45.629571],[-122.68607,45.629575]]]}},{"type":"Feature","properties":{"id":5,"area_m2":2900,"px":29,"rank":31,"persistent":false},"geometry":{"type":"Polygon","coordinates":[[[-122.671427,45.632594],[-122.671425,45.632954],[-122.671297,45.632954],[-122.671296,45.632817],[-122.671257,45.63278],[-122.671096,45.632776],[-122.671042,45.632822],[-122.671057,45.633023],[-122.671109,45.633043],[-122.671296,45.633044],[-122.671295,45.633224],[-122.671167,45.633223],[-122.671155,45.633157],[-122.671091,45.633133],[-122.670945,45.633142],[-122.67091,45.633223],[-122.670782,45.633222],[-122.670722,45.633198],[-122.670654,45.633222],[-122.670526,45.633222],[-122.670529,45.632682],[-122.670745,45.632676],[-122.670782,45.632644],[-122.670788,45.632592],[-122.671042,45.632593],[-122.671076,45.632674],[-122.671229,45.632683],[-122.67129,45.632655],[-122.671299,45.632594],[-122.671427,45.632594]]]}},{"type":"Feature","properties":{"id":110,"area_m2":2600,"px":26,"rank":32,"persistent":false},"geometry":{"type":"Polygon","coordinates":[[[-122.67596,45.625226],[-122.675959,45.625406],[-122.675872,45.625413],[-122.675832,45.625449],[-122.675829,45.625676],[-122.675445,45.625675],[-122.675422,45.625601],[-122.675317,45.625585],[-122.675283,45.625504],[-122.675189,45.625494],[-122.67519,45.625404],[-122.675277,45.625398],[-122.675317,45.625361],[-122.67532,45.625135],[-122.675832,45.625136],[-122.675855,45.62521],[-122.67596,45.625226]]]}},{"type":"Feature","properties":{"id":35,"area_m2":2500,"px":25,"rank":33,"persistent":true},"geometry":{"type":"Polygon","coordinates":[[[-122.676821,45.63171],[-122.67682,45.631799],[-122.676566,45.631799],[-122.676555,45.631737],[-122.676502,45.63171],[-122.676051,45.631707],[-122.676054,45.631167],[-122.676439,45.631168],[-122.676461,45.631243],[-122.676567,45.631259],[-122.676571,45.631675],[-122.676626,45.631708],[-122.676821,45.63171]]]}},{"type":"Feature","properties":{"id":78,"area_m2":2500,"px":25,"rank":34,"persistent":false},"geometry":{"type":"Polygon","coordinates":[[[-122.673634,45.62819],[-122.673633,45.62837],[-122.673518,45.628394],[-122.673504,45.62855],[-122.673398,45.628565],[-122.673375,45.628639],[-122.67299,45.628638],[-122.672991,45.628232],[-122.672952,45.628194],[-122.672864,45.628188],[-122.672865,45.628098],[-122.672993,45.628098],[-122.673054,45.628122],[-122.673121,45.628099],[-122.673506,45.6281],[-122.673528,45.628174],[-122.673634,45.62819]]]}},{"type":"Feature","properties":{"id":86,"area_m2":2500,"px":25,"rank":35,"persistent":false},"geometry":{"type":"Polygon","coordinates":[[[-122.675948,45.627387],[-122.675945,45.627927],[-122.675839,45.627942],[-122.675816,45.628016],[-122.675046,45.628014],[-122.675024,45.62794],[-122.674919,45.627924],[-122.674919,45.627834],[-122.675134,45.627833],[-122.675187,45.627805],[-122.675177,45.627564],[-122.675764,45.627564],[-122.675817,45.627523],[-122.67582,45.627386],[-122.675948,45.627387]],[[-122.675758,45.627734],[-122.675608,45.62775],[-122.675567,45.627779],[-122.675541,45.627875],[-122.675587,45.627921],[-122.675755,45.627925],[-122.675811,45.627893],[-122.675809,45.627761],[-122.675758,45.627734]]]}},{"type":"Feature","properties":{"id":15,"area_m2":2400,"px":24,"rank":36,"persistent":false},"geometry":{"type":"Polygon","coordinates":[[[-122.677717,45.631982],[-122.677714,45.632522],[-122.677609,45.632538],[-122.677586,45.632612],[-122.677201,45.632611],[-122.677179,45.632536],[-122.677073,45.63252],[-122.677077,45.63189],[-122.677205,45.631891],[-122.677214,45.631952],[-122.677266,45.63198],[-122.677717,45.631982]],[[-122.677264,45.63234],[-122.677534,45.632353],[-122.677584,45.632317],[-122.677579,45.6321],[-122.677519,45.632072],[-122.677245,45.632077],[-122.677204,45.632119],[-122.677212,45.632312],[-122.677264,45.63234]]]}},{"type":"Feature","properties":{"id":34,"area_m2":2400,"px":24,"rank":37,"persistent":false},"geometry":{"type":"Polygon","coordinates":[[[-122.679774,45.631268],[-122.679772,45.631628],[-122.679699,45.63163],[-122.679653,45.631656],[-122.679643,45.631807],[-122.67913,45.631806],[-122.679108,45.631732],[-122.679002,45.631716],[-122.679004,45.631446],[-122.679098,45.631437],[-122.679132,45.631356],[-122.679248,45.631332],[-122.679262,45.631176],[-122.679647,45.631177],[-122.679669,45.631252],[-122.679774,45.631268]],[[-122.679388,45.631626],[-122.679406,45.631582],[-122.679374,45.631546],[-122.679302,45.631538],[-122.679252,45.631561],[-122.679242,45.631603],[-122.679277,45.63164],[-122.679335,45.63165],[-122.679388,45.631626]],[[-122.679645,45.631398],[-122.679579,45.631344],[-122.679417,45.631369],[-122.679389,45.631405],[-122.679405,45.63153],[-122.67947,45.631551],[-122.679616,45.631525],[-122.679643,45.631494],[-122.679645,45.631398]]]}},{"type":"Feature","properties":{"id":12,"area_m2":2300,"px":23,"rank":38,"persistent":false},"geometry":{"type":"Polygon","coordinates":[[[-122.683361,45.632178],[-122.683361,45.632268],[-122.683273,45.632274],[-122.683234,45.632311],[-122.683231,45.632537],[-122.683015,45.632543],[-122.682978,45.632575],[-122.682974,45.632627],[-122.682846,45.632626],[-122.682785,45.632602],[-122.682717,45.632626],[-122.682333,45.632625],[-122.68231,45.632551],[-122.682205,45.632535],[-122.682205,45.632445],[-122.682421,45.632439],[-122.682459,45.632407],[-122.682463,45.632355],[-122.68282,45.632357],[-122.682848,45.632266],[-122.682942,45.632264],[-122.682991,45.632232],[-122.682977,45.632087],[-122.683105,45.632087],[-122.683111,45.632144],[-122.68316,45.632175],[-122.683361,45.632178]]]}},{"type":"Feature","properties":{"id":17,"area_m2":2200,"px":22,"rank":39,"persistent":false},"geometry":{"type":"Polygon","coordinates":[[[-122.6704,45.632323],[-122.670368,45.632369],[-122.670402,45.632411],[-122.670401,45.632501],[-122.670296,45.632517],[-122.670273,45.632591],[-122.669888,45.63259],[-122.669866,45.632515],[-122.66976,45.632499],[-122.669761,45.632319],[-122.669855,45.632317],[-122.669897,45.632295],[-122.669891,45.63214],[-122.669996,45.632124],[-122.670019,45.63205],[-122.670404,45.632051],[-122.6704,45.632323]]]}},{"type":"Feature","properties":{"id":101,"area_m2":2200,"px":22,"rank":40,"persistent":false},"geometry":{"type":"Polygon","coordinates":[[[-122.682491,45.626866],[-122.682459,45.626912],[-122.682493,45.626955],[-122.682492,45.627135],[-122.682386,45.62715],[-122.682363,45.627224],[-122.681978,45.627223],[-122.681956,45.627149],[-122.681851,45.627133],[-122.681852,45.626953],[-122.681925,45.626951],[-122.681971,45.626925],[-122.681981,45.626774],[-122.682197,45.626768],[-122.682234,45.626736],[-122.682238,45.626684],[-122.682494,45.626685],[-122.682491,45.626866]]]}},{"type":"Feature","properties":{"id":66,"area_m2":2100,"px":21,"rank":41,"persistent":false},"geometry":{"type":"Polygon","coordinates":[[[-122.672219,45.628816],[-122.672217,45.629176],[-122.672136,45.62918],[-122.672092,45.629214],[-122.672087,45.629446],[-122.671702,45.629445],[-122.671705,45.628996],[-122.67174,45.628952],[-122.671706,45.628905],[-122.671706,45.628815],[-122.672219,45.628816]],[[-122.671962,45.628995],[-122.671981,45.62895],[-122.671948,45.628915],[-122.671876,45.628906],[-122.671826,45.62893],[-122.671816,45.628971],[-122.671852,45.629009],[-122.671909,45.629019],[-122.671962,45.628995]]]}},{"type":"Feature","properties":{"id":113,"area_m2":2100,"px":21,"rank":42,"persistent":false},"geometry":{"type":"Polygon","coordinates":[[[-122.670958,45.625032],[-122.670957,45.625302],[-122.670883,45.625304],[-122.670838,45.62533],[-122.670827,45.625482],[-122.670699,45.625481],[-122.670691,45.62542],[-122.670638,45.625392],[-122.670187,45.62539],[-122.670187,45.6253],[-122.670287,45.625288],[-122.670316,45.62521],[-122.67041,45.625201],[-122.670445,45.625121],[-122.670518,45.625118],[-122.670564,45.625092],[-122.670575,45.624851],[-122.670703,45.624851],[-122.670725,45.624926],[-122.670831,45.624942],[-122.670864,45.625023],[-122.670958,45.625032]]]}},{"type":"Feature","properties":{"id":119,"area_m2":2100,"px":21,"rank":43,"persistent":false},"geometry":{"type":"Polygon","coordinates":[[[-122.674042,45.624231],[-122.674041,45.624321],[-122.673145,45.624318],[-122.673083,45.624294],[-122.673015,45.624318],[-122.672887,45.624317],[-122.672888,45.624138],[-122.672994,45.624122],[-122.673017,45.624048],[-122.673145,45.624048],[-122.673205,45.624073],[-122.673273,45.624049],[-122.673786,45.62405],[-122.673808,45.624124],[-122.673914,45.62414],[-122.673948,45.624221],[-122.674042,45.624231]]]}},{"type":"Feature","properties":{"id":92,"area_m2":1800,"px":18,"rank":44,"persistent":false},"geometry":{"type":"Polygon","coordinates":[[[-122.682362,45.627495],[-122.68236,45.627675],[-122.682255,45.62769],[-122.682232,45.627764],[-122.681719,45.627763],[-122.681697,45.627689],[-122.681591,45.627672],[-122.681592,45.627493],[-122.681698,45.627477],[-122.681721,45.627403],[-122.681977,45.627404],[-122.681986,45.627465],[-122.682039,45.627493],[-122.682362,45.627495]]]}},{"type":"Feature","properties":{"id":61,"area_m2":1700,"px":17,"rank":45,"persistent":false},"geometry":{"type":"Polygon","coordinates":[[[-122.679144,45.629286],[-122.679144,45.629376],[-122.679038,45.629391],[-122.679015,45.629465],[-122.678899,45.629489],[-122.678886,45.629555],[-122.678758,45.629555],[-122.678749,45.629493],[-122.678696,45.629466],[-122.678502,45.629464],[-122.678441,45.62944],[-122.678373,45.629464],[-122.678245,45.629463],[-122.678246,45.629373],[-122.678352,45.629358],[-122.678375,45.629284],[-122.678469,45.629275],[-122.678503,45.629194],[-122.678614,45.629175],[-122.678632,45.629104],[-122.67876,45.629105],[-122.678766,45.629161],[-122.678814,45.629193],[-122.679016,45.629195],[-122.679039,45.62927],[-122.679144,45.629286]]]}},{"type":"Feature","properties":{"id":100,"area_m2":1700,"px":17,"rank":46,"persistent":false},"geometry":{"type":"Polygon","coordinates":[[[-122.683777,45.626778],[-122.683776,45.626868],[-122.68367,45.626884],[-122.683647,45.626958],[-122.68346,45.626958],[-122.683408,45.626977],[-122.68339,45.627137],[-122.683284,45.627153],[-122.683261,45.627227],[-122.683005,45.627226],[-122.682983,45.627062],[-122.682749,45.627046],[-122.68275,45.626956],[-122.683186,45.626957],[-122.68324,45.626941],[-122.683298,45.626825],[-122.683264,45.626777],[-122.683264,45.626687],[-122.683521,45.626688],[-122.683524,45.626739],[-122.683561,45.626771],[-122.683777,45.626778]]]}},{"type":"Feature","properties":{"id":33,"area_m2":1600,"px":16,"rank":47,"persistent":false},"geometry":{"type":"Polygon","coordinates":[[[-122.683367,45.631278],[-122.683365,45.631548],[-122.683284,45.631552],[-122.68324,45.631586],[-122.683235,45.631817],[-122.682979,45.631817],[-122.682957,45.631742],[-122.682851,45.631726],[-122.682866,45.631581],[-122.682817,45.631549],[-122.682724,45.631546],[-122.682724,45.631456],[-122.683185,45.631468],[-122.683234,45.631433],[-122.683238,45.631326],[-122.683176,45.631278],[-122.682854,45.631276],[-122.682854,45.631186],[-122.683239,45.631187],[-122.683261,45.631262],[-122.683367,45.631278]]]}},{"type":"Feature","properties":{"id":67,"area_m2":1600,"px":16,"rank":48,"persistent":false},"geometry":{"type":"Polygon","coordinates":[[[-122.688768,45.628862],[-122.688767,45.629042],[-122.688545,45.629051],[-122.68851,45.629132],[-122.688395,45.629155],[-122.688381,45.629221],[-122.687997,45.62922],[-122.687998,45.62904],[-122.688103,45.629025],[-122.688127,45.628951],[-122.688355,45.628939],[-122.688384,45.628861],[-122.688499,45.628838],[-122.688512,45.628772],[-122.68864,45.628772],[-122.688663,45.628846],[-122.688768,45.628862]]]}},{"type":"Feature","properties":{"id":93,"area_m2":1600,"px":16,"rank":49,"persistent":false},"geometry":{"type":"Polygon","coordinates":[[[-122.675178,45.627384],[-122.675178,45.627474],[-122.675097,45.627478],[-122.675052,45.627512],[-122.675048,45.627654],[-122.674942,45.62767],[-122.674919,45.627744],[-122.674791,45.627743],[-122.674731,45.627719],[-122.674663,45.627743],[-122.674535,45.627743],[-122.674474,45.627718],[-122.674406,45.627742],[-122.67415,45.627741],[-122.674151,45.627562],[-122.674623,45.627556],[-122.674663,45.627519],[-122.674665,45.627383],[-122.674793,45.627383],[-122.674806,45.627449],[-122.67487,45.627474],[-122.675015,45.627465],[-122.67505,45.627384],[-122.675178,45.627384]]]}},{"type":"Feature","properties":{"id":32,"area_m2":1500,"px":15,"rank":50,"persistent":false},"geometry":{"type":"Polygon","coordinates":[[[-122.684519,45.631641],[-122.684518,45.631821],[-122.683749,45.631819],[-122.68375,45.631639],[-122.683855,45.631623],[-122.683878,45.631549],[-122.684102,45.631554],[-122.684135,45.63146],[-122.684264,45.63146],[-122.684263,45.631592],[-122.684297,45.631631],[-122.684519,45.631641]]]}},{"type":"Feature","properties":{"id":30,"area_m2":1500,"px":15,"rank":51,"persistent":false},"geometry":{"type":"Polygon","coordinates":[[[-122.675797,45.631347],[-122.675796,45.631436],[-122.675183,45.631447],[-122.675154,45.631525],[-122.675073,45.631529],[-122.675029,45.631563],[-122.675024,45.631884],[-122.674896,45.631884],[-122.674898,45.631524],[-122.674992,45.631515],[-122.675027,45.631434],[-122.675142,45.631411],[-122.675156,45.631255],[-122.675358,45.631253],[-122.675407,45.631222],[-122.675413,45.631165],[-122.675541,45.631166],[-122.675563,45.63124],[-122.675669,45.631256],[-122.675703,45.631337],[-122.675797,45.631347]]]}},{"type":"Feature","properties":{"id":45,"area_m2":1400,"px":14,"rank":52,"persistent":false},"geometry":{"type":"Polygon","coordinates":[[[-122.680291,45.630639],[-122.68029,45.630819],[-122.680216,45.630821],[-122.680171,45.630847],[-122.680161,45.630999],[-122.679904,45.630998],[-122.679905,45.630908],[-122.679939,45.63086],[-122.679902,45.630766],[-122.679858,45.630732],[-122.679778,45.630728],[-122.679744,45.630647],[-122.67965,45.630637],[-122.679651,45.630457],[-122.679779,45.630458],[-122.679784,45.630528],[-122.679838,45.63056],[-122.680163,45.630549],[-122.680185,45.630623],[-122.680291,45.630639]]]}},{"type":"Feature","properties":{"id":25,"area_m2":1300,"px":13,"rank":53,"persistent":false},"geometry":{"type":"Polygon","coordinates":[[[-122.675532,45.632247],[-122.6755,45.632293],[-122.675534,45.632336],[-122.675534,45.632426],[-122.675406,45.632425],[-122.675397,45.632364],[-122.675344,45.632336],[-122.674636,45.632333],[-122.674638,45.632153],[-122.674894,45.632154],[-122.674897,45.632206],[-122.674934,45.632238],[-122.67513,45.632238],[-122.67517,45.632194],[-122.675148,45.632103],[-122.675104,45.632069],[-122.675023,45.632064],[-122.675023,45.631974],[-122.675152,45.631975],[-122.675185,45.632056],[-122.675408,45.632066],[-122.67543,45.63214],[-122.675535,45.632156],[-122.675532,45.632247]]]}},{"type":"Feature","properties":{"id":87,"area_m2":1300,"px":13,"rank":54,"persistent":false},"geometry":{"type":"Polygon","coordinates":[[[-122.674791,45.627833],[-122.67479,45.627923],[-122.674684,45.627939],[-122.674661,45.628013],[-122.67402,45.628011],[-122.673998,45.627937],[-122.673892,45.627921],[-122.673896,45.627291],[-122.674024,45.627291],[-122.674021,45.627867],[-122.674049,45.627909],[-122.6746,45.627922],[-122.674653,45.627894],[-122.674663,45.627833],[-122.674791,45.627833]]]}},{"type":"Feature","properties":{"id":112,"area_m2":1300,"px":13,"rank":55,"persistent":false},"geometry":{"type":"Polygon","coordinates":[[[-122.67378,45.62513],[-122.673779,45.62531],[-122.673685,45.625319],[-122.67365,45.6254],[-122.673535,45.625423],[-122.673521,45.625579],[-122.673393,45.625579],[-122.673332,45.625555],[-122.673264,45.625579],[-122.67288,45.625578],[-122.67288,45.625488],[-122.672986,45.625472],[-122.673009,45.625398],[-122.673344,45.625399],[-122.673397,45.625379],[-122.673395,45.625129],[-122.673523,45.625129],[-122.673584,45.625154],[-122.673652,45.62513],[-122.67378,45.62513]]]}},{"type":"Feature","properties":{"id":1,"area_m2":1200,"px":12,"rank":56,"persistent":false},"geometry":{"type":"Polygon","coordinates":[[[-122.686051,45.633085],[-122.68605,45.633265],[-122.685408,45.633264],[-122.685386,45.633189],[-122.685281,45.633173],[-122.685281,45.633083],[-122.685497,45.633077],[-122.685534,45.633046],[-122.685538,45.632994],[-122.685666,45.632994],[-122.685727,45.633019],[-122.685795,45.632995],[-122.685923,45.632995],[-122.685945,45.633069],[-122.686051,45.633085]]]}},{"type":"Feature","properties":{"id":13,"area_m2":1200,"px":12,"rank":57,"persistent":false},"geometry":{"type":"Polygon","coordinates":[[[-122.682077,45.632354],[-122.682076,45.632534],[-122.681971,45.63255],[-122.681948,45.632624],[-122.68182,45.632624],[-122.681807,45.632558],[-122.681743,45.632533],[-122.68149,45.632535],[-122.681441,45.632566],[-122.681434,45.632622],[-122.681306,45.632622],[-122.681308,45.632352],[-122.681821,45.632354],[-122.681881,45.632378],[-122.681949,45.632354],[-122.682077,45.632354]]]}},{"type":"Feature","properties":{"id":16,"area_m2":1100,"px":11,"rank":58,"persistent":false},"geometry":{"type":"Polygon","coordinates":[[[-122.671174,45.632053],[-122.671173,45.632143],[-122.67073,45.632142],[-122.670678,45.632162],[-122.670668,45.632293],[-122.670714,45.63232],[-122.670787,45.632322],[-122.670786,45.632502],[-122.670681,45.632518],[-122.670658,45.632592],[-122.670529,45.632592],[-122.670532,45.632142],[-122.670638,45.632126],[-122.670661,45.632052],[-122.671174,45.632053]]]}},{"type":"Feature","properties":{"id":22,"area_m2":1100,"px":11,"rank":59,"persistent":false},"geometry":{"type":"Polygon","coordinates":[[[-122.687082,45.632278],[-122.687081,45.632458],[-122.686952,45.632458],[-122.686944,45.632306],[-122.686899,45.63228],[-122.686825,45.632277],[-122.686808,45.632117],[-122.686698,45.632097],[-122.686698,45.63178],[-122.686659,45.631743],[-122.686572,45.631737],[-122.686573,45.631557],[-122.686701,45.631557],[-122.686709,45.631708],[-122.686754,45.631735],[-122.686828,45.631737],[-122.68683,45.631969],[-122.686874,45.632003],[-122.686955,45.632008],[-122.686963,45.632249],[-122.687008,45.632276],[-122.687082,45.632278]]]}},{"type":"Feature","properties":{"id":37,"area_m2":1100,"px":11,"rank":60,"persistent":false},"geometry":{"type":"Polygon","coordinates":[[[-122.689012,45.631203],[-122.689011,45.631293],[-122.688911,45.631305],[-122.688883,45.631383],[-122.688783,45.631395],[-122.688754,45.631473],[-122.68866,45.631481],[-122.688625,45.631562],[-122.688514,45.631582],[-122.688496,45.631652],[-122.688391,45.631667],[-122.688367,45.631741],[-122.688111,45.631741],[-122.688112,45.631651],[-122.688217,45.631635],[-122.68824,45.631561],[-122.68834,45.631549],[-122.688369,45.631472],[-122.688463,45.631463],[-122.688498,45.631382],[-122.688609,45.631362],[-122.688627,45.631292],[-122.688829,45.63129],[-122.688878,45.63126],[-122.688884,45.631203],[-122.689012,45.631203]]]}},{"type":"Feature","properties":{"id":46,"area_m2":1100,"px":11,"rank":61,"persistent":false},"geometry":{"type":"Polygon","coordinates":[[[-122.674903,45.630624],[-122.674902,45.630804],[-122.674796,45.630819],[-122.674773,45.630894],[-122.674658,45.630917],[-122.674644,45.630983],[-122.674388,45.630982],[-122.674365,45.630908],[-122.67426,45.630892],[-122.67426,45.630802],[-122.674361,45.630798],[-122.674406,45.630763],[-122.67439,45.630533],[-122.674775,45.630534],[-122.674797,45.630608],[-122.674903,45.630624]],[[-122.674562,45.630826],[-122.674761,45.63078],[-122.674771,45.630662],[-122.67472,45.630626],[-122.674573,45.630625],[-122.674524,45.630656],[-122.674485,45.630771],[-122.674562,45.630826]]]}},{"type":"Feature","properties":{"id":14,"area_m2":1000,"px":10,"rank":62,"persistent":false},"geometry":{"type":"Polygon","coordinates":[[[-122.681053,45.632081],[-122.68105,45.632531],[-122.680839,45.632508],[-122.680688,45.632546],[-122.680665,45.63262],[-122.680408,45.63262],[-122.680409,45.63253],[-122.680515,45.632514],[-122.680538,45.63244],[-122.680747,45.632436],[-122.680788,45.632407],[-122.680795,45.632351],[-122.680906,45.632331],[-122.680925,45.632081],[-122.681053,45.632081]]]}},{"type":"Feature","properties":{"id":50,"area_m2":1000,"px":10,"rank":63,"persistent":false},"geometry":{"type":"Polygon","coordinates":[[[-122.685555,45.629934],[-122.685555,45.630024],[-122.685474,45.630028],[-122.685429,45.630062],[-122.685425,45.630203],[-122.685319,45.630219],[-122.685296,45.630293],[-122.685081,45.630299],[-122.685043,45.630331],[-122.685038,45.630382],[-122.684911,45.630382],[-122.684889,45.630308],[-122.684783,45.630292],[-122.684784,45.630112],[-122.684913,45.630112],[-122.684918,45.630169],[-122.684967,45.6302],[-122.685242,45.630201],[-122.685297,45.630154],[-122.685299,45.629933],[-122.685555,45.629934]]]}},{"type":"Feature","properties":{"id":84,"area_m2":1000,"px":10,"rank":64,"persistent":false},"geometry":{"type":"Polygon","coordinates":[[[-122.68313,45.627767],[-122.683129,45.627857],[-122.683042,45.627863],[-122.683002,45.6279],[-122.682999,45.628126],[-122.682894,45.628142],[-122.682871,45.628216],[-122.682742,45.628216],[-122.682743,45.628036],[-122.682778,45.627993],[-122.682744,45.627946],[-122.682746,45.627676],[-122.682874,45.627676],[-122.682879,45.627733],[-122.682928,45.627764],[-122.68313,45.627767]]]}},{"type":"Feature","properties":{"id":90,"area_m2":1000,"px":10,"rank":65,"persistent":false},"geometry":{"type":"Polygon","coordinates":[[[-122.676973,45.62766],[-122.676972,45.627749],[-122.676765,45.627749],[-122.676708,45.627774],[-122.676714,45.627929],[-122.676458,45.627928],[-122.676471,45.627688],[-122.676418,45.627659],[-122.676203,45.627657],[-122.676203,45.627567],[-122.676716,45.627569],[-122.67672,45.62762],[-122.676757,45.627653],[-122.676973,45.62766]]]}},{"type":"Feature","properties":{"id":71,"area_m2":900,"px":9,"rank":66,"persistent":false},"geometry":{"type":"Polygon","coordinates":[[[-122.677096,45.62847],[-122.677095,45.62874],[-122.676989,45.628755],[-122.676966,45.62883],[-122.676581,45.628828],[-122.676582,45.628739],[-122.676904,45.628738],[-122.676967,45.628686],[-122.67695,45.628489],[-122.676899,45.62847],[-122.676583,45.628468],[-122.676584,45.628379],[-122.676968,45.62838],[-122.676991,45.628454],[-122.677096,45.62847]]]}},{"type":"Feature","properties":{"id":77,"area_m2":900,"px":9,"rank":67,"persistent":false},"geometry":{"type":"Polygon","coordinates":[[[-122.674402,45.628462],[-122.674401,45.628642],[-122.674145,45.628641],[-122.674122,45.628567],[-122.674017,45.628551],[-122.674018,45.628281],[-122.674275,45.628282],[-122.674283,45.628433],[-122.674329,45.62846],[-122.674402,45.628462]]]}},{"type":"Feature","properties":{"id":85,"area_m2":900,"px":9,"rank":68,"persistent":false},"geometry":{"type":"Polygon","coordinates":[[[-122.682487,45.628035],[-122.682486,45.628215],[-122.682229,45.628214],[-122.682217,45.628058],[-122.682161,45.628034],[-122.681974,45.628033],[-122.681974,45.627944],[-122.68208,45.627928],[-122.682103,45.627854],[-122.682359,45.627855],[-122.682368,45.628006],[-122.682413,45.628032],[-122.682487,45.628035]]]}},{"type":"Feature","properties":{"id":107,"area_m2":900,"px":9,"rank":69,"persistent":false},"geometry":{"type":"Polygon","coordinates":[[[-122.675953,45.626487],[-122.675952,45.626576],[-122.675872,45.62658],[-122.675827,45.626614],[-122.675823,45.626756],[-122.675567,45.626755],[-122.675579,45.626605],[-122.675533,45.626578],[-122.675439,45.626574],[-122.67544,45.626485],[-122.675546,45.62647],[-122.675569,45.626395],[-122.675825,45.626396],[-122.675847,45.62647],[-122.675953,45.626487]]]}},{"type":"Feature","properties":{"id":117,"area_m2":900,"px":9,"rank":70,"persistent":false},"geometry":{"type":"Polygon","coordinates":[[[-122.674426,45.624412],[-122.674425,45.624502],[-122.674344,45.624506],[-122.6743,45.62454],[-122.674296,45.624682],[-122.674094,45.624683],[-122.674045,45.624714],[-122.674039,45.624771],[-122.673911,45.62477],[-122.673913,45.624411],[-122.674041,45.624411],[-122.674053,45.624477],[-122.674117,45.624501],[-122.674263,45.624492],[-122.674297,45.624412],[-122.674426,45.624412]]]}},{"type":"Feature","properties":{"id":121,"area_m2":900,"px":9,"rank":71,"persistent":false},"geometry":{"type":"Polygon","coordinates":[[[-122.673788,45.62378],[-122.673787,45.62387],[-122.673661,45.62387],[-122.673637,45.623795],[-122.673531,45.623779],[-122.673532,45.623558],[-122.673492,45.623516],[-122.672892,45.623507],[-122.672892,45.623417],[-122.673533,45.623419],[-122.673556,45.623494],[-122.673661,45.62351],[-122.673669,45.623751],[-122.673714,45.623778],[-122.673788,45.62378]]]}},{"type":"Feature","properties":{"id":10,"area_m2":800,"px":8,"rank":72,"persistent":false},"geometry":{"type":"Polygon","coordinates":[[[-122.67566,45.632876],[-122.675659,45.632966],[-122.675018,45.632964],[-122.674996,45.63289],[-122.67489,45.632874],[-122.67489,45.632784],[-122.674996,45.632769],[-122.675019,45.632695],[-122.675276,45.632695],[-122.675255,45.632825],[-122.675288,45.632866],[-122.67566,45.632876]]]}},{"type":"Feature","properties":{"id":19,"area_m2":800,"px":8,"rank":73,"persistent":false},"geometry":{"type":"Polygon","coordinates":[[[-122.675277,45.632425],[-122.675277,45.632515],[-122.674251,45.632512],[-122.674251,45.632422],[-122.675277,45.632425]]]}},{"type":"Feature","properties":{"id":26,"area_m2":800,"px":8,"rank":74,"persistent":false},"geometry":{"type":"Polygon","coordinates":[[[-122.67451,45.631973],[-122.674508,45.632333],[-122.673995,45.632331],[-122.673996,45.632152],[-122.674124,45.632152],[-122.67413,45.632209],[-122.674178,45.63224],[-122.67434,45.632236],[-122.67438,45.632194],[-122.674382,45.631973],[-122.67451,45.631973]]]}},{"type":"Feature","properties":{"id":42,"area_m2":800,"px":8,"rank":75,"persistent":false},"geometry":{"type":"Polygon","coordinates":[[[-122.682214,45.630825],[-122.682213,45.631094],[-122.681828,45.631093],[-122.681829,45.630914],[-122.681935,45.630898],[-122.681958,45.630824],[-122.682214,45.630825]]]}},{"type":"Feature","properties":{"id":63,"area_m2":800,"px":8,"rank":76,"persistent":false},"geometry":{"type":"Polygon","coordinates":[[[-122.677091,45.62928],[-122.67709,45.62946],[-122.676985,45.629476],[-122.676962,45.62955],[-122.676705,45.629549],[-122.676706,45.629459],[-122.676908,45.629457],[-122.676963,45.629406],[-122.676962,45.629323],[-122.676929,45.629289],[-122.676707,45.629279],[-122.676708,45.629099],[-122.676964,45.6291],[-122.676973,45.629251],[-122.677018,45.629277],[-122.677091,45.62928]]]}},{"type":"Feature","properties":{"id":70,"area_m2":800,"px":8,"rank":77,"persistent":false},"geometry":{"type":"Polygon","coordinates":[[[-122.683509,45.628758],[-122.683508,45.628938],[-122.683123,45.628937],[-122.683125,45.628667],[-122.683381,45.628668],[-122.683403,45.628742],[-122.683509,45.628758]]]}},{"type":"Feature","properties":{"id":116,"area_m2":800,"px":8,"rank":78,"persistent":false},"geometry":{"type":"Polygon","coordinates":[[[-122.67314,45.624858],[-122.67314,45.624948],[-122.672883,45.624948],[-122.672875,45.624796],[-122.67283,45.62477],[-122.672756,45.624767],[-122.672758,45.624497],[-122.673014,45.624498],[-122.673013,45.624678],[-122.672981,45.624736],[-122.673035,45.624842],[-122.67314,45.624858]]]}},{"type":"Feature","properties":{"id":3,"area_m2":700,"px":7,"rank":79,"persistent":false},"geometry":{"type":"Polygon","coordinates":[[[-122.673092,45.633139],[-122.673092,45.633229],[-122.672835,45.633228],[-122.672838,45.632688],[-122.672966,45.632689],[-122.672966,45.633095],[-122.673005,45.633132],[-122.673092,45.633139]]]}},{"type":"Feature","properties":{"id":43,"area_m2":700,"px":7,"rank":80,"persistent":false},"geometry":{"type":"Polygon","coordinates":[[[-122.690298,45.630667],[-122.690296,45.630937],[-122.690191,45.630952],[-122.690168,45.631026],[-122.690039,45.631026],[-122.690041,45.630666],[-122.690298,45.630667]]]}},{"type":"Feature","properties":{"id":48,"area_m2":700,"px":7,"rank":81,"persistent":false},"geometry":{"type":"Polygon","coordinates":[[[-122.680934,45.630461],[-122.680933,45.630641],[-122.680827,45.630656],[-122.680804,45.630731],[-122.680547,45.63073],[-122.680525,45.630656],[-122.68042,45.630639],[-122.68042,45.63055],[-122.680743,45.630549],[-122.680796,45.630522],[-122.680805,45.630461],[-122.680934,45.630461]]]}},{"type":"Feature","properties":{"id":54,"area_m2":700,"px":7,"rank":82,"persistent":false},"geometry":{"type":"Polygon","coordinates":[[[-122.683503,45.629838],[-122.683501,45.630108],[-122.683117,45.630107],[-122.683117,45.630017],[-122.683319,45.630015],[-122.683374,45.629964],[-122.683357,45.629857],[-122.683305,45.629838],[-122.683118,45.629837],[-122.683119,45.629747],[-122.683375,45.629748],[-122.683397,45.629822],[-122.683503,45.629838]]]}},{"type":"Feature","properties":{"id":62,"area_m2":700,"px":7,"rank":83,"persistent":false},"geometry":{"type":"Polygon","coordinates":[[[-122.67799,45.629283],[-122.677988,45.629552],[-122.67786,45.629552],[-122.677851,45.629491],[-122.677798,45.629463],[-122.677476,45.629461],[-122.677476,45.629371],[-122.677582,45.629356],[-122.677605,45.629282],[-122.677733,45.629282],[-122.677793,45.629306],[-122.677861,45.629282],[-122.67799,45.629283]]]}},{"type":"Feature","properties":{"id":82,"area_m2":700,"px":7,"rank":84,"persistent":false},"geometry":{"type":"Polygon","coordinates":[[[-122.683513,45.628038],[-122.683512,45.628218],[-122.683406,45.628233],[-122.683383,45.628307],[-122.683255,45.628307],[-122.683233,45.628233],[-122.683127,45.628217],[-122.683128,45.628037],[-122.683513,45.628038]]]}},{"type":"Feature","properties":{"id":89,"area_m2":700,"px":7,"rank":85,"persistent":false},"geometry":{"type":"Polygon","coordinates":[[[-122.672609,45.627917],[-122.672609,45.628007],[-122.671711,45.628004],[-122.671711,45.627915],[-122.672609,45.627917]]]}},{"type":"Feature","properties":{"id":95,"area_m2":700,"px":7,"rank":86,"persistent":false},"geometry":{"type":"Polygon","coordinates":[[[-122.677102,45.62748],[-122.677101,45.62757],[-122.676973,45.627569],[-122.676964,45.627508],[-122.676912,45.62748],[-122.676204,45.627477],[-122.676205,45.627387],[-122.676974,45.62739],[-122.676996,45.627464],[-122.677102,45.62748]]]}},{"type":"Feature","properties":{"id":115,"area_m2":700,"px":7,"rank":87,"persistent":false},"geometry":{"type":"Polygon","coordinates":[[[-122.673267,45.625129],[-122.673266,45.625309],[-122.672881,45.625308],[-122.672882,45.625128],[-122.672988,45.625112],[-122.673011,45.625038],[-122.673139,45.625038],[-122.673161,45.625113],[-122.673267,45.625129]]]}},{"type":"Feature","properties":{"id":6,"area_m2":600,"px":6,"rank":88,"persistent":false},"geometry":{"type":"Polygon","coordinates":[[[-122.670142,45.632951],[-122.670141,45.63313],[-122.670035,45.633146],[-122.670012,45.63322],[-122.669884,45.63322],[-122.669862,45.633146],[-122.669756,45.633129],[-122.669757,45.633039],[-122.669863,45.633024],[-122.669886,45.63295],[-122.670142,45.632951]]]}},{"type":"Feature","properties":{"id":2,"area_m2":600,"px":6,"rank":89,"persistent":false},"geometry":{"type":"Polygon","coordinates":[[[-122.673605,45.633141],[-122.673605,45.63323],[-122.67335,45.63323],[-122.673326,45.633156],[-122.673221,45.633139],[-122.673222,45.632959],[-122.673327,45.632944],[-122.67335,45.63287],[-122.673478,45.63287],[-122.673478,45.63296],[-122.673443,45.633008],[-122.673481,45.633102],[-122.673525,45.633136],[-122.673605,45.633141]]]}},{"type":"Feature","properties":{"id":11,"area_m2":600,"px":6,"rank":90,"persistent":false},"geometry":{"type":"Polygon","coordinates":[[[-122.674635,45.632603],[-122.674634,45.632693],[-122.674418,45.632699],[-122.674381,45.632731],[-122.674377,45.632783],[-122.673864,45.632781],[-122.673865,45.632691],[-122.674316,45.632691],[-122.674369,45.632664],[-122.674378,45.632603],[-122.674635,45.632603]]]}},{"type":"Feature","properties":{"id":18,"area_m2":600,"px":6,"rank":91,"persistent":false},"geometry":{"type":"Polygon","coordinates":[[[-122.684128,45.632271],[-122.684096,45.632318],[-122.68413,45.63236],[-122.684129,45.63254],[-122.684001,45.63254],[-122.683979,45.632465],[-122.683873,45.632449],[-122.683839,45.632368],[-122.683745,45.632359],[-122.683746,45.632269],[-122.683948,45.632267],[-122.683997,45.632236],[-122.684003,45.63218],[-122.684129,45.63218],[-122.684128,45.632271]]]}},{"type":"Feature","properties":{"id":28,"area_m2":600,"px":6,"rank":92,"persistent":false},"geometry":{"type":"Polygon","coordinates":[[[-122.675665,45.631886],[-122.675665,45.631976],[-122.675538,45.631976],[-122.675534,45.631924],[-122.675496,45.631892],[-122.675281,45.631885],[-122.675283,45.631525],[-122.675411,45.631526],[-122.675419,45.631767],[-122.675464,45.631793],[-122.675537,45.631796],[-122.675571,45.631877],[-122.675665,45.631886]]]}},{"type":"Feature","properties":{"id":49,"area_m2":600,"px":6,"rank":93,"persistent":false},"geometry":{"type":"Polygon","coordinates":[[[-122.673364,45.63053],[-122.673363,45.630619],[-122.672979,45.630618],[-122.67298,45.630348],[-122.673108,45.630349],[-122.67313,45.630423],[-122.673236,45.630439],[-122.67327,45.63052],[-122.673364,45.63053]]]}},{"type":"Feature","properties":{"id":65,"area_m2":600,"px":6,"rank":94,"persistent":false},"geometry":{"type":"Polygon","coordinates":[[[-122.675554,45.629006],[-122.675552,45.629366],[-122.675446,45.629381],[-122.675423,45.629455],[-122.675295,45.629455],[-122.675295,45.629365],[-122.675389,45.629356],[-122.675424,45.629311],[-122.675421,45.629134],[-122.675377,45.629099],[-122.675297,45.629095],[-122.675297,45.629005],[-122.675554,45.629006]]]}},{"type":"Feature","properties":{"id":120,"area_m2":600,"px":6,"rank":95,"persistent":false},"geometry":{"type":"Polygon","coordinates":[[[-122.673403,45.623779],[-122.673402,45.623959],[-122.673274,45.623959],[-122.673268,45.623902],[-122.67322,45.623871],[-122.67289,45.623867],[-122.672891,45.623688],[-122.673019,45.623688],[-122.673028,45.623749],[-122.67308,45.623777],[-122.673403,45.623779]]]}},{"type":"Feature","properties":{"id":9,"area_m2":500,"px":5,"rank":96,"persistent":false},"geometry":{"type":"Polygon","coordinates":[[[-122.674504,45.632963],[-122.674504,45.633053],[-122.673863,45.633051],[-122.673863,45.632961],[-122.674504,45.632963]]]}},{"type":"Feature","properties":{"id":7,"area_m2":500,"px":5,"rank":97,"persistent":false},"geometry":{"type":"Polygon","coordinates":[[[-122.687207,45.632819],[-122.687206,45.632998],[-122.687132,45.633001],[-122.687087,45.633027],[-122.687077,45.633178],[-122.686948,45.633178],[-122.68695,45.632908],[-122.687056,45.632892],[-122.687079,45.632818],[-122.687207,45.632819]]]}},{"type":"Feature","properties":{"id":23,"area_m2":500,"px":5,"rank":98,"persistent":false},"geometry":{"type":"Polygon","coordinates":[[[-122.680796,45.632081],[-122.680796,45.632171],[-122.680573,45.632179],[-122.680538,45.63226],[-122.680423,45.632284],[-122.68041,45.63235],[-122.680299,45.632369],[-122.680281,45.632439],[-122.680153,45.632439],[-122.680153,45.632349],[-122.680259,45.632333],[-122.680282,45.632259],[-122.680376,45.63225],[-122.680411,45.63217],[-122.680522,45.63215],[-122.68054,45.63208],[-122.680796,45.632081]]]}},{"type":"Feature","properties":{"id":74,"area_m2":500,"px":5,"rank":99,"persistent":false},"geometry":{"type":"Polygon","coordinates":[[[-122.675429,45.628285],[-122.675429,45.628375],[-122.675341,45.628381],[-122.675302,45.628418],[-122.675299,45.628735],[-122.67517,45.628734],[-122.675173,45.628375],[-122.675278,45.628359],[-122.675301,45.628285],[-122.675429,45.628285]]]}},{"type":"Feature","properties":{"id":81,"area_m2":500,"px":5,"rank":100,"persistent":false},"geometry":{"type":"Polygon","coordinates":[[[-122.67992,45.628208],[-122.679919,45.628388],[-122.679791,45.628387],[-122.679769,45.628223],[-122.679407,45.628206],[-122.679408,45.628116],[-122.679792,45.628118],[-122.679814,45.628192],[-122.67992,45.628208]]]}},{"type":"Feature","properties":{"id":91,"area_m2":500,"px":5,"rank":101,"persistent":false},"geometry":{"type":"Polygon","coordinates":[[[-122.683516,45.627588],[-122.683515,45.627768],[-122.683258,45.627767],[-122.68326,45.627497],[-122.683388,45.627497],[-122.68341,45.627572],[-122.683516,45.627588]]]}},{"type":"Feature","properties":{"id":94,"area_m2":500,"px":5,"rank":102,"persistent":false},"geometry":{"type":"Polygon","coordinates":[[[-122.678,45.627482],[-122.677999,45.627572],[-122.677894,45.627588],[-122.677871,45.627662],[-122.677358,45.627661],[-122.677358,45.627571],[-122.677809,45.627571],[-122.677862,45.627543],[-122.677872,45.627482],[-122.678,45.627482]]]}},{"type":"Feature","properties":{"id":103,"area_m2":500,"px":5,"rank":103,"persistent":false},"geometry":{"type":"Polygon","coordinates":[[[-122.677491,45.626761],[-122.677488,45.627211],[-122.67736,45.62721],[-122.677363,45.626761],[-122.677491,45.626761]]]}},{"type":"Feature","properties":{"id":122,"area_m2":500,"px":5,"rank":104,"persistent":false},"geometry":{"type":"Polygon","coordinates":[[[-122.673278,45.623239],[-122.673277,45.623328],[-122.672893,45.623327],[-122.672894,45.623057],[-122.673022,45.623058],[-122.673022,45.623189],[-122.673056,45.623229],[-122.673278,45.623239]]]}},{"type":"Feature","properties":{"id":21,"area_m2":400,"px":4,"rank":105,"persistent":false},"geometry":{"type":"Polygon","coordinates":[[[-122.671173,45.632233],[-122.671172,45.632413],[-122.671066,45.632429],[-122.671043,45.632503],[-122.670915,45.632503],[-122.670916,45.632323],[-122.671022,45.632307],[-122.671045,45.632233],[-122.671173,45.632233]]]}},{"type":"Feature","properties":{"id":27,"area_m2":400,"px":4,"rank":106,"persistent":false},"geometry":{"type":"Polygon","coordinates":[[[-122.676947,45.63216],[-122.676946,45.63225],[-122.676561,45.632249],[-122.676562,45.632159],[-122.676668,45.632143],[-122.676691,45.632069],[-122.676819,45.63207],[-122.676841,45.632144],[-122.676947,45.63216]]]}},{"type":"Feature","properties":{"id":57,"area_m2":400,"px":4,"rank":107,"persistent":false},"geometry":{"type":"Polygon","coordinates":[[[-122.679142,45.629646],[-122.679142,45.629736],[-122.679061,45.62974],[-122.679016,45.629774],[-122.679012,45.629915],[-122.678884,45.629915],[-122.678886,45.629645],[-122.679142,45.629646]]]}},{"type":"Feature","properties":{"id":68,"area_m2":400,"px":4,"rank":108,"persistent":false},"geometry":{"type":"Polygon","coordinates":[[[-122.677734,45.629102],[-122.677733,45.629192],[-122.677477,45.629191],[-122.677479,45.628921],[-122.677607,45.628921],[-122.677615,45.629073],[-122.67766,45.629099],[-122.677734,45.629102]]]}},{"type":"Feature","properties":{"id":79,"area_m2":400,"px":4,"rank":109,"persistent":false},"geometry":{"type":"Polygon","coordinates":[[[-122.67979,45.628478],[-122.67979,45.628567],[-122.679405,45.628566],[-122.679406,45.628386],[-122.679534,45.628387],[-122.67954,45.628443],[-122.679588,45.628475],[-122.67979,45.628478]]]}},{"type":"Feature","properties":{"id":96,"area_m2":400,"px":4,"rank":110,"persistent":false},"geometry":{"type":"Polygon","coordinates":[[[-122.670047,45.62728],[-122.670046,45.62746],[-122.66979,45.627459],[-122.669791,45.627279],[-122.670047,45.62728]]]}},{"type":"Feature","properties":{"id":97,"area_m2":400,"px":4,"rank":111,"persistent":false},"geometry":{"type":"Polygon","coordinates":[[[-122.687751,45.627149],[-122.68775,45.627329],[-122.687494,45.627329],[-122.687495,45.627149],[-122.687751,45.627149]]]}},{"type":"Feature","properties":{"id":118,"area_m2":400,"px":4,"rank":112,"persistent":false},"geometry":{"type":"Polygon","coordinates":[[[-122.673528,45.624409],[-122.673527,45.624499],[-122.673446,45.624503],[-122.673402,45.624537],[-122.673398,45.624679],[-122.67327,45.624679],[-122.673271,45.624409],[-122.673528,45.624409]]]}},{"type":"Feature","properties":{"id":123,"area_m2":400,"px":4,"rank":113,"persistent":false},"geometry":{"type":"Polygon","coordinates":[[[-122.687156,45.618867],[-122.687155,45.619047],[-122.686899,45.619046],[-122.6869,45.618866],[-122.687156,45.618867]]]}},{"type":"Feature","properties":{"id":39,"area_m2":300,"px":3,"rank":114,"persistent":false},"geometry":{"type":"Polygon","coordinates":[[[-122.683879,45.631369],[-122.683879,45.631459],[-122.683494,45.631458],[-122.683494,45.631368],[-122.683879,45.631369]]]}},{"type":"Feature","properties":{"id":44,"area_m2":300,"px":3,"rank":115,"persistent":false},"geometry":{"type":"Polygon","coordinates":[[[-122.680803,45.630911],[-122.680802,45.631001],[-122.680417,45.630999],[-122.680418,45.63091],[-122.680803,45.630911]]]}},{"type":"Feature","properties":{"id":53,"area_m2":300,"px":3,"rank":116,"persistent":false},"geometry":{"type":"Polygon","coordinates":[[[-122.673623,45.63008],[-122.673622,45.63017],[-122.673238,45.630169],[-122.673238,45.630079],[-122.673623,45.63008]]]}},{"type":"Feature","properties":{"id":55,"area_m2":300,"px":3,"rank":117,"persistent":false},"geometry":{"type":"Polygon","coordinates":[[[-122.685171,45.629843],[-122.68517,45.629933],[-122.684968,45.629934],[-122.684919,45.629965],[-122.684913,45.630022],[-122.684785,45.630021],[-122.684785,45.629932],[-122.684891,45.629916],[-122.684914,45.629842],[-122.685171,45.629843]]]}},{"type":"Feature","properties":{"id":59,"area_m2":300,"px":3,"rank":118,"persistent":false},"geometry":{"type":"Polygon","coordinates":[[[-122.684917,45.629392],[-122.684915,45.629662],[-122.684787,45.629661],[-122.684789,45.629392],[-122.684917,45.629392]]]}},{"type":"Feature","properties":{"id":69,"area_m2":300,"px":3,"rank":119,"persistent":false},"geometry":{"type":"Polygon","coordinates":[[[-122.685304,45.628943],[-122.685304,45.629033],[-122.684919,45.629032],[-122.684919,45.628942],[-122.685304,45.628943]]]}},{"type":"Feature","properties":{"id":76,"area_m2":300,"px":3,"rank":120,"persistent":false},"geometry":{"type":"Polygon","coordinates":[[[-122.688129,45.628501],[-122.688128,45.628591],[-122.688023,45.628606],[-122.688,45.62868],[-122.687871,45.62868],[-122.687872,45.6285],[-122.688129,45.628501]]]}},{"type":"Feature","properties":{"id":99,"area_m2":300,"px":3,"rank":121,"persistent":false},"geometry":{"type":"Polygon","coordinates":[[[-122.683904,45.626959],[-122.683902,45.627229],[-122.683774,45.627228],[-122.683776,45.626959],[-122.683904,45.626959]]]}},{"type":"Feature","properties":{"id":106,"area_m2":300,"px":3,"rank":122,"persistent":false},"geometry":{"type":"Polygon","coordinates":[[[-122.683008,45.626686],[-122.683007,45.626776],[-122.682901,45.626792],[-122.682878,45.626866],[-122.68275,45.626866],[-122.682751,45.626686],[-122.683008,45.626686]]]}},{"type":"Feature","properties":{"id":109,"area_m2":300,"px":3,"rank":123,"persistent":false},"geometry":{"type":"Polygon","coordinates":[[[-122.670056,45.62584],[-122.670055,45.625929],[-122.669799,45.625929],[-122.6698,45.625749],[-122.669928,45.625749],[-122.66995,45.625823],[-122.670056,45.62584]]]}}]}