{"type":"FeatureCollection","features":[{"type":"Feature","properties":{"id":4,"area_m2":7800,"px":78,"rank":1,"persistent":false},"geometry":{"type":"Polygon","coordinates":[[[-122.729734,45.647059],[-122.729733,45.647148],[-122.729348,45.647147],[-122.729331,45.647077],[-122.72922,45.647057],[-122.729187,45.646976],[-122.729093,45.646967],[-122.729065,45.646889],[-122.728965,45.646877],[-122.728937,45.646799],[-122.728837,45.646786],[-122.728815,45.646712],[-122.728581,45.646696],[-122.728563,45.646625],[-122.728453,45.646605],[-122.728435,45.646535],[-122.728325,45.646515],[-122.728312,45.646449],[-122.728197,45.646425],[-122.728191,45.646368],[-122.728143,45.646337],[-122.727981,45.646341],[-122.727944,45.646372],[-122.72794,45.646424],[-122.727829,45.646444],[-122.727811,45.646604],[-122.727554,45.646603],[-122.727555,45.646513],[-122.727642,45.646507],[-122.727683,45.646465],[-122.727684,45.646202],[-122.72763,45.646156],[-122.727334,45.646162],[-122.7273,45.646201],[-122.727299,45.646333],[-122.727193,45.646348],[-122.72717,45.646422],[-122.727042,45.646422],[-122.727042,45.646332],[-122.727123,45.646328],[-122.727167,45.646294],[-122.727172,45.646152],[-122.727252,45.646148],[-122.727294,45.646119],[-122.727301,45.645973],[-122.727388,45.645966],[-122.727428,45.645929],[-122.727424,45.645826],[-122.727382,45.645797],[-122.727302,45.645792],[-122.727302,45.645703],[-122.727408,45.645687],[-122.727431,45.645613],[-122.727559,45.645613],[-122.727572,45.645679],[-122.727636,45.645703],[-122.727896,45.6457],[-122.727938,45.645671],[-122.727944,45.645614],[-122.728457,45.645615],[-122.728456,45.645975],[-122.728382,45.645977],[-122.728336,45.646004],[-122.728326,45.646155],[-122.728246,45.646159],[-122.728201,45.646193],[-122.72821,45.646311],[-122.728267,45.646335],[-122.728454,45.646335],[-122.728459,45.646482],[-122.728501,45.646511],[-122.728581,45.646516],[-122.728584,45.646567],[-122.728622,45.646599],[-122.728966,45.646607],[-122.728988,45.646681],[-122.729094,45.646697],[-122.729102,45.646848],[-122.729148,45.646875],[-122.729221,45.646877],[-122.729255,45.646958],[-122.729477,45.646968],[-122.729483,45.647025],[-122.729532,45.647056],[-122.729734,45.647059]]]}},{"type":"Feature","properties":{"id":1,"area_m2":1400,"px":14,"rank":2,"persistent":false},"geometry":{"type":"Polygon","coordinates":[[[-122.73061,45.651561],[-122.73061,45.651651],[-122.730227,45.65165],[-122.730222,45.651598],[-122.730185,45.651566],[-122.729969,45.651559],[-122.729947,45.651485],[-122.729841,45.651469],[-122.729842,45.651289],[-122.730227,45.65129],[-122.730249,45.651364],[-122.730355,45.65138],[-122.730367,45.651446],[-122.730482,45.651471],[-122.73051,45.651548],[-122.73061,45.651561]]]}},{"type":"Feature","properties":{"id":5,"area_m2":900,"px":9,"rank":3,"persistent":false},"geometry":{"type":"Polygon","coordinates":[[[-122.729738,45.646248],[-122.729737,45.646338],[-122.729656,45.646342],[-122.729612,45.646376],[-122.729608,45.646518],[-122.72948,45.646518],[-122.729471,45.646456],[-122.729418,45.646429],[-122.728967,45.646427],[-122.728967,45.646337],[-122.729183,45.646331],[-122.729221,45.646299],[-122.729224,45.646247],[-122.729481,45.646248],[-122.729541,45.646272],[-122.729609,45.646248],[-122.729738,45.646248]]]}},{"type":"Feature","properties":{"id":2,"area_m2":700,"px":7,"rank":4,"persistent":false},"geometry":{"type":"Polygon","coordinates":[[[-122.728178,45.650205],[-122.728178,45.650385],[-122.728072,45.650401],[-122.728049,45.650475],[-122.727792,45.650474],[-122.72777,45.6504],[-122.727664,45.650384],[-122.727665,45.650204],[-122.727771,45.650188],[-122.727794,45.650114],[-122.727922,45.650115],[-122.727938,45.650197],[-122.727834,45.650211],[-122.727795,45.650248],[-122.727796,45.650346],[-122.727847,45.650382],[-122.728021,45.650372],[-122.728049,45.650336],[-122.728035,45.650212],[-122.728178,45.650205]]]}},{"type":"Feature","properties":{"id":3,"area_m2":600,"px":6,"rank":5,"persistent":false},"geometry":{"type":"Polygon","coordinates":[[[-122.72511,45.647858],[-122.725109,45.647947],[-122.725004,45.647963],[-122.724981,45.648037],[-122.724765,45.648043],[-122.724727,45.648075],[-122.724723,45.648127],[-122.724467,45.648126],[-122.724467,45.648036],[-122.724573,45.64802],[-122.724596,45.647946],[-122.724919,45.647946],[-122.724972,45.647919],[-122.724982,45.647857],[-122.72511,45.647858]]]}},{"type":"Feature","properties":{"id":7,"area_m2":500,"px":5,"rank":6,"persistent":false},"geometry":{"type":"Polygon","coordinates":[[[-122.72564,45.644439],[-122.725639,45.644528],[-122.724998,45.644527],[-122.724998,45.644437],[-122.72564,45.644439]]]}},{"type":"Feature","properties":{"id":6,"area_m2":300,"px":3,"rank":7,"persistent":false},"geometry":{"type":"Polygon","coordinates":[[[-122.729996,45.645799],[-122.729995,45.645979],[-122.729739,45.645978],[-122.729739,45.645888],[-122.729845,45.645873],[-122.729868,45.645799],[-122.729996,45.645799]]]}}]}