{"type":"FeatureCollection","features":[{"type":"Feature","properties":{"id":1,"area_m2":500,"px":5,"rank":1,"persistent":true},"geometry":{"type":"Polygon","coordinates":[[[-122.728178,45.650295],[-122.728178,45.650385],[-122.727793,45.650384],[-122.727794,45.650204],[-122.72805,45.650205],[-122.728072,45.650279],[-122.728178,45.650295]]]}},{"type":"Feature","properties":{"id":2,"area_m2":300,"px":3,"rank":2,"persistent":false},"geometry":{"type":"Polygon","coordinates":[[[-122.733712,45.647068],[-122.733711,45.647248],[-122.733583,45.647247],[-122.733561,45.647173],[-122.733455,45.647157],[-122.733455,45.647067],[-122.733712,45.647068]]]}}]}