{"type":"FeatureCollection","features":[{"type":"Feature","properties":{"id":86,"area_m2":98800,"px":988,"rank":1,"persistent":false},"geometry":{"type":"Polygon","coordinates":[[[-122.683912,45.625519],[-122.683908,45.626239],[-122.68378,45.626238],[-122.683712,45.626214],[-122.683578,45.62624],[-122.683529,45.626271],[-122.683521,45.626328],[-122.682625,45.626325],[-122.682616,45.62625],[-122.682551,45.626221],[-122.681471,45.626232],[-122.681469,45.626],[-122.681425,45.625966],[-122.681344,45.62596],[-122.681345,45.625872],[-122.681379,45.625829],[-122.681345,45.625782],[-122.681347,45.625422],[-122.681435,45.625415],[-122.681474,45.625378],[-122.681475,45.62492],[-122.681416,45.624883],[-122.681222,45.624881],[-122.681219,45.624739],[-122.681175,45.624705],[-122.681095,45.624701],[-122.681094,45.624564],[-122.681055,45.624527],[-122.680839,45.62452],[-122.680826,45.624454],[-122.680763,45.62443],[-122.680617,45.624439],[-122.680582,45.624519],[-122.680454,45.624519],[-122.680455,45.624429],[-122.680536,45.624425],[-122.68058,45.624391],[-122.680582,45.624293],[-122.68055,45.624258],[-122.680362,45.624258],[-122.680327,45.624339],[-122.680212,45.624362],[-122.680198,45.624428],[-122.679813,45.624427],[-122.679808,45.62437],[-122.679766,45.624341],[-122.67958,45.624352],[-122.679557,45.62439],[-122.679579,45.624501],[-122.679684,45.624517],[-122.67969,45.624573],[-122.679732,45.624603],[-122.67994,45.624608],[-122.67994,45.624697],[-122.679829,45.624717],[-122.679792,45.624832],[-122.679853,45.624876],[-122.680067,45.624878],[-122.680066,45.625058],[-122.67996,45.625073],[-122.679937,45.625148],[-122.679681,45.625147],[-122.679664,45.624987],[-122.679478,45.624955],[-122.679427,45.624996],[-122.679424,45.625146],[-122.679344,45.62515],[-122.679299,45.625184],[-122.679295,45.625326],[-122.67891,45.625325],[-122.678898,45.625259],[-122.678783,45.625234],[-122.678755,45.625157],[-122.678527,45.625144],[-122.678504,45.625069],[-122.678399,45.625053],[-122.6784,45.624873],[-122.678473,45.624871],[-122.678519,45.624845],[-122.678529,45.624694],[-122.678629,45.624682],[-122.678658,45.624604],[-122.678745,45.624598],[-122.678786,45.624556],[-122.678786,45.624454],[-122.678754,45.62442],[-122.678531,45.624423],[-122.678531,45.624202],[-122.678498,45.624163],[-122.678276,45.624153],[-122.678215,45.624129],[-122.678147,45.624152],[-122.678019,45.624152],[-122.677985,45.624071],[-122.677818,45.624064],[-122.677764,45.624105],[-122.677762,45.624241],[-122.677656,45.624257],[-122.677633,45.624331],[-122.677518,45.624355],[-122.677504,45.624421],[-122.677248,45.62442],[-122.677235,45.624354],[-122.67712,45.624329],[-122.677117,45.624278],[-122.67708,45.624246],[-122.676736,45.624238],[-122.676733,45.624187],[-122.676695,45.624155],[-122.67648,45.624148],[-122.676463,45.624077],[-122.676352,45.624057],[-122.676339,45.623991],[-122.676224,45.623967],[-122.67619,45.623886],[-122.675968,45.623876],[-122.675963,45.62382],[-122.675914,45.623788],[-122.675712,45.623785],[-122.675713,45.623696],[-122.675969,45.623696],[-122.675997,45.623774],[-122.676225,45.623787],[-122.676231,45.623844],[-122.676272,45.623873],[-122.676562,45.623874],[-122.676604,45.623845],[-122.67661,45.623788],[-122.676691,45.623784],[-122.676733,45.623755],[-122.676739,45.623608],[-122.67682,45.623605],[-122.676862,45.623575],[-122.676868,45.623477],[-122.676834,45.623438],[-122.67666,45.623432],[-122.676618,45.623461],[-122.676611,45.623518],[-122.676506,45.623534],[-122.676482,45.623698],[-122.676354,45.623697],[-122.676332,45.623623],[-122.676226,45.623607],[-122.676227,45.623517],[-122.676314,45.623511],[-122.676354,45.623474],[-122.676353,45.623362],[-122.676289,45.623324],[-122.676128,45.623349],[-122.676099,45.623427],[-122.675971,45.623426],[-122.675903,45.623402],[-122.675755,45.623432],[-122.675717,45.623464],[-122.675714,45.623515],[-122.675598,45.623539],[-122.675585,45.623605],[-122.675457,45.623605],[-122.675423,45.623524],[-122.675201,45.623514],[-122.675188,45.623448],[-122.675073,45.623424],[-122.675045,45.623346],[-122.674817,45.623333],[-122.674795,45.623259],[-122.674689,45.623242],[-122.674655,45.623162],[-122.674561,45.623152],[-122.674546,45.62307],[-122.674656,45.623053],[-122.674691,45.622973],[-122.674771,45.622969],[-122.674816,45.622935],[-122.67482,45.622752],[-122.67478,45.622709],[-122.674611,45.622706],[-122.674569,45.622735],[-122.674563,45.622792],[-122.674448,45.622816],[-122.674449,45.623054],[-122.674305,45.623061],[-122.6743,45.622991],[-122.674253,45.62296],[-122.674104,45.622973],[-122.67405,45.623014],[-122.674048,45.623151],[-122.67392,45.62315],[-122.673905,45.622978],[-122.673955,45.622928],[-122.67393,45.622885],[-122.673839,45.622871],[-122.673794,45.62291],[-122.673808,45.622962],[-122.673664,45.62297],[-122.673659,45.622823],[-122.673618,45.622794],[-122.673537,45.622789],[-122.673511,45.622698],[-122.673025,45.622698],[-122.673025,45.622608],[-122.673241,45.622602],[-122.673279,45.62257],[-122.673282,45.622519],[-122.673645,45.622504],[-122.673668,45.62243],[-122.673768,45.622418],[-122.673796,45.62234],[-122.673896,45.622328],[-122.673925,45.62225],[-122.674019,45.622241],[-122.674054,45.622161],[-122.674169,45.622137],[-122.674183,45.621981],[-122.674271,45.621975],[-122.67431,45.621938],[-122.674313,45.621711],[-122.674419,45.621696],[-122.674442,45.621622],[-122.67457,45.621622],[-122.674579,45.621684],[-122.674632,45.621711],[-122.674954,45.621713],[-122.674988,45.621794],[-122.67521,45.621804],[-122.675244,45.621885],[-122.675466,45.621895],[-122.675494,45.621972],[-122.675722,45.621985],[-122.675728,45.622042],[-122.675777,45.622073],[-122.676107,45.622077],[-122.676167,45.622101],[-122.676235,45.622077],[-122.676363,45.622077],[-122.676362,45.622298],[-122.676416,45.622345],[-122.676549,45.622347],[-122.676601,45.622328],[-122.676619,45.622168],[-122.676876,45.622169],[-122.676875,45.622259],[-122.676781,45.622267],[-122.676747,45.622312],[-122.676759,45.622414],[-122.676874,45.622439],[-122.67687,45.622598],[-122.677001,45.622619],[-122.677007,45.622676],[-122.677049,45.622705],[-122.677257,45.62271],[-122.677238,45.622845],[-122.677291,45.622887],[-122.677472,45.622884],[-122.67751,45.622852],[-122.677514,45.622801],[-122.677898,45.622802],[-122.677903,45.622948],[-122.677945,45.622978],[-122.678026,45.622982],[-122.678028,45.623124],[-122.678072,45.623158],[-122.678153,45.623162],[-122.678153,45.623294],[-122.678186,45.623333],[-122.678665,45.623344],[-122.678682,45.623414],[-122.678793,45.623434],[-122.678805,45.6235],[-122.67892,45.623525],[-122.678954,45.623606],[-122.679305,45.623616],[-122.679314,45.623677],[-122.679366,45.623705],[-122.679755,45.623706],[-122.679808,45.623679],[-122.679818,45.623617],[-122.679944,45.623617],[-122.679958,45.623697],[-122.680035,45.623721],[-122.680174,45.623696],[-122.680203,45.623618],[-122.680329,45.623619],[-122.68034,45.62368],[-122.680392,45.623708],[-122.680972,45.62371],[-122.680989,45.623781],[-122.6811,45.623801],[-122.681133,45.623882],[-122.681227,45.623891],[-122.681255,45.623969],[-122.681483,45.623982],[-122.681506,45.624056],[-122.681611,45.624072],[-122.681624,45.624138],[-122.681739,45.624163],[-122.681767,45.62424],[-122.681867,45.624253],[-122.681869,45.624485],[-122.681913,45.624519],[-122.681993,45.624523],[-122.682027,45.624604],[-122.682249,45.624614],[-122.682262,45.62468],[-122.682377,45.624704],[-122.682411,45.624785],[-122.682633,45.624795],[-122.682639,45.624852],[-122.682688,45.624883],[-122.682889,45.624886],[-122.682895,45.624942],[-122.682936,45.624972],[-122.683145,45.624977],[-122.683151,45.625033],[-122.683193,45.625063],[-122.683402,45.625067],[-122.683462,45.625091],[-122.68353,45.625068],[-122.683658,45.625068],[-122.683661,45.625498],[-122.683723,45.625532],[-122.683912,45.625519]],[[-122.674305,45.622699],[-122.674254,45.622678],[-122.674197,45.622688],[-122.67416,45.62273],[-122.674175,45.62277],[-122.674228,45.622791],[-122.674299,45.622779],[-122.674327,45.622741],[-122.674305,45.622699]],[[-122.674617,45.622432],[-122.674692,45.622389],[-122.674693,45.622296],[-122.674666,45.622265],[-122.674387,45.622252],[-122.674327,45.622271],[-122.674289,45.622375],[-122.674316,45.622419],[-122.674617,45.622432]],[[-122.675716,45.623155],[-122.675699,45.623085],[-122.675588,45.623065],[-122.675575,45.622999],[-122.67546,45.622975],[-122.675455,45.622918],[-122.675406,45.622887],[-122.675123,45.622888],[-122.675082,45.622917],[-122.675075,45.622974],[-122.674995,45.622978],[-122.67495,45.623012],[-122.674963,45.623224],[-122.675074,45.623244],[-122.675077,45.623295],[-122.675114,45.623327],[-122.67533,45.623334],[-122.675352,45.623409],[-122.675503,45.623447],[-122.67568,45.623416],[-122.675715,45.623336],[-122.675788,45.623333],[-122.675834,45.623307],[-122.675835,45.623184],[-122.675789,45.623158],[-122.675716,45.623155]],[[-122.677256,45.62293],[-122.677197,45.622877],[-122.677034,45.622898],[-122.677,45.622938],[-122.677012,45.623045],[-122.677068,45.623069],[-122.677221,45.623061],[-122.677254,45.623026],[-122.677256,45.62293]],[[-122.677638,45.623471],[-122.677617,45.623433],[-122.677557,45.623417],[-122.677495,45.623439],[-122.677475,45.623478],[-122.677501,45.623516],[-122.677563,45.623535],[-122.677621,45.623514],[-122.677638,45.623471]],[[-122.678968,45.624245],[-122.679042,45.624207],[-122.679036,45.624093],[-122.678984,45.624066],[-122.67883,45.624071],[-122.67879,45.624108],[-122.678797,45.624216],[-122.67885,45.624243],[-122.678968,45.624245]],[[-122.681912,45.625524],[-122.682069,45.625509],[-122.682111,45.62548],[-122.682116,45.625287],[-122.682063,45.625246],[-122.681923,45.625244],[-122.681862,45.625286],[-122.681861,45.625483],[-122.681912,45.625524]],[[-122.683396,45.626147],[-122.683476,45.626143],[-122.683521,45.626109],[-122.683525,45.625926],[-122.683497,45.62589],[-122.683346,45.625877],[-122.683291,45.625893],[-122.683268,45.626057],[-122.683011,45.626056],[-122.68302,45.625811],[-122.682838,45.625772],[-122.682773,45.625792],[-122.682754,45.626182],[-122.682782,45.626223],[-122.683333,45.626236],[-122.683386,45.626209],[-122.683396,45.626147]]]}},{"type":"Feature","properties":{"id":11,"area_m2":79600,"px":796,"rank":2,"persistent":false},"geometry":{"type":"Polygon","coordinates":[[[-122.683504,45.629568],[-122.683504,45.629658],[-122.682606,45.629655],[-122.682607,45.629434],[-122.682579,45.629398],[-122.682351,45.629385],[-122.682342,45.629323],[-122.682289,45.629296],[-122.682041,45.62928],[-122.681983,45.6293],[-122.681965,45.629474],[-122.681871,45.629483],[-122.681837,45.629563],[-122.681731,45.629579],[-122.681674,45.62969],[-122.681707,45.629744],[-122.681705,45.63042],[-122.681765,45.630462],[-122.682019,45.630464],[-122.682079,45.630436],[-122.682089,45.630374],[-122.682345,45.630375],[-122.682344,45.630555],[-122.682216,45.630554],[-122.682148,45.63053],[-122.681994,45.630563],[-122.681959,45.630644],[-122.681885,45.630646],[-122.68184,45.630672],[-122.68183,45.630775],[-122.681892,45.630823],[-122.682214,45.630825],[-122.682219,45.631061],[-122.682275,45.631094],[-122.682469,45.631095],[-122.682468,45.631275],[-122.682017,45.631275],[-122.681964,45.631302],[-122.681953,45.631364],[-122.681698,45.631363],[-122.681693,45.631293],[-122.681639,45.63126],[-122.681465,45.631288],[-122.681441,45.631452],[-122.681341,45.631464],[-122.681312,45.631542],[-122.681225,45.631548],[-122.681185,45.631585],[-122.681189,45.631778],[-122.68123,45.631808],[-122.681311,45.631812],[-122.681345,45.631893],[-122.681439,45.631903],[-122.681438,45.631991],[-122.681251,45.631992],[-122.681199,45.632012],[-122.68118,45.632222],[-122.68124,45.632274],[-122.681436,45.632263],[-122.681445,45.632324],[-122.681498,45.632352],[-122.681821,45.632354],[-122.681881,45.632378],[-122.681949,45.632354],[-122.682077,45.632354],[-122.682076,45.632534],[-122.681971,45.63255],[-122.681948,45.632624],[-122.681178,45.632622],[-122.68117,45.632547],[-122.681104,45.632518],[-122.68095,45.632543],[-122.680921,45.632621],[-122.68028,45.632619],[-122.680258,45.632545],[-122.680152,45.632528],[-122.680153,45.632349],[-122.680227,45.632347],[-122.680272,45.632321],[-122.680283,45.632169],[-122.680388,45.632154],[-122.680411,45.63208],[-122.680668,45.63208],[-122.680736,45.632105],[-122.680796,45.632081],[-122.680991,45.63208],[-122.681044,45.632053],[-122.681054,45.631585],[-122.681008,45.631545],[-122.680866,45.631527],[-122.680805,45.631561],[-122.680799,45.631631],[-122.68067,45.63163],[-122.680648,45.631556],[-122.680543,45.63154],[-122.680521,45.631376],[-122.680415,45.631359],[-122.68041,45.631303],[-122.680368,45.631274],[-122.680159,45.631269],[-122.68016,45.631179],[-122.680254,45.63117],[-122.680289,45.631089],[-122.680369,45.631085],[-122.680414,45.631051],[-122.680403,45.630827],[-122.680453,45.630772],[-122.680414,45.630726],[-122.680312,45.630732],[-122.680306,45.630812],[-122.680184,45.630835],[-122.680161,45.630909],[-122.680046,45.630932],[-122.680032,45.630998],[-122.679904,45.630998],[-122.679905,45.630867],[-122.679871,45.630827],[-122.679649,45.630817],[-122.679659,45.630392],[-122.679602,45.630367],[-122.679266,45.630366],[-122.67927,45.629736],[-122.679376,45.629721],[-122.679399,45.629647],[-122.679606,45.629647],[-122.679663,45.629622],[-122.67965,45.629501],[-122.679609,45.629471],[-122.679528,45.629467],[-122.679529,45.629377],[-122.679623,45.629368],[-122.679657,45.629287],[-122.679768,45.629268],[-122.679787,45.629108],[-122.679893,45.629092],[-122.679916,45.629018],[-122.680044,45.629018],[-122.680078,45.629099],[-122.68023,45.629109],[-122.680291,45.62908],[-122.6803,45.629019],[-122.680411,45.629],[-122.680429,45.628929],[-122.680557,45.62893],[-122.680563,45.628986],[-122.680612,45.629018],[-122.680773,45.629014],[-122.68081,45.628982],[-122.680814,45.62893],[-122.680929,45.628907],[-122.680943,45.628841],[-122.681071,45.628841],[-122.68108,45.628903],[-122.681133,45.62893],[-122.681427,45.62892],[-122.681456,45.628878],[-122.681456,45.628526],[-122.681417,45.628488],[-122.68133,45.628482],[-122.681331,45.628247],[-122.681279,45.628201],[-122.681109,45.62822],[-122.681074,45.628301],[-122.680818,45.6283],[-122.680757,45.628276],[-122.680689,45.6283],[-122.680561,45.6283],[-122.680562,45.62821],[-122.680677,45.628186],[-122.68069,45.628079],[-122.68065,45.628036],[-122.680563,45.62803],[-122.680557,45.627973],[-122.680508,45.627942],[-122.680339,45.627935],[-122.680306,45.628029],[-122.6802,45.628044],[-122.680177,45.628118],[-122.680049,45.628118],[-122.68004,45.628057],[-122.679987,45.628029],[-122.679408,45.628026],[-122.679394,45.627674],[-122.679445,45.627619],[-122.679419,45.627581],[-122.679357,45.627562],[-122.679288,45.627596],[-122.679297,45.627658],[-122.679162,45.627694],[-122.679152,45.627936],[-122.679046,45.627951],[-122.679023,45.628025],[-122.678895,45.628025],[-122.678834,45.628001],[-122.678766,45.628025],[-122.678451,45.628024],[-122.678382,45.628072],[-122.67838,45.628335],[-122.678408,45.628371],[-122.678764,45.628385],[-122.678773,45.628446],[-122.678826,45.628474],[-122.679149,45.628476],[-122.679148,45.628566],[-122.67904,45.628572],[-122.679,45.628621],[-122.679037,45.628726],[-122.679147,45.628746],[-122.679147,45.628836],[-122.677992,45.628832],[-122.677964,45.628755],[-122.677736,45.628742],[-122.677731,45.628685],[-122.677682,45.628654],[-122.677224,45.62865],[-122.677227,45.62802],[-122.677333,45.628005],[-122.677356,45.627931],[-122.677741,45.627932],[-122.677801,45.627956],[-122.677869,45.627932],[-122.677997,45.627932],[-122.678006,45.627994],[-122.678066,45.628022],[-122.67832,45.628022],[-122.678379,45.627985],[-122.678384,45.627574],[-122.6785,45.62755],[-122.678513,45.627443],[-122.678473,45.6274],[-122.678385,45.627393],[-122.678358,45.627316],[-122.678258,45.627303],[-122.678263,45.626313],[-122.678391,45.626313],[-122.6784,45.626375],[-122.678453,45.626402],[-122.678904,45.626405],[-122.67892,45.626655],[-122.678964,45.626674],[-122.67922,45.626689],[-122.679284,45.626651],[-122.679285,45.626534],[-122.679241,45.6265],[-122.67916,45.626495],[-122.679158,45.626354],[-122.679114,45.626319],[-122.679033,45.626315],[-122.679033,45.626225],[-122.679418,45.626226],[-122.67944,45.6263],[-122.679546,45.626317],[-122.679563,45.626387],[-122.679674,45.626407],[-122.679708,45.626488],[-122.679801,45.626497],[-122.679829,45.626575],[-122.679929,45.626588],[-122.679922,45.627287],[-122.680053,45.627308],[-122.680066,45.627374],[-122.680181,45.627399],[-122.680184,45.627464],[-122.680226,45.627498],[-122.680566,45.62749],[-122.680583,45.62756],[-122.680693,45.62758],[-122.68071,45.62765],[-122.680821,45.62767],[-122.680834,45.627736],[-122.680949,45.627761],[-122.680952,45.627812],[-122.680989,45.627844],[-122.681152,45.627862],[-122.681199,45.627831],[-122.681206,45.627761],[-122.681334,45.627762],[-122.68135,45.627922],[-122.681461,45.627942],[-122.681474,45.628008],[-122.681589,45.628033],[-122.681592,45.628084],[-122.681629,45.628116],[-122.681845,45.628123],[-122.681867,45.628197],[-122.681973,45.628214],[-122.68199,45.628284],[-122.6821,45.628304],[-122.682134,45.628385],[-122.682228,45.628394],[-122.682256,45.628472],[-122.682356,45.628485],[-122.682384,45.628562],[-122.682484,45.628575],[-122.682486,45.628717],[-122.68253,45.628751],[-122.682611,45.628755],[-122.682623,45.628911],[-122.682679,45.628935],[-122.682867,45.628936],[-122.682889,45.62901],[-122.682994,45.629027],[-122.683028,45.629108],[-122.683122,45.629117],[-122.683134,45.629273],[-122.683249,45.629297],[-122.683283,45.629378],[-122.683377,45.629388],[-122.683385,45.629539],[-122.683431,45.629565],[-122.683504,45.629568]],[[-122.67766,45.628562],[-122.677736,45.628518],[-122.677729,45.62832],[-122.677684,45.628294],[-122.677611,45.628291],[-122.677607,45.62824],[-122.67757,45.628208],[-122.677394,45.628194],[-122.677355,45.628236],[-122.677362,45.628532],[-122.677422,45.628561],[-122.67766,45.628562]],[[-122.678393,45.628619],[-122.678356,45.628489],[-122.678251,45.628473],[-122.678239,45.628317],[-122.678124,45.628293],[-122.678128,45.628133],[-122.678075,45.628113],[-122.677896,45.628124],[-122.677868,45.628166],[-122.677883,45.628632],[-122.677934,45.628652],[-122.678336,45.628652],[-122.678393,45.628619]],[[-122.678688,45.62766],[-122.67883,45.627678],[-122.678884,45.627654],[-122.678894,45.627523],[-122.678843,45.627487],[-122.678696,45.627487],[-122.678644,45.627523],[-122.678644,45.627626],[-122.678688,45.62766]],[[-122.679412,45.627396],[-122.67943,45.627351],[-122.679398,45.627316],[-122.679333,45.627306],[-122.67928,45.627327],[-122.679264,45.627367],[-122.679301,45.62741],[-122.679359,45.62742],[-122.679412,45.627396]],[[-122.681243,45.630282],[-122.681314,45.630249],[-122.681317,45.63014],[-122.681273,45.630106],[-122.681192,45.630102],[-122.681187,45.630031],[-122.68114,45.63],[-122.68097,45.63002],[-122.680936,45.630101],[-122.680807,45.6301],[-122.680795,45.630034],[-122.680731,45.63001],[-122.680585,45.630019],[-122.680551,45.6301],[-122.680294,45.630099],[-122.680277,45.630029],[-122.680167,45.630009],[-122.680154,45.629943],[-122.680039,45.629918],[-122.680033,45.629862],[-122.679992,45.629832],[-122.679595,45.629827],[-122.679529,45.629865],[-122.679525,45.630138],[-122.679579,45.630185],[-122.680165,45.630189],[-122.680174,45.63025],[-122.680234,45.630279],[-122.681243,45.630282]],[[-122.679974,45.627668],[-122.680048,45.62763],[-122.680039,45.627512],[-122.679983,45.627488],[-122.67981,45.627497],[-122.679776,45.627543],[-122.679808,45.627643],[-122.679857,45.627667],[-122.679974,45.627668]],[[-122.680092,45.629558],[-122.680168,45.629515],[-122.680153,45.629308],[-122.680094,45.629288],[-122.679814,45.6293],[-122.679785,45.629342],[-122.679802,45.629538],[-122.679854,45.629558],[-122.680092,45.629558]],[[-122.680418,45.63061],[-122.680438,45.630409],[-122.680394,45.630374],[-122.680098,45.63037],[-122.680039,45.630407],[-122.680037,45.630505],[-122.680076,45.630542],[-122.680163,45.630549],[-122.680197,45.63063],[-122.680352,45.630653],[-122.680418,45.63061]],[[-122.680827,45.629876],[-122.680796,45.629764],[-122.680681,45.62974],[-122.680676,45.629683],[-122.680634,45.629654],[-122.680346,45.629649],[-122.680282,45.629684],[-122.680318,45.629813],[-122.680552,45.62983],[-122.680558,45.629886],[-122.680599,45.629916],[-122.680788,45.629914],[-122.680827,45.629876]],[[-122.680876,45.632175],[-122.680728,45.632146],[-122.680667,45.63217],[-122.680433,45.632186],[-122.68041,45.63235],[-122.680329,45.632354],[-122.680285,45.632388],[-122.680303,45.632514],[-122.680489,45.632526],[-122.680531,45.632497],[-122.680538,45.63244],[-122.680747,45.632436],[-122.680788,45.632407],[-122.680795,45.632351],[-122.6809,45.632335],[-122.680918,45.632204],[-122.680876,45.632175]],[[-122.680607,45.62929],[-122.680682,45.629247],[-122.680683,45.629154],[-122.680656,45.629122],[-122.680377,45.629109],[-122.680317,45.629129],[-122.680299,45.62924],[-122.680327,45.629277],[-122.680607,45.62929]],[[-122.680928,45.630886],[-122.680949,45.630771],[-122.680898,45.630733],[-122.680717,45.630731],[-122.680658,45.63077],[-122.680681,45.630877],[-122.680729,45.630908],[-122.680892,45.630918],[-122.680928,45.630886]],[[-122.680939,45.62956],[-122.680958,45.629516],[-122.680926,45.62948],[-122.680853,45.629472],[-122.680803,45.629495],[-122.680793,45.629537],[-122.680829,45.629574],[-122.680886,45.629584],[-122.680939,45.62956]],[[-122.681248,45.629292],[-122.681324,45.629248],[-122.681309,45.629042],[-122.68125,45.629022],[-122.68097,45.629033],[-122.680941,45.629075],[-122.680958,45.629271],[-122.68101,45.629291],[-122.681248,45.629292]],[[-122.681196,45.62992],[-122.681227,45.629885],[-122.681213,45.629844],[-122.681155,45.629818],[-122.681093,45.62983],[-122.681066,45.629866],[-122.681082,45.629915],[-122.681139,45.629935],[-122.681196,45.62992]],[[-122.682227,45.628574],[-122.68221,45.628504],[-122.6821,45.628484],[-122.682066,45.628403],[-122.681972,45.628394],[-122.681944,45.628316],[-122.68177,45.628305],[-122.681721,45.628336],[-122.681715,45.628393],[-122.681634,45.628397],[-122.68159,45.628431],[-122.681588,45.628714],[-122.681654,45.628752],[-122.68197,45.628754],[-122.682003,45.628835],[-122.682171,45.628842],[-122.68222,45.628811],[-122.682226,45.628754],[-122.682314,45.628748],[-122.682354,45.628706],[-122.682342,45.628599],[-122.682227,45.628574]],[[-122.682403,45.629205],[-122.682477,45.629167],[-122.682472,45.629054],[-122.682419,45.629026],[-122.682265,45.629031],[-122.682226,45.629068],[-122.682233,45.629176],[-122.682286,45.629204],[-122.682403,45.629205]],[[-122.683171,45.629567],[-122.683245,45.629529],[-122.68324,45.629416],[-122.683187,45.629388],[-122.683032,45.62938],[-122.682993,45.629422],[-122.683001,45.629538],[-122.683053,45.629566],[-122.683171,45.629567]]]}},{"type":"Feature","properties":{"id":46,"area_m2":69400,"px":694,"rank":3,"persistent":false},"geometry":{"type":"Polygon","coordinates":[[[-122.673767,45.62729],[-122.673764,45.62792],[-122.673658,45.627936],[-122.673635,45.62801],[-122.673413,45.628012],[-122.673359,45.62806],[-122.673412,45.62818],[-122.673634,45.62819],[-122.673632,45.62846],[-122.673504,45.62846],[-122.673499,45.62839],[-122.673452,45.628358],[-122.673303,45.628371],[-122.673248,45.628418],[-122.673246,45.628639],[-122.672862,45.628638],[-122.672862,45.628548],[-122.672897,45.6285],[-122.672848,45.628375],[-122.672897,45.628315],[-122.672858,45.628275],[-122.672803,45.628264],[-122.672741,45.628297],[-122.672735,45.628367],[-122.672607,45.628367],[-122.672539,45.628343],[-122.672478,45.628367],[-122.672263,45.628373],[-122.672223,45.62841],[-122.672221,45.628546],[-122.672115,45.628562],[-122.672092,45.628636],[-122.671877,45.628636],[-122.671824,45.628665],[-122.671838,45.628777],[-122.671875,45.628809],[-122.672219,45.628816],[-122.672217,45.629266],[-122.672136,45.62927],[-122.672091,45.629304],[-122.672087,45.629536],[-122.671702,45.629535],[-122.671634,45.62951],[-122.671574,45.629534],[-122.671243,45.629536],[-122.671189,45.629582],[-122.671187,45.629803],[-122.670802,45.629802],[-122.670803,45.629712],[-122.67089,45.629706],[-122.67093,45.629669],[-122.670916,45.629372],[-122.670805,45.629352],[-122.670799,45.629295],[-122.670758,45.629266],[-122.670549,45.629261],[-122.670546,45.629196],[-122.670504,45.629162],[-122.670293,45.629171],[-122.670292,45.629034],[-122.670253,45.628997],[-122.669781,45.628989],[-122.669783,45.628629],[-122.669911,45.628629],[-122.669912,45.62878],[-122.669963,45.628821],[-122.670421,45.628811],[-122.670491,45.628835],[-122.670639,45.628805],[-122.670679,45.628768],[-122.670681,45.628632],[-122.670895,45.628631],[-122.670952,45.628598],[-122.670939,45.628362],[-122.67102,45.628358],[-122.671064,45.628324],[-122.671069,45.628093],[-122.671406,45.62809],[-122.671448,45.62806],[-122.671454,45.628004],[-122.671683,45.627992],[-122.671744,45.627883],[-122.671731,45.627837],[-122.671659,45.627801],[-122.671584,45.627824],[-122.671071,45.627823],[-122.671058,45.627757],[-122.670943,45.627732],[-122.670909,45.627651],[-122.670687,45.627641],[-122.670665,45.627567],[-122.670559,45.627551],[-122.670547,45.627395],[-122.670432,45.627371],[-122.670432,45.627281],[-122.670538,45.627265],[-122.670561,45.627191],[-122.670817,45.627192],[-122.670823,45.627262],[-122.670884,45.627295],[-122.671039,45.62728],[-122.671085,45.627253],[-122.671075,45.627061],[-122.671041,45.627022],[-122.670562,45.62701],[-122.670563,45.626921],[-122.670668,45.626906],[-122.670691,45.626832],[-122.670873,45.626846],[-122.670936,45.626821],[-122.670949,45.626652],[-122.671037,45.626646],[-122.671076,45.626609],[-122.671077,45.626516],[-122.671044,45.626482],[-122.670862,45.626478],[-122.670825,45.62651],[-122.670821,45.626562],[-122.670471,45.62657],[-122.670436,45.626609],[-122.670435,45.626741],[-122.670307,45.62674],[-122.670302,45.626684],[-122.670253,45.626653],[-122.670085,45.626659],[-122.67005,45.62674],[-122.669963,45.626746],[-122.669922,45.626788],[-122.669934,45.626895],[-122.670049,45.62692],[-122.670048,45.6271],[-122.66992,45.627099],[-122.669898,45.627025],[-122.669792,45.627009],[-122.669795,45.626649],[-122.669905,45.626629],[-122.669958,45.626517],[-122.669924,45.626469],[-122.669916,45.626318],[-122.66987,45.626291],[-122.669797,45.626289],[-122.669798,45.626109],[-122.669832,45.626066],[-122.669798,45.626019],[-122.6698,45.625749],[-122.669928,45.625749],[-122.669927,45.62597],[-122.669967,45.626013],[-122.670128,45.626017],[-122.670177,45.625987],[-122.670184,45.62593],[-122.670312,45.62593],[-122.670311,45.626062],[-122.670345,45.626101],[-122.670507,45.626135],[-122.670668,45.626099],[-122.670696,45.626021],[-122.670796,45.626009],[-122.670825,45.625932],[-122.670919,45.625923],[-122.670954,45.625842],[-122.671035,45.625838],[-122.671079,45.625804],[-122.671087,45.625032],[-122.671193,45.625017],[-122.671216,45.624943],[-122.671857,45.624945],[-122.671862,45.625001],[-122.671911,45.625032],[-122.672045,45.625059],[-122.672113,45.625035],[-122.672241,45.625036],[-122.672263,45.6252],[-122.672497,45.625217],[-122.672519,45.625291],[-122.672624,45.625307],[-122.672623,45.625577],[-122.672512,45.625596],[-122.672475,45.625695],[-122.672491,45.625736],[-122.672543,45.625756],[-122.672844,45.625748],[-122.672878,45.625709],[-122.67288,45.625578],[-122.67296,45.625574],[-122.673005,45.62554],[-122.673003,45.625341],[-122.672962,45.625312],[-122.672881,45.625308],[-122.672883,45.625038],[-122.673139,45.625038],[-122.673161,45.625113],[-122.673267,45.625129],[-122.673254,45.625369],[-122.6733,45.625396],[-122.673394,45.625399],[-122.673427,45.62548],[-122.673521,45.62549],[-122.673521,45.625806],[-122.67356,45.625843],[-122.673648,45.62585],[-122.673647,45.62594],[-122.673613,45.625982],[-122.673646,45.62603],[-122.673645,45.62621],[-122.673572,45.626212],[-122.673526,45.626238],[-122.673516,45.626389],[-122.673314,45.626391],[-122.673265,45.626422],[-122.673259,45.626479],[-122.673065,45.626479],[-122.673011,45.626507],[-122.672999,45.627108],[-122.672891,45.627114],[-122.672851,45.627169],[-122.672879,45.627259],[-122.672932,45.627287],[-122.673767,45.62729]],[[-122.670567,45.626241],[-122.670507,45.626188],[-122.670344,45.62621],[-122.67031,45.626249],[-122.670322,45.626356],[-122.670476,45.626394],[-122.670533,45.626385],[-122.670564,45.626351],[-122.670567,45.626241]],[[-122.671193,45.628813],[-122.671212,45.628768],[-122.67118,45.628733],[-122.671107,45.628724],[-122.671057,45.628748],[-122.671047,45.628789],[-122.671083,45.628826],[-122.67114,45.628837],[-122.671193,45.628813]],[[-122.671374,45.628634],[-122.671447,45.628596],[-122.671442,45.628482],[-122.671278,45.628431],[-122.67122,45.628437],[-122.67116,45.628495],[-122.671203,45.628605],[-122.671256,45.628632],[-122.671374,45.628634]],[[-122.671583,45.626445],[-122.671609,45.626334],[-122.671565,45.626298],[-122.67127,45.626294],[-122.671213,45.626326],[-122.671188,45.626428],[-122.671249,45.626472],[-122.67153,45.626473],[-122.671583,45.626445]],[[-122.671262,45.625209],[-122.671403,45.625227],[-122.671458,45.625203],[-122.671468,45.625072],[-122.671417,45.625036],[-122.67127,45.625035],[-122.671218,45.625071],[-122.671218,45.625174],[-122.671262,45.625209]],[[-122.671383,45.627103],[-122.671456,45.627065],[-122.671451,45.626952],[-122.671399,45.626925],[-122.671245,45.626929],[-122.671205,45.626966],[-122.671212,45.627074],[-122.671265,45.627102],[-122.671383,45.627103]],[[-122.67147,45.625344],[-122.671403,45.62529],[-122.671226,45.625327],[-122.671213,45.625524],[-122.671246,45.625564],[-122.671399,45.625573],[-122.671456,45.62555],[-122.67147,45.625344]],[[-122.671652,45.628983],[-122.671461,45.629018],[-122.671449,45.62913],[-122.671495,45.62917],[-122.671644,45.629187],[-122.671703,45.629145],[-122.671702,45.629019],[-122.671652,45.628983]],[[-122.671502,45.626827],[-122.67165,45.626848],[-122.671705,45.626824],[-122.671717,45.626698],[-122.671671,45.626658],[-122.671522,45.626641],[-122.671465,45.626678],[-122.671463,45.62679],[-122.671502,45.626827]],[[-122.671891,45.628905],[-122.671815,45.62895],[-122.671846,45.629061],[-122.671902,45.629085],[-122.672055,45.629077],[-122.672089,45.629037],[-122.672077,45.62893],[-122.672028,45.628907],[-122.671891,45.628905]],[[-122.672016,45.628455],[-122.672092,45.628412],[-122.672091,45.628224],[-122.67204,45.628188],[-122.671893,45.628187],[-122.671839,45.628228],[-122.67184,45.628417],[-122.671891,45.628453],[-122.672016,45.628455]],[[-122.672102,45.626966],[-122.672042,45.626913],[-122.67188,45.626934],[-122.671845,45.626974],[-122.671857,45.627081],[-122.671914,45.627105],[-122.672067,45.627096],[-122.6721,45.627062],[-122.672102,45.626966]],[[-122.672635,45.626082],[-122.67262,45.62589],[-122.672567,45.625849],[-122.671921,45.625845],[-122.671855,45.625883],[-122.671852,45.626071],[-122.671905,45.626113],[-122.672578,45.626116],[-122.672635,45.626082]],[[-122.672498,45.627877],[-122.672448,45.627746],[-122.67228,45.627738],[-122.672231,45.627769],[-122.672208,45.627876],[-122.672266,45.627915],[-122.672447,45.627914],[-122.672498,45.627877]],[[-122.672745,45.627109],[-122.672737,45.626961],[-122.672696,45.626931],[-122.672615,45.626927],[-122.672587,45.626849],[-122.672313,45.626822],[-122.672248,45.626842],[-122.672209,45.62723],[-122.672242,45.627276],[-122.672485,45.627287],[-122.672518,45.627368],[-122.672695,45.627386],[-122.672738,45.627353],[-122.672742,45.627197],[-122.672776,45.62716],[-122.672745,45.627109]],[[-122.672291,45.625497],[-122.672482,45.625462],[-122.672493,45.625345],[-122.672442,45.625309],[-122.672294,45.625308],[-122.672241,45.625349],[-122.672242,45.625461],[-122.672291,45.625497]],[[-122.672609,45.628097],[-122.672627,45.628052],[-122.672595,45.628017],[-122.67253,45.628007],[-122.672477,45.628027],[-122.672461,45.628068],[-122.672498,45.62811],[-122.672555,45.628121],[-122.672609,45.628097]],[[-122.673048,45.627558],[-122.673121,45.62752],[-122.673116,45.627407],[-122.673064,45.627379],[-122.67291,45.627384],[-122.67287,45.627421],[-122.672877,45.627529],[-122.67293,45.627557],[-122.673048,45.627558]],[[-122.673134,45.625979],[-122.673067,45.625925],[-122.67289,45.625962],[-122.672877,45.626159],[-122.67291,45.626199],[-122.673058,45.626222],[-122.67312,45.626198],[-122.673134,45.625979]],[[-122.673426,45.627749],[-122.673589,45.627736],[-122.673634,45.627702],[-122.673638,45.627429],[-122.673591,45.627384],[-122.673452,45.62738],[-122.673383,45.627423],[-122.673381,45.627704],[-122.673426,45.627749]]]}},{"type":"Feature","properties":{"id":1,"area_m2":26300,"px":263,"rank":4,"persistent":false},"geometry":{"type":"Polygon","coordinates":[[[-122.690298,45.630577],[-122.690296,45.631027],[-122.689952,45.631032],[-122.689914,45.631064],[-122.68991,45.631116],[-122.689795,45.631139],[-122.689782,45.631205],[-122.689671,45.631225],[-122.689653,45.631295],[-122.689547,45.631311],[-122.68949,45.631427],[-122.689524,45.631475],[-122.689523,45.631655],[-122.689417,45.63167],[-122.689394,45.631744],[-122.689294,45.631756],[-122.689265,45.631834],[-122.689165,45.631846],[-122.689136,45.631924],[-122.689042,45.631933],[-122.689007,45.632013],[-122.688897,45.632033],[-122.688879,45.632103],[-122.68867,45.632107],[-122.688628,45.632136],[-122.688622,45.632192],[-122.688516,45.632208],[-122.688492,45.632372],[-122.688458,45.632414],[-122.688478,45.632453],[-122.688545,45.632486],[-122.68862,45.632462],[-122.688836,45.632457],[-122.688874,45.632425],[-122.688877,45.632373],[-122.688993,45.632349],[-122.689006,45.632283],[-122.689117,45.632264],[-122.689135,45.632194],[-122.689246,45.632174],[-122.689264,45.632104],[-122.689375,45.632085],[-122.689393,45.632014],[-122.689615,45.632006],[-122.68965,45.631925],[-122.689765,45.631901],[-122.689778,45.631835],[-122.690101,45.631835],[-122.690154,45.631808],[-122.690164,45.631747],[-122.690292,45.631747],[-122.690284,45.633097],[-122.690179,45.633112],[-122.690156,45.633187],[-122.690029,45.633186],[-122.689994,45.633105],[-122.689817,45.633086],[-122.689773,45.633125],[-122.68977,45.633275],[-122.689642,45.633275],[-122.689629,45.633209],[-122.689566,45.633185],[-122.68942,45.633194],[-122.689385,45.633274],[-122.688872,45.633273],[-122.688873,45.633093],[-122.689055,45.633107],[-122.689108,45.633091],[-122.68913,45.633054],[-122.689118,45.632924],[-122.689056,45.6329],[-122.688874,45.632913],[-122.688862,45.632847],[-122.688798,45.632823],[-122.688537,45.632826],[-122.688496,45.632855],[-122.688489,45.632912],[-122.688233,45.632911],[-122.688211,45.632837],[-122.688105,45.632821],[-122.688118,45.632581],[-122.688072,45.632553],[-122.687978,45.632551],[-122.68798,45.632281],[-122.688053,45.632278],[-122.688099,45.632252],[-122.688109,45.632101],[-122.688237,45.632101],[-122.688305,45.632126],[-122.688476,45.632082],[-122.688529,45.63197],[-122.688495,45.631922],[-122.688495,45.631832],[-122.688596,45.63182],[-122.688624,45.631742],[-122.688724,45.63173],[-122.688753,45.631653],[-122.688853,45.631641],[-122.688882,45.631563],[-122.688976,45.631554],[-122.689011,45.631473],[-122.689121,45.631454],[-122.689139,45.631384],[-122.689245,45.631368],[-122.689267,45.631247],[-122.689228,45.63121],[-122.68914,45.631204],[-122.689135,45.631147],[-122.689086,45.631116],[-122.688884,45.631113],[-122.688824,45.631089],[-122.688756,45.631112],[-122.688499,45.631112],[-122.688439,45.631088],[-122.688371,45.631111],[-122.688243,45.631111],[-122.688243,45.631021],[-122.688354,45.631002],[-122.688373,45.630842],[-122.688478,45.630826],[-122.688501,45.630752],[-122.688595,45.630743],[-122.68863,45.630662],[-122.688741,45.630643],[-122.688759,45.630573],[-122.689096,45.630569],[-122.689138,45.63054],[-122.689144,45.630484],[-122.689373,45.630472],[-122.689401,45.630394],[-122.689658,45.630395],[-122.689657,45.630575],[-122.68947,45.630575],[-122.689418,45.630594],[-122.6894,45.630796],[-122.689454,45.630842],[-122.689655,45.630845],[-122.689661,45.630902],[-122.68971,45.630933],[-122.68983,45.630949],[-122.689884,45.630937],[-122.689911,45.630901],[-122.689913,45.630756],[-122.690018,45.63074],[-122.690041,45.630666],[-122.690157,45.630642],[-122.69017,45.630576],[-122.690298,45.630577]],[[-122.688478,45.632576],[-122.68828,45.632529],[-122.688202,45.632583],[-122.68824,45.632698],[-122.688288,45.632729],[-122.688436,45.63273],[-122.688487,45.632694],[-122.688478,45.632576]]]}},{"type":"Feature","properties":{"id":26,"area_m2":24800,"px":248,"rank":5,"persistent":false},"geometry":{"type":"Polygon","coordinates":[[[-122.672595,45.629899],[-122.672563,45.629945],[-122.672597,45.629987],[-122.672597,45.630077],[-122.672486,45.630097],[-122.672433,45.630215],[-122.672484,45.630327],[-122.672595,45.630347],[-122.672592,45.630797],[-122.672512,45.630801],[-122.672467,45.630835],[-122.672463,45.631067],[-122.672078,45.631066],[-122.67201,45.631042],[-122.671834,45.631089],[-122.671786,45.631198],[-122.67182,45.631245],[-122.671819,45.631425],[-122.671719,45.631437],[-122.67169,45.631515],[-122.671603,45.631521],[-122.671562,45.631563],[-122.671574,45.631671],[-122.671689,45.631695],[-122.671689,45.631785],[-122.671304,45.631784],[-122.671304,45.631557],[-122.671236,45.631514],[-122.671111,45.631514],[-122.671058,45.631542],[-122.671047,45.631783],[-122.670919,45.631783],[-122.670918,45.631646],[-122.670858,45.631603],[-122.670711,45.631606],[-122.670669,45.631635],[-122.670663,45.631692],[-122.670535,45.631691],[-122.670535,45.631602],[-122.670641,45.631586],[-122.670664,45.631512],[-122.670871,45.631512],[-122.670928,45.631488],[-122.670916,45.631262],[-122.670848,45.631229],[-122.670537,45.631241],[-122.670511,45.63115],[-122.670281,45.631151],[-122.670272,45.631089],[-122.67022,45.631062],[-122.669769,45.631059],[-122.669769,45.630969],[-122.669877,45.630963],[-122.669917,45.630914],[-122.66989,45.630728],[-122.669844,45.630702],[-122.669771,45.630699],[-122.669772,45.630429],[-122.669878,45.630414],[-122.669901,45.63034],[-122.670508,45.630332],[-122.670542,45.630293],[-122.670544,45.630161],[-122.670624,45.630158],[-122.670669,45.630123],[-122.670673,45.629982],[-122.671532,45.629991],[-122.67157,45.629954],[-122.671572,45.629804],[-122.671653,45.6298],[-122.671697,45.629766],[-122.671701,45.629625],[-122.672086,45.629626],[-122.672147,45.62965],[-122.672215,45.629626],[-122.672471,45.629627],[-122.672493,45.629701],[-122.672599,45.629717],[-122.672595,45.629899]],[[-122.670029,45.63052],[-122.669994,45.630557],[-122.670009,45.630597],[-122.670067,45.630623],[-122.670123,45.630614],[-122.670155,45.63058],[-122.670144,45.630531],[-122.67009,45.630507],[-122.670029,45.63052]],[[-122.670925,45.630792],[-122.670919,45.630736],[-122.670871,45.630705],[-122.670731,45.630703],[-122.670678,45.63073],[-122.670667,45.631013],[-122.670707,45.631056],[-122.670883,45.631056],[-122.67092,45.631024],[-122.670924,45.630973],[-122.670997,45.63097],[-122.671043,45.630944],[-122.671044,45.630821],[-122.670998,45.630795],[-122.670925,45.630792]],[[-122.671357,45.631424],[-122.671433,45.631381],[-122.671434,45.631288],[-122.671407,45.631256],[-122.671127,45.631243],[-122.671068,45.631263],[-122.67105,45.631374],[-122.671078,45.631411],[-122.671357,45.631424]],[[-122.671311,45.630252],[-122.67126,45.63023],[-122.671203,45.63024],[-122.671165,45.630282],[-122.671181,45.630323],[-122.671234,45.630343],[-122.671305,45.630331],[-122.671332,45.630293],[-122.671311,45.630252]],[[-122.671825,45.630475],[-122.671765,45.630422],[-122.671602,45.630444],[-122.671568,45.630483],[-122.67158,45.63059],[-122.671735,45.630628],[-122.671791,45.630619],[-122.671823,45.630585],[-122.671825,45.630475]],[[-122.672207,45.629863],[-122.672246,45.629774],[-122.672237,45.629733],[-122.672183,45.629697],[-122.672131,45.629693],[-122.67197,45.629739],[-122.67196,45.629857],[-122.672011,45.629893],[-122.672158,45.629894],[-122.672207,45.629863]]]}},{"type":"Feature","properties":{"id":58,"area_m2":16200,"px":162,"rank":6,"persistent":false},"geometry":{"type":"Polygon","coordinates":[[[-122.685438,45.627863],[-122.685437,45.628043],[-122.685343,45.628052],[-122.685309,45.628097],[-122.685314,45.628279],[-122.685355,45.628309],[-122.685436,45.628313],[-122.685435,45.628493],[-122.684984,45.628493],[-122.684921,45.628546],[-122.684922,45.628628],[-122.684955,45.628663],[-122.685434,45.628673],[-122.685433,45.628763],[-122.68492,45.628762],[-122.684917,45.62871],[-122.68488,45.628678],[-122.684664,45.628671],[-122.684604,45.628647],[-122.684534,45.628671],[-122.683766,45.628669],[-122.683738,45.628591],[-122.683555,45.628555],[-122.683422,45.628584],[-122.683387,45.628611],[-122.683361,45.628792],[-122.683388,45.628835],[-122.683637,45.628848],[-122.683697,45.628873],[-122.683765,45.628849],[-122.68415,45.62885],[-122.684149,45.62894],[-122.684044,45.628955],[-122.684021,45.629029],[-122.683797,45.629025],[-122.683764,45.629119],[-122.683507,45.629118],[-122.683473,45.629037],[-122.683251,45.629027],[-122.683229,45.628953],[-122.683123,45.628937],[-122.683125,45.628667],[-122.683206,45.628663],[-122.683247,45.628634],[-122.683255,45.628397],[-122.683328,45.628395],[-122.683374,45.628369],[-122.683366,45.628237],[-122.683052,45.628193],[-122.682999,45.628216],[-122.68279,45.62822],[-122.682748,45.628249],[-122.682742,45.628306],[-122.682615,45.628305],[-122.682608,45.628249],[-122.682559,45.628218],[-122.682229,45.628214],[-122.682207,45.62814],[-122.682102,45.628124],[-122.682089,45.628058],[-122.681974,45.628033],[-122.681946,45.627956],[-122.681846,45.627943],[-122.681824,45.627779],[-122.68159,45.627762],[-122.681592,45.627402],[-122.681977,45.627404],[-122.681983,45.62746],[-122.682031,45.627491],[-122.682362,45.627495],[-122.68236,45.627765],[-122.682328,45.627823],[-122.682382,45.627929],[-122.682487,45.627945],[-122.682488,45.628082],[-122.682541,45.628123],[-122.682688,45.628123],[-122.682743,45.628077],[-122.682743,45.627809],[-122.682704,45.627772],[-122.682617,45.627765],[-122.682618,45.627585],[-122.682874,45.627586],[-122.682896,45.62775],[-122.68313,45.627767],[-122.683146,45.628017],[-122.683198,45.628037],[-122.683513,45.628038],[-122.683514,45.628188],[-122.683565,45.628229],[-122.683897,45.628219],[-122.683931,45.6283],[-122.684091,45.628308],[-122.684144,45.628281],[-122.684154,45.62822],[-122.684227,45.628218],[-122.684273,45.628191],[-122.684283,45.62804],[-122.684796,45.628041],[-122.684795,45.628221],[-122.684707,45.628228],[-122.684667,45.62827],[-122.684667,45.628448],[-122.684727,45.62849],[-122.684899,45.628476],[-122.684923,45.628312],[-122.685017,45.628303],[-122.685052,45.628222],[-122.685132,45.628218],[-122.685177,45.628184],[-122.685175,45.627986],[-122.685134,45.627956],[-122.685053,45.627952],[-122.685055,45.627592],[-122.685183,45.627592],[-122.685195,45.627748],[-122.685311,45.627773],[-122.685344,45.627854],[-122.685438,45.627863]]]}},{"type":"Feature","properties":{"id":4,"area_m2":13900,"px":139,"rank":7,"persistent":false},"geometry":{"type":"Polygon","coordinates":[[[-122.67271,45.632688],[-122.672709,45.632778],[-122.672622,45.632784],[-122.672582,45.632821],[-122.67258,45.632958],[-122.672545,45.633],[-122.672579,45.633048],[-122.672578,45.633227],[-122.672194,45.633226],[-122.672166,45.633149],[-122.672005,45.633112],[-122.671837,45.633148],[-122.671809,45.633225],[-122.67168,45.633225],[-122.671658,45.633151],[-122.671553,45.633135],[-122.671532,45.632957],[-122.671472,45.632941],[-122.671308,45.632965],[-122.671269,45.632876],[-122.671115,45.63285],[-122.671044,45.632888],[-122.671043,45.633005],[-122.671102,45.633042],[-122.671286,45.633033],[-122.671295,45.633224],[-122.670782,45.633222],[-122.670722,45.633198],[-122.670654,45.633222],[-122.670397,45.633221],[-122.670375,45.633147],[-122.67027,45.63313],[-122.670271,45.632861],[-122.670359,45.632855],[-122.670399,45.632813],[-122.670401,45.632681],[-122.670435,45.632634],[-122.670396,45.632535],[-122.670347,45.632503],[-122.670214,45.632501],[-122.670154,45.632529],[-122.670144,45.63259],[-122.66976,45.632589],[-122.669761,45.632319],[-122.669796,45.632277],[-122.669762,45.632229],[-122.669762,45.632139],[-122.669978,45.632134],[-122.670016,45.632102],[-122.670019,45.63205],[-122.670248,45.632038],[-122.670277,45.631961],[-122.670661,45.631962],[-122.67067,45.632023],[-122.67073,45.632052],[-122.671174,45.632053],[-122.671173,45.632143],[-122.67073,45.632142],[-122.670663,45.63218],[-122.670661,45.632278],[-122.670707,45.632318],[-122.670848,45.632347],[-122.670916,45.632323],[-122.671172,45.632323],[-122.671172,45.632413],[-122.671078,45.632422],[-122.671043,45.632503],[-122.670962,45.632507],[-122.67092,45.632536],[-122.670894,45.632632],[-122.670934,45.632676],[-122.671871,45.632685],[-122.671931,45.632657],[-122.671941,45.632596],[-122.67258,45.632597],[-122.672604,45.632672],[-122.67271,45.632688]]]}},{"type":"Feature","properties":{"id":78,"area_m2":11900,"px":119,"rank":8,"persistent":false},"geometry":{"type":"Polygon","coordinates":[[[-122.67762,45.626043],[-122.677589,45.626089],[-122.677623,45.626131],[-122.677622,45.626221],[-122.677588,45.626269],[-122.677622,45.626311],[-122.677621,45.626491],[-122.67751,45.626511],[-122.677457,45.626623],[-122.677491,45.626672],[-122.677488,45.627211],[-122.677382,45.627226],[-122.677359,45.6273],[-122.676975,45.627299],[-122.676962,45.627233],[-122.676898,45.627209],[-122.676396,45.627209],[-122.676343,45.627236],[-122.676333,45.627298],[-122.676205,45.627297],[-122.676183,45.627223],[-122.676077,45.627207],[-122.676078,45.627027],[-122.676113,45.626979],[-122.676079,45.626937],[-122.676063,45.626597],[-122.676011,45.626577],[-122.675858,45.626585],[-122.675824,45.626625],[-122.675823,45.626756],[-122.675697,45.626756],[-122.675682,45.62669],[-122.675567,45.626665],[-122.675545,45.626591],[-122.675439,45.626575],[-122.67544,45.626485],[-122.675546,45.62647],[-122.675569,45.626395],[-122.675953,45.626397],[-122.675971,45.626467],[-122.676081,45.626487],[-122.67609,45.626548],[-122.67615,45.626577],[-122.67642,45.626587],[-122.676463,45.626553],[-122.676466,45.626488],[-122.676824,45.62649],[-122.676851,45.626449],[-122.676836,45.626059],[-122.676784,45.626039],[-122.676516,45.626042],[-122.67647,45.626081],[-122.676468,45.626218],[-122.67634,45.626217],[-122.67634,45.626039],[-122.676446,45.626022],[-122.676469,45.625948],[-122.676826,45.625937],[-122.676854,45.6259],[-122.676855,45.625769],[-122.677496,45.625771],[-122.677519,45.625845],[-122.677624,45.625861],[-122.67762,45.626043]],[[-122.676596,45.626757],[-122.676627,45.626721],[-122.676613,45.626681],[-122.676554,45.626655],[-122.676492,45.626667],[-122.676465,45.626703],[-122.676481,45.626751],[-122.676539,45.626772],[-122.676596,45.626757]],[[-122.677109,45.626761],[-122.677052,45.626746],[-122.676995,45.626766],[-122.676978,45.626814],[-122.677004,45.62685],[-122.677066,45.626863],[-122.677125,45.626837],[-122.677139,45.626797],[-122.677109,45.626761]],[[-122.677362,45.626801],[-122.677341,45.626763],[-122.677281,45.626747],[-122.67722,45.626769],[-122.6772,45.626808],[-122.677225,45.626845],[-122.677288,45.626864],[-122.677345,45.626844],[-122.677362,45.626801]]]}},{"type":"Feature","properties":{"id":79,"area_m2":11200,"px":112,"rank":9,"persistent":false},"geometry":{"type":"Polygon","coordinates":[[[-122.687111,45.627058],[-122.68711,45.627238],[-122.686597,45.627236],[-122.686584,45.62717],[-122.686469,45.627146],[-122.686447,45.627072],[-122.686281,45.627031],[-122.686213,45.627055],[-122.685984,45.627067],[-122.685956,45.627103],[-122.685955,45.627234],[-122.68557,45.627233],[-122.685543,45.627156],[-122.685314,45.627143],[-122.685309,45.627086],[-122.685267,45.627057],[-122.68493,45.627052],[-122.684917,45.626986],[-122.684802,45.626961],[-122.684768,45.62688],[-122.684546,45.626871],[-122.68454,45.626814],[-122.684492,45.626783],[-122.68429,45.62678],[-122.684291,45.62669],[-122.684547,45.626691],[-122.68463,45.626713],[-122.684781,45.626675],[-122.684806,45.626601],[-122.685189,45.626602],[-122.685198,45.626664],[-122.685258,45.626692],[-122.685661,45.626687],[-122.685698,45.626655],[-122.685702,45.626604],[-122.685817,45.62658],[-122.685831,45.626514],[-122.685946,45.62649],[-122.685954,45.626368],[-122.685898,45.626335],[-122.685765,45.626335],[-122.685712,45.626362],[-122.685703,45.626424],[-122.685447,45.626423],[-122.685424,45.626349],[-122.685319,45.626333],[-122.68532,45.626153],[-122.685426,45.626137],[-122.685449,45.626063],[-122.685833,45.626064],[-122.685855,45.626138],[-122.685961,45.626154],[-122.685995,45.626235],[-122.686089,45.626245],[-122.686105,45.626405],[-122.686216,45.626425],[-122.68625,45.626506],[-122.686344,45.626516],[-122.686366,45.62668],[-122.686471,45.626696],[-122.686477,45.626753],[-122.686518,45.626782],[-122.686727,45.626787],[-122.686749,45.626861],[-122.686855,45.626877],[-122.686868,45.626943],[-122.686983,45.626967],[-122.687011,45.627045],[-122.687111,45.627058]]]}},{"type":"Feature","properties":{"id":36,"area_m2":9000,"px":90,"rank":10,"persistent":false},"geometry":{"type":"Polygon","coordinates":[[[-122.679139,45.630096],[-122.679136,45.630726],[-122.67903,45.630741],[-122.679007,45.630815],[-122.678751,45.630815],[-122.678738,45.630749],[-122.678674,45.630725],[-122.678529,45.630733],[-122.678494,45.630814],[-122.678109,45.630813],[-122.678087,45.630739],[-122.677981,45.630723],[-122.678001,45.630588],[-122.67794,45.630544],[-122.677754,45.630554],[-122.677725,45.630632],[-122.67761,45.630656],[-122.677596,45.630722],[-122.677468,45.630721],[-122.677446,45.630647],[-122.677341,45.630631],[-122.677344,45.630091],[-122.677728,45.630092],[-122.677751,45.630166],[-122.677856,45.630182],[-122.677859,45.630324],[-122.677932,45.630362],[-122.67805,45.630362],[-122.678099,45.630339],[-122.678113,45.630093],[-122.678219,45.630077],[-122.678242,45.630003],[-122.678358,45.62998],[-122.678371,45.629914],[-122.678499,45.629914],[-122.6785,45.630051],[-122.678553,45.630092],[-122.678828,45.630093],[-122.678877,45.630062],[-122.678884,45.630005],[-122.67901,45.630005],[-122.679034,45.63008],[-122.679139,45.630096]]]}},{"type":"Feature","properties":{"id":8,"area_m2":7900,"px":79,"rank":11,"persistent":false},"geometry":{"type":"Polygon","coordinates":[[[-122.678617,45.631715],[-122.678615,45.632075],[-122.678527,45.632081],[-122.678488,45.632118],[-122.678485,45.632434],[-122.678034,45.632434],[-122.67798,45.632461],[-122.677971,45.632523],[-122.677743,45.632534],[-122.677715,45.632571],[-122.677717,45.632664],[-122.677761,45.632698],[-122.677842,45.632703],[-122.677841,45.632792],[-122.677585,45.632792],[-122.677584,45.632655],[-122.677531,45.632614],[-122.677377,45.632615],[-122.677335,45.632644],[-122.677328,45.632701],[-122.677202,45.632701],[-122.677178,45.632626],[-122.677073,45.63261],[-122.677077,45.63189],[-122.677333,45.631891],[-122.677367,45.631972],[-122.677589,45.631982],[-122.677617,45.63206],[-122.677778,45.632086],[-122.677842,45.632048],[-122.677846,45.631941],[-122.677806,45.631899],[-122.677718,45.631892],[-122.677719,45.631712],[-122.678617,45.631715]],[[-122.677264,45.63234],[-122.677534,45.632353],[-122.677584,45.632317],[-122.677579,45.6321],[-122.677519,45.632072],[-122.677245,45.632077],[-122.677204,45.632119],[-122.677212,45.632312],[-122.677264,45.63234]]]}},{"type":"Feature","properties":{"id":54,"area_m2":7800,"px":78,"rank":12,"persistent":false},"geometry":{"type":"Polygon","coordinates":[[[-122.674783,45.629183],[-122.674781,45.629543],[-122.673883,45.629541],[-122.673881,45.629386],[-122.673809,45.629347],[-122.673655,45.629372],[-122.673627,45.62945],[-122.673404,45.629459],[-122.67337,45.629539],[-122.672728,45.629538],[-122.672729,45.629358],[-122.672764,45.629315],[-122.67273,45.629268],[-122.672731,45.628998],[-122.672837,45.628982],[-122.67286,45.628908],[-122.672976,45.628884],[-122.672989,45.628818],[-122.673759,45.628821],[-122.673762,45.628872],[-122.673799,45.628904],[-122.674015,45.628911],[-122.674023,45.628973],[-122.674076,45.629],[-122.674399,45.629002],[-122.674433,45.629083],[-122.674655,45.629093],[-122.674677,45.629167],[-122.674783,45.629183]],[[-122.673507,45.629245],[-122.673518,45.62904],[-122.673467,45.629002],[-122.673124,45.629011],[-122.673096,45.629049],[-122.673115,45.629179],[-122.672921,45.629179],[-122.672864,45.629211],[-122.672823,45.629316],[-122.672875,45.629428],[-122.672934,45.629448],[-122.673214,45.629437],[-122.673242,45.629359],[-122.673358,45.629335],[-122.673371,45.629269],[-122.673465,45.629267],[-122.673507,45.629245]]]}},{"type":"Feature","properties":{"id":18,"area_m2":6900,"px":69,"rank":13,"persistent":false},"geometry":{"type":"Polygon","coordinates":[[[-122.674515,45.631073],[-122.674514,45.631253],[-122.674071,45.631252],[-122.674004,45.63129],[-122.673999,45.631611],[-122.673964,45.631654],[-122.674002,45.631753],[-122.67406,45.631791],[-122.674255,45.631792],[-122.674254,45.631882],[-122.67416,45.631884],[-122.674111,45.631916],[-122.674125,45.632062],[-122.673868,45.632061],[-122.673869,45.631916],[-122.673842,45.63188],[-122.673613,45.63188],[-122.67361,45.631829],[-122.673572,45.631797],[-122.673357,45.63179],[-122.673334,45.631715],[-122.673229,45.631699],[-122.673207,45.631535],[-122.672973,45.631518],[-122.672973,45.631382],[-122.672934,45.631345],[-122.672718,45.631338],[-122.672719,45.631158],[-122.672825,45.631142],[-122.672848,45.631068],[-122.673807,45.631084],[-122.673865,45.631056],[-122.673876,45.630981],[-122.674003,45.630981],[-122.674011,45.631043],[-122.674064,45.631071],[-122.674515,45.631073]]]}},{"type":"Feature","properties":{"id":90,"area_m2":6300,"px":63,"rank":14,"persistent":false},"geometry":{"type":"Polygon","coordinates":[[[-122.674935,45.625134],[-122.674934,45.625223],[-122.674846,45.62523],[-122.674807,45.625267],[-122.674804,45.625583],[-122.674232,45.625582],[-122.674171,45.62561],[-122.674162,45.625671],[-122.673777,45.62567],[-122.673779,45.6254],[-122.673866,45.625394],[-122.673907,45.625352],[-122.67391,45.624951],[-122.674294,45.624952],[-122.674292,45.625353],[-122.674346,45.625399],[-122.674486,45.625401],[-122.674539,45.625374],[-122.67455,45.625132],[-122.674584,45.62509],[-122.67455,45.625041],[-122.674551,45.624862],[-122.674586,45.624815],[-122.674535,45.624702],[-122.674483,45.624682],[-122.674229,45.624682],[-122.674176,45.62471],[-122.674167,45.624771],[-122.673911,45.62477],[-122.673912,45.624501],[-122.674235,45.6245],[-122.674288,45.624473],[-122.674297,45.624412],[-122.674426,45.624412],[-122.674425,45.624543],[-122.674459,45.624583],[-122.674809,45.624593],[-122.674808,45.62509],[-122.674847,45.625127],[-122.674935,45.625134]]]}},{"type":"Feature","properties":{"id":20,"area_m2":5900,"px":59,"rank":15,"persistent":false},"geometry":{"type":"Polygon","coordinates":[[[-122.685161,45.631643],[-122.685159,45.631913],[-122.684646,45.631911],[-122.684647,45.631821],[-122.684681,45.631779],[-122.684647,45.631731],[-122.684648,45.631641],[-122.684749,45.631637],[-122.684795,45.631597],[-122.684774,45.63132],[-122.68473,45.631286],[-122.68465,45.631281],[-122.684616,45.6312],[-122.684522,45.631191],[-122.684519,45.631139],[-122.684482,45.631107],[-122.684137,45.6311],[-122.684129,45.630948],[-122.684084,45.630922],[-122.68401,45.630919],[-122.683994,45.630759],[-122.683883,45.630739],[-122.683886,45.630109],[-122.684015,45.630109],[-122.684037,45.630184],[-122.684142,45.6302],[-122.684159,45.63036],[-122.68427,45.63038],[-122.684303,45.630461],[-122.684397,45.630471],[-122.684425,45.630548],[-122.684525,45.630561],[-122.684534,45.630712],[-122.684579,45.630739],[-122.684652,45.630741],[-122.684655,45.630883],[-122.684699,45.630917],[-122.68478,45.630922],[-122.684792,45.631078],[-122.684907,45.631102],[-122.684907,45.631329],[-122.684946,45.631366],[-122.685034,45.631372],[-122.685038,45.631609],[-122.68508,45.631638],[-122.685161,45.631643]]]}},{"type":"Feature","properties":{"id":67,"area_m2":5200,"px":52,"rank":16,"persistent":false},"geometry":{"type":"Polygon","coordinates":[[[-122.687105,45.628048],[-122.687105,45.628138],[-122.686903,45.62814],[-122.686854,45.62817],[-122.686847,45.628227],[-122.686625,45.628236],[-122.68659,45.628316],[-122.686475,45.62834],[-122.686462,45.628406],[-122.686077,45.628405],[-122.686055,45.628241],[-122.685821,45.628224],[-122.685822,45.628134],[-122.685909,45.628128],[-122.68595,45.628086],[-122.685953,45.627595],[-122.686059,45.627579],[-122.686084,45.627505],[-122.68621,45.627505],[-122.686216,45.627562],[-122.686264,45.627593],[-122.686466,45.627596],[-122.686479,45.627662],[-122.686594,45.627686],[-122.686628,45.627767],[-122.68685,45.627777],[-122.686871,45.628031],[-122.687105,45.628048]]]}},{"type":"Feature","properties":{"id":70,"area_m2":5200,"px":52,"rank":17,"persistent":false},"geometry":{"type":"Polygon","coordinates":[[[-122.675948,45.627387],[-122.675945,45.627927],[-122.675839,45.627942],[-122.675816,45.628016],[-122.675236,45.628016],[-122.675183,45.628043],[-122.675172,45.628104],[-122.675046,45.628104],[-122.675018,45.628026],[-122.674865,45.62799],[-122.674788,45.628013],[-122.673892,45.628011],[-122.673892,45.627921],[-122.674107,45.62792],[-122.674164,45.627887],[-122.674151,45.627562],[-122.674515,45.627556],[-122.674556,45.627512],[-122.674537,45.627383],[-122.674867,45.627381],[-122.674916,45.62735],[-122.674922,45.627294],[-122.67505,45.627294],[-122.675073,45.627368],[-122.675178,45.627384],[-122.675178,45.627474],[-122.67509,45.627481],[-122.675049,45.627523],[-122.675047,45.62787],[-122.675069,45.627908],[-122.675124,45.627924],[-122.675769,45.627922],[-122.675816,45.627878],[-122.675813,45.62751],[-122.675772,45.62748],[-122.675638,45.627452],[-122.675562,45.627475],[-122.675434,45.627475],[-122.675435,45.627295],[-122.675692,45.627296],[-122.675695,45.627348],[-122.675732,45.62738],[-122.675948,45.627387]]]}},{"type":"Feature","properties":{"id":94,"area_m2":5100,"px":51,"rank":18,"persistent":false},"geometry":{"type":"Polygon","coordinates":[[[-122.674042,45.624141],[-122.674041,45.624321],[-122.673847,45.624321],[-122.673788,45.624358],[-122.673782,45.62486],[-122.673676,45.624876],[-122.673653,45.62495],[-122.673268,45.624949],[-122.673208,45.624924],[-122.67314,45.624948],[-122.672755,45.624947],[-122.672759,45.624317],[-122.672853,45.624308],[-122.672887,45.624264],[-122.672889,45.623826],[-122.672849,45.623784],[-122.672762,45.623777],[-122.672763,45.623597],[-122.672891,45.623598],[-122.672892,45.623734],[-122.672931,45.623771],[-122.673275,45.623779],[-122.673297,45.623853],[-122.673402,45.623869],[-122.673382,45.623998],[-122.673422,45.624042],[-122.673786,45.62405],[-122.673789,45.624102],[-122.673827,45.624134],[-122.674042,45.624141]],[[-122.673397,45.624769],[-122.673601,45.624781],[-122.673653,45.62474],[-122.673656,45.624374],[-122.673634,45.624335],[-122.6734,45.624319],[-122.67334,45.624295],[-122.673272,45.624319],[-122.672909,45.624333],[-122.672887,45.624372],[-122.672884,45.624727],[-122.672906,45.624765],[-122.672959,45.624782],[-122.673141,45.624768],[-122.673149,45.624843],[-122.673215,45.624872],[-122.673369,45.624847],[-122.673397,45.624769]],[[-122.673306,45.623991],[-122.673268,45.623902],[-122.67322,45.623871],[-122.673072,45.62387],[-122.673021,45.623906],[-122.67303,45.624024],[-122.67319,45.624071],[-122.673242,45.624067],[-122.673297,45.624031],[-122.673306,45.623991]]]}},{"type":"Feature","properties":{"id":30,"area_m2":4200,"px":42,"rank":19,"persistent":false},"geometry":{"type":"Polygon","coordinates":[[[-122.678748,45.631175],[-122.678747,45.631445],[-122.678641,45.63146],[-122.678618,45.631534],[-122.678503,45.631558],[-122.678489,45.631624],[-122.678361,45.631624],[-122.678301,45.6316],[-122.678231,45.631623],[-122.677591,45.631622],[-122.677588,45.63157],[-122.677551,45.631538],[-122.677335,45.631531],[-122.677336,45.631351],[-122.677442,45.631335],[-122.677465,45.631261],[-122.677581,45.631238],[-122.677594,45.631172],[-122.678748,45.631175]],[[-122.677976,45.631351],[-122.677925,45.631329],[-122.677868,45.631339],[-122.67783,45.631381],[-122.677846,45.631422],[-122.677898,45.631442],[-122.67797,45.63143],[-122.677997,45.631392],[-122.677976,45.631351]]]}},{"type":"Feature","properties":{"id":12,"area_m2":3900,"px":39,"rank":20,"persistent":false},"geometry":{"type":"Polygon","coordinates":[[[-122.672199,45.632326],[-122.672198,45.632506],[-122.672069,45.632506],[-122.672009,45.632482],[-122.671941,45.632506],[-122.671626,45.632505],[-122.671565,45.632533],[-122.671556,45.632594],[-122.671299,45.632594],[-122.671301,45.632324],[-122.671395,45.632315],[-122.671429,45.63227],[-122.671417,45.632168],[-122.671302,45.632144],[-122.671303,45.631964],[-122.671633,45.631962],[-122.671682,45.631932],[-122.671688,45.631875],[-122.672073,45.631876],[-122.672072,45.632056],[-122.672037,45.632104],[-122.672071,45.632146],[-122.672072,45.632283],[-122.672111,45.63232],[-122.672199,45.632326]]]}},{"type":"Feature","properties":{"id":14,"area_m2":3800,"px":38,"rank":21,"persistent":false},"geometry":{"type":"Polygon","coordinates":[[[-122.675791,45.632247],[-122.675791,45.632337],[-122.675575,45.632342],[-122.675538,45.632374],[-122.675534,45.632426],[-122.675406,45.632425],[-122.675397,45.632364],[-122.675337,45.632336],[-122.674636,45.632333],[-122.674639,45.631973],[-122.674828,45.631987],[-122.674894,45.631944],[-122.674898,45.631524],[-122.674971,45.631522],[-122.675017,45.631496],[-122.675027,45.631344],[-122.675133,45.631329],[-122.675156,45.631255],[-122.675378,45.631246],[-122.675413,45.631165],[-122.675541,45.631166],[-122.675563,45.63124],[-122.675669,45.631256],[-122.675668,45.631436],[-122.675209,45.631437],[-122.67516,45.631468],[-122.675154,45.631525],[-122.675043,45.631544],[-122.675025,45.631931],[-122.675064,45.631968],[-122.675152,45.631975],[-122.675155,45.632026],[-122.675192,45.632059],[-122.675408,45.632066],[-122.67542,45.632132],[-122.675535,45.632156],[-122.675539,45.632208],[-122.675576,45.63224],[-122.675791,45.632247]],[[-122.674897,45.632153],[-122.674928,45.632117],[-122.674914,45.632077],[-122.674856,45.632051],[-122.674793,45.632063],[-122.674766,45.632099],[-122.674783,45.632147],[-122.67484,45.632168],[-122.674897,45.632153]]]}},{"type":"Feature","properties":{"id":23,"area_m2":3700,"px":37,"rank":22,"persistent":false},"geometry":{"type":"Polygon","coordinates":[[[-122.680159,45.631359],[-122.680157,45.631719],[-122.680028,45.631718],[-122.679968,45.631694],[-122.6799,45.631718],[-122.679689,45.631708],[-122.679645,45.631747],[-122.679642,45.631897],[-122.679386,45.631897],[-122.679352,45.631816],[-122.67913,45.631806],[-122.679108,45.631732],[-122.679002,45.631716],[-122.679004,45.631446],[-122.679119,45.631422],[-122.679133,45.631266],[-122.679239,45.63125],[-122.679262,45.631176],[-122.679647,45.631177],[-122.679652,45.631324],[-122.679693,45.631353],[-122.679774,45.631358],[-122.679779,45.631428],[-122.679826,45.631459],[-122.679996,45.631439],[-122.680031,45.631359],[-122.680159,45.631359]]]}},{"type":"Feature","properties":{"id":43,"area_m2":3600,"px":36,"rank":23,"persistent":false},"geometry":{"type":"Polygon","coordinates":[[[-122.670416,45.629532],[-122.670384,45.629579],[-122.670418,45.629621],[-122.670416,45.629981],[-122.670311,45.629997],[-122.670287,45.630071],[-122.670193,45.630079],[-122.670159,45.63016],[-122.670048,45.63018],[-122.67003,45.63025],[-122.669902,45.630249],[-122.669902,45.63016],[-122.669937,45.630112],[-122.669903,45.630069],[-122.669902,45.629933],[-122.669863,45.629896],[-122.669775,45.629888],[-122.669777,45.629619],[-122.669812,45.629577],[-122.669778,45.629529],[-122.669778,45.629439],[-122.669894,45.629415],[-122.669907,45.629308],[-122.669867,45.629266],[-122.669779,45.629259],[-122.66978,45.629079],[-122.669908,45.62908],[-122.669931,45.629154],[-122.670036,45.62917],[-122.670035,45.629391],[-122.670069,45.629431],[-122.670237,45.629438],[-122.670286,45.629407],[-122.670292,45.629351],[-122.67042,45.629351],[-122.670416,45.629532]]]}},{"type":"Feature","properties":{"id":80,"area_m2":3600,"px":36,"rank":24,"persistent":false},"geometry":{"type":"Polygon","coordinates":[[[-122.684032,45.626959],[-122.684031,45.627139],[-122.683925,45.627155],[-122.683902,45.627229],[-122.683646,45.627228],[-122.683643,45.627086],[-122.68357,45.627048],[-122.683452,45.627049],[-122.683403,45.627071],[-122.683389,45.627227],[-122.683005,45.627226],[-122.682983,45.627062],[-122.682749,45.627046],[-122.68275,45.626956],[-122.682784,45.626913],[-122.68275,45.626866],[-122.682751,45.626776],[-122.682856,45.62676],[-122.682879,45.626686],[-122.683008,45.626686],[-122.683068,45.626711],[-122.683136,45.626687],[-122.683521,45.626688],[-122.683548,45.626766],[-122.683777,45.626778],[-122.683799,45.626853],[-122.683904,45.626869],[-122.683938,45.62695],[-122.684032,45.626959]]]}},{"type":"Feature","properties":{"id":10,"area_m2":3100,"px":31,"rank":25,"persistent":false},"geometry":{"type":"Polygon","coordinates":[[[-122.683231,45.632089],[-122.683199,45.632135],[-122.683233,45.632178],[-122.683231,45.632537],[-122.683125,45.632553],[-122.683102,45.632627],[-122.682987,45.632651],[-122.682974,45.632717],[-122.682845,45.632716],[-122.682837,45.632655],[-122.682784,45.632627],[-122.682204,45.632625],[-122.682206,45.632355],[-122.682795,45.632367],[-122.682846,45.632327],[-122.682848,45.632176],[-122.682954,45.632161],[-122.682977,45.632087],[-122.683093,45.632063],[-122.683106,45.631997],[-122.683234,45.631998],[-122.683231,45.632089]]]}},{"type":"Feature","properties":{"id":25,"area_m2":3000,"px":30,"rank":26,"persistent":false},"geometry":{"type":"Polygon","coordinates":[[[-122.677079,45.63153],[-122.677078,45.63171],[-122.676972,45.631726],[-122.676949,45.6318],[-122.676564,45.631799],[-122.676551,45.631733],[-122.676487,45.631709],[-122.676342,45.631717],[-122.676307,45.631798],[-122.676179,45.631798],[-122.676157,45.631723],[-122.676051,45.631707],[-122.676054,45.631167],[-122.676567,45.631169],[-122.676565,45.63166],[-122.676605,45.631702],[-122.676909,45.631703],[-122.676948,45.631666],[-122.67695,45.63153],[-122.677079,45.63153]]]}},{"type":"Feature","properties":{"id":22,"area_m2":2800,"px":28,"rank":27,"persistent":false},"geometry":{"type":"Polygon","coordinates":[[[-122.683367,45.631278],[-122.683365,45.631548],[-122.683284,45.631552],[-122.68324,45.631586],[-122.683235,45.631817],[-122.683129,45.631833],[-122.683106,45.631907],[-122.682978,45.631907],[-122.682974,45.63158],[-122.682918,45.631548],[-122.682724,45.631546],[-122.682724,45.631229],[-122.682685,45.631192],[-122.682597,45.631186],[-122.6826,45.630736],[-122.682728,45.630736],[-122.682726,45.631042],[-122.682749,45.63108],[-122.682854,45.631096],[-122.68286,45.631153],[-122.682901,45.631182],[-122.683239,45.631187],[-122.683261,45.631262],[-122.683367,45.631278]],[[-122.683107,45.631365],[-122.683057,45.631343],[-122.682999,45.631353],[-122.682962,45.631395],[-122.682978,45.631436],[-122.68303,45.631457],[-122.683102,45.631444],[-122.683129,45.631407],[-122.683107,45.631365]]]}},{"type":"Feature","properties":{"id":42,"area_m2":2800,"px":28,"rank":28,"persistent":false},"geometry":{"type":"Polygon","coordinates":[[[-122.676961,45.62973],[-122.676959,45.63009],[-122.676853,45.630105],[-122.67683,45.630179],[-122.676714,45.630203],[-122.676701,45.630269],[-122.676188,45.630267],[-122.67619,45.629998],[-122.676305,45.629974],[-122.676319,45.629818],[-122.676425,45.629802],[-122.676448,45.629728],[-122.676704,45.629729],[-122.676764,45.629753],[-122.676832,45.629729],[-122.676961,45.62973]]]}},{"type":"Feature","properties":{"id":81,"area_m2":2700,"px":27,"rank":29,"persistent":false},"geometry":{"type":"Polygon","coordinates":[[[-122.682491,45.626866],[-122.682459,45.626912],[-122.682493,45.626955],[-122.682491,45.627225],[-122.682235,45.627224],[-122.682174,45.6272],[-122.682106,45.627224],[-122.681978,45.627223],[-122.681918,45.627199],[-122.68185,45.627223],[-122.681722,45.627223],[-122.681723,45.626953],[-122.681817,45.626951],[-122.681863,45.626923],[-122.681853,45.626773],[-122.68219,45.62677],[-122.682232,45.626741],[-122.682238,45.626684],[-122.682353,45.62666],[-122.682367,45.626595],[-122.682495,45.626595],[-122.682491,45.626866]]]}},{"type":"Feature","properties":{"id":89,"area_m2":2600,"px":26,"rank":30,"persistent":false},"geometry":{"type":"Polygon","coordinates":[[[-122.675829,45.625227],[-122.675797,45.625274],[-122.675831,45.625316],[-122.67583,45.625586],[-122.675724,45.625602],[-122.675701,45.625676],[-122.675316,45.625675],[-122.675294,45.6256],[-122.675189,45.625584],[-122.675191,45.625224],[-122.675296,45.625209],[-122.67532,45.625135],[-122.675831,45.625136],[-122.675829,45.625227]]]}},{"type":"Feature","properties":{"id":93,"area_m2":2500,"px":25,"rank":31,"persistent":false},"geometry":{"type":"Polygon","coordinates":[[[-122.670959,45.624942],[-122.670957,45.625302],[-122.670851,45.625318],[-122.670828,45.625392],[-122.670572,45.625391],[-122.670511,45.625367],[-122.670443,45.625391],[-122.670315,45.62539],[-122.670317,45.62503],[-122.670391,45.625028],[-122.670436,45.625002],[-122.670446,45.624851],[-122.670831,45.624852],[-122.670853,45.624926],[-122.670959,45.624942]]]}},{"type":"Feature","properties":{"id":57,"area_m2":2400,"px":24,"rank":32,"persistent":false},"geometry":{"type":"Polygon","coordinates":[[[-122.688768,45.628952],[-122.688767,45.629042],[-122.688553,45.629043],[-122.688499,45.629071],[-122.688509,45.629312],[-122.688186,45.629312],[-122.688133,45.629339],[-122.688124,45.629401],[-122.687867,45.6294],[-122.687869,45.62904],[-122.687975,45.629024],[-122.687998,45.62895],[-122.688114,45.628927],[-122.688127,45.628861],[-122.688383,45.628861],[-122.688392,45.628923],[-122.688445,45.62895],[-122.688768,45.628952]]]}},{"type":"Feature","properties":{"id":34,"area_m2":2300,"px":23,"rank":33,"persistent":false},"geometry":{"type":"Polygon","coordinates":[[[-122.674903,45.630534],[-122.674902,45.630804],[-122.674828,45.630806],[-122.674782,45.630832],[-122.674772,45.630984],[-122.674388,45.630982],[-122.674365,45.630908],[-122.67426,45.630892],[-122.674238,45.630728],[-122.674004,45.630711],[-122.674005,45.630531],[-122.674111,45.630516],[-122.674134,45.630442],[-122.674262,45.630442],[-122.674323,45.630466],[-122.674391,45.630443],[-122.674776,45.630444],[-122.674798,45.630518],[-122.674903,45.630534]],[[-122.674646,45.630753],[-122.674586,45.630701],[-122.674423,45.630722],[-122.674389,45.630761],[-122.674401,45.630869],[-122.674458,45.630892],[-122.674611,45.630884],[-122.674643,45.63085],[-122.674646,45.630753]]]}},{"type":"Feature","properties":{"id":40,"area_m2":2300,"px":23,"rank":34,"persistent":false},"geometry":{"type":"Polygon","coordinates":[[[-122.685427,45.629933],[-122.685425,45.630293],[-122.685319,45.630309],[-122.685296,45.630383],[-122.685181,45.630407],[-122.685167,45.630473],[-122.684911,45.630472],[-122.684908,45.63033],[-122.684864,45.630296],[-122.684783,45.630292],[-122.684775,45.63014],[-122.68473,45.630114],[-122.684656,45.630111],[-122.684622,45.63003],[-122.684528,45.630021],[-122.684529,45.629931],[-122.684859,45.629929],[-122.684908,45.629899],[-122.684916,45.629842],[-122.685299,45.629843],[-122.685321,45.629917],[-122.685427,45.629933]],[[-122.685186,45.630073],[-122.685136,45.629942],[-122.684968,45.629934],[-122.684919,45.629965],[-122.684881,45.63008],[-122.684966,45.630136],[-122.685135,45.63011],[-122.685186,45.630073]]]}},{"type":"Feature","properties":{"id":97,"area_m2":2300,"px":23,"rank":35,"persistent":false},"geometry":{"type":"Polygon","coordinates":[[[-122.673661,45.62351],[-122.673661,45.6236],[-122.673534,45.623599],[-122.673524,45.623538],[-122.673471,45.62351],[-122.672892,45.623507],[-122.672869,45.623433],[-122.672764,45.623417],[-122.672766,45.623057],[-122.672872,45.623042],[-122.672895,45.622967],[-122.673151,45.622968],[-122.673164,45.623034],[-122.673279,45.623059],[-122.673313,45.62314],[-122.673535,45.623149],[-122.673534,45.623329],[-122.673502,45.623387],[-122.673556,45.623494],[-122.673661,45.62351]]]}},{"type":"Feature","properties":{"id":50,"area_m2":2100,"px":21,"rank":36,"persistent":false},"geometry":{"type":"Polygon","coordinates":[[[-122.679144,45.629286],[-122.679144,45.629376],[-122.679038,45.629391],[-122.679015,45.629465],[-122.678899,45.629489],[-122.678886,45.629555],[-122.678373,45.629554],[-122.678351,45.629479],[-122.678245,45.629463],[-122.678246,45.629373],[-122.67834,45.629364],[-122.678375,45.629284],[-122.678448,45.629281],[-122.678494,45.629255],[-122.678504,45.629104],[-122.67876,45.629105],[-122.678773,45.629171],[-122.678888,45.629195],[-122.678922,45.629276],[-122.679144,45.629286]]]}},{"type":"Feature","properties":{"id":62,"area_m2":2000,"px":20,"rank":37,"persistent":false},"geometry":{"type":"Polygon","coordinates":[[[-122.674403,45.628282],[-122.674401,45.628732],[-122.673888,45.628731],[-122.673888,45.628641],[-122.673976,45.628635],[-122.674016,45.628592],[-122.67402,45.628101],[-122.674276,45.628102],[-122.674284,45.628253],[-122.67433,45.62828],[-122.674403,45.628282]]]}},{"type":"Feature","properties":{"id":3,"area_m2":1700,"px":17,"rank":38,"persistent":false},"geometry":{"type":"Polygon","coordinates":[[[-122.673605,45.633141],[-122.673605,45.63323],[-122.672835,45.633228],[-122.672837,45.632868],[-122.672872,45.632826],[-122.672838,45.632778],[-122.672838,45.632688],[-122.673095,45.632689],[-122.673109,45.632951],[-122.673059,45.633001],[-122.673084,45.633044],[-122.673175,45.633058],[-122.67322,45.63302],[-122.673206,45.632967],[-122.67335,45.63296],[-122.673372,45.633034],[-122.673477,45.63305],[-122.673511,45.633131],[-122.673605,45.633141]]]}},{"type":"Feature","properties":{"id":13,"area_m2":1700,"px":17,"rank":39,"persistent":false},"geometry":{"type":"Polygon","coordinates":[[[-122.684261,45.632],[-122.68426,45.63218],[-122.684172,45.632186],[-122.684133,45.632223],[-122.684129,45.63254],[-122.683873,45.632539],[-122.683851,45.632465],[-122.683745,45.632449],[-122.683711,45.632368],[-122.683617,45.632359],[-122.683615,45.632217],[-122.683571,45.632183],[-122.68349,45.632178],[-122.68349,45.632088],[-122.683747,45.632089],[-122.683756,45.63215],[-122.683808,45.632178],[-122.684069,45.632179],[-122.68413,45.632137],[-122.684132,45.632],[-122.684261,45.632]]]}},{"type":"Feature","properties":{"id":71,"area_m2":1600,"px":16,"rank":40,"persistent":false},"geometry":{"type":"Polygon","coordinates":[[[-122.676973,45.62766],[-122.676972,45.627749],[-122.676756,45.627755],[-122.676719,45.627787],[-122.676715,45.627839],[-122.6766,45.627862],[-122.676586,45.627928],[-122.676458,45.627928],[-122.676436,45.627854],[-122.67633,45.627838],[-122.676328,45.627696],[-122.676284,45.627662],[-122.676203,45.627657],[-122.676203,45.627567],[-122.676458,45.627552],[-122.67648,45.627512],[-122.676461,45.627388],[-122.676717,45.627389],[-122.676729,45.627635],[-122.676785,45.627659],[-122.676973,45.62766]]]}},{"type":"Feature","properties":{"id":83,"area_m2":1600,"px":16,"rank":41,"persistent":false},"geometry":{"type":"Polygon","coordinates":[[[-122.673643,45.62657],[-122.67364,45.62711],[-122.673534,45.627125],[-122.673511,45.6272],[-122.673383,45.627199],[-122.673385,45.626888],[-122.673345,45.626845],[-122.673257,45.626839],[-122.673259,45.626569],[-122.673643,45.62657]]]}},{"type":"Feature","properties":{"id":7,"area_m2":1500,"px":15,"rank":42,"persistent":false},"geometry":{"type":"Polygon","coordinates":[[[-122.675788,45.632787],[-122.675788,45.632877],[-122.675682,45.632892],[-122.675659,45.632966],[-122.674889,45.632964],[-122.67489,45.632784],[-122.674996,45.632769],[-122.675052,45.632663],[-122.67502,45.632604],[-122.67502,45.632515],[-122.675126,45.632499],[-122.675149,45.632425],[-122.675277,45.632425],[-122.675277,45.632515],[-122.675242,45.632563],[-122.675304,45.632683],[-122.675532,45.632696],[-122.675538,45.632766],[-122.675584,45.632797],[-122.675788,45.632787]]]}},{"type":"Feature","properties":{"id":44,"area_m2":1400,"px":14,"rank":43,"persistent":false},"geometry":{"type":"Polygon","coordinates":[[[-122.673626,45.62963],[-122.673624,45.62999],[-122.673367,45.629989],[-122.673307,45.629965],[-122.673239,45.629989],[-122.673111,45.629989],[-122.673112,45.629719],[-122.673218,45.629703],[-122.673241,45.629629],[-122.673626,45.62963]]]}},{"type":"Feature","properties":{"id":21,"area_m2":1300,"px":13,"rank":44,"persistent":false},"geometry":{"type":"Polygon","coordinates":[[[-122.684519,45.631641],[-122.684518,45.631821],[-122.684412,45.631837],[-122.684389,45.631911],[-122.684261,45.63191],[-122.684252,45.631849],[-122.6842,45.631821],[-122.683749,45.631819],[-122.68375,45.631639],[-122.684519,45.631641]]]}},{"type":"Feature","properties":{"id":51,"area_m2":1300,"px":13,"rank":45,"persistent":false},"geometry":{"type":"Polygon","coordinates":[[[-122.67799,45.629283],[-122.677988,45.629552],[-122.67786,45.629552],[-122.677799,45.629528],[-122.677731,45.629552],[-122.677475,45.629551],[-122.677479,45.628921],[-122.677607,45.628921],[-122.677605,45.629317],[-122.677627,45.629356],[-122.677806,45.62937],[-122.677855,45.629339],[-122.677861,45.629282],[-122.67799,45.629283]]]}},{"type":"Feature","properties":{"id":27,"area_m2":1200,"px":12,"rank":46,"persistent":false},"geometry":{"type":"Polygon","coordinates":[[[-122.689012,45.631203],[-122.689011,45.631293],[-122.688911,45.631305],[-122.688883,45.631383],[-122.688783,45.631395],[-122.688754,45.631473],[-122.68866,45.631481],[-122.688625,45.631562],[-122.688514,45.631582],[-122.688496,45.631652],[-122.688391,45.631667],[-122.688367,45.631741],[-122.688111,45.631741],[-122.688112,45.631651],[-122.688192,45.631647],[-122.688237,45.631613],[-122.688241,45.631471],[-122.688457,45.631465],[-122.688494,45.631434],[-122.688498,45.631382],[-122.688613,45.631358],[-122.688627,45.631292],[-122.688829,45.63129],[-122.688878,45.63126],[-122.688884,45.631203],[-122.689012,45.631203]]]}},{"type":"Feature","properties":{"id":41,"area_m2":1200,"px":12,"rank":47,"persistent":false},"geometry":{"type":"Polygon","coordinates":[[[-122.683503,45.629838],[-122.683501,45.630108],[-122.683292,45.630112],[-122.683251,45.630141],[-122.683244,45.630197],[-122.683042,45.630199],[-122.682993,45.63023],[-122.682987,45.630287],[-122.682859,45.630286],[-122.68286,45.630196],[-122.682965,45.630181],[-122.683021,45.630075],[-122.682989,45.630017],[-122.68299,45.629837],[-122.683096,45.629821],[-122.683119,45.629747],[-122.683375,45.629748],[-122.683397,45.629822],[-122.683503,45.629838]],[[-122.683297,45.630017],[-122.683371,45.629979],[-122.683365,45.629866],[-122.683313,45.629839],[-122.683159,45.629843],[-122.683119,45.62988],[-122.683126,45.629988],[-122.683179,45.630016],[-122.683297,45.630017]]]}},{"type":"Feature","properties":{"id":87,"area_m2":1200,"px":12,"rank":48,"persistent":false},"geometry":{"type":"Polygon","coordinates":[[[-122.674673,45.625943],[-122.674672,45.626123],[-122.674349,45.626123],[-122.674296,45.62615],[-122.674287,45.626212],[-122.674159,45.626211],[-122.674159,45.625985],[-122.67412,45.625948],[-122.674032,45.625941],[-122.674033,45.625761],[-122.674161,45.625761],[-122.674174,45.625827],[-122.674289,45.625852],[-122.674295,45.625908],[-122.674336,45.625938],[-122.674673,45.625943]]]}},{"type":"Feature","properties":{"id":2,"area_m2":1100,"px":11,"rank":49,"persistent":false},"geometry":{"type":"Polygon","coordinates":[[[-122.685794,45.633175],[-122.685793,45.633265],[-122.68528,45.633263],[-122.685282,45.632993],[-122.685483,45.632991],[-122.685532,45.632961],[-122.685539,45.632904],[-122.685667,45.632904],[-122.685669,45.633136],[-122.685713,45.63317],[-122.685794,45.633175]]]}},{"type":"Feature","properties":{"id":61,"area_m2":1100,"px":11,"rank":50,"persistent":false},"geometry":{"type":"Polygon","coordinates":[[[-122.675301,45.628375],[-122.675299,45.628735],[-122.674914,45.628734],[-122.674915,45.628464],[-122.675021,45.628448],[-122.675044,45.628374],[-122.675301,45.628375]]]}},{"type":"Feature","properties":{"id":102,"area_m2":1100,"px":11,"rank":51,"persistent":false},"geometry":{"type":"Polygon","coordinates":[[[-122.687412,45.619048],[-122.687411,45.619138],[-122.687305,45.619153],[-122.687282,45.619227],[-122.687154,45.619227],[-122.687149,45.61917],[-122.6871,45.619139],[-122.686898,45.619136],[-122.6869,45.618866],[-122.687284,45.618867],[-122.687293,45.619019],[-122.687338,45.619045],[-122.687412,45.619048]]]}},{"type":"Feature","properties":{"id":53,"area_m2":1000,"px":10,"rank":52,"persistent":false},"geometry":{"type":"Polygon","coordinates":[[[-122.675554,45.629006],[-122.675551,45.629456],[-122.675445,45.629471],[-122.675422,45.629545],[-122.675294,45.629545],[-122.675295,45.629365],[-122.675383,45.629359],[-122.675422,45.629322],[-122.675421,45.629134],[-122.675355,45.629095],[-122.67504,45.629094],[-122.675041,45.629004],[-122.675554,45.629006]]]}},{"type":"Feature","properties":{"id":73,"area_m2":1000,"px":10,"rank":53,"persistent":false},"geometry":{"type":"Polygon","coordinates":[[[-122.67569,45.627566],[-122.675689,45.627746],[-122.675583,45.627761],[-122.67556,45.627835],[-122.675304,45.627835],[-122.675282,45.627761],[-122.675176,45.627744],[-122.675177,45.627564],[-122.67569,45.627566]]]}},{"type":"Feature","properties":{"id":88,"area_m2":1000,"px":10,"rank":54,"persistent":false},"geometry":{"type":"Polygon","coordinates":[[[-122.676342,45.625678],[-122.676341,45.625857],[-122.676236,45.625873],[-122.676213,45.625947],[-122.676097,45.625971],[-122.676084,45.626037],[-122.675956,45.626036],[-122.675934,45.625962],[-122.675828,45.625946],[-122.675829,45.625766],[-122.675946,45.625755],[-122.676033,45.62579],[-122.676103,45.625743],[-122.676072,45.625686],[-122.675958,45.625676],[-122.675958,45.625586],[-122.676215,45.625587],[-122.676237,45.625661],[-122.676342,45.625678]]]}},{"type":"Feature","properties":{"id":55,"area_m2":900,"px":9,"rank":55,"persistent":false},"geometry":{"type":"Polygon","coordinates":[[[-122.685815,45.629304],[-122.685814,45.629484],[-122.685301,45.629483],[-122.685302,45.629303],[-122.685518,45.629297],[-122.685556,45.629265],[-122.685559,45.629214],[-122.685687,45.629214],[-122.68571,45.629288],[-122.685815,45.629304]]]}},{"type":"Feature","properties":{"id":52,"area_m2":900,"px":9,"rank":56,"persistent":false},"geometry":{"type":"Polygon","coordinates":[[[-122.676964,45.6291],[-122.676963,45.62928],[-122.676767,45.629267],[-122.676706,45.629319],[-122.676723,45.629439],[-122.676775,45.629459],[-122.676962,45.62946],[-122.676962,45.62955],[-122.676705,45.629549],[-122.676683,45.629475],[-122.676577,45.629458],[-122.676579,45.629189],[-122.676653,45.629186],[-122.676698,45.62916],[-122.676708,45.629009],[-122.676836,45.629009],[-122.676859,45.629083],[-122.676964,45.6291]]]}},{"type":"Feature","properties":{"id":33,"area_m2":800,"px":8,"rank":57,"persistent":false},"geometry":{"type":"Polygon","coordinates":[[[-122.685935,45.630745],[-122.685934,45.631015],[-122.685677,45.631014],[-122.685669,45.630863],[-122.685624,45.630836],[-122.68555,45.630834],[-122.685551,45.630654],[-122.685679,45.630654],[-122.685685,45.630711],[-122.685734,45.630742],[-122.685935,45.630745]]]}},{"type":"Feature","properties":{"id":74,"area_m2":800,"px":8,"rank":58,"persistent":true},"geometry":{"type":"Polygon","coordinates":[[[-122.674281,45.627292],[-122.67428,45.627382],[-122.674086,45.627382],[-122.674033,45.62741],[-122.674021,45.627831],[-122.673893,45.627831],[-122.673896,45.627291],[-122.674281,45.627292]]]}},{"type":"Feature","properties":{"id":82,"area_m2":800,"px":8,"rank":59,"persistent":false},"geometry":{"type":"Polygon","coordinates":[[[-122.681337,45.627132],[-122.681337,45.627222],[-122.680824,45.62722],[-122.680825,45.62704],[-122.681027,45.627038],[-122.681076,45.627008],[-122.681082,45.626951],[-122.68121,45.626951],[-122.681218,45.627103],[-122.681264,45.627129],[-122.681337,45.627132]]]}},{"type":"Feature","properties":{"id":98,"area_m2":800,"px":8,"rank":60,"persistent":false},"geometry":{"type":"Polygon","coordinates":[[[-122.671738,45.623414],[-122.671737,45.623504],[-122.671482,45.623503],[-122.671478,45.623452],[-122.67144,45.62342],[-122.671225,45.623413],[-122.671222,45.623271],[-122.671178,45.623237],[-122.671097,45.623232],[-122.671098,45.623142],[-122.671226,45.623143],[-122.671232,45.623199],[-122.67128,45.62323],[-122.671482,45.623233],[-122.671504,45.623308],[-122.67161,45.623324],[-122.671644,45.623405],[-122.671738,45.623414]]]}},{"type":"Feature","properties":{"id":6,"area_m2":700,"px":7,"rank":61,"persistent":false},"geometry":{"type":"Polygon","coordinates":[[[-122.674504,45.632963],[-122.674504,45.633053],[-122.673734,45.633051],[-122.673735,45.632871],[-122.673863,45.632871],[-122.673872,45.632933],[-122.673925,45.63296],[-122.674504,45.632963]]]}},{"type":"Feature","properties":{"id":16,"area_m2":700,"px":7,"rank":62,"persistent":false},"geometry":{"type":"Polygon","coordinates":[[[-122.67451,45.631973],[-122.674508,45.632333],[-122.673995,45.632331],[-122.673996,45.632242],[-122.674358,45.632227],[-122.674382,45.631973],[-122.67451,45.631973]]]}},{"type":"Feature","properties":{"id":92,"area_m2":700,"px":7,"rank":63,"persistent":false},"geometry":{"type":"Polygon","coordinates":[[[-122.67378,45.62513],[-122.673779,45.62531],[-122.673673,45.625326],[-122.67365,45.6254],[-122.673522,45.625399],[-122.6735,45.625325],[-122.673394,45.625309],[-122.673395,45.625129],[-122.67378,45.62513]]]}},{"type":"Feature","properties":{"id":9,"area_m2":600,"px":6,"rank":64,"persistent":false},"geometry":{"type":"Polygon","coordinates":[[[-122.674635,45.632603],[-122.674634,45.632693],[-122.674418,45.632699],[-122.674381,45.632731],[-122.674377,45.632783],[-122.673992,45.632781],[-122.673993,45.632692],[-122.674099,45.632676],[-122.674122,45.632602],[-122.67425,45.632602],[-122.67431,45.632627],[-122.674378,45.632603],[-122.674635,45.632603]]]}},{"type":"Feature","properties":{"id":29,"area_m2":600,"px":6,"rank":65,"persistent":false},"geometry":{"type":"Polygon","coordinates":[[[-122.674514,45.631343],[-122.674513,45.631433],[-122.674319,45.631433],[-122.674266,45.631461],[-122.674255,45.631702],[-122.674127,45.631702],[-122.674129,45.631342],[-122.674514,45.631343]]]}},{"type":"Feature","properties":{"id":48,"area_m2":600,"px":6,"rank":66,"persistent":false},"geometry":{"type":"Polygon","coordinates":[[[-122.684146,45.62957],[-122.684145,45.62966],[-122.68404,45.629675],[-122.684017,45.629749],[-122.68376,45.629749],[-122.683762,45.629479],[-122.68389,45.629479],[-122.683895,45.629536],[-122.683944,45.629567],[-122.684146,45.62957]]]}},{"type":"Feature","properties":{"id":66,"area_m2":600,"px":6,"rank":67,"persistent":false},"geometry":{"type":"Polygon","coordinates":[[[-122.679918,45.628478],[-122.679918,45.628568],[-122.679405,45.628566],[-122.679383,45.628492],[-122.679277,45.628476],[-122.679278,45.628296],[-122.679406,45.628296],[-122.679407,45.628433],[-122.679453,45.628472],[-122.679918,45.628478]]]}},{"type":"Feature","properties":{"id":96,"area_m2":600,"px":6,"rank":68,"persistent":false},"geometry":{"type":"Polygon","coordinates":[[[-122.673399,45.624409],[-122.673398,45.624679],[-122.673141,45.624678],[-122.673143,45.624408],[-122.673399,45.624409]]]}},{"type":"Feature","properties":{"id":5,"area_m2":500,"px":5,"rank":69,"persistent":false},"geometry":{"type":"Polygon","coordinates":[[[-122.670014,45.63295],[-122.670013,45.63313],[-122.669907,45.633146],[-122.669884,45.63322],[-122.669756,45.633219],[-122.669758,45.632949],[-122.670014,45.63295]]]}},{"type":"Feature","properties":{"id":15,"area_m2":500,"px":5,"rank":70,"persistent":false},"geometry":{"type":"Polygon","coordinates":[[[-122.676819,45.63207],[-122.676817,45.632339],[-122.676689,45.632339],[-122.676667,45.632265],[-122.676561,45.632249],[-122.676562,45.632069],[-122.676819,45.63207]]]}},{"type":"Feature","properties":{"id":19,"area_m2":500,"px":5,"rank":71,"persistent":false},"geometry":{"type":"Polygon","coordinates":[[[-122.682338,45.631725],[-122.682336,45.631995],[-122.682208,45.631995],[-122.6822,45.631753],[-122.682147,45.631725],[-122.681953,45.631724],[-122.681953,45.631634],[-122.68221,45.631635],[-122.682232,45.631709],[-122.682338,45.631725]]]}},{"type":"Feature","properties":{"id":24,"area_m2":500,"px":5,"rank":72,"persistent":false},"geometry":{"type":"Polygon","coordinates":[[[-122.675537,45.631796],[-122.675537,45.631886],[-122.675281,45.631885],[-122.675283,45.631525],[-122.675411,45.631526],[-122.675413,45.631757],[-122.675457,45.631792],[-122.675537,45.631796]]]}},{"type":"Feature","properties":{"id":64,"area_m2":500,"px":5,"rank":73,"persistent":false},"geometry":{"type":"Polygon","coordinates":[[[-122.677096,45.62847],[-122.677095,45.62865],[-122.676967,45.62865],[-122.676945,45.628485],[-122.676583,45.628468],[-122.676584,45.628379],[-122.676968,45.62838],[-122.676991,45.628454],[-122.677096,45.62847]]]}},{"type":"Feature","properties":{"id":63,"area_m2":500,"px":5,"rank":74,"persistent":false},"geometry":{"type":"Polygon","coordinates":[[[-122.68056,45.62848],[-122.680559,45.62857],[-122.680358,45.628571],[-122.680309,45.628602],[-122.680302,45.628659],[-122.680174,45.628659],[-122.680175,45.628479],[-122.680281,45.628463],[-122.680304,45.628389],[-122.680432,45.628389],[-122.680454,45.628464],[-122.68056,45.62848]]]}},{"type":"Feature","properties":{"id":69,"area_m2":500,"px":5,"rank":75,"persistent":false},"geometry":{"type":"Polygon","coordinates":[[[-122.679921,45.628118],[-122.679919,45.628298],[-122.679791,45.628297],[-122.679783,45.628236],[-122.67973,45.628208],[-122.679407,45.628206],[-122.679408,45.628116],[-122.679921,45.628118]]]}},{"type":"Feature","properties":{"id":72,"area_m2":500,"px":5,"rank":76,"persistent":false},"geometry":{"type":"Polygon","coordinates":[[[-122.684285,45.62759],[-122.684285,45.62768],[-122.684204,45.627684],[-122.68416,45.627718],[-122.684155,45.62786],[-122.684027,45.627859],[-122.684025,45.627718],[-122.683981,45.627683],[-122.6839,45.627679],[-122.683901,45.627589],[-122.684285,45.62759]]]}},{"type":"Feature","properties":{"id":95,"area_m2":500,"px":5,"rank":77,"persistent":false},"geometry":{"type":"Polygon","coordinates":[[[-122.671218,45.624493],[-122.671217,45.624763],[-122.671088,45.624762],[-122.671066,45.624688],[-122.670961,45.624672],[-122.670962,45.624492],[-122.671218,45.624493]]]}},{"type":"Feature","properties":{"id":17,"area_m2":400,"px":4,"rank":78,"persistent":false},"geometry":{"type":"Polygon","coordinates":[[[-122.680281,45.631901],[-122.680249,45.631947],[-122.680283,45.631989],[-122.680283,45.632079],[-122.680155,45.632079],[-122.680133,45.632005],[-122.680027,45.631988],[-122.680028,45.631809],[-122.680284,45.631809],[-122.680281,45.631901]]]}},{"type":"Feature","properties":{"id":31,"area_m2":400,"px":4,"rank":79,"persistent":false},"geometry":{"type":"Polygon","coordinates":[[[-122.683879,45.631369],[-122.683879,45.631459],[-122.683773,45.631475],[-122.68375,45.631549],[-122.683622,45.631548],[-122.683619,45.631407],[-122.683575,45.631372],[-122.683494,45.631368],[-122.683495,45.631278],[-122.683623,45.631279],[-122.683629,45.631335],[-122.683677,45.631366],[-122.683879,45.631369]]]}},{"type":"Feature","properties":{"id":47,"area_m2":400,"px":4,"rank":80,"persistent":false},"geometry":{"type":"Polygon","coordinates":[[[-122.688252,45.629491],[-122.688251,45.629581],[-122.688145,45.629597],[-122.688122,45.629671],[-122.688007,45.629694],[-122.687994,45.62976],[-122.687865,45.62976],[-122.687866,45.62967],[-122.687947,45.629666],[-122.687991,45.629632],[-122.687995,45.62949],[-122.688252,45.629491]]]}},{"type":"Feature","properties":{"id":68,"area_m2":400,"px":4,"rank":81,"persistent":false},"geometry":{"type":"Polygon","coordinates":[[[-122.674789,45.628103],[-122.674789,45.628193],[-122.674708,45.628197],[-122.674663,45.628231],[-122.674659,45.628373],[-122.674531,45.628373],[-122.674533,45.628103],[-122.674789,45.628103]]]}},{"type":"Feature","properties":{"id":76,"area_m2":400,"px":4,"rank":82,"persistent":false},"geometry":{"type":"Polygon","coordinates":[[[-122.677871,45.627572],[-122.677871,45.627662],[-122.677358,45.627661],[-122.677358,45.627571],[-122.677871,45.627572]]]}},{"type":"Feature","properties":{"id":77,"area_m2":400,"px":4,"rank":83,"persistent":false},"geometry":{"type":"Polygon","coordinates":[[[-122.687751,45.627149],[-122.68775,45.627329],[-122.687494,45.627329],[-122.687495,45.627149],[-122.687751,45.627149]]]}},{"type":"Feature","properties":{"id":84,"area_m2":400,"px":4,"rank":84,"persistent":false},"geometry":{"type":"Polygon","coordinates":[[[-122.670435,45.626831],[-122.670433,45.627101],[-122.670177,45.6271],[-122.670177,45.62701],[-122.670258,45.627006],[-122.670302,45.626972],[-122.670307,45.62683],[-122.670435,45.626831]]]}},{"type":"Feature","properties":{"id":91,"area_m2":400,"px":4,"rank":85,"persistent":false},"geometry":{"type":"Polygon","coordinates":[[[-122.677883,45.625412],[-122.677882,45.625592],[-122.677754,45.625591],[-122.677694,45.625567],[-122.677626,45.625591],[-122.677498,45.625591],[-122.677498,45.625501],[-122.677604,45.625485],[-122.677627,45.625411],[-122.677883,45.625412]]]}},{"type":"Feature","properties":{"id":99,"area_m2":400,"px":4,"rank":86,"persistent":false},"geometry":{"type":"Polygon","coordinates":[[[-122.670978,45.621702],[-122.670977,45.621882],[-122.670871,45.621897],[-122.670848,45.621971],[-122.67072,45.621971],[-122.67072,45.621881],[-122.670755,45.621839],[-122.670721,45.621791],[-122.670721,45.621701],[-122.670978,45.621702]]]}},{"type":"Feature","properties":{"id":100,"area_m2":400,"px":4,"rank":87,"persistent":false},"geometry":{"type":"Polygon","coordinates":[[[-122.670471,45.62062],[-122.67047,45.6208],[-122.670214,45.620799],[-122.670215,45.62062],[-122.670471,45.62062]]]}},{"type":"Feature","properties":{"id":103,"area_m2":400,"px":4,"rank":88,"persistent":false},"geometry":{"type":"Polygon","coordinates":[[[-122.686771,45.618866],[-122.68677,45.619046],[-122.686642,45.619045],[-122.686637,45.618989],[-122.686588,45.618958],[-122.686386,45.618955],[-122.686387,45.618865],[-122.686771,45.618866]]]}},{"type":"Feature","properties":{"id":28,"area_m2":300,"px":3,"rank":89,"persistent":false},"geometry":{"type":"Polygon","coordinates":[[[-122.674641,45.631523],[-122.67464,45.631613],[-122.674535,45.631629],[-122.674512,45.631703],[-122.674384,45.631702],[-122.674385,45.631523],[-122.674641,45.631523]]]}},{"type":"Feature","properties":{"id":32,"area_m2":300,"px":3,"rank":90,"persistent":false},"geometry":{"type":"Polygon","coordinates":[[[-122.676952,45.63117],[-122.676952,45.63126],[-122.676846,45.631275],[-122.676823,45.631349],[-122.676695,45.631349],[-122.676696,45.631169],[-122.676952,45.63117]]]}},{"type":"Feature","properties":{"id":35,"area_m2":300,"px":3,"rank":91,"persistent":false},"geometry":{"type":"Polygon","coordinates":[[[-122.683498,45.630738],[-122.683497,45.630828],[-122.683113,45.630827],[-122.683113,45.630737],[-122.683498,45.630738]]]}},{"type":"Feature","properties":{"id":37,"area_m2":300,"px":3,"rank":92,"persistent":false},"geometry":{"type":"Polygon","coordinates":[[[-122.675545,45.630446],[-122.675544,45.630716],[-122.675416,45.630715],[-122.675417,45.630445],[-122.675545,45.630446]]]}},{"type":"Feature","properties":{"id":38,"area_m2":300,"px":3,"rank":93,"persistent":false},"geometry":{"type":"Polygon","coordinates":[[[-122.673363,45.63062],[-122.673363,45.630709],[-122.673236,45.630709],[-122.673212,45.630635],[-122.673107,45.630619],[-122.673108,45.630439],[-122.673236,45.630439],[-122.673244,45.630591],[-122.67329,45.630617],[-122.673363,45.63062]]]}},{"type":"Feature","properties":{"id":39,"area_m2":300,"px":3,"rank":94,"persistent":false},"geometry":{"type":"Polygon","coordinates":[[[-122.685552,45.630474],[-122.685552,45.630564],[-122.685446,45.630579],[-122.685423,45.630653],[-122.685295,45.630653],[-122.685296,45.630473],[-122.685552,45.630474]]]}},{"type":"Feature","properties":{"id":45,"area_m2":300,"px":3,"rank":95,"persistent":false},"geometry":{"type":"Polygon","coordinates":[[[-122.678115,45.629733],[-122.678115,45.629823],[-122.67773,45.629822],[-122.677731,45.629732],[-122.678115,45.629733]]]}},{"type":"Feature","properties":{"id":49,"area_m2":300,"px":3,"rank":96,"persistent":false},"geometry":{"type":"Polygon","coordinates":[[[-122.685045,45.629392],[-122.685044,45.629572],[-122.684916,45.629572],[-122.684894,45.629498],[-122.684788,45.629481],[-122.684789,45.629392],[-122.685045,45.629392]]]}},{"type":"Feature","properties":{"id":56,"area_m2":300,"px":3,"rank":97,"persistent":false},"geometry":{"type":"Polygon","coordinates":[[[-122.684276,45.6293],[-122.684275,45.62948],[-122.684147,45.62948],[-122.684124,45.629405],[-122.684019,45.629389],[-122.684019,45.629299],[-122.684276,45.6293]]]}},{"type":"Feature","properties":{"id":59,"area_m2":300,"px":3,"rank":98,"persistent":false},"geometry":{"type":"Polygon","coordinates":[[[-122.680558,45.62875],[-122.680558,45.62884],[-122.680173,45.628839],[-122.680174,45.628749],[-122.680558,45.62875]]]}},{"type":"Feature","properties":{"id":60,"area_m2":300,"px":3,"rank":99,"persistent":false},"geometry":{"type":"Polygon","coordinates":[[[-122.676966,45.62874],[-122.676966,45.62883],[-122.676581,45.628828],[-122.676582,45.628739],[-122.676966,45.62874]]]}},{"type":"Feature","properties":{"id":65,"area_m2":300,"px":3,"rank":100,"persistent":false},"geometry":{"type":"Polygon","coordinates":[[[-122.681202,45.628392],[-122.681201,45.628571],[-122.681073,45.628571],[-122.681051,45.628497],[-122.680945,45.628481],[-122.680945,45.628391],[-122.681202,45.628392]]]}},{"type":"Feature","properties":{"id":75,"area_m2":300,"px":3,"rank":101,"persistent":false},"geometry":{"type":"Polygon","coordinates":[[[-122.683388,45.627497],[-122.683386,45.627767],[-122.683258,45.627767],[-122.68326,45.627497],[-122.683388,45.627497]]]}},{"type":"Feature","properties":{"id":85,"area_m2":300,"px":3,"rank":102,"persistent":false},"geometry":{"type":"Polygon","coordinates":[[[-122.680955,45.626681],[-122.680954,45.626771],[-122.680849,45.626786],[-122.680826,45.62686],[-122.680698,45.62686],[-122.680699,45.62668],[-122.680955,45.626681]]]}},{"type":"Feature","properties":{"id":101,"area_m2":300,"px":3,"rank":103,"persistent":false},"geometry":{"type":"Polygon","coordinates":[[[-122.670087,45.620529],[-122.670086,45.620619],[-122.669981,45.620635],[-122.669957,45.620709],[-122.669829,45.620708],[-122.66983,45.620528],[-122.670087,45.620529]]]}}]}