{"type":"FeatureCollection","features":[{"type":"Feature","properties":{"id":14,"area_m2":40200,"px":402,"rank":1,"persistent":false},"geometry":{"type":"Polygon","coordinates":[[[-122.683377,45.629388],[-122.683376,45.629568],[-122.682607,45.629565],[-122.682601,45.629419],[-122.68256,45.629389],[-122.682479,45.629385],[-122.682445,45.629304],[-122.682223,45.629294],[-122.682195,45.629217],[-122.682043,45.62918],[-122.681852,45.629227],[-122.681841,45.629345],[-122.681885,45.629379],[-122.681966,45.629384],[-122.681965,45.629474],[-122.681871,45.629483],[-122.681837,45.629563],[-122.681736,45.629567],[-122.68169,45.629608],[-122.681705,45.630324],[-122.681759,45.630371],[-122.68196,45.630374],[-122.681983,45.630448],[-122.682088,45.630464],[-122.682088,45.630554],[-122.681988,45.630566],[-122.681959,45.630644],[-122.681865,45.630653],[-122.68183,45.630733],[-122.681719,45.630753],[-122.681703,45.63087],[-122.681755,45.630911],[-122.681888,45.630913],[-122.681948,45.630885],[-122.681958,45.630824],[-122.682214,45.630825],[-122.682227,45.630981],[-122.682342,45.631005],[-122.682376,45.631086],[-122.682469,45.631095],[-122.682469,45.631185],[-122.682361,45.631192],[-122.682321,45.631241],[-122.682357,45.631345],[-122.682468,45.631365],[-122.682466,45.631725],[-122.682385,45.631729],[-122.682341,45.631763],[-122.682336,45.631995],[-122.682208,45.631995],[-122.682186,45.63192],[-122.68208,45.631903],[-122.682082,45.631544],[-122.682156,45.631542],[-122.682201,45.631516],[-122.682198,45.631389],[-122.682083,45.631364],[-122.682078,45.631308],[-122.682036,45.631278],[-122.681699,45.631273],[-122.681696,45.631221],[-122.681659,45.631189],[-122.681483,45.631189],[-122.681444,45.631226],[-122.681442,45.631362],[-122.681354,45.631369],[-122.681315,45.631406],[-122.681311,45.631722],[-122.681224,45.631728],[-122.681184,45.631765],[-122.68118,45.632172],[-122.681093,45.632178],[-122.681053,45.632215],[-122.68105,45.632531],[-122.68028,45.632529],[-122.680281,45.632439],[-122.680611,45.632438],[-122.68066,45.632407],[-122.680666,45.63235],[-122.680777,45.632331],[-122.680796,45.632081],[-122.680983,45.632081],[-122.68104,45.632057],[-122.681055,45.63168],[-122.681015,45.631638],[-122.680927,45.631631],[-122.680932,45.631382],[-122.680879,45.631361],[-122.680672,45.63136],[-122.680673,45.63118],[-122.680907,45.631165],[-122.68093,45.631127],[-122.680917,45.631025],[-122.680861,45.631001],[-122.680417,45.630999],[-122.680418,45.63082],[-122.680453,45.630777],[-122.680419,45.630729],[-122.68042,45.63064],[-122.680626,45.63064],[-122.680684,45.630615],[-122.680697,45.630421],[-122.680676,45.630387],[-122.68062,45.63037],[-122.679395,45.630367],[-122.679395,45.63005],[-122.679356,45.630013],[-122.679268,45.630006],[-122.679269,45.629916],[-122.67935,45.629912],[-122.679392,45.629883],[-122.679399,45.629647],[-122.679493,45.629644],[-122.679539,45.629617],[-122.679528,45.629467],[-122.679602,45.629465],[-122.679647,45.629439],[-122.679657,45.629287],[-122.679738,45.629283],[-122.679783,45.629249],[-122.679787,45.629108],[-122.680252,45.629105],[-122.680294,45.629076],[-122.6803,45.629019],[-122.680416,45.628995],[-122.680429,45.628929],[-122.680557,45.62893],[-122.680563,45.628986],[-122.680604,45.629016],[-122.680759,45.629018],[-122.680808,45.628987],[-122.680814,45.62893],[-122.680929,45.628907],[-122.680943,45.628841],[-122.681071,45.628841],[-122.681131,45.628865],[-122.681199,45.628842],[-122.681429,45.628843],[-122.681456,45.628807],[-122.681457,45.628531],[-122.681417,45.628488],[-122.68133,45.628482],[-122.681331,45.628212],[-122.681405,45.62821],[-122.681451,45.628184],[-122.681461,45.628032],[-122.681589,45.628033],[-122.681592,45.628084],[-122.681629,45.628116],[-122.681845,45.628123],[-122.681867,45.628197],[-122.681973,45.628214],[-122.68199,45.628284],[-122.6821,45.628304],[-122.682134,45.628385],[-122.682228,45.628394],[-122.682256,45.628472],[-122.682356,45.628485],[-122.682384,45.628562],[-122.682484,45.628575],[-122.682479,45.628824],[-122.68261,45.628845],[-122.682616,45.628902],[-122.682658,45.628931],[-122.682867,45.628936],[-122.682889,45.62901],[-122.682994,45.629027],[-122.683028,45.629108],[-122.683122,45.629117],[-122.683118,45.629276],[-122.683249,45.629297],[-122.683272,45.629371],[-122.683377,45.629388]],[[-122.680822,45.630156],[-122.680799,45.630039],[-122.680746,45.630011],[-122.680167,45.630009],[-122.680154,45.629943],[-122.680039,45.629918],[-122.680033,45.629862],[-122.679985,45.629831],[-122.679595,45.629827],[-122.679529,45.629865],[-122.679547,45.630081],[-122.679726,45.630095],[-122.679775,45.630064],[-122.679782,45.630008],[-122.67991,45.630008],[-122.679911,45.630145],[-122.679963,45.630186],[-122.680757,45.63019],[-122.680822,45.630156]],[[-122.680093,45.629468],[-122.680168,45.629425],[-122.680167,45.629237],[-122.680116,45.629201],[-122.679969,45.6292],[-122.67992,45.629231],[-122.679914,45.629288],[-122.67984,45.62929],[-122.679795,45.629316],[-122.679788,45.629429],[-122.679847,45.629467],[-122.680093,45.629468]],[[-122.681183,45.629496],[-122.681007,45.629447],[-122.680939,45.629471],[-122.680811,45.62947],[-122.680806,45.6294],[-122.680744,45.629367],[-122.680326,45.629391],[-122.680298,45.629428],[-122.680297,45.629559],[-122.680189,45.629565],[-122.680149,45.629614],[-122.680186,45.629719],[-122.680296,45.629739],[-122.680313,45.629899],[-122.680372,45.629919],[-122.680909,45.629909],[-122.680937,45.629872],[-122.680938,45.629651],[-122.681133,45.62965],[-122.681192,45.629613],[-122.681183,45.629496]],[[-122.680556,45.629199],[-122.680575,45.629155],[-122.680543,45.629119],[-122.68047,45.629111],[-122.68042,45.629134],[-122.68041,45.629176],[-122.680446,45.629213],[-122.680503,45.629223],[-122.680556,45.629199]],[[-122.681008,45.63072],[-122.680838,45.630733],[-122.680796,45.630756],[-122.680804,45.630867],[-122.68085,45.630907],[-122.680999,45.630924],[-122.681058,45.630881],[-122.681057,45.630756],[-122.681008,45.63072]],[[-122.681062,45.630461],[-122.681081,45.630416],[-122.681049,45.630381],[-122.680976,45.630372],[-122.680926,45.630396],[-122.680916,45.630437],[-122.680952,45.630475],[-122.681009,45.630485],[-122.681062,45.630461]],[[-122.681198,45.629021],[-122.681196,45.628956],[-122.681153,45.628922],[-122.680965,45.628947],[-122.680942,45.628985],[-122.680963,45.629185],[-122.681129,45.629225],[-122.681303,45.629186],[-122.681321,45.629055],[-122.681279,45.629026],[-122.681198,45.629021]],[[-122.68158,45.629652],[-122.681599,45.629608],[-122.681566,45.629572],[-122.681494,45.629563],[-122.681444,45.629587],[-122.681434,45.629629],[-122.68147,45.629666],[-122.681527,45.629676],[-122.68158,45.629652]],[[-122.682278,45.628754],[-122.682351,45.628716],[-122.682346,45.628603],[-122.682301,45.628577],[-122.682227,45.628574],[-122.682193,45.628493],[-122.6821,45.628484],[-122.682072,45.628406],[-122.681972,45.628394],[-122.681938,45.628313],[-122.681763,45.628307],[-122.681721,45.628336],[-122.681715,45.628393],[-122.6816,45.628417],[-122.681586,45.628614],[-122.68162,45.628654],[-122.68197,45.628664],[-122.681976,45.62872],[-122.682017,45.62875],[-122.682278,45.628754]],[[-122.681844,45.628845],[-122.681787,45.628829],[-122.681729,45.628849],[-122.681713,45.628898],[-122.681739,45.628934],[-122.681801,45.628946],[-122.68186,45.628921],[-122.681874,45.62888],[-122.681844,45.628845]]]}},{"type":"Feature","properties":{"id":115,"area_m2":38400,"px":384,"rank":2,"persistent":false},"geometry":{"type":"Polygon","coordinates":[[[-122.679303,45.623976],[-122.679302,45.624066],[-122.679196,45.624081],[-122.679173,45.624155],[-122.679045,45.624155],[-122.678977,45.624131],[-122.678908,45.62416],[-122.678882,45.624202],[-122.678916,45.624245],[-122.678916,45.624335],[-122.678788,45.624334],[-122.678765,45.62426],[-122.67866,45.624244],[-122.67868,45.624114],[-122.678653,45.624077],[-122.678276,45.624063],[-122.678254,45.623989],[-122.678148,45.623972],[-122.678169,45.623848],[-122.678147,45.623809],[-122.677935,45.623793],[-122.677873,45.623842],[-122.677891,45.624062],[-122.677785,45.624077],[-122.677762,45.624151],[-122.677668,45.62416],[-122.677634,45.624241],[-122.677523,45.62426],[-122.677505,45.624331],[-122.677248,45.62433],[-122.677236,45.624264],[-122.677121,45.624239],[-122.677118,45.624188],[-122.67708,45.624156],[-122.676736,45.624148],[-122.676737,45.623969],[-122.676837,45.623956],[-122.676866,45.623879],[-122.676954,45.623873],[-122.676994,45.62383],[-122.676994,45.623729],[-122.676962,45.623695],[-122.676739,45.623698],[-122.676739,45.623608],[-122.67682,45.623605],[-122.676864,45.62357],[-122.676868,45.623477],[-122.67684,45.623441],[-122.676646,45.623437],[-122.676611,45.623518],[-122.676496,45.623542],[-122.676483,45.623608],[-122.676226,45.623607],[-122.676227,45.623517],[-122.676314,45.623511],[-122.676354,45.623474],[-122.676353,45.623362],[-122.676289,45.623324],[-122.676128,45.623349],[-122.676099,45.623427],[-122.675971,45.623426],[-122.675903,45.623402],[-122.675755,45.623432],[-122.675717,45.623464],[-122.675714,45.623515],[-122.675585,45.623515],[-122.675525,45.623491],[-122.675457,45.623515],[-122.675329,45.623514],[-122.675316,45.623448],[-122.675201,45.623424],[-122.675173,45.623346],[-122.674945,45.623333],[-122.674923,45.623259],[-122.674817,45.623243],[-122.674818,45.623112],[-122.674784,45.623072],[-122.674434,45.623062],[-122.674434,45.622972],[-122.674469,45.622924],[-122.674435,45.622882],[-122.674434,45.622655],[-122.674395,45.622618],[-122.674225,45.622589],[-122.674074,45.622627],[-122.674051,45.622701],[-122.673835,45.622706],[-122.673795,45.622743],[-122.673793,45.62288],[-122.673665,45.62288],[-122.673668,45.62243],[-122.673778,45.62241],[-122.673797,45.62225],[-122.673903,45.622234],[-122.673926,45.62216],[-122.674041,45.622137],[-122.674054,45.622071],[-122.674311,45.622071],[-122.67431,45.622161],[-122.674116,45.622162],[-122.674055,45.622204],[-122.674062,45.622312],[-122.674107,45.622338],[-122.674181,45.622341],[-122.674209,45.622419],[-122.674811,45.622422],[-122.674862,45.622517],[-122.675064,45.622514],[-122.675098,45.622468],[-122.675066,45.622368],[-122.67501,45.622344],[-122.674833,45.622354],[-122.674814,45.622191],[-122.674769,45.622165],[-122.674695,45.622162],[-122.674683,45.622006],[-122.674568,45.621982],[-122.674534,45.621901],[-122.67444,45.621892],[-122.674442,45.621622],[-122.674698,45.621622],[-122.674707,45.621684],[-122.67476,45.621712],[-122.675083,45.621714],[-122.675116,45.621795],[-122.675339,45.621804],[-122.675344,45.621861],[-122.675393,45.621892],[-122.675595,45.621895],[-122.6756,45.621952],[-122.675642,45.621981],[-122.675979,45.621986],[-122.675988,45.622048],[-122.67604,45.622075],[-122.676363,45.622077],[-122.676384,45.622331],[-122.67655,45.622372],[-122.676618,45.622348],[-122.676746,45.622348],[-122.676768,45.622513],[-122.677002,45.622529],[-122.677024,45.622603],[-122.67713,45.622619],[-122.677129,45.622799],[-122.677028,45.622803],[-122.676982,45.622844],[-122.677001,45.623026],[-122.67704,45.623063],[-122.677188,45.623094],[-122.677336,45.623066],[-122.677383,45.623027],[-122.677385,45.62289],[-122.677601,45.622884],[-122.677638,45.622853],[-122.677642,45.622801],[-122.677898,45.622802],[-122.6779,45.623123],[-122.677944,45.623158],[-122.678025,45.623162],[-122.678058,45.623243],[-122.678152,45.623252],[-122.678169,45.623413],[-122.678221,45.623432],[-122.678474,45.623432],[-122.678527,45.623405],[-122.678537,45.623344],[-122.678665,45.623344],[-122.678687,45.623418],[-122.678793,45.623434],[-122.678792,45.623524],[-122.678758,45.623572],[-122.678804,45.62368],[-122.678861,45.623704],[-122.679048,45.623705],[-122.67907,45.623779],[-122.679175,45.623795],[-122.679188,45.623951],[-122.679303,45.623976]],[[-122.674615,45.622893],[-122.674807,45.622859],[-122.674817,45.622741],[-122.674766,45.622705],[-122.674618,45.622705],[-122.674565,45.622746],[-122.674566,45.622857],[-122.674615,45.622893]],[[-122.675692,45.62332],[-122.67575,45.623198],[-122.675703,45.623089],[-122.675588,45.623065],[-122.675575,45.622999],[-122.67546,45.622975],[-122.675455,45.622918],[-122.675413,45.622889],[-122.675123,45.622888],[-122.675082,45.622917],[-122.675075,45.622974],[-122.674995,45.622978],[-122.674953,45.623007],[-122.674959,45.623129],[-122.675074,45.623154],[-122.675091,45.623224],[-122.675202,45.623244],[-122.675215,45.62331],[-122.67533,45.623334],[-122.675335,45.623391],[-122.675377,45.62342],[-122.675553,45.623429],[-122.675586,45.623335],[-122.675692,45.62332]],[[-122.675845,45.622704],[-122.675794,45.622682],[-122.675736,45.622692],[-122.675699,45.622734],[-122.675715,45.622775],[-122.675767,45.622795],[-122.675839,45.622783],[-122.675866,45.622745],[-122.675845,45.622704]],[[-122.676704,45.622625],[-122.676556,45.622604],[-122.676505,45.622624],[-122.676487,45.622798],[-122.676393,45.622806],[-122.676359,45.622887],[-122.676278,45.622891],[-122.676236,45.62292],[-122.676196,45.62303],[-122.676235,45.623124],[-122.676276,45.623153],[-122.676438,45.623153],[-122.67648,45.623124],[-122.676486,45.623068],[-122.67668,45.623067],[-122.676737,45.623035],[-122.676743,45.622662],[-122.676704,45.622625]],[[-122.677511,45.623702],[-122.677455,45.623687],[-122.677397,45.623707],[-122.67738,45.623755],[-122.677407,45.623791],[-122.677469,45.623804],[-122.677527,45.623778],[-122.677542,45.623738],[-122.677511,45.623702]],[[-122.677767,45.623793],[-122.677711,45.623777],[-122.677653,45.623798],[-122.677636,45.623846],[-122.677663,45.623882],[-122.677725,45.623894],[-122.677783,45.623869],[-122.677798,45.623828],[-122.677767,45.623793]]]}},{"type":"Feature","properties":{"id":105,"area_m2":30200,"px":302,"rank":3,"persistent":false},"geometry":{"type":"Polygon","coordinates":[[[-122.683912,45.625519],[-122.683911,45.625789],[-122.683723,45.625788],[-122.683667,45.625812],[-122.683652,45.626148],[-122.683546,45.626164],[-122.683523,45.626238],[-122.682627,45.626235],[-122.682565,45.626211],[-122.682495,45.626235],[-122.681471,45.626232],[-122.681473,45.625741],[-122.681433,45.625698],[-122.681346,45.625692],[-122.681347,45.625422],[-122.681569,45.625413],[-122.681623,45.625287],[-122.681577,45.625246],[-122.681476,45.625242],[-122.681477,45.625152],[-122.681511,45.625104],[-122.681477,45.625062],[-122.681466,45.624803],[-122.681405,45.624778],[-122.681222,45.624791],[-122.68121,45.624635],[-122.681095,45.624611],[-122.681061,45.62453],[-122.680967,45.62452],[-122.680968,45.62443],[-122.681049,45.624426],[-122.681093,45.624392],[-122.681088,45.624279],[-122.681028,45.624251],[-122.680774,45.624251],[-122.680721,45.624278],[-122.680712,45.62434],[-122.680584,45.624339],[-122.68055,45.624258],[-122.680397,45.624249],[-122.680336,45.624277],[-122.680327,45.624339],[-122.680199,45.624338],[-122.680138,45.624314],[-122.68007,45.624338],[-122.679687,45.624337],[-122.679658,45.624259],[-122.67949,45.624222],[-122.679329,45.624258],[-122.679301,45.624336],[-122.679173,45.624335],[-122.679173,45.624245],[-122.679267,45.624236],[-122.679302,45.624156],[-122.679383,45.624152],[-122.679427,45.624118],[-122.679432,45.623796],[-122.679654,45.623788],[-122.679689,45.623707],[-122.679805,45.623683],[-122.679818,45.623617],[-122.680459,45.623619],[-122.680468,45.62368],[-122.680521,45.623708],[-122.680972,45.62371],[-122.680989,45.623781],[-122.6811,45.623801],[-122.681133,45.623882],[-122.681227,45.623891],[-122.681255,45.623969],[-122.681483,45.623982],[-122.681506,45.624056],[-122.681611,45.624072],[-122.681624,45.624138],[-122.681739,45.624163],[-122.681767,45.62424],[-122.681867,45.624253],[-122.681866,45.624433],[-122.681831,45.624481],[-122.681899,45.624604],[-122.682053,45.624638],[-122.682121,45.624614],[-122.682249,45.624614],[-122.682267,45.624684],[-122.682377,45.624704],[-122.68239,45.62477],[-122.682505,45.624795],[-122.682511,45.624851],[-122.682552,45.624881],[-122.682889,45.624886],[-122.682917,45.624964],[-122.68307,45.625],[-122.683146,45.624977],[-122.683274,45.624977],[-122.683334,45.625001],[-122.683402,45.624977],[-122.68353,45.624978],[-122.683552,45.625052],[-122.683658,45.625068],[-122.683656,45.625428],[-122.68355,45.625443],[-122.683527,45.625518],[-122.683282,45.625528],[-122.683203,45.625493],[-122.683132,45.625528],[-122.683041,45.625521],[-122.682994,45.625567],[-122.683026,45.625616],[-122.683089,45.62563],[-122.683153,45.625596],[-122.683259,45.625596],[-122.683276,45.625664],[-122.683324,45.625695],[-122.683721,45.625697],[-122.683782,45.625655],[-122.683784,45.625518],[-122.683912,45.625519]],[[-122.679963,45.623932],[-122.679939,45.623817],[-122.679893,45.623786],[-122.679743,45.623799],[-122.679692,45.623835],[-122.679691,45.623938],[-122.679742,45.623975],[-122.679931,45.623968],[-122.679963,45.623932]],[[-122.681596,45.624498],[-122.681628,45.624387],[-122.681589,45.624349],[-122.681394,45.624348],[-122.681356,45.62438],[-122.681353,45.624431],[-122.681259,45.624434],[-122.681213,45.624461],[-122.681233,45.624583],[-122.681285,45.62461],[-122.681439,45.624605],[-122.681477,45.624573],[-122.681481,45.624522],[-122.681596,45.624498]],[[-122.681786,45.6256],[-122.682063,45.625615],[-122.682114,45.625574],[-122.682118,45.625202],[-122.682071,45.625158],[-122.681931,45.625153],[-122.681863,45.625196],[-122.68186,45.625423],[-122.681745,45.625447],[-122.681732,45.625554],[-122.681786,45.6256]],[[-122.682577,45.625504],[-122.682407,45.625517],[-122.682365,45.625539],[-122.682373,45.625651],[-122.682419,45.62569],[-122.682568,45.625707],[-122.682627,45.625665],[-122.682626,45.62554],[-122.682577,45.625504]],[[-122.683141,45.625737],[-122.68312,45.625699],[-122.683067,45.625683],[-122.682819,45.625697],[-122.682769,45.62572],[-122.682754,45.626092],[-122.682788,45.626137],[-122.682961,45.626146],[-122.683018,45.626121],[-122.683012,45.625876],[-122.683128,45.625853],[-122.683141,45.625737]],[[-122.683465,45.625955],[-122.683316,45.625971],[-122.683274,45.626],[-122.683248,45.626096],[-122.683294,45.626143],[-122.683462,45.626146],[-122.683518,45.626114],[-122.683516,45.625983],[-122.683465,45.625955]]]}},{"type":"Feature","properties":{"id":96,"area_m2":22500,"px":225,"rank":4,"persistent":false},"geometry":{"type":"Polygon","coordinates":[[[-122.673519,45.62594],[-122.673517,45.626209],[-122.673288,45.626208],[-122.673261,45.626244],[-122.673259,45.626479],[-122.673044,45.626479],[-122.672985,45.626518],[-122.673015,45.626634],[-122.67313,45.626659],[-122.673127,45.627108],[-122.672871,45.627108],[-122.672872,45.626783],[-122.67284,45.626744],[-122.672488,45.626747],[-122.672454,45.626666],[-122.672281,45.626656],[-122.672212,45.626706],[-122.672229,45.627196],[-122.671844,45.627195],[-122.671822,45.627121],[-122.671716,45.627104],[-122.671717,45.626608],[-122.671678,45.626571],[-122.671591,45.626564],[-122.671592,45.626343],[-122.671538,45.626296],[-122.671141,45.626294],[-122.671088,45.626321],[-122.671079,45.626382],[-122.670741,45.626386],[-122.670695,45.626425],[-122.670693,45.626561],[-122.670565,45.626561],[-122.670566,45.626381],[-122.670653,45.626375],[-122.670693,45.626338],[-122.670696,45.626021],[-122.670796,45.626009],[-122.670825,45.625932],[-122.670919,45.625923],[-122.670954,45.625842],[-122.671035,45.625838],[-122.671079,45.625804],[-122.671087,45.625032],[-122.671193,45.625017],[-122.671216,45.624943],[-122.6716,45.624944],[-122.671661,45.624968],[-122.671729,45.624944],[-122.672113,45.624945],[-122.672136,45.62502],[-122.672241,45.625036],[-122.672263,45.6252],[-122.672497,45.625217],[-122.672519,45.625291],[-122.672624,45.625307],[-122.672623,45.625487],[-122.672518,45.625502],[-122.672495,45.625576],[-122.67224,45.625592],[-122.672219,45.625637],[-122.67226,45.62574],[-122.672494,45.625757],[-122.672521,45.625834],[-122.672683,45.62586],[-122.672744,45.625827],[-122.67275,45.625757],[-122.672866,45.625734],[-122.672879,45.625668],[-122.673135,45.625668],[-122.673139,45.62572],[-122.673176,45.625752],[-122.673392,45.625759],[-122.6734,45.625911],[-122.673445,45.625937],[-122.673519,45.62594]],[[-122.67147,45.625344],[-122.671403,45.62529],[-122.671226,45.625327],[-122.671213,45.625524],[-122.671246,45.625564],[-122.671399,45.625573],[-122.671456,45.62555],[-122.67147,45.625344]],[[-122.671645,45.626114],[-122.671721,45.626071],[-122.67172,45.625883],[-122.671669,45.625847],[-122.67152,45.625833],[-122.671472,45.625864],[-122.671466,45.625934],[-122.671432,45.625971],[-122.671469,45.626075],[-122.67152,45.626111],[-122.671645,45.626114]],[[-122.671468,45.625663],[-122.671434,45.625701],[-122.671448,45.625741],[-122.671506,45.625767],[-122.671563,45.625758],[-122.671594,45.625724],[-122.671584,45.625675],[-122.671529,45.62565],[-122.671468,45.625663]],[[-122.672128,45.62562],[-122.672104,45.625519],[-122.672056,45.625488],[-122.671908,45.625487],[-122.671857,45.625523],[-122.671856,45.625626],[-122.671907,45.625663],[-122.672096,45.625656],[-122.672128,45.62562]],[[-122.672028,45.626475],[-122.672103,45.626432],[-122.672103,45.626244],[-122.672052,45.626208],[-122.671904,45.626207],[-122.671851,45.626248],[-122.671852,45.626436],[-122.671903,45.626473],[-122.672028,45.626475]],[[-122.672024,45.627105],[-122.6721,45.627062],[-122.672099,45.626874],[-122.672048,45.626838],[-122.671901,45.626837],[-122.671847,45.626878],[-122.671848,45.627066],[-122.671899,45.627103],[-122.672024,45.627105]],[[-122.672749,45.625977],[-122.672682,45.625924],[-122.672503,45.625948],[-122.672484,45.625875],[-122.672431,45.625847],[-122.672291,45.625848],[-122.672238,45.625889],[-122.672237,45.625982],[-122.67227,45.626017],[-122.672481,45.626016],[-122.672495,45.626168],[-122.672553,45.626206],[-122.672686,45.626206],[-122.672739,45.626179],[-122.672749,45.625977]],[[-122.672484,45.626443],[-122.672509,45.626342],[-122.672477,45.626306],[-122.672289,45.626298],[-122.672237,45.626334],[-122.672236,45.626438],[-122.672288,45.626474],[-122.672435,45.626474],[-122.672484,45.626443]]]}},{"type":"Feature","properties":{"id":6,"area_m2":10600,"px":106,"rank":5,"persistent":true},"geometry":{"type":"Polygon","coordinates":[[[-122.690291,45.631837],[-122.690284,45.633097],[-122.690028,45.633096],[-122.690011,45.633026],[-122.6899,45.633006],[-122.689883,45.632936],[-122.689772,45.632915],[-122.68976,45.632849],[-122.689645,45.632825],[-122.689639,45.632768],[-122.68959,45.632737],[-122.689428,45.632728],[-122.689391,45.632759],[-122.689388,45.632824],[-122.688748,45.632823],[-122.688724,45.632748],[-122.688619,45.632732],[-122.688619,45.632642],[-122.688654,45.6326],[-122.68862,45.632552],[-122.68862,45.632462],[-122.688849,45.632451],[-122.688877,45.632373],[-122.688977,45.632361],[-122.689006,45.632283],[-122.689106,45.632271],[-122.689135,45.632194],[-122.689229,45.632185],[-122.689264,45.632104],[-122.689375,45.632085],[-122.689393,45.632014],[-122.689615,45.632006],[-122.68965,45.631925],[-122.689765,45.631901],[-122.689778,45.631835],[-122.690291,45.631837]]]}},{"type":"Feature","properties":{"id":94,"area_m2":10600,"px":106,"rank":6,"persistent":true},"geometry":{"type":"Polygon","coordinates":[[[-122.679929,45.626588],[-122.679926,45.627128],[-122.67982,45.627143],[-122.679797,45.627217],[-122.679156,45.627216],[-122.679143,45.62715],[-122.67908,45.627125],[-122.678819,45.627129],[-122.678777,45.627158],[-122.678771,45.627214],[-122.678258,45.627213],[-122.678263,45.626403],[-122.678368,45.626387],[-122.678392,45.626313],[-122.678776,45.626314],[-122.678779,45.626456],[-122.678823,45.62649],[-122.678903,45.626495],[-122.678919,45.626668],[-122.67897,45.626688],[-122.679157,45.626676],[-122.679242,45.626698],[-122.679307,45.626663],[-122.679321,45.626623],[-122.679288,45.626586],[-122.67928,45.626434],[-122.679234,45.626408],[-122.679161,45.626405],[-122.679162,45.626136],[-122.67929,45.626136],[-122.679313,45.62621],[-122.679418,45.626226],[-122.679435,45.626297],[-122.679546,45.626317],[-122.67958,45.626398],[-122.679674,45.626407],[-122.679701,45.626485],[-122.679801,45.626497],[-122.679829,45.626575],[-122.679929,45.626588]]]}},{"type":"Feature","properties":{"id":69,"area_m2":9100,"px":91,"rank":7,"persistent":false},"geometry":{"type":"Polygon","coordinates":[[[-122.679149,45.628476],[-122.679147,45.628746],[-122.677864,45.628742],[-122.677859,45.628685],[-122.67781,45.628654],[-122.67748,45.628651],[-122.677477,45.628586],[-122.677435,45.628552],[-122.677224,45.62856],[-122.677227,45.62802],[-122.677333,45.628005],[-122.677356,45.627931],[-122.677741,45.627932],[-122.677801,45.627956],[-122.677869,45.627932],[-122.678254,45.627933],[-122.678276,45.628007],[-122.678382,45.628024],[-122.67838,45.628335],[-122.678408,45.628371],[-122.678764,45.628385],[-122.678773,45.628446],[-122.678826,45.628474],[-122.679149,45.628476]]]}},{"type":"Feature","properties":{"id":4,"area_m2":8800,"px":88,"rank":8,"persistent":false},"geometry":{"type":"Polygon","coordinates":[[[-122.672073,45.631876],[-122.67207,45.632326],[-122.671997,45.632328],[-122.671951,45.632354],[-122.671941,45.632506],[-122.671611,45.632507],[-122.671562,45.632538],[-122.671556,45.632594],[-122.67144,45.632618],[-122.671425,45.632954],[-122.671352,45.632956],[-122.671306,45.632982],[-122.671296,45.633134],[-122.670978,45.63312],[-122.670917,45.633153],[-122.67091,45.633223],[-122.670782,45.633222],[-122.670722,45.633198],[-122.670654,45.633222],[-122.670526,45.633222],[-122.670533,45.632052],[-122.671174,45.632053],[-122.671173,45.632143],[-122.671139,45.632191],[-122.671173,45.632233],[-122.671188,45.632406],[-122.671072,45.632425],[-122.671043,45.632503],[-122.670935,45.632509],[-122.670895,45.632558],[-122.67092,45.632649],[-122.670954,45.632676],[-122.671237,45.632683],[-122.671299,45.632635],[-122.671284,45.632421],[-122.6714,45.632402],[-122.671429,45.632324],[-122.671517,45.632318],[-122.671557,45.632276],[-122.671545,45.632168],[-122.67143,45.632144],[-122.671433,45.631604],[-122.671539,45.631589],[-122.671562,45.631515],[-122.67169,45.631515],[-122.671706,45.631765],[-122.671817,45.631785],[-122.671823,45.631842],[-122.671864,45.631871],[-122.672073,45.631876]],[[-122.671016,45.632311],[-122.671062,45.632183],[-122.671018,45.632147],[-122.670722,45.632143],[-122.670663,45.63218],[-122.670661,45.632278],[-122.670707,45.632318],[-122.670863,45.632346],[-122.671016,45.632311]]]}},{"type":"Feature","properties":{"id":35,"area_m2":7900,"px":79,"rank":9,"persistent":false},"geometry":{"type":"Polygon","coordinates":[[[-122.671822,45.630975],[-122.671821,45.631065],[-122.671727,45.631074],[-122.671693,45.631119],[-122.671705,45.631221],[-122.67182,45.631245],[-122.671819,45.631425],[-122.671563,45.631424],[-122.67154,45.63135],[-122.671435,45.631334],[-122.671434,45.631198],[-122.671381,45.631156],[-122.671227,45.631158],[-122.671185,45.631187],[-122.671179,45.631243],[-122.671051,45.631243],[-122.671051,45.631153],[-122.671139,45.631147],[-122.671178,45.63111],[-122.671199,45.631018],[-122.671146,45.630976],[-122.670924,45.630973],[-122.670863,45.630948],[-122.670795,45.630972],[-122.67048,45.630972],[-122.670419,45.631],[-122.67041,45.631061],[-122.670282,45.631061],[-122.670283,45.630881],[-122.670477,45.63088],[-122.670538,45.630838],[-122.670543,45.630251],[-122.670671,45.630252],[-122.670684,45.630318],[-122.670748,45.630342],[-122.671371,45.630344],[-122.671432,45.630315],[-122.671441,45.630254],[-122.671698,45.630255],[-122.671694,45.630926],[-122.671734,45.630969],[-122.671822,45.630975]]]}},{"type":"Feature","properties":{"id":92,"area_m2":7800,"px":78,"rank":10,"persistent":false},"geometry":{"type":"Polygon","coordinates":[[[-122.686855,45.626877],[-122.686854,45.627057],[-122.686748,45.627072],[-122.686725,45.627147],[-122.686597,45.627146],[-122.686591,45.62709],[-122.686543,45.627058],[-122.686341,45.627055],[-122.686336,45.626985],[-122.686289,45.626954],[-122.686026,45.626965],[-122.68596,45.627003],[-122.685956,45.627144],[-122.68585,45.62716],[-122.685827,45.627234],[-122.685699,45.627234],[-122.685686,45.627168],[-122.685571,45.627143],[-122.685565,45.627087],[-122.685524,45.627057],[-122.685058,45.627052],[-122.685036,45.626978],[-122.68493,45.626962],[-122.684897,45.626881],[-122.684803,45.626871],[-122.684804,45.626601],[-122.685189,45.626602],[-122.685202,45.626668],[-122.685317,45.626693],[-122.685344,45.626771],[-122.685496,45.626783],[-122.68556,45.626759],[-122.685573,45.626693],[-122.685802,45.626682],[-122.68583,45.626604],[-122.686059,45.626592],[-122.686087,45.626556],[-122.686084,45.626463],[-122.68604,45.626429],[-122.68596,45.626424],[-122.685959,45.626288],[-122.68592,45.626251],[-122.685745,45.62625],[-122.685707,45.626282],[-122.685703,45.626334],[-122.685319,45.626333],[-122.68532,45.626153],[-122.685426,45.626137],[-122.685449,45.626063],[-122.685833,45.626064],[-122.685855,45.626138],[-122.685961,45.626154],[-122.685995,45.626235],[-122.686089,45.626245],[-122.686105,45.626405],[-122.686216,45.626425],[-122.68625,45.626506],[-122.686344,45.626516],[-122.686361,45.626676],[-122.686471,45.626696],[-122.686484,45.626762],[-122.686599,45.626786],[-122.686602,45.626838],[-122.686639,45.62687],[-122.686855,45.626877]]]}},{"type":"Feature","properties":{"id":57,"area_m2":6700,"px":67,"rank":11,"persistent":false},"geometry":{"type":"Polygon","coordinates":[[[-122.674783,45.629183],[-122.674781,45.629453],[-122.673883,45.629451],[-122.673881,45.629296],[-122.673803,45.629257],[-122.673656,45.629282],[-122.673627,45.62936],[-122.673283,45.629366],[-122.673245,45.629397],[-122.673242,45.629449],[-122.673126,45.629473],[-122.673113,45.629539],[-122.672985,45.629538],[-122.67297,45.629456],[-122.673079,45.62944],[-122.673114,45.629359],[-122.67322,45.629343],[-122.673278,45.629221],[-122.673244,45.629179],[-122.673244,45.629048],[-122.673216,45.629011],[-122.672922,45.628999],[-122.67286,45.629047],[-122.672873,45.62944],[-122.672729,45.629448],[-122.672731,45.628998],[-122.672837,45.628982],[-122.67286,45.628908],[-122.672976,45.628884],[-122.672989,45.628818],[-122.673117,45.628819],[-122.673178,45.628843],[-122.673246,45.628819],[-122.673759,45.628821],[-122.673767,45.628882],[-122.67382,45.62891],[-122.674271,45.628912],[-122.674284,45.628978],[-122.674399,45.629002],[-122.674427,45.62908],[-122.674655,45.629093],[-122.674677,45.629167],[-122.674783,45.629183]]]}},{"type":"Feature","properties":{"id":80,"area_m2":6700,"px":67,"rank":12,"persistent":false},"geometry":{"type":"Polygon","coordinates":[[[-122.681333,45.627942],[-122.681332,45.628122],[-122.681226,45.628137],[-122.681203,45.628211],[-122.68082,45.62821],[-122.680796,45.628136],[-122.68069,45.62812],[-122.680674,45.62796],[-122.680563,45.62794],[-122.680529,45.627859],[-122.68039,45.627827],[-122.680207,45.627861],[-122.680178,45.627938],[-122.679409,45.627936],[-122.67941,45.627666],[-122.679511,45.627662],[-122.679557,45.627622],[-122.67954,45.627307],[-122.680053,45.627308],[-122.680076,45.627382],[-122.680181,45.627399],[-122.680181,45.627625],[-122.680249,45.627668],[-122.680374,45.627668],[-122.680427,45.627641],[-122.680438,45.627399],[-122.680694,45.6274],[-122.680697,45.627542],[-122.680741,45.627576],[-122.680822,45.62758],[-122.680838,45.627741],[-122.68089,45.62776],[-122.681077,45.627761],[-122.681099,45.627835],[-122.681205,45.627851],[-122.681239,45.627932],[-122.681333,45.627942]],[[-122.680052,45.627528],[-122.679993,45.627475],[-122.67983,45.627497],[-122.679796,45.627536],[-122.679808,45.627643],[-122.679864,45.627667],[-122.680017,45.627659],[-122.68005,45.627625],[-122.680052,45.627528]]]}},{"type":"Feature","properties":{"id":84,"area_m2":6500,"px":65,"rank":13,"persistent":false},"geometry":{"type":"Polygon","coordinates":[[[-122.675948,45.627387],[-122.675945,45.627837],[-122.675839,45.627852],[-122.675816,45.627926],[-122.675688,45.627926],[-122.675706,45.627786],[-122.675632,45.627746],[-122.675196,45.627751],[-122.675156,45.627795],[-122.675175,45.627924],[-122.674919,45.627924],[-122.674858,45.627899],[-122.674788,45.627923],[-122.674534,45.627923],[-122.674473,45.627898],[-122.674405,45.627922],[-122.673892,45.627921],[-122.673896,45.627291],[-122.674665,45.627293],[-122.674693,45.627371],[-122.674854,45.627408],[-122.675022,45.627372],[-122.67505,45.627294],[-122.67582,45.627296],[-122.675842,45.62737],[-122.675948,45.627387]],[[-122.674534,45.627832],[-122.674553,45.627788],[-122.674521,45.627752],[-122.674456,45.627743],[-122.674403,45.627763],[-122.674387,45.627803],[-122.674424,45.627846],[-122.674481,45.627856],[-122.674534,45.627832]],[[-122.6753,45.627531],[-122.675325,45.62743],[-122.675286,45.627391],[-122.675097,45.627388],[-122.675051,45.627427],[-122.675055,45.627544],[-122.675116,45.627578],[-122.675258,45.627561],[-122.6753,45.627531]],[[-122.67562,45.627386],[-122.675544,45.62743],[-122.675575,45.627542],[-122.675631,45.627565],[-122.675784,45.627557],[-122.675818,45.627517],[-122.675806,45.62741],[-122.675758,45.627387],[-122.67562,45.627386]]]}},{"type":"Feature","properties":{"id":44,"area_m2":6100,"px":61,"rank":14,"persistent":false},"geometry":{"type":"Polygon","coordinates":[[[-122.679139,45.630096],[-122.679138,45.630276],[-122.679044,45.630285],[-122.67901,45.63033],[-122.679022,45.630432],[-122.679137,45.630456],[-122.679136,45.630636],[-122.679031,45.630651],[-122.679008,45.630725],[-122.67811,45.630723],[-122.678098,45.630477],[-122.678042,45.630453],[-122.677855,45.630452],[-122.677855,45.630362],[-122.678042,45.630363],[-122.678099,45.630339],[-122.678113,45.630093],[-122.678219,45.630077],[-122.678242,45.630003],[-122.679012,45.630006],[-122.679034,45.63008],[-122.679139,45.630096]]]}},{"type":"Feature","properties":{"id":30,"area_m2":5900,"px":59,"rank":15,"persistent":false},"geometry":{"type":"Polygon","coordinates":[[[-122.674641,45.631523],[-122.67464,45.631613],[-122.674535,45.631629],[-122.674512,45.631703],[-122.674296,45.631709],[-122.674258,45.631741],[-122.674255,45.631792],[-122.67387,45.631791],[-122.673865,45.631721],[-122.673803,45.631688],[-122.673357,45.6317],[-122.673341,45.631449],[-122.673289,45.63143],[-122.672974,45.631428],[-122.672962,45.631272],[-122.672905,45.631249],[-122.672718,45.631248],[-122.672719,45.631158],[-122.672825,45.631142],[-122.672848,45.631068],[-122.673744,45.631071],[-122.673806,45.631095],[-122.673876,45.631071],[-122.674515,45.631073],[-122.674514,45.631343],[-122.674285,45.631355],[-122.674257,45.631391],[-122.674258,45.631492],[-122.674323,45.631536],[-122.674641,45.631523]],[[-122.67361,45.631307],[-122.673635,45.631205],[-122.673603,45.63117],[-122.673415,45.631162],[-122.673363,45.631198],[-122.673363,45.631301],[-122.673414,45.631337],[-122.673561,45.631338],[-122.67361,45.631307]],[[-122.674252,45.631309],[-122.674277,45.631207],[-122.674238,45.631169],[-122.674049,45.631166],[-122.674003,45.631205],[-122.674006,45.631322],[-122.674068,45.631355],[-122.67421,45.631338],[-122.674252,45.631309]]]}},{"type":"Feature","properties":{"id":110,"area_m2":5700,"px":57,"rank":16,"persistent":false},"geometry":{"type":"Polygon","coordinates":[[[-122.679684,45.624607],[-122.679683,45.624697],[-122.679575,45.624703],[-122.679535,45.624752],[-122.679572,45.624857],[-122.679682,45.624877],[-122.679682,45.624967],[-122.679576,45.624982],[-122.679553,45.625056],[-122.679453,45.625068],[-122.679424,45.625146],[-122.67933,45.625155],[-122.679296,45.625236],[-122.679185,45.625255],[-122.679167,45.625325],[-122.679039,45.625325],[-122.679033,45.625268],[-122.678984,45.625237],[-122.678783,45.625234],[-122.67876,45.62516],[-122.678655,45.625144],[-122.678642,45.625078],[-122.678527,45.625054],[-122.678499,45.624976],[-122.678399,45.624963],[-122.6784,45.624873],[-122.678494,45.624864],[-122.678529,45.624784],[-122.678602,45.624781],[-122.678648,45.624755],[-122.678658,45.624604],[-122.678739,45.6246],[-122.678783,45.624566],[-122.678787,45.624424],[-122.679044,45.624425],[-122.679112,45.624449],[-122.679172,45.624425],[-122.679367,45.624425],[-122.67942,45.624397],[-122.679429,45.624336],[-122.679557,45.624336],[-122.679557,45.624426],[-122.679522,45.624474],[-122.679559,45.624568],[-122.679603,45.624602],[-122.679684,45.624607]],[[-122.679446,45.624651],[-122.679422,45.624549],[-122.679373,45.624518],[-122.679226,45.624518],[-122.679175,45.624554],[-122.679174,45.624657],[-122.679225,45.624693],[-122.679413,45.624687],[-122.679446,45.624651]]]}},{"type":"Feature","properties":{"id":95,"area_m2":5200,"px":52,"rank":17,"persistent":false},"geometry":{"type":"Polygon","coordinates":[[[-122.677491,45.626671],[-122.677489,45.627121],[-122.677383,45.627136],[-122.67736,45.62721],[-122.676206,45.627207],[-122.676183,45.627133],[-122.676078,45.627117],[-122.676078,45.627027],[-122.676113,45.626985],[-122.676079,45.626937],[-122.676081,45.626577],[-122.676466,45.626578],[-122.676474,45.626653],[-122.67654,45.626682],[-122.676694,45.626656],[-122.676722,45.626579],[-122.67685,45.626579],[-122.676878,45.626657],[-122.677039,45.626694],[-122.677207,45.626658],[-122.677235,45.62658],[-122.677364,45.626581],[-122.677386,45.626655],[-122.677491,45.626671]]]}},{"type":"Feature","properties":{"id":83,"area_m2":5100,"px":51,"rank":18,"persistent":false},"geometry":{"type":"Polygon","coordinates":[[[-122.673767,45.62729],[-122.673764,45.62792],[-122.673548,45.627926],[-122.67351,45.627958],[-122.673507,45.62801],[-122.67325,45.628009],[-122.673238,45.627943],[-122.673174,45.627919],[-122.673028,45.627927],[-122.672994,45.628008],[-122.672737,45.628007],[-122.672741,45.627287],[-122.673254,45.627289],[-122.673315,45.627313],[-122.673383,45.627289],[-122.673767,45.62729]],[[-122.67356,45.62774],[-122.673635,45.627697],[-122.673637,45.627423],[-122.673584,45.627382],[-122.673444,45.62738],[-122.673382,45.627428],[-122.673382,45.627696],[-122.673435,45.627737],[-122.67356,45.62774]]]}},{"type":"Feature","properties":{"id":37,"area_m2":4900,"px":49,"rank":19,"persistent":true},"geometry":{"type":"Polygon","coordinates":[[[-122.689911,45.630936],[-122.689911,45.631026],[-122.68983,45.63103],[-122.689786,45.631064],[-122.689782,45.631205],[-122.689566,45.631211],[-122.689528,45.631243],[-122.689525,45.631295],[-122.689268,45.631294],[-122.68926,45.631142],[-122.689214,45.631116],[-122.689141,45.631114],[-122.689135,45.631057],[-122.689087,45.631026],[-122.688818,45.631024],[-122.688765,45.631051],[-122.688756,45.631112],[-122.688499,45.631112],[-122.688477,45.631038],[-122.688372,45.631021],[-122.688373,45.630842],[-122.688478,45.630826],[-122.688501,45.630752],[-122.688595,45.630743],[-122.68863,45.630662],[-122.688741,45.630643],[-122.688759,45.630573],[-122.68921,45.630573],[-122.689263,45.630545],[-122.689273,45.630484],[-122.689401,45.630484],[-122.6894,45.630664],[-122.689365,45.630712],[-122.689416,45.630825],[-122.689468,45.630844],[-122.689655,45.630845],[-122.689661,45.630902],[-122.68971,45.630933],[-122.689911,45.630936]]]}},{"type":"Feature","properties":{"id":59,"area_m2":4600,"px":46,"rank":20,"persistent":false},"geometry":{"type":"Polygon","coordinates":[[[-122.672218,45.628996],[-122.672217,45.629176],[-122.672129,45.629182],[-122.67209,45.629219],[-122.672087,45.629446],[-122.671702,45.629445],[-122.67169,45.629289],[-122.671515,45.62924],[-122.671331,45.629288],[-122.671317,45.629443],[-122.670933,45.629442],[-122.670934,45.629172],[-122.671028,45.629164],[-122.671063,45.629083],[-122.671137,45.629081],[-122.671182,45.629055],[-122.671193,45.628813],[-122.671516,45.628813],[-122.671569,45.628786],[-122.671578,45.628724],[-122.671835,45.628725],[-122.671857,45.628799],[-122.671963,45.628815],[-122.671942,45.628939],[-122.671964,45.628979],[-122.672218,45.628996]]]}},{"type":"Feature","properties":{"id":78,"area_m2":4300,"px":43,"rank":21,"persistent":false},"geometry":{"type":"Polygon","coordinates":[[[-122.68685,45.627777],[-122.686848,45.628137],[-122.686496,45.628132],[-122.686463,45.628171],[-122.686462,45.628316],[-122.686077,45.628315],[-122.686069,45.628163],[-122.686024,45.628137],[-122.68595,45.628133],[-122.685953,45.627595],[-122.686059,45.627579],[-122.686082,45.627505],[-122.686338,45.627506],[-122.686341,45.627557],[-122.686379,45.627589],[-122.686594,45.627596],[-122.686617,45.627671],[-122.686722,45.627687],[-122.686756,45.627768],[-122.68685,45.627777]]]}},{"type":"Feature","properties":{"id":103,"area_m2":4300,"px":43,"rank":22,"persistent":true},"geometry":{"type":"Polygon","coordinates":[[[-122.677624,45.625861],[-122.677624,45.625951],[-122.677524,45.625963],[-122.677495,45.626041],[-122.677407,45.626047],[-122.677367,45.626089],[-122.677379,45.626196],[-122.677494,45.626221],[-122.677492,45.626491],[-122.676851,45.626489],[-122.676853,45.626088],[-122.676799,45.626041],[-122.676509,45.626044],[-122.67647,45.626081],[-122.676468,45.626218],[-122.67634,45.626217],[-122.676341,45.625948],[-122.676935,45.625945],[-122.676981,45.625906],[-122.676984,45.625769],[-122.677496,45.625771],[-122.677519,45.625845],[-122.677624,45.625861]]]}},{"type":"Feature","properties":{"id":85,"area_m2":4000,"px":40,"rank":23,"persistent":true},"geometry":{"type":"Polygon","coordinates":[[[-122.672612,45.627467],[-122.67261,45.627737],[-122.672482,45.627737],[-122.672414,45.627712],[-122.67226,45.627745],[-122.672226,45.627785],[-122.672224,45.627916],[-122.671711,45.627914],[-122.671715,45.627285],[-122.672485,45.627287],[-122.672493,45.627438],[-122.672538,45.627465],[-122.672612,45.627467]]]}},{"type":"Feature","properties":{"id":113,"area_m2":3900,"px":39,"rank":24,"persistent":false},"geometry":{"type":"Polygon","coordinates":[[[-122.674042,45.624141],[-122.674041,45.624321],[-122.673847,45.624321],[-122.673786,45.624364],[-122.673782,45.62486],[-122.673653,45.62486],[-122.673593,45.624835],[-122.673523,45.624859],[-122.672884,45.624858],[-122.672862,45.624783],[-122.672756,45.624767],[-122.672759,45.624317],[-122.672832,45.624315],[-122.672878,45.624289],[-122.672888,45.624138],[-122.673218,45.624136],[-122.673267,45.624105],[-122.673275,45.624049],[-122.673658,45.62405],[-122.673664,45.624106],[-122.673712,45.624138],[-122.674042,45.624141]],[[-122.672961,45.624768],[-122.673608,45.624779],[-122.673654,45.624735],[-122.673657,45.624284],[-122.673634,45.624245],[-122.67347,45.624229],[-122.673409,45.624258],[-122.673398,45.624589],[-122.673142,45.624588],[-122.673131,45.624329],[-122.673062,45.624304],[-122.672909,45.624333],[-122.672887,45.624372],[-122.672885,45.624714],[-122.672907,45.624752],[-122.672961,45.624768]]]}},{"type":"Feature","properties":{"id":75,"area_m2":3800,"px":38,"rank":25,"persistent":true},"geometry":{"type":"Polygon","coordinates":[[[-122.684795,45.628131],[-122.684795,45.628221],[-122.684707,45.628228],[-122.684668,45.628265],[-122.684665,45.628581],[-122.683767,45.628579],[-122.683764,45.628437],[-122.683698,45.628399],[-122.683545,45.628407],[-122.683511,45.628488],[-122.683382,45.628487],[-122.683383,45.628398],[-122.683489,45.628382],[-122.683512,45.628308],[-122.683627,45.628284],[-122.68364,45.628218],[-122.683897,45.628219],[-122.683965,45.628243],[-122.684025,45.628219],[-122.684248,45.628211],[-122.684282,45.628171],[-122.684283,45.62804],[-122.684668,45.628041],[-122.68469,45.628115],[-122.684795,45.628131]]]}},{"type":"Feature","properties":{"id":17,"area_m2":3700,"px":37,"rank":26,"persistent":false},"geometry":{"type":"Polygon","coordinates":[[[-122.678489,45.631714],[-122.678485,45.632434],[-122.677843,45.632432],[-122.677847,45.631802],[-122.678063,45.631797],[-122.6781,45.631765],[-122.678104,45.631713],[-122.678232,45.631714],[-122.678293,45.631738],[-122.678361,45.631714],[-122.678489,45.631714]]]}},{"type":"Feature","properties":{"id":7,"area_m2":3500,"px":35,"rank":27,"persistent":true},"geometry":{"type":"Polygon","coordinates":[[[-122.672582,45.632598],[-122.67258,45.632867],[-122.672475,45.632883],[-122.672452,45.632957],[-122.672336,45.632981],[-122.672323,45.633047],[-122.671681,45.633045],[-122.671659,45.632971],[-122.671554,45.632955],[-122.671555,45.632685],[-122.671661,45.632669],[-122.671684,45.632595],[-122.672582,45.632598]]]}},{"type":"Feature","properties":{"id":77,"area_m2":3300,"px":33,"rank":28,"persistent":false},"geometry":{"type":"Polygon","coordinates":[[[-122.672736,45.628098],[-122.672736,45.628187],[-122.672401,45.628187],[-122.672348,45.628207],[-122.67235,45.628366],[-122.672276,45.628369],[-122.672231,45.628395],[-122.672221,45.628546],[-122.671708,45.628545],[-122.671711,45.628005],[-122.672298,45.628004],[-122.672347,45.627973],[-122.672353,45.627916],[-122.672468,45.627893],[-122.672482,45.627827],[-122.67261,45.627827],[-122.672609,45.627917],[-122.672575,45.627965],[-122.672612,45.628059],[-122.672656,45.628093],[-122.672736,45.628098]]]}},{"type":"Feature","properties":{"id":82,"area_m2":3300,"px":33,"rank":29,"persistent":false},"geometry":{"type":"Polygon","coordinates":[[[-122.679283,45.627396],[-122.679282,45.627666],[-122.679188,45.627675],[-122.679153,45.627756],[-122.679079,45.627758],[-122.679034,45.627784],[-122.679023,45.628025],[-122.678638,45.628024],[-122.678635,45.627973],[-122.678598,45.62794],[-122.678382,45.627933],[-122.678384,45.627664],[-122.678471,45.627657],[-122.678512,45.627615],[-122.678514,45.627304],[-122.679155,45.627306],[-122.679178,45.62738],[-122.679283,45.627396]],[[-122.678681,45.627658],[-122.678837,45.627677],[-122.678891,45.627645],[-122.678897,45.627438],[-122.678844,45.627397],[-122.678704,45.627395],[-122.678643,45.627438],[-122.678642,45.627621],[-122.678681,45.627658]]]}},{"type":"Feature","properties":{"id":108,"area_m2":3300,"px":33,"rank":30,"persistent":true},"geometry":{"type":"Polygon","coordinates":[[[-122.674808,45.624773],[-122.674804,45.625583],[-122.674291,45.625582],[-122.67423,45.625557],[-122.674162,45.625581],[-122.674034,45.625581],[-122.674034,45.625264],[-122.673995,45.625227],[-122.673908,45.62522],[-122.673909,45.625041],[-122.674015,45.625025],[-122.674038,45.624951],[-122.674166,45.624951],[-122.674188,45.625025],[-122.674294,45.625042],[-122.674305,45.625301],[-122.674367,45.625326],[-122.674501,45.625308],[-122.674547,45.625269],[-122.67455,45.625132],[-122.674637,45.625126],[-122.674677,45.625089],[-122.67468,45.624773],[-122.674808,45.624773]]]}},{"type":"Feature","properties":{"id":39,"area_m2":3200,"px":32,"rank":31,"persistent":false},"geometry":{"type":"Polygon","coordinates":[[[-122.672595,45.630347],[-122.672593,45.630707],[-122.672512,45.630711],[-122.672468,45.630745],[-122.672463,45.630977],[-122.672078,45.630976],[-122.672058,45.630798],[-122.672005,45.630782],[-122.671823,45.630795],[-122.671826,45.630345],[-122.671954,45.630346],[-122.672014,45.63037],[-122.672082,45.630346],[-122.672595,45.630347]]]}},{"type":"Feature","properties":{"id":52,"area_m2":3100,"px":31,"rank":32,"persistent":false},"geometry":{"type":"Polygon","coordinates":[[[-122.672599,45.629717],[-122.672598,45.629807],[-122.672511,45.629813],[-122.672471,45.62985],[-122.672468,45.630077],[-122.672363,45.630092],[-122.67234,45.630166],[-122.671698,45.630165],[-122.671676,45.63009],[-122.671571,45.630074],[-122.671572,45.629804],[-122.671646,45.629802],[-122.671691,45.629776],[-122.671701,45.629625],[-122.671958,45.629625],[-122.671958,45.629852],[-122.672026,45.629895],[-122.672151,45.629895],[-122.672204,45.629868],[-122.672215,45.629626],[-122.672343,45.629627],[-122.672348,45.629697],[-122.672395,45.629728],[-122.672599,45.629717]]]}},{"type":"Feature","properties":{"id":10,"area_m2":3000,"px":30,"rank":33,"persistent":false},"geometry":{"type":"Polygon","coordinates":[[[-122.677717,45.631982],[-122.677714,45.632522],[-122.677392,45.632522],[-122.677338,45.63255],[-122.677329,45.632611],[-122.677201,45.632611],[-122.677179,45.632536],[-122.677073,45.63252],[-122.677077,45.63189],[-122.677461,45.631891],[-122.677464,45.631943],[-122.677502,45.631975],[-122.677717,45.631982]],[[-122.677511,45.632251],[-122.677585,45.632213],[-122.677579,45.6321],[-122.677527,45.632073],[-122.677373,45.632077],[-122.677333,45.632114],[-122.67734,45.632222],[-122.677393,45.63225],[-122.677511,45.632251]]]}},{"type":"Feature","properties":{"id":49,"area_m2":3000,"px":30,"rank":34,"persistent":false},"geometry":{"type":"Polygon","coordinates":[[[-122.676961,45.62973],[-122.676959,45.63],[-122.676878,45.630004],[-122.676834,45.630038],[-122.676829,45.630269],[-122.676316,45.630268],[-122.676294,45.630194],[-122.676188,45.630177],[-122.67619,45.629998],[-122.676291,45.629994],[-122.676337,45.629953],[-122.676319,45.629728],[-122.676535,45.629722],[-122.676573,45.62969],[-122.676578,45.629639],[-122.676833,45.629639],[-122.676855,45.629714],[-122.676961,45.62973]]]}},{"type":"Feature","properties":{"id":29,"area_m2":2900,"px":29,"rank":35,"persistent":false},"geometry":{"type":"Polygon","coordinates":[[[-122.679774,45.631358],[-122.679772,45.631628],[-122.679666,45.631643],[-122.679643,45.631717],[-122.679528,45.631741],[-122.679515,45.631807],[-122.679258,45.631806],[-122.679236,45.631732],[-122.67913,45.631716],[-122.679097,45.631635],[-122.679003,45.631626],[-122.679004,45.631446],[-122.679098,45.631437],[-122.679132,45.631356],[-122.679248,45.631332],[-122.679262,45.631176],[-122.679647,45.631177],[-122.679655,45.631329],[-122.6797,45.631355],[-122.679774,45.631358]]]}},{"type":"Feature","properties":{"id":31,"area_m2":2900,"px":29,"rank":36,"persistent":false},"geometry":{"type":"Polygon","coordinates":[[[-122.677079,45.63153],[-122.677078,45.63162],[-122.676972,45.631636],[-122.676949,45.63171],[-122.676821,45.631709],[-122.676839,45.631569],[-122.676765,45.631529],[-122.676627,45.63153],[-122.676583,45.631549],[-122.676564,45.631709],[-122.676051,45.631707],[-122.676054,45.631167],[-122.676567,45.631169],[-122.676589,45.631423],[-122.676951,45.63144],[-122.676973,45.631514],[-122.677079,45.63153]]]}},{"type":"Feature","properties":{"id":34,"area_m2":2900,"px":29,"rank":37,"persistent":true},"geometry":{"type":"Polygon","coordinates":[[[-122.678748,45.631265],[-122.678747,45.631445],[-122.678641,45.63146],[-122.678618,45.631534],[-122.678039,45.631534],[-122.677986,45.631561],[-122.677976,45.631623],[-122.677848,45.631622],[-122.677842,45.631566],[-122.677794,45.631535],[-122.677592,45.631532],[-122.67757,45.631457],[-122.677464,45.631441],[-122.677465,45.631351],[-122.67757,45.631336],[-122.677593,45.631262],[-122.677709,45.631238],[-122.677722,45.631172],[-122.67785,45.631172],[-122.67785,45.631262],[-122.677816,45.631315],[-122.677902,45.631376],[-122.678093,45.631329],[-122.678107,45.631173],[-122.67862,45.631175],[-122.678642,45.631249],[-122.678748,45.631265]]]}},{"type":"Feature","properties":{"id":60,"area_m2":2500,"px":25,"rank":38,"persistent":false},"geometry":{"type":"Polygon","coordinates":[[[-122.670423,45.628811],[-122.670419,45.629441],[-122.670291,45.629441],[-122.670292,45.629206],[-122.67026,45.629166],[-122.670077,45.629176],[-122.670039,45.629208],[-122.670034,45.62926],[-122.669907,45.629259],[-122.669885,45.629185],[-122.66978,45.629169],[-122.669783,45.628629],[-122.669911,45.628629],[-122.669912,45.628766],[-122.669958,45.628805],[-122.670423,45.628811]]]}},{"type":"Feature","properties":{"id":28,"area_m2":2400,"px":24,"rank":39,"persistent":false},"geometry":{"type":"Polygon","coordinates":[[[-122.680545,45.63118],[-122.680541,45.63181],[-122.680156,45.631809],[-122.680156,45.631582],[-122.680117,45.631545],[-122.68003,45.631538],[-122.680031,45.631359],[-122.680146,45.631335],[-122.68016,45.631179],[-122.680266,45.631163],[-122.680289,45.631089],[-122.680417,45.63109],[-122.680439,45.631164],[-122.680545,45.63118]]]}},{"type":"Feature","properties":{"id":90,"area_m2":2300,"px":23,"rank":40,"persistent":false},"geometry":{"type":"Polygon","coordinates":[[[-122.671589,45.626834],[-122.671588,45.627104],[-122.671494,45.627113],[-122.671459,45.627194],[-122.671344,45.627217],[-122.67133,45.627373],[-122.670945,45.627372],[-122.670946,45.627192],[-122.671047,45.627188],[-122.671093,45.627148],[-122.671076,45.626833],[-122.671164,45.626826],[-122.671203,45.626789],[-122.671207,45.626473],[-122.671335,45.626473],[-122.671357,45.626548],[-122.671463,45.626564],[-122.671465,45.626795],[-122.671509,45.62683],[-122.671589,45.626834]]]}},{"type":"Feature","properties":{"id":71,"area_m2":2100,"px":21,"rank":41,"persistent":false},"geometry":{"type":"Polygon","coordinates":[[[-122.671581,45.628184],[-122.671579,45.628634],[-122.671473,45.62865],[-122.67145,45.628724],[-122.671065,45.628723],[-122.671066,45.628633],[-122.6711,45.628585],[-122.671063,45.628491],[-122.671019,45.628457],[-122.670938,45.628451],[-122.670939,45.628362],[-122.67102,45.628358],[-122.671064,45.628324],[-122.671069,45.628093],[-122.671454,45.628094],[-122.671476,45.628168],[-122.671581,45.628184]],[[-122.671392,45.628441],[-122.671243,45.628457],[-122.671201,45.628486],[-122.671175,45.628583],[-122.671221,45.628629],[-122.671389,45.628633],[-122.671445,45.6286],[-122.671443,45.628469],[-122.671392,45.628441]]]}},{"type":"Feature","properties":{"id":16,"area_m2":2000,"px":20,"rank":42,"persistent":false},"geometry":{"type":"Polygon","coordinates":[[[-122.6704,45.632233],[-122.670369,45.632279],[-122.670403,45.632321],[-122.670402,45.632411],[-122.670296,45.632427],[-122.670273,45.632501],[-122.66976,45.632499],[-122.669762,45.632229],[-122.669796,45.632187],[-122.669762,45.632139],[-122.669763,45.632049],[-122.670276,45.632051],[-122.670298,45.632125],[-122.670404,45.632141],[-122.6704,45.632233]]]}},{"type":"Feature","properties":{"id":51,"area_m2":2000,"px":20,"rank":43,"persistent":true},"geometry":{"type":"Polygon","coordinates":[[[-122.670418,45.629621],[-122.670417,45.629891],[-122.670311,45.629907],[-122.670288,45.629981],[-122.670059,45.629979],[-122.670032,45.630015],[-122.67003,45.63016],[-122.669925,45.630175],[-122.669902,45.630249],[-122.669773,45.630249],[-122.669774,45.630159],[-122.669868,45.63015],[-122.669902,45.630106],[-122.669898,45.629923],[-122.669856,45.629893],[-122.669776,45.629889],[-122.669777,45.629619],[-122.670418,45.629621]]]}},{"type":"Feature","properties":{"id":27,"area_m2":1900,"px":19,"rank":44,"persistent":false},"geometry":{"type":"Polygon","coordinates":[[[-122.683367,45.631278],[-122.683365,45.631458],[-122.683278,45.631464],[-122.683239,45.631501],[-122.683235,45.631817],[-122.683107,45.631817],[-122.683085,45.631743],[-122.682979,45.631727],[-122.682981,45.631458],[-122.683096,45.631433],[-122.683124,45.631312],[-122.68306,45.631277],[-122.682725,45.631276],[-122.682703,45.631202],[-122.682597,45.631186],[-122.682599,45.630826],[-122.682728,45.630826],[-122.68273,45.631058],[-122.682774,45.631092],[-122.682854,45.631096],[-122.682882,45.631174],[-122.683239,45.631187],[-122.683261,45.631262],[-122.683367,45.631278]]]}},{"type":"Feature","properties":{"id":74,"area_m2":1800,"px":18,"rank":45,"persistent":false},"geometry":{"type":"Polygon","coordinates":[[[-122.685438,45.627863],[-122.685438,45.627953],[-122.685344,45.627962],[-122.685309,45.628007],[-122.685314,45.628189],[-122.685356,45.628219],[-122.685436,45.628223],[-122.685435,45.628493],[-122.684984,45.628493],[-122.684931,45.62852],[-122.684921,45.628582],[-122.684793,45.628581],[-122.684794,45.628491],[-122.684874,45.628488],[-122.684919,45.628453],[-122.684923,45.628312],[-122.685017,45.628303],[-122.685052,45.628222],[-122.685132,45.628218],[-122.685177,45.628184],[-122.685182,45.627772],[-122.685311,45.627773],[-122.685333,45.627847],[-122.685438,45.627863]]]}},{"type":"Feature","properties":{"id":86,"area_m2":1800,"px":18,"rank":46,"persistent":false},"geometry":{"type":"Polygon","coordinates":[[[-122.671587,45.627284],[-122.671584,45.627734],[-122.671478,45.62775],[-122.671455,45.627824],[-122.671199,45.627823],[-122.671186,45.627757],[-122.671071,45.627733],[-122.671065,45.627676],[-122.671017,45.627645],[-122.670883,45.627618],[-122.670815,45.627642],[-122.670687,45.627641],[-122.670687,45.627552],[-122.670722,45.627509],[-122.670688,45.627461],[-122.670688,45.627372],[-122.670816,45.627372],[-122.670825,45.627433],[-122.670878,45.627461],[-122.671388,45.627463],[-122.671454,45.627425],[-122.671459,45.627284],[-122.671587,45.627284]]]}},{"type":"Feature","properties":{"id":93,"area_m2":1800,"px":18,"rank":47,"persistent":true},"geometry":{"type":"Polygon","coordinates":[[[-122.682491,45.626866],[-122.682459,45.626912],[-122.682493,45.626955],[-122.682492,45.627045],[-122.682142,45.627053],[-122.682108,45.627093],[-122.682106,45.627224],[-122.681978,45.627223],[-122.681956,45.627149],[-122.681851,45.627133],[-122.681852,45.626863],[-122.681958,45.626848],[-122.681981,45.626774],[-122.682197,45.626768],[-122.682234,45.626736],[-122.682238,45.626684],[-122.682494,45.626685],[-122.682491,45.626866]]]}},{"type":"Feature","properties":{"id":104,"area_m2":1800,"px":18,"rank":48,"persistent":false},"geometry":{"type":"Polygon","coordinates":[[[-122.670439,45.626111],[-122.670438,45.626201],[-122.670358,45.626205],[-122.670313,45.626239],[-122.670309,45.62638],[-122.669924,45.626379],[-122.669902,45.626305],[-122.669797,45.626289],[-122.669798,45.626109],[-122.669903,45.626093],[-122.669927,45.626019],[-122.67002,45.626017],[-122.670063,45.625995],[-122.670056,45.62584],[-122.670312,45.62584],[-122.670314,45.626072],[-122.670358,45.626106],[-122.670439,45.626111]]]}},{"type":"Feature","properties":{"id":107,"area_m2":1800,"px":18,"rank":49,"persistent":false},"geometry":{"type":"Polygon","coordinates":[[[-122.675829,45.625227],[-122.675797,45.625274],[-122.675831,45.625316],[-122.675831,45.625406],[-122.675796,45.625454],[-122.67583,45.625496],[-122.67583,45.625586],[-122.675702,45.625586],[-122.675641,45.625561],[-122.675573,45.625585],[-122.675317,45.625585],[-122.675309,45.625433],[-122.675263,45.625407],[-122.67519,45.625403],[-122.67519,45.625314],[-122.675271,45.62531],[-122.675315,45.625276],[-122.67532,45.625135],[-122.675832,45.625136],[-122.675829,45.625227]]]}},{"type":"Feature","properties":{"id":79,"area_m2":1700,"px":17,"rank":50,"persistent":false},"geometry":{"type":"Polygon","coordinates":[[[-122.68313,45.627767],[-122.683129,45.627947],[-122.683035,45.627956],[-122.683,45.628036],[-122.682885,45.62806],[-122.682871,45.628216],[-122.682742,45.628216],[-122.682744,45.627814],[-122.682704,45.627772],[-122.682617,45.627765],[-122.682618,45.627495],[-122.682875,45.627496],[-122.682887,45.627652],[-122.683002,45.627676],[-122.683036,45.627757],[-122.68313,45.627767]]]}},{"type":"Feature","properties":{"id":42,"area_m2":1600,"px":16,"rank":51,"persistent":false},"geometry":{"type":"Polygon","coordinates":[[[-122.670415,45.630251],[-122.670412,45.630701],[-122.670306,45.630717],[-122.670283,45.630791],[-122.669899,45.63079],[-122.669901,45.63034],[-122.670224,45.630339],[-122.670277,45.630312],[-122.670287,45.630251],[-122.670415,45.630251]]]}},{"type":"Feature","properties":{"id":45,"area_m2":1600,"px":16,"rank":52,"persistent":false},"geometry":{"type":"Polygon","coordinates":[[[-122.677856,45.630182],[-122.677856,45.630272],[-122.677768,45.630278],[-122.677729,45.630315],[-122.677725,45.630632],[-122.677469,45.630631],[-122.677447,45.630557],[-122.677341,45.630541],[-122.677343,45.630181],[-122.677559,45.630175],[-122.677596,45.630143],[-122.677602,45.630092],[-122.677728,45.630092],[-122.677751,45.630166],[-122.677856,45.630182]]]}},{"type":"Feature","properties":{"id":97,"area_m2":1600,"px":16,"rank":53,"persistent":false},"geometry":{"type":"Polygon","coordinates":[[[-122.683648,45.626778],[-122.683647,45.626958],[-122.683393,45.626974],[-122.683371,45.627013],[-122.68339,45.627137],[-122.683262,45.627137],[-122.683201,45.627113],[-122.683133,45.627137],[-122.683005,45.627136],[-122.683007,45.626866],[-122.68308,45.626864],[-122.683126,45.626838],[-122.683136,45.626687],[-122.683521,45.626688],[-122.683543,45.626762],[-122.683648,45.626778]]]}},{"type":"Feature","properties":{"id":111,"area_m2":1600,"px":16,"rank":54,"persistent":false},"geometry":{"type":"Polygon","coordinates":[[[-122.67378,45.62513],[-122.673779,45.62531],[-122.673523,45.625309],[-122.67351,45.625243],[-122.673446,45.625219],[-122.673301,45.625228],[-122.673266,45.625309],[-122.672881,45.625308],[-122.672882,45.625128],[-122.672917,45.625085],[-122.672883,45.625038],[-122.672883,45.624948],[-122.67314,45.624948],[-122.673167,45.625026],[-122.67332,45.625062],[-122.673396,45.625039],[-122.673652,45.62504],[-122.673674,45.625114],[-122.67378,45.62513]]]}},{"type":"Feature","properties":{"id":112,"area_m2":1600,"px":16,"rank":55,"persistent":false},"geometry":{"type":"Polygon","coordinates":[[[-122.670956,45.625033],[-122.670924,45.62508],[-122.670958,45.625122],[-122.670957,45.625212],[-122.670852,45.625228],[-122.670829,45.625302],[-122.670316,45.6253],[-122.670317,45.62512],[-122.670506,45.625134],[-122.670568,45.625101],[-122.670575,45.624851],[-122.670959,45.624852],[-122.670956,45.625033]]]}},{"type":"Feature","properties":{"id":21,"area_m2":1400,"px":14,"rank":56,"persistent":true},"geometry":{"type":"Polygon","coordinates":[[[-122.689524,45.631475],[-122.689523,45.631565],[-122.689417,45.63158],[-122.689394,45.631654],[-122.689289,45.63167],[-122.689266,45.631744],[-122.689165,45.631756],[-122.689137,45.631834],[-122.689037,45.631846],[-122.689008,45.631923],[-122.688908,45.631935],[-122.688879,45.632013],[-122.688779,45.632025],[-122.68875,45.632103],[-122.688656,45.632111],[-122.688622,45.632192],[-122.688511,45.632212],[-122.688493,45.632282],[-122.688365,45.632282],[-122.688366,45.632102],[-122.688471,45.632086],[-122.688494,45.632012],[-122.688588,45.632003],[-122.688623,45.631922],[-122.688734,45.631903],[-122.688752,45.631833],[-122.688986,45.631817],[-122.689009,45.631743],[-122.689103,45.631734],[-122.689138,45.631654],[-122.689211,45.631652],[-122.689257,45.631625],[-122.689267,45.631474],[-122.689524,45.631475]]]}},{"type":"Feature","properties":{"id":48,"area_m2":1400,"px":14,"rank":57,"persistent":false},"geometry":{"type":"Polygon","coordinates":[[[-122.685427,45.629933],[-122.685425,45.630203],[-122.685095,45.630205],[-122.685046,45.630236],[-122.685038,45.630292],[-122.684912,45.630292],[-122.68489,45.630218],[-122.684784,45.630202],[-122.684785,45.629932],[-122.684891,45.629916],[-122.684914,45.629842],[-122.685299,45.629843],[-122.685321,45.629917],[-122.685427,45.629933]],[[-122.685188,45.630068],[-122.685164,45.629966],[-122.685116,45.629935],[-122.684968,45.629934],[-122.684917,45.62997],[-122.684916,45.630074],[-122.684967,45.63011],[-122.685156,45.630103],[-122.685188,45.630068]]]}},{"type":"Feature","properties":{"id":120,"area_m2":1400,"px":14,"rank":58,"persistent":false},"geometry":{"type":"Polygon","coordinates":[[[-122.673535,45.623149],[-122.673534,45.623239],[-122.673429,45.623255],[-122.673406,45.623329],[-122.672764,45.623327],[-122.672765,45.623147],[-122.672839,45.623145],[-122.672885,45.623119],[-122.672895,45.622967],[-122.673151,45.622968],[-122.673185,45.623049],[-122.673407,45.623059],[-122.673429,45.623133],[-122.673535,45.623149]]]}},{"type":"Feature","properties":{"id":58,"area_m2":1300,"px":13,"rank":59,"persistent":false},"geometry":{"type":"Polygon","coordinates":[[[-122.679016,45.629195],[-122.679015,45.629375],[-122.67891,45.629391],[-122.678887,45.629465],[-122.678374,45.629464],[-122.678375,45.629284],[-122.67848,45.629268],[-122.678503,45.629194],[-122.679016,45.629195]]]}},{"type":"Feature","properties":{"id":89,"area_m2":1300,"px":13,"rank":60,"persistent":false},"geometry":{"type":"Polygon","coordinates":[[[-122.682234,45.627404],[-122.682232,45.627674],[-122.681847,45.627673],[-122.681787,45.627649],[-122.681719,45.627673],[-122.681591,45.627672],[-122.681592,45.627402],[-122.682234,45.627404]]]}},{"type":"Feature","properties":{"id":26,"area_m2":1200,"px":12,"rank":61,"persistent":false},"geometry":{"type":"Polygon","coordinates":[[[-122.684519,45.631641],[-122.684519,45.631731],[-122.684413,45.631747],[-122.68439,45.631821],[-122.683877,45.631819],[-122.683855,45.631745],[-122.683749,45.631729],[-122.68375,45.631639],[-122.683855,45.631623],[-122.683878,45.631549],[-122.684135,45.63155],[-122.684144,45.631611],[-122.684196,45.631639],[-122.684519,45.631641]]]}},{"type":"Feature","properties":{"id":38,"area_m2":1200,"px":12,"rank":62,"persistent":false},"geometry":{"type":"Polygon","coordinates":[[[-122.680291,45.630639],[-122.680291,45.630729],[-122.680203,45.630735],[-122.680164,45.630772],[-122.680161,45.630999],[-122.679904,45.630998],[-122.679905,45.630908],[-122.679939,45.63086],[-122.679893,45.630752],[-122.679836,45.630728],[-122.679649,45.630727],[-122.67965,45.630637],[-122.679866,45.630632],[-122.679903,45.6306],[-122.679907,45.630548],[-122.680163,45.630549],[-122.680185,45.630623],[-122.680291,45.630639]]]}},{"type":"Feature","properties":{"id":15,"area_m2":1100,"px":11,"rank":63,"persistent":false},"geometry":{"type":"Polygon","coordinates":[[[-122.675277,45.632425],[-122.675277,45.632515],[-122.673866,45.632511],[-122.673866,45.632421],[-122.675277,45.632425]]]}},{"type":"Feature","properties":{"id":41,"area_m2":1100,"px":11,"rank":64,"persistent":false},"geometry":{"type":"Polygon","coordinates":[[[-122.674903,45.630624],[-122.674902,45.630714],[-122.674785,45.630725],[-122.674769,45.630657],[-122.674727,45.630628],[-122.674585,45.63061],[-122.674521,45.630648],[-122.674514,45.630782],[-122.674566,45.630803],[-122.674763,45.630793],[-122.674773,45.630894],[-122.674388,45.630892],[-122.674366,45.630818],[-122.67426,45.630802],[-122.674261,45.630622],[-122.674367,45.630607],[-122.67439,45.630533],[-122.674506,45.630509],[-122.674519,45.630443],[-122.674776,45.630444],[-122.674784,45.630595],[-122.674829,45.630621],[-122.674903,45.630624]]]}},{"type":"Feature","properties":{"id":54,"area_m2":1100,"px":11,"rank":65,"persistent":false},"geometry":{"type":"Polygon","coordinates":[[[-122.673626,45.62963],[-122.673624,45.62999],[-122.673495,45.62999],[-122.673487,45.629928],[-122.673434,45.629901],[-122.673111,45.629899],[-122.673112,45.629809],[-122.673192,45.629805],[-122.673237,45.629771],[-122.673241,45.629629],[-122.673626,45.62963]]]}},{"type":"Feature","properties":{"id":62,"area_m2":1100,"px":11,"rank":66,"persistent":false},"geometry":{"type":"Polygon","coordinates":[[[-122.688512,45.628862],[-122.688511,45.629042],[-122.688411,45.629054],[-122.688382,45.629131],[-122.688267,45.629155],[-122.688253,45.629221],[-122.688147,45.629237],[-122.688124,45.629311],[-122.687996,45.62931],[-122.687998,45.62904],[-122.688103,45.629025],[-122.688127,45.628951],[-122.688242,45.628927],[-122.688255,45.628861],[-122.688512,45.628862]]]}},{"type":"Feature","properties":{"id":72,"area_m2":1100,"px":11,"rank":67,"persistent":false},"geometry":{"type":"Polygon","coordinates":[[[-122.674402,45.628462],[-122.674401,45.628642],[-122.674145,45.628641],[-122.674122,45.628567],[-122.674017,45.628551],[-122.674019,45.628191],[-122.674275,45.628192],[-122.674277,45.628424],[-122.674321,45.628458],[-122.674402,45.628462]]]}},{"type":"Feature","properties":{"id":76,"area_m2":1100,"px":11,"rank":68,"persistent":false},"geometry":{"type":"Polygon","coordinates":[[[-122.679921,45.628118],[-122.679918,45.628478],[-122.679717,45.62848],[-122.679668,45.628511],[-122.679661,45.628567],[-122.679533,45.628567],[-122.679511,45.628493],[-122.679405,45.628476],[-122.679406,45.628386],[-122.67975,45.628381],[-122.67979,45.628344],[-122.67979,45.628251],[-122.67973,45.628208],[-122.679407,45.628206],[-122.679408,45.628116],[-122.679921,45.628118]]]}},{"type":"Feature","properties":{"id":33,"area_m2":1000,"px":10,"rank":69,"persistent":false},"geometry":{"type":"Polygon","coordinates":[[[-122.689012,45.631203],[-122.689011,45.631293],[-122.688906,45.631309],[-122.688883,45.631383],[-122.688783,45.631395],[-122.688754,45.631473],[-122.68866,45.631481],[-122.688625,45.631562],[-122.688514,45.631582],[-122.688496,45.631652],[-122.68824,45.631651],[-122.68824,45.631561],[-122.688346,45.631546],[-122.688369,45.631472],[-122.688469,45.63146],[-122.688498,45.631382],[-122.688592,45.631373],[-122.688627,45.631292],[-122.688738,45.631273],[-122.688756,45.631203],[-122.689012,45.631203]]]}},{"type":"Feature","properties":{"id":87,"area_m2":1000,"px":10,"rank":70,"persistent":false},"geometry":{"type":"Polygon","coordinates":[[[-122.676846,45.627389],[-122.676845,45.627479],[-122.676751,45.627488],[-122.676717,45.627533],[-122.676729,45.627635],[-122.676844,45.627659],[-122.676844,45.627749],[-122.676716,45.627749],[-122.676707,45.627687],[-122.676654,45.62766],[-122.676203,45.627657],[-122.676203,45.627567],[-122.676297,45.627565],[-122.676346,45.627533],[-122.676333,45.627388],[-122.676846,45.627389]]]}},{"type":"Feature","properties":{"id":1,"area_m2":900,"px":9,"rank":71,"persistent":false},"geometry":{"type":"Polygon","coordinates":[[[-122.685922,45.633175],[-122.685921,45.633265],[-122.685408,45.633264],[-122.685386,45.633189],[-122.685281,45.633173],[-122.685282,45.632993],[-122.685538,45.632994],[-122.685551,45.63306],[-122.685666,45.633084],[-122.6857,45.633165],[-122.685922,45.633175]]]}},{"type":"Feature","properties":{"id":13,"area_m2":900,"px":9,"rank":72,"persistent":false},"geometry":{"type":"Polygon","coordinates":[[[-122.68182,45.632444],[-122.68182,45.632534],[-122.681179,45.632532],[-122.68118,45.632352],[-122.681693,45.632353],[-122.681715,45.632427],[-122.68182,45.632444]]]}},{"type":"Feature","properties":{"id":12,"area_m2":900,"px":9,"rank":73,"persistent":false},"geometry":{"type":"Polygon","coordinates":[[[-122.683233,45.632178],[-122.683232,45.632447],[-122.683126,45.632463],[-122.683103,45.632537],[-122.682975,45.632537],[-122.682952,45.632463],[-122.682847,45.632446],[-122.682848,45.632266],[-122.682942,45.632264],[-122.682988,45.632237],[-122.682977,45.632087],[-122.683105,45.632087],[-122.683128,45.632161],[-122.683233,45.632178]]]}},{"type":"Feature","properties":{"id":66,"area_m2":900,"px":9,"rank":74,"persistent":false},"geometry":{"type":"Polygon","coordinates":[[[-122.683637,45.628758],[-122.683637,45.628848],[-122.683531,45.628864],[-122.683508,45.628938],[-122.683252,45.628937],[-122.683229,45.628863],[-122.683124,45.628847],[-122.683125,45.628667],[-122.683509,45.628668],[-122.683532,45.628742],[-122.683637,45.628758]]]}},{"type":"Feature","properties":{"id":101,"area_m2":900,"px":9,"rank":75,"persistent":false},"geometry":{"type":"Polygon","coordinates":[[[-122.670436,45.626561],[-122.670435,45.626741],[-122.670307,45.62674],[-122.670302,45.626684],[-122.67026,45.626654],[-122.670113,45.626651],[-122.670052,45.626693],[-122.67005,45.62683],[-122.669793,45.626829],[-122.669795,45.626649],[-122.6699,45.626633],[-122.669923,45.626559],[-122.670436,45.626561]]]}},{"type":"Feature","properties":{"id":9,"area_m2":800,"px":8,"rank":76,"persistent":true},"geometry":{"type":"Polygon","coordinates":[[[-122.682719,45.632356],[-122.682718,45.632536],[-122.682502,45.632542],[-122.682465,45.632574],[-122.682461,45.632625],[-122.682333,45.632625],[-122.68231,45.632551],[-122.682205,45.632535],[-122.682205,45.632445],[-122.682311,45.632429],[-122.682334,45.632355],[-122.682719,45.632356]]]}},{"type":"Feature","properties":{"id":19,"area_m2":800,"px":8,"rank":77,"persistent":false},"geometry":{"type":"Polygon","coordinates":[[[-122.67515,45.632245],[-122.675149,45.632335],[-122.674636,45.632333],[-122.674639,45.631973],[-122.674767,45.631974],[-122.674766,45.632119],[-122.674799,45.632158],[-122.675022,45.632154],[-122.675044,45.632229],[-122.67515,45.632245]]]}},{"type":"Feature","properties":{"id":20,"area_m2":800,"px":8,"rank":78,"persistent":false},"geometry":{"type":"Polygon","coordinates":[[[-122.67451,45.631973],[-122.674508,45.632333],[-122.673995,45.632331],[-122.673996,45.632152],[-122.674124,45.632152],[-122.67413,45.632209],[-122.674178,45.63224],[-122.67434,45.632236],[-122.67438,45.632194],[-122.674382,45.631973],[-122.67451,45.631973]]]}},{"type":"Feature","properties":{"id":73,"area_m2":800,"px":8,"rank":79,"persistent":false},"geometry":{"type":"Polygon","coordinates":[[[-122.673377,45.628189],[-122.673377,45.628279],[-122.67319,45.628279],[-122.673133,45.628303],[-122.673118,45.628639],[-122.67299,45.628638],[-122.672993,45.628188],[-122.673098,45.628173],[-122.673123,45.628099],[-122.67325,45.628099],[-122.673272,45.628173],[-122.673377,45.628189]]]}},{"type":"Feature","properties":{"id":100,"area_m2":800,"px":8,"rank":80,"persistent":false},"geometry":{"type":"Polygon","coordinates":[[[-122.673643,45.62666],[-122.673642,45.62684],[-122.673257,45.626839],[-122.673259,45.626569],[-122.673515,45.62657],[-122.673537,45.626644],[-122.673643,45.62666]]]}},{"type":"Feature","properties":{"id":114,"area_m2":800,"px":8,"rank":81,"persistent":false},"geometry":{"type":"Polygon","coordinates":[[[-122.674426,45.624412],[-122.674425,45.624502],[-122.674319,45.624517],[-122.674296,45.624592],[-122.674109,45.624591],[-122.674057,45.624611],[-122.674039,45.624771],[-122.673911,45.62477],[-122.673912,45.624501],[-122.674018,45.624485],[-122.674041,45.624411],[-122.674426,45.624412]]]}},{"type":"Feature","properties":{"id":2,"area_m2":700,"px":7,"rank":82,"persistent":false},"geometry":{"type":"Polygon","coordinates":[[[-122.673477,45.63305],[-122.673476,45.63323],[-122.67322,45.633229],[-122.673223,45.632779],[-122.673351,45.63278],[-122.673353,45.633011],[-122.673397,45.633046],[-122.673477,45.63305]]]}},{"type":"Feature","properties":{"id":3,"area_m2":700,"px":7,"rank":83,"persistent":false},"geometry":{"type":"Polygon","coordinates":[[[-122.672967,45.632599],[-122.672963,45.633229],[-122.672835,45.633228],[-122.672839,45.632598],[-122.672967,45.632599]]]}},{"type":"Feature","properties":{"id":53,"area_m2":700,"px":7,"rank":84,"persistent":false},"geometry":{"type":"Polygon","coordinates":[[[-122.683503,45.629748],[-122.683502,45.630018],[-122.683117,45.630017],[-122.683118,45.629927],[-122.683152,45.629885],[-122.683118,45.629837],[-122.683119,45.629747],[-122.683503,45.629748]]]}},{"type":"Feature","properties":{"id":109,"area_m2":700,"px":7,"rank":85,"persistent":false},"geometry":{"type":"Polygon","coordinates":[[[-122.673522,45.6254],[-122.673521,45.625579],[-122.673393,45.625579],[-122.673332,45.625555],[-122.673264,45.625579],[-122.673008,45.625578],[-122.673009,45.625398],[-122.673522,45.6254]]]}},{"type":"Feature","properties":{"id":8,"area_m2":600,"px":6,"rank":86,"persistent":false},"geometry":{"type":"Polygon","coordinates":[[[-122.674635,45.632603],[-122.674634,45.632693],[-122.674418,45.632699],[-122.674381,45.632731],[-122.674377,45.632783],[-122.674249,45.632782],[-122.674189,45.632758],[-122.674121,45.632782],[-122.673992,45.632781],[-122.673993,45.632602],[-122.67425,45.632602],[-122.67431,45.632627],[-122.674378,45.632603],[-122.674635,45.632603]]]}},{"type":"Feature","properties":{"id":24,"area_m2":600,"px":6,"rank":87,"persistent":false},"geometry":{"type":"Polygon","coordinates":[[[-122.675283,45.631435],[-122.675282,45.631525],[-122.675095,45.631525],[-122.675039,45.631548],[-122.675024,45.631884],[-122.674896,45.631884],[-122.674898,45.631524],[-122.675004,45.631508],[-122.675027,45.631434],[-122.675283,45.631435]]]}},{"type":"Feature","properties":{"id":43,"area_m2":600,"px":6,"rank":88,"persistent":false},"geometry":{"type":"Polygon","coordinates":[[[-122.684141,45.63038],[-122.684139,45.63074],[-122.684011,45.630739],[-122.684011,45.630513],[-122.683972,45.630476],[-122.683884,45.630469],[-122.683885,45.630289],[-122.684014,45.63029],[-122.684036,45.630364],[-122.684141,45.63038]]]}},{"type":"Feature","properties":{"id":61,"area_m2":600,"px":6,"rank":89,"persistent":false},"geometry":{"type":"Polygon","coordinates":[[[-122.685687,45.629214],[-122.685686,45.629394],[-122.685173,45.629392],[-122.685174,45.629303],[-122.68539,45.629297],[-122.685427,45.629265],[-122.685431,45.629213],[-122.685687,45.629214]]]}},{"type":"Feature","properties":{"id":81,"area_m2":600,"px":6,"rank":90,"persistent":false},"geometry":{"type":"Polygon","coordinates":[[[-122.682359,45.627855],[-122.682358,45.628125],[-122.68223,45.628124],[-122.682208,45.62805],[-122.682102,45.628034],[-122.682068,45.627953],[-122.681974,45.627943],[-122.681975,45.627854],[-122.682359,45.627855]]]}},{"type":"Feature","properties":{"id":98,"area_m2":600,"px":6,"rank":91,"persistent":false},"geometry":{"type":"Polygon","coordinates":[[[-122.670435,45.626831],[-122.670434,45.627011],[-122.670328,45.627026],[-122.670305,45.6271],[-122.66992,45.627099],[-122.669921,45.626919],[-122.670049,45.62692],[-122.670055,45.626976],[-122.670096,45.627006],[-122.670244,45.627009],[-122.670304,45.626967],[-122.670307,45.62683],[-122.670435,45.626831]]]}},{"type":"Feature","properties":{"id":106,"area_m2":600,"px":6,"rank":92,"persistent":false},"geometry":{"type":"Polygon","coordinates":[[[-122.676342,45.625678],[-122.676341,45.625857],[-122.676236,45.625873],[-122.676213,45.625947],[-122.675956,45.625946],[-122.675957,45.625856],[-122.676063,45.625841],[-122.676118,45.625735],[-122.676086,45.625677],[-122.676087,45.625587],[-122.676215,45.625587],[-122.676237,45.625661],[-122.676342,45.625678]]]}},{"type":"Feature","properties":{"id":116,"area_m2":600,"px":6,"rank":93,"persistent":false},"geometry":{"type":"Polygon","coordinates":[[[-122.676738,45.623788],[-122.676738,45.623878],[-122.676632,45.623894],[-122.676609,45.623968],[-122.676352,45.623967],[-122.676349,45.623916],[-122.676312,45.623884],[-122.676096,45.623877],[-122.676074,45.623802],[-122.675969,45.623786],[-122.675969,45.623696],[-122.676097,45.623697],[-122.676103,45.623753],[-122.676152,45.623784],[-122.676353,45.623787],[-122.676362,45.623849],[-122.676415,45.623876],[-122.676562,45.623874],[-122.676604,45.623845],[-122.67661,45.623788],[-122.676738,45.623788]]]}},{"type":"Feature","properties":{"id":117,"area_m2":600,"px":6,"rank":94,"persistent":false},"geometry":{"type":"Polygon","coordinates":[[[-122.673403,45.623779],[-122.673402,45.623959],[-122.673274,45.623959],[-122.673268,45.623902],[-122.67322,45.623871],[-122.67289,45.623867],[-122.672891,45.623688],[-122.673019,45.623688],[-122.673028,45.623749],[-122.67308,45.623777],[-122.673403,45.623779]]]}},{"type":"Feature","properties":{"id":119,"area_m2":600,"px":6,"rank":95,"persistent":false},"geometry":{"type":"Polygon","coordinates":[[[-122.671738,45.623414],[-122.671737,45.623504],[-122.671609,45.623504],[-122.671596,45.623438],[-122.671481,45.623413],[-122.671447,45.623332],[-122.671225,45.623323],[-122.671203,45.623248],[-122.671097,45.623232],[-122.671064,45.623151],[-122.67097,45.623142],[-122.67097,45.623052],[-122.671098,45.623052],[-122.671111,45.623118],[-122.671226,45.623143],[-122.671229,45.623194],[-122.671266,45.623226],[-122.671482,45.623233],[-122.671504,45.623308],[-122.67161,45.623324],[-122.671644,45.623405],[-122.671738,45.623414]]]}},{"type":"Feature","properties":{"id":25,"area_m2":500,"px":5,"rank":96,"persistent":false},"geometry":{"type":"Polygon","coordinates":[[[-122.685032,45.631732],[-122.685031,45.631822],[-122.684647,45.631821],[-122.684648,45.631641],[-122.684904,45.631642],[-122.684926,45.631716],[-122.685032,45.631732]]]}},{"type":"Feature","properties":{"id":32,"area_m2":500,"px":5,"rank":97,"persistent":false},"geometry":{"type":"Polygon","coordinates":[[[-122.671177,45.631513],[-122.671177,45.631603],[-122.671071,45.631619],[-122.671048,45.631693],[-122.67092,45.631693],[-122.670914,45.631636],[-122.670865,45.631605],[-122.670664,45.631602],[-122.670664,45.631512],[-122.671177,45.631513]]]}},{"type":"Feature","properties":{"id":36,"area_m2":500,"px":5,"rank":98,"persistent":false},"geometry":{"type":"Polygon","coordinates":[[[-122.675669,45.631166],[-122.675668,45.631346],[-122.675284,45.631345],[-122.675284,45.631255],[-122.67539,45.63124],[-122.675413,45.631165],[-122.675669,45.631166]]]}},{"type":"Feature","properties":{"id":40,"area_m2":500,"px":5,"rank":99,"persistent":false},"geometry":{"type":"Polygon","coordinates":[[[-122.690298,45.630667],[-122.690297,45.630847],[-122.690191,45.630862],[-122.690168,45.630936],[-122.69004,45.630936],[-122.690041,45.630666],[-122.690298,45.630667]]]}},{"type":"Feature","properties":{"id":68,"area_m2":500,"px":5,"rank":100,"persistent":false},"geometry":{"type":"Polygon","coordinates":[[[-122.68056,45.62848],[-122.680559,45.62857],[-122.680372,45.628569],[-122.680316,45.628593],[-122.680302,45.628749],[-122.680174,45.628749],[-122.680175,45.628479],[-122.68056,45.62848]]]}},{"type":"Feature","properties":{"id":118,"area_m2":500,"px":5,"rank":101,"persistent":false},"geometry":{"type":"Polygon","coordinates":[[[-122.673533,45.623419],[-122.673533,45.623509],[-122.672892,45.623507],[-122.672892,45.623417],[-122.673533,45.623419]]]}},{"type":"Feature","properties":{"id":121,"area_m2":500,"px":5,"rank":102,"persistent":false},"geometry":{"type":"Polygon","coordinates":[[[-122.687156,45.618867],[-122.687155,45.619137],[-122.687027,45.619137],[-122.687004,45.619062],[-122.686899,45.619046],[-122.6869,45.618866],[-122.687156,45.618867]]]}},{"type":"Feature","properties":{"id":5,"area_m2":400,"px":4,"rank":103,"persistent":false},"geometry":{"type":"Polygon","coordinates":[[[-122.670142,45.632951],[-122.670142,45.63304],[-122.670036,45.633056],[-122.670013,45.63313],[-122.669756,45.633129],[-122.669757,45.633039],[-122.669863,45.633024],[-122.669886,45.63295],[-122.670142,45.632951]]]}},{"type":"Feature","properties":{"id":11,"area_m2":400,"px":4,"rank":104,"persistent":false},"geometry":{"type":"Polygon","coordinates":[[[-122.684002,45.63236],[-122.684001,45.63245],[-122.683896,45.632465],[-122.683873,45.632539],[-122.683744,45.632539],[-122.68376,45.632394],[-122.683711,45.632361],[-122.683617,45.632359],[-122.683618,45.632269],[-122.683874,45.632269],[-122.683896,45.632344],[-122.684002,45.63236]]]}},{"type":"Feature","properties":{"id":18,"area_m2":400,"px":4,"rank":105,"persistent":false},"geometry":{"type":"Polygon","coordinates":[[[-122.680668,45.63208],[-122.680667,45.63217],[-122.680561,45.632186],[-122.680538,45.63226],[-122.680423,45.632284],[-122.68041,45.63235],[-122.680281,45.632349],[-122.680282,45.632259],[-122.680363,45.632255],[-122.680407,45.632221],[-122.680411,45.63208],[-122.680668,45.63208]]]}},{"type":"Feature","properties":{"id":22,"area_m2":400,"px":4,"rank":106,"persistent":false},"geometry":{"type":"Polygon","coordinates":[[[-122.676819,45.63207],[-122.676818,45.632249],[-122.676561,45.632249],[-122.676562,45.632069],[-122.676819,45.63207]]]}},{"type":"Feature","properties":{"id":23,"area_m2":400,"px":4,"rank":107,"persistent":false},"geometry":{"type":"Polygon","coordinates":[[[-122.675537,45.631796],[-122.675537,45.631886],[-122.675281,45.631885],[-122.675282,45.631615],[-122.67541,45.631616],[-122.675419,45.631767],[-122.675464,45.631793],[-122.675537,45.631796]]]}},{"type":"Feature","properties":{"id":50,"area_m2":400,"px":4,"rank":108,"persistent":false},"geometry":{"type":"Polygon","coordinates":[[[-122.671442,45.630074],[-122.671442,45.630164],[-122.671336,45.630179],[-122.671313,45.630254],[-122.671185,45.630253],[-122.671179,45.630197],[-122.67113,45.630165],[-122.670929,45.630162],[-122.670929,45.630073],[-122.671186,45.630073],[-122.671246,45.630098],[-122.671314,45.630074],[-122.671442,45.630074]]]}},{"type":"Feature","properties":{"id":55,"area_m2":400,"px":4,"rank":109,"persistent":false},"geometry":{"type":"Polygon","coordinates":[[[-122.688123,45.629491],[-122.688123,45.629581],[-122.688035,45.629587],[-122.687996,45.629624],[-122.687993,45.62985],[-122.687865,45.62985],[-122.687866,45.62958],[-122.687972,45.629564],[-122.687995,45.62949],[-122.688123,45.629491]]]}},{"type":"Feature","properties":{"id":56,"area_m2":400,"px":4,"rank":110,"persistent":false},"geometry":{"type":"Polygon","coordinates":[[[-122.680683,45.62947],[-122.680682,45.62965],[-122.680425,45.629649],[-122.680426,45.629469],[-122.680683,45.62947]]]}},{"type":"Feature","properties":{"id":70,"area_m2":400,"px":4,"rank":111,"persistent":false},"geometry":{"type":"Polygon","coordinates":[[[-122.6753,45.628465],[-122.675299,45.628735],[-122.675042,45.628734],[-122.675043,45.628644],[-122.675123,45.62864],[-122.675168,45.628606],[-122.675172,45.628465],[-122.6753,45.628465]]]}},{"type":"Feature","properties":{"id":88,"area_m2":400,"px":4,"rank":112,"persistent":false},"geometry":{"type":"Polygon","coordinates":[[[-122.683516,45.627498],[-122.683515,45.627678],[-122.683259,45.627677],[-122.68326,45.627497],[-122.683516,45.627498]]]}},{"type":"Feature","properties":{"id":46,"area_m2":300,"px":3,"rank":113,"persistent":false},"geometry":{"type":"Polygon","coordinates":[[[-122.675545,45.630446],[-122.675544,45.630626],[-122.675416,45.630625],[-122.675394,45.630551],[-122.675288,45.630535],[-122.675289,45.630445],[-122.675545,45.630446]]]}},{"type":"Feature","properties":{"id":47,"area_m2":300,"px":3,"rank":114,"persistent":false},"geometry":{"type":"Polygon","coordinates":[[[-122.673364,45.63044],[-122.673363,45.630619],[-122.673235,45.630619],[-122.673213,45.630545],[-122.673107,45.630529],[-122.673108,45.630439],[-122.673364,45.63044]]]}},{"type":"Feature","properties":{"id":63,"area_m2":300,"px":3,"rank":115,"persistent":false},"geometry":{"type":"Polygon","coordinates":[[[-122.676964,45.6291],[-122.676963,45.62928],[-122.676835,45.629279],[-122.676813,45.629205],[-122.676707,45.629189],[-122.676708,45.629099],[-122.676964,45.6291]]]}},{"type":"Feature","properties":{"id":64,"area_m2":300,"px":3,"rank":116,"persistent":false},"geometry":{"type":"Polygon","coordinates":[[[-122.675554,45.628916],[-122.675553,45.629186],[-122.675424,45.629185],[-122.675426,45.628915],[-122.675554,45.628916]]]}},{"type":"Feature","properties":{"id":65,"area_m2":300,"px":3,"rank":117,"persistent":false},"geometry":{"type":"Polygon","coordinates":[[[-122.689154,45.628773],[-122.689153,45.628863],[-122.688951,45.628865],[-122.688902,45.628896],[-122.688896,45.628953],[-122.688768,45.628952],[-122.688768,45.628862],[-122.688874,45.628847],[-122.688897,45.628773],[-122.689154,45.628773]]]}},{"type":"Feature","properties":{"id":67,"area_m2":300,"px":3,"rank":118,"persistent":false},"geometry":{"type":"Polygon","coordinates":[[[-122.670809,45.628632],[-122.670808,45.628812],[-122.670702,45.628828],[-122.670679,45.628902],[-122.670551,45.628901],[-122.670552,45.628811],[-122.670632,45.628807],[-122.670677,45.628773],[-122.670681,45.628632],[-122.670809,45.628632]]]}},{"type":"Feature","properties":{"id":91,"area_m2":300,"px":3,"rank":119,"persistent":false},"geometry":{"type":"Polygon","coordinates":[[[-122.687751,45.627149],[-122.68775,45.627329],[-122.687622,45.627329],[-122.6876,45.627255],[-122.687495,45.627239],[-122.687495,45.627149],[-122.687751,45.627149]]]}},{"type":"Feature","properties":{"id":99,"area_m2":300,"px":3,"rank":120,"persistent":false},"geometry":{"type":"Polygon","coordinates":[[[-122.683008,45.626686],[-122.683007,45.626776],[-122.682901,45.626792],[-122.682878,45.626866],[-122.68275,45.626866],[-122.682751,45.626686],[-122.683008,45.626686]]]}},{"type":"Feature","properties":{"id":102,"area_m2":300,"px":3,"rank":121,"persistent":false},"geometry":{"type":"Polygon","coordinates":[[[-122.680955,45.626681],[-122.680954,45.626771],[-122.680698,45.62677],[-122.680699,45.62659],[-122.680827,45.62659],[-122.680849,45.626664],[-122.680955,45.626681]]]}}]}