{"type":"FeatureCollection","features":[{"type":"Feature","properties":{"id":13,"area_m2":42400,"px":424,"rank":1,"persistent":false},"geometry":{"type":"Polygon","coordinates":[[[-122.683377,45.629388],[-122.683376,45.629568],[-122.68312,45.629567],[-122.683059,45.629543],[-122.682991,45.629566],[-122.682735,45.629566],[-122.682713,45.629492],[-122.682607,45.629475],[-122.682573,45.629394],[-122.682479,45.629385],[-122.682447,45.629291],[-122.682223,45.629294],[-122.682211,45.629228],[-122.682095,45.629204],[-122.682068,45.629126],[-122.681901,45.629115],[-122.681842,45.629152],[-122.681839,45.629245],[-122.681879,45.629287],[-122.681966,45.629294],[-122.681965,45.629474],[-122.68186,45.629489],[-122.681837,45.629563],[-122.681622,45.629564],[-122.681563,45.629602],[-122.681592,45.629719],[-122.681707,45.629743],[-122.681709,45.63043],[-122.681773,45.630463],[-122.682088,45.630464],[-122.682088,45.630554],[-122.681988,45.630566],[-122.681959,45.630644],[-122.681865,45.630653],[-122.68183,45.630733],[-122.681715,45.630757],[-122.681707,45.63088],[-122.681763,45.630912],[-122.681895,45.630913],[-122.681948,45.630885],[-122.681958,45.630824],[-122.682214,45.630825],[-122.682226,45.631071],[-122.682282,45.631094],[-122.682469,45.631095],[-122.682463,45.632175],[-122.682358,45.632191],[-122.682335,45.632265],[-122.682206,45.632265],[-122.682207,45.631948],[-122.682168,45.631911],[-122.68208,45.631903],[-122.682082,45.631544],[-122.682156,45.631542],[-122.682201,45.631516],[-122.682198,45.631389],[-122.682083,45.631364],[-122.682078,45.631308],[-122.682029,45.631276],[-122.681699,45.631273],[-122.681616,45.63125],[-122.681476,45.631282],[-122.681442,45.631362],[-122.681361,45.631366],[-122.681316,45.6314],[-122.681311,45.631722],[-122.681224,45.631728],[-122.681183,45.63177],[-122.681181,45.632082],[-122.681093,45.632088],[-122.681054,45.632125],[-122.68105,45.632531],[-122.68028,45.632529],[-122.680281,45.632439],[-122.680316,45.632397],[-122.680281,45.632349],[-122.680282,45.632259],[-122.680356,45.632257],[-122.680401,45.632231],[-122.680411,45.63208],[-122.680983,45.632081],[-122.68105,45.632043],[-122.681051,45.63176],[-122.681007,45.631725],[-122.680927,45.631721],[-122.680945,45.631401],[-122.680887,45.631362],[-122.680672,45.63136],[-122.680673,45.631182],[-122.68086,45.631181],[-122.680917,45.631157],[-122.680931,45.631001],[-122.681011,45.630997],[-122.681056,45.630963],[-122.68106,45.630766],[-122.680986,45.630717],[-122.680419,45.630729],[-122.68042,45.63064],[-122.680454,45.630597],[-122.68042,45.630549],[-122.68044,45.63042],[-122.680387,45.630372],[-122.679395,45.630367],[-122.679393,45.630135],[-122.679349,45.630101],[-122.679268,45.630096],[-122.67927,45.629826],[-122.679343,45.629824],[-122.679389,45.629798],[-122.679399,45.629647],[-122.679493,45.629644],[-122.679539,45.629617],[-122.679528,45.629467],[-122.679602,45.629465],[-122.679647,45.629439],[-122.679657,45.629287],[-122.679738,45.629283],[-122.679783,45.629249],[-122.679787,45.629108],[-122.680252,45.629105],[-122.680294,45.629076],[-122.6803,45.629019],[-122.680416,45.628995],[-122.680429,45.628929],[-122.680557,45.62893],[-122.680563,45.628986],[-122.680604,45.629016],[-122.680759,45.629018],[-122.680808,45.628987],[-122.680814,45.62893],[-122.680929,45.628907],[-122.680943,45.628841],[-122.681071,45.628841],[-122.681131,45.628865],[-122.681199,45.628842],[-122.681429,45.628843],[-122.681456,45.628802],[-122.681458,45.628441],[-122.681418,45.628398],[-122.68133,45.628392],[-122.681331,45.628212],[-122.681405,45.62821],[-122.681451,45.628184],[-122.681461,45.628032],[-122.681589,45.628033],[-122.681592,45.628084],[-122.681629,45.628116],[-122.681845,45.628123],[-122.681867,45.628197],[-122.681973,45.628214],[-122.68199,45.628284],[-122.6821,45.628304],[-122.682134,45.628385],[-122.682228,45.628394],[-122.682256,45.628472],[-122.682356,45.628485],[-122.682384,45.628562],[-122.682484,45.628575],[-122.682479,45.628824],[-122.68261,45.628845],[-122.682616,45.628902],[-122.682658,45.628931],[-122.682867,45.628936],[-122.682889,45.62901],[-122.682994,45.629027],[-122.683028,45.629108],[-122.683122,45.629117],[-122.683139,45.629277],[-122.683249,45.629297],[-122.683283,45.629378],[-122.683377,45.629388]],[[-122.680181,45.630064],[-122.680154,45.629943],[-122.680039,45.629918],[-122.680033,45.629862],[-122.679985,45.629831],[-122.679595,45.629827],[-122.679529,45.629865],[-122.679526,45.630053],[-122.679579,45.630095],[-122.679734,45.630093],[-122.679775,45.630064],[-122.679782,45.630008],[-122.679908,45.630008],[-122.679913,45.63006],[-122.67995,45.630092],[-122.680124,45.630098],[-122.680181,45.630064]],[[-122.680093,45.629468],[-122.680168,45.629425],[-122.680169,45.629332],[-122.680142,45.629301],[-122.679974,45.629264],[-122.679803,45.629307],[-122.679785,45.629419],[-122.679813,45.629455],[-122.680093,45.629468]],[[-122.681065,45.629559],[-122.680999,45.629537],[-122.680928,45.629572],[-122.680811,45.62956],[-122.68081,45.62941],[-122.680759,45.629369],[-122.680368,45.629379],[-122.680301,45.629417],[-122.680297,45.629559],[-122.680189,45.629565],[-122.68015,45.62962],[-122.680186,45.629719],[-122.680296,45.629739],[-122.680309,45.629805],[-122.680424,45.629829],[-122.680427,45.629881],[-122.680464,45.629913],[-122.680867,45.62992],[-122.680935,45.629877],[-122.680938,45.629651],[-122.681065,45.629635],[-122.681086,45.629595],[-122.681065,45.629559]],[[-122.680561,45.632186],[-122.680521,45.6324],[-122.680565,45.632436],[-122.680772,45.632425],[-122.680794,45.632387],[-122.680773,45.632186],[-122.680719,45.63217],[-122.680561,45.632186]],[[-122.680805,45.630098],[-122.680755,45.630077],[-122.680697,45.630087],[-122.68066,45.630129],[-122.680676,45.63017],[-122.680728,45.63019],[-122.680799,45.630178],[-122.680827,45.63014],[-122.680805,45.630098]],[[-122.681062,45.630461],[-122.681081,45.630416],[-122.681049,45.630381],[-122.680976,45.630372],[-122.680926,45.630396],[-122.680916,45.630437],[-122.680952,45.630475],[-122.681009,45.630485],[-122.681062,45.630461]],[[-122.681129,45.629225],[-122.681278,45.629198],[-122.68132,45.629169],[-122.681304,45.629038],[-122.68125,45.629022],[-122.680964,45.629037],[-122.680941,45.629075],[-122.680963,45.629185],[-122.681129,45.629225]],[[-122.682278,45.628754],[-122.682351,45.628716],[-122.682346,45.628603],[-122.682301,45.628577],[-122.682227,45.628574],[-122.682193,45.628493],[-122.6821,45.628484],[-122.682072,45.628406],[-122.681972,45.628394],[-122.681938,45.628313],[-122.681763,45.628307],[-122.681721,45.628336],[-122.681715,45.628393],[-122.6816,45.628417],[-122.681586,45.628614],[-122.68162,45.628654],[-122.68197,45.628664],[-122.681976,45.62872],[-122.682017,45.62875],[-122.682278,45.628754]],[[-122.681844,45.628845],[-122.681787,45.628829],[-122.681729,45.628849],[-122.681713,45.628898],[-122.681739,45.628934],[-122.681801,45.628946],[-122.68186,45.628921],[-122.681874,45.62888],[-122.681844,45.628845]],[[-122.683124,45.629388],[-122.683067,45.629373],[-122.683009,45.629393],[-122.682992,45.629442],[-122.683019,45.629478],[-122.683081,45.62949],[-122.68314,45.629464],[-122.683154,45.629424],[-122.683124,45.629388]]]}},{"type":"Feature","properties":{"id":114,"area_m2":38700,"px":387,"rank":2,"persistent":false},"geometry":{"type":"Polygon","coordinates":[[[-122.679303,45.623886],[-122.679302,45.624066],[-122.679196,45.624081],[-122.679173,45.624155],[-122.679079,45.624164],[-122.679045,45.624245],[-122.678934,45.624264],[-122.678916,45.624335],[-122.678788,45.624334],[-122.678765,45.62426],[-122.67866,45.624244],[-122.67868,45.624114],[-122.678653,45.624077],[-122.678276,45.624063],[-122.678254,45.623989],[-122.678148,45.623972],[-122.678169,45.623843],[-122.678136,45.623802],[-122.677893,45.623792],[-122.677884,45.62373],[-122.677831,45.623703],[-122.677433,45.623689],[-122.67738,45.623735],[-122.677396,45.623874],[-122.677454,45.623894],[-122.677636,45.623881],[-122.677635,45.623971],[-122.677554,45.623975],[-122.67751,45.624009],[-122.677486,45.624185],[-122.677526,45.624234],[-122.677634,45.624241],[-122.677633,45.624331],[-122.677248,45.62433],[-122.677215,45.624249],[-122.676992,45.624239],[-122.67697,45.624165],[-122.676865,45.624149],[-122.676866,45.623879],[-122.676981,45.623855],[-122.676995,45.623739],[-122.676936,45.623686],[-122.676739,45.623698],[-122.676739,45.623608],[-122.67682,45.623605],[-122.676864,45.62357],[-122.676868,45.623477],[-122.67684,45.623441],[-122.67666,45.623432],[-122.676618,45.623461],[-122.676611,45.623518],[-122.676506,45.623534],[-122.676482,45.623698],[-122.676354,45.623697],[-122.676332,45.623623],[-122.676226,45.623607],[-122.676227,45.623517],[-122.676314,45.623511],[-122.676354,45.623474],[-122.676353,45.623362],[-122.676296,45.623325],[-122.676134,45.623346],[-122.676099,45.623427],[-122.675971,45.623426],[-122.675903,45.623402],[-122.675762,45.62343],[-122.67572,45.623459],[-122.675714,45.623515],[-122.675329,45.623514],[-122.675316,45.623448],[-122.675201,45.623424],[-122.675173,45.623346],[-122.674945,45.623333],[-122.674923,45.623259],[-122.674817,45.623243],[-122.674818,45.623112],[-122.674784,45.623072],[-122.674434,45.623062],[-122.674434,45.622972],[-122.674643,45.622968],[-122.674685,45.622939],[-122.674691,45.622883],[-122.674807,45.622859],[-122.67482,45.622757],[-122.674798,45.622719],[-122.674618,45.622705],[-122.674569,45.622735],[-122.674563,45.622792],[-122.674435,45.622792],[-122.674423,45.622636],[-122.674232,45.622588],[-122.674074,45.622627],[-122.674051,45.622701],[-122.673935,45.622724],[-122.673922,45.62279],[-122.673794,45.62279],[-122.673811,45.62265],[-122.673767,45.622614],[-122.673667,45.62261],[-122.673668,45.62243],[-122.673741,45.622427],[-122.673787,45.622401],[-122.673797,45.62225],[-122.674053,45.622251],[-122.674054,45.622387],[-122.6741,45.622427],[-122.674694,45.622433],[-122.674699,45.622489],[-122.674748,45.62252],[-122.675064,45.622514],[-122.675098,45.622468],[-122.675056,45.622359],[-122.674823,45.622343],[-122.6748,45.622269],[-122.674695,45.622252],[-122.674695,45.622121],[-122.674661,45.622081],[-122.674439,45.622072],[-122.674437,45.62193],[-122.674393,45.621896],[-122.674312,45.621891],[-122.674312,45.621803],[-122.674386,45.621799],[-122.674432,45.621773],[-122.674442,45.621622],[-122.674698,45.621622],[-122.674707,45.621684],[-122.67476,45.621712],[-122.675083,45.621714],[-122.675116,45.621795],[-122.675339,45.621804],[-122.675344,45.621861],[-122.675393,45.621892],[-122.675595,45.621895],[-122.6756,45.621952],[-122.675642,45.621981],[-122.675851,45.621986],[-122.675856,45.622042],[-122.675898,45.622072],[-122.676363,45.622077],[-122.676368,45.622224],[-122.67641,45.622253],[-122.67649,45.622258],[-122.676512,45.622345],[-122.676564,45.622362],[-122.676746,45.622348],[-122.676769,45.622423],[-122.676874,45.622439],[-122.676887,45.622505],[-122.677002,45.622529],[-122.67703,45.622607],[-122.67713,45.622619],[-122.677129,45.622799],[-122.676927,45.622801],[-122.676872,45.622847],[-122.67688,45.62295],[-122.676926,45.622977],[-122.676999,45.622979],[-122.677002,45.623031],[-122.67704,45.623063],[-122.677181,45.623083],[-122.677239,45.623063],[-122.677257,45.62289],[-122.677579,45.62289],[-122.677632,45.622862],[-122.677642,45.622801],[-122.677898,45.622802],[-122.677897,45.623108],[-122.677919,45.623146],[-122.678025,45.623162],[-122.678042,45.623232],[-122.678152,45.623252],[-122.678165,45.623318],[-122.67828,45.623343],[-122.678286,45.623399],[-122.678327,45.623429],[-122.678489,45.623429],[-122.678531,45.6234],[-122.678537,45.623344],[-122.678665,45.623344],[-122.678687,45.623418],[-122.678793,45.623434],[-122.678792,45.623524],[-122.678758,45.623572],[-122.678809,45.623685],[-122.678919,45.623705],[-122.678923,45.623756],[-122.67896,45.623788],[-122.679175,45.623795],[-122.679198,45.62387],[-122.679303,45.623886]],[[-122.67575,45.623203],[-122.675699,45.623085],[-122.675588,45.623065],[-122.675575,45.622999],[-122.67546,45.622975],[-122.675455,45.622918],[-122.675406,45.622887],[-122.675123,45.622888],[-122.675082,45.622917],[-122.675075,45.622974],[-122.674995,45.622978],[-122.67495,45.623012],[-122.674964,45.623134],[-122.675074,45.623154],[-122.675091,45.623224],[-122.675202,45.623244],[-122.675215,45.62331],[-122.67533,45.623334],[-122.675335,45.623391],[-122.675384,45.623422],[-122.675645,45.623425],[-122.675697,45.623406],[-122.675715,45.623246],[-122.67575,45.623203]],[[-122.675897,45.622886],[-122.675971,45.622848],[-122.675966,45.622735],[-122.675801,45.622683],[-122.675743,45.622689],[-122.675684,45.622748],[-122.675727,45.622857],[-122.675779,45.622885],[-122.675897,45.622886]],[[-122.676704,45.622625],[-122.676548,45.622605],[-122.676494,45.622638],[-122.676503,45.62279],[-122.676387,45.62281],[-122.676359,45.622887],[-122.676258,45.622899],[-122.67623,45.622977],[-122.676142,45.622983],[-122.676103,45.62302],[-122.676123,45.623141],[-122.676357,45.623157],[-122.676366,45.623219],[-122.676419,45.623246],[-122.676591,45.623232],[-122.676614,45.623068],[-122.676702,45.623062],[-122.676741,45.623025],[-122.676737,45.622922],[-122.676696,45.622892],[-122.676615,45.622888],[-122.6766,45.622806],[-122.676731,45.622774],[-122.676743,45.622662],[-122.676704,45.622625]]]}},{"type":"Feature","properties":{"id":103,"area_m2":20900,"px":209,"rank":3,"persistent":false},"geometry":{"type":"Polygon","coordinates":[[[-122.683658,45.625068],[-122.683656,45.625428],[-122.68355,45.625443],[-122.683527,45.625518],[-122.682935,45.625516],[-122.682888,45.625532],[-122.682866,45.625572],[-122.682908,45.62568],[-122.683059,45.625719],[-122.683142,45.625697],[-122.683654,45.625698],[-122.683651,45.626238],[-122.682627,45.626235],[-122.682565,45.626211],[-122.682495,45.626235],[-122.681343,45.626232],[-122.681343,45.626142],[-122.681437,45.626133],[-122.681472,45.626088],[-122.681467,45.625905],[-122.681425,45.625876],[-122.681345,45.625872],[-122.681345,45.625782],[-122.68138,45.625739],[-122.681346,45.625692],[-122.681347,45.625422],[-122.681569,45.625413],[-122.681602,45.625379],[-122.681604,45.625291],[-122.681564,45.625249],[-122.681476,45.625242],[-122.681477,45.625152],[-122.681511,45.625104],[-122.681477,45.625062],[-122.681473,45.624735],[-122.681417,45.624703],[-122.681223,45.624701],[-122.681201,45.624627],[-122.681095,45.624611],[-122.681096,45.624521],[-122.681224,45.624521],[-122.681236,45.624587],[-122.6813,45.624611],[-122.681446,45.624603],[-122.681481,45.624522],[-122.681609,45.624522],[-122.681669,45.624546],[-122.681737,45.624523],[-122.681865,45.624523],[-122.681878,45.624589],[-122.681993,45.624613],[-122.682027,45.624694],[-122.682377,45.624704],[-122.68239,45.62477],[-122.682505,45.624795],[-122.682511,45.624851],[-122.682552,45.624881],[-122.682889,45.624886],[-122.682898,45.624947],[-122.682958,45.624976],[-122.68353,45.624978],[-122.683552,45.625052],[-122.683658,45.625068]],[[-122.682118,45.625194],[-122.682097,45.625156],[-122.682044,45.62514],[-122.681916,45.625155],[-122.681871,45.625182],[-122.68186,45.625423],[-122.681773,45.625429],[-122.681732,45.625471],[-122.681731,45.625644],[-122.681771,45.625686],[-122.682046,45.625693],[-122.682106,45.625665],[-122.682118,45.625194]],[[-122.682577,45.625504],[-122.682386,45.625538],[-122.682373,45.625651],[-122.682419,45.62569],[-122.682568,45.625707],[-122.682627,45.625665],[-122.682626,45.62554],[-122.682577,45.625504]],[[-122.683018,45.626121],[-122.683029,45.625826],[-122.682985,45.62579],[-122.682831,45.625772],[-122.682765,45.625801],[-122.682755,45.626097],[-122.682795,45.626139],[-122.682961,45.626146],[-122.683018,45.626121]],[[-122.683465,45.625955],[-122.683316,45.625971],[-122.683274,45.626],[-122.683248,45.626096],[-122.683294,45.626143],[-122.683462,45.626146],[-122.683518,45.626114],[-122.683516,45.625983],[-122.683465,45.625955]]]}},{"type":"Feature","properties":{"id":92,"area_m2":20500,"px":205,"rank":4,"persistent":false},"geometry":{"type":"Polygon","coordinates":[[[-122.673519,45.62585],[-122.673517,45.626209],[-122.673335,45.626195],[-122.673282,45.626211],[-122.67326,45.626389],[-122.673154,45.626404],[-122.673131,45.626478],[-122.672768,45.626493],[-122.672744,45.626747],[-122.672488,45.626747],[-122.672479,45.626685],[-122.672426,45.626657],[-122.672173,45.626656],[-122.672116,45.62668],[-122.672112,45.626807],[-122.672157,45.626833],[-122.672231,45.626836],[-122.672229,45.627196],[-122.671844,45.627195],[-122.671822,45.627121],[-122.671716,45.627104],[-122.671719,45.626613],[-122.671678,45.626571],[-122.671591,45.626564],[-122.671612,45.626345],[-122.671572,45.626301],[-122.671141,45.626294],[-122.671088,45.626321],[-122.671079,45.626382],[-122.670741,45.626386],[-122.670695,45.626425],[-122.670693,45.626561],[-122.670565,45.626561],[-122.670566,45.626291],[-122.670647,45.626287],[-122.670691,45.626253],[-122.670696,45.626021],[-122.67093,45.626006],[-122.670954,45.625842],[-122.67106,45.625827],[-122.671115,45.625721],[-122.671083,45.625661],[-122.671085,45.625302],[-122.67112,45.62526],[-122.671086,45.625212],[-122.671087,45.625032],[-122.671193,45.625017],[-122.671216,45.624943],[-122.672113,45.624945],[-122.672136,45.62502],[-122.672241,45.625036],[-122.672253,45.625192],[-122.672368,45.625216],[-122.672384,45.625299],[-122.67228,45.625312],[-122.672241,45.625349],[-122.67224,45.625442],[-122.672286,45.625482],[-122.672467,45.625474],[-122.672495,45.625438],[-122.672481,45.625314],[-122.672624,45.625307],[-122.672623,45.625487],[-122.672518,45.625502],[-122.672495,45.625576],[-122.67211,45.625575],[-122.672101,45.625514],[-122.672041,45.625485],[-122.671901,45.625489],[-122.671854,45.625533],[-122.671862,45.625636],[-122.671907,45.625663],[-122.671981,45.625665],[-122.672015,45.625746],[-122.672365,45.625756],[-122.672387,45.62583],[-122.672493,45.625847],[-122.672473,45.625976],[-122.672512,45.62602],[-122.672674,45.626041],[-122.672732,45.626021],[-122.67275,45.625757],[-122.672856,45.625742],[-122.672879,45.625668],[-122.673007,45.625668],[-122.673016,45.625729],[-122.673069,45.625757],[-122.673392,45.625759],[-122.673414,45.625833],[-122.673519,45.62585]],[[-122.67147,45.625344],[-122.671403,45.62529],[-122.671226,45.625327],[-122.671213,45.625524],[-122.671246,45.625564],[-122.671399,45.625573],[-122.671456,45.62555],[-122.67147,45.625344]],[[-122.671483,45.626094],[-122.671662,45.626127],[-122.671716,45.626094],[-122.671722,45.625888],[-122.671669,45.625847],[-122.671529,45.625845],[-122.671473,45.625877],[-122.671432,45.625987],[-122.671483,45.626094]],[[-122.672138,45.626439],[-122.672084,45.626221],[-122.672029,45.626205],[-122.671872,45.626221],[-122.671849,45.626259],[-122.671848,45.626516],[-122.67187,45.626549],[-122.671924,45.626565],[-122.672082,45.62655],[-122.672138,45.626439]],[[-122.672102,45.626966],[-122.672042,45.626913],[-122.67188,45.626934],[-122.671845,45.626974],[-122.671857,45.627081],[-122.671914,45.627105],[-122.672067,45.627096],[-122.6721,45.627062],[-122.672102,45.626966]],[[-122.672619,45.626337],[-122.672552,45.626283],[-122.672281,45.6263],[-122.672237,45.626334],[-122.672218,45.626441],[-122.672282,45.626476],[-122.67257,45.626473],[-122.672616,45.626433],[-122.672619,45.626337]]]}},{"type":"Feature","properties":{"id":109,"area_m2":14500,"px":145,"rank":5,"persistent":false},"geometry":{"type":"Polygon","coordinates":[[[-122.681739,45.624163],[-122.681738,45.624342],[-122.681408,45.624344],[-122.681359,45.624375],[-122.681353,45.624431],[-122.681224,45.624431],[-122.681212,45.624365],[-122.681148,45.624341],[-122.681002,45.62435],[-122.680968,45.62443],[-122.68084,45.62443],[-122.680824,45.624348],[-122.680874,45.624287],[-122.680794,45.624236],[-122.680721,45.624265],[-122.680712,45.62434],[-122.680584,45.624339],[-122.680571,45.624273],[-122.680507,45.624249],[-122.680362,45.624258],[-122.680327,45.624339],[-122.680199,45.624338],[-122.680138,45.624314],[-122.68007,45.624338],[-122.67959,45.624332],[-122.679557,45.624426],[-122.679451,45.624442],[-122.679428,45.624516],[-122.679194,45.624531],[-122.679171,45.624647],[-122.679225,45.624693],[-122.679427,45.624696],[-122.679449,45.62477],[-122.679555,45.624787],[-122.679588,45.624867],[-122.679682,45.624877],[-122.679682,45.624967],[-122.679576,45.624982],[-122.679553,45.625056],[-122.679453,45.625068],[-122.679424,45.625146],[-122.67933,45.625155],[-122.679296,45.625236],[-122.679185,45.625255],[-122.679167,45.625325],[-122.679039,45.625325],[-122.679033,45.625268],[-122.678984,45.625237],[-122.678783,45.625234],[-122.67877,45.625168],[-122.678655,45.625144],[-122.678652,45.625092],[-122.678615,45.62506],[-122.678399,45.625053],[-122.6784,45.624873],[-122.678473,45.624871],[-122.678519,45.624845],[-122.678529,45.624694],[-122.678623,45.624685],[-122.678658,45.624604],[-122.678773,45.62458],[-122.678787,45.624424],[-122.678915,45.624425],[-122.678921,45.624481],[-122.67897,45.624512],[-122.679102,45.624515],[-122.679154,45.624496],[-122.679173,45.624245],[-122.679267,45.624236],[-122.679302,45.624156],[-122.679383,45.624152],[-122.679427,45.624118],[-122.679432,45.623796],[-122.679654,45.623788],[-122.679689,45.623707],[-122.679805,45.623683],[-122.679818,45.623617],[-122.680459,45.623619],[-122.680465,45.623676],[-122.680513,45.623707],[-122.680844,45.62371],[-122.680856,45.623776],[-122.680971,45.6238],[-122.681005,45.623881],[-122.681227,45.623891],[-122.681233,45.623948],[-122.681282,45.623979],[-122.681483,45.623982],[-122.681506,45.624056],[-122.681611,45.624072],[-122.681645,45.624153],[-122.681739,45.624163]],[[-122.679963,45.623932],[-122.679939,45.623817],[-122.679893,45.623786],[-122.679743,45.623799],[-122.679692,45.623835],[-122.679691,45.623938],[-122.679742,45.623975],[-122.679931,45.623968],[-122.679963,45.623932]],[[-122.680475,45.624114],[-122.680451,45.624012],[-122.680403,45.623981],[-122.680243,45.623979],[-122.680183,45.624018],[-122.680206,45.624125],[-122.680254,45.624156],[-122.680443,45.624149],[-122.680475,45.624114]],[[-122.680714,45.624069],[-122.680679,45.624107],[-122.680694,45.624147],[-122.680752,45.624173],[-122.680808,45.624164],[-122.68084,45.62413],[-122.680829,45.624081],[-122.680775,45.624056],[-122.680714,45.624069]]]}},{"type":"Feature","properties":{"id":6,"area_m2":10400,"px":104,"rank":6,"persistent":true},"geometry":{"type":"Polygon","coordinates":[[[-122.690291,45.631837],[-122.690284,45.633097],[-122.690028,45.633096],[-122.690011,45.633026],[-122.6899,45.633006],[-122.689883,45.632936],[-122.689772,45.632915],[-122.689755,45.632845],[-122.689645,45.632825],[-122.689632,45.632759],[-122.689517,45.632735],[-122.689511,45.632678],[-122.689463,45.632647],[-122.689335,45.63263],[-122.689277,45.632651],[-122.68926,45.632824],[-122.688747,45.632823],[-122.688724,45.632748],[-122.688619,45.632732],[-122.688619,45.632642],[-122.688654,45.6326],[-122.68862,45.632552],[-122.68862,45.632462],[-122.688849,45.632451],[-122.688877,45.632373],[-122.688977,45.632361],[-122.689006,45.632283],[-122.6891,45.632275],[-122.689135,45.632194],[-122.689246,45.632174],[-122.689264,45.632104],[-122.689492,45.632092],[-122.689521,45.632015],[-122.689615,45.632006],[-122.68965,45.631925],[-122.68976,45.631906],[-122.689778,45.631835],[-122.690291,45.631837]]]}},{"type":"Feature","properties":{"id":90,"area_m2":10000,"px":100,"rank":7,"persistent":true},"geometry":{"type":"Polygon","coordinates":[[[-122.679925,45.626769],[-122.679894,45.626815],[-122.679928,45.626858],[-122.679926,45.627128],[-122.67982,45.627143],[-122.679797,45.627217],[-122.679156,45.627216],[-122.679143,45.62715],[-122.67908,45.627125],[-122.678934,45.627134],[-122.678899,45.627215],[-122.678258,45.627213],[-122.678263,45.626313],[-122.67852,45.626314],[-122.678523,45.626365],[-122.67856,45.626397],[-122.678776,45.626405],[-122.678798,45.626479],[-122.678903,45.626495],[-122.678903,45.62664],[-122.67893,45.626676],[-122.679159,45.626676],[-122.679187,45.626753],[-122.679348,45.626779],[-122.679412,45.626741],[-122.679414,45.62663],[-122.679375,45.626593],[-122.679288,45.626586],[-122.679271,45.626426],[-122.679161,45.626405],[-122.679162,45.626226],[-122.679418,45.626226],[-122.67944,45.6263],[-122.679546,45.626317],[-122.679563,45.626387],[-122.679674,45.626407],[-122.679708,45.626488],[-122.679801,45.626497],[-122.679829,45.626575],[-122.679929,45.626588],[-122.679925,45.626769]]]}},{"type":"Feature","properties":{"id":3,"area_m2":9400,"px":94,"rank":8,"persistent":false},"geometry":{"type":"Polygon","coordinates":[[[-122.672073,45.631876],[-122.67207,45.632326],[-122.671997,45.632328],[-122.671951,45.632354],[-122.671941,45.632506],[-122.671626,45.632505],[-122.671569,45.632529],[-122.671555,45.632685],[-122.671468,45.632691],[-122.671428,45.632728],[-122.671425,45.632954],[-122.671345,45.632958],[-122.6713,45.632992],[-122.671296,45.633134],[-122.67119,45.633149],[-122.671167,45.633223],[-122.671039,45.633223],[-122.670978,45.633199],[-122.67091,45.633223],[-122.670782,45.633222],[-122.670722,45.633198],[-122.670654,45.633222],[-122.670526,45.633222],[-122.670505,45.633044],[-122.670452,45.633028],[-122.67027,45.63304],[-122.670271,45.632951],[-122.670351,45.632947],[-122.670396,45.632913],[-122.670401,45.632681],[-122.670488,45.632675],[-122.670528,45.632638],[-122.670533,45.632052],[-122.671174,45.632053],[-122.671173,45.632143],[-122.671139,45.632186],[-122.671173,45.632233],[-122.671157,45.632379],[-122.671214,45.632412],[-122.671367,45.632413],[-122.67142,45.632386],[-122.671464,45.632282],[-122.67143,45.632233],[-122.671433,45.631604],[-122.67169,45.631605],[-122.671711,45.631769],[-122.671817,45.631785],[-122.671823,45.631842],[-122.671864,45.631871],[-122.672073,45.631876]],[[-122.671016,45.632311],[-122.671062,45.632183],[-122.671018,45.632147],[-122.670722,45.632143],[-122.670663,45.63218],[-122.670661,45.632278],[-122.670707,45.632318],[-122.670863,45.632346],[-122.671016,45.632311]],[[-122.670786,45.633131],[-122.670817,45.633095],[-122.670802,45.633055],[-122.670744,45.633029],[-122.670682,45.633041],[-122.670655,45.633077],[-122.670671,45.633126],[-122.670729,45.633146],[-122.670786,45.633131]],[[-122.671252,45.632508],[-122.671104,45.632479],[-122.671043,45.632503],[-122.670807,45.632509],[-122.670767,45.632553],[-122.670795,45.632654],[-122.670855,45.632682],[-122.671258,45.632677],[-122.671297,45.63264],[-122.671294,45.632537],[-122.671252,45.632508]]]}},{"type":"Feature","properties":{"id":61,"area_m2":8800,"px":88,"rank":9,"persistent":false},"geometry":{"type":"Polygon","coordinates":[[[-122.679149,45.628476],[-122.679147,45.628746],[-122.677864,45.628742],[-122.677859,45.628685],[-122.67781,45.628654],[-122.67748,45.628651],[-122.677477,45.628599],[-122.67744,45.628567],[-122.677224,45.62856],[-122.677227,45.62802],[-122.677443,45.628014],[-122.677481,45.627983],[-122.677486,45.627931],[-122.677612,45.627931],[-122.677621,45.627993],[-122.677681,45.628021],[-122.677821,45.628018],[-122.677863,45.627989],[-122.677869,45.627932],[-122.677995,45.627932],[-122.678003,45.627989],[-122.678051,45.62802],[-122.678382,45.628024],[-122.67838,45.628335],[-122.678408,45.628371],[-122.678764,45.628385],[-122.678773,45.628446],[-122.678826,45.628474],[-122.679149,45.628476]]]}},{"type":"Feature","properties":{"id":34,"area_m2":7900,"px":79,"rank":10,"persistent":false},"geometry":{"type":"Polygon","coordinates":[[[-122.671822,45.630975],[-122.671821,45.631065],[-122.671727,45.631074],[-122.671693,45.631119],[-122.671705,45.631221],[-122.67182,45.631245],[-122.671819,45.631425],[-122.671713,45.631441],[-122.67169,45.631515],[-122.671562,45.631514],[-122.671557,45.631444],[-122.67151,45.631413],[-122.671306,45.631424],[-122.671307,45.631334],[-122.671394,45.631328],[-122.671435,45.631285],[-122.671436,45.631023],[-122.671389,45.630978],[-122.670737,45.630972],[-122.670676,45.631],[-122.670667,45.631062],[-122.670538,45.631061],[-122.670478,45.631037],[-122.67041,45.631061],[-122.670282,45.631061],[-122.670283,45.630881],[-122.670383,45.630869],[-122.670412,45.630791],[-122.670499,45.630785],[-122.670539,45.630748],[-122.670543,45.630251],[-122.670671,45.630252],[-122.670684,45.630318],[-122.670748,45.630342],[-122.671371,45.630344],[-122.671432,45.630315],[-122.671441,45.630254],[-122.671698,45.630255],[-122.671694,45.630926],[-122.671734,45.630969],[-122.671822,45.630975]]]}},{"type":"Feature","properties":{"id":94,"area_m2":7400,"px":74,"rank":11,"persistent":false},"geometry":{"type":"Polygon","coordinates":[[[-122.686854,45.626967],[-122.686854,45.627057],[-122.686748,45.627072],[-122.686725,45.627147],[-122.686597,45.627146],[-122.686591,45.62709],[-122.686543,45.627058],[-122.686341,45.627055],[-122.686333,45.626981],[-122.686267,45.626952],[-122.685985,45.626977],[-122.685957,45.627013],[-122.685956,45.627144],[-122.685571,45.627143],[-122.685562,45.627082],[-122.685502,45.627053],[-122.685058,45.627052],[-122.685036,45.626978],[-122.68493,45.626962],[-122.684897,45.626881],[-122.684803,45.626871],[-122.684804,45.626601],[-122.685189,45.626602],[-122.685191,45.626744],[-122.685265,45.626783],[-122.685518,45.626781],[-122.685567,45.62675],[-122.685573,45.626693],[-122.685802,45.626682],[-122.68583,45.626604],[-122.686054,45.626609],[-122.686087,45.62657],[-122.686084,45.626463],[-122.68604,45.626429],[-122.68596,45.626424],[-122.685957,45.626373],[-122.685919,45.626341],[-122.685771,45.62631],[-122.685703,45.626334],[-122.685319,45.626333],[-122.68532,45.626153],[-122.685426,45.626137],[-122.685449,45.626063],[-122.685833,45.626064],[-122.685855,45.626138],[-122.685961,45.626154],[-122.685995,45.626235],[-122.686089,45.626245],[-122.686105,45.626405],[-122.686216,45.626425],[-122.68625,45.626506],[-122.686344,45.626516],[-122.686361,45.626676],[-122.686471,45.626696],[-122.686505,45.626777],[-122.686599,45.626786],[-122.686627,45.626864],[-122.686727,45.626877],[-122.686755,45.626954],[-122.686854,45.626967]]]}},{"type":"Feature","properties":{"id":69,"area_m2":7000,"px":70,"rank":12,"persistent":false},"geometry":{"type":"Polygon","coordinates":[[[-122.672608,45.627738],[-122.672576,45.627785],[-122.67261,45.627827],[-122.672609,45.627917],[-122.672494,45.627941],[-122.67248,45.628043],[-122.672514,45.628088],[-122.672608,45.628097],[-122.672608,45.628187],[-122.672426,45.628173],[-122.672368,45.628193],[-122.67235,45.628366],[-122.672269,45.62837],[-122.672225,45.628404],[-122.672221,45.628546],[-122.671708,45.628545],[-122.671711,45.628006],[-122.671745,45.627962],[-122.671711,45.627913],[-122.671715,45.627285],[-122.672485,45.627287],[-122.672493,45.627438],[-122.672538,45.627465],[-122.672612,45.627467],[-122.672608,45.627738]],[[-122.671897,45.627915],[-122.671841,45.627931],[-122.67182,45.627965],[-122.671873,45.628086],[-122.672154,45.628096],[-122.672211,45.628072],[-122.672224,45.627965],[-122.67219,45.627925],[-122.671897,45.627915]],[[-122.672475,45.627883],[-122.6725,45.627782],[-122.672468,45.627746],[-122.67228,45.627738],[-122.672229,45.627774],[-122.672228,45.627878],[-122.672279,45.627914],[-122.672426,45.627914],[-122.672475,45.627883]]]}},{"type":"Feature","properties":{"id":29,"area_m2":6000,"px":60,"rank":13,"persistent":false},"geometry":{"type":"Polygon","coordinates":[[[-122.674641,45.631523],[-122.67464,45.631703],[-122.67431,45.631705],[-122.674261,45.631736],[-122.674255,45.631792],[-122.67387,45.631791],[-122.673865,45.631721],[-122.673803,45.631688],[-122.673357,45.6317],[-122.673341,45.631449],[-122.673289,45.63143],[-122.672974,45.631428],[-122.672962,45.631272],[-122.672905,45.631249],[-122.672718,45.631248],[-122.672719,45.631158],[-122.672825,45.631142],[-122.672848,45.631068],[-122.673744,45.631071],[-122.673806,45.631095],[-122.673876,45.631071],[-122.674515,45.631073],[-122.674514,45.631343],[-122.674285,45.631355],[-122.674257,45.631391],[-122.674258,45.631492],[-122.674323,45.631536],[-122.674641,45.631523]],[[-122.67361,45.631307],[-122.673635,45.631205],[-122.673603,45.63117],[-122.673415,45.631162],[-122.673363,45.631198],[-122.673363,45.631301],[-122.673414,45.631337],[-122.673561,45.631338],[-122.67361,45.631307]]]}},{"type":"Feature","properties":{"id":56,"area_m2":6000,"px":60,"rank":14,"persistent":false},"geometry":{"type":"Polygon","coordinates":[[[-122.672219,45.628816],[-122.672217,45.629176],[-122.672136,45.62918],[-122.672092,45.629214],[-122.672087,45.629446],[-122.671702,45.629445],[-122.671642,45.62942],[-122.671572,45.629444],[-122.670933,45.629442],[-122.670911,45.629278],[-122.670677,45.629262],[-122.670655,45.629187],[-122.670549,45.629171],[-122.670552,45.628811],[-122.670625,45.628809],[-122.670671,45.628783],[-122.670681,45.628632],[-122.670809,45.628632],[-122.67081,45.628769],[-122.67087,45.628811],[-122.671576,45.628814],[-122.671638,45.628839],[-122.671706,45.628815],[-122.671963,45.628815],[-122.672023,45.62884],[-122.672091,45.628816],[-122.672219,45.628816]],[[-122.671242,45.629173],[-122.671313,45.62914],[-122.671318,45.629037],[-122.671279,45.629],[-122.671192,45.628993],[-122.671158,45.628912],[-122.670756,45.628902],[-122.670692,45.628926],[-122.670684,45.629048],[-122.670726,45.629078],[-122.670806,45.629082],[-122.67084,45.629163],[-122.671242,45.629173]]]}},{"type":"Feature","properties":{"id":44,"area_m2":5900,"px":59,"rank":15,"persistent":false},"geometry":{"type":"Polygon","coordinates":[[[-122.679139,45.630096],[-122.679138,45.630276],[-122.679044,45.630285],[-122.67901,45.63033],[-122.679022,45.630432],[-122.679137,45.630456],[-122.679136,45.630636],[-122.679031,45.630651],[-122.679008,45.630725],[-122.67811,45.630723],[-122.678098,45.630477],[-122.678042,45.630453],[-122.677855,45.630452],[-122.677855,45.630362],[-122.678042,45.630363],[-122.678099,45.630339],[-122.678113,45.630093],[-122.678219,45.630077],[-122.678242,45.630003],[-122.678755,45.630005],[-122.678761,45.630061],[-122.678809,45.630093],[-122.679139,45.630096]]]}},{"type":"Feature","properties":{"id":67,"area_m2":5400,"px":54,"rank":16,"persistent":true},"geometry":{"type":"Polygon","coordinates":[[[-122.685436,45.628313],[-122.685435,45.628493],[-122.684984,45.628493],[-122.684931,45.62852],[-122.684921,45.628582],[-122.683767,45.628579],[-122.683764,45.628437],[-122.683698,45.628399],[-122.683545,45.628407],[-122.683511,45.628488],[-122.683382,45.628487],[-122.683383,45.628398],[-122.683489,45.628382],[-122.683512,45.628308],[-122.683627,45.628284],[-122.68364,45.628218],[-122.683897,45.628219],[-122.6839,45.628271],[-122.683937,45.628303],[-122.684119,45.6283],[-122.684154,45.62822],[-122.684234,45.628216],[-122.684276,45.628187],[-122.684285,45.62804],[-122.684796,45.628041],[-122.684795,45.628221],[-122.684714,45.628225],[-122.684672,45.628254],[-122.684666,45.628442],[-122.68472,45.628489],[-122.684881,45.628485],[-122.684921,45.628448],[-122.684923,45.628312],[-122.685017,45.628303],[-122.685052,45.628222],[-122.685132,45.628218],[-122.685177,45.628184],[-122.685182,45.627862],[-122.68531,45.627863],[-122.685309,45.628269],[-122.685348,45.628307],[-122.685436,45.628313]]]}},{"type":"Feature","properties":{"id":77,"area_m2":5200,"px":52,"rank":17,"persistent":false},"geometry":{"type":"Polygon","coordinates":[[[-122.673767,45.62729],[-122.673764,45.62783],[-122.673659,45.627846],[-122.673636,45.62792],[-122.67352,45.627944],[-122.673507,45.62801],[-122.67325,45.628009],[-122.673238,45.627943],[-122.673174,45.627919],[-122.673028,45.627927],[-122.672994,45.628008],[-122.672737,45.628007],[-122.672741,45.627287],[-122.673126,45.627289],[-122.673139,45.627355],[-122.673203,45.627379],[-122.673348,45.62737],[-122.673383,45.627289],[-122.673767,45.62729]]]}},{"type":"Feature","properties":{"id":91,"area_m2":5100,"px":51,"rank":18,"persistent":false},"geometry":{"type":"Polygon","coordinates":[[[-122.677491,45.626671],[-122.677489,45.627121],[-122.677383,45.627136],[-122.67736,45.62721],[-122.676206,45.627207],[-122.676183,45.627133],[-122.676078,45.627117],[-122.676078,45.627027],[-122.676113,45.626985],[-122.676079,45.626937],[-122.67608,45.626667],[-122.676186,45.626651],[-122.676209,45.626577],[-122.676337,45.626578],[-122.676365,45.626655],[-122.676518,45.626692],[-122.676694,45.626656],[-122.676724,45.626579],[-122.67685,45.626579],[-122.676878,45.626657],[-122.677031,45.626693],[-122.677207,45.626658],[-122.677235,45.62658],[-122.677364,45.626581],[-122.677386,45.626655],[-122.677491,45.626671]]]}},{"type":"Feature","properties":{"id":35,"area_m2":4800,"px":48,"rank":19,"persistent":true},"geometry":{"type":"Polygon","coordinates":[[[-122.689783,45.630935],[-122.689782,45.631205],[-122.689566,45.631211],[-122.689528,45.631243],[-122.689525,45.631295],[-122.689268,45.631294],[-122.68926,45.631142],[-122.689214,45.631116],[-122.689141,45.631114],[-122.689135,45.631057],[-122.689087,45.631026],[-122.68869,45.631023],[-122.688637,45.631051],[-122.688628,45.631112],[-122.688499,45.631112],[-122.688477,45.631038],[-122.688372,45.631021],[-122.688373,45.630842],[-122.688478,45.630826],[-122.688501,45.630752],[-122.688595,45.630743],[-122.68863,45.630662],[-122.688741,45.630643],[-122.688759,45.630573],[-122.689082,45.630572],[-122.689135,45.630545],[-122.689144,45.630484],[-122.689401,45.630484],[-122.6894,45.630664],[-122.689365,45.630712],[-122.689412,45.63082],[-122.689468,45.630844],[-122.689655,45.630845],[-122.689678,45.630919],[-122.689783,45.630935]]]}},{"type":"Feature","properties":{"id":112,"area_m2":4700,"px":47,"rank":20,"persistent":false},"geometry":{"type":"Polygon","coordinates":[[[-122.674042,45.624141],[-122.674041,45.624321],[-122.673847,45.624321],[-122.67379,45.624353],[-122.673782,45.62477],[-122.673676,45.624786],[-122.673653,45.62486],[-122.672756,45.624857],[-122.672759,45.624317],[-122.672832,45.624315],[-122.672878,45.624289],[-122.672888,45.624138],[-122.673218,45.624136],[-122.673267,45.624105],[-122.673273,45.624049],[-122.673617,45.624043],[-122.673655,45.624011],[-122.67366,45.62396],[-122.673787,45.62396],[-122.673767,45.62409],[-122.6738,45.624131],[-122.674042,45.624141]],[[-122.673158,45.624729],[-122.673137,45.624352],[-122.673081,45.624319],[-122.672934,45.624322],[-122.672887,45.624366],[-122.67289,45.624734],[-122.672946,45.624767],[-122.673106,45.624766],[-122.673158,45.624729]],[[-122.673439,45.624673],[-122.673602,45.624691],[-122.673651,45.624655],[-122.673656,45.624368],[-122.673609,45.624324],[-122.673469,45.624319],[-122.673401,45.624362],[-122.673399,45.62463],[-122.673439,45.624673]]]}},{"type":"Feature","properties":{"id":101,"area_m2":4300,"px":43,"rank":21,"persistent":true},"geometry":{"type":"Polygon","coordinates":[[[-122.677624,45.625861],[-122.677624,45.625951],[-122.677524,45.625963],[-122.677495,45.626041],[-122.677407,45.626047],[-122.677367,45.626089],[-122.677379,45.626196],[-122.677494,45.626221],[-122.677492,45.626491],[-122.676851,45.626489],[-122.676853,45.626088],[-122.676799,45.626041],[-122.676509,45.626044],[-122.67647,45.626081],[-122.676468,45.626218],[-122.67634,45.626217],[-122.676341,45.626038],[-122.676446,45.626022],[-122.676469,45.625948],[-122.676813,45.625942],[-122.676851,45.625911],[-122.676855,45.625859],[-122.67697,45.625835],[-122.676984,45.625769],[-122.677496,45.625771],[-122.677519,45.625845],[-122.677624,45.625861]]]}},{"type":"Feature","properties":{"id":70,"area_m2":4200,"px":42,"rank":22,"persistent":false},"geometry":{"type":"Polygon","coordinates":[[[-122.68685,45.627777],[-122.686848,45.628137],[-122.686496,45.628132],[-122.686463,45.628171],[-122.686462,45.628316],[-122.686077,45.628315],[-122.686069,45.628163],[-122.686024,45.628137],[-122.68595,45.628133],[-122.685951,45.627955],[-122.685986,45.627912],[-122.685952,45.627864],[-122.685953,45.627595],[-122.686059,45.627579],[-122.686082,45.627505],[-122.686338,45.627506],[-122.686341,45.627557],[-122.686379,45.627589],[-122.686594,45.627596],[-122.686617,45.627671],[-122.686722,45.627687],[-122.686756,45.627768],[-122.68685,45.627777]]]}},{"type":"Feature","properties":{"id":17,"area_m2":3500,"px":35,"rank":23,"persistent":false},"geometry":{"type":"Polygon","coordinates":[[[-122.678488,45.631804],[-122.678485,45.632434],[-122.677843,45.632432],[-122.677847,45.631802],[-122.678488,45.631804]]]}},{"type":"Feature","properties":{"id":39,"area_m2":3400,"px":34,"rank":24,"persistent":false},"geometry":{"type":"Polygon","coordinates":[[[-122.672723,45.630348],[-122.672723,45.630438],[-122.672635,45.630444],[-122.672596,45.630481],[-122.672593,45.630707],[-122.672512,45.630711],[-122.672468,45.630745],[-122.672463,45.630977],[-122.672078,45.630976],[-122.672076,45.630911],[-122.672033,45.630877],[-122.671822,45.630885],[-122.671826,45.630345],[-122.671954,45.630346],[-122.672014,45.63037],[-122.672084,45.630346],[-122.672723,45.630348]]]}},{"type":"Feature","properties":{"id":81,"area_m2":3400,"px":34,"rank":25,"persistent":false},"geometry":{"type":"Polygon","coordinates":[[[-122.674793,45.627383],[-122.67479,45.627923],[-122.674534,45.627923],[-122.674473,45.627898],[-122.674405,45.627922],[-122.673892,45.627921],[-122.673896,45.627291],[-122.674665,45.627293],[-122.674688,45.627367],[-122.674793,45.627383]],[[-122.674534,45.627832],[-122.674553,45.627788],[-122.674521,45.627752],[-122.674456,45.627743],[-122.674403,45.627763],[-122.674387,45.627803],[-122.674424,45.627846],[-122.674481,45.627856],[-122.674534,45.627832]]]}},{"type":"Feature","properties":{"id":33,"area_m2":3300,"px":33,"rank":26,"persistent":false},"geometry":{"type":"Polygon","coordinates":[[[-122.678748,45.631265],[-122.678747,45.631445],[-122.678641,45.63146],[-122.678618,45.631534],[-122.678167,45.631534],[-122.678114,45.631562],[-122.678103,45.631623],[-122.677848,45.631622],[-122.677839,45.631561],[-122.677786,45.631533],[-122.677464,45.631531],[-122.677465,45.631351],[-122.67757,45.631336],[-122.677593,45.631262],[-122.677709,45.631238],[-122.677722,45.631172],[-122.67862,45.631175],[-122.678642,45.631249],[-122.678748,45.631265]],[[-122.677978,45.631352],[-122.677997,45.631308],[-122.677965,45.631272],[-122.677892,45.631264],[-122.677842,45.631287],[-122.677832,45.631329],[-122.677868,45.631366],[-122.677925,45.631376],[-122.677978,45.631352]]]}},{"type":"Feature","properties":{"id":78,"area_m2":3300,"px":33,"rank":27,"persistent":false},"geometry":{"type":"Polygon","coordinates":[[[-122.680308,45.627669],[-122.680307,45.627849],[-122.680201,45.627864],[-122.680178,45.627938],[-122.679409,45.627936],[-122.67941,45.627666],[-122.679511,45.627662],[-122.679557,45.627622],[-122.67954,45.627307],[-122.680053,45.627308],[-122.680076,45.627382],[-122.680181,45.627399],[-122.680189,45.62764],[-122.680234,45.627666],[-122.680308,45.627669]],[[-122.680052,45.627528],[-122.679993,45.627475],[-122.67983,45.627497],[-122.679796,45.627536],[-122.679808,45.627643],[-122.679864,45.627667],[-122.680017,45.627659],[-122.68005,45.627625],[-122.680052,45.627528]]]}},{"type":"Feature","properties":{"id":7,"area_m2":3200,"px":32,"rank":28,"persistent":true},"geometry":{"type":"Polygon","coordinates":[[[-122.672582,45.632598],[-122.67258,45.632867],[-122.672475,45.632883],[-122.672452,45.632957],[-122.672336,45.632981],[-122.672323,45.633047],[-122.672066,45.633046],[-122.672006,45.633022],[-122.671938,45.633046],[-122.671681,45.633045],[-122.671659,45.632971],[-122.671554,45.632955],[-122.671554,45.632865],[-122.671642,45.632858],[-122.671681,45.632821],[-122.671684,45.632595],[-122.672582,45.632598]]]}},{"type":"Feature","properties":{"id":55,"area_m2":3200,"px":32,"rank":29,"persistent":false},"geometry":{"type":"Polygon","coordinates":[[[-122.674783,45.629183],[-122.674781,45.629453],[-122.673883,45.629451],[-122.673887,45.628911],[-122.674015,45.628911],[-122.674023,45.628973],[-122.674076,45.629],[-122.674399,45.629002],[-122.674433,45.629083],[-122.674655,45.629093],[-122.674677,45.629167],[-122.674783,45.629183]]]}},{"type":"Feature","properties":{"id":49,"area_m2":3100,"px":31,"rank":30,"persistent":false},"geometry":{"type":"Polygon","coordinates":[[[-122.672599,45.629717],[-122.672598,45.629807],[-122.672511,45.629813],[-122.672471,45.62985],[-122.672468,45.630077],[-122.672363,45.630092],[-122.67234,45.630166],[-122.671698,45.630165],[-122.671664,45.630084],[-122.671512,45.630074],[-122.671451,45.630103],[-122.671442,45.630164],[-122.671331,45.630183],[-122.671311,45.630254],[-122.671185,45.630253],[-122.671179,45.630197],[-122.67113,45.630165],[-122.6708,45.630162],[-122.670801,45.630072],[-122.671186,45.630073],[-122.671261,45.630097],[-122.671414,45.630062],[-122.671443,45.629984],[-122.671671,45.629972],[-122.671699,45.629936],[-122.671701,45.629625],[-122.671958,45.629625],[-122.671958,45.629866],[-122.672023,45.629909],[-122.672165,45.629892],[-122.672207,45.629863],[-122.672215,45.629626],[-122.672343,45.629627],[-122.672348,45.629697],[-122.672395,45.629728],[-122.672599,45.629717]]]}},{"type":"Feature","properties":{"id":53,"area_m2":3100,"px":31,"rank":31,"persistent":false},"geometry":{"type":"Polygon","coordinates":[[[-122.673759,45.628821],[-122.673756,45.62927],[-122.67365,45.629286],[-122.673627,45.62936],[-122.673253,45.62937],[-122.673243,45.629269],[-122.673278,45.629221],[-122.673231,45.629113],[-122.673116,45.629089],[-122.673113,45.629037],[-122.673075,45.629005],[-122.672929,45.628998],[-122.67286,45.629047],[-122.672863,45.629415],[-122.672926,45.629448],[-122.673231,45.629438],[-122.673241,45.629539],[-122.672857,45.629538],[-122.672834,45.629464],[-122.672729,45.629448],[-122.672731,45.628998],[-122.672837,45.628982],[-122.67286,45.628908],[-122.673432,45.628909],[-122.673493,45.628881],[-122.673502,45.62882],[-122.673759,45.628821]]]}},{"type":"Feature","properties":{"id":76,"area_m2":3100,"px":31,"rank":32,"persistent":false},"geometry":{"type":"Polygon","coordinates":[[[-122.679283,45.627396],[-122.679282,45.627576],[-122.679088,45.627576],[-122.679029,45.627614],[-122.679023,45.628025],[-122.678638,45.628024],[-122.678635,45.627973],[-122.678598,45.62794],[-122.678382,45.627933],[-122.678384,45.627664],[-122.678471,45.627657],[-122.678512,45.627615],[-122.678514,45.627304],[-122.679155,45.627306],[-122.679178,45.62738],[-122.679283,45.627396]],[[-122.678898,45.627525],[-122.678838,45.627472],[-122.678675,45.627493],[-122.678641,45.627533],[-122.678653,45.62764],[-122.678808,45.627678],[-122.678864,45.627669],[-122.678896,45.627635],[-122.678898,45.627525]]]}},{"type":"Feature","properties":{"id":74,"area_m2":3000,"px":30,"rank":33,"persistent":false},"geometry":{"type":"Polygon","coordinates":[[[-122.681332,45.628032],[-122.681332,45.628122],[-122.681226,45.628137],[-122.681203,45.628211],[-122.68082,45.62821],[-122.680805,45.628144],[-122.68069,45.62812],[-122.680668,45.628046],[-122.680563,45.62803],[-122.680554,45.627878],[-122.680509,45.627852],[-122.680435,45.627849],[-122.680438,45.627399],[-122.680566,45.6274],[-122.680588,45.627474],[-122.680694,45.62749],[-122.680728,45.627571],[-122.680822,45.62758],[-122.680838,45.627741],[-122.680949,45.627761],[-122.680983,45.627842],[-122.681077,45.627851],[-122.681104,45.627929],[-122.681204,45.627941],[-122.681232,45.628019],[-122.681332,45.628032]]]}},{"type":"Feature","properties":{"id":107,"area_m2":2900,"px":29,"rank":34,"persistent":true},"geometry":{"type":"Polygon","coordinates":[[[-122.674808,45.624863],[-122.674804,45.625493],[-122.674698,45.625509],[-122.674675,45.625583],[-122.674034,45.625581],[-122.674034,45.625264],[-122.673995,45.625227],[-122.673908,45.62522],[-122.673909,45.625041],[-122.674015,45.625025],[-122.674038,45.624951],[-122.674166,45.624951],[-122.674166,45.625178],[-122.674205,45.625215],[-122.674293,45.625222],[-122.674301,45.625373],[-122.674354,45.625401],[-122.674494,45.6254],[-122.674548,45.625354],[-122.67455,45.625132],[-122.674637,45.625126],[-122.674677,45.625089],[-122.67468,45.624863],[-122.674808,45.624863]]]}},{"type":"Feature","properties":{"id":10,"area_m2":2800,"px":28,"rank":35,"persistent":false},"geometry":{"type":"Polygon","coordinates":[[[-122.677717,45.632072],[-122.677714,45.632522],[-122.677392,45.632522],[-122.677338,45.63255],[-122.677329,45.632611],[-122.677201,45.632611],[-122.677179,45.632536],[-122.677073,45.63252],[-122.677077,45.63189],[-122.677333,45.631891],[-122.677367,45.631972],[-122.677589,45.631982],[-122.677611,45.632056],[-122.677717,45.632072]],[[-122.677511,45.632251],[-122.677585,45.632213],[-122.677579,45.6321],[-122.677527,45.632073],[-122.677373,45.632077],[-122.677333,45.632114],[-122.67734,45.632222],[-122.677393,45.63225],[-122.677511,45.632251]]]}},{"type":"Feature","properties":{"id":28,"area_m2":2800,"px":28,"rank":36,"persistent":false},"geometry":{"type":"Polygon","coordinates":[[[-122.679774,45.631358],[-122.679773,45.631538],[-122.679657,45.631561],[-122.679643,45.631717],[-122.679538,45.631733],[-122.679515,45.631807],[-122.679258,45.631806],[-122.679236,45.631732],[-122.67913,45.631716],[-122.679097,45.631635],[-122.679003,45.631626],[-122.679004,45.631446],[-122.679098,45.631437],[-122.679132,45.631356],[-122.679248,45.631332],[-122.679262,45.631176],[-122.679647,45.631177],[-122.679655,45.631329],[-122.6797,45.631355],[-122.679774,45.631358]]]}},{"type":"Feature","properties":{"id":48,"area_m2":2700,"px":27,"rank":37,"persistent":false},"geometry":{"type":"Polygon","coordinates":[[[-122.676961,45.62973],[-122.67696,45.62982],[-122.676873,45.629826],[-122.676833,45.629863],[-122.676829,45.630269],[-122.676316,45.630268],[-122.676294,45.630194],[-122.676188,45.630177],[-122.67619,45.629998],[-122.676291,45.629994],[-122.676337,45.629953],[-122.676319,45.629728],[-122.67665,45.629726],[-122.676698,45.629696],[-122.676707,45.629639],[-122.676833,45.629639],[-122.676855,45.629714],[-122.676961,45.62973]]]}},{"type":"Feature","properties":{"id":57,"area_m2":2700,"px":27,"rank":38,"persistent":false},"geometry":{"type":"Polygon","coordinates":[[[-122.670423,45.628811],[-122.670419,45.629441],[-122.670291,45.629441],[-122.670231,45.629416],[-122.670163,45.62944],[-122.669906,45.629439],[-122.669904,45.629208],[-122.66986,45.629173],[-122.66978,45.629169],[-122.669782,45.628809],[-122.670038,45.62881],[-122.670099,45.628834],[-122.670167,45.62881],[-122.670423,45.628811]],[[-122.670164,45.62926],[-122.67013,45.629297],[-122.670144,45.629337],[-122.670202,45.629363],[-122.670259,45.629355],[-122.670291,45.629321],[-122.67028,45.629271],[-122.670225,45.629247],[-122.670164,45.62926]]]}},{"type":"Feature","properties":{"id":82,"area_m2":2600,"px":26,"rank":39,"persistent":false},"geometry":{"type":"Polygon","coordinates":[[[-122.671587,45.627284],[-122.671584,45.627734],[-122.671478,45.62775],[-122.671455,45.627824],[-122.671199,45.627823],[-122.671177,45.627749],[-122.671071,45.627733],[-122.671054,45.627662],[-122.670943,45.627642],[-122.670909,45.627561],[-122.670816,45.627552],[-122.670788,45.627474],[-122.670688,45.627461],[-122.67066,45.627384],[-122.67056,45.627371],[-122.670561,45.627281],[-122.670689,45.627282],[-122.670701,45.627348],[-122.670765,45.627372],[-122.670911,45.627363],[-122.670945,45.627282],[-122.671587,45.627284]]]}},{"type":"Feature","properties":{"id":32,"area_m2":2400,"px":24,"rank":40,"persistent":true},"geometry":{"type":"Polygon","coordinates":[[[-122.676823,45.63144],[-122.676822,45.631529],[-122.676635,45.631529],[-122.676578,45.631553],[-122.676564,45.631709],[-122.676051,45.631707],[-122.676054,45.631167],[-122.676439,45.631168],[-122.676461,45.631243],[-122.676567,45.631259],[-122.676547,45.631383],[-122.676568,45.631422],[-122.676823,45.63144]]]}},{"type":"Feature","properties":{"id":22,"area_m2":2400,"px":24,"rank":41,"persistent":false},"geometry":{"type":"Polygon","coordinates":[[[-122.680545,45.63118],[-122.680541,45.63181],[-122.680339,45.631812],[-122.68029,45.631843],[-122.680284,45.631899],[-122.680156,45.631899],[-122.680156,45.631582],[-122.680117,45.631545],[-122.680029,45.631537],[-122.68003,45.631449],[-122.680111,45.631445],[-122.680155,45.631411],[-122.68016,45.631179],[-122.680266,45.631163],[-122.68029,45.631089],[-122.680417,45.63109],[-122.680439,45.631164],[-122.680545,45.63118]]]}},{"type":"Feature","properties":{"id":42,"area_m2":2100,"px":21,"rank":42,"persistent":false},"geometry":{"type":"Polygon","coordinates":[[[-122.670414,45.630341],[-122.670412,45.630701],[-122.670306,45.630717],[-122.670283,45.630791],[-122.669899,45.63079],[-122.66989,45.630638],[-122.669845,45.630612],[-122.669771,45.630609],[-122.669772,45.630429],[-122.669878,45.630414],[-122.669901,45.63034],[-122.670414,45.630341]]]}},{"type":"Feature","properties":{"id":50,"area_m2":2100,"px":21,"rank":43,"persistent":true},"geometry":{"type":"Polygon","coordinates":[[[-122.670418,45.629621],[-122.670417,45.629891],[-122.670311,45.629907],[-122.670288,45.629981],[-122.670059,45.629979],[-122.670032,45.630015],[-122.67003,45.63016],[-122.669925,45.630175],[-122.669902,45.630249],[-122.669773,45.630249],[-122.669774,45.630159],[-122.669868,45.63015],[-122.669902,45.630106],[-122.66989,45.630003],[-122.669775,45.629979],[-122.669777,45.629619],[-122.670418,45.629621]]]}},{"type":"Feature","properties":{"id":63,"area_m2":2100,"px":21,"rank":44,"persistent":false},"geometry":{"type":"Polygon","coordinates":[[[-122.671581,45.628184],[-122.671579,45.628634],[-122.671473,45.62865],[-122.67145,45.628724],[-122.671065,45.628723],[-122.671066,45.628633],[-122.6711,45.62859],[-122.671066,45.628541],[-122.671069,45.628093],[-122.671454,45.628094],[-122.671476,45.628168],[-122.671581,45.628184]],[[-122.671201,45.628486],[-122.671176,45.628588],[-122.671208,45.628624],[-122.671396,45.628631],[-122.671447,45.628596],[-122.671448,45.628492],[-122.671397,45.628456],[-122.67125,45.628456],[-122.671201,45.628486]]]}},{"type":"Feature","properties":{"id":14,"area_m2":1900,"px":19,"rank":45,"persistent":false},"geometry":{"type":"Polygon","coordinates":[[[-122.675277,45.632425],[-122.675277,45.632515],[-122.673866,45.632511],[-122.673866,45.632421],[-122.674579,45.632423],[-122.674634,45.632407],[-122.674656,45.632368],[-122.674639,45.631973],[-122.674767,45.631974],[-122.674788,45.632228],[-122.67515,45.632245],[-122.675138,45.632395],[-122.675184,45.632422],[-122.675277,45.632425]]]}},{"type":"Feature","properties":{"id":102,"area_m2":1900,"px":19,"rank":46,"persistent":false},"geometry":{"type":"Polygon","coordinates":[[[-122.670568,45.626021],[-122.670567,45.626111],[-122.670461,45.626127],[-122.670406,45.626232],[-122.670437,45.626381],[-122.669924,45.626379],[-122.669902,45.626305],[-122.669797,45.626289],[-122.669797,45.626199],[-122.669878,45.626195],[-122.669922,45.626161],[-122.669927,45.626019],[-122.67002,45.626017],[-122.67007,45.625985],[-122.670056,45.62584],[-122.670312,45.62584],[-122.670333,45.626018],[-122.670386,45.626034],[-122.670568,45.626021]]]}},{"type":"Feature","properties":{"id":106,"area_m2":1900,"px":19,"rank":47,"persistent":false},"geometry":{"type":"Polygon","coordinates":[[[-122.675829,45.625227],[-122.675797,45.625274],[-122.675831,45.625316],[-122.675831,45.625406],[-122.675796,45.625454],[-122.67583,45.625496],[-122.67583,45.625586],[-122.675317,45.625585],[-122.675295,45.62551],[-122.675189,45.625494],[-122.67519,45.625404],[-122.675277,45.625398],[-122.675317,45.625361],[-122.67532,45.625135],[-122.675832,45.625136],[-122.675829,45.625227]]]}},{"type":"Feature","properties":{"id":111,"area_m2":1900,"px":19,"rank":48,"persistent":false},"geometry":{"type":"Polygon","coordinates":[[[-122.670959,45.624942],[-122.670957,45.625212],[-122.670852,45.625228],[-122.670829,45.625302],[-122.670316,45.6253],[-122.670317,45.62503],[-122.670423,45.625015],[-122.670446,45.624941],[-122.670561,45.624917],[-122.670575,45.624851],[-122.670703,45.624851],[-122.670708,45.624908],[-122.670757,45.624939],[-122.670959,45.624942]]]}},{"type":"Feature","properties":{"id":15,"area_m2":1800,"px":18,"rank":49,"persistent":false},"geometry":{"type":"Polygon","coordinates":[[[-122.670276,45.632051],[-122.670273,45.632501],[-122.66976,45.632499],[-122.669762,45.632229],[-122.669835,45.632227],[-122.669881,45.632201],[-122.669891,45.63205],[-122.670276,45.632051]]]}},{"type":"Feature","properties":{"id":27,"area_m2":1800,"px":18,"rank":50,"persistent":false},"geometry":{"type":"Polygon","coordinates":[[[-122.683367,45.631278],[-122.683366,45.631368],[-122.683278,45.631374],[-122.683239,45.631411],[-122.683235,45.631817],[-122.682979,45.631817],[-122.682981,45.631457],[-122.683096,45.631433],[-122.683127,45.631317],[-122.68306,45.631277],[-122.682725,45.631276],[-122.682717,45.631124],[-122.682671,45.631098],[-122.682598,45.631096],[-122.682599,45.630826],[-122.682728,45.630826],[-122.68273,45.631058],[-122.682774,45.631092],[-122.682854,45.631096],[-122.682882,45.631174],[-122.683239,45.631187],[-122.683261,45.631262],[-122.683367,45.631278]]]}},{"type":"Feature","properties":{"id":89,"area_m2":1800,"px":18,"rank":51,"persistent":true},"geometry":{"type":"Polygon","coordinates":[[[-122.682491,45.626866],[-122.682459,45.626912],[-122.682493,45.626955],[-122.682492,45.627045],[-122.682155,45.627048],[-122.682109,45.627087],[-122.682106,45.627224],[-122.68185,45.627223],[-122.681852,45.626863],[-122.681958,45.626848],[-122.681981,45.626774],[-122.682178,45.626786],[-122.682232,45.626754],[-122.682238,45.626684],[-122.682494,45.626685],[-122.682491,45.626866]]]}},{"type":"Feature","properties":{"id":93,"area_m2":1800,"px":18,"rank":52,"persistent":false},"geometry":{"type":"Polygon","coordinates":[[[-122.671589,45.626834],[-122.671588,45.627104],[-122.671482,45.62712],[-122.671459,45.627194],[-122.671202,45.627193],[-122.67118,45.627119],[-122.671075,45.627103],[-122.671076,45.626833],[-122.671164,45.626826],[-122.671204,45.626784],[-122.671207,45.626473],[-122.671335,45.626473],[-122.671357,45.626548],[-122.671463,45.626564],[-122.671465,45.626795],[-122.671509,45.62683],[-122.671589,45.626834]]]}},{"type":"Feature","properties":{"id":37,"area_m2":1600,"px":16,"rank":53,"persistent":false},"geometry":{"type":"Polygon","coordinates":[[[-122.680291,45.630639],[-122.68029,45.630819],[-122.680216,45.630821],[-122.680171,45.630847],[-122.680161,45.630999],[-122.679904,45.630998],[-122.679893,45.630752],[-122.679836,45.630728],[-122.679649,45.630727],[-122.67965,45.630637],[-122.679684,45.630595],[-122.67965,45.630547],[-122.679651,45.630457],[-122.679907,45.630458],[-122.679941,45.630539],[-122.680163,45.630549],[-122.680185,45.630623],[-122.680291,45.630639]]]}},{"type":"Feature","properties":{"id":72,"area_m2":1600,"px":16,"rank":54,"persistent":false},"geometry":{"type":"Polygon","coordinates":[[[-122.68313,45.627767],[-122.683129,45.627947],[-122.683023,45.627962],[-122.682968,45.628068],[-122.682999,45.628216],[-122.682742,45.628216],[-122.682745,45.627724],[-122.682705,45.627682],[-122.682617,45.627675],[-122.682618,45.627585],[-122.682723,45.62757],[-122.682747,45.627496],[-122.682875,45.627496],[-122.682887,45.627652],[-122.683002,45.627676],[-122.683036,45.627757],[-122.68313,45.627767]]]}},{"type":"Feature","properties":{"id":45,"area_m2":1500,"px":15,"rank":55,"persistent":false},"geometry":{"type":"Polygon","coordinates":[[[-122.677728,45.630092],[-122.677725,45.630632],[-122.677469,45.630631],[-122.67746,45.63048],[-122.677415,45.630453],[-122.677342,45.630451],[-122.677343,45.630181],[-122.677449,45.630165],[-122.677472,45.630091],[-122.677728,45.630092]]]}},{"type":"Feature","properties":{"id":47,"area_m2":1500,"px":15,"rank":56,"persistent":false},"geometry":{"type":"Polygon","coordinates":[[[-122.685427,45.629933],[-122.685425,45.630203],[-122.685102,45.630203],[-122.685049,45.630231],[-122.68504,45.630292],[-122.684783,45.630292],[-122.684785,45.629932],[-122.684891,45.629916],[-122.684914,45.629842],[-122.685299,45.629843],[-122.685321,45.629917],[-122.685427,45.629933]],[[-122.685188,45.630068],[-122.685164,45.629966],[-122.685116,45.629935],[-122.684968,45.629934],[-122.684917,45.62997],[-122.684916,45.630074],[-122.684967,45.63011],[-122.685156,45.630103],[-122.685188,45.630068]]]}},{"type":"Feature","properties":{"id":84,"area_m2":1500,"px":15,"rank":57,"persistent":false},"geometry":{"type":"Polygon","coordinates":[[[-122.675691,45.627476],[-122.675689,45.627746],[-122.67492,45.627744],[-122.674921,45.627474],[-122.675049,45.627474],[-122.675058,45.627549],[-122.675123,45.627578],[-122.675277,45.627552],[-122.675306,45.627475],[-122.675691,45.627476]]]}},{"type":"Feature","properties":{"id":97,"area_m2":1500,"px":15,"rank":58,"persistent":false},"geometry":{"type":"Polygon","coordinates":[[[-122.670432,45.626742],[-122.670401,45.626788],[-122.670435,45.626831],[-122.670433,45.627101],[-122.66992,45.627099],[-122.669912,45.626948],[-122.669867,45.626921],[-122.669793,45.626918],[-122.669794,45.626739],[-122.669868,45.626737],[-122.669913,45.626711],[-122.669923,45.626559],[-122.670436,45.626561],[-122.670432,45.626742]],[[-122.67034,45.626793],[-122.670302,45.626684],[-122.670267,45.626657],[-122.670092,45.626656],[-122.670054,45.626688],[-122.67005,45.62674],[-122.669977,45.626742],[-122.669931,45.626768],[-122.66993,45.626891],[-122.669976,45.626917],[-122.670049,45.62692],[-122.670052,45.626971],[-122.67009,45.627003],[-122.670265,45.627004],[-122.670304,45.626967],[-122.670307,45.62683],[-122.67034,45.626793]]]}},{"type":"Feature","properties":{"id":110,"area_m2":1500,"px":15,"rank":59,"persistent":false},"geometry":{"type":"Polygon","coordinates":[[[-122.67378,45.62513],[-122.673779,45.62531],[-122.673523,45.625309],[-122.67351,45.625243],[-122.673446,45.625219],[-122.673301,45.625228],[-122.673266,45.625309],[-122.672881,45.625308],[-122.672882,45.625128],[-122.672917,45.625085],[-122.672883,45.625038],[-122.672883,45.624948],[-122.67314,45.624948],[-122.673152,45.625014],[-122.673267,45.625039],[-122.673273,45.625095],[-122.673322,45.625127],[-122.673476,45.625125],[-122.673518,45.625096],[-122.673524,45.625039],[-122.67365,45.62504],[-122.673674,45.625114],[-122.67378,45.62513]]]}},{"type":"Feature","properties":{"id":51,"area_m2":1400,"px":14,"rank":60,"persistent":false},"geometry":{"type":"Polygon","coordinates":[[[-122.673625,45.62972],[-122.673623,45.63008],[-122.673517,45.630096],[-122.673494,45.63017],[-122.673238,45.630169],[-122.673238,45.630079],[-122.673425,45.630079],[-122.673477,45.63006],[-122.673494,45.629943],[-122.673434,45.629901],[-122.673111,45.629899],[-122.673112,45.629719],[-122.673218,45.629703],[-122.673243,45.629629],[-122.673497,45.62963],[-122.67352,45.629704],[-122.673625,45.62972]]]}},{"type":"Feature","properties":{"id":95,"area_m2":1400,"px":14,"rank":61,"persistent":false},"geometry":{"type":"Polygon","coordinates":[[[-122.683648,45.626778],[-122.683648,45.626868],[-122.683542,45.626884],[-122.683519,45.626958],[-122.683332,45.626957],[-122.68328,45.626977],[-122.683262,45.627137],[-122.683005,45.627136],[-122.683006,45.626956],[-122.683094,45.62695],[-122.683133,45.626913],[-122.683136,45.626687],[-122.683521,45.626688],[-122.683543,45.626762],[-122.683648,45.626778]]]}},{"type":"Feature","properties":{"id":19,"area_m2":1300,"px":13,"rank":62,"persistent":true},"geometry":{"type":"Polygon","coordinates":[[[-122.689524,45.631475],[-122.689523,45.631565],[-122.689417,45.63158],[-122.689394,45.631654],[-122.689289,45.63167],[-122.689266,45.631744],[-122.689165,45.631756],[-122.689137,45.631834],[-122.689037,45.631846],[-122.689008,45.631923],[-122.688908,45.631935],[-122.688879,45.632013],[-122.688779,45.632025],[-122.68875,45.632103],[-122.688656,45.632111],[-122.688622,45.632192],[-122.688511,45.632212],[-122.688493,45.632282],[-122.688365,45.632282],[-122.688366,45.632102],[-122.688471,45.632086],[-122.688494,45.632012],[-122.68861,45.631988],[-122.688623,45.631922],[-122.688857,45.631907],[-122.68888,45.631833],[-122.68898,45.631821],[-122.689009,45.631743],[-122.689103,45.631734],[-122.689138,45.631654],[-122.689253,45.63163],[-122.689267,45.631474],[-122.689524,45.631475]]]}},{"type":"Feature","properties":{"id":54,"area_m2":1200,"px":12,"rank":63,"persistent":false},"geometry":{"type":"Polygon","coordinates":[[[-122.679016,45.629195],[-122.679015,45.629375],[-122.678799,45.629381],[-122.678762,45.629413],[-122.678758,45.629465],[-122.678374,45.629464],[-122.678375,45.629284],[-122.67848,45.629268],[-122.678503,45.629194],[-122.679016,45.629195]]]}},{"type":"Feature","properties":{"id":86,"area_m2":1200,"px":12,"rank":64,"persistent":false},"geometry":{"type":"Polygon","coordinates":[[[-122.682233,45.627494],[-122.682232,45.627674],[-122.681847,45.627673],[-122.681787,45.627649],[-122.681719,45.627673],[-122.681591,45.627672],[-122.681592,45.627402],[-122.682105,45.627404],[-122.682128,45.627478],[-122.682233,45.627494]]]}},{"type":"Feature","properties":{"id":121,"area_m2":1200,"px":12,"rank":65,"persistent":false},"geometry":{"type":"Polygon","coordinates":[[[-122.673535,45.623149],[-122.673534,45.623239],[-122.673429,45.623255],[-122.673406,45.623329],[-122.672764,45.623327],[-122.672765,45.623237],[-122.672866,45.623233],[-122.67291,45.623198],[-122.672895,45.622967],[-122.673151,45.622968],[-122.673164,45.623034],[-122.673279,45.623059],[-122.673313,45.62314],[-122.673535,45.623149]]]}},{"type":"Feature","properties":{"id":26,"area_m2":1100,"px":11,"rank":66,"persistent":false},"geometry":{"type":"Polygon","coordinates":[[[-122.684519,45.631641],[-122.684519,45.631731],[-122.684413,45.631747],[-122.68439,45.631821],[-122.683877,45.631819],[-122.683855,45.631745],[-122.683749,45.631729],[-122.68375,45.631639],[-122.683855,45.631623],[-122.683878,45.631549],[-122.684006,45.63155],[-122.684015,45.631611],[-122.684068,45.631639],[-122.684519,45.631641]]]}},{"type":"Feature","properties":{"id":31,"area_m2":1100,"px":11,"rank":67,"persistent":false},"geometry":{"type":"Polygon","coordinates":[[[-122.689012,45.631203],[-122.689011,45.631293],[-122.688911,45.631305],[-122.688883,45.631383],[-122.688783,45.631395],[-122.688754,45.631473],[-122.68866,45.631481],[-122.688625,45.631562],[-122.688514,45.631582],[-122.688496,45.631652],[-122.688391,45.631667],[-122.688367,45.631741],[-122.688239,45.631741],[-122.68824,45.631561],[-122.688346,45.631546],[-122.688369,45.631472],[-122.688469,45.63146],[-122.688498,45.631382],[-122.688592,45.631373],[-122.688627,45.631292],[-122.688738,45.631273],[-122.688756,45.631203],[-122.689012,45.631203]]]}},{"type":"Feature","properties":{"id":65,"area_m2":1100,"px":11,"rank":68,"persistent":false},"geometry":{"type":"Polygon","coordinates":[[[-122.674402,45.628462],[-122.674401,45.628642],[-122.674145,45.628641],[-122.674122,45.628567],[-122.674017,45.628551],[-122.674019,45.628191],[-122.674275,45.628192],[-122.674277,45.628424],[-122.674321,45.628458],[-122.674402,45.628462]]]}},{"type":"Feature","properties":{"id":24,"area_m2":1000,"px":10,"rank":69,"persistent":false},"geometry":{"type":"Polygon","coordinates":[[[-122.675669,45.631256],[-122.675668,45.631346],[-122.675331,45.631349],[-122.675289,45.631378],[-122.675283,45.631435],[-122.675168,45.631459],[-122.675154,45.631525],[-122.675043,45.631544],[-122.675024,45.631884],[-122.674896,45.631884],[-122.674898,45.631524],[-122.675004,45.631508],[-122.675027,45.631434],[-122.675127,45.631422],[-122.675155,45.631345],[-122.675249,45.631336],[-122.675284,45.631255],[-122.675395,45.631236],[-122.675413,45.631165],[-122.675541,45.631166],[-122.675563,45.63124],[-122.675669,45.631256]]]}},{"type":"Feature","properties":{"id":41,"area_m2":1000,"px":10,"rank":70,"persistent":false},"geometry":{"type":"Polygon","coordinates":[[[-122.674903,45.630624],[-122.674902,45.630714],[-122.674785,45.630725],[-122.674765,45.630652],[-122.674713,45.630624],[-122.674573,45.630625],[-122.674521,45.630661],[-122.674514,45.630782],[-122.674566,45.630803],[-122.674763,45.630793],[-122.674773,45.630894],[-122.674388,45.630892],[-122.674366,45.630818],[-122.67426,45.630802],[-122.674261,45.630712],[-122.674342,45.630708],[-122.674386,45.630674],[-122.67439,45.630533],[-122.674496,45.630517],[-122.674519,45.630443],[-122.674647,45.630443],[-122.674669,45.630517],[-122.674775,45.630534],[-122.674809,45.630615],[-122.674903,45.630624]]]}},{"type":"Feature","properties":{"id":68,"area_m2":1000,"px":10,"rank":71,"persistent":false},"geometry":{"type":"Polygon","coordinates":[[[-122.67992,45.628208],[-122.679918,45.628478],[-122.679703,45.628484],[-122.679665,45.628515],[-122.67966,45.628567],[-122.679533,45.628567],[-122.679511,45.628493],[-122.679405,45.628476],[-122.679406,45.628386],[-122.679729,45.628386],[-122.679791,45.628333],[-122.679764,45.62822],[-122.679407,45.628206],[-122.679408,45.628116],[-122.679792,45.628118],[-122.679814,45.628192],[-122.67992,45.628208]]]}},{"type":"Feature","properties":{"id":83,"area_m2":1000,"px":10,"rank":72,"persistent":false},"geometry":{"type":"Polygon","coordinates":[[[-122.676844,45.627659],[-122.676844,45.627749],[-122.676716,45.627749],[-122.676707,45.627687],[-122.676654,45.62766],[-122.676203,45.627657],[-122.676203,45.627567],[-122.676297,45.627565],[-122.676343,45.627538],[-122.676333,45.627388],[-122.676717,45.627389],[-122.67672,45.62762],[-122.676764,45.627655],[-122.676844,45.627659]]]}},{"type":"Feature","properties":{"id":12,"area_m2":900,"px":9,"rank":73,"persistent":false},"geometry":{"type":"Polygon","coordinates":[[[-122.681949,45.632354],[-122.681949,45.632444],[-122.681843,45.632459],[-122.68182,45.632534],[-122.681179,45.632532],[-122.681179,45.632442],[-122.681285,45.632426],[-122.681308,45.632352],[-122.681693,45.632353],[-122.681753,45.632378],[-122.681821,45.632354],[-122.681949,45.632354]]]}},{"type":"Feature","properties":{"id":11,"area_m2":900,"px":9,"rank":74,"persistent":false},"geometry":{"type":"Polygon","coordinates":[[[-122.683233,45.632178],[-122.683232,45.632447],[-122.683126,45.632463],[-122.683103,45.632537],[-122.682975,45.632537],[-122.682952,45.632463],[-122.682847,45.632446],[-122.682848,45.632266],[-122.682942,45.632264],[-122.682988,45.632237],[-122.682977,45.632087],[-122.683105,45.632087],[-122.683128,45.632161],[-122.683233,45.632178]]]}},{"type":"Feature","properties":{"id":52,"area_m2":900,"px":9,"rank":75,"persistent":false},"geometry":{"type":"Polygon","coordinates":[[[-122.683503,45.629838],[-122.683502,45.630018],[-122.683117,45.630017],[-122.683095,45.629943],[-122.682989,45.629927],[-122.68299,45.629837],[-122.683096,45.629821],[-122.683119,45.629747],[-122.683375,45.629748],[-122.683397,45.629822],[-122.683503,45.629838]]]}},{"type":"Feature","properties":{"id":96,"area_m2":900,"px":9,"rank":76,"persistent":false},"geometry":{"type":"Polygon","coordinates":[[[-122.673126,45.62684],[-122.673094,45.626886],[-122.673128,45.626929],[-122.673127,45.627108],[-122.672871,45.627108],[-122.672872,45.626838],[-122.672907,45.626795],[-122.672873,45.626748],[-122.672874,45.626568],[-122.673002,45.626568],[-122.673024,45.626642],[-122.67313,45.626659],[-122.673126,45.62684]]]}},{"type":"Feature","properties":{"id":1,"area_m2":800,"px":8,"rank":77,"persistent":false},"geometry":{"type":"Polygon","coordinates":[[[-122.685794,45.633175],[-122.685793,45.633265],[-122.685408,45.633264],[-122.685386,45.633189],[-122.685281,45.633173],[-122.685282,45.632993],[-122.685538,45.632994],[-122.68556,45.633068],[-122.685666,45.633084],[-122.6857,45.633165],[-122.685794,45.633175]]]}},{"type":"Feature","properties":{"id":9,"area_m2":800,"px":8,"rank":78,"persistent":true},"geometry":{"type":"Polygon","coordinates":[[[-122.682719,45.632356],[-122.682718,45.632536],[-122.682612,45.632552],[-122.682589,45.632626],[-122.682333,45.632625],[-122.68231,45.632551],[-122.682205,45.632535],[-122.682205,45.632445],[-122.682421,45.632439],[-122.682459,45.632407],[-122.682463,45.632355],[-122.682719,45.632356]]]}},{"type":"Feature","properties":{"id":18,"area_m2":800,"px":8,"rank":79,"persistent":false},"geometry":{"type":"Polygon","coordinates":[[[-122.67451,45.631973],[-122.674508,45.632333],[-122.673867,45.632331],[-122.673867,45.632241],[-122.674352,45.63223],[-122.67438,45.632194],[-122.674382,45.631973],[-122.67451,45.631973]]]}},{"type":"Feature","properties":{"id":113,"area_m2":800,"px":8,"rank":80,"persistent":false},"geometry":{"type":"Polygon","coordinates":[[[-122.674297,45.624412],[-122.674296,45.624592],[-122.674074,45.6246],[-122.67404,45.62464],[-122.674039,45.624771],[-122.673911,45.62477],[-122.673913,45.624411],[-122.674297,45.624412]]]}},{"type":"Feature","properties":{"id":117,"area_m2":800,"px":8,"rank":81,"persistent":false},"geometry":{"type":"Polygon","coordinates":[[[-122.673403,45.623779],[-122.673402,45.623959],[-122.673274,45.623959],[-122.673261,45.623893],[-122.673197,45.623868],[-122.673052,45.623877],[-122.673017,45.623958],[-122.672889,45.623957],[-122.672891,45.623598],[-122.673019,45.623598],[-122.67302,45.623734],[-122.673059,45.623772],[-122.673403,45.623779]]]}},{"type":"Feature","properties":{"id":116,"area_m2":800,"px":8,"rank":82,"persistent":false},"geometry":{"type":"Polygon","coordinates":[[[-122.676738,45.623788],[-122.676738,45.623878],[-122.676632,45.623894],[-122.676609,45.623968],[-122.676352,45.623967],[-122.676325,45.62389],[-122.676096,45.623877],[-122.676074,45.623802],[-122.675969,45.623786],[-122.675935,45.623705],[-122.675841,45.623696],[-122.675842,45.623516],[-122.67597,45.623516],[-122.675987,45.623677],[-122.676097,45.623697],[-122.676103,45.623753],[-122.676144,45.623783],[-122.676353,45.623787],[-122.676359,45.623844],[-122.6764,45.623873],[-122.676562,45.623874],[-122.676604,45.623845],[-122.67661,45.623788],[-122.676738,45.623788]]]}},{"type":"Feature","properties":{"id":2,"area_m2":700,"px":7,"rank":83,"persistent":false},"geometry":{"type":"Polygon","coordinates":[[[-122.673477,45.63305],[-122.673476,45.63323],[-122.67322,45.633229],[-122.673223,45.632779],[-122.673351,45.63278],[-122.673353,45.633011],[-122.673397,45.633046],[-122.673477,45.63305]]]}},{"type":"Feature","properties":{"id":4,"area_m2":700,"px":7,"rank":84,"persistent":false},"geometry":{"type":"Polygon","coordinates":[[[-122.673096,45.632509],[-122.673095,45.632689],[-122.673007,45.632695],[-122.672967,45.632737],[-122.672964,45.633139],[-122.672836,45.633138],[-122.672838,45.632688],[-122.672912,45.632686],[-122.672958,45.63266],[-122.672968,45.632509],[-122.673096,45.632509]]]}},{"type":"Feature","properties":{"id":30,"area_m2":700,"px":7,"rank":85,"persistent":false},"geometry":{"type":"Polygon","coordinates":[[[-122.671177,45.631513],[-122.671176,45.631693],[-122.670974,45.631695],[-122.670925,45.631726],[-122.670919,45.631783],[-122.670791,45.631782],[-122.670806,45.631637],[-122.670757,45.631605],[-122.670664,45.631602],[-122.670664,45.631512],[-122.671177,45.631513]]]}},{"type":"Feature","properties":{"id":43,"area_m2":700,"px":7,"rank":86,"persistent":false},"geometry":{"type":"Polygon","coordinates":[[[-122.684269,45.63047],[-122.684269,45.63056],[-122.684188,45.630564],[-122.684143,45.630598],[-122.684139,45.63074],[-122.684011,45.630739],[-122.684011,45.630513],[-122.683972,45.630476],[-122.683884,45.630469],[-122.683885,45.630289],[-122.684014,45.63029],[-122.684036,45.630364],[-122.684141,45.63038],[-122.684175,45.630461],[-122.684269,45.63047]]]}},{"type":"Feature","properties":{"id":66,"area_m2":700,"px":7,"rank":87,"persistent":false},"geometry":{"type":"Polygon","coordinates":[[[-122.673377,45.628189],[-122.673377,45.628279],[-122.67319,45.628279],[-122.673133,45.628303],[-122.673118,45.628639],[-122.67299,45.628638],[-122.672993,45.628188],[-122.673377,45.628189]]]}},{"type":"Feature","properties":{"id":73,"area_m2":700,"px":7,"rank":88,"persistent":false},"geometry":{"type":"Polygon","coordinates":[[[-122.682487,45.628035],[-122.682486,45.628125],[-122.68238,45.628141],[-122.682357,45.628215],[-122.682229,45.628214],[-122.682221,45.628063],[-122.682176,45.628036],[-122.682102,45.628034],[-122.682068,45.627953],[-122.681974,45.627943],[-122.681975,45.627854],[-122.682103,45.627854],[-122.682163,45.627878],[-122.682231,45.627854],[-122.682359,45.627855],[-122.682368,45.628006],[-122.682413,45.628032],[-122.682487,45.628035]]]}},{"type":"Feature","properties":{"id":99,"area_m2":700,"px":7,"rank":89,"persistent":false},"geometry":{"type":"Polygon","coordinates":[[[-122.673643,45.62666],[-122.673642,45.62684],[-122.673257,45.626839],[-122.673258,45.626659],[-122.673364,45.626643],[-122.673387,45.626569],[-122.673515,45.62657],[-122.673537,45.626644],[-122.673643,45.62666]]]}},{"type":"Feature","properties":{"id":108,"area_m2":700,"px":7,"rank":90,"persistent":false},"geometry":{"type":"Polygon","coordinates":[[[-122.673522,45.6254],[-122.673521,45.625579],[-122.673008,45.625578],[-122.673008,45.625488],[-122.673114,45.625472],[-122.673137,45.625398],[-122.673522,45.6254]]]}},{"type":"Feature","properties":{"id":60,"area_m2":600,"px":6,"rank":91,"persistent":false},"geometry":{"type":"Polygon","coordinates":[[[-122.683509,45.628668],[-122.683508,45.628848],[-122.683124,45.628847],[-122.683125,45.628667],[-122.683509,45.628668]]]}},{"type":"Feature","properties":{"id":62,"area_m2":600,"px":6,"rank":92,"persistent":false},"geometry":{"type":"Polygon","coordinates":[[[-122.675301,45.628375],[-122.675299,45.628735],[-122.675042,45.628734],[-122.675043,45.628644],[-122.675137,45.628635],[-122.675171,45.62859],[-122.675159,45.628488],[-122.675044,45.628464],[-122.675044,45.628374],[-122.675301,45.628375]]]}},{"type":"Feature","properties":{"id":79,"area_m2":600,"px":6,"rank":93,"persistent":false},"geometry":{"type":"Polygon","coordinates":[[[-122.675948,45.627387],[-122.675945,45.627837],[-122.675839,45.627852],[-122.675816,45.627926],[-122.675688,45.627926],[-122.675689,45.627836],[-122.675776,45.62783],[-122.675816,45.627793],[-122.67582,45.627386],[-122.675948,45.627387]]]}},{"type":"Feature","properties":{"id":21,"area_m2":500,"px":5,"rank":94,"persistent":false},"geometry":{"type":"Polygon","coordinates":[[[-122.675664,45.632156],[-122.675663,45.632246],[-122.675407,45.632245],[-122.675394,45.632179],[-122.675279,45.632155],[-122.675245,45.632074],[-122.675023,45.632064],[-122.675023,45.631974],[-122.67528,45.631975],[-122.675293,45.632041],[-122.675408,45.632066],[-122.675441,45.632147],[-122.675664,45.632156]]]}},{"type":"Feature","properties":{"id":25,"area_m2":500,"px":5,"rank":95,"persistent":false},"geometry":{"type":"Polygon","coordinates":[[[-122.685032,45.631732],[-122.685031,45.631822],[-122.684647,45.631821],[-122.684648,45.631641],[-122.684904,45.631642],[-122.684926,45.631716],[-122.685032,45.631732]]]}},{"type":"Feature","properties":{"id":40,"area_m2":500,"px":5,"rank":96,"persistent":false},"geometry":{"type":"Polygon","coordinates":[[[-122.690298,45.630667],[-122.690297,45.630847],[-122.690191,45.630862],[-122.690168,45.630936],[-122.69004,45.630936],[-122.690041,45.630666],[-122.690298,45.630667]]]}},{"type":"Feature","properties":{"id":58,"area_m2":500,"px":5,"rank":97,"persistent":false},"geometry":{"type":"Polygon","coordinates":[[[-122.676964,45.6291],[-122.676963,45.62928],[-122.676759,45.629268],[-122.676712,45.629299],[-122.676706,45.629369],[-122.676578,45.629368],[-122.676579,45.629189],[-122.676685,45.629173],[-122.676708,45.629099],[-122.676964,45.6291]]]}},{"type":"Feature","properties":{"id":119,"area_m2":500,"px":5,"rank":98,"persistent":false},"geometry":{"type":"Polygon","coordinates":[[[-122.673533,45.623419],[-122.673533,45.623509],[-122.672892,45.623507],[-122.672892,45.623417],[-122.673533,45.623419]]]}},{"type":"Feature","properties":{"id":122,"area_m2":500,"px":5,"rank":99,"persistent":false},"geometry":{"type":"Polygon","coordinates":[[[-122.687156,45.618867],[-122.687155,45.619137],[-122.687027,45.619137],[-122.687004,45.619062],[-122.686899,45.619046],[-122.6869,45.618866],[-122.687156,45.618867]]]}},{"type":"Feature","properties":{"id":16,"area_m2":400,"px":4,"rank":100,"persistent":false},"geometry":{"type":"Polygon","coordinates":[[[-122.68413,45.63236],[-122.68413,45.63245],[-122.683873,45.632449],[-122.68387,45.632398],[-122.683833,45.632366],[-122.683617,45.632359],[-122.683618,45.632269],[-122.683874,45.632269],[-122.683877,45.632321],[-122.683914,45.632353],[-122.68413,45.63236]]]}},{"type":"Feature","properties":{"id":20,"area_m2":400,"px":4,"rank":101,"persistent":false},"geometry":{"type":"Polygon","coordinates":[[[-122.676819,45.63207],[-122.676818,45.632249],[-122.676561,45.632249],[-122.676562,45.632069],[-122.676819,45.63207]]]}},{"type":"Feature","properties":{"id":23,"area_m2":400,"px":4,"rank":102,"persistent":false},"geometry":{"type":"Polygon","coordinates":[[[-122.675537,45.631796],[-122.675537,45.631886],[-122.675281,45.631885],[-122.675282,45.631615],[-122.67541,45.631616],[-122.675419,45.631767],[-122.675464,45.631793],[-122.675537,45.631796]]]}},{"type":"Feature","properties":{"id":46,"area_m2":400,"px":4,"rank":103,"persistent":false},"geometry":{"type":"Polygon","coordinates":[[[-122.675545,45.630446],[-122.675544,45.630626],[-122.675288,45.630625],[-122.675289,45.630445],[-122.675545,45.630446]]]}},{"type":"Feature","properties":{"id":75,"area_m2":400,"px":4,"rank":104,"persistent":false},"geometry":{"type":"Polygon","coordinates":[[[-122.670942,45.627822],[-122.67094,45.628092],[-122.670812,45.628092],[-122.67079,45.628018],[-122.670685,45.628002],[-122.670685,45.627912],[-122.670791,45.627896],[-122.670814,45.627822],[-122.670942,45.627822]]]}},{"type":"Feature","properties":{"id":85,"area_m2":400,"px":4,"rank":105,"persistent":false},"geometry":{"type":"Polygon","coordinates":[[[-122.683516,45.627498],[-122.683515,45.627678],[-122.683259,45.627677],[-122.68326,45.627497],[-122.683516,45.627498]]]}},{"type":"Feature","properties":{"id":87,"area_m2":400,"px":4,"rank":106,"persistent":false},"geometry":{"type":"Polygon","coordinates":[[[-122.675692,45.627296],[-122.675691,45.627386],[-122.675178,45.627384],[-122.675179,45.627294],[-122.675692,45.627296]]]}},{"type":"Feature","properties":{"id":120,"area_m2":400,"px":4,"rank":107,"persistent":false},"geometry":{"type":"Polygon","coordinates":[[[-122.67161,45.623324],[-122.671609,45.623414],[-122.671483,45.623413],[-122.671478,45.623362],[-122.671441,45.62333],[-122.671225,45.623323],[-122.671203,45.623248],[-122.671097,45.623232],[-122.671098,45.623142],[-122.671226,45.623143],[-122.671232,45.623199],[-122.67128,45.62323],[-122.671482,45.623233],[-122.671504,45.623308],[-122.67161,45.623324]]]}},{"type":"Feature","properties":{"id":5,"area_m2":300,"px":3,"rank":108,"persistent":false},"geometry":{"type":"Polygon","coordinates":[[[-122.670014,45.63295],[-122.670013,45.63313],[-122.669756,45.633129],[-122.669757,45.633039],[-122.669863,45.633024],[-122.669886,45.63295],[-122.670014,45.63295]]]}},{"type":"Feature","properties":{"id":8,"area_m2":300,"px":3,"rank":109,"persistent":false},"geometry":{"type":"Polygon","coordinates":[[[-122.674635,45.632603],[-122.674634,45.632693],[-122.674432,45.632695],[-122.674383,45.632726],[-122.674377,45.632783],[-122.674249,45.632782],[-122.67425,45.632692],[-122.674355,45.632677],[-122.674378,45.632603],[-122.674635,45.632603]]]}},{"type":"Feature","properties":{"id":36,"area_m2":300,"px":3,"rank":110,"persistent":false},"geometry":{"type":"Polygon","coordinates":[[[-122.680803,45.630911],[-122.680802,45.631001],[-122.680546,45.631],[-122.680547,45.63082],[-122.680675,45.63082],[-122.680697,45.630894],[-122.680803,45.630911]]]}},{"type":"Feature","properties":{"id":38,"area_m2":300,"px":3,"rank":111,"persistent":false},"geometry":{"type":"Polygon","coordinates":[[[-122.676441,45.630808],[-122.67644,45.630988],[-122.676312,45.630988],[-122.67629,45.630914],[-122.676184,45.630898],[-122.676185,45.630808],[-122.676441,45.630808]]]}},{"type":"Feature","properties":{"id":59,"area_m2":300,"px":3,"rank":112,"persistent":false},"geometry":{"type":"Polygon","coordinates":[[[-122.677607,45.628921],[-122.677605,45.629191],[-122.677477,45.629191],[-122.677479,45.628921],[-122.677607,45.628921]]]}},{"type":"Feature","properties":{"id":64,"area_m2":300,"px":3,"rank":113,"persistent":false},"geometry":{"type":"Polygon","coordinates":[[[-122.68056,45.62848],[-122.680559,45.62857],[-122.680358,45.628571],[-122.680309,45.628602],[-122.680302,45.628659],[-122.680174,45.628659],[-122.680175,45.628569],[-122.68028,45.628553],[-122.680304,45.628479],[-122.68056,45.62848]]]}},{"type":"Feature","properties":{"id":71,"area_m2":300,"px":3,"rank":114,"persistent":false},"geometry":{"type":"Polygon","coordinates":[[[-122.683513,45.628128],[-122.683512,45.628218],[-122.683256,45.628217],[-122.683257,45.628037],[-122.683385,45.628038],[-122.683407,45.628112],[-122.683513,45.628128]]]}},{"type":"Feature","properties":{"id":80,"area_m2":300,"px":3,"rank":115,"persistent":false},"geometry":{"type":"Polygon","coordinates":[[[-122.675304,45.627835],[-122.675303,45.627925],[-122.674919,45.627924],[-122.674919,45.627834],[-122.675304,45.627835]]]}},{"type":"Feature","properties":{"id":88,"area_m2":300,"px":3,"rank":116,"persistent":false},"geometry":{"type":"Polygon","coordinates":[[[-122.687751,45.627149],[-122.68775,45.627329],[-122.687622,45.627329],[-122.6876,45.627255],[-122.687495,45.627239],[-122.687495,45.627149],[-122.687751,45.627149]]]}},{"type":"Feature","properties":{"id":98,"area_m2":300,"px":3,"rank":117,"persistent":false},"geometry":{"type":"Polygon","coordinates":[[[-122.683008,45.626686],[-122.683007,45.626776],[-122.682901,45.626792],[-122.682878,45.626866],[-122.68275,45.626866],[-122.682751,45.626686],[-122.683008,45.626686]]]}},{"type":"Feature","properties":{"id":100,"area_m2":300,"px":3,"rank":118,"persistent":false},"geometry":{"type":"Polygon","coordinates":[[[-122.675825,45.626396],[-122.675824,45.626576],[-122.675568,45.626575],[-122.675568,45.626485],[-122.675674,45.62647],[-122.675697,45.626396],[-122.675825,45.626396]]]}},{"type":"Feature","properties":{"id":104,"area_m2":300,"px":3,"rank":119,"persistent":false},"geometry":{"type":"Polygon","coordinates":[[[-122.676342,45.625678],[-122.676341,45.625857],[-122.676213,45.625857],[-122.676211,45.625715],[-122.676167,45.625681],[-122.676086,45.625677],[-122.676087,45.625587],[-122.676215,45.625587],[-122.676237,45.625661],[-122.676342,45.625678]]]}},{"type":"Feature","properties":{"id":105,"area_m2":300,"px":3,"rank":120,"persistent":false},"geometry":{"type":"Polygon","coordinates":[[[-122.683912,45.625519],[-122.683911,45.625789],[-122.683782,45.625788],[-122.683784,45.625518],[-122.683912,45.625519]]]}},{"type":"Feature","properties":{"id":115,"area_m2":300,"px":3,"rank":121,"persistent":false},"geometry":{"type":"Polygon","coordinates":[[[-122.677892,45.623882],[-122.677891,45.624062],[-122.677785,45.624077],[-122.677762,45.624151],[-122.677634,45.624151],[-122.677635,45.624061],[-122.677715,45.624057],[-122.67776,45.624023],[-122.677764,45.623881],[-122.677892,45.623882]]]}},{"type":"Feature","properties":{"id":118,"area_m2":300,"px":3,"rank":122,"persistent":false},"geometry":{"type":"Polygon","coordinates":[[[-122.673788,45.62378],[-122.673787,45.62387],[-122.673661,45.62387],[-122.673637,45.623795],[-122.673531,45.623779],[-122.673532,45.623599],[-122.673661,45.6236],[-122.673669,45.623751],[-122.673714,45.623778],[-122.673788,45.62378]]]}}]}