{"type":"FeatureCollection","features":[{"type":"Feature","properties":{"id":105,"area_m2":48000,"px":480,"rank":1,"persistent":false},"geometry":{"type":"Polygon","coordinates":[[[-122.681739,45.624163],[-122.681738,45.624252],[-122.681523,45.624258],[-122.681485,45.62429],[-122.681481,45.624342],[-122.681366,45.624365],[-122.681353,45.624431],[-122.681224,45.624431],[-122.681202,45.624357],[-122.681097,45.624341],[-122.681084,45.624275],[-122.680969,45.62425],[-122.680941,45.624173],[-122.680841,45.62416],[-122.680809,45.624066],[-122.680396,45.624055],[-122.680334,45.624088],[-122.680328,45.624158],[-122.680121,45.624158],[-122.680068,45.624178],[-122.68007,45.624338],[-122.679745,45.624324],[-122.679691,45.624357],[-122.679685,45.624427],[-122.679557,45.624426],[-122.679552,45.624356],[-122.679505,45.624325],[-122.679174,45.624335],[-122.679105,45.624311],[-122.679044,45.624335],[-122.678916,45.624335],[-122.678913,45.624269],[-122.678871,45.624235],[-122.67866,45.624244],[-122.678648,45.624088],[-122.678591,45.624064],[-122.678404,45.624063],[-122.678399,45.623916],[-122.678358,45.623887],[-122.678277,45.623883],[-122.678243,45.623802],[-122.677904,45.623803],[-122.677853,45.623708],[-122.677583,45.623687],[-122.677511,45.623725],[-122.6775,45.623856],[-122.677696,45.623905],[-122.677881,45.623871],[-122.677891,45.624062],[-122.677776,45.624085],[-122.677762,45.624241],[-122.677656,45.624257],[-122.677633,45.624331],[-122.677248,45.62433],[-122.677236,45.624264],[-122.677121,45.624239],[-122.677087,45.624159],[-122.676865,45.624149],[-122.676866,45.623969],[-122.676953,45.623963],[-122.676993,45.623926],[-122.676973,45.623792],[-122.67692,45.623775],[-122.676738,45.623788],[-122.676733,45.623718],[-122.676679,45.623686],[-122.676354,45.623697],[-122.67634,45.623435],[-122.676436,45.623423],[-122.676478,45.623394],[-122.676484,45.623296],[-122.676457,45.62326],[-122.676305,45.623247],[-122.676251,45.623263],[-122.676228,45.623301],[-122.676243,45.623419],[-122.676133,45.623436],[-122.676098,45.623517],[-122.675983,45.62354],[-122.675969,45.623696],[-122.675841,45.623696],[-122.675841,45.623565],[-122.675808,45.623525],[-122.675457,45.623515],[-122.675454,45.623463],[-122.675417,45.623431],[-122.675201,45.623424],[-122.675179,45.62335],[-122.675073,45.623334],[-122.67504,45.623253],[-122.674946,45.623243],[-122.674946,45.623112],[-122.674918,45.623075],[-122.674562,45.623062],[-122.67454,45.622988],[-122.674434,45.622972],[-122.674436,45.622702],[-122.674523,45.622696],[-122.674564,45.622653],[-122.674561,45.62256],[-122.674517,45.622526],[-122.674363,45.622524],[-122.674314,45.622555],[-122.674308,45.622611],[-122.674121,45.622611],[-122.674069,45.62263],[-122.674049,45.623061],[-122.67392,45.62306],[-122.673919,45.622649],[-122.673875,45.622614],[-122.673795,45.62261],[-122.673761,45.622529],[-122.673667,45.622519],[-122.673668,45.62243],[-122.673783,45.622406],[-122.673797,45.62225],[-122.673903,45.622234],[-122.673926,45.62216],[-122.674136,45.62217],[-122.674179,45.622136],[-122.674183,45.622071],[-122.674412,45.622073],[-122.67444,45.621982],[-122.674817,45.62197],[-122.674844,45.621932],[-122.674826,45.621803],[-122.675082,45.621804],[-122.675091,45.621865],[-122.675144,45.621893],[-122.675466,45.621895],[-122.6755,45.621976],[-122.675722,45.621985],[-122.67575,45.622063],[-122.675978,45.622076],[-122.675987,45.622138],[-122.67604,45.622165],[-122.6762,45.622158],[-122.676235,45.622077],[-122.676492,45.622078],[-122.676552,45.622102],[-122.67662,45.622078],[-122.676748,45.622078],[-122.676747,45.622258],[-122.676712,45.622306],[-122.676755,45.62241],[-122.676801,45.622436],[-122.676874,45.622439],[-122.676908,45.62252],[-122.677002,45.622529],[-122.67703,45.622607],[-122.67713,45.622619],[-122.677129,45.622799],[-122.677028,45.622803],[-122.676982,45.622844],[-122.677001,45.623026],[-122.67704,45.623063],[-122.677227,45.623057],[-122.677255,45.623021],[-122.677257,45.62289],[-122.677472,45.622884],[-122.67751,45.622852],[-122.677514,45.622801],[-122.677898,45.622802],[-122.677914,45.623052],[-122.678025,45.623072],[-122.678031,45.623129],[-122.678072,45.623158],[-122.678281,45.623163],[-122.678294,45.623229],[-122.678409,45.623253],[-122.678412,45.623305],[-122.678449,45.623337],[-122.678665,45.623344],[-122.678687,45.623418],[-122.678793,45.623434],[-122.678826,45.623515],[-122.67892,45.623525],[-122.678926,45.623671],[-122.678967,45.623701],[-122.679048,45.623705],[-122.679051,45.623757],[-122.679088,45.623789],[-122.679634,45.623794],[-122.679683,45.623763],[-122.679689,45.623707],[-122.679763,45.623705],[-122.679808,45.623679],[-122.679819,45.623527],[-122.679947,45.623527],[-122.679959,45.623593],[-122.680023,45.623618],[-122.680169,45.623609],[-122.680203,45.623528],[-122.680331,45.623529],[-122.680359,45.623606],[-122.680588,45.623619],[-122.680593,45.623676],[-122.680635,45.623705],[-122.680972,45.62371],[-122.680972,45.623842],[-122.680999,45.623878],[-122.681227,45.623891],[-122.681233,45.623948],[-122.681282,45.623979],[-122.681483,45.623982],[-122.681506,45.624056],[-122.681611,45.624072],[-122.681645,45.624153],[-122.681739,45.624163]],[[-122.674239,45.622251],[-122.674183,45.622267],[-122.674162,45.622301],[-122.674184,45.622393],[-122.674221,45.622425],[-122.674624,45.622432],[-122.674685,45.622404],[-122.674693,45.622296],[-122.674654,45.622259],[-122.674239,45.622251]],[[-122.674819,45.622883],[-122.6749,45.622879],[-122.674945,45.622845],[-122.674945,45.622742],[-122.674894,45.622705],[-122.674733,45.622709],[-122.674695,45.622741],[-122.674691,45.622792],[-122.674611,45.622796],[-122.674566,45.62283],[-122.674566,45.622934],[-122.674617,45.62297],[-122.674785,45.622964],[-122.674819,45.622883]],[[-122.67537,45.622302],[-122.675314,45.62218],[-122.675208,45.622164],[-122.675187,45.622],[-122.675132,45.621984],[-122.674975,45.621999],[-122.674952,45.622037],[-122.674951,45.622343],[-122.674916,45.622386],[-122.674972,45.622507],[-122.675027,45.622523],[-122.675184,45.622508],[-122.675207,45.622434],[-122.675288,45.62243],[-122.675329,45.622401],[-122.67537,45.622302]],[[-122.675716,45.623065],[-122.675704,45.622999],[-122.675589,45.622975],[-122.675585,45.622923],[-122.675548,45.622891],[-122.675259,45.622886],[-122.67521,45.622917],[-122.675204,45.622974],[-122.675123,45.622978],[-122.675081,45.623007],[-122.675077,45.623205],[-122.675136,45.623243],[-122.67533,45.623244],[-122.675343,45.62331],[-122.675458,45.623335],[-122.675461,45.623386],[-122.675498,45.623418],[-122.67566,45.623423],[-122.675708,45.623392],[-122.675715,45.623336],[-122.675802,45.623329],[-122.675843,45.623287],[-122.675838,45.623099],[-122.675797,45.62307],[-122.675716,45.623065]],[[-122.675971,45.622861],[-122.676008,45.622743],[-122.675953,45.622632],[-122.675898,45.622616],[-122.675741,45.622631],[-122.675684,45.622748],[-122.67574,45.62287],[-122.675928,45.622895],[-122.675971,45.622861]],[[-122.67673,45.622912],[-122.676547,45.622864],[-122.676413,45.62289],[-122.676364,45.622921],[-122.676358,45.622977],[-122.676136,45.622986],[-122.676102,45.623025],[-122.676114,45.623133],[-122.676177,45.623157],[-122.676579,45.623149],[-122.676614,45.623068],[-122.676702,45.623062],[-122.676742,45.62302],[-122.67673,45.622912]],[[-122.676732,45.622642],[-122.676541,45.622607],[-122.676491,45.622642],[-122.676489,45.622768],[-122.676547,45.62281],[-122.676696,45.622794],[-122.676743,45.622755],[-122.676732,45.622642]],[[-122.676664,45.623619],[-122.676855,45.623585],[-122.676865,45.623467],[-122.676814,45.623431],[-122.676667,45.623431],[-122.676613,45.623472],[-122.676614,45.623583],[-122.676664,45.623619]],[[-122.679302,45.624155],[-122.679321,45.624111],[-122.679289,45.624075],[-122.679216,45.624067],[-122.679166,45.62409],[-122.679156,45.624132],[-122.679192,45.624169],[-122.679249,45.624179],[-122.679302,45.624155]]]}},{"type":"Feature","properties":{"id":28,"area_m2":44100,"px":441,"rank":2,"persistent":false},"geometry":{"type":"Polygon","coordinates":[[[-122.683504,45.629568],[-122.683504,45.629658],[-122.683378,45.629658],[-122.683367,45.629596],[-122.683314,45.629568],[-122.682735,45.629566],[-122.682713,45.629492],[-122.682607,45.629475],[-122.68259,45.629315],[-122.682539,45.629296],[-122.682352,45.629295],[-122.682349,45.62923],[-122.682313,45.629198],[-122.682095,45.629204],[-122.682027,45.62918],[-122.681861,45.629219],[-122.681837,45.629473],[-122.681743,45.629482],[-122.681708,45.629563],[-122.681628,45.629567],[-122.681586,45.629596],[-122.681578,45.629923],[-122.681463,45.629946],[-122.681449,45.630054],[-122.68149,45.630096],[-122.681577,45.630103],[-122.681576,45.630324],[-122.681604,45.630361],[-122.68196,45.630374],[-122.681959,45.630554],[-122.681772,45.630554],[-122.68172,45.630573],[-122.681674,45.630801],[-122.681762,45.630847],[-122.68183,45.630824],[-122.682214,45.630825],[-122.682213,45.631094],[-122.681648,45.631093],[-122.681594,45.631109],[-122.68157,45.631273],[-122.681476,45.631282],[-122.681442,45.631362],[-122.681361,45.631366],[-122.681319,45.631395],[-122.681278,45.631494],[-122.681312,45.631542],[-122.681311,45.631722],[-122.681206,45.631738],[-122.681182,45.631812],[-122.680926,45.631811],[-122.680927,45.631721],[-122.680961,45.631679],[-122.680927,45.631631],[-122.680928,45.631451],[-122.681016,45.631445],[-122.681056,45.631403],[-122.681051,45.631305],[-122.68098,45.631271],[-122.680835,45.63128],[-122.6808,45.631361],[-122.680706,45.631369],[-122.680671,45.63145],[-122.680556,45.631474],[-122.680541,45.63172],[-122.680436,45.631735],[-122.680413,45.63181],[-122.680156,45.631809],[-122.680154,45.631577],[-122.68011,45.631543],[-122.680029,45.631537],[-122.68003,45.631449],[-122.680111,45.631445],[-122.680155,45.631411],[-122.68016,45.631179],[-122.680266,45.631163],[-122.68029,45.631089],[-122.680417,45.63109],[-122.680445,45.631167],[-122.680597,45.631204],[-122.680673,45.63118],[-122.680895,45.631172],[-122.680929,45.631132],[-122.680931,45.630911],[-122.681042,45.630892],[-122.681092,45.630763],[-122.68106,45.630731],[-122.681055,45.630661],[-122.681015,45.630632],[-122.680548,45.63064],[-122.680526,45.630566],[-122.68042,45.630549],[-122.680421,45.63046],[-122.680783,45.630445],[-122.680826,45.630331],[-122.680779,45.630285],[-122.679267,45.630276],[-122.67927,45.629736],[-122.679376,45.629721],[-122.679399,45.629647],[-122.679621,45.629645],[-122.679675,45.629597],[-122.679644,45.629401],[-122.679587,45.629377],[-122.6794,45.629376],[-122.679401,45.629287],[-122.679617,45.629281],[-122.679654,45.629249],[-122.679658,45.629197],[-122.679773,45.629174],[-122.679787,45.629108],[-122.680124,45.629104],[-122.680166,45.629075],[-122.680172,45.629019],[-122.680401,45.629007],[-122.680429,45.628929],[-122.680768,45.628939],[-122.680811,45.628906],[-122.680815,45.62884],[-122.681417,45.628849],[-122.681456,45.628807],[-122.681458,45.628441],[-122.681418,45.628398],[-122.68133,45.628392],[-122.68133,45.628242],[-122.681292,45.628205],[-122.680818,45.62821],[-122.680806,45.628054],[-122.680691,45.62803],[-122.680678,45.627964],[-122.680563,45.62794],[-122.680558,45.627883],[-122.680516,45.627854],[-122.680375,45.627825],[-122.680226,45.627853],[-122.680184,45.627882],[-122.680178,45.627938],[-122.679537,45.627937],[-122.679515,45.627862],[-122.679409,45.627845],[-122.67941,45.627666],[-122.679511,45.627662],[-122.679557,45.627622],[-122.67954,45.627307],[-122.680182,45.627309],[-122.680187,45.627379],[-122.680234,45.62741],[-122.680566,45.6274],[-122.680583,45.62747],[-122.680694,45.62749],[-122.680728,45.627571],[-122.680822,45.62758],[-122.680849,45.627658],[-122.680949,45.627671],[-122.680977,45.627748],[-122.681077,45.627761],[-122.681105,45.627839],[-122.681333,45.627852],[-122.681355,45.627926],[-122.681461,45.627942],[-122.681495,45.628023],[-122.681589,45.628033],[-122.681621,45.628127],[-122.681845,45.628123],[-122.681848,45.628175],[-122.681885,45.628207],[-122.682101,45.628214],[-122.682118,45.628374],[-122.682228,45.628394],[-122.682262,45.628475],[-122.682356,45.628485],[-122.682384,45.628562],[-122.682484,45.628575],[-122.682479,45.628824],[-122.68261,45.628845],[-122.682616,45.628902],[-122.682658,45.628931],[-122.682867,45.628936],[-122.682889,45.62901],[-122.682994,45.629027],[-122.683007,45.629093],[-122.683122,45.629117],[-122.68315,45.629195],[-122.68325,45.629207],[-122.683258,45.629359],[-122.683304,45.629385],[-122.683377,45.629388],[-122.683394,45.629548],[-122.683504,45.629568]],[[-122.680416,45.630156],[-122.680442,45.63006],[-122.680415,45.630022],[-122.680167,45.630009],[-122.680154,45.629943],[-122.680039,45.629918],[-122.680036,45.629867],[-122.679998,45.629835],[-122.679832,45.629828],[-122.679771,45.629857],[-122.679795,45.629984],[-122.67991,45.630008],[-122.679911,45.630145],[-122.67995,45.630182],[-122.680367,45.630187],[-122.680416,45.630156]],[[-122.680093,45.629468],[-122.680168,45.629425],[-122.680153,45.629218],[-122.680094,45.629198],[-122.679814,45.62921],[-122.679786,45.629252],[-122.679802,45.629448],[-122.679854,45.629468],[-122.680093,45.629468]],[[-122.679974,45.627668],[-122.680048,45.62763],[-122.680043,45.627517],[-122.679991,45.627489],[-122.679835,45.627481],[-122.679796,45.627522],[-122.679804,45.627639],[-122.679857,45.627667],[-122.679974,45.627668]],[[-122.680886,45.62964],[-122.680682,45.62965],[-122.680673,45.629589],[-122.680613,45.62956],[-122.680211,45.62956],[-122.680149,45.629609],[-122.680186,45.629719],[-122.680296,45.629739],[-122.680313,45.629809],[-122.680424,45.629829],[-122.680433,45.629891],[-122.680493,45.629919],[-122.680867,45.62992],[-122.680919,45.629901],[-122.680935,45.629676],[-122.680886,45.62964]],[[-122.680437,45.627579],[-122.680456,45.627534],[-122.680424,45.627499],[-122.680351,45.62749],[-122.680301,45.627514],[-122.680291,45.627555],[-122.680327,45.627592],[-122.680384,45.627603],[-122.680437,45.627579]],[[-122.680449,45.629454],[-122.680751,45.629483],[-122.680805,45.629451],[-122.680789,45.629306],[-122.680484,45.62929],[-122.680429,45.629306],[-122.680408,45.629351],[-122.680449,45.629454]],[[-122.681063,45.630371],[-122.681081,45.630326],[-122.681049,45.630291],[-122.680977,45.630282],[-122.680927,45.630306],[-122.680917,45.630347],[-122.680952,45.630385],[-122.68101,45.630395],[-122.681063,45.630371]],[[-122.681249,45.629202],[-122.681323,45.629164],[-122.681309,45.629042],[-122.681198,45.629021],[-122.681193,45.628965],[-122.681151,45.628935],[-122.68097,45.628943],[-122.680942,45.628985],[-122.680958,45.629181],[-122.68101,45.629201],[-122.681249,45.629202]],[[-122.682278,45.628754],[-122.682351,45.628716],[-122.682338,45.628594],[-122.682227,45.628574],[-122.68221,45.628504],[-122.6821,45.628484],[-122.682087,45.628418],[-122.681972,45.628394],[-122.681938,45.628313],[-122.681798,45.628289],[-122.681743,45.628302],[-122.681715,45.628393],[-122.681634,45.628397],[-122.68159,45.628431],[-122.681603,45.628643],[-122.681655,45.628662],[-122.68197,45.628664],[-122.681976,45.62872],[-122.682017,45.62875],[-122.682278,45.628754]],[[-122.682277,45.629126],[-122.682468,45.629091],[-122.682478,45.628973],[-122.682427,45.628937],[-122.68228,45.628937],[-122.682226,45.628978],[-122.682227,45.62909],[-122.682277,45.629126]],[[-122.683119,45.629385],[-122.683068,45.629363],[-122.683011,45.629373],[-122.682973,45.629415],[-122.682989,45.629456],[-122.683041,45.629476],[-122.683113,45.629464],[-122.68314,45.629427],[-122.683119,45.629385]]]}},{"type":"Feature","properties":{"id":78,"area_m2":36300,"px":363,"rank":3,"persistent":false},"geometry":{"type":"Polygon","coordinates":[[[-122.673646,45.62603],[-122.673646,45.62612],[-122.67354,45.626135],[-122.673517,45.626209],[-122.673402,45.626233],[-122.673388,45.626299],[-122.673262,45.626315],[-122.67324,45.626355],[-122.673259,45.626479],[-122.673151,45.626485],[-122.673111,45.626534],[-122.673139,45.62663],[-122.673199,45.626658],[-122.673352,45.62665],[-122.673387,45.626569],[-122.673643,45.62657],[-122.673642,45.62684],[-122.67329,45.626835],[-122.673257,45.626874],[-122.673256,45.627019],[-122.67315,45.627034],[-122.673127,45.627108],[-122.672871,45.627108],[-122.672869,45.626786],[-122.672825,45.626752],[-122.672745,45.626747],[-122.672711,45.626666],[-122.672281,45.626656],[-122.672217,45.62669],[-122.672229,45.627106],[-122.672114,45.62713],[-122.672102,45.627242],[-122.672169,45.627286],[-122.672613,45.627287],[-122.672609,45.627917],[-122.672481,45.627917],[-122.672421,45.627892],[-122.672351,45.627916],[-122.671711,45.627914],[-122.671712,45.627693],[-122.671672,45.627651],[-122.671497,45.62765],[-122.671459,45.627682],[-122.671456,45.627734],[-122.671071,45.627733],[-122.671054,45.627662],[-122.670943,45.627642],[-122.670909,45.627561],[-122.670816,45.627552],[-122.670788,45.627474],[-122.670559,45.627461],[-122.670561,45.627191],[-122.670689,45.627192],[-122.670689,45.627323],[-122.670716,45.627359],[-122.670875,45.627372],[-122.670942,45.627334],[-122.670946,45.627192],[-122.671047,45.627188],[-122.671091,45.627153],[-122.671095,45.626788],[-122.67105,45.626747],[-122.670949,45.626742],[-122.67095,45.626562],[-122.671055,45.626547],[-122.671089,45.626462],[-122.671435,45.626461],[-122.671464,45.626384],[-122.671544,45.62638],[-122.671586,45.626351],[-122.671592,45.626253],[-122.671565,45.626216],[-122.671249,45.626209],[-122.671211,45.626241],[-122.671208,45.626293],[-122.671092,45.626317],[-122.671068,45.626394],[-122.67089,45.626358],[-122.670735,45.626388],[-122.670695,45.626425],[-122.670693,45.626561],[-122.670565,45.626561],[-122.670564,45.626411],[-122.670513,45.62637],[-122.670054,45.62638],[-122.669985,45.626355],[-122.669924,45.626379],[-122.669796,45.626379],[-122.669798,45.626109],[-122.669909,45.626089],[-122.669961,45.625977],[-122.66991,45.625859],[-122.669799,45.625839],[-122.6698,45.625749],[-122.669906,45.625733],[-122.669929,45.625659],[-122.670185,45.62566],[-122.670197,45.625816],[-122.670253,45.62584],[-122.670441,45.625841],[-122.67044,45.625931],[-122.670405,45.625978],[-122.670445,45.626077],[-122.670487,45.626107],[-122.670614,45.626125],[-122.670687,45.626096],[-122.670696,45.626021],[-122.670807,45.626002],[-122.670825,45.625932],[-122.670936,45.625912],[-122.670954,45.625842],[-122.671065,45.625823],[-122.671083,45.625753],[-122.671526,45.625754],[-122.671583,45.62573],[-122.671587,45.625602],[-122.671542,45.625576],[-122.671469,45.625574],[-122.671468,45.625072],[-122.67141,45.625034],[-122.671215,45.625033],[-122.671216,45.624943],[-122.672242,45.624946],[-122.672253,45.625192],[-122.67231,45.625216],[-122.672497,45.625217],[-122.672488,45.625372],[-122.672545,45.625396],[-122.672752,45.625397],[-122.672752,45.625487],[-122.672646,45.625503],[-122.672623,45.625577],[-122.672249,45.625587],[-122.672233,45.625519],[-122.672191,45.62549],[-122.671908,45.625487],[-122.671854,45.625533],[-122.671874,45.625662],[-122.671935,45.625679],[-122.672227,45.625655],[-122.672278,45.62575],[-122.672494,45.625757],[-122.672515,45.625921],[-122.672675,45.625951],[-122.672746,45.625912],[-122.67275,45.625757],[-122.672856,45.625742],[-122.672879,45.625668],[-122.673264,45.625669],[-122.673267,45.62572],[-122.673304,45.625752],[-122.67352,45.62576],[-122.673522,45.625991],[-122.673566,45.626026],[-122.673646,45.62603]],[[-122.671328,45.627371],[-122.671277,45.62735],[-122.67122,45.62736],[-122.671182,45.627402],[-122.671198,45.627442],[-122.67125,45.627463],[-122.671322,45.627451],[-122.671349,45.627413],[-122.671328,45.627371]],[[-122.671488,45.626098],[-122.671655,45.626128],[-122.671709,45.626104],[-122.671719,45.625973],[-122.671675,45.625938],[-122.671512,45.625911],[-122.671447,45.625946],[-122.671434,45.625992],[-122.671488,45.626098]],[[-122.671588,45.627104],[-122.671554,45.627141],[-122.671568,45.627181],[-122.671626,45.627207],[-122.671683,45.627198],[-122.671714,45.627165],[-122.671704,45.627115],[-122.671649,45.627091],[-122.671588,45.627104]],[[-122.672102,45.626966],[-122.672042,45.626913],[-122.67188,45.626934],[-122.671845,45.626974],[-122.671857,45.627081],[-122.671914,45.627105],[-122.672067,45.627096],[-122.6721,45.627062],[-122.672102,45.626966]],[[-122.672747,45.626337],[-122.67268,45.626284],[-122.672289,45.626298],[-122.67224,45.626329],[-122.672216,45.626436],[-122.672282,45.626476],[-122.672691,45.626475],[-122.672743,45.626439],[-122.672747,45.626337]],[[-122.672354,45.627736],[-122.67232,45.627773],[-122.672334,45.627814],[-122.672392,45.62784],[-122.672449,45.627831],[-122.67248,45.627797],[-122.67247,45.627747],[-122.672415,45.627723],[-122.672354,45.627736]],[[-122.672748,45.626157],[-122.672726,45.62612],[-122.672666,45.626103],[-122.672605,45.626126],[-122.672585,45.626165],[-122.67261,45.626202],[-122.672673,45.626221],[-122.672731,45.626201],[-122.672748,45.626157]]]}},{"type":"Feature","properties":{"id":93,"area_m2":20300,"px":203,"rank":4,"persistent":false},"geometry":{"type":"Polygon","coordinates":[[[-122.683786,45.625068],[-122.683786,45.625158],[-122.683686,45.62517],[-122.683657,45.625248],[-122.683569,45.625254],[-122.68353,45.625291],[-122.683534,45.625394],[-122.683575,45.625424],[-122.683656,45.625428],[-122.683655,45.625518],[-122.683527,45.625518],[-122.683494,45.625437],[-122.683341,45.625427],[-122.68328,45.625455],[-122.683236,45.625559],[-122.683276,45.625664],[-122.683317,45.625693],[-122.683654,45.625698],[-122.683651,45.626238],[-122.682627,45.626235],[-122.682565,45.626211],[-122.682495,45.626235],[-122.681471,45.626232],[-122.681472,45.625735],[-122.681433,45.625698],[-122.681346,45.625692],[-122.681329,45.625531],[-122.681218,45.62551],[-122.681219,45.625421],[-122.681313,45.625412],[-122.681348,45.625332],[-122.681428,45.625328],[-122.68147,45.625299],[-122.681476,45.625015],[-122.681437,45.624978],[-122.68135,45.624971],[-122.681322,45.624894],[-122.681222,45.624881],[-122.681214,45.62464],[-122.681169,45.624613],[-122.681095,45.624611],[-122.681061,45.62453],[-122.680967,45.62452],[-122.68094,45.624443],[-122.68084,45.62443],[-122.68084,45.62434],[-122.680968,45.62434],[-122.68099,45.624415],[-122.681096,45.624431],[-122.681109,45.624497],[-122.681224,45.624521],[-122.681252,45.624599],[-122.681352,45.624612],[-122.681351,45.624743],[-122.681379,45.624779],[-122.681607,45.624792],[-122.681608,45.624929],[-122.681661,45.62497],[-122.681781,45.624986],[-122.681836,45.624974],[-122.681863,45.624883],[-122.681944,45.624879],[-122.681986,45.62485],[-122.681993,45.624703],[-122.682098,45.624688],[-122.682121,45.624614],[-122.682249,45.624614],[-122.682253,45.624666],[-122.68229,45.624698],[-122.682506,45.624705],[-122.682518,45.624771],[-122.682633,45.624795],[-122.682639,45.624852],[-122.68268,45.624881],[-122.683146,45.624887],[-122.683152,45.624943],[-122.683193,45.624973],[-122.683659,45.624978],[-122.683681,45.625052],[-122.683786,45.625068]],[[-122.682259,45.625569],[-122.682244,45.625102],[-122.682192,45.625066],[-122.682045,45.625066],[-122.681992,45.625107],[-122.681989,45.625243],[-122.681909,45.625247],[-122.681867,45.625276],[-122.68186,45.625423],[-122.681779,45.625427],[-122.681738,45.625456],[-122.681734,45.625564],[-122.6818,45.625603],[-122.682194,45.625604],[-122.682259,45.625569]],[[-122.683118,45.625861],[-122.683158,45.625736],[-122.683107,45.625699],[-122.682757,45.625695],[-122.682757,45.625606],[-122.682972,45.625605],[-122.683025,45.625577],[-122.683011,45.625451],[-122.682969,45.625417],[-122.682683,45.625414],[-122.682635,45.625445],[-122.682629,45.625515],[-122.682415,45.625516],[-122.682358,45.625549],[-122.682381,45.625666],[-122.682426,45.625692],[-122.6825,45.625695],[-122.682528,45.625773],[-122.682756,45.625786],[-122.682755,45.626097],[-122.682802,45.626142],[-122.682961,45.626146],[-122.683018,45.626121],[-122.683012,45.625876],[-122.683118,45.625861]],[[-122.683465,45.625955],[-122.683316,45.625971],[-122.683274,45.626],[-122.683248,45.626096],[-122.683294,45.626143],[-122.683462,45.626146],[-122.683518,45.626114],[-122.683516,45.625983],[-122.683465,45.625955]]]}},{"type":"Feature","properties":{"id":58,"area_m2":15700,"px":157,"rank":5,"persistent":false},"geometry":{"type":"Polygon","coordinates":[[[-122.672605,45.628099],[-122.672574,45.628145],[-122.672608,45.628187],[-122.672607,45.628277],[-122.672292,45.628276],[-122.672231,45.628305],[-122.672221,45.628546],[-122.671639,45.628532],[-122.671585,45.628564],[-122.671579,45.628634],[-122.671498,45.628638],[-122.671454,45.628672],[-122.67143,45.628763],[-122.671463,45.628804],[-122.671638,45.628839],[-122.671706,45.628815],[-122.671834,45.628815],[-122.67184,45.628872],[-122.671888,45.628903],[-122.672043,45.628901],[-122.672085,45.628872],[-122.672091,45.628816],[-122.672219,45.628816],[-122.672217,45.629176],[-122.672102,45.6292],[-122.672088,45.629356],[-122.671982,45.629371],[-122.671959,45.629445],[-122.671831,45.629445],[-122.671803,45.629367],[-122.671643,45.62933],[-122.671474,45.629366],[-122.671446,45.629444],[-122.670933,45.629442],[-122.670933,45.629216],[-122.670872,45.629173],[-122.670488,45.629158],[-122.670427,45.629191],[-122.67042,45.629261],[-122.669909,45.629259],[-122.669885,45.629185],[-122.66978,45.629169],[-122.669782,45.628809],[-122.670233,45.628809],[-122.670286,45.628782],[-122.670296,45.628721],[-122.670507,45.628744],[-122.670658,45.628706],[-122.670681,45.628632],[-122.670868,45.628632],[-122.67092,45.628613],[-122.670939,45.628362],[-122.671027,45.628356],[-122.671066,45.628319],[-122.671069,45.628093],[-122.671454,45.628094],[-122.671529,45.628118],[-122.671682,45.628082],[-122.671711,45.628005],[-122.672607,45.628007],[-122.672605,45.628099]],[[-122.671374,45.628634],[-122.671447,45.628596],[-122.671442,45.628482],[-122.67139,45.628455],[-122.671236,45.62846],[-122.671196,45.628497],[-122.671203,45.628605],[-122.671256,45.628632],[-122.671374,45.628634]]]}},{"type":"Feature","properties":{"id":37,"area_m2":13800,"px":138,"rank":6,"persistent":false},"geometry":{"type":"Polygon","coordinates":[[[-122.672599,45.629717],[-122.672598,45.629807],[-122.672511,45.629813],[-122.672471,45.62985],[-122.672468,45.630077],[-122.672363,45.630092],[-122.672329,45.630178],[-122.671876,45.630165],[-122.671809,45.630205],[-122.671831,45.630312],[-122.67188,45.630343],[-122.672284,45.630344],[-122.672333,45.630313],[-122.67235,45.630246],[-122.672467,45.630257],[-122.67249,45.630331],[-122.672595,45.630347],[-122.672594,45.630617],[-122.672488,45.630633],[-122.672465,45.630707],[-122.672102,45.630722],[-122.672078,45.630976],[-122.671934,45.630968],[-122.671946,45.630739],[-122.671904,45.630709],[-122.671762,45.630692],[-122.671696,45.630735],[-122.671694,45.630926],[-122.671734,45.630969],[-122.671837,45.630983],[-122.671821,45.631065],[-122.671565,45.631064],[-122.671504,45.63104],[-122.671436,45.631064],[-122.671308,45.631064],[-122.671309,45.630974],[-122.671396,45.630968],[-122.671437,45.630925],[-122.67144,45.630393],[-122.671371,45.630344],[-122.671239,45.630346],[-122.671187,45.630382],[-122.671181,45.630793],[-122.670831,45.630801],[-122.670797,45.630841],[-122.670795,45.630972],[-122.67048,45.630972],[-122.670428,45.630991],[-122.670409,45.631151],[-122.670281,45.631151],[-122.670283,45.630881],[-122.670517,45.630866],[-122.67054,45.630827],[-122.670519,45.630704],[-122.670459,45.630687],[-122.670324,45.630707],[-122.670272,45.630802],[-122.669899,45.63079],[-122.669918,45.630565],[-122.669873,45.630524],[-122.669772,45.630519],[-122.669773,45.630339],[-122.670158,45.63034],[-122.670226,45.630365],[-122.670374,45.630335],[-122.670411,45.630303],[-122.670415,45.630251],[-122.670509,45.630242],[-122.670544,45.630161],[-122.670617,45.630159],[-122.670663,45.630133],[-122.670673,45.629982],[-122.670801,45.629982],[-122.670807,45.630039],[-122.670855,45.63007],[-122.671057,45.630073],[-122.671046,45.630174],[-122.67085,45.630163],[-122.670792,45.630187],[-122.670801,45.630299],[-122.67084,45.630336],[-122.671015,45.630336],[-122.671067,45.630242],[-122.6714,45.630247],[-122.671438,45.630216],[-122.671442,45.630164],[-122.671529,45.630158],[-122.671569,45.630121],[-122.671571,45.629984],[-122.671606,45.629942],[-122.671572,45.629894],[-122.671573,45.629624],[-122.672086,45.629626],[-122.672147,45.62965],[-122.672215,45.629626],[-122.672471,45.629627],[-122.672493,45.629701],[-122.672599,45.629717]],[[-122.670029,45.63052],[-122.669994,45.630557],[-122.670009,45.630597],[-122.670067,45.630623],[-122.670123,45.630614],[-122.670155,45.63058],[-122.670144,45.630531],[-122.67009,45.630507],[-122.670029,45.63052]],[[-122.672214,45.629756],[-122.672147,45.629703],[-122.671975,45.629735],[-122.671956,45.629895],[-122.671876,45.629899],[-122.671831,45.629933],[-122.671828,45.630026],[-122.671855,45.630063],[-122.672036,45.630072],[-122.672078,45.630042],[-122.672084,45.629986],[-122.672195,45.629966],[-122.672214,45.629756]]]}},{"type":"Feature","properties":{"id":76,"area_m2":12600,"px":126,"rank":7,"persistent":false},"geometry":{"type":"Polygon","coordinates":[[[-122.675948,45.627387],[-122.675945,45.627927],[-122.67556,45.627925],[-122.675579,45.627791],[-122.675519,45.627746],[-122.675176,45.627744],[-122.675116,45.62772],[-122.675048,45.627744],[-122.674866,45.62773],[-122.674794,45.627768],[-122.67479,45.627923],[-122.673894,45.627921],[-122.673832,45.627896],[-122.673762,45.62792],[-122.672935,45.627918],[-122.672869,45.627956],[-122.672865,45.628098],[-122.672737,45.628097],[-122.672742,45.627197],[-122.67287,45.627198],[-122.672876,45.627254],[-122.672924,45.627286],[-122.673254,45.627289],[-122.673315,45.627313],[-122.673385,45.627289],[-122.673511,45.62729],[-122.673571,45.627314],[-122.673641,45.62729],[-122.674794,45.627293],[-122.674806,45.627359],[-122.67487,45.627383],[-122.675016,45.627375],[-122.67505,45.627294],[-122.67582,45.627296],[-122.675842,45.62737],[-122.675948,45.627387]]]}},{"type":"Feature","properties":{"id":6,"area_m2":12100,"px":121,"rank":8,"persistent":true},"geometry":{"type":"Polygon","coordinates":[[[-122.690292,45.631747],[-122.690284,45.633097],[-122.690028,45.633096],[-122.690006,45.633022],[-122.6899,45.633006],[-122.689899,45.632869],[-122.689839,45.632827],[-122.689692,45.632829],[-122.68965,45.632859],[-122.689644,45.632915],[-122.689516,45.632915],[-122.689494,45.632841],[-122.689343,45.632802],[-122.689258,45.632824],[-122.688747,45.632823],[-122.688686,45.632798],[-122.688618,45.632822],[-122.68849,45.632822],[-122.688487,45.63277],[-122.68845,45.632738],[-122.688234,45.632731],[-122.688234,45.632641],[-122.68834,45.632626],[-122.688363,45.632552],[-122.688565,45.63255],[-122.688614,45.632519],[-122.68862,45.632462],[-122.688849,45.632451],[-122.688877,45.632373],[-122.688977,45.632361],[-122.689006,45.632283],[-122.689106,45.632271],[-122.689135,45.632194],[-122.689229,45.632185],[-122.689264,45.632104],[-122.689375,45.632085],[-122.689393,45.632014],[-122.689621,45.632003],[-122.68965,45.631925],[-122.689744,45.631916],[-122.689778,45.631835],[-122.689889,45.631816],[-122.689907,45.631746],[-122.690035,45.631746],[-122.690096,45.63177],[-122.690164,45.631747],[-122.690292,45.631747]]]}},{"type":"Feature","properties":{"id":3,"area_m2":11600,"px":116,"rank":9,"persistent":false},"geometry":{"type":"Polygon","coordinates":[[[-122.672583,45.632508],[-122.67258,45.632867],[-122.672475,45.632883],[-122.672452,45.632957],[-122.672336,45.632981],[-122.672323,45.633047],[-122.672195,45.633046],[-122.672182,45.63298],[-122.672118,45.632956],[-122.671973,45.632965],[-122.671938,45.633046],[-122.671681,45.633045],[-122.671664,45.632975],[-122.671554,45.632955],[-122.671542,45.632875],[-122.671465,45.632851],[-122.671345,45.632868],[-122.671303,45.632897],[-122.671296,45.633134],[-122.671039,45.633133],[-122.671031,45.633072],[-122.670978,45.633044],[-122.670717,45.633043],[-122.670656,45.633085],[-122.670654,45.633222],[-122.670526,45.633222],[-122.670527,45.632952],[-122.670562,45.632909],[-122.670528,45.632862],[-122.670529,45.632592],[-122.670914,45.632593],[-122.670948,45.632674],[-122.671101,45.632683],[-122.671161,45.632655],[-122.671171,45.632594],[-122.671252,45.63259],[-122.671296,45.632555],[-122.671301,45.632324],[-122.671395,45.632315],[-122.671429,45.63227],[-122.671431,45.631833],[-122.671391,45.63179],[-122.671304,45.631784],[-122.671305,45.631604],[-122.671399,45.631595],[-122.671434,45.631514],[-122.671515,45.63151],[-122.671556,45.631481],[-122.671564,45.631154],[-122.671692,45.631155],[-122.671715,45.631229],[-122.67182,45.631245],[-122.671819,45.631425],[-122.671731,45.631431],[-122.671691,45.631474],[-122.671697,45.631846],[-122.671758,45.631875],[-122.672073,45.631876],[-122.67207,45.632326],[-122.671883,45.632326],[-122.671831,45.632345],[-122.671801,45.632566],[-122.671862,45.632595],[-122.672256,45.632596],[-122.672317,45.632568],[-122.672326,45.632507],[-122.672583,45.632508]]]}},{"type":"Feature","properties":{"id":85,"area_m2":9900,"px":99,"rank":10,"persistent":true},"geometry":{"type":"Polygon","coordinates":[[[-122.679925,45.626769],[-122.679894,45.626815],[-122.679928,45.626858],[-122.679926,45.627128],[-122.67982,45.627143],[-122.679797,45.627217],[-122.679413,45.627216],[-122.6794,45.62715],[-122.679336,45.627126],[-122.678456,45.627124],[-122.678396,45.627152],[-122.678386,45.627213],[-122.678258,45.627213],[-122.678263,45.626403],[-122.678368,45.626387],[-122.678392,45.626313],[-122.678776,45.626314],[-122.678779,45.626456],[-122.678823,45.62649],[-122.678903,45.626495],[-122.67892,45.626655],[-122.678972,45.626675],[-122.679235,45.626687],[-122.679286,45.626646],[-122.679288,45.626455],[-122.679248,45.626412],[-122.679161,45.626405],[-122.679162,45.626136],[-122.67929,45.626136],[-122.679313,45.62621],[-122.679418,45.626226],[-122.679435,45.626297],[-122.679546,45.626317],[-122.67958,45.626398],[-122.679674,45.626407],[-122.679701,45.626485],[-122.679801,45.626497],[-122.679829,45.626575],[-122.679929,45.626588],[-122.679925,45.626769]]]}},{"type":"Feature","properties":{"id":66,"area_m2":9300,"px":93,"rank":11,"persistent":false},"geometry":{"type":"Polygon","coordinates":[[[-122.679149,45.628476],[-122.679147,45.628746],[-122.677993,45.628742],[-122.677984,45.628681],[-122.677931,45.628653],[-122.67748,45.628651],[-122.677477,45.628599],[-122.67744,45.628567],[-122.677224,45.62856],[-122.677227,45.62802],[-122.677333,45.628005],[-122.677356,45.627931],[-122.678254,45.627933],[-122.678276,45.628007],[-122.678382,45.628024],[-122.67838,45.628335],[-122.678408,45.628371],[-122.678893,45.628385],[-122.678896,45.628437],[-122.678933,45.628469],[-122.679149,45.628476]]]}},{"type":"Feature","properties":{"id":70,"area_m2":6900,"px":69,"rank":12,"persistent":false},"geometry":{"type":"Polygon","coordinates":[[[-122.685438,45.627863],[-122.685438,45.627953],[-122.685327,45.627973],[-122.685275,45.628085],[-122.685326,45.628203],[-122.685436,45.628223],[-122.685435,45.628493],[-122.684984,45.628493],[-122.684931,45.62852],[-122.684921,45.628582],[-122.683767,45.628579],[-122.683762,45.628432],[-122.68372,45.628403],[-122.683639,45.628398],[-122.683618,45.628311],[-122.683566,45.628294],[-122.683383,45.628307],[-122.683361,45.628233],[-122.683256,45.628217],[-122.683222,45.628136],[-122.683128,45.628127],[-122.683128,45.628037],[-122.683234,45.628021],[-122.683257,45.627947],[-122.683385,45.627948],[-122.683388,45.627999],[-122.683426,45.628031],[-122.683641,45.628038],[-122.683654,45.628104],[-122.683769,45.628129],[-122.683775,45.628185],[-122.683816,45.628215],[-122.68422,45.628219],[-122.684281,45.628177],[-122.684283,45.62795],[-122.684412,45.62795],[-122.684472,45.627975],[-122.68454,45.627951],[-122.684668,45.627951],[-122.68469,45.628025],[-122.684796,45.628041],[-122.684795,45.628131],[-122.684708,45.628138],[-122.684667,45.62818],[-122.684669,45.628376],[-122.684755,45.628414],[-122.6849,45.628386],[-122.684923,45.628222],[-122.685017,45.62822],[-122.685063,45.628192],[-122.685053,45.628042],[-122.68514,45.628036],[-122.68518,45.627999],[-122.685182,45.627772],[-122.685311,45.627773],[-122.685333,45.627847],[-122.685438,45.627863]]]}},{"type":"Feature","properties":{"id":87,"area_m2":6700,"px":67,"rank":13,"persistent":false},"geometry":{"type":"Polygon","coordinates":[[[-122.687111,45.626968],[-122.687111,45.627058],[-122.687005,45.627073],[-122.686982,45.627147],[-122.686725,45.627147],[-122.68672,45.62709],[-122.686678,45.627061],[-122.686341,45.627055],[-122.686338,45.627004],[-122.686301,45.626972],[-122.686031,45.626951],[-122.68596,45.626989],[-122.685956,45.627144],[-122.685699,45.627144],[-122.685686,45.627078],[-122.685571,45.627053],[-122.685566,45.626983],[-122.685519,45.626952],[-122.68493,45.626962],[-122.684908,45.626887],[-122.684803,45.626871],[-122.684804,45.626691],[-122.684932,45.626692],[-122.684941,45.626753],[-122.684993,45.626781],[-122.685503,45.626783],[-122.685564,45.626755],[-122.685573,45.626693],[-122.685775,45.626692],[-122.685824,45.626661],[-122.68583,45.626604],[-122.686017,45.626604],[-122.68607,45.626585],[-122.686084,45.626463],[-122.68604,45.626429],[-122.68596,45.626424],[-122.685959,45.626288],[-122.68592,45.626251],[-122.685191,45.626242],[-122.685192,45.626152],[-122.685297,45.626137],[-122.68532,45.626063],[-122.685436,45.626039],[-122.685449,45.625973],[-122.685577,45.625973],[-122.68561,45.626068],[-122.685833,45.626064],[-122.685855,45.626138],[-122.685961,45.626154],[-122.685995,45.626235],[-122.686089,45.626245],[-122.686097,45.626396],[-122.686143,45.626423],[-122.686216,45.626425],[-122.68625,45.626506],[-122.686344,45.626516],[-122.686349,45.626662],[-122.68639,45.626692],[-122.686471,45.626696],[-122.686493,45.62677],[-122.686727,45.626787],[-122.68674,45.626853],[-122.686855,45.626877],[-122.686861,45.626934],[-122.686902,45.626963],[-122.687111,45.626968]]]}},{"type":"Feature","properties":{"id":30,"area_m2":6200,"px":62,"rank":14,"persistent":false},"geometry":{"type":"Polygon","coordinates":[[[-122.674641,45.631523],[-122.67464,45.631613],[-122.674535,45.631629],[-122.674512,45.631703],[-122.674296,45.631709],[-122.674258,45.631741],[-122.674255,45.631792],[-122.673742,45.631791],[-122.673736,45.631734],[-122.673687,45.631703],[-122.673357,45.6317],[-122.673346,45.631454],[-122.67317,45.631405],[-122.673102,45.631429],[-122.672974,45.631428],[-122.672952,45.631264],[-122.672718,45.631248],[-122.672719,45.631068],[-122.673359,45.63107],[-122.673421,45.631094],[-122.673491,45.63107],[-122.674189,45.631072],[-122.67425,45.631044],[-122.674259,45.630982],[-122.674388,45.630983],[-122.67441,45.631057],[-122.674515,45.631073],[-122.674515,45.631163],[-122.67448,45.631205],[-122.674514,45.631253],[-122.674514,45.631343],[-122.674285,45.631355],[-122.674257,45.631391],[-122.67426,45.631484],[-122.674326,45.631522],[-122.674641,45.631523]],[[-122.673613,45.631302],[-122.673634,45.6312],[-122.67359,45.631165],[-122.673427,45.631146],[-122.673366,45.63118],[-122.673361,45.631296],[-122.673407,45.631336],[-122.673575,45.631334],[-122.673613,45.631302]]]}},{"type":"Feature","properties":{"id":43,"area_m2":5800,"px":58,"rank":15,"persistent":false},"geometry":{"type":"Polygon","coordinates":[[[-122.679139,45.630096],[-122.679138,45.630276],[-122.679044,45.630285],[-122.67901,45.63033],[-122.679022,45.630432],[-122.679137,45.630456],[-122.679136,45.630636],[-122.679031,45.630651],[-122.679008,45.630725],[-122.678751,45.630725],[-122.678739,45.630659],[-122.678675,45.630635],[-122.678529,45.630643],[-122.678494,45.630724],[-122.67811,45.630723],[-122.678109,45.630496],[-122.67807,45.630459],[-122.677983,45.630453],[-122.677984,45.630363],[-122.678057,45.630361],[-122.678103,45.630334],[-122.678113,45.630093],[-122.678219,45.630077],[-122.678242,45.630003],[-122.679012,45.630006],[-122.679034,45.63008],[-122.679139,45.630096]]]}},{"type":"Feature","properties":{"id":103,"area_m2":5500,"px":55,"rank":16,"persistent":false},"geometry":{"type":"Polygon","coordinates":[[[-122.674426,45.624322],[-122.674426,45.624412],[-122.674325,45.624424],[-122.674297,45.624502],[-122.674203,45.62451],[-122.674168,45.624591],[-122.674053,45.624615],[-122.674039,45.624771],[-122.673828,45.624761],[-122.673785,45.624795],[-122.673782,45.62486],[-122.672884,45.624858],[-122.672862,45.624783],[-122.672756,45.624767],[-122.672759,45.624317],[-122.672832,45.624315],[-122.672878,45.624289],[-122.672888,45.624138],[-122.674042,45.624141],[-122.674041,45.624362],[-122.674075,45.624402],[-122.674243,45.624409],[-122.674292,45.624378],[-122.674298,45.624322],[-122.674426,45.624322]],[[-122.673415,45.624729],[-122.673389,45.624618],[-122.673336,45.62459],[-122.673081,45.624575],[-122.673015,45.624618],[-122.673016,45.62473],[-122.673074,45.624767],[-122.67337,45.624765],[-122.673415,45.624729]],[[-122.673146,45.624407],[-122.673177,45.624371],[-122.673162,45.624331],[-122.673104,45.624305],[-122.673042,45.624317],[-122.673015,45.624353],[-122.673031,45.624401],[-122.673089,45.624422],[-122.673146,45.624407]]]}},{"type":"Feature","properties":{"id":101,"area_m2":5400,"px":54,"rank":17,"persistent":true},"geometry":{"type":"Polygon","coordinates":[[[-122.679682,45.624877],[-122.679681,45.625057],[-122.679447,45.625072],[-122.679424,45.625236],[-122.67922,45.625224],[-122.679173,45.625255],[-122.679167,45.625325],[-122.679039,45.625325],[-122.679021,45.625255],[-122.678911,45.625235],[-122.678877,45.625154],[-122.678783,45.625144],[-122.678755,45.625067],[-122.678527,45.625054],[-122.678505,45.624979],[-122.678399,45.624963],[-122.6784,45.624783],[-122.6785,45.624771],[-122.678529,45.624694],[-122.678623,45.624685],[-122.678658,45.624604],[-122.678769,45.624584],[-122.678787,45.624424],[-122.679044,45.624425],[-122.679066,45.624499],[-122.679171,45.624515],[-122.679188,45.624586],[-122.679299,45.624606],[-122.679333,45.624687],[-122.679427,45.624696],[-122.679455,45.624774],[-122.679555,45.624787],[-122.679582,45.624864],[-122.679682,45.624877]]]}},{"type":"Feature","properties":{"id":92,"area_m2":5300,"px":53,"rank":18,"persistent":true},"geometry":{"type":"Polygon","coordinates":[[[-122.677624,45.625861],[-122.677623,45.626041],[-122.677421,45.626043],[-122.677366,45.626094],[-122.677383,45.626201],[-122.677494,45.626221],[-122.677528,45.626302],[-122.677622,45.626311],[-122.677621,45.626491],[-122.676725,45.626489],[-122.676662,45.626464],[-122.676594,45.626488],[-122.676466,45.626488],[-122.676444,45.626414],[-122.676339,45.626398],[-122.676341,45.625948],[-122.676685,45.625942],[-122.676723,45.62591],[-122.676726,45.625859],[-122.676842,45.625835],[-122.676855,45.625769],[-122.677496,45.625771],[-122.677519,45.625845],[-122.677624,45.625861]],[[-122.676648,45.626422],[-122.676804,45.626395],[-122.676848,45.626361],[-122.676848,45.626072],[-122.676784,45.626039],[-122.676516,45.626042],[-122.676469,45.626087],[-122.676473,45.626365],[-122.676514,45.626394],[-122.676648,45.626422]]]}},{"type":"Feature","properties":{"id":86,"area_m2":5200,"px":52,"rank":19,"persistent":false},"geometry":{"type":"Polygon","coordinates":[[[-122.677492,45.626581],[-122.677489,45.627121],[-122.677383,45.627136],[-122.67736,45.62721],[-122.676206,45.627207],[-122.676183,45.627133],[-122.676078,45.627117],[-122.67608,45.626667],[-122.676186,45.626651],[-122.676209,45.626577],[-122.676466,45.626578],[-122.676474,45.626653],[-122.67654,45.626682],[-122.676694,45.626656],[-122.676722,45.626579],[-122.676979,45.626579],[-122.676987,45.626654],[-122.677053,45.626683],[-122.677207,45.626658],[-122.677235,45.62658],[-122.677492,45.626581]]]}},{"type":"Feature","properties":{"id":36,"area_m2":5000,"px":50,"rank":20,"persistent":true},"geometry":{"type":"Polygon","coordinates":[[[-122.689911,45.630936],[-122.689911,45.631026],[-122.689805,45.631041],[-122.689782,45.631115],[-122.689688,45.631124],[-122.689653,45.631205],[-122.689543,45.631224],[-122.689525,45.631295],[-122.689268,45.631294],[-122.689263,45.631147],[-122.689222,45.631118],[-122.689141,45.631114],[-122.689135,45.631057],[-122.689094,45.631028],[-122.688885,45.631023],[-122.688824,45.630999],[-122.688756,45.631022],[-122.688372,45.631021],[-122.688373,45.630842],[-122.688478,45.630826],[-122.688501,45.630752],[-122.688595,45.630743],[-122.68863,45.630662],[-122.688741,45.630643],[-122.688759,45.630573],[-122.689082,45.630572],[-122.689135,45.630545],[-122.689144,45.630484],[-122.689401,45.630484],[-122.6894,45.630664],[-122.689365,45.630712],[-122.689416,45.630825],[-122.689468,45.630844],[-122.689655,45.630845],[-122.689661,45.630902],[-122.68971,45.630933],[-122.689911,45.630936]]]}},{"type":"Feature","properties":{"id":98,"area_m2":4000,"px":40,"rank":21,"persistent":false},"geometry":{"type":"Polygon","coordinates":[[[-122.674933,45.625404],[-122.674932,45.625493],[-122.674717,45.625499],[-122.674679,45.625531],[-122.674675,45.625583],[-122.674291,45.625582],[-122.67423,45.625557],[-122.674162,45.625581],[-122.674034,45.625581],[-122.674012,45.625507],[-122.673906,45.62549],[-122.67391,45.624951],[-122.674294,45.624952],[-122.674298,45.625278],[-122.674354,45.625311],[-122.674494,45.62531],[-122.674549,45.625264],[-122.67455,45.625042],[-122.674638,45.625036],[-122.674677,45.624999],[-122.67468,45.624773],[-122.674808,45.624773],[-122.674805,45.625354],[-122.674845,45.625397],[-122.674933,45.625404]]]}},{"type":"Feature","properties":{"id":14,"area_m2":3900,"px":39,"rank":22,"persistent":false},"geometry":{"type":"Polygon","coordinates":[[[-122.675534,45.632336],[-122.675533,45.632516],[-122.673866,45.632511],[-122.673868,45.632151],[-122.674124,45.632152],[-122.674192,45.632176],[-122.67434,45.632146],[-122.67438,45.632109],[-122.674382,45.631973],[-122.674488,45.631957],[-122.674511,45.631883],[-122.674639,45.631883],[-122.674661,45.631958],[-122.674767,45.631974],[-122.674766,45.632119],[-122.674799,45.632158],[-122.675151,45.632155],[-122.675184,45.632236],[-122.675407,45.632246],[-122.675429,45.63232],[-122.675534,45.632336]]]}},{"type":"Feature","properties":{"id":96,"area_m2":3800,"px":38,"rank":23,"persistent":false},"geometry":{"type":"Polygon","coordinates":[[[-122.678268,45.625413],[-122.678267,45.625593],[-122.677754,45.625591],[-122.677694,45.625567],[-122.677626,45.625591],[-122.677369,45.62559],[-122.677347,45.625516],[-122.677242,45.6255],[-122.677243,45.62532],[-122.677277,45.625278],[-122.677243,45.62523],[-122.677245,45.62487],[-122.677502,45.624871],[-122.677523,45.625035],[-122.677757,45.625051],[-122.677779,45.625126],[-122.677885,45.625142],[-122.677907,45.625306],[-122.67814,45.625323],[-122.678163,45.625397],[-122.678268,45.625413]]]}},{"type":"Feature","properties":{"id":34,"area_m2":3500,"px":35,"rank":24,"persistent":false},"geometry":{"type":"Polygon","coordinates":[[[-122.678748,45.631175],[-122.678747,45.631445],[-122.678641,45.63146],[-122.678618,45.631534],[-122.67772,45.631532],[-122.677717,45.63148],[-122.67768,45.631448],[-122.677464,45.631441],[-122.677465,45.631261],[-122.677681,45.631255],[-122.677719,45.631224],[-122.677722,45.631172],[-122.678748,45.631175]]]}},{"type":"Feature","properties":{"id":57,"area_m2":3500,"px":35,"rank":25,"persistent":false},"geometry":{"type":"Polygon","coordinates":[[[-122.673758,45.629001],[-122.673756,45.62927],[-122.67365,45.629286],[-122.673627,45.62936],[-122.673304,45.62936],[-122.673251,45.629388],[-122.673242,45.629449],[-122.673114,45.629449],[-122.673114,45.629359],[-122.673195,45.629355],[-122.673237,45.629326],[-122.673242,45.629223],[-122.673203,45.629185],[-122.673115,45.629179],[-122.673103,45.629099],[-122.673027,45.629075],[-122.672907,45.629092],[-122.672862,45.629126],[-122.672857,45.629448],[-122.672729,45.629448],[-122.672732,45.628818],[-122.673245,45.628819],[-122.673249,45.628871],[-122.673286,45.628903],[-122.67363,45.62891],[-122.673652,45.628984],[-122.673758,45.629001]]]}},{"type":"Feature","properties":{"id":73,"area_m2":3500,"px":35,"rank":26,"persistent":false},"geometry":{"type":"Polygon","coordinates":[[[-122.68685,45.627687],[-122.686848,45.628137],[-122.686496,45.628132],[-122.686463,45.628171],[-122.686462,45.628316],[-122.686077,45.628315],[-122.686056,45.628151],[-122.685822,45.628134],[-122.685822,45.628044],[-122.686017,45.628044],[-122.686076,45.628007],[-122.686099,45.62782],[-122.686053,45.627779],[-122.685952,45.627774],[-122.685953,45.627596],[-122.686059,45.627579],[-122.686082,45.627505],[-122.68621,45.627505],[-122.686216,45.627562],[-122.686264,45.627593],[-122.686466,45.627596],[-122.686472,45.627653],[-122.68652,45.627684],[-122.68685,45.627687]],[[-122.686644,45.627956],[-122.686718,45.627918],[-122.686713,45.627805],[-122.68666,45.627778],[-122.686506,45.627782],[-122.686466,45.627819],[-122.686473,45.627927],[-122.686526,45.627955],[-122.686644,45.627956]]]}},{"type":"Feature","properties":{"id":13,"area_m2":3100,"px":31,"rank":27,"persistent":false},"geometry":{"type":"Polygon","coordinates":[[[-122.677717,45.631982],[-122.677714,45.632522],[-122.677073,45.63252],[-122.677077,45.63189],[-122.67759,45.631892],[-122.677612,45.631966],[-122.677717,45.631982]]]}},{"type":"Feature","properties":{"id":56,"area_m2":3000,"px":30,"rank":28,"persistent":false},"geometry":{"type":"Polygon","coordinates":[[[-122.674783,45.629183],[-122.674782,45.629363],[-122.674676,45.629379],[-122.674653,45.629453],[-122.673883,45.629451],[-122.673886,45.629001],[-122.674399,45.629002],[-122.674433,45.629083],[-122.674655,45.629093],[-122.674677,45.629167],[-122.674783,45.629183]]]}},{"type":"Feature","properties":{"id":24,"area_m2":2900,"px":29,"rank":29,"persistent":false},"geometry":{"type":"Polygon","coordinates":[[[-122.675794,45.631887],[-122.675793,45.632067],[-122.675664,45.632066],[-122.675652,45.632],[-122.675537,45.631976],[-122.675534,45.631924],[-122.675496,45.631892],[-122.675338,45.631885],[-122.675263,45.631925],[-122.675279,45.632065],[-122.675153,45.632065],[-122.675139,45.631999],[-122.675023,45.631974],[-122.675001,45.6319],[-122.674896,45.631884],[-122.674898,45.631434],[-122.675014,45.63141],[-122.675028,45.631254],[-122.675133,45.631239],[-122.675156,45.631165],[-122.675669,45.631166],[-122.675669,45.631256],[-122.675634,45.631299],[-122.675668,45.631346],[-122.675668,45.631436],[-122.67554,45.631436],[-122.675464,45.631412],[-122.675381,45.631462],[-122.675411,45.631526],[-122.67541,45.631747],[-122.67545,45.631789],[-122.675537,45.631796],[-122.675541,45.631848],[-122.675578,45.63188],[-122.675794,45.631887]],[[-122.675065,45.631878],[-122.675228,45.631896],[-122.675277,45.63186],[-122.675282,45.631574],[-122.675235,45.631529],[-122.675095,45.631525],[-122.675027,45.631568],[-122.675025,45.631836],[-122.675065,45.631878]]]}},{"type":"Feature","properties":{"id":29,"area_m2":2800,"px":28,"rank":30,"persistent":false},"geometry":{"type":"Polygon","coordinates":[[[-122.679773,45.631448],[-122.679773,45.631538],[-122.679679,45.631547],[-122.679644,45.631627],[-122.67957,45.63163],[-122.679525,45.631656],[-122.679515,45.631807],[-122.679258,45.631806],[-122.679236,45.631732],[-122.67913,45.631716],[-122.679097,45.631635],[-122.679003,45.631626],[-122.679004,45.631446],[-122.679077,45.631443],[-122.679123,45.631417],[-122.679133,45.631266],[-122.679214,45.631262],[-122.679258,45.631228],[-122.679262,45.631086],[-122.67939,45.631087],[-122.679396,45.631143],[-122.679445,45.631174],[-122.679647,45.631177],[-122.679649,45.631409],[-122.679693,45.631443],[-122.679773,45.631448]]]}},{"type":"Feature","properties":{"id":77,"area_m2":2800,"px":28,"rank":31,"persistent":false},"geometry":{"type":"Polygon","coordinates":[[[-122.679155,45.627306],[-122.679153,45.627666],[-122.679073,45.62767],[-122.679028,45.627704],[-122.679024,45.627935],[-122.678918,45.627951],[-122.678893,45.628025],[-122.678767,45.628025],[-122.678761,45.627968],[-122.678712,45.627937],[-122.678382,45.627933],[-122.678384,45.627574],[-122.678465,45.62757],[-122.678509,45.627535],[-122.678514,45.627304],[-122.679155,45.627306]],[[-122.678681,45.627658],[-122.678837,45.627677],[-122.678891,45.627645],[-122.678897,45.627438],[-122.678844,45.627397],[-122.678704,45.627395],[-122.678643,45.627438],[-122.678642,45.627621],[-122.678681,45.627658]]]}},{"type":"Feature","properties":{"id":12,"area_m2":2700,"px":27,"rank":32,"persistent":false},"geometry":{"type":"Polygon","coordinates":[[[-122.681182,45.631902],[-122.68118,45.632172],[-122.68107,45.632191],[-122.681018,45.632298],[-122.681051,45.632351],[-122.68105,45.632531],[-122.68028,45.632529],[-122.680258,45.632455],[-122.680153,45.632439],[-122.680153,45.632349],[-122.680234,45.632345],[-122.680278,45.632311],[-122.680283,45.632169],[-122.680388,45.632154],[-122.680411,45.63208],[-122.68087,45.632079],[-122.680923,45.632038],[-122.680926,45.631901],[-122.681182,45.631902]],[[-122.680545,45.632203],[-122.68052,45.632305],[-122.680552,45.632341],[-122.68074,45.632348],[-122.680791,45.632312],[-122.680792,45.632209],[-122.680741,45.632173],[-122.680594,45.632172],[-122.680545,45.632203]]]}},{"type":"Feature","properties":{"id":33,"area_m2":2600,"px":26,"rank":33,"persistent":true},"geometry":{"type":"Polygon","coordinates":[[[-122.676947,45.631531],[-122.676916,45.631577],[-122.67695,45.63162],[-122.676949,45.63171],[-122.67618,45.631708],[-122.676157,45.631633],[-122.676052,45.631617],[-122.676054,45.631167],[-122.676439,45.631168],[-122.67646,45.631423],[-122.676515,45.631439],[-122.676951,45.63144],[-122.676947,45.631531]]]}},{"type":"Feature","properties":{"id":97,"area_m2":2500,"px":25,"rank":34,"persistent":false},"geometry":{"type":"Polygon","coordinates":[[[-122.675961,45.625136],[-122.675959,45.625406],[-122.675886,45.625409],[-122.67584,45.625435],[-122.67583,45.625586],[-122.675573,45.625585],[-122.675513,45.625561],[-122.675445,45.625585],[-122.675317,45.625585],[-122.675314,45.625443],[-122.67527,45.625409],[-122.67519,45.625404],[-122.67519,45.625314],[-122.675306,45.625291],[-122.67532,45.625135],[-122.675425,45.625119],[-122.675448,45.625045],[-122.675705,45.625046],[-122.675708,45.625097],[-122.675745,45.625129],[-122.675961,45.625136]]]}},{"type":"Feature","properties":{"id":84,"area_m2":2400,"px":24,"rank":35,"persistent":false},"geometry":{"type":"Polygon","coordinates":[[[-122.682494,45.626685],[-122.682492,45.627045],[-122.682155,45.627048],[-122.682109,45.627087],[-122.682106,45.627224],[-122.68185,45.627223],[-122.681842,45.627072],[-122.681796,45.627045],[-122.681723,45.627041],[-122.681723,45.626953],[-122.681829,45.626937],[-122.681884,45.626831],[-122.681853,45.626773],[-122.681853,45.626683],[-122.681981,45.626684],[-122.682049,45.626708],[-122.682183,45.626682],[-122.682232,45.626651],[-122.68224,45.626594],[-122.682367,45.626595],[-122.682389,45.626669],[-122.682494,45.626685]]]}},{"type":"Feature","properties":{"id":18,"area_m2":2300,"px":23,"rank":36,"persistent":false},"geometry":{"type":"Polygon","coordinates":[[[-122.678488,45.631804],[-122.678485,45.632344],[-122.67816,45.632331],[-122.678106,45.632363],[-122.6781,45.632433],[-122.677843,45.632432],[-122.677846,45.631982],[-122.677952,45.631967],[-122.677975,45.631893],[-122.67809,45.631869],[-122.678104,45.631803],[-122.678232,45.631804],[-122.678292,45.631828],[-122.67836,45.631804],[-122.678488,45.631804]],[[-122.67823,45.632253],[-122.678248,45.632209],[-122.678216,45.632173],[-122.678151,45.632164],[-122.678098,45.632184],[-122.678082,45.632224],[-122.678119,45.632267],[-122.678176,45.632277],[-122.67823,45.632253]]]}},{"type":"Feature","properties":{"id":48,"area_m2":2300,"px":23,"rank":37,"persistent":false},"geometry":{"type":"Polygon","coordinates":[[[-122.676833,45.629639],[-122.67683,45.630179],[-122.676188,45.630177],[-122.676166,45.630103],[-122.676061,45.630087],[-122.676061,45.629997],[-122.676377,45.629998],[-122.676437,45.62997],[-122.676443,45.629857],[-122.676399,45.629822],[-122.676319,45.629818],[-122.676319,45.629728],[-122.676535,45.629722],[-122.676573,45.62969],[-122.676576,45.629639],[-122.676833,45.629639]]]}},{"type":"Feature","properties":{"id":75,"area_m2":2300,"px":23,"rank":38,"persistent":false},"geometry":{"type":"Polygon","coordinates":[[[-122.682487,45.627945],[-122.682486,45.628125],[-122.682358,45.628125],[-122.682298,45.6281],[-122.68223,45.628124],[-122.682102,45.628124],[-122.682114,45.627974],[-122.682068,45.627946],[-122.681974,45.627942],[-122.681975,45.627854],[-122.682056,45.62785],[-122.6821,45.627816],[-122.682095,45.627702],[-122.682042,45.627675],[-122.681847,45.627673],[-122.681787,45.627649],[-122.681719,45.627673],[-122.681591,45.627672],[-122.681592,45.627402],[-122.682172,45.627403],[-122.682225,45.627376],[-122.682234,45.627314],[-122.682363,45.627315],[-122.682362,45.627495],[-122.682281,45.627498],[-122.682239,45.627528],[-122.682232,45.627716],[-122.682273,45.627758],[-122.68236,45.627765],[-122.682377,45.627925],[-122.682487,45.627945]]]}},{"type":"Feature","properties":{"id":46,"area_m2":2200,"px":22,"rank":39,"persistent":false},"geometry":{"type":"Polygon","coordinates":[[[-122.670418,45.629621],[-122.670417,45.629891],[-122.670311,45.629907],[-122.670288,45.629981],[-122.670059,45.629979],[-122.670032,45.630015],[-122.67003,45.63016],[-122.669925,45.630175],[-122.669902,45.630249],[-122.669773,45.630249],[-122.669774,45.630069],[-122.669809,45.630027],[-122.669775,45.629979],[-122.669777,45.629619],[-122.670418,45.629621]]]}},{"type":"Feature","properties":{"id":99,"area_m2":2200,"px":22,"rank":40,"persistent":false},"geometry":{"type":"Polygon","coordinates":[[[-122.67378,45.62513],[-122.673779,45.62522],[-122.673674,45.625236],[-122.673651,45.62531],[-122.673557,45.625312],[-122.673515,45.625334],[-122.673521,45.625489],[-122.673416,45.625505],[-122.673393,45.625579],[-122.673008,45.625578],[-122.673009,45.625308],[-122.673117,45.625302],[-122.673157,45.625247],[-122.673085,45.625195],[-122.672999,45.625229],[-122.672882,45.625218],[-122.672883,45.624948],[-122.67314,45.624948],[-122.673152,45.625014],[-122.673267,45.625039],[-122.673273,45.625095],[-122.673322,45.625127],[-122.67378,45.62513]]]}},{"type":"Feature","properties":{"id":16,"area_m2":1900,"px":19,"rank":41,"persistent":false},"geometry":{"type":"Polygon","coordinates":[[[-122.670276,45.632051],[-122.670273,45.632501],[-122.66976,45.632499],[-122.669762,45.632229],[-122.669796,45.632187],[-122.669762,45.632139],[-122.669763,45.632049],[-122.670276,45.632051]]]}},{"type":"Feature","properties":{"id":20,"area_m2":1900,"px":19,"rank":42,"persistent":false},"geometry":{"type":"Polygon","coordinates":[[[-122.689524,45.631385],[-122.689523,45.631565],[-122.689417,45.63158],[-122.689394,45.631654],[-122.689289,45.63167],[-122.689266,45.631744],[-122.689165,45.631756],[-122.689137,45.631834],[-122.689037,45.631846],[-122.689008,45.631923],[-122.688908,45.631935],[-122.688879,45.632013],[-122.688779,45.632025],[-122.68875,45.632103],[-122.688656,45.632111],[-122.688622,45.632192],[-122.688511,45.632212],[-122.688493,45.632282],[-122.688365,45.632282],[-122.688366,45.632012],[-122.688595,45.632],[-122.688623,45.631922],[-122.688723,45.63191],[-122.688752,45.631833],[-122.688852,45.631821],[-122.688881,45.631743],[-122.688981,45.631731],[-122.68901,45.631653],[-122.68911,45.631641],[-122.689138,45.631564],[-122.689232,45.631555],[-122.689267,45.631474],[-122.689378,45.631455],[-122.689396,45.631384],[-122.689524,45.631385]]]}},{"type":"Feature","properties":{"id":23,"area_m2":1900,"px":19,"rank":43,"persistent":false},"geometry":{"type":"Polygon","coordinates":[[[-122.682341,45.631185],[-122.682335,45.632175],[-122.682207,45.632175],[-122.682209,45.631773],[-122.682169,45.631731],[-122.682081,45.631724],[-122.682082,45.631544],[-122.682117,45.631497],[-122.682083,45.631454],[-122.682078,45.631308],[-122.682014,45.631274],[-122.681699,45.631273],[-122.681699,45.631183],[-122.682341,45.631185]]]}},{"type":"Feature","properties":{"id":44,"area_m2":1800,"px":18,"rank":44,"persistent":false},"geometry":{"type":"Polygon","coordinates":[[[-122.677857,45.630092],[-122.677855,45.630362],[-122.677774,45.630366],[-122.67773,45.6304],[-122.677725,45.630632],[-122.677469,45.630631],[-122.677447,45.630557],[-122.677341,45.630541],[-122.677343,45.630271],[-122.677416,45.630269],[-122.677462,45.630243],[-122.677472,45.630091],[-122.677857,45.630092]]]}},{"type":"Feature","properties":{"id":15,"area_m2":1700,"px":17,"rank":45,"persistent":false},"geometry":{"type":"Polygon","coordinates":[[[-122.671174,45.632053],[-122.671172,45.632323],[-122.671067,45.632339],[-122.671043,45.632413],[-122.670928,45.632437],[-122.670915,45.632503],[-122.670402,45.632501],[-122.670402,45.632411],[-122.67049,45.632405],[-122.670529,45.632368],[-122.670532,45.632232],[-122.670566,45.632189],[-122.670532,45.632142],[-122.670533,45.632052],[-122.671174,45.632053]],[[-122.670846,45.632142],[-122.67077,45.632187],[-122.670801,45.632298],[-122.670857,45.632322],[-122.67101,45.632314],[-122.671044,45.632274],[-122.671032,45.632167],[-122.670983,45.632144],[-122.670846,45.632142]]]}},{"type":"Feature","properties":{"id":40,"area_m2":1700,"px":17,"rank":46,"persistent":false},"geometry":{"type":"Polygon","coordinates":[[[-122.676954,45.63081],[-122.676953,45.63099],[-122.676056,45.630987],[-122.676056,45.630897],[-122.676091,45.630855],[-122.676057,45.630807],[-122.676057,45.630717],[-122.676273,45.630711],[-122.67631,45.63068],[-122.676314,45.630628],[-122.676571,45.630629],[-122.676604,45.63071],[-122.676827,45.630719],[-122.676849,45.630794],[-122.676954,45.63081]]]}},{"type":"Feature","properties":{"id":47,"area_m2":1700,"px":17,"rank":47,"persistent":false},"geometry":{"type":"Polygon","coordinates":[[[-122.685555,45.630024],[-122.685554,45.630204],[-122.684656,45.630201],[-122.684657,45.629931],[-122.684763,45.629916],[-122.684786,45.629842],[-122.685427,45.629843],[-122.685436,45.629995],[-122.685481,45.630021],[-122.685555,45.630024]],[[-122.685221,45.630113],[-122.685275,45.630097],[-122.685297,45.630064],[-122.685297,45.629976],[-122.685258,45.629939],[-122.684855,45.629932],[-122.684794,45.62996],[-122.684786,45.630068],[-122.684825,45.630105],[-122.685221,45.630113]]]}},{"type":"Feature","properties":{"id":32,"area_m2":1600,"px":16,"rank":48,"persistent":false},"geometry":{"type":"Polygon","coordinates":[[[-122.689012,45.631113],[-122.689011,45.631293],[-122.688906,45.631309],[-122.688883,45.631383],[-122.688783,45.631395],[-122.688754,45.631473],[-122.68866,45.631481],[-122.688625,45.631562],[-122.688514,45.631582],[-122.688496,45.631652],[-122.688294,45.631654],[-122.688245,45.631685],[-122.688239,45.631741],[-122.688111,45.631741],[-122.688112,45.631651],[-122.688192,45.631647],[-122.688237,45.631613],[-122.688241,45.631471],[-122.688347,45.631456],[-122.68837,45.631382],[-122.688464,45.631373],[-122.688498,45.631292],[-122.688609,45.631272],[-122.688627,45.631202],[-122.688829,45.6312],[-122.688878,45.63117],[-122.688884,45.631113],[-122.689012,45.631113]]]}},{"type":"Feature","properties":{"id":42,"area_m2":1600,"px":16,"rank":49,"persistent":false},"geometry":{"type":"Polygon","coordinates":[[[-122.674903,45.630534],[-122.674903,45.630624],[-122.674822,45.630628],[-122.674778,45.630662],[-122.674773,45.630804],[-122.674668,45.630819],[-122.674645,45.630893],[-122.674388,45.630892],[-122.674366,45.630818],[-122.67426,45.630802],[-122.674261,45.630622],[-122.674367,45.630607],[-122.67439,45.630533],[-122.674506,45.630509],[-122.674519,45.630443],[-122.674776,45.630444],[-122.674798,45.630518],[-122.674903,45.630534]]]}},{"type":"Feature","properties":{"id":49,"area_m2":1600,"px":16,"rank":50,"persistent":false},"geometry":{"type":"Polygon","coordinates":[[[-122.673753,45.629811],[-122.673752,45.629991],[-122.673646,45.630006],[-122.673623,45.63008],[-122.673495,45.63008],[-122.673494,45.629943],[-122.673434,45.629901],[-122.673287,45.629903],[-122.673245,45.629932],[-122.673239,45.629989],[-122.673111,45.629989],[-122.673112,45.629719],[-122.673218,45.629703],[-122.673241,45.629629],[-122.673626,45.62963],[-122.673634,45.629782],[-122.673679,45.629808],[-122.673753,45.629811]]]}},{"type":"Feature","properties":{"id":26,"area_m2":1500,"px":15,"rank":51,"persistent":false},"geometry":{"type":"Polygon","coordinates":[[[-122.684519,45.631641],[-122.684519,45.631731],[-122.684413,45.631747],[-122.68439,45.631821],[-122.684133,45.63182],[-122.684073,45.631796],[-122.684005,45.63182],[-122.683877,45.631819],[-122.683855,45.631745],[-122.683749,45.631729],[-122.68375,45.631549],[-122.684094,45.631543],[-122.684134,45.631506],[-122.684136,45.63137],[-122.684264,45.63137],[-122.684276,45.631616],[-122.684332,45.63164],[-122.684519,45.631641]]]}},{"type":"Feature","properties":{"id":53,"area_m2":1500,"px":15,"rank":52,"persistent":false},"geometry":{"type":"Polygon","coordinates":[[[-122.679145,45.629196],[-122.679144,45.629286],[-122.679038,45.629301],[-122.679015,45.629375],[-122.678685,45.629377],[-122.678636,45.629408],[-122.67863,45.629464],[-122.678374,45.629464],[-122.678351,45.629389],[-122.678246,45.629373],[-122.678246,45.629283],[-122.678433,45.629284],[-122.67849,45.62926],[-122.678504,45.629104],[-122.67876,45.629105],[-122.678769,45.629166],[-122.678822,45.629194],[-122.679145,45.629196]]]}},{"type":"Feature","properties":{"id":69,"area_m2":1500,"px":15,"rank":53,"persistent":false},"geometry":{"type":"Polygon","coordinates":[[[-122.673506,45.62819],[-122.673505,45.62828],[-122.673411,45.628289],[-122.673376,45.628369],[-122.673283,45.628371],[-122.673233,45.628404],[-122.673246,45.628639],[-122.67299,45.628638],[-122.672993,45.628098],[-122.673378,45.628099],[-122.6734,45.628174],[-122.673506,45.62819]]]}},{"type":"Feature","properties":{"id":109,"area_m2":1500,"px":15,"rank":54,"persistent":false},"geometry":{"type":"Polygon","coordinates":[[[-122.673535,45.623149],[-122.673534,45.623239],[-122.673429,45.623255],[-122.673406,45.623329],[-122.672893,45.623327],[-122.672895,45.622967],[-122.673151,45.622968],[-122.673185,45.623049],[-122.673407,45.623059],[-122.673429,45.623133],[-122.673535,45.623149]]]}},{"type":"Feature","properties":{"id":74,"area_m2":1400,"px":14,"rank":55,"persistent":false},"geometry":{"type":"Polygon","coordinates":[[[-122.683001,45.627766],[-122.683,45.628036],[-122.682894,45.628052],[-122.682871,45.628126],[-122.682615,45.628125],[-122.682615,45.628035],[-122.682709,45.628027],[-122.682744,45.627982],[-122.682739,45.627799],[-122.682697,45.62777],[-122.682617,45.627765],[-122.682618,45.627495],[-122.682875,45.627496],[-122.682877,45.627728],[-122.682921,45.627762],[-122.683001,45.627766]]]}},{"type":"Feature","properties":{"id":81,"area_m2":1400,"px":14,"rank":56,"persistent":false},"geometry":{"type":"Polygon","coordinates":[[[-122.676975,45.6273],[-122.676973,45.627659],[-122.676844,45.627659],[-122.676784,45.627635],[-122.676716,45.627659],[-122.676588,45.627658],[-122.676527,45.627634],[-122.676459,45.627658],[-122.676331,45.627658],[-122.676333,45.627388],[-122.676656,45.627388],[-122.676709,45.62736],[-122.676718,45.627299],[-122.676975,45.6273]]]}},{"type":"Feature","properties":{"id":88,"area_m2":1400,"px":14,"rank":57,"persistent":false},"geometry":{"type":"Polygon","coordinates":[[[-122.683648,45.626778],[-122.683648,45.626868],[-122.683542,45.626884],[-122.683519,45.626958],[-122.683332,45.626957],[-122.68328,45.626977],[-122.683262,45.627137],[-122.683005,45.627136],[-122.683007,45.626866],[-122.6831,45.626864],[-122.683143,45.626842],[-122.683136,45.626687],[-122.683242,45.626671],[-122.683265,45.626597],[-122.683393,45.626597],[-122.683415,45.626672],[-122.683521,45.626688],[-122.683554,45.626769],[-122.683648,45.626778]]]}},{"type":"Feature","properties":{"id":11,"area_m2":1300,"px":13,"rank":58,"persistent":false},"geometry":{"type":"Polygon","coordinates":[[[-122.682077,45.632354],[-122.682076,45.632534],[-122.681179,45.632532],[-122.681179,45.632442],[-122.681285,45.632426],[-122.681308,45.632352],[-122.682077,45.632354]]]}},{"type":"Feature","properties":{"id":39,"area_m2":1300,"px":13,"rank":59,"persistent":false},"geometry":{"type":"Polygon","coordinates":[[[-122.680291,45.630639],[-122.680291,45.630729],[-122.68021,45.630733],[-122.680165,45.630767],[-122.680161,45.630909],[-122.680055,45.630924],[-122.680032,45.630998],[-122.679904,45.630998],[-122.679902,45.630766],[-122.679858,45.630732],[-122.679778,45.630728],[-122.679775,45.630586],[-122.679731,45.630552],[-122.67965,45.630547],[-122.679651,45.630457],[-122.679779,45.630458],[-122.679788,45.630519],[-122.67984,45.630547],[-122.680163,45.630549],[-122.680185,45.630623],[-122.680291,45.630639]]]}},{"type":"Feature","properties":{"id":72,"area_m2":1300,"px":13,"rank":60,"persistent":false},"geometry":{"type":"Polygon","coordinates":[[[-122.67992,45.628208],[-122.679918,45.628478],[-122.679405,45.628476],[-122.679407,45.628296],[-122.679441,45.628254],[-122.679407,45.628206],[-122.679408,45.628116],[-122.679792,45.628118],[-122.679814,45.628192],[-122.67992,45.628208]]]}},{"type":"Feature","properties":{"id":17,"area_m2":1000,"px":10,"rank":61,"persistent":false},"geometry":{"type":"Polygon","coordinates":[[[-122.683233,45.632178],[-122.683232,45.632447],[-122.682847,45.632446],[-122.682848,45.632176],[-122.682954,45.632161],[-122.682977,45.632087],[-122.683105,45.632087],[-122.683128,45.632161],[-122.683233,45.632178]]]}},{"type":"Feature","properties":{"id":50,"area_m2":1000,"px":10,"rank":62,"persistent":false},"geometry":{"type":"Polygon","coordinates":[[[-122.683503,45.629748],[-122.683502,45.630018],[-122.683117,45.630017],[-122.683095,45.629943],[-122.682989,45.629927],[-122.68299,45.629837],[-122.683096,45.629821],[-122.683119,45.629747],[-122.683503,45.629748]]]}},{"type":"Feature","properties":{"id":108,"area_m2":1000,"px":10,"rank":63,"persistent":false},"geometry":{"type":"Polygon","coordinates":[[[-122.673788,45.62369],[-122.673788,45.62378],[-122.673531,45.623779],[-122.673526,45.623633],[-122.673485,45.623603],[-122.673404,45.623599],[-122.673376,45.623521],[-122.672892,45.623507],[-122.672892,45.623417],[-122.673533,45.623419],[-122.673556,45.623494],[-122.673661,45.62351],[-122.673673,45.623666],[-122.673788,45.62369]]]}},{"type":"Feature","properties":{"id":1,"area_m2":900,"px":9,"rank":64,"persistent":false},"geometry":{"type":"Polygon","coordinates":[[[-122.685922,45.633175],[-122.685921,45.633265],[-122.685408,45.633264],[-122.685386,45.633189],[-122.685281,45.633173],[-122.685282,45.632993],[-122.685538,45.632994],[-122.685551,45.63306],[-122.685666,45.633084],[-122.6857,45.633165],[-122.685922,45.633175]]]}},{"type":"Feature","properties":{"id":91,"area_m2":900,"px":9,"rank":65,"persistent":false},"geometry":{"type":"Polygon","coordinates":[[[-122.675953,45.626397],[-122.675952,45.626576],[-122.675847,45.626592],[-122.675824,45.626666],[-122.675567,45.626665],[-122.675569,45.626395],[-122.675675,45.62638],[-122.675698,45.626306],[-122.675826,45.626306],[-122.675848,45.62638],[-122.675953,45.626397]]]}},{"type":"Feature","properties":{"id":102,"area_m2":900,"px":9,"rank":66,"persistent":false},"geometry":{"type":"Polygon","coordinates":[[[-122.670831,45.624942],[-122.670829,45.625302],[-122.670316,45.6253],[-122.670317,45.62512],[-122.670445,45.625121],[-122.670513,45.625145],[-122.670661,45.625115],[-122.6707,45.625078],[-122.670703,45.624941],[-122.670831,45.624942]]]}},{"type":"Feature","properties":{"id":9,"area_m2":800,"px":8,"rank":67,"persistent":false},"geometry":{"type":"Polygon","coordinates":[[[-122.674506,45.632603],[-122.674506,45.632693],[-122.6744,45.632709],[-122.674377,45.632783],[-122.674249,45.632782],[-122.674236,45.632716],[-122.674172,45.632692],[-122.674027,45.632701],[-122.673992,45.632781],[-122.673864,45.632781],[-122.673842,45.632707],[-122.673736,45.632691],[-122.673737,45.632601],[-122.674506,45.632603]]]}},{"type":"Feature","properties":{"id":10,"area_m2":800,"px":8,"rank":68,"persistent":true},"geometry":{"type":"Polygon","coordinates":[[[-122.682719,45.632356],[-122.682718,45.632536],[-122.682205,45.632535],[-122.682206,45.632355],[-122.682719,45.632356]]]}},{"type":"Feature","properties":{"id":27,"area_m2":800,"px":8,"rank":69,"persistent":false},"geometry":{"type":"Polygon","coordinates":[[[-122.683237,45.631457],[-122.683235,45.631817],[-122.682979,45.631817],[-122.682981,45.631457],[-122.683237,45.631457]]]}},{"type":"Feature","properties":{"id":35,"area_m2":800,"px":8,"rank":70,"persistent":false},"geometry":{"type":"Polygon","coordinates":[[[-122.683367,45.631188],[-122.683366,45.631368],[-122.683238,45.631367],[-122.683229,45.631306],[-122.683176,45.631278],[-122.682725,45.631276],[-122.682726,45.631096],[-122.682983,45.631097],[-122.682991,45.631158],[-122.683044,45.631186],[-122.683367,45.631188]]]}},{"type":"Feature","properties":{"id":51,"area_m2":800,"px":8,"rank":71,"persistent":false},"geometry":{"type":"Polygon","coordinates":[[[-122.686327,45.629486],[-122.686327,45.629576],[-122.686221,45.629591],[-122.686198,45.629665],[-122.686083,45.629689],[-122.686069,45.629755],[-122.685813,45.629754],[-122.68581,45.629703],[-122.685773,45.629671],[-122.685557,45.629664],[-122.685557,45.629574],[-122.686137,45.629574],[-122.68619,45.629547],[-122.686199,45.629485],[-122.686327,45.629486]]]}},{"type":"Feature","properties":{"id":90,"area_m2":800,"px":8,"rank":72,"persistent":false},"geometry":{"type":"Polygon","coordinates":[[[-122.670434,45.627011],[-122.670433,45.627101],[-122.67005,45.6271],[-122.670026,45.627025],[-122.669921,45.627009],[-122.669923,45.626559],[-122.670051,45.62656],[-122.670066,45.62699],[-122.670118,45.62701],[-122.670434,45.627011]]]}},{"type":"Feature","properties":{"id":4,"area_m2":700,"px":7,"rank":73,"persistent":false},"geometry":{"type":"Polygon","coordinates":[[[-122.673095,45.632599],[-122.673095,45.632689],[-122.673007,45.632695],[-122.672968,45.632732],[-122.672964,45.633139],[-122.672836,45.633138],[-122.672839,45.632598],[-122.673095,45.632599]]]}},{"type":"Feature","properties":{"id":60,"area_m2":700,"px":7,"rank":74,"persistent":false},"geometry":{"type":"Polygon","coordinates":[[[-122.685687,45.629214],[-122.685686,45.629394],[-122.685173,45.629392],[-122.685151,45.629318],[-122.685046,45.629302],[-122.685046,45.629212],[-122.685302,45.629213],[-122.685315,45.629279],[-122.685379,45.629303],[-122.685524,45.629294],[-122.685559,45.629214],[-122.685687,45.629214]]]}},{"type":"Feature","properties":{"id":82,"area_m2":700,"px":7,"rank":75,"persistent":false},"geometry":{"type":"Polygon","coordinates":[[[-122.678,45.627392],[-122.678,45.627482],[-122.677894,45.627498],[-122.677871,45.627572],[-122.677486,45.627571],[-122.677487,45.627481],[-122.677521,45.627439],[-122.677487,45.627391],[-122.677488,45.627301],[-122.677873,45.627302],[-122.677895,45.627376],[-122.678,45.627392]]]}},{"type":"Feature","properties":{"id":100,"area_m2":700,"px":7,"rank":76,"persistent":false},"geometry":{"type":"Polygon","coordinates":[[[-122.671343,45.625123],[-122.671342,45.625303],[-122.671248,45.625312],[-122.671213,45.625357],[-122.671226,45.625459],[-122.671341,45.625483],[-122.67134,45.625573],[-122.671084,45.625572],[-122.671086,45.625213],[-122.671192,45.625197],[-122.671215,45.625123],[-122.671343,45.625123]]]}},{"type":"Feature","properties":{"id":8,"area_m2":600,"px":6,"rank":77,"persistent":false},"geometry":{"type":"Polygon","coordinates":[[[-122.675405,45.632606],[-122.675404,45.632696],[-122.675217,45.632695],[-122.67516,45.632719],[-122.675146,45.632875],[-122.67489,45.632874],[-122.674891,45.632694],[-122.675107,45.632688],[-122.675144,45.632656],[-122.675148,45.632605],[-122.675405,45.632606]]]}},{"type":"Feature","properties":{"id":55,"area_m2":600,"px":6,"rank":78,"persistent":false},"geometry":{"type":"Polygon","coordinates":[[[-122.675809,45.629276],[-122.675808,45.629366],[-122.675702,45.629382],[-122.675679,45.629456],[-122.675423,45.629455],[-122.675424,45.629185],[-122.675553,45.629186],[-122.675558,45.629242],[-122.675607,45.629273],[-122.675809,45.629276]]]}},{"type":"Feature","properties":{"id":65,"area_m2":600,"px":6,"rank":79,"persistent":false},"geometry":{"type":"Polygon","coordinates":[[[-122.683509,45.628668],[-122.683508,45.628848],[-122.683124,45.628847],[-122.683125,45.628667],[-122.683509,45.628668]]]}},{"type":"Feature","properties":{"id":67,"area_m2":600,"px":6,"rank":80,"persistent":false},"geometry":{"type":"Polygon","coordinates":[[[-122.677096,45.62847],[-122.677095,45.62865],[-122.676989,45.628665],[-122.676966,45.62874],[-122.676582,45.628738],[-122.676582,45.628649],[-122.676897,45.628649],[-122.676958,45.628621],[-122.676964,45.628508],[-122.67692,45.628474],[-122.67684,45.628469],[-122.67684,45.628379],[-122.676968,45.62838],[-122.676991,45.628454],[-122.677096,45.62847]]]}},{"type":"Feature","properties":{"id":71,"area_m2":600,"px":6,"rank":81,"persistent":false},"geometry":{"type":"Polygon","coordinates":[[[-122.674402,45.628462],[-122.674402,45.628552],[-122.674147,45.628552],[-122.674123,45.628477],[-122.674017,45.628461],[-122.674019,45.628191],[-122.674147,45.628192],[-122.674159,45.628348],[-122.674274,45.628372],[-122.674308,45.628453],[-122.674402,45.628462]]]}},{"type":"Feature","properties":{"id":7,"area_m2":500,"px":5,"rank":82,"persistent":false},"geometry":{"type":"Polygon","coordinates":[[[-122.685924,45.632815],[-122.685922,45.633085],[-122.685794,45.633085],[-122.685794,45.632858],[-122.685755,45.632821],[-122.685667,45.632814],[-122.685668,45.632634],[-122.685797,45.632635],[-122.685805,45.632786],[-122.68585,45.632812],[-122.685924,45.632815]]]}},{"type":"Feature","properties":{"id":64,"area_m2":500,"px":5,"rank":83,"persistent":false},"geometry":{"type":"Polygon","coordinates":[[[-122.68864,45.628862],[-122.68864,45.628952],[-122.688534,45.628968],[-122.688511,45.629042],[-122.688254,45.629041],[-122.688255,45.628861],[-122.68864,45.628862]]]}},{"type":"Feature","properties":{"id":80,"area_m2":500,"px":5,"rank":84,"persistent":false},"geometry":{"type":"Polygon","coordinates":[[[-122.683388,45.627407],[-122.683387,45.627677],[-122.68313,45.627677],[-122.683131,45.627497],[-122.683237,45.627481],[-122.68326,45.627407],[-122.683388,45.627407]]]}},{"type":"Feature","properties":{"id":94,"area_m2":500,"px":5,"rank":85,"persistent":false},"geometry":{"type":"Polygon","coordinates":[[[-122.674544,45.626122],[-122.674543,45.626212],[-122.674287,45.626212],[-122.674265,45.626137],[-122.674159,45.626121],[-122.67416,45.625941],[-122.674288,45.625942],[-122.674311,45.626016],[-122.674416,45.626032],[-122.67445,45.626113],[-122.674544,45.626122]]]}},{"type":"Feature","properties":{"id":106,"area_m2":500,"px":5,"rank":86,"persistent":false},"geometry":{"type":"Polygon","coordinates":[[[-122.67353,45.623959],[-122.67353,45.624049],[-122.673402,45.624049],[-122.673379,45.623975],[-122.673274,45.623959],[-122.67324,45.623878],[-122.673146,45.623868],[-122.673147,45.623688],[-122.673275,45.623689],[-122.673297,45.623763],[-122.673403,45.623779],[-122.673411,45.62393],[-122.673457,45.623957],[-122.67353,45.623959]]]}},{"type":"Feature","properties":{"id":2,"area_m2":400,"px":4,"rank":87,"persistent":false},"geometry":{"type":"Polygon","coordinates":[[[-122.673606,45.633051],[-122.673605,45.63314],[-122.673499,45.633156],[-122.673476,45.63323],[-122.67322,45.633229],[-122.673221,45.633139],[-122.673326,45.633124],[-122.673349,45.63305],[-122.673606,45.633051]]]}},{"type":"Feature","properties":{"id":5,"area_m2":400,"px":4,"rank":88,"persistent":false},"geometry":{"type":"Polygon","coordinates":[[[-122.670142,45.632951],[-122.670142,45.63304],[-122.670036,45.633056],[-122.670013,45.63313],[-122.669756,45.633129],[-122.669757,45.633039],[-122.669863,45.633024],[-122.669886,45.63295],[-122.670142,45.632951]]]}},{"type":"Feature","properties":{"id":25,"area_m2":400,"px":4,"rank":89,"persistent":false},"geometry":{"type":"Polygon","coordinates":[[[-122.684904,45.631642],[-122.684903,45.631822],[-122.684647,45.631821],[-122.684648,45.631641],[-122.684904,45.631642]]]}},{"type":"Feature","properties":{"id":31,"area_m2":400,"px":4,"rank":90,"persistent":false},"geometry":{"type":"Polygon","coordinates":[[[-122.671177,45.631513],[-122.671177,45.631603],[-122.671071,45.631619],[-122.671048,45.631693],[-122.670932,45.631717],[-122.670919,45.631783],[-122.670791,45.631782],[-122.670791,45.631692],[-122.670872,45.631688],[-122.670916,45.631654],[-122.670921,45.631513],[-122.671177,45.631513]]]}},{"type":"Feature","properties":{"id":38,"area_m2":400,"px":4,"rank":91,"persistent":false},"geometry":{"type":"Polygon","coordinates":[[[-122.680675,45.63082],[-122.680674,45.631],[-122.680417,45.630999],[-122.680418,45.63082],[-122.680675,45.63082]]]}},{"type":"Feature","properties":{"id":52,"area_m2":400,"px":4,"rank":92,"persistent":false},"geometry":{"type":"Polygon","coordinates":[[[-122.684402,45.629571],[-122.684402,45.62966],[-122.683889,45.629659],[-122.683889,45.629569],[-122.684402,45.629571]]]}},{"type":"Feature","properties":{"id":59,"area_m2":400,"px":4,"rank":93,"persistent":false},"geometry":{"type":"Polygon","coordinates":[[[-122.67042,45.629351],[-122.670419,45.629441],[-122.669906,45.629439],[-122.669907,45.62935],[-122.67042,45.629351]]]}},{"type":"Feature","properties":{"id":54,"area_m2":400,"px":4,"rank":94,"persistent":false},"geometry":{"type":"Polygon","coordinates":[[[-122.677733,45.629282],[-122.677732,45.629462],[-122.677476,45.629461],[-122.677477,45.629281],[-122.677733,45.629282]]]}},{"type":"Feature","properties":{"id":63,"area_m2":400,"px":4,"rank":95,"persistent":false},"geometry":{"type":"Polygon","coordinates":[[[-122.683893,45.628939],[-122.683892,45.629029],[-122.683787,45.629045],[-122.683764,45.629119],[-122.683635,45.629118],[-122.683613,45.629044],[-122.683508,45.629028],[-122.683508,45.628938],[-122.683893,45.628939]]]}},{"type":"Feature","properties":{"id":83,"area_m2":400,"px":4,"rank":96,"persistent":false},"geometry":{"type":"Polygon","coordinates":[[[-122.670047,45.62728],[-122.670046,45.62746],[-122.66979,45.627459],[-122.669791,45.627279],[-122.670047,45.62728]]]}},{"type":"Feature","properties":{"id":107,"area_m2":400,"px":4,"rank":97,"persistent":false},"geometry":{"type":"Polygon","coordinates":[[[-122.676609,45.623878],[-122.676609,45.623968],[-122.676483,45.623968],[-122.676478,45.623916],[-122.67644,45.623884],[-122.676225,45.623877],[-122.676203,45.623803],[-122.676097,45.623787],[-122.676098,45.623697],[-122.676226,45.623697],[-122.676231,45.623754],[-122.67628,45.623785],[-122.676482,45.623788],[-122.676504,45.623862],[-122.676609,45.623878]]]}},{"type":"Feature","properties":{"id":19,"area_m2":300,"px":3,"rank":98,"persistent":false},"geometry":{"type":"Polygon","coordinates":[[[-122.683874,45.632269],[-122.683874,45.632359],[-122.683489,45.632358],[-122.683489,45.632268],[-122.683874,45.632269]]]}},{"type":"Feature","properties":{"id":21,"area_m2":300,"px":3,"rank":99,"persistent":false},"geometry":{"type":"Polygon","coordinates":[[[-122.676819,45.63207],[-122.676818,45.632159],[-122.676713,45.632175],[-122.67669,45.632249],[-122.676561,45.632249],[-122.676562,45.632069],[-122.676819,45.63207]]]}},{"type":"Feature","properties":{"id":22,"area_m2":300,"px":3,"rank":100,"persistent":false},"geometry":{"type":"Polygon","coordinates":[[[-122.675792,45.632157],[-122.675791,45.632247],[-122.675535,45.632246],[-122.675513,45.632172],[-122.675407,45.632155],[-122.675408,45.632066],[-122.675536,45.632066],[-122.675542,45.632123],[-122.67559,45.632154],[-122.675792,45.632157]]]}},{"type":"Feature","properties":{"id":41,"area_m2":300,"px":3,"rank":101,"persistent":false},"geometry":{"type":"Polygon","coordinates":[[[-122.69017,45.630666],[-122.690168,45.630936],[-122.69004,45.630936],[-122.690041,45.630666],[-122.69017,45.630666]]]}},{"type":"Feature","properties":{"id":45,"area_m2":300,"px":3,"rank":102,"persistent":false},"geometry":{"type":"Polygon","coordinates":[[[-122.675545,45.630446],[-122.675544,45.630626],[-122.675416,45.630625],[-122.675394,45.630551],[-122.675288,45.630535],[-122.675289,45.630445],[-122.675545,45.630446]]]}},{"type":"Feature","properties":{"id":61,"area_m2":300,"px":3,"rank":103,"persistent":false},"geometry":{"type":"Polygon","coordinates":[[[-122.677092,45.62919],[-122.677091,45.62928],[-122.676963,45.62928],[-122.67696,45.629228],[-122.676923,45.629196],[-122.676707,45.629189],[-122.676708,45.629099],[-122.676964,45.6291],[-122.676986,45.629174],[-122.677092,45.62919]]]}},{"type":"Feature","properties":{"id":62,"area_m2":300,"px":3,"rank":104,"persistent":false},"geometry":{"type":"Polygon","coordinates":[[[-122.677607,45.628921],[-122.677605,45.629191],[-122.677477,45.629191],[-122.677479,45.628921],[-122.677607,45.628921]]]}},{"type":"Feature","properties":{"id":68,"area_m2":300,"px":3,"rank":105,"persistent":false},"geometry":{"type":"Polygon","coordinates":[[[-122.675301,45.628375],[-122.675299,45.628645],[-122.675171,45.628644],[-122.675173,45.628375],[-122.675301,45.628375]]]}},{"type":"Feature","properties":{"id":79,"area_m2":300,"px":3,"rank":106,"persistent":false},"geometry":{"type":"Polygon","coordinates":[[[-122.676715,45.627749],[-122.676715,45.627839],[-122.67633,45.627838],[-122.676331,45.627748],[-122.676715,45.627749]]]}},{"type":"Feature","properties":{"id":89,"area_m2":300,"px":3,"rank":107,"persistent":false},"geometry":{"type":"Polygon","coordinates":[[[-122.673641,45.62693],[-122.673641,45.62702],[-122.673535,45.627035],[-122.673512,45.62711],[-122.673384,45.627109],[-122.673385,45.626929],[-122.673641,45.62693]]]}},{"type":"Feature","properties":{"id":95,"area_m2":300,"px":3,"rank":108,"persistent":false},"geometry":{"type":"Polygon","coordinates":[[[-122.674033,45.625671],[-122.674032,45.625851],[-122.673776,45.62585],[-122.673777,45.62576],[-122.673882,45.625745],[-122.673905,45.625671],[-122.674033,45.625671]]]}},{"type":"Feature","properties":{"id":104,"area_m2":300,"px":3,"rank":109,"persistent":false},"geometry":{"type":"Polygon","coordinates":[[[-122.679684,45.624607],[-122.679683,45.624697],[-122.679555,45.624696],[-122.679533,45.624622],[-122.679428,45.624606],[-122.679394,45.624525],[-122.6793,45.624516],[-122.6793,45.624426],[-122.679428,45.624426],[-122.679451,45.6245],[-122.679556,45.624516],[-122.67959,45.624597],[-122.679684,45.624607]]]}}]}