{"type":"FeatureCollection","features":[{"type":"Feature","properties":{"id":116,"area_m2":46600,"px":466,"rank":1,"persistent":false},"geometry":{"type":"Polygon","coordinates":[[[-122.681739,45.624163],[-122.681738,45.624252],[-122.681633,45.624268],[-122.68161,45.624342],[-122.681394,45.624348],[-122.681356,45.62438],[-122.681353,45.624431],[-122.681224,45.624431],[-122.681219,45.624374],[-122.68117,45.624343],[-122.680968,45.62434],[-122.68096,45.624279],[-122.680899,45.62425],[-122.680746,45.624259],[-122.680712,45.62434],[-122.680584,45.624339],[-122.680523,45.624315],[-122.680455,45.624339],[-122.680327,45.624339],[-122.680312,45.624166],[-122.680436,45.624152],[-122.680476,45.624098],[-122.680423,45.623988],[-122.680243,45.623979],[-122.680181,45.624029],[-122.680215,45.624151],[-122.679985,45.624159],[-122.679935,45.624182],[-122.679942,45.624337],[-122.67974,45.624339],[-122.679691,45.62437],[-122.679685,45.624427],[-122.679557,45.624426],[-122.679556,45.62429],[-122.679496,45.624247],[-122.679301,45.624246],[-122.679226,45.624222],[-122.679073,45.624257],[-122.679044,45.624335],[-122.678788,45.624334],[-122.678765,45.62426],[-122.67866,45.624244],[-122.67866,45.624113],[-122.678633,45.624076],[-122.678276,45.624063],[-122.678277,45.623918],[-122.67825,45.623882],[-122.677959,45.623868],[-122.677901,45.623897],[-122.677858,45.624009],[-122.677891,45.624062],[-122.677891,45.624152],[-122.677785,45.624167],[-122.677762,45.624241],[-122.677668,45.62425],[-122.677633,45.624331],[-122.677522,45.62435],[-122.677504,45.624421],[-122.677376,45.62442],[-122.677359,45.62435],[-122.677248,45.62433],[-122.677215,45.624249],[-122.677121,45.624239],[-122.677093,45.624162],[-122.676865,45.624149],[-122.676866,45.623969],[-122.676981,45.623945],[-122.676995,45.623829],[-122.676935,45.623777],[-122.676738,45.623788],[-122.676723,45.623706],[-122.676826,45.623692],[-122.676866,45.623655],[-122.676868,45.623477],[-122.67684,45.623441],[-122.676681,45.623428],[-122.676625,45.623452],[-122.67661,45.623698],[-122.676354,45.623697],[-122.67634,45.623435],[-122.676443,45.623421],[-122.676484,45.623379],[-122.676481,45.623286],[-122.676423,45.623249],[-122.67629,45.623248],[-122.676246,45.623267],[-122.676243,45.623419],[-122.676121,45.623442],[-122.676098,45.623517],[-122.67597,45.623516],[-122.675902,45.623492],[-122.675768,45.623518],[-122.675719,45.623549],[-122.675711,45.623605],[-122.675585,45.623605],[-122.675579,45.623548],[-122.675531,45.623517],[-122.675329,45.623514],[-122.675307,45.62344],[-122.675201,45.623424],[-122.675188,45.623358],[-122.675073,45.623334],[-122.675046,45.623256],[-122.674946,45.623243],[-122.674946,45.623112],[-122.674918,45.623075],[-122.674562,45.623062],[-122.674573,45.622961],[-122.674878,45.622973],[-122.674934,45.622949],[-122.674948,45.622757],[-122.674926,45.622719],[-122.674733,45.622709],[-122.674695,45.622741],[-122.674691,45.622792],[-122.674576,45.622816],[-122.674552,45.622893],[-122.674435,45.622882],[-122.674439,45.622632],[-122.674387,45.622612],[-122.674113,45.622612],[-122.674052,45.622654],[-122.67405,45.622881],[-122.673922,45.62288],[-122.673919,45.622649],[-122.673875,45.622614],[-122.673795,45.62261],[-122.673796,45.62234],[-122.673902,45.622324],[-122.673925,45.62225],[-122.674041,45.622227],[-122.674054,45.622161],[-122.674263,45.622157],[-122.674305,45.622128],[-122.674311,45.622071],[-122.674385,45.622069],[-122.67443,45.622043],[-122.674437,45.62184],[-122.674393,45.621806],[-122.674313,45.621801],[-122.674313,45.621711],[-122.674698,45.621712],[-122.674703,45.621769],[-122.674752,45.6218],[-122.675082,45.621804],[-122.675116,45.621885],[-122.675338,45.621894],[-122.675372,45.621975],[-122.675594,45.621985],[-122.675622,45.622063],[-122.67585,45.622076],[-122.675859,45.622137],[-122.675912,45.622165],[-122.676301,45.622166],[-122.676354,45.622139],[-122.676363,45.622077],[-122.676491,45.622078],[-122.676508,45.622328],[-122.676559,45.622348],[-122.676746,45.622348],[-122.676769,45.622423],[-122.676874,45.622439],[-122.676887,45.622505],[-122.677002,45.622529],[-122.67703,45.622607],[-122.67713,45.622619],[-122.677128,45.622889],[-122.677041,45.622896],[-122.677,45.622938],[-122.676999,45.62311],[-122.677039,45.623153],[-122.677233,45.623144],[-122.677256,45.62298],[-122.677362,45.622964],[-122.677385,45.62289],[-122.67777,45.622891],[-122.677792,45.622965],[-122.677897,45.622982],[-122.677906,45.623133],[-122.677951,45.623159],[-122.678025,45.623162],[-122.678047,45.623236],[-122.678281,45.623253],[-122.678293,45.623319],[-122.678408,45.623343],[-122.678414,45.6234],[-122.678455,45.623429],[-122.678664,45.623434],[-122.678681,45.623594],[-122.678792,45.623614],[-122.678804,45.62368],[-122.678919,45.623705],[-122.678923,45.623756],[-122.67896,45.623788],[-122.679175,45.623795],[-122.679181,45.623852],[-122.679223,45.623881],[-122.679391,45.62388],[-122.679428,45.623848],[-122.679432,45.623796],[-122.679803,45.623788],[-122.679837,45.623747],[-122.679818,45.623617],[-122.680459,45.623619],[-122.680465,45.623676],[-122.680513,45.623707],[-122.680844,45.62371],[-122.680861,45.62378],[-122.680971,45.6238],[-122.681005,45.623881],[-122.681099,45.623891],[-122.681121,45.623965],[-122.681355,45.623981],[-122.681368,45.624047],[-122.681483,45.624072],[-122.681517,45.624153],[-122.681739,45.624163]],[[-122.674617,45.622432],[-122.674671,45.622417],[-122.674694,45.622384],[-122.674691,45.622291],[-122.674647,45.622256],[-122.674123,45.622251],[-122.674059,45.622284],[-122.674054,45.622387],[-122.6741,45.622427],[-122.674617,45.622432]],[[-122.674823,45.622506],[-122.675146,45.622536],[-122.675201,45.622504],[-122.675185,45.62236],[-122.67513,45.622344],[-122.674845,45.622359],[-122.674803,45.622462],[-122.674823,45.622506]],[[-122.675131,45.622164],[-122.675205,45.622126],[-122.6752,45.622012],[-122.675147,45.621985],[-122.674993,45.62199],[-122.674954,45.622027],[-122.674961,45.622135],[-122.675014,45.622162],[-122.675131,45.622164]],[[-122.675971,45.623426],[-122.67599,45.623387],[-122.675969,45.623353],[-122.675843,45.623336],[-122.675844,45.623115],[-122.67581,45.623075],[-122.675588,45.623065],[-122.675571,45.622995],[-122.67546,45.622975],[-122.675451,45.622913],[-122.675391,45.622885],[-122.675245,45.62289],[-122.675207,45.622922],[-122.675204,45.622974],[-122.675088,45.622998],[-122.67508,45.62321],[-122.675121,45.62324],[-122.675202,45.623244],[-122.675236,45.623325],[-122.67533,45.623334],[-122.675364,45.623415],[-122.675586,45.623425],[-122.675646,45.623449],[-122.675832,45.623415],[-122.675895,45.62345],[-122.675971,45.623426]],[[-122.67574,45.62287],[-122.675907,45.622899],[-122.675961,45.622875],[-122.675971,45.622744],[-122.675927,45.62271],[-122.675764,45.622683],[-122.675699,45.622718],[-122.675686,45.622764],[-122.67574,45.62287]],[[-122.676615,45.622928],[-122.676588,45.622887],[-122.676526,45.622875],[-122.676387,45.6229],[-122.676358,45.622977],[-122.676122,45.622983],[-122.676082,45.623027],[-122.67611,45.623128],[-122.67617,45.623156],[-122.676574,45.623165],[-122.676613,45.623123],[-122.676615,45.622928]],[[-122.67654,45.622809],[-122.676731,45.622774],[-122.676741,45.622657],[-122.67669,45.62262],[-122.676543,45.62262],[-122.67649,45.622661],[-122.676491,45.622773],[-122.67654,45.622809]],[[-122.677506,45.62424],[-122.677524,45.624196],[-122.677492,45.62416],[-122.677419,45.624151],[-122.67737,45.624175],[-122.67736,45.624217],[-122.677395,45.624254],[-122.677453,45.624264],[-122.677506,45.62424]],[[-122.677909,45.623842],[-122.677884,45.62373],[-122.677831,45.623703],[-122.677576,45.623687],[-122.67751,45.62373],[-122.677511,45.623856],[-122.677567,45.623893],[-122.677865,45.623877],[-122.677909,45.623842]],[[-122.678968,45.624245],[-122.679042,45.624207],[-122.679036,45.624093],[-122.678984,45.624066],[-122.67883,45.624071],[-122.67879,45.624108],[-122.678797,45.624216],[-122.67885,45.624243],[-122.678968,45.624245]]]}},{"type":"Feature","properties":{"id":82,"area_m2":39600,"px":396,"rank":2,"persistent":false},"geometry":{"type":"Polygon","coordinates":[[[-122.67378,45.62513],[-122.673779,45.62531],[-122.673427,45.625305],[-122.673394,45.625344],[-122.673393,45.625579],[-122.67317,45.625581],[-122.673116,45.625629],[-122.673163,45.625746],[-122.673392,45.625759],[-122.673414,45.625833],[-122.673519,45.62585],[-122.673528,45.626001],[-122.673573,45.626027],[-122.673646,45.62603],[-122.673645,45.62621],[-122.673545,45.626222],[-122.673517,45.626299],[-122.673401,45.626323],[-122.673388,45.626389],[-122.673282,45.626405],[-122.673225,45.626521],[-122.673304,45.626592],[-122.673387,45.626569],[-122.673515,45.62657],[-122.673537,45.626644],[-122.673643,45.62666],[-122.673641,45.62693],[-122.673568,45.626932],[-122.673522,45.626958],[-122.673512,45.62711],[-122.673384,45.627109],[-122.673323,45.627085],[-122.673255,45.627109],[-122.672871,45.627108],[-122.672869,45.626876],[-122.672825,45.626842],[-122.672744,45.626837],[-122.672716,45.62676],[-122.672488,45.626747],[-122.672479,45.626685],[-122.672426,45.626657],[-122.672165,45.626657],[-122.672107,45.626694],[-122.672116,45.626812],[-122.672231,45.626836],[-122.672217,45.627256],[-122.67227,45.627285],[-122.672485,45.627287],[-122.672507,45.627361],[-122.672612,45.627377],[-122.672611,45.627557],[-122.672577,45.627599],[-122.672611,45.627647],[-122.67261,45.627737],[-122.672576,45.627779],[-122.67261,45.627827],[-122.672609,45.627917],[-122.672503,45.627933],[-122.67248,45.628007],[-122.672224,45.628006],[-122.672215,45.627945],[-122.672163,45.627917],[-122.671711,45.627914],[-122.671711,45.627778],[-122.671658,45.627737],[-122.67149,45.627743],[-122.671455,45.627824],[-122.671199,45.627823],[-122.671186,45.627757],[-122.671071,45.627733],[-122.671068,45.627681],[-122.671031,45.627649],[-122.670687,45.627641],[-122.670665,45.627567],[-122.670559,45.627551],[-122.670559,45.627461],[-122.670777,45.627469],[-122.670813,45.627437],[-122.670817,45.627372],[-122.670917,45.62736],[-122.670945,45.627282],[-122.671033,45.627276],[-122.671072,45.627239],[-122.671075,45.627013],[-122.67111,45.62697],[-122.671076,45.626923],[-122.671095,45.626788],[-122.67105,45.626747],[-122.670949,45.626742],[-122.67095,45.626562],[-122.671151,45.62656],[-122.6712,45.62653],[-122.671207,45.626473],[-122.671429,45.626464],[-122.67146,45.626435],[-122.671479,45.626328],[-122.671422,45.626295],[-122.671156,45.626293],[-122.671092,45.626317],[-122.671079,45.626382],[-122.670566,45.626381],[-122.670505,45.626357],[-122.670436,45.626381],[-122.669796,45.626379],[-122.669797,45.626199],[-122.669891,45.62619],[-122.669926,45.626109],[-122.670032,45.626094],[-122.670089,45.625977],[-122.67001,45.625907],[-122.669927,45.625929],[-122.669799,45.625929],[-122.6698,45.625749],[-122.670056,45.62575],[-122.670069,45.625816],[-122.670133,45.62584],[-122.670278,45.625831],[-122.670313,45.62575],[-122.670441,45.625751],[-122.670441,45.625841],[-122.67036,45.625845],[-122.670318,45.625874],[-122.670317,45.625987],[-122.670359,45.626016],[-122.670439,45.626021],[-122.670443,45.626072],[-122.67048,45.626104],[-122.670614,45.626125],[-122.670669,45.626112],[-122.670696,45.626021],[-122.670796,45.626009],[-122.670825,45.625932],[-122.670919,45.625923],[-122.670954,45.625842],[-122.671065,45.625823],[-122.671083,45.625753],[-122.671184,45.625748],[-122.671228,45.625713],[-122.671199,45.625597],[-122.671084,45.625572],[-122.671086,45.625213],[-122.671425,45.625223],[-122.671469,45.625184],[-122.671471,45.625088],[-122.671417,45.625036],[-122.671215,45.625033],[-122.671216,45.624943],[-122.671729,45.624944],[-122.671789,45.624969],[-122.671857,45.624945],[-122.672113,45.624945],[-122.672136,45.62502],[-122.672241,45.625036],[-122.672253,45.625192],[-122.672368,45.625216],[-122.672367,45.625396],[-122.672334,45.625449],[-122.67242,45.62551],[-122.672595,45.625475],[-122.672626,45.625397],[-122.672752,45.625397],[-122.672769,45.625481],[-122.672855,45.625498],[-122.672915,45.625445],[-122.672865,45.62539],[-122.672881,45.625308],[-122.673243,45.625293],[-122.673263,45.625167],[-122.673219,45.625133],[-122.673139,45.625128],[-122.673139,45.625038],[-122.673267,45.625039],[-122.673276,45.6251],[-122.673329,45.625128],[-122.67378,45.62513]],[[-122.671261,45.626923],[-122.671185,45.626968],[-122.671216,45.627079],[-122.671272,45.627103],[-122.671425,45.627095],[-122.671459,45.627055],[-122.671447,45.626948],[-122.671399,45.626925],[-122.671261,45.626923]],[[-122.67147,45.625344],[-122.671403,45.62529],[-122.671226,45.625327],[-122.671213,45.625524],[-122.671246,45.625564],[-122.671399,45.625573],[-122.671456,45.62555],[-122.67147,45.625344]],[[-122.671745,45.627258],[-122.671682,45.627113],[-122.671514,45.627106],[-122.671465,45.627137],[-122.671442,45.627244],[-122.671486,45.62728],[-122.67167,45.627307],[-122.671745,45.627258]],[[-122.671597,45.625935],[-122.671541,45.62592],[-122.671483,45.62594],[-122.671466,45.625989],[-122.671493,45.626025],[-122.671555,45.626037],[-122.671613,45.626011],[-122.671628,45.625971],[-122.671597,45.625935]],[[-122.671743,45.626369],[-122.672045,45.626398],[-122.6721,45.626366],[-122.672084,45.626221],[-122.672029,45.626205],[-122.671744,45.62622],[-122.671721,45.626258],[-122.671743,45.626369]],[[-122.672879,45.625618],[-122.672813,45.625564],[-122.672557,45.625578],[-122.672504,45.625605],[-122.672494,45.625666],[-122.672377,45.625677],[-122.672353,45.6256],[-122.672238,45.625576],[-122.672235,45.625524],[-122.672198,45.625492],[-122.671916,45.625486],[-122.671855,45.625528],[-122.671854,45.625725],[-122.671912,45.625767],[-122.672109,45.625756],[-122.672169,45.62578],[-122.672355,45.625745],[-122.672406,45.62584],[-122.672683,45.62586],[-122.672744,45.625827],[-122.67275,45.625757],[-122.672824,45.625755],[-122.67287,45.625729],[-122.672879,45.625618]],[[-122.672024,45.627105],[-122.672098,45.627067],[-122.672093,45.626954],[-122.67204,45.626926],[-122.671886,45.626931],[-122.671847,45.626968],[-122.671854,45.627076],[-122.671906,45.627104],[-122.672024,45.627105]],[[-122.672475,45.627883],[-122.6725,45.627782],[-122.672468,45.627746],[-122.67228,45.627738],[-122.672229,45.627774],[-122.672228,45.627878],[-122.672279,45.627914],[-122.672426,45.627914],[-122.672475,45.627883]],[[-122.672747,45.626337],[-122.67268,45.626284],[-122.67241,45.6263],[-122.672365,45.626335],[-122.672347,45.626442],[-122.672403,45.626475],[-122.672693,45.626488],[-122.672745,45.626447],[-122.672747,45.626337]],[[-122.673005,45.626028],[-122.672971,45.626065],[-122.672986,45.626105],[-122.673044,45.626131],[-122.6731,45.626122],[-122.673132,45.626089],[-122.673121,45.626039],[-122.673066,45.626015],[-122.673005,45.626028]]]}},{"type":"Feature","properties":{"id":24,"area_m2":33000,"px":330,"rank":3,"persistent":false},"geometry":{"type":"Polygon","coordinates":[[[-122.682484,45.628575],[-122.682483,45.628755],[-122.682377,45.628771],[-122.682354,45.628845],[-122.682226,45.628844],[-122.68215,45.628821],[-122.681978,45.628872],[-122.681967,45.629204],[-122.681932,45.629246],[-122.681966,45.629294],[-122.681966,45.629384],[-122.68186,45.629399],[-122.681837,45.629473],[-122.68165,45.629473],[-122.681594,45.629497],[-122.681546,45.629605],[-122.68158,45.629653],[-122.681578,45.629923],[-122.681484,45.629931],[-122.68145,45.629976],[-122.681462,45.630078],[-122.681577,45.630103],[-122.681589,45.630349],[-122.681704,45.630373],[-122.681709,45.63043],[-122.681751,45.630459],[-122.68196,45.630464],[-122.681959,45.630554],[-122.681765,45.630554],[-122.681712,45.630582],[-122.68171,45.630808],[-122.681776,45.630837],[-122.682214,45.630825],[-122.682217,45.631056],[-122.682261,45.631091],[-122.682341,45.631095],[-122.682339,45.631544],[-122.682304,45.631587],[-122.682338,45.631636],[-122.682335,45.632265],[-122.682206,45.632265],[-122.682208,45.631863],[-122.682168,45.631821],[-122.682081,45.631814],[-122.682074,45.631393],[-122.682021,45.631365],[-122.681827,45.631363],[-122.681804,45.631289],[-122.681653,45.63125],[-122.681476,45.631282],[-122.681442,45.631362],[-122.681368,45.631365],[-122.681322,45.631391],[-122.681312,45.631542],[-122.681225,45.631548],[-122.681185,45.631585],[-122.681182,45.631812],[-122.680926,45.631811],[-122.680948,45.631417],[-122.680927,45.631377],[-122.680879,45.631361],[-122.680613,45.63136],[-122.680544,45.631409],[-122.680541,45.63181],[-122.680339,45.631812],[-122.68029,45.631843],[-122.680284,45.631899],[-122.680156,45.631899],[-122.68016,45.631179],[-122.680288,45.631179],[-122.680348,45.631203],[-122.680416,45.63118],[-122.680545,45.63118],[-122.680613,45.631204],[-122.680673,45.63118],[-122.681047,45.63117],[-122.681096,45.631202],[-122.681162,45.631198],[-122.681204,45.631158],[-122.681194,45.631117],[-122.681152,45.631094],[-122.681058,45.631091],[-122.68106,45.630821],[-122.681092,45.630763],[-122.681052,45.630656],[-122.681001,45.630629],[-122.68042,45.630639],[-122.68042,45.63055],[-122.680508,45.630543],[-122.680547,45.630506],[-122.680568,45.630415],[-122.680515,45.630372],[-122.679395,45.630367],[-122.679373,45.630292],[-122.679267,45.630275],[-122.679268,45.630006],[-122.679356,45.63],[-122.679397,45.629958],[-122.679399,45.629647],[-122.679493,45.629644],[-122.679539,45.629617],[-122.679528,45.629467],[-122.6801,45.629468],[-122.680161,45.62944],[-122.680153,45.629308],[-122.680042,45.629288],[-122.680037,45.629232],[-122.679995,45.629202],[-122.679786,45.629198],[-122.679787,45.629108],[-122.680238,45.629108],[-122.680291,45.62908],[-122.6803,45.629019],[-122.680766,45.629016],[-122.680808,45.628987],[-122.680814,45.62893],[-122.681378,45.628932],[-122.681438,45.628912],[-122.681478,45.628353],[-122.681439,45.628309],[-122.681331,45.628302],[-122.681332,45.628123],[-122.681438,45.628106],[-122.681461,45.628032],[-122.681589,45.628033],[-122.68159,45.628169],[-122.681629,45.628206],[-122.681973,45.628214],[-122.681995,45.628288],[-122.6821,45.628304],[-122.682118,45.628374],[-122.682228,45.628394],[-122.682262,45.628475],[-122.682356,45.628485],[-122.682384,45.628562],[-122.682484,45.628575]],[[-122.680311,45.630149],[-122.680282,45.630033],[-122.680167,45.630009],[-122.680139,45.629931],[-122.679921,45.629929],[-122.679905,45.629861],[-122.679863,45.629832],[-122.679595,45.629827],[-122.679532,45.62986],[-122.679527,45.629963],[-122.679566,45.630001],[-122.679721,45.630032],[-122.679899,45.629997],[-122.679911,45.630145],[-122.679956,45.630184],[-122.680259,45.630187],[-122.680311,45.630149]],[[-122.681183,45.629496],[-122.681014,45.629457],[-122.680961,45.629473],[-122.680928,45.629572],[-122.680811,45.62956],[-122.68081,45.62941],[-122.680772,45.629373],[-122.680353,45.629382],[-122.6803,45.629422],[-122.680297,45.629559],[-122.68009,45.629559],[-122.680033,45.629583],[-122.680043,45.6297],[-122.680102,45.629737],[-122.680296,45.629739],[-122.680297,45.629876],[-122.680343,45.629915],[-122.680882,45.629918],[-122.680935,45.629877],[-122.680949,45.62964],[-122.681133,45.62965],[-122.681192,45.629613],[-122.681183,45.629496]],[[-122.680607,45.62929],[-122.680681,45.629252],[-122.680672,45.629134],[-122.680615,45.62911],[-122.680442,45.629119],[-122.680408,45.629165],[-122.68044,45.629265],[-122.680489,45.629289],[-122.680607,45.62929]],[[-122.681248,45.629292],[-122.681322,45.629254],[-122.681309,45.629132],[-122.681198,45.629111],[-122.681192,45.629055],[-122.681151,45.629025],[-122.68097,45.629033],[-122.680941,45.629075],[-122.680958,45.629271],[-122.68101,45.629291],[-122.681248,45.629292]],[[-122.682227,45.628574],[-122.68221,45.628504],[-122.6821,45.628484],[-122.682087,45.628418],[-122.681972,45.628394],[-122.681966,45.628337],[-122.681918,45.628306],[-122.681756,45.628309],[-122.681719,45.628341],[-122.681715,45.628393],[-122.681634,45.628397],[-122.68159,45.628431],[-122.681586,45.628628],[-122.681638,45.628674],[-122.68197,45.628664],[-122.681998,45.628741],[-122.682181,45.628777],[-122.682314,45.628748],[-122.682353,45.628711],[-122.682342,45.628599],[-122.682227,45.628574]]]}},{"type":"Feature","properties":{"id":12,"area_m2":20500,"px":205,"rank":4,"persistent":false},"geometry":{"type":"Polygon","coordinates":[[[-122.672599,45.629717],[-122.672598,45.629807],[-122.672511,45.629813],[-122.672471,45.62985],[-122.672468,45.630077],[-122.672363,45.630092],[-122.67234,45.630166],[-122.671874,45.630169],[-122.671832,45.630198],[-122.671807,45.630284],[-122.671846,45.630339],[-122.672007,45.630369],[-122.672082,45.630346],[-122.672595,45.630347],[-122.672593,45.630707],[-122.672519,45.630709],[-122.672474,45.630736],[-122.672464,45.630887],[-122.672358,45.630903],[-122.672335,45.630977],[-122.672005,45.630978],[-122.671956,45.631009],[-122.671949,45.631065],[-122.671755,45.631066],[-122.671694,45.631108],[-122.671705,45.631221],[-122.67182,45.631247],[-122.671819,45.631425],[-122.671731,45.631431],[-122.671692,45.631468],[-122.67169,45.631831],[-122.67175,45.631874],[-122.671945,45.631876],[-122.671967,45.63195],[-122.672072,45.631966],[-122.67207,45.632326],[-122.671965,45.632342],[-122.671942,45.632416],[-122.671826,45.632439],[-122.671813,45.632505],[-122.671597,45.632511],[-122.671559,45.632543],[-122.671556,45.632594],[-122.671299,45.632594],[-122.6713,45.632414],[-122.671374,45.632412],[-122.67142,45.632386],[-122.671449,45.6322],[-122.67141,45.632151],[-122.671302,45.632144],[-122.671302,45.632054],[-122.671383,45.63205],[-122.671425,45.632021],[-122.67144,45.631809],[-122.671398,45.631786],[-122.671304,45.631784],[-122.671299,45.631714],[-122.671245,45.631681],[-122.671082,45.631702],[-122.671045,45.631783],[-122.670919,45.631783],[-122.670859,45.631758],[-122.670791,45.631782],[-122.670662,45.631782],[-122.67064,45.631708],[-122.670535,45.631691],[-122.670535,45.631602],[-122.670641,45.631586],[-122.670664,45.631512],[-122.670871,45.631512],[-122.670928,45.631488],[-122.670922,45.631243],[-122.671038,45.631219],[-122.671063,45.631093],[-122.671002,45.631063],[-122.670714,45.631066],[-122.670668,45.631105],[-122.670665,45.631242],[-122.670537,45.631241],[-122.670517,45.631064],[-122.670464,45.631047],[-122.670282,45.631061],[-122.670283,45.630881],[-122.670477,45.63088],[-122.670538,45.630838],[-122.670543,45.630251],[-122.670637,45.630249],[-122.670683,45.630222],[-122.670672,45.630072],[-122.671186,45.630073],[-122.671253,45.630098],[-122.671314,45.630074],[-122.671496,45.630088],[-122.671549,45.630072],[-122.671565,45.629928],[-122.671524,45.629898],[-122.671443,45.629894],[-122.671445,45.629625],[-122.671551,45.629608],[-122.671574,45.629534],[-122.67183,45.629535],[-122.671839,45.629597],[-122.671899,45.629625],[-122.672086,45.629626],[-122.672146,45.62965],[-122.672215,45.629626],[-122.672471,45.629627],[-122.672493,45.629701],[-122.672599,45.629717]],[[-122.67136,45.630974],[-122.671414,45.630958],[-122.671437,45.630925],[-122.67144,45.630488],[-122.671417,45.63045],[-122.671253,45.630434],[-122.671192,45.630462],[-122.671181,45.630793],[-122.670925,45.630792],[-122.670913,45.630546],[-122.670857,45.630523],[-122.670692,45.630538],[-122.670669,45.630576],[-122.670667,45.630918],[-122.67069,45.630956],[-122.670744,45.630972],[-122.67136,45.630974]],[[-122.67092,45.631692],[-122.670938,45.631648],[-122.670906,45.631612],[-122.670841,45.631603],[-122.670788,45.631623],[-122.670772,45.631663],[-122.670809,45.631706],[-122.670867,45.631716],[-122.67092,45.631692]],[[-122.670928,45.630252],[-122.670947,45.630208],[-122.670915,45.630172],[-122.670842,45.630163],[-122.670792,45.630187],[-122.670782,45.630229],[-122.670818,45.630266],[-122.670875,45.630276],[-122.670928,45.630252]],[[-122.671451,45.631384],[-122.671426,45.631273],[-122.671373,45.631245],[-122.671112,45.631244],[-122.671052,45.631286],[-122.671053,45.631385],[-122.671111,45.631422],[-122.671407,45.63142],[-122.671451,45.631384]],[[-122.671305,45.631604],[-122.671324,45.631559],[-122.671292,45.631523],[-122.671227,45.631514],[-122.671174,45.631534],[-122.671158,45.631575],[-122.671195,45.631617],[-122.671252,45.631627],[-122.671305,45.631604]],[[-122.671873,45.630975],[-122.671947,45.630937],[-122.671942,45.630824],[-122.671889,45.630796],[-122.671734,45.630788],[-122.671695,45.63083],[-122.671703,45.630946],[-122.671755,45.630974],[-122.671873,45.630975]],[[-122.672214,45.629756],[-122.672147,45.629703],[-122.67197,45.629739],[-122.671956,45.629937],[-122.67199,45.629976],[-122.672143,45.629986],[-122.6722,45.629962],[-122.672214,45.629756]],[[-122.672466,45.630567],[-122.672406,45.630514],[-122.672243,45.630535],[-122.672209,45.630575],[-122.672221,45.630682],[-122.672278,45.630706],[-122.672431,45.630698],[-122.672464,45.630663],[-122.672466,45.630567]]]}},{"type":"Feature","properties":{"id":107,"area_m2":16500,"px":165,"rank":5,"persistent":false},"geometry":{"type":"Polygon","coordinates":[[[-122.683786,45.625068],[-122.683786,45.625158],[-122.683698,45.625164],[-122.683659,45.625201],[-122.683655,45.625518],[-122.68355,45.625533],[-122.683527,45.625608],[-122.683156,45.625616],[-122.683122,45.625657],[-122.683141,45.625787],[-122.682826,45.625786],[-122.682769,45.62581],[-122.682753,45.626235],[-122.682625,45.626235],[-122.682565,45.626211],[-122.682495,45.626235],[-122.681471,45.626232],[-122.681472,45.625735],[-122.681433,45.625698],[-122.681346,45.62569],[-122.681347,45.625422],[-122.681435,45.625415],[-122.681475,45.625373],[-122.681477,45.625021],[-122.681437,45.624978],[-122.68135,45.624971],[-122.681322,45.624894],[-122.681222,45.624881],[-122.681222,45.624791],[-122.681328,45.624776],[-122.681351,45.624702],[-122.681479,45.624702],[-122.681502,45.624776],[-122.681607,45.624792],[-122.681607,45.625032],[-122.681665,45.625075],[-122.681845,45.625043],[-122.681863,45.624883],[-122.681969,45.624867],[-122.681992,45.624793],[-122.682107,45.62477],[-122.682123,45.624704],[-122.682377,45.624704],[-122.682405,45.624782],[-122.682633,45.624795],[-122.682639,45.624852],[-122.682688,45.624883],[-122.683018,45.624886],[-122.683026,45.624948],[-122.683079,45.624975],[-122.683659,45.624978],[-122.683681,45.625052],[-122.683786,45.625068]],[[-122.682206,45.62516],[-122.682057,45.62514],[-122.682007,45.62516],[-122.681989,45.625243],[-122.681909,45.625247],[-122.681867,45.625276],[-122.68186,45.625423],[-122.681779,45.625427],[-122.681738,45.625456],[-122.681731,45.625644],[-122.681778,45.625689],[-122.681939,45.625689],[-122.681981,45.62566],[-122.681988,45.625603],[-122.682182,45.625603],[-122.682238,45.625571],[-122.682245,45.625197],[-122.682206,45.62516]],[[-122.682776,45.625645],[-122.682752,45.625535],[-122.682691,45.625502],[-122.682427,45.625517],[-122.682374,45.625558],[-122.682389,45.625675],[-122.682553,45.625719],[-122.682749,45.625683],[-122.682776,45.625645]],[[-122.683286,45.625482],[-122.683266,45.62537],[-122.683224,45.625341],[-122.682949,45.625337],[-122.682893,45.625369],[-122.682867,45.625471],[-122.682928,45.625515],[-122.683229,45.625516],[-122.683286,45.625482]]]}},{"type":"Feature","properties":{"id":67,"area_m2":11200,"px":112,"rank":6,"persistent":false},"geometry":{"type":"Polygon","coordinates":[[[-122.679155,45.627396],[-122.679153,45.627756],[-122.679072,45.62776],[-122.679028,45.627794],[-122.679023,45.628025],[-122.678451,45.628024],[-122.678404,45.628039],[-122.678381,45.628078],[-122.678396,45.628377],[-122.678454,45.628398],[-122.678764,45.628385],[-122.67877,45.628441],[-122.678819,45.628472],[-122.679149,45.628476],[-122.679147,45.628746],[-122.677864,45.628742],[-122.677856,45.628681],[-122.677803,45.628653],[-122.677352,45.628651],[-122.677291,45.628626],[-122.677223,45.62865],[-122.677095,45.62865],[-122.677096,45.62856],[-122.677183,45.628554],[-122.677224,45.628512],[-122.677226,45.6282],[-122.677261,45.628158],[-122.677227,45.62811],[-122.677227,45.62802],[-122.678206,45.628019],[-122.678253,45.627974],[-122.678256,45.627663],[-122.67835,45.627654],[-122.678384,45.627574],[-122.678495,45.627554],[-122.678514,45.627394],[-122.678619,45.627378],[-122.678642,45.627304],[-122.678899,45.627305],[-122.678902,45.627357],[-122.678939,45.627389],[-122.679155,45.627396]],[[-122.678818,45.627935],[-122.678873,45.627919],[-122.678895,45.627886],[-122.678896,45.627528],[-122.67885,45.627489],[-122.678708,45.627471],[-122.678643,45.627514],[-122.67864,45.627664],[-122.678446,45.627665],[-122.678393,45.627692],[-122.678384,45.62789],[-122.678452,45.627933],[-122.678818,45.627935]]]}},{"type":"Feature","properties":{"id":5,"area_m2":10900,"px":109,"rank":7,"persistent":true},"geometry":{"type":"Polygon","coordinates":[[[-122.690291,45.631837],[-122.690284,45.633097],[-122.690028,45.633096],[-122.690011,45.633026],[-122.6899,45.633006],[-122.689883,45.632936],[-122.689772,45.632915],[-122.689755,45.632845],[-122.689645,45.632825],[-122.689632,45.632759],[-122.689517,45.632735],[-122.689511,45.632678],[-122.689463,45.632647],[-122.689321,45.632632],[-122.689261,45.632679],[-122.689273,45.6328],[-122.689388,45.632825],[-122.689387,45.633004],[-122.689259,45.633004],[-122.689246,45.632938],[-122.689131,45.632914],[-122.689128,45.632862],[-122.689091,45.63283],[-122.688747,45.632823],[-122.688724,45.632748],[-122.688619,45.632732],[-122.68862,45.632462],[-122.688849,45.632451],[-122.688877,45.632373],[-122.688977,45.632361],[-122.689006,45.632283],[-122.6891,45.632275],[-122.689135,45.632194],[-122.689246,45.632174],[-122.689264,45.632104],[-122.689492,45.632092],[-122.689521,45.632015],[-122.689615,45.632006],[-122.68965,45.631925],[-122.68976,45.631906],[-122.689778,45.631835],[-122.690291,45.631837]]]}},{"type":"Feature","properties":{"id":95,"area_m2":8800,"px":88,"rank":8,"persistent":true},"geometry":{"type":"Polygon","coordinates":[[[-122.679929,45.626588],[-122.679928,45.626768],[-122.679834,45.626777],[-122.6798,45.626821],[-122.679802,45.626999],[-122.679846,45.627033],[-122.679927,45.627038],[-122.679926,45.627128],[-122.67982,45.627143],[-122.679797,45.627217],[-122.679413,45.627216],[-122.679352,45.627192],[-122.679284,45.627216],[-122.679156,45.627216],[-122.679143,45.62715],[-122.67908,45.627125],[-122.678449,45.627125],[-122.678396,45.627152],[-122.678386,45.627213],[-122.678258,45.627213],[-122.678262,45.626493],[-122.678368,45.626477],[-122.678391,45.626403],[-122.678776,45.626405],[-122.678781,45.626551],[-122.678822,45.62658],[-122.678903,45.626585],[-122.678904,45.626721],[-122.678964,45.626764],[-122.679225,45.626765],[-122.679284,45.626728],[-122.679287,45.626449],[-122.679248,45.626412],[-122.679161,45.626405],[-122.679162,45.626226],[-122.67929,45.626226],[-122.679295,45.626283],[-122.679344,45.626314],[-122.679546,45.626317],[-122.679568,45.626481],[-122.679801,45.626497],[-122.679824,45.626572],[-122.679929,45.626588]]]}},{"type":"Feature","properties":{"id":62,"area_m2":6700,"px":67,"rank":9,"persistent":false},"geometry":{"type":"Polygon","coordinates":[[[-122.672219,45.628816],[-122.672217,45.629176],[-122.672136,45.62918],[-122.672092,45.629214],[-122.672087,45.629446],[-122.671702,45.629445],[-122.671702,45.629218],[-122.671627,45.629174],[-122.671502,45.629176],[-122.671453,45.629207],[-122.671446,45.629444],[-122.670933,45.629442],[-122.670911,45.629278],[-122.670806,45.629262],[-122.6708,45.629205],[-122.670758,45.629176],[-122.670549,45.629171],[-122.670552,45.628811],[-122.671449,45.628814],[-122.671458,45.628889],[-122.671523,45.628918],[-122.671677,45.628892],[-122.671706,45.628815],[-122.672219,45.628816]],[[-122.671192,45.629033],[-122.67117,45.628996],[-122.67111,45.628979],[-122.671049,45.629001],[-122.671029,45.62904],[-122.671054,45.629078],[-122.671117,45.629097],[-122.671175,45.629077],[-122.671192,45.629033]]]}},{"type":"Feature","properties":{"id":114,"area_m2":6700,"px":67,"rank":10,"persistent":false},"geometry":{"type":"Polygon","coordinates":[[[-122.674427,45.624232],[-122.674425,45.624502],[-122.674319,45.624517],[-122.674296,45.624592],[-122.674062,45.624607],[-122.674039,45.624771],[-122.673835,45.624759],[-122.673788,45.62479],[-122.673782,45.62486],[-122.673653,45.62486],[-122.673654,45.624625],[-122.673622,45.624586],[-122.673446,45.624593],[-122.673404,45.624622],[-122.673398,45.624679],[-122.67327,45.624679],[-122.673242,45.624601],[-122.673066,45.624564],[-122.672933,45.624592],[-122.672891,45.624621],[-122.67289,45.624734],[-122.672932,45.624764],[-122.673012,45.624768],[-122.673012,45.624857],[-122.672884,45.624858],[-122.672862,45.624783],[-122.672756,45.624767],[-122.672759,45.624317],[-122.672832,45.624315],[-122.672878,45.624289],[-122.672888,45.624138],[-122.673211,45.624137],[-122.673273,45.624085],[-122.673257,45.623888],[-122.673205,45.623869],[-122.67289,45.623867],[-122.67289,45.623778],[-122.673275,45.623779],[-122.673297,45.623853],[-122.673402,45.623869],[-122.673405,45.624011],[-122.673471,45.624049],[-122.673596,45.624048],[-122.673649,45.624021],[-122.673659,45.623828],[-122.673619,45.623786],[-122.673531,45.623779],[-122.673532,45.623558],[-122.673492,45.623516],[-122.672953,45.623509],[-122.6729,45.623536],[-122.672891,45.623597],[-122.672765,45.623597],[-122.672763,45.623507],[-122.672869,45.623492],[-122.672892,45.623417],[-122.673533,45.623419],[-122.673556,45.623494],[-122.673661,45.62351],[-122.673669,45.623751],[-122.673714,45.623778],[-122.673788,45.62378],[-122.673792,45.624107],[-122.673833,45.624136],[-122.673914,45.62414],[-122.673948,45.624221],[-122.674042,45.624231],[-122.674058,45.624404],[-122.674123,45.624425],[-122.674263,45.624402],[-122.674297,45.624363],[-122.674299,45.624232],[-122.674427,45.624232]],[[-122.67344,45.624403],[-122.673596,45.624422],[-122.67365,45.62439],[-122.673656,45.624183],[-122.673603,45.624142],[-122.673443,45.62414],[-122.673382,45.624184],[-122.673401,45.624366],[-122.67344,45.624403]]]}},{"type":"Feature","properties":{"id":112,"area_m2":6200,"px":62,"rank":11,"persistent":false},"geometry":{"type":"Polygon","coordinates":[[[-122.679682,45.624877],[-122.679681,45.625057],[-122.679576,45.625072],[-122.679553,45.625146],[-122.679459,45.625155],[-122.679424,45.625236],[-122.679313,45.625256],[-122.679295,45.625326],[-122.679039,45.625325],[-122.679036,45.625273],[-122.678998,45.625241],[-122.678783,45.625234],[-122.67877,45.625168],[-122.678655,45.625144],[-122.678621,45.625063],[-122.678399,45.625053],[-122.6784,45.624873],[-122.678473,45.624871],[-122.678519,45.624845],[-122.678529,45.624694],[-122.678623,45.624685],[-122.678658,45.624604],[-122.678773,45.62458],[-122.678787,45.624424],[-122.679119,45.624436],[-122.679166,45.624405],[-122.679173,45.624335],[-122.679301,45.624336],[-122.679323,45.62441],[-122.679428,45.624426],[-122.679428,45.624516],[-122.679334,45.624518],[-122.679285,45.62455],[-122.679312,45.624672],[-122.679427,45.624696],[-122.679461,45.624777],[-122.679555,45.624787],[-122.679582,45.624864],[-122.679682,45.624877]]]}},{"type":"Feature","properties":{"id":46,"area_m2":5400,"px":54,"rank":12,"persistent":false},"geometry":{"type":"Polygon","coordinates":[[[-122.679139,45.630096],[-122.679138,45.630276],[-122.679044,45.630285],[-122.67901,45.63033],[-122.679022,45.630432],[-122.679137,45.630456],[-122.679136,45.630726],[-122.679008,45.630725],[-122.678995,45.63066],[-122.678931,45.630635],[-122.678786,45.630644],[-122.678751,45.630725],[-122.678495,45.630724],[-122.678482,45.630658],[-122.678418,45.630634],[-122.678273,45.630643],[-122.678238,45.630723],[-122.67811,45.630723],[-122.678113,45.630093],[-122.678219,45.630077],[-122.678242,45.630003],[-122.678755,45.630005],[-122.678761,45.630061],[-122.678809,45.630093],[-122.679139,45.630096]]]}},{"type":"Feature","properties":{"id":69,"area_m2":5300,"px":53,"rank":13,"persistent":false},"geometry":{"type":"Polygon","coordinates":[[[-122.672352,45.628096],[-122.67235,45.628366],[-122.672235,45.62839],[-122.672221,45.628546],[-122.672115,45.628562],[-122.672092,45.628636],[-122.671836,45.628635],[-122.671808,45.628557],[-122.671647,45.628531],[-122.671585,45.628564],[-122.671579,45.628634],[-122.671463,45.628658],[-122.67145,45.628724],[-122.670937,45.628722],[-122.670939,45.628362],[-122.67102,45.628358],[-122.671064,45.628324],[-122.671069,45.628093],[-122.671454,45.628094],[-122.671487,45.628175],[-122.671648,45.628183],[-122.671701,45.628156],[-122.67171,45.628095],[-122.671821,45.628075],[-122.671841,45.628005],[-122.671967,45.628005],[-122.671973,45.628062],[-122.672021,45.628093],[-122.672352,45.628096]],[[-122.671374,45.628634],[-122.671447,45.628596],[-122.671442,45.628482],[-122.67139,45.628455],[-122.671236,45.62846],[-122.671198,45.628491],[-122.671183,45.628603],[-122.671236,45.628632],[-122.671374,45.628634]]]}},{"type":"Feature","properties":{"id":81,"area_m2":5200,"px":52,"rank":14,"persistent":false},"geometry":{"type":"Polygon","coordinates":[[[-122.673767,45.62729],[-122.673764,45.62792],[-122.673658,45.627936],[-122.673635,45.62801],[-122.672737,45.628007],[-122.672741,45.627287],[-122.673254,45.627289],[-122.673315,45.627313],[-122.673383,45.627289],[-122.673767,45.62729]]]}},{"type":"Feature","properties":{"id":103,"area_m2":5200,"px":52,"rank":15,"persistent":true},"geometry":{"type":"Polygon","coordinates":[[[-122.677624,45.625861],[-122.677623,45.626041],[-122.677515,45.626048],[-122.677475,45.626097],[-122.677503,45.626282],[-122.677548,45.626309],[-122.677622,45.626311],[-122.677621,45.626491],[-122.676851,45.626489],[-122.676853,45.626088],[-122.676831,45.626055],[-122.676777,45.626039],[-122.676538,45.626038],[-122.676482,45.626062],[-122.676466,45.626488],[-122.676338,45.626488],[-122.676341,45.625948],[-122.676813,45.625942],[-122.676853,45.625906],[-122.676855,45.625769],[-122.677496,45.625771],[-122.677519,45.625845],[-122.677624,45.625861]]]}},{"type":"Feature","properties":{"id":70,"area_m2":5100,"px":51,"rank":16,"persistent":true},"geometry":{"type":"Polygon","coordinates":[[[-122.685436,45.628313],[-122.685435,45.628493],[-122.684962,45.628498],[-122.684923,45.628535],[-122.684921,45.628672],[-122.684793,45.628671],[-122.684784,45.62861],[-122.684724,45.628581],[-122.683638,45.628578],[-122.683639,45.628488],[-122.683673,45.628446],[-122.683639,45.628398],[-122.68364,45.628218],[-122.683897,45.628219],[-122.6839,45.628271],[-122.683937,45.628303],[-122.684106,45.628305],[-122.684147,45.628276],[-122.684154,45.62822],[-122.684234,45.628216],[-122.684276,45.628187],[-122.684283,45.62804],[-122.684796,45.628041],[-122.684795,45.628221],[-122.684707,45.628228],[-122.684667,45.62827],[-122.684667,45.628448],[-122.68472,45.628489],[-122.684852,45.628491],[-122.684904,45.628472],[-122.684923,45.628312],[-122.685029,45.628296],[-122.685052,45.628222],[-122.685167,45.628198],[-122.68518,45.628133],[-122.685309,45.628133],[-122.685317,45.628284],[-122.685362,45.628311],[-122.685436,45.628313]]]}},{"type":"Feature","properties":{"id":96,"area_m2":4600,"px":46,"rank":17,"persistent":false},"geometry":{"type":"Polygon","coordinates":[[[-122.677491,45.626671],[-122.677488,45.627211],[-122.676077,45.627207],[-122.67608,45.626667],[-122.676186,45.626651],[-122.676209,45.626577],[-122.676337,45.626578],[-122.676365,45.626655],[-122.676518,45.626692],[-122.676694,45.626656],[-122.676724,45.626579],[-122.676979,45.626579],[-122.676987,45.626654],[-122.677053,45.626683],[-122.677207,45.626658],[-122.677235,45.62658],[-122.677364,45.626581],[-122.677386,45.626655],[-122.677491,45.626671]]]}},{"type":"Feature","properties":{"id":40,"area_m2":4200,"px":42,"rank":18,"persistent":true},"geometry":{"type":"Polygon","coordinates":[[[-122.689783,45.630935],[-122.689782,45.631205],[-122.689566,45.631211],[-122.689528,45.631243],[-122.689525,45.631295],[-122.689268,45.631294],[-122.68926,45.631142],[-122.689214,45.631116],[-122.689141,45.631114],[-122.689135,45.631057],[-122.689087,45.631026],[-122.688818,45.631024],[-122.688765,45.631051],[-122.688756,45.631112],[-122.688499,45.631112],[-122.688477,45.631038],[-122.688372,45.631021],[-122.688373,45.630842],[-122.688478,45.630826],[-122.688501,45.630752],[-122.688617,45.630728],[-122.68863,45.630662],[-122.688846,45.630656],[-122.688884,45.630625],[-122.688887,45.630573],[-122.689116,45.630561],[-122.689144,45.630484],[-122.689401,45.630484],[-122.6894,45.630664],[-122.689365,45.630712],[-122.689412,45.63082],[-122.689527,45.630845],[-122.689533,45.630901],[-122.689574,45.630931],[-122.689783,45.630935]],[[-122.688757,45.630883],[-122.688698,45.63083],[-122.688535,45.630851],[-122.688501,45.630891],[-122.688513,45.630998],[-122.688569,45.631022],[-122.688722,45.631013],[-122.688755,45.630979],[-122.688757,45.630883]]]}},{"type":"Feature","properties":{"id":85,"area_m2":3900,"px":39,"rank":19,"persistent":false},"geometry":{"type":"Polygon","coordinates":[[[-122.675305,45.627565],[-122.675304,45.627745],[-122.674837,45.627734],[-122.674792,45.627773],[-122.67479,45.627923],[-122.674662,45.627923],[-122.674659,45.627781],[-122.674586,45.627743],[-122.674069,45.627745],[-122.674023,45.627785],[-122.67402,45.627921],[-122.673892,45.627921],[-122.673896,45.627291],[-122.674281,45.627292],[-122.674341,45.627316],[-122.674409,45.627292],[-122.674537,45.627293],[-122.674546,45.627354],[-122.674599,45.627382],[-122.674922,45.627384],[-122.674982,45.627408],[-122.67505,45.627384],[-122.675178,45.627384],[-122.675166,45.627535],[-122.675212,45.627562],[-122.675305,45.627565]],[[-122.674406,45.62738],[-122.674341,45.627358],[-122.674269,45.627393],[-122.674064,45.627388],[-122.674025,45.627425],[-122.674032,45.627533],[-122.674085,45.62756],[-122.674238,45.627555],[-122.674291,45.627461],[-122.674366,45.627471],[-122.674416,45.627447],[-122.674406,45.62738]]]}},{"type":"Feature","properties":{"id":93,"area_m2":3900,"px":39,"rank":20,"persistent":false},"geometry":{"type":"Polygon","coordinates":[[[-122.686982,45.627057],[-122.686981,45.627237],[-122.686853,45.627237],[-122.686819,45.627156],[-122.686597,45.627146],[-122.686591,45.62709],[-122.686543,45.627058],[-122.686341,45.627055],[-122.686335,45.626999],[-122.686294,45.62697],[-122.686019,45.626966],[-122.685958,45.627008],[-122.685956,45.627144],[-122.68585,45.62716],[-122.685827,45.627234],[-122.685699,45.627234],[-122.685676,45.62716],[-122.685571,45.627143],[-122.685572,45.626963],[-122.685606,45.626921],[-122.685572,45.626873],[-122.685573,45.626783],[-122.685775,45.626782],[-122.685824,45.626751],[-122.68583,45.626694],[-122.686052,45.626686],[-122.686086,45.626646],[-122.686087,45.626515],[-122.686216,45.626515],[-122.686238,45.626589],[-122.686343,45.626606],[-122.686361,45.626676],[-122.686471,45.626696],[-122.686505,45.626777],[-122.686599,45.626786],[-122.686627,45.626864],[-122.686727,45.626877],[-122.686755,45.626954],[-122.686854,45.626967],[-122.686882,45.627045],[-122.686982,45.627057]]]}},{"type":"Feature","properties":{"id":37,"area_m2":3800,"px":38,"rank":21,"persistent":false},"geometry":{"type":"Polygon","coordinates":[[[-122.678748,45.631265],[-122.678747,45.631445],[-122.678641,45.63146],[-122.678618,45.631534],[-122.678167,45.631534],[-122.678114,45.631562],[-122.678103,45.631623],[-122.677848,45.631622],[-122.677839,45.631561],[-122.677786,45.631533],[-122.677464,45.631531],[-122.677465,45.631261],[-122.677681,45.631255],[-122.677719,45.631224],[-122.677722,45.631172],[-122.67862,45.631175],[-122.678642,45.631249],[-122.678748,45.631265]]]}},{"type":"Feature","properties":{"id":111,"area_m2":3800,"px":38,"rank":22,"persistent":false},"geometry":{"type":"Polygon","coordinates":[[[-122.674808,45.624863],[-122.674804,45.625583],[-122.674034,45.625581],[-122.674012,45.625507],[-122.673906,45.62549],[-122.67391,45.624951],[-122.674294,45.624952],[-122.674295,45.625363],[-122.674346,45.625399],[-122.674479,45.625402],[-122.674548,45.625354],[-122.67455,45.625042],[-122.674624,45.62504],[-122.67467,45.625014],[-122.67468,45.624863],[-122.674808,45.624863]]]}},{"type":"Feature","properties":{"id":8,"area_m2":3500,"px":35,"rank":23,"persistent":true},"geometry":{"type":"Polygon","coordinates":[[[-122.672582,45.632598],[-122.67258,45.632867],[-122.672507,45.63287],[-122.672461,45.632896],[-122.672451,45.633047],[-122.671681,45.633045],[-122.671659,45.632971],[-122.671554,45.632955],[-122.671555,45.632685],[-122.671771,45.632679],[-122.671809,45.632647],[-122.671812,45.632595],[-122.672582,45.632598]]]}},{"type":"Feature","properties":{"id":57,"area_m2":3500,"px":35,"rank":24,"persistent":false},"geometry":{"type":"Polygon","coordinates":[[[-122.673758,45.628911],[-122.673756,45.62927],[-122.67365,45.629286],[-122.673627,45.62936],[-122.673405,45.629369],[-122.67337,45.629449],[-122.673255,45.629473],[-122.673241,45.629539],[-122.672857,45.629538],[-122.672834,45.629464],[-122.672729,45.629448],[-122.672732,45.628818],[-122.673117,45.628819],[-122.673126,45.62888],[-122.673186,45.628909],[-122.673758,45.628911]],[[-122.673241,45.629406],[-122.673251,45.629204],[-122.673209,45.629181],[-122.673115,45.629179],[-122.673083,45.629084],[-122.6729,45.629094],[-122.672859,45.629137],[-122.672866,45.629419],[-122.672926,45.629448],[-122.673201,45.629443],[-122.673241,45.629406]]]}},{"type":"Feature","properties":{"id":56,"area_m2":3100,"px":31,"rank":25,"persistent":true},"geometry":{"type":"Polygon","coordinates":[[[-122.683377,45.629388],[-122.683376,45.629658],[-122.683248,45.629657],[-122.683243,45.629421],[-122.683201,45.629391],[-122.683121,45.629387],[-122.683112,45.629325],[-122.683059,45.629298],[-122.682919,45.629299],[-122.682866,45.62934],[-122.68287,45.629443],[-122.682911,45.629472],[-122.682992,45.629477],[-122.682991,45.629566],[-122.682607,45.629565],[-122.682586,45.629298],[-122.682534,45.629281],[-122.682223,45.629294],[-122.682201,45.62922],[-122.682095,45.629204],[-122.682097,45.628934],[-122.682867,45.628936],[-122.682863,45.629096],[-122.682915,45.629116],[-122.683122,45.629117],[-122.683134,45.629273],[-122.683249,45.629297],[-122.683283,45.629378],[-122.683377,45.629388]],[[-122.682403,45.629205],[-122.682477,45.629167],[-122.682472,45.629054],[-122.682419,45.629026],[-122.682265,45.629031],[-122.682226,45.629068],[-122.682233,45.629176],[-122.682286,45.629204],[-122.682403,45.629205]]]}},{"type":"Feature","properties":{"id":83,"area_m2":3100,"px":31,"rank":26,"persistent":false},"geometry":{"type":"Polygon","coordinates":[[[-122.680308,45.627669],[-122.680307,45.627849],[-122.680201,45.627864],[-122.680178,45.627938],[-122.679409,45.627936],[-122.67941,45.627666],[-122.679511,45.627662],[-122.679557,45.627622],[-122.67954,45.627307],[-122.679797,45.627307],[-122.679806,45.627369],[-122.679858,45.627397],[-122.680181,45.627399],[-122.680183,45.62763],[-122.680227,45.627665],[-122.680308,45.627669]],[[-122.679974,45.627668],[-122.680048,45.62763],[-122.680039,45.627512],[-122.679983,45.627488],[-122.67981,45.627497],[-122.679776,45.627543],[-122.679808,45.627643],[-122.679857,45.627667],[-122.679974,45.627668]]]}},{"type":"Feature","properties":{"id":36,"area_m2":3000,"px":30,"rank":27,"persistent":false},"geometry":{"type":"Polygon","coordinates":[[[-122.673746,45.631071],[-122.673742,45.631701],[-122.673357,45.6317],[-122.673336,45.631445],[-122.67317,45.631405],[-122.673102,45.631429],[-122.672974,45.631428],[-122.672952,45.631264],[-122.672718,45.631248],[-122.672719,45.631158],[-122.672825,45.631142],[-122.672848,45.631068],[-122.673104,45.631069],[-122.673165,45.631093],[-122.673233,45.631069],[-122.673746,45.631071]],[[-122.673539,45.63134],[-122.673613,45.631302],[-122.673608,45.631189],[-122.673555,45.631161],[-122.673401,45.631166],[-122.673361,45.631203],[-122.673368,45.631311],[-122.673421,45.631339],[-122.673539,45.63134]]]}},{"type":"Feature","properties":{"id":61,"area_m2":2900,"px":29,"rank":28,"persistent":false},"geometry":{"type":"Polygon","coordinates":[[[-122.674783,45.629183],[-122.674781,45.629453],[-122.673883,45.629451],[-122.673886,45.629001],[-122.674399,45.629002],[-122.674399,45.629134],[-122.674432,45.629173],[-122.674783,45.629183]]]}},{"type":"Feature","properties":{"id":74,"area_m2":2900,"px":29,"rank":29,"persistent":true},"geometry":{"type":"Polygon","coordinates":[[[-122.68685,45.627777],[-122.686848,45.628137],[-122.686626,45.628146],[-122.686591,45.628226],[-122.686476,45.62825],[-122.686462,45.628316],[-122.686077,45.628315],[-122.686075,45.628173],[-122.686031,45.628139],[-122.68595,45.628135],[-122.685951,45.628045],[-122.686045,45.628036],[-122.686079,45.627955],[-122.68619,45.627935],[-122.686208,45.627824],[-122.686154,45.627777],[-122.685952,45.627774],[-122.685953,45.627595],[-122.686466,45.627596],[-122.6865,45.627677],[-122.686722,45.627687],[-122.686744,45.627761],[-122.68685,45.627777]],[[-122.686333,45.628044],[-122.686283,45.628022],[-122.686225,45.628032],[-122.686188,45.628074],[-122.686204,45.628115],[-122.686256,45.628135],[-122.686327,45.628123],[-122.686355,45.628085],[-122.686333,45.628044]],[[-122.686516,45.628057],[-122.686673,45.628042],[-122.686715,45.628013],[-122.68672,45.62782],[-122.686667,45.627779],[-122.686527,45.627777],[-122.686466,45.627819],[-122.686465,45.628016],[-122.686516,45.628057]]]}},{"type":"Feature","properties":{"id":17,"area_m2":2800,"px":28,"rank":30,"persistent":false},"geometry":{"type":"Polygon","coordinates":[[[-122.675793,45.631977],[-122.675793,45.632067],[-122.675664,45.632066],[-122.675652,45.632],[-122.675537,45.631976],[-122.675534,45.631924],[-122.675496,45.631892],[-122.675322,45.631886],[-122.675266,45.63192],[-122.675297,45.632045],[-122.675408,45.632066],[-122.675441,45.632147],[-122.675535,45.632156],[-122.675535,45.632246],[-122.6755,45.632288],[-122.675534,45.632336],[-122.675533,45.632516],[-122.675405,45.632515],[-122.675404,45.632379],[-122.675352,45.632338],[-122.674636,45.632333],[-122.674639,45.631973],[-122.674767,45.631974],[-122.674766,45.632195],[-122.674806,45.632237],[-122.675229,45.632245],[-122.675296,45.632205],[-122.675262,45.632085],[-122.675151,45.632065],[-122.675117,45.631984],[-122.675023,45.631974],[-122.674996,45.631897],[-122.674896,45.631884],[-122.674898,45.631524],[-122.674971,45.631522],[-122.675017,45.631496],[-122.675027,45.631344],[-122.675155,45.631345],[-122.67516,45.631491],[-122.675202,45.631521],[-122.675282,45.631525],[-122.675316,45.631606],[-122.67541,45.631616],[-122.675422,45.631772],[-122.675537,45.631796],[-122.675571,45.631877],[-122.675665,45.631886],[-122.675693,45.631964],[-122.675793,45.631977]],[[-122.675065,45.631878],[-122.675221,45.631897],[-122.675275,45.631865],[-122.67528,45.631659],[-122.675234,45.631619],[-122.675093,45.631601],[-122.675027,45.631644],[-122.675026,45.631841],[-122.675065,45.631878]]]}},{"type":"Feature","properties":{"id":51,"area_m2":2700,"px":27,"rank":31,"persistent":false},"geometry":{"type":"Polygon","coordinates":[[[-122.676961,45.62973],[-122.67696,45.62982],[-122.676873,45.629826],[-122.676833,45.629863],[-122.676829,45.630269],[-122.676316,45.630268],[-122.676294,45.630194],[-122.676188,45.630177],[-122.67619,45.629998],[-122.676291,45.629994],[-122.676337,45.629953],[-122.676319,45.629728],[-122.676535,45.629722],[-122.676573,45.62969],[-122.676578,45.629639],[-122.676705,45.629639],[-122.67671,45.629696],[-122.676759,45.629727],[-122.676961,45.62973]]]}},{"type":"Feature","properties":{"id":63,"area_m2":2600,"px":26,"rank":32,"persistent":false},"geometry":{"type":"Polygon","coordinates":[[[-122.670423,45.628811],[-122.67042,45.629351],[-122.670292,45.629351],[-122.670286,45.629294],[-122.670245,45.629265],[-122.670098,45.629261],[-122.670037,45.629303],[-122.670035,45.62944],[-122.669906,45.629439],[-122.669904,45.629208],[-122.66986,45.629173],[-122.66978,45.629169],[-122.669782,45.628809],[-122.66991,45.628809],[-122.66997,45.628834],[-122.670038,45.62881],[-122.670423,45.628811]]]}},{"type":"Feature","properties":{"id":110,"area_m2":2600,"px":26,"rank":33,"persistent":false},"geometry":{"type":"Polygon","coordinates":[[[-122.675961,45.625136],[-122.675959,45.625406],[-122.675878,45.62541],[-122.675834,45.625444],[-122.675829,45.625676],[-122.675445,45.625675],[-122.675422,45.625601],[-122.675317,45.625585],[-122.67532,45.625135],[-122.675961,45.625136]]]}},{"type":"Feature","properties":{"id":4,"area_m2":2500,"px":25,"rank":34,"persistent":false},"geometry":{"type":"Polygon","coordinates":[[[-122.671423,45.632776],[-122.671392,45.632822],[-122.671426,45.632864],[-122.671425,45.632954],[-122.67131,45.632978],[-122.671296,45.633134],[-122.67119,45.633149],[-122.671167,45.633223],[-122.671039,45.633223],[-122.671011,45.633145],[-122.670851,45.633108],[-122.670683,45.633144],[-122.670654,45.633222],[-122.670526,45.633222],[-122.670529,45.632682],[-122.670657,45.632682],[-122.670717,45.632706],[-122.670787,45.632682],[-122.670914,45.632683],[-122.670974,45.632707],[-122.671042,45.632683],[-122.671427,45.632684],[-122.671423,45.632776]]]}},{"type":"Feature","properties":{"id":11,"area_m2":2400,"px":24,"rank":35,"persistent":false},"geometry":{"type":"Polygon","coordinates":[[[-122.677717,45.632072],[-122.677714,45.632522],[-122.677499,45.632528],[-122.677461,45.63256],[-122.677457,45.632611],[-122.677201,45.632611],[-122.677179,45.632536],[-122.677073,45.63252],[-122.677076,45.63198],[-122.677589,45.631982],[-122.677611,45.632056],[-122.677717,45.632072]],[[-122.677263,45.632263],[-122.677565,45.632236],[-122.677588,45.632198],[-122.677566,45.632087],[-122.677512,45.632071],[-122.677226,45.632086],[-122.677209,45.632231],[-122.677263,45.632263]]]}},{"type":"Feature","properties":{"id":33,"area_m2":2400,"px":24,"rank":36,"persistent":false},"geometry":{"type":"Polygon","coordinates":[[[-122.674641,45.631523],[-122.67464,45.631613],[-122.674535,45.631629],[-122.674512,45.631703],[-122.674296,45.631709],[-122.674258,45.631741],[-122.674255,45.631792],[-122.67387,45.631791],[-122.673873,45.631161],[-122.673979,45.631146],[-122.674002,45.631071],[-122.674515,45.631073],[-122.674514,45.631343],[-122.67437,45.631335],[-122.674385,45.631206],[-122.674325,45.631163],[-122.674158,45.631174],[-122.674111,45.631297],[-122.674156,45.631338],[-122.674273,45.63135],[-122.674257,45.631487],[-122.674295,45.631529],[-122.674641,45.631523]]]}},{"type":"Feature","properties":{"id":77,"area_m2":2400,"px":24,"rank":37,"persistent":false},"geometry":{"type":"Polygon","coordinates":[[[-122.681204,45.627941],[-122.681203,45.628211],[-122.680818,45.62821],[-122.680796,45.628136],[-122.68069,45.62812],[-122.680674,45.62796],[-122.680563,45.62794],[-122.680529,45.627859],[-122.680435,45.627849],[-122.680437,45.627579],[-122.680693,45.62758],[-122.680716,45.627654],[-122.680821,45.62767],[-122.680838,45.627741],[-122.680949,45.627761],[-122.680983,45.627842],[-122.681077,45.627851],[-122.681104,45.627929],[-122.681204,45.627941]]]}},{"type":"Feature","properties":{"id":32,"area_m2":2300,"px":23,"rank":38,"persistent":false},"geometry":{"type":"Polygon","coordinates":[[[-122.679774,45.631358],[-122.679773,45.631448],[-122.679693,45.631452],[-122.679648,45.631486],[-122.679644,45.631627],[-122.679563,45.631631],[-122.679521,45.63166],[-122.679515,45.631807],[-122.67913,45.631806],[-122.679108,45.631732],[-122.679002,45.631716],[-122.679004,45.631446],[-122.679119,45.631422],[-122.679133,45.631266],[-122.679239,45.63125],[-122.679262,45.631176],[-122.679647,45.631177],[-122.679655,45.631329],[-122.6797,45.631355],[-122.679774,45.631358]],[[-122.679517,45.631487],[-122.679457,45.631434],[-122.679294,45.631456],[-122.679261,45.63149],[-122.679252,45.631601],[-122.679309,45.631626],[-122.679482,45.631618],[-122.679515,45.631584],[-122.679517,45.631487]]]}},{"type":"Feature","properties":{"id":35,"area_m2":2200,"px":22,"rank":39,"persistent":true},"geometry":{"type":"Polygon","coordinates":[[[-122.676564,45.63135],[-122.676532,45.631396],[-122.676566,45.631439],[-122.676564,45.631709],[-122.676051,45.631707],[-122.676054,45.631167],[-122.676439,45.631168],[-122.676461,45.631243],[-122.676567,45.631259],[-122.676564,45.63135]]]}},{"type":"Feature","properties":{"id":52,"area_m2":2200,"px":22,"rank":40,"persistent":false},"geometry":{"type":"Polygon","coordinates":[[[-122.670418,45.629621],[-122.670417,45.629801],[-122.670344,45.629803],[-122.670298,45.629829],[-122.670288,45.629981],[-122.670093,45.629981],[-122.670037,45.630013],[-122.67003,45.63025],[-122.669773,45.630249],[-122.669774,45.630159],[-122.669868,45.63015],[-122.669902,45.630106],[-122.66989,45.630003],[-122.669775,45.629979],[-122.669777,45.629619],[-122.670418,45.629621]]]}},{"type":"Feature","properties":{"id":16,"area_m2":2100,"px":21,"rank":41,"persistent":false},"geometry":{"type":"Polygon","coordinates":[[[-122.681181,45.631992],[-122.68118,45.632172],[-122.681093,45.632178],[-122.681053,45.632215],[-122.68105,45.632531],[-122.680537,45.63253],[-122.680538,45.63244],[-122.680632,45.632431],[-122.680666,45.63235],[-122.680747,45.632346],[-122.680789,45.632317],[-122.680814,45.632216],[-122.680746,45.632171],[-122.680573,45.632179],[-122.680538,45.63226],[-122.680423,45.632284],[-122.68041,45.63235],[-122.680299,45.632369],[-122.680281,45.632439],[-122.680153,45.632439],[-122.680153,45.632349],[-122.680247,45.63234],[-122.680282,45.632259],[-122.680356,45.632257],[-122.680401,45.632231],[-122.680411,45.63208],[-122.680862,45.63208],[-122.680915,45.632052],[-122.680925,45.631991],[-122.681181,45.631992]]]}},{"type":"Feature","properties":{"id":109,"area_m2":2100,"px":21,"rank":42,"persistent":false},"geometry":{"type":"Polygon","coordinates":[[[-122.678012,45.625322],[-122.678012,45.625412],[-122.677405,45.62542],[-122.67737,45.625459],[-122.677369,45.62568],[-122.677241,45.62568],[-122.677242,45.62541],[-122.677277,45.625368],[-122.677243,45.625319],[-122.677244,45.62514],[-122.677278,45.625098],[-122.677244,45.62505],[-122.677245,45.62487],[-122.677502,45.624871],[-122.677518,45.625121],[-122.677628,45.625141],[-122.677631,45.625193],[-122.677669,45.625225],[-122.677884,45.625232],[-122.677907,45.625306],[-122.678012,45.625322]]]}},{"type":"Feature","properties":{"id":94,"area_m2":2000,"px":20,"rank":43,"persistent":true},"geometry":{"type":"Polygon","coordinates":[[[-122.682494,45.626685],[-122.682492,45.627045],[-122.682142,45.627053],[-122.682108,45.627093],[-122.682106,45.627224],[-122.681978,45.627223],[-122.681973,45.627167],[-122.681924,45.627136],[-122.681722,45.627133],[-122.681723,45.627043],[-122.681804,45.627039],[-122.681848,45.627005],[-122.681852,45.626863],[-122.681958,45.626848],[-122.681981,45.626774],[-122.682197,45.626768],[-122.682234,45.626736],[-122.682238,45.626684],[-122.682494,45.626685]]]}},{"type":"Feature","properties":{"id":88,"area_m2":1900,"px":19,"rank":44,"persistent":false},"geometry":{"type":"Polygon","coordinates":[[[-122.676974,45.62739],[-122.676972,45.627749],[-122.676587,45.627748],[-122.676582,45.627692],[-122.676533,45.627661],[-122.676203,45.627657],[-122.676203,45.627567],[-122.676238,45.627525],[-122.676204,45.627477],[-122.676205,45.627387],[-122.676974,45.62739]]]}},{"type":"Feature","properties":{"id":20,"area_m2":1800,"px":18,"rank":45,"persistent":false},"geometry":{"type":"Polygon","coordinates":[[[-122.670404,45.632141],[-122.670403,45.632231],[-122.670316,45.632237],[-122.670276,45.632274],[-122.670273,45.632501],[-122.66976,45.632499],[-122.669761,45.632319],[-122.669849,45.632313],[-122.669888,45.632276],[-122.669891,45.63205],[-122.670276,45.632051],[-122.670298,45.632125],[-122.670404,45.632141]]]}},{"type":"Feature","properties":{"id":31,"area_m2":1800,"px":18,"rank":46,"persistent":false},"geometry":{"type":"Polygon","coordinates":[[[-122.683367,45.631278],[-122.683365,45.631458],[-122.683278,45.631464],[-122.683239,45.631501],[-122.683235,45.631817],[-122.682979,45.631817],[-122.682974,45.63158],[-122.682933,45.631551],[-122.682852,45.631546],[-122.682818,45.631465],[-122.682724,45.631456],[-122.682757,45.631308],[-122.682703,45.631202],[-122.682597,45.631186],[-122.682598,45.631096],[-122.682854,45.631096],[-122.682863,45.631158],[-122.682916,45.631185],[-122.683239,45.631187],[-122.683261,45.631262],[-122.683367,45.631278]],[[-122.682911,45.631276],[-122.682855,45.631293],[-122.682834,45.631327],[-122.682887,45.631447],[-122.683168,45.631457],[-122.683224,45.631433],[-122.683238,45.631326],[-122.683204,45.631286],[-122.682911,45.631276]]]}},{"type":"Feature","properties":{"id":23,"area_m2":1700,"px":17,"rank":47,"persistent":false},"geometry":{"type":"Polygon","coordinates":[[[-122.689524,45.631475],[-122.689523,45.631655],[-122.689289,45.63167],[-122.689265,45.631834],[-122.689159,45.63185],[-122.689136,45.631924],[-122.688914,45.631932],[-122.688879,45.632013],[-122.688764,45.632037],[-122.68875,45.632103],[-122.68864,45.632122],[-122.688622,45.632192],[-122.688511,45.632212],[-122.688493,45.632282],[-122.688365,45.632282],[-122.688366,45.632102],[-122.688471,45.632086],[-122.688494,45.632012],[-122.688588,45.632003],[-122.688623,45.631922],[-122.688734,45.631903],[-122.688752,45.631833],[-122.688986,45.631817],[-122.689009,45.631743],[-122.689103,45.631734],[-122.689138,45.631654],[-122.689211,45.631652],[-122.689257,45.631625],[-122.689267,45.631474],[-122.689524,45.631475]]]}},{"type":"Feature","properties":{"id":53,"area_m2":1700,"px":17,"rank":48,"persistent":false},"geometry":{"type":"Polygon","coordinates":[[[-122.673625,45.62972],[-122.673623,45.63008],[-122.673517,45.630096],[-122.673494,45.63017],[-122.673238,45.630169],[-122.673216,45.630095],[-122.67311,45.630079],[-122.673113,45.629629],[-122.673497,45.62963],[-122.67352,45.629704],[-122.673625,45.62972]],[[-122.673418,45.63008],[-122.673492,45.630042],[-122.673487,45.629928],[-122.673434,45.629901],[-122.67328,45.629906],[-122.67324,45.629943],[-122.673247,45.630051],[-122.6733,45.630078],[-122.673418,45.63008]]]}},{"type":"Feature","properties":{"id":106,"area_m2":1700,"px":17,"rank":49,"persistent":false},"geometry":{"type":"Polygon","coordinates":[[[-122.683912,45.625519],[-122.683911,45.625699],[-122.683811,45.625711],[-122.683782,45.625788],[-122.683695,45.625794],[-122.683655,45.625831],[-122.683651,45.626238],[-122.683523,45.626238],[-122.683524,45.626003],[-122.683479,45.625958],[-122.683302,45.625976],[-122.683268,45.626057],[-122.683011,45.626056],[-122.683012,45.625876],[-122.683246,45.625861],[-122.68327,45.625697],[-122.683735,45.625694],[-122.683782,45.625655],[-122.683784,45.625518],[-122.683912,45.625519]]]}},{"type":"Feature","properties":{"id":48,"area_m2":1600,"px":16,"rank":50,"persistent":false},"geometry":{"type":"Polygon","coordinates":[[[-122.677856,45.630182],[-122.677855,45.630362],[-122.677781,45.630364],[-122.677736,45.63039],[-122.677726,45.630542],[-122.67762,45.630557],[-122.677597,45.630631],[-122.677469,45.630631],[-122.67746,45.63048],[-122.677415,45.630453],[-122.677342,45.630451],[-122.677343,45.630181],[-122.677449,45.630165],[-122.677474,45.630091],[-122.677728,45.630092],[-122.677751,45.630166],[-122.677856,45.630182]]]}},{"type":"Feature","properties":{"id":59,"area_m2":1600,"px":16,"rank":51,"persistent":false},"geometry":{"type":"Polygon","coordinates":[[[-122.679145,45.629196],[-122.679144,45.629376],[-122.678928,45.629382],[-122.67889,45.629413],[-122.678887,45.629465],[-122.678245,45.629463],[-122.678246,45.629373],[-122.678352,45.629358],[-122.678375,45.629284],[-122.67849,45.62926],[-122.678503,45.629194],[-122.679145,45.629196]]]}},{"type":"Feature","properties":{"id":50,"area_m2":1500,"px":15,"rank":52,"persistent":false},"geometry":{"type":"Polygon","coordinates":[[[-122.685427,45.629843],[-122.685425,45.630203],[-122.685319,45.630219],[-122.685296,45.630293],[-122.684783,45.630292],[-122.684761,45.630217],[-122.684656,45.630201],[-122.684657,45.629931],[-122.684763,45.629916],[-122.684786,45.629842],[-122.685427,45.629843]],[[-122.68522,45.630203],[-122.685275,45.630187],[-122.685297,45.630154],[-122.685298,45.629982],[-122.68527,45.629945],[-122.684862,45.629932],[-122.684803,45.629951],[-122.684784,45.630148],[-122.684812,45.630189],[-122.68522,45.630203]]]}},{"type":"Feature","properties":{"id":72,"area_m2":1500,"px":15,"rank":53,"persistent":false},"geometry":{"type":"Polygon","coordinates":[[[-122.673506,45.62819],[-122.673505,45.62837],[-122.67331,45.62837],[-122.673254,45.628402],[-122.673246,45.628639],[-122.67299,45.628638],[-122.672993,45.628188],[-122.673098,45.628173],[-122.673123,45.628099],[-122.67325,45.628099],[-122.673255,45.628156],[-122.673304,45.628187],[-122.673506,45.62819]]]}},{"type":"Feature","properties":{"id":26,"area_m2":1400,"px":14,"rank":54,"persistent":false},"geometry":{"type":"Polygon","coordinates":[[[-122.678488,45.631804],[-122.678487,45.632074],[-122.678381,45.63209],[-122.678358,45.632164],[-122.678101,45.632163],[-122.678079,45.632089],[-122.677974,45.632073],[-122.677982,45.631918],[-122.67794,45.631895],[-122.677846,45.631892],[-122.677847,45.631802],[-122.678488,45.631804]]]}},{"type":"Feature","properties":{"id":45,"area_m2":1400,"px":14,"rank":55,"persistent":false},"geometry":{"type":"Polygon","coordinates":[[[-122.670414,45.630341],[-122.670412,45.630701],[-122.670306,45.630717],[-122.670283,45.630791],[-122.669899,45.63079],[-122.669916,45.630649],[-122.669872,45.630614],[-122.669771,45.630609],[-122.669772,45.630429],[-122.669878,45.630414],[-122.669901,45.63034],[-122.670414,45.630341]],[[-122.670051,45.630446],[-122.67001,45.63066],[-122.670054,45.630696],[-122.670261,45.630685],[-122.670284,45.630647],[-122.670263,45.630446],[-122.670208,45.63043],[-122.670051,45.630446]]]}},{"type":"Feature","properties":{"id":30,"area_m2":1300,"px":13,"rank":56,"persistent":false},"geometry":{"type":"Polygon","coordinates":[[[-122.684519,45.631641],[-122.684518,45.631821],[-122.683749,45.631819],[-122.68375,45.631639],[-122.683855,45.631623],[-122.683878,45.631549],[-122.684006,45.63155],[-122.684015,45.631611],[-122.684068,45.631639],[-122.684519,45.631641]]]}},{"type":"Feature","properties":{"id":117,"area_m2":1300,"px":13,"rank":57,"persistent":false},"geometry":{"type":"Polygon","coordinates":[[[-122.673535,45.623149],[-122.673534,45.623329],[-122.672893,45.623327],[-122.672894,45.623057],[-122.673279,45.623059],[-122.673282,45.62311],[-122.673319,45.623142],[-122.673535,45.623149]]]}},{"type":"Feature","properties":{"id":15,"area_m2":1200,"px":12,"rank":58,"persistent":false},"geometry":{"type":"Polygon","coordinates":[[[-122.682077,45.632354],[-122.682076,45.632534],[-122.681179,45.632532],[-122.681179,45.632442],[-122.681285,45.632426],[-122.681308,45.632352],[-122.681693,45.632353],[-122.681753,45.632378],[-122.681821,45.632354],[-122.682077,45.632354]]]}},{"type":"Feature","properties":{"id":58,"area_m2":1200,"px":12,"rank":59,"persistent":false},"geometry":{"type":"Polygon","coordinates":[[[-122.685687,45.629304],[-122.685686,45.629394],[-122.684986,45.629392],[-122.684926,45.62942],[-122.684916,45.629482],[-122.684788,45.629481],[-122.684785,45.62934],[-122.684741,45.629305],[-122.684661,45.629301],[-122.684661,45.629211],[-122.685174,45.629213],[-122.685183,45.629274],[-122.685236,45.629302],[-122.685687,45.629304]]]}},{"type":"Feature","properties":{"id":73,"area_m2":1200,"px":12,"rank":60,"persistent":false},"geometry":{"type":"Polygon","coordinates":[[[-122.67992,45.628208],[-122.679918,45.628478],[-122.679703,45.628484],[-122.679665,45.628515],[-122.67966,45.628567],[-122.679533,45.628567],[-122.679511,45.628493],[-122.679405,45.628476],[-122.679407,45.628296],[-122.679441,45.628254],[-122.679407,45.628206],[-122.679408,45.628116],[-122.679792,45.628118],[-122.679814,45.628192],[-122.67992,45.628208]]]}},{"type":"Feature","properties":{"id":18,"area_m2":1100,"px":11,"rank":61,"persistent":false},"geometry":{"type":"Polygon","coordinates":[[[-122.675277,45.632425],[-122.675277,45.632515],[-122.673866,45.632511],[-122.673866,45.632421],[-122.675277,45.632425]]]}},{"type":"Feature","properties":{"id":34,"area_m2":1100,"px":11,"rank":62,"persistent":false},"geometry":{"type":"Polygon","coordinates":[[[-122.689012,45.631203],[-122.689011,45.631293],[-122.688911,45.631305],[-122.688883,45.631383],[-122.688783,45.631395],[-122.688754,45.631473],[-122.68866,45.631481],[-122.688625,45.631562],[-122.688514,45.631582],[-122.688496,45.631652],[-122.688391,45.631667],[-122.688367,45.631741],[-122.688239,45.631741],[-122.68824,45.631561],[-122.688346,45.631546],[-122.688369,45.631472],[-122.688469,45.63146],[-122.688498,45.631382],[-122.688592,45.631373],[-122.688627,45.631292],[-122.688738,45.631273],[-122.688756,45.631203],[-122.689012,45.631203]]]}},{"type":"Feature","properties":{"id":104,"area_m2":1100,"px":11,"rank":63,"persistent":false},"geometry":{"type":"Polygon","coordinates":[[[-122.686088,45.626335],[-122.686088,45.626425],[-122.685961,45.626424],[-122.685937,45.62635],[-122.685786,45.626311],[-122.685703,45.626334],[-122.685447,45.626333],[-122.685425,45.626259],[-122.685319,45.626243],[-122.68532,45.626063],[-122.685577,45.626063],[-122.685586,45.626125],[-122.685638,45.626152],[-122.685961,45.626154],[-122.685969,45.626306],[-122.686015,45.626332],[-122.686088,45.626335]]]}},{"type":"Feature","properties":{"id":6,"area_m2":1000,"px":10,"rank":64,"persistent":false},"geometry":{"type":"Polygon","coordinates":[[[-122.674763,45.632694],[-122.67476,45.633054],[-122.674632,45.633053],[-122.674634,45.632742],[-122.674587,45.632697],[-122.674418,45.632699],[-122.674381,45.632731],[-122.674377,45.632783],[-122.673864,45.632781],[-122.673865,45.632691],[-122.674316,45.632691],[-122.674369,45.632664],[-122.674378,45.632603],[-122.674635,45.632603],[-122.674657,45.632678],[-122.674763,45.632694]]]}},{"type":"Feature","properties":{"id":10,"area_m2":1000,"px":10,"rank":65,"persistent":false},"geometry":{"type":"Polygon","coordinates":[[[-122.682719,45.632356],[-122.682717,45.632626],[-122.682204,45.632625],[-122.682205,45.632445],[-122.682421,45.632439],[-122.682459,45.632407],[-122.682463,45.632355],[-122.682719,45.632356]]]}},{"type":"Feature","properties":{"id":65,"area_m2":1000,"px":10,"rank":66,"persistent":false},"geometry":{"type":"Polygon","coordinates":[[[-122.688512,45.628862],[-122.688511,45.629042],[-122.688417,45.629051],[-122.688382,45.629131],[-122.688276,45.629147],[-122.688253,45.629221],[-122.687997,45.62922],[-122.687998,45.62904],[-122.688103,45.629025],[-122.688127,45.628951],[-122.688242,45.628927],[-122.688255,45.628861],[-122.688512,45.628862]]]}},{"type":"Feature","properties":{"id":21,"area_m2":900,"px":9,"rank":67,"persistent":false},"geometry":{"type":"Polygon","coordinates":[[[-122.678486,45.632254],[-122.678485,45.632434],[-122.677843,45.632432],[-122.677845,45.632162],[-122.677973,45.632163],[-122.677974,45.632299],[-122.678034,45.632342],[-122.678195,45.632334],[-122.678229,45.632254],[-122.678486,45.632254]]]}},{"type":"Feature","properties":{"id":14,"area_m2":900,"px":9,"rank":68,"persistent":false},"geometry":{"type":"Polygon","coordinates":[[[-122.683233,45.632178],[-122.683232,45.632447],[-122.683126,45.632463],[-122.683103,45.632537],[-122.682975,45.632537],[-122.682952,45.632463],[-122.682847,45.632446],[-122.682848,45.632266],[-122.682942,45.632264],[-122.682988,45.632237],[-122.682977,45.632087],[-122.683105,45.632087],[-122.683128,45.632161],[-122.683233,45.632178]]]}},{"type":"Feature","properties":{"id":41,"area_m2":900,"px":9,"rank":69,"persistent":false},"geometry":{"type":"Polygon","coordinates":[[[-122.680291,45.630639],[-122.680291,45.630729],[-122.680203,45.630735],[-122.680164,45.630772],[-122.680161,45.630999],[-122.679904,45.630998],[-122.679905,45.630908],[-122.679986,45.630904],[-122.680027,45.630875],[-122.680032,45.630772],[-122.679972,45.630729],[-122.679778,45.630728],[-122.679778,45.630638],[-122.679884,45.630622],[-122.679909,45.630548],[-122.680035,45.630548],[-122.680041,45.630605],[-122.680089,45.630636],[-122.680291,45.630639]]]}},{"type":"Feature","properties":{"id":78,"area_m2":900,"px":9,"rank":70,"persistent":false},"geometry":{"type":"Polygon","coordinates":[[[-122.683001,45.627766],[-122.683,45.628036],[-122.682894,45.628052],[-122.682871,45.628126],[-122.682743,45.628126],[-122.68274,45.627984],[-122.682696,45.62795],[-122.682616,45.627945],[-122.682616,45.627855],[-122.68269,45.627853],[-122.682735,45.627827],[-122.682746,45.627676],[-122.682874,45.627676],[-122.682896,45.62775],[-122.683001,45.627766]]]}},{"type":"Feature","properties":{"id":87,"area_m2":900,"px":9,"rank":71,"persistent":true},"geometry":{"type":"Polygon","coordinates":[[[-122.682233,45.627494],[-122.682232,45.627764],[-122.682104,45.627764],[-122.682081,45.62769],[-122.681976,45.627673],[-122.681975,45.627537],[-122.681915,45.627494],[-122.681748,45.627505],[-122.68172,45.627542],[-122.681719,45.627673],[-122.681591,45.627672],[-122.681592,45.627493],[-122.681698,45.627477],[-122.681721,45.627403],[-122.681977,45.627404],[-122.68198,45.627455],[-122.682017,45.627487],[-122.682233,45.627494]]]}},{"type":"Feature","properties":{"id":98,"area_m2":900,"px":9,"rank":72,"persistent":false},"geometry":{"type":"Polygon","coordinates":[[[-122.670436,45.626561],[-122.670436,45.626651],[-122.67012,45.62665],[-122.670064,45.626674],[-122.670048,45.6271],[-122.66992,45.627099],[-122.669923,45.626559],[-122.670436,45.626561]]]}},{"type":"Feature","properties":{"id":105,"area_m2":900,"px":9,"rank":73,"persistent":false},"geometry":{"type":"Polygon","coordinates":[[[-122.674544,45.626122],[-122.674543,45.626302],[-122.674415,45.626302],[-122.674393,45.626228],[-122.674287,45.626212],[-122.674253,45.626131],[-122.674159,45.626121],[-122.674151,45.62597],[-122.674106,45.625943],[-122.674032,45.625941],[-122.673998,45.62586],[-122.673904,45.625851],[-122.673905,45.625761],[-122.674033,45.625761],[-122.674039,45.625818],[-122.674087,45.625849],[-122.674289,45.625852],[-122.674301,45.626008],[-122.674416,45.626032],[-122.67445,45.626113],[-122.674544,45.626122]]]}},{"type":"Feature","properties":{"id":19,"area_m2":800,"px":8,"rank":74,"persistent":false},"geometry":{"type":"Polygon","coordinates":[[[-122.671173,45.632233],[-122.671172,45.632323],[-122.671092,45.632327],[-122.671047,45.632361],[-122.671043,45.632503],[-122.67053,45.632502],[-122.67053,45.632412],[-122.670565,45.632369],[-122.670531,45.632322],[-122.670532,45.632232],[-122.67066,45.632232],[-122.670687,45.63231],[-122.670848,45.632347],[-122.671016,45.632311],[-122.671045,45.632233],[-122.671173,45.632233]]]}},{"type":"Feature","properties":{"id":43,"area_m2":800,"px":8,"rank":75,"persistent":false},"geometry":{"type":"Polygon","coordinates":[[[-122.674775,45.630534],[-122.674774,45.630623],[-122.674552,45.630632],[-122.674498,45.630747],[-122.674551,45.630801],[-122.674773,45.630804],[-122.674773,45.630894],[-122.674388,45.630892],[-122.674366,45.630818],[-122.67426,45.630802],[-122.674261,45.630712],[-122.674342,45.630708],[-122.674386,45.630674],[-122.67439,45.630533],[-122.674775,45.630534]]]}},{"type":"Feature","properties":{"id":54,"area_m2":800,"px":8,"rank":76,"persistent":false},"geometry":{"type":"Polygon","coordinates":[[[-122.683503,45.629748],[-122.683502,45.630018],[-122.683396,45.630034],[-122.683373,45.630108],[-122.683245,45.630107],[-122.68323,45.630025],[-122.683333,45.630011],[-122.683372,45.629974],[-122.683371,45.629876],[-122.68332,45.62984],[-122.683146,45.629849],[-122.683118,45.629886],[-122.683133,45.630009],[-122.682989,45.630017],[-122.68299,45.629837],[-122.683096,45.629821],[-122.683119,45.629747],[-122.683503,45.629748]]]}},{"type":"Feature","properties":{"id":22,"area_m2":700,"px":7,"rank":77,"persistent":false},"geometry":{"type":"Polygon","coordinates":[[[-122.67451,45.631973],[-122.674508,45.632333],[-122.673995,45.632331],[-122.673996,45.632242],[-122.674358,45.632227],[-122.674382,45.631973],[-122.67451,45.631973]]]}},{"type":"Feature","properties":{"id":38,"area_m2":700,"px":7,"rank":78,"persistent":false},"geometry":{"type":"Polygon","coordinates":[[[-122.675669,45.631166],[-122.675669,45.631256],[-122.675588,45.63126],[-122.675544,45.631294],[-122.67554,45.631436],[-122.675283,45.631435],[-122.675298,45.63129],[-122.67525,45.631257],[-122.675156,45.631255],[-122.675156,45.631165],[-122.675669,45.631166]]]}},{"type":"Feature","properties":{"id":75,"area_m2":700,"px":7,"rank":79,"persistent":false},"geometry":{"type":"Polygon","coordinates":[[[-122.683513,45.628038],[-122.683512,45.628308],[-122.683255,45.628307],[-122.683253,45.628165],[-122.683209,45.628131],[-122.683128,45.628127],[-122.683128,45.628037],[-122.683513,45.628038]]]}},{"type":"Feature","properties":{"id":76,"area_m2":700,"px":7,"rank":80,"persistent":false},"geometry":{"type":"Polygon","coordinates":[[[-122.682487,45.628035],[-122.682486,45.628215],[-122.682229,45.628214],[-122.682242,45.628064],[-122.682196,45.628037],[-122.682102,45.628034],[-122.682068,45.627953],[-122.681974,45.627943],[-122.681975,45.627854],[-122.682103,45.627854],[-122.682163,45.627878],[-122.682231,45.627854],[-122.682359,45.627855],[-122.682368,45.628006],[-122.682413,45.628032],[-122.682487,45.628035]]]}},{"type":"Feature","properties":{"id":102,"area_m2":700,"px":7,"rank":81,"persistent":false},"geometry":{"type":"Polygon","coordinates":[[[-122.675953,45.626487],[-122.675952,45.626576],[-122.675847,45.626592],[-122.675824,45.626666],[-122.675696,45.626666],[-122.67569,45.626609],[-122.675641,45.626578],[-122.675439,45.626575],[-122.67544,45.626485],[-122.675546,45.62647],[-122.675569,45.626395],[-122.675825,45.626396],[-122.675847,45.62647],[-122.675953,45.626487]]]}},{"type":"Feature","properties":{"id":3,"area_m2":600,"px":6,"rank":82,"persistent":false},"geometry":{"type":"Polygon","coordinates":[[[-122.672966,45.632689],[-122.672963,45.633229],[-122.672835,45.633228],[-122.672838,45.632688],[-122.672966,45.632689]]]}},{"type":"Feature","properties":{"id":66,"area_m2":600,"px":6,"rank":83,"persistent":false},"geometry":{"type":"Polygon","coordinates":[[[-122.683509,45.628758],[-122.683508,45.628848],[-122.683403,45.628863],[-122.68338,45.628937],[-122.683252,45.628937],[-122.683229,45.628863],[-122.683124,45.628847],[-122.683125,45.628667],[-122.683381,45.628668],[-122.683403,45.628742],[-122.683509,45.628758]]]}},{"type":"Feature","properties":{"id":86,"area_m2":600,"px":6,"rank":84,"persistent":false},"geometry":{"type":"Polygon","coordinates":[[[-122.683516,45.627498],[-122.683516,45.627588],[-122.683435,45.627592],[-122.68339,45.627626],[-122.683386,45.627767],[-122.683258,45.627767],[-122.683236,45.627693],[-122.68313,45.627677],[-122.683131,45.627497],[-122.683516,45.627498]]]}},{"type":"Feature","properties":{"id":84,"area_m2":600,"px":6,"rank":85,"persistent":false},"geometry":{"type":"Polygon","coordinates":[[[-122.675948,45.627387],[-122.675945,45.627927],[-122.675817,45.627926],[-122.67582,45.627386],[-122.675948,45.627387]]]}},{"type":"Feature","properties":{"id":99,"area_m2":600,"px":6,"rank":86,"persistent":true},"geometry":{"type":"Polygon","coordinates":[[[-122.685316,45.626873],[-122.685315,45.626963],[-122.68493,45.626962],[-122.684908,45.626887],[-122.684803,45.626871],[-122.684803,45.626781],[-122.685188,45.626782],[-122.68521,45.626857],[-122.685316,45.626873]]]}},{"type":"Feature","properties":{"id":100,"area_m2":600,"px":6,"rank":87,"persistent":false},"geometry":{"type":"Polygon","coordinates":[[[-122.683648,45.626778],[-122.683647,45.626958],[-122.683391,45.626957],[-122.683399,45.626802],[-122.683342,45.626778],[-122.683135,45.626777],[-122.683136,45.626687],[-122.683521,45.626688],[-122.683543,45.626762],[-122.683648,45.626778]]]}},{"type":"Feature","properties":{"id":113,"area_m2":600,"px":6,"rank":88,"persistent":false},"geometry":{"type":"Polygon","coordinates":[[[-122.67083,45.625032],[-122.670829,45.625302],[-122.670316,45.6253],[-122.670316,45.62521],[-122.67066,45.625205],[-122.6707,45.625168],[-122.670702,45.625031],[-122.67083,45.625032]]]}},{"type":"Feature","properties":{"id":1,"area_m2":500,"px":5,"rank":89,"persistent":false},"geometry":{"type":"Polygon","coordinates":[[[-122.685794,45.633175],[-122.685793,45.633265],[-122.685408,45.633264],[-122.685386,45.633189],[-122.685281,45.633173],[-122.685281,45.633083],[-122.685537,45.633084],[-122.685541,45.633136],[-122.685578,45.633168],[-122.685794,45.633175]]]}},{"type":"Feature","properties":{"id":27,"area_m2":500,"px":5,"rank":90,"persistent":false},"geometry":{"type":"Polygon","coordinates":[[[-122.671174,45.632053],[-122.671173,45.632143],[-122.670532,45.632142],[-122.670533,45.632052],[-122.671174,45.632053]]]}},{"type":"Feature","properties":{"id":49,"area_m2":500,"px":5,"rank":91,"persistent":false},"geometry":{"type":"Polygon","coordinates":[[[-122.673364,45.63053],[-122.673363,45.630619],[-122.672979,45.630618],[-122.67298,45.630438],[-122.673236,45.630439],[-122.673258,45.630513],[-122.673364,45.63053]]]}},{"type":"Feature","properties":{"id":60,"area_m2":500,"px":5,"rank":92,"persistent":false},"geometry":{"type":"Polygon","coordinates":[[[-122.675809,45.629276],[-122.675808,45.629366],[-122.675702,45.629382],[-122.675679,45.629456],[-122.675423,45.629455],[-122.675424,45.629275],[-122.675809,45.629276]]]}},{"type":"Feature","properties":{"id":71,"area_m2":500,"px":5,"rank":93,"persistent":false},"geometry":{"type":"Polygon","coordinates":[[[-122.676968,45.62838],[-122.676968,45.628469],[-122.676624,45.628475],[-122.676584,45.628512],[-122.676582,45.628648],[-122.676454,45.628648],[-122.676455,45.628468],[-122.676561,45.628453],[-122.676584,45.628379],[-122.676968,45.62838]]]}},{"type":"Feature","properties":{"id":7,"area_m2":400,"px":4,"rank":94,"persistent":false},"geometry":{"type":"Polygon","coordinates":[[[-122.674504,45.632963],[-122.674504,45.633053],[-122.673991,45.633052],[-122.673991,45.632962],[-122.674504,45.632963]]]}},{"type":"Feature","properties":{"id":9,"area_m2":400,"px":4,"rank":95,"persistent":false},"geometry":{"type":"Polygon","coordinates":[[[-122.675789,45.632697],[-122.675788,45.632877],[-122.67566,45.632876],[-122.675654,45.632806],[-122.675608,45.632775],[-122.675404,45.632786],[-122.675404,45.632696],[-122.67551,45.63268],[-122.675533,45.632606],[-122.675661,45.632606],[-122.675683,45.632681],[-122.675789,45.632697]]]}},{"type":"Feature","properties":{"id":13,"area_m2":400,"px":4,"rank":96,"persistent":false},"geometry":{"type":"Polygon","coordinates":[[[-122.684002,45.63236],[-122.684001,45.63245],[-122.683896,45.632465],[-122.683873,45.632539],[-122.683744,45.632539],[-122.68376,45.632394],[-122.683711,45.632361],[-122.683617,45.632359],[-122.683618,45.632269],[-122.683874,45.632269],[-122.683896,45.632344],[-122.684002,45.63236]]]}},{"type":"Feature","properties":{"id":25,"area_m2":400,"px":4,"rank":97,"persistent":false},"geometry":{"type":"Polygon","coordinates":[[[-122.676819,45.63207],[-122.676818,45.632249],[-122.676561,45.632249],[-122.676562,45.632069],[-122.676819,45.63207]]]}},{"type":"Feature","properties":{"id":28,"area_m2":400,"px":4,"rank":98,"persistent":false},"geometry":{"type":"Polygon","coordinates":[[[-122.685801,45.631915],[-122.6858,45.632004],[-122.685674,45.632004],[-122.68565,45.63193],[-122.685544,45.631914],[-122.685546,45.631644],[-122.685674,45.631644],[-122.685676,45.631876],[-122.68572,45.63191],[-122.685801,45.631915]]]}},{"type":"Feature","properties":{"id":29,"area_m2":400,"px":4,"rank":99,"persistent":false},"geometry":{"type":"Polygon","coordinates":[[[-122.684904,45.631642],[-122.684903,45.631822],[-122.684647,45.631821],[-122.684648,45.631641],[-122.684904,45.631642]]]}},{"type":"Feature","properties":{"id":47,"area_m2":400,"px":4,"rank":100,"persistent":false},"geometry":{"type":"Polygon","coordinates":[[[-122.675545,45.630446],[-122.675544,45.630716],[-122.675416,45.630715],[-122.675413,45.630574],[-122.675369,45.630539],[-122.675288,45.630535],[-122.675289,45.630445],[-122.675545,45.630446]]]}},{"type":"Feature","properties":{"id":68,"area_m2":400,"px":4,"rank":101,"persistent":false},"geometry":{"type":"Polygon","coordinates":[[[-122.675301,45.628375],[-122.675299,45.628645],[-122.675193,45.62866],[-122.67517,45.628734],[-122.675042,45.628734],[-122.675043,45.628644],[-122.67513,45.628638],[-122.67517,45.628601],[-122.675173,45.628375],[-122.675301,45.628375]]]}},{"type":"Feature","properties":{"id":90,"area_m2":400,"px":4,"rank":102,"persistent":false},"geometry":{"type":"Polygon","coordinates":[[[-122.670047,45.62728],[-122.670046,45.62746],[-122.66979,45.627459],[-122.669791,45.627279],[-122.670047,45.62728]]]}},{"type":"Feature","properties":{"id":92,"area_m2":400,"px":4,"rank":103,"persistent":false},"geometry":{"type":"Polygon","coordinates":[[[-122.687751,45.627149],[-122.68775,45.627329],[-122.687494,45.627329],[-122.687495,45.627149],[-122.687751,45.627149]]]}},{"type":"Feature","properties":{"id":97,"area_m2":400,"px":4,"rank":104,"persistent":false},"geometry":{"type":"Polygon","coordinates":[[[-122.683263,45.626957],[-122.683262,45.627137],[-122.683005,45.627136],[-122.683006,45.627046],[-122.68304,45.627004],[-122.683006,45.626956],[-122.683007,45.626866],[-122.683135,45.626867],[-122.683157,45.626941],[-122.683263,45.626957]]]}},{"type":"Feature","properties":{"id":2,"area_m2":300,"px":3,"rank":105,"persistent":false},"geometry":{"type":"Polygon","coordinates":[[[-122.673477,45.63305],[-122.673476,45.63323],[-122.673348,45.63323],[-122.673326,45.633156],[-122.673221,45.633139],[-122.673221,45.633049],[-122.673477,45.63305]]]}},{"type":"Feature","properties":{"id":39,"area_m2":300,"px":3,"rank":106,"persistent":false},"geometry":{"type":"Polygon","coordinates":[[[-122.670281,45.631241],[-122.67028,45.631331],[-122.670024,45.63133],[-122.670025,45.63115],[-122.670153,45.63115],[-122.670175,45.631225],[-122.670281,45.631241]]]}},{"type":"Feature","properties":{"id":42,"area_m2":300,"px":3,"rank":107,"persistent":false},"geometry":{"type":"Polygon","coordinates":[[[-122.69017,45.630666],[-122.690168,45.630936],[-122.69004,45.630936],[-122.690041,45.630666],[-122.69017,45.630666]]]}},{"type":"Feature","properties":{"id":44,"area_m2":300,"px":3,"rank":108,"persistent":false},"geometry":{"type":"Polygon","coordinates":[[[-122.676571,45.630629],[-122.67657,45.630719],[-122.676368,45.63072],[-122.676319,45.630751],[-122.676313,45.630808],[-122.676185,45.630808],[-122.676185,45.630718],[-122.676291,45.630702],[-122.676314,45.630628],[-122.676571,45.630629]]]}},{"type":"Feature","properties":{"id":55,"area_m2":300,"px":3,"rank":109,"persistent":false},"geometry":{"type":"Polygon","coordinates":[[[-122.68607,45.629665],[-122.686069,45.629755],[-122.685813,45.629754],[-122.685814,45.629574],[-122.685942,45.629575],[-122.685964,45.629649],[-122.68607,45.629665]]]}},{"type":"Feature","properties":{"id":64,"area_m2":300,"px":3,"rank":110,"persistent":false},"geometry":{"type":"Polygon","coordinates":[[[-122.676964,45.6291],[-122.676963,45.62928],[-122.676835,45.629279],[-122.676813,45.629205],[-122.676707,45.629189],[-122.676708,45.629099],[-122.676964,45.6291]]]}},{"type":"Feature","properties":{"id":79,"area_m2":300,"px":3,"rank":111,"persistent":false},"geometry":{"type":"Polygon","coordinates":[[[-122.675688,45.627926],[-122.675688,45.628016],[-122.675303,45.628015],[-122.675303,45.627925],[-122.675688,45.627926]]]}},{"type":"Feature","properties":{"id":80,"area_m2":300,"px":3,"rank":112,"persistent":false},"geometry":{"type":"Polygon","coordinates":[[[-122.674534,45.627923],[-122.674533,45.628013],[-122.674148,45.628011],[-122.674149,45.627922],[-122.674534,45.627923]]]}},{"type":"Feature","properties":{"id":89,"area_m2":300,"px":3,"rank":113,"persistent":false},"geometry":{"type":"Polygon","coordinates":[[[-122.67569,45.627566],[-122.675689,45.627746],[-122.675561,45.627745],[-122.675539,45.627671],[-122.675433,45.627655],[-122.675434,45.627565],[-122.67569,45.627566]]]}},{"type":"Feature","properties":{"id":91,"area_m2":300,"px":3,"rank":114,"persistent":false},"geometry":{"type":"Polygon","coordinates":[[[-122.675692,45.627296],[-122.675691,45.627386],[-122.675307,45.627385],[-122.675307,45.627295],[-122.675692,45.627296]]]}},{"type":"Feature","properties":{"id":101,"area_m2":300,"px":3,"rank":115,"persistent":false},"geometry":{"type":"Polygon","coordinates":[[[-122.685189,45.626602],[-122.685188,45.626692],[-122.684804,45.626691],[-122.684804,45.626601],[-122.685189,45.626602]]]}},{"type":"Feature","properties":{"id":108,"area_m2":300,"px":3,"rank":116,"persistent":false},"geometry":{"type":"Polygon","coordinates":[[[-122.676342,45.625678],[-122.676342,45.625767],[-122.676236,45.625783],[-122.676213,45.625857],[-122.676098,45.625881],[-122.676084,45.625947],[-122.675956,45.625946],[-122.675957,45.625856],[-122.676063,45.625841],[-122.676086,45.625767],[-122.676201,45.625743],[-122.676214,45.625677],[-122.676342,45.625678]]]}},{"type":"Feature","properties":{"id":115,"area_m2":300,"px":3,"rank":117,"persistent":false},"geometry":{"type":"Polygon","coordinates":[[[-122.673526,45.624769],[-122.673525,45.624859],[-122.67314,45.624858],[-122.673141,45.624768],[-122.673526,45.624769]]]}}]}