{"type":"FeatureCollection","features":[{"type":"Feature","properties":{"id":4,"area_m2":109700,"px":1097,"rank":1,"persistent":false},"geometry":{"type":"Polygon","coordinates":[[[-122.675948,45.627387],[-122.675945,45.627927],[-122.675839,45.627942],[-122.675816,45.628016],[-122.67492,45.628014],[-122.674858,45.627989],[-122.674788,45.628013],[-122.67402,45.628011],[-122.673986,45.62793],[-122.673817,45.627909],[-122.673769,45.62794],[-122.673763,45.62801],[-122.67373,45.628047],[-122.673763,45.6281],[-122.673762,45.62819],[-122.673668,45.628199],[-122.673633,45.62828],[-122.673553,45.628284],[-122.673508,45.628318],[-122.673503,45.62864],[-122.672992,45.628638],[-122.672968,45.628564],[-122.672862,45.628547],[-122.672863,45.628368],[-122.672937,45.628366],[-122.672983,45.62834],[-122.672987,45.628222],[-122.672945,45.628192],[-122.672864,45.628188],[-122.672847,45.628118],[-122.672721,45.62809],[-122.672725,45.628018],[-122.672641,45.627995],[-122.672574,45.628049],[-122.672624,45.628105],[-122.672573,45.628229],[-122.672607,45.628277],[-122.672607,45.628367],[-122.672263,45.628373],[-122.672223,45.62841],[-122.672221,45.628546],[-122.672115,45.628562],[-122.672092,45.628636],[-122.671905,45.628635],[-122.671848,45.628659],[-122.671835,45.628766],[-122.671875,45.628809],[-122.672219,45.628816],[-122.672217,45.629266],[-122.672143,45.629268],[-122.672097,45.629294],[-122.672087,45.629446],[-122.671972,45.629469],[-122.671944,45.629591],[-122.672007,45.629625],[-122.672471,45.629627],[-122.672459,45.629777],[-122.672504,45.629805],[-122.672598,45.629807],[-122.672597,45.630077],[-122.672368,45.630089],[-122.67234,45.630125],[-122.672342,45.630232],[-122.672406,45.63027],[-122.672596,45.630257],[-122.672601,45.630327],[-122.672648,45.630359],[-122.672852,45.630348],[-122.672851,45.630528],[-122.67275,45.63054],[-122.672722,45.630618],[-122.672628,45.630627],[-122.672593,45.630707],[-122.672478,45.630731],[-122.672463,45.630977],[-122.672005,45.630978],[-122.671956,45.631009],[-122.671949,45.631065],[-122.671869,45.631069],[-122.671824,45.631104],[-122.671819,45.631515],[-122.671738,45.631519],[-122.671696,45.631548],[-122.671689,45.631736],[-122.671729,45.631779],[-122.671817,45.631785],[-122.67182,45.631837],[-122.671857,45.631869],[-122.672073,45.631876],[-122.67207,45.632416],[-122.671964,45.632432],[-122.671941,45.632506],[-122.671604,45.632509],[-122.671562,45.632538],[-122.671556,45.632594],[-122.67144,45.632618],[-122.671425,45.632954],[-122.671345,45.632958],[-122.6713,45.632992],[-122.671295,45.633224],[-122.671167,45.633223],[-122.671107,45.633199],[-122.671037,45.633223],[-122.670782,45.633222],[-122.670722,45.633198],[-122.670654,45.633222],[-122.670526,45.633222],[-122.670465,45.633197],[-122.670397,45.633221],[-122.670269,45.633221],[-122.670261,45.633069],[-122.670215,45.633043],[-122.670142,45.63304],[-122.670108,45.63296],[-122.670014,45.63295],[-122.670015,45.63286],[-122.670482,45.632871],[-122.670527,45.632832],[-122.670529,45.632682],[-122.671222,45.632684],[-122.671276,45.632668],[-122.671299,45.63263],[-122.671301,45.632324],[-122.671402,45.63232],[-122.671448,45.632279],[-122.671412,45.632164],[-122.671302,45.632142],[-122.671302,45.632054],[-122.671383,45.63205],[-122.671427,45.632016],[-122.671431,45.631833],[-122.671391,45.63179],[-122.671304,45.631784],[-122.671299,45.631714],[-122.671237,45.63168],[-122.671076,45.631705],[-122.671047,45.631783],[-122.670919,45.631783],[-122.670938,45.631648],[-122.67087,45.631603],[-122.670692,45.631614],[-122.670664,45.631651],[-122.670662,45.631782],[-122.670534,45.631781],[-122.670535,45.631602],[-122.670641,45.631586],[-122.670664,45.631512],[-122.670879,45.631511],[-122.670932,45.631483],[-122.670916,45.631276],[-122.670853,45.631243],[-122.670537,45.631241],[-122.670529,45.631167],[-122.670456,45.631138],[-122.670304,45.631167],[-122.670281,45.631241],[-122.670165,45.631264],[-122.670152,45.63133],[-122.670024,45.63133],[-122.670025,45.63115],[-122.670219,45.63115],[-122.670276,45.631117],[-122.670302,45.630836],[-122.670241,45.630792],[-122.669899,45.63079],[-122.669898,45.630563],[-122.669859,45.630526],[-122.669772,45.630519],[-122.669772,45.630429],[-122.669878,45.630414],[-122.669901,45.63034],[-122.670245,45.630334],[-122.670283,45.630302],[-122.670287,45.630251],[-122.670415,45.630251],[-122.670483,45.630275],[-122.670637,45.630243],[-122.670671,45.630203],[-122.670673,45.629982],[-122.671393,45.629984],[-122.671441,45.629967],[-122.671463,45.629928],[-122.671443,45.629757],[-122.67139,45.629716],[-122.671222,45.629722],[-122.671187,45.629803],[-122.670931,45.629802],[-122.670933,45.629316],[-122.670906,45.629275],[-122.670677,45.629262],[-122.670643,45.629181],[-122.670481,45.629159],[-122.670422,45.629201],[-122.67042,45.629351],[-122.670292,45.629351],[-122.670294,45.629045],[-122.670271,45.629006],[-122.670217,45.62899],[-122.669781,45.628989],[-122.669783,45.628629],[-122.669911,45.628629],[-122.669912,45.628766],[-122.669965,45.628807],[-122.670517,45.628802],[-122.670551,45.628763],[-122.670553,45.628631],[-122.670868,45.628632],[-122.670925,45.628608],[-122.670939,45.628362],[-122.671027,45.628356],[-122.671066,45.628319],[-122.671069,45.628093],[-122.671297,45.628081],[-122.671326,45.628003],[-122.6714,45.628001],[-122.671445,45.627975],[-122.671455,45.627878],[-122.671393,45.627825],[-122.671071,45.627823],[-122.671048,45.627748],[-122.670943,45.627732],[-122.670909,45.627651],[-122.670815,45.627642],[-122.670783,45.627548],[-122.670559,45.627551],[-122.670571,45.627401],[-122.670525,45.627373],[-122.670432,45.627371],[-122.670432,45.627281],[-122.670648,45.627275],[-122.670686,45.627243],[-122.670689,45.627192],[-122.670817,45.627192],[-122.670823,45.627262],[-122.670877,45.627295],[-122.671039,45.62728],[-122.671085,45.627253],[-122.671074,45.626876],[-122.671035,45.626839],[-122.670948,45.626831],[-122.67095,45.626562],[-122.67103,45.626558],[-122.671072,45.626529],[-122.671098,45.626433],[-122.671065,45.626392],[-122.670863,45.626388],[-122.670825,45.62642],[-122.670822,45.626472],[-122.670706,45.626495],[-122.670693,45.626561],[-122.670477,45.626567],[-122.670439,45.626599],[-122.670436,45.626651],[-122.670079,45.626662],[-122.670051,45.626704],[-122.670058,45.626981],[-122.670118,45.62701],[-122.670434,45.627011],[-122.670433,45.627101],[-122.66992,45.627099],[-122.66992,45.626783],[-122.669881,45.626746],[-122.669794,45.626739],[-122.669795,45.626649],[-122.6699,45.626633],[-122.669923,45.626559],[-122.670145,45.626557],[-122.6702,45.626504],[-122.670153,45.626392],[-122.669924,45.626379],[-122.669902,45.626305],[-122.669797,45.626289],[-122.669797,45.626199],[-122.669832,45.626156],[-122.669798,45.626109],[-122.669798,45.626019],[-122.669833,45.625976],[-122.669799,45.625929],[-122.6698,45.625749],[-122.669928,45.625749],[-122.669937,45.625811],[-122.669989,45.625838],[-122.670184,45.62584],[-122.670244,45.625864],[-122.670312,45.62584],[-122.670441,45.625841],[-122.670463,45.625915],[-122.670568,45.625931],[-122.670601,45.626025],[-122.670777,45.626018],[-122.670819,45.625988],[-122.670825,45.625932],[-122.67094,45.625908],[-122.670954,45.625842],[-122.671035,45.625838],[-122.671076,45.625809],[-122.671117,45.62571],[-122.671083,45.625662],[-122.671084,45.625483],[-122.671178,45.625474],[-122.671213,45.625429],[-122.6712,45.625327],[-122.671085,45.625302],[-122.671086,45.625213],[-122.671201,45.625189],[-122.671215,45.625033],[-122.671321,45.625017],[-122.671344,45.624943],[-122.671729,45.624944],[-122.671737,45.625006],[-122.671798,45.625034],[-122.671985,45.625035],[-122.672045,45.625059],[-122.672113,45.625035],[-122.672241,45.625036],[-122.672263,45.62511],[-122.672369,45.625126],[-122.672391,45.62529],[-122.672624,45.625307],[-122.672647,45.625381],[-122.672752,45.625397],[-122.672751,45.625577],[-122.672678,45.625579],[-122.672632,45.625605],[-122.672603,45.625701],[-122.67263,45.625744],[-122.67352,45.62576],[-122.673542,45.625834],[-122.673648,45.625851],[-122.673645,45.62621],[-122.673535,45.626229],[-122.673516,45.626389],[-122.673422,45.626398],[-122.673388,45.626443],[-122.673389,45.626526],[-122.673421,45.62656],[-122.673643,45.62657],[-122.67364,45.62711],[-122.673384,45.627109],[-122.673323,45.627085],[-122.673255,45.627109],[-122.672871,45.627108],[-122.672855,45.626767],[-122.672803,45.626748],[-122.672488,45.626747],[-122.672454,45.626666],[-122.672294,45.626657],[-122.672232,45.626705],[-122.67223,45.626967],[-122.67227,45.62701],[-122.672358,45.627016],[-122.672357,45.627106],[-122.672323,45.627154],[-122.672385,45.627274],[-122.672613,45.627287],[-122.672673,45.627311],[-122.672743,45.627287],[-122.674537,45.627293],[-122.674537,45.627382],[-122.674093,45.627382],[-122.674033,45.62741],[-122.674021,45.627872],[-122.674043,45.627905],[-122.674097,45.627921],[-122.6746,45.627922],[-122.674653,45.627894],[-122.674663,45.627833],[-122.674778,45.627809],[-122.674791,45.627517],[-122.674752,45.62748],[-122.674665,45.627473],[-122.674665,45.627383],[-122.675178,45.627384],[-122.675158,45.627514],[-122.675197,45.627558],[-122.675633,45.627566],[-122.675707,45.627526],[-122.675682,45.627414],[-122.675629,45.627387],[-122.675435,45.627385],[-122.675435,45.627295],[-122.67582,45.627296],[-122.675842,45.62737],[-122.675948,45.627387]],[[-122.670055,45.626019],[-122.670074,45.625975],[-122.670042,45.625939],[-122.669969,45.62593],[-122.669919,45.625954],[-122.669909,45.625996],[-122.669945,45.626033],[-122.670002,45.626043],[-122.670055,45.626019]],[[-122.670207,45.6307],[-122.670281,45.630662],[-122.670276,45.630549],[-122.670223,45.630522],[-122.670068,45.630513],[-122.670028,45.630555],[-122.670037,45.630671],[-122.670089,45.630699],[-122.670207,45.6307]],[[-122.671103,45.629257],[-122.67138,45.629277],[-122.671434,45.629253],[-122.671444,45.629122],[-122.6714,45.629088],[-122.67132,45.629083],[-122.671286,45.629003],[-122.671192,45.628993],[-122.671164,45.628915],[-122.670756,45.628902],[-122.670697,45.628921],[-122.670678,45.629118],[-122.670706,45.629159],[-122.671062,45.629173],[-122.671066,45.629224],[-122.671103,45.629257]],[[-122.67136,45.630974],[-122.671414,45.630958],[-122.671437,45.630925],[-122.671422,45.630454],[-122.671253,45.630434],[-122.671192,45.630462],[-122.671181,45.630793],[-122.670927,45.630793],[-122.670921,45.630466],[-122.670857,45.630433],[-122.670698,45.630444],[-122.67067,45.630486],[-122.670685,45.630952],[-122.670744,45.630972],[-122.67136,45.630974]],[[-122.671063,45.628721],[-122.671012,45.628699],[-122.670955,45.628709],[-122.670918,45.628751],[-122.670933,45.628792],[-122.670986,45.628812],[-122.671057,45.6288],[-122.671084,45.628762],[-122.671063,45.628721]],[[-122.671357,45.631424],[-122.671433,45.631381],[-122.671434,45.631288],[-122.671407,45.631256],[-122.671127,45.631243],[-122.671068,45.631263],[-122.67105,45.631374],[-122.671078,45.631411],[-122.671357,45.631424]],[[-122.671374,45.628634],[-122.671449,45.62859],[-122.671449,45.628402],[-122.671397,45.628366],[-122.67125,45.628366],[-122.671197,45.628407],[-122.671198,45.628595],[-122.671249,45.628631],[-122.671374,45.628634]],[[-122.671387,45.625403],[-122.67155,45.62539],[-122.671595,45.625356],[-122.671599,45.625083],[-122.671552,45.625038],[-122.671413,45.625034],[-122.671345,45.625077],[-122.671342,45.625358],[-122.671387,45.625403]],[[-122.671827,45.630614],[-122.671858,45.630578],[-122.671843,45.630538],[-122.671785,45.630512],[-122.671723,45.630524],[-122.671696,45.63056],[-122.671712,45.630608],[-122.67177,45.630629],[-122.671827,45.630614]],[[-122.671873,45.630975],[-122.671949,45.630932],[-122.671948,45.630744],[-122.671897,45.630708],[-122.671748,45.630694],[-122.671695,45.63074],[-122.671697,45.630936],[-122.671748,45.630973],[-122.671873,45.630975]],[[-122.672118,45.627066],[-122.67208,45.626851],[-122.672026,45.626835],[-122.671868,45.626851],[-122.671846,45.626889],[-122.671867,45.627089],[-122.672074,45.627101],[-122.672118,45.627066]],[[-122.672016,45.628455],[-122.67209,45.628417],[-122.672085,45.628304],[-122.672032,45.628277],[-122.671877,45.628268],[-122.671838,45.62831],[-122.671846,45.628426],[-122.671898,45.628454],[-122.672016,45.628455]],[[-122.672124,45.62634],[-122.6721,45.626239],[-122.672052,45.626208],[-122.671904,45.626207],[-122.671853,45.626243],[-122.671852,45.626346],[-122.671903,45.626383],[-122.672091,45.626376],[-122.672124,45.62634]],[[-122.672211,45.630296],[-122.672151,45.630244],[-122.671968,45.630265],[-122.671934,45.630311],[-122.671966,45.630412],[-122.672023,45.630435],[-122.672176,45.630427],[-122.672209,45.630393],[-122.672211,45.630296]],[[-122.672532,45.627917],[-122.672608,45.627874],[-122.672609,45.627781],[-122.672576,45.627746],[-122.672283,45.627736],[-122.672222,45.627757],[-122.672206,45.627797],[-122.672259,45.627907],[-122.672532,45.627917]],[[-122.672543,45.626027],[-122.672617,45.625989],[-122.672612,45.625875],[-122.672559,45.625848],[-122.672405,45.625853],[-122.672368,45.625885],[-122.672352,45.625996],[-122.672406,45.626025],[-122.672543,45.626027]],[[-122.672546,45.625577],[-122.67262,45.625539],[-122.672611,45.625421],[-122.672555,45.625397],[-122.672381,45.625406],[-122.672347,45.625452],[-122.67238,45.625552],[-122.672428,45.625575],[-122.672546,45.625577]],[[-122.673134,45.626028],[-122.673214,45.626025],[-122.673259,45.62599],[-122.673259,45.625887],[-122.673208,45.625851],[-122.673047,45.625855],[-122.673009,45.625886],[-122.673006,45.625938],[-122.672925,45.625942],[-122.672881,45.625976],[-122.67288,45.626079],[-122.672931,45.626116],[-122.673094,45.626125],[-122.67313,45.626094],[-122.673134,45.626028]],[[-122.673042,45.627581],[-122.67324,45.627535],[-122.67325,45.627417],[-122.673199,45.627381],[-122.673052,45.627381],[-122.673003,45.627412],[-122.672964,45.627526],[-122.673042,45.627581]],[[-122.673183,45.626389],[-122.673257,45.62635],[-122.673251,45.626237],[-122.673199,45.62621],[-122.673043,45.626201],[-122.673004,45.626243],[-122.673012,45.62636],[-122.673065,45.626387],[-122.673183,45.626389]],[[-122.673636,45.62778],[-122.67357,45.627726],[-122.673252,45.627739],[-122.673243,45.627677],[-122.67319,45.62765],[-122.673056,45.627636],[-122.672997,45.627678],[-122.673004,45.6278],[-122.673049,45.627826],[-122.673123,45.627829],[-122.673132,45.62789],[-122.673184,45.627918],[-122.673588,45.627916],[-122.673634,45.627877],[-122.673636,45.62778]],[[-122.673635,45.6281],[-122.673653,45.628055],[-122.673621,45.628019],[-122.673549,45.628011],[-122.673499,45.628035],[-122.673489,45.628076],[-122.673525,45.628113],[-122.673582,45.628123],[-122.673635,45.6281]],[[-122.675817,45.627786],[-122.675751,45.627733],[-122.675187,45.627755],[-122.675116,45.62772],[-122.67506,45.627734],[-122.675028,45.627778],[-122.675074,45.62783],[-122.675165,45.627823],[-122.675188,45.6279],[-122.675252,45.627925],[-122.675762,45.627924],[-122.675813,45.627888],[-122.675817,45.627786]]]}},{"type":"Feature","properties":{"id":86,"area_m2":99600,"px":996,"rank":2,"persistent":false},"geometry":{"type":"Polygon","coordinates":[[[-122.684422,45.62615],[-122.684421,45.62624],[-122.683782,45.626238],[-122.683719,45.626214],[-122.683651,45.626238],[-122.683523,45.626238],[-122.683523,45.626088],[-122.683479,45.626048],[-122.683011,45.626056],[-122.683012,45.625876],[-122.683047,45.625829],[-122.683013,45.625786],[-122.683004,45.625635],[-122.682944,45.625606],[-122.682768,45.625617],[-122.682689,45.625581],[-122.682631,45.625603],[-122.68261,45.62565],[-122.682656,45.625691],[-122.682757,45.625696],[-122.682756,45.626102],[-122.682795,45.626139],[-122.682882,45.626146],[-122.682882,45.626236],[-122.681471,45.626232],[-122.681473,45.625872],[-122.681507,45.625819],[-122.681456,45.625712],[-122.681346,45.62569],[-122.681347,45.625422],[-122.681455,45.625415],[-122.681495,45.625372],[-122.681477,45.624925],[-122.681416,45.624883],[-122.681222,45.624881],[-122.681221,45.624546],[-122.681157,45.624508],[-122.680967,45.62452],[-122.680952,45.624438],[-122.681002,45.624383],[-122.680957,45.624334],[-122.680857,45.624347],[-122.680838,45.62443],[-122.680711,45.62443],[-122.680684,45.624352],[-122.680531,45.624316],[-122.680355,45.624351],[-122.680326,45.624429],[-122.680081,45.624439],[-122.680065,45.624358],[-122.680018,45.624327],[-122.679714,45.624349],[-122.679686,45.624385],[-122.679684,45.624553],[-122.679718,45.624598],[-122.679886,45.624605],[-122.679935,45.624574],[-122.679941,45.624518],[-122.680069,45.624518],[-122.680069,45.624608],[-122.679988,45.624612],[-122.679944,45.624646],[-122.67992,45.624822],[-122.679959,45.624871],[-122.680067,45.624878],[-122.680066,45.625058],[-122.67996,45.625073],[-122.679936,45.625148],[-122.679809,45.625147],[-122.679804,45.625091],[-122.679762,45.625061],[-122.679601,45.625061],[-122.679559,45.62509],[-122.679553,45.625146],[-122.679437,45.62517],[-122.679424,45.625236],[-122.679313,45.625256],[-122.679295,45.625326],[-122.679039,45.625325],[-122.679036,45.625273],[-122.678998,45.625241],[-122.678783,45.625234],[-122.67877,45.625168],[-122.678655,45.625144],[-122.678621,45.625063],[-122.678399,45.625053],[-122.6784,45.624873],[-122.678494,45.624864],[-122.678529,45.624784],[-122.678639,45.624764],[-122.678658,45.624604],[-122.678745,45.624598],[-122.678785,45.624561],[-122.678787,45.624424],[-122.67882,45.624366],[-122.678775,45.624268],[-122.67866,45.624244],[-122.678626,45.624163],[-122.678404,45.624153],[-122.678382,45.624079],[-122.678231,45.62404],[-122.678148,45.624062],[-122.677946,45.624064],[-122.677897,45.624095],[-122.677891,45.624152],[-122.677817,45.624154],[-122.677771,45.62418],[-122.677761,45.624331],[-122.677559,45.624333],[-122.677511,45.624364],[-122.677504,45.624421],[-122.677378,45.62442],[-122.677363,45.624354],[-122.677248,45.62433],[-122.677221,45.624252],[-122.676992,45.624239],[-122.676987,45.624183],[-122.676945,45.624153],[-122.67648,45.624148],[-122.676484,45.623988],[-122.676352,45.623967],[-122.676347,45.623911],[-122.676305,45.623881],[-122.676096,45.623877],[-122.676074,45.623802],[-122.675969,45.623786],[-122.675935,45.623705],[-122.675841,45.623696],[-122.675808,45.623602],[-122.675585,45.623605],[-122.675582,45.623553],[-122.675545,45.623521],[-122.675329,45.623514],[-122.675316,45.623448],[-122.675201,45.623424],[-122.675167,45.623343],[-122.674945,45.623333],[-122.674928,45.623263],[-122.674817,45.623243],[-122.674805,45.623177],[-122.67469,45.623152],[-122.674656,45.623072],[-122.674434,45.623062],[-122.674434,45.622972],[-122.674469,45.622929],[-122.674435,45.622882],[-122.674435,45.622792],[-122.674523,45.622786],[-122.674562,45.622749],[-122.674563,45.622656],[-122.67453,45.622621],[-122.674234,45.622614],[-122.674185,45.622644],[-122.674179,45.622701],[-122.674073,45.622717],[-122.674049,45.622971],[-122.673664,45.62297],[-122.673659,45.622823],[-122.673618,45.622794],[-122.673537,45.622789],[-122.673505,45.622695],[-122.673025,45.622698],[-122.673002,45.622623],[-122.672897,45.622607],[-122.672889,45.622456],[-122.672843,45.62243],[-122.67277,45.622427],[-122.672771,45.622247],[-122.672973,45.622245],[-122.673021,45.622214],[-122.673028,45.622158],[-122.673156,45.622158],[-122.673155,45.622338],[-122.673067,45.622344],[-122.673027,45.622386],[-122.673029,45.622479],[-122.67308,45.622516],[-122.673363,45.622515],[-122.673405,45.622485],[-122.673411,45.622429],[-122.673755,45.622423],[-122.673795,45.622386],[-122.673797,45.62225],[-122.673903,45.622234],[-122.673926,45.62216],[-122.674041,45.622137],[-122.674054,45.622071],[-122.67437,45.622071],[-122.674434,45.622038],[-122.674431,45.62192],[-122.674386,45.621894],[-122.674312,45.621891],[-122.674278,45.62181],[-122.674184,45.621801],[-122.674185,45.621711],[-122.674291,45.621695],[-122.674314,45.621621],[-122.674408,45.621612],[-122.674442,45.621532],[-122.674553,45.621512],[-122.674571,45.621442],[-122.675084,45.621444],[-122.675101,45.621514],[-122.675212,45.621534],[-122.675225,45.6216],[-122.67534,45.621624],[-122.675343,45.621676],[-122.67538,45.621708],[-122.675596,45.621715],[-122.675604,45.621776],[-122.675657,45.621804],[-122.67598,45.621806],[-122.675979,45.622117],[-122.676006,45.622154],[-122.67618,45.622164],[-122.676229,45.622133],[-122.676235,45.622077],[-122.676363,45.622077],[-122.676385,45.622151],[-122.676491,45.622168],[-122.676512,45.622345],[-122.676564,45.622362],[-122.676746,45.622348],[-122.676726,45.622472],[-122.676748,45.622512],[-122.677002,45.622529],[-122.677024,45.622603],[-122.67713,45.622619],[-122.677129,45.622799],[-122.677028,45.622803],[-122.676982,45.622844],[-122.677001,45.623026],[-122.67704,45.623063],[-122.677221,45.623061],[-122.677256,45.62298],[-122.677371,45.622956],[-122.677385,45.62289],[-122.677601,45.622884],[-122.677638,45.622853],[-122.677642,45.622801],[-122.677898,45.622802],[-122.677903,45.623038],[-122.677944,45.623068],[-122.678025,45.623072],[-122.678059,45.623153],[-122.678153,45.623162],[-122.678169,45.623323],[-122.67828,45.623343],[-122.678289,45.623404],[-122.678349,45.623433],[-122.678502,45.623424],[-122.678537,45.623344],[-122.678665,45.623344],[-122.678687,45.623418],[-122.678793,45.623434],[-122.678826,45.623515],[-122.67892,45.623525],[-122.67892,45.623615],[-122.678885,45.623662],[-122.678937,45.623775],[-122.678988,45.623795],[-122.679175,45.623795],[-122.679184,45.623857],[-122.679237,45.623884],[-122.679397,45.623877],[-122.679432,45.623796],[-122.679661,45.623784],[-122.679689,45.623748],[-122.67969,45.623617],[-122.679946,45.623617],[-122.679951,45.623688],[-122.680013,45.623721],[-122.680972,45.62371],[-122.680989,45.623781],[-122.6811,45.623801],[-122.681133,45.623882],[-122.681227,45.623891],[-122.681255,45.623969],[-122.681483,45.623982],[-122.681506,45.624056],[-122.681611,45.624072],[-122.681624,45.624138],[-122.681739,45.624163],[-122.681767,45.62424],[-122.681867,45.624253],[-122.681869,45.624485],[-122.681913,45.624519],[-122.681993,45.624523],[-122.682027,45.624604],[-122.682249,45.624614],[-122.682262,45.62468],[-122.682377,45.624704],[-122.682405,45.624782],[-122.682633,45.624795],[-122.682639,45.624852],[-122.68268,45.624881],[-122.683018,45.624886],[-122.683021,45.624938],[-122.683058,45.62497],[-122.683274,45.624977],[-122.683279,45.625034],[-122.683321,45.625063],[-122.683786,45.625068],[-122.683786,45.625475],[-122.683825,45.625512],[-122.683912,45.625519],[-122.683915,45.626115],[-122.683978,45.626149],[-122.684422,45.62615]],[[-122.674436,45.62234],[-122.674385,45.622318],[-122.674328,45.622328],[-122.67429,45.62237],[-122.674306,45.622411],[-122.674358,45.622431],[-122.67443,45.622419],[-122.674457,45.622381],[-122.674436,45.62234]],[[-122.674736,45.622995],[-122.6749,45.622969],[-122.674941,45.62294],[-122.674947,45.622747],[-122.674894,45.622705],[-122.674754,45.622704],[-122.674701,45.622731],[-122.674691,45.622792],[-122.674576,45.622816],[-122.674544,45.622927],[-122.674583,45.622966],[-122.674736,45.622995]],[[-122.675878,45.623204],[-122.675831,45.62309],[-122.675716,45.623065],[-122.675689,45.622988],[-122.67546,45.622975],[-122.675455,45.622918],[-122.675406,45.622887],[-122.675245,45.62289],[-122.675207,45.622922],[-122.675204,45.622974],[-122.675123,45.622978],[-122.675078,45.623012],[-122.675083,45.623215],[-122.675128,45.623241],[-122.675202,45.623244],[-122.675215,45.62331],[-122.67533,45.623334],[-122.675335,45.623391],[-122.675384,45.623422],[-122.675586,45.623425],[-122.675654,45.623449],[-122.675814,45.623414],[-122.675842,45.623377],[-122.675844,45.623246],[-122.675878,45.623204]],[[-122.676868,45.623559],[-122.676808,45.623506],[-122.676659,45.623522],[-122.676612,45.623567],[-122.676626,45.62369],[-122.676365,45.623708],[-122.676354,45.623457],[-122.676323,45.623423],[-122.676266,45.623414],[-122.676108,45.623455],[-122.676098,45.623607],[-122.676064,45.62366],[-122.676138,45.62378],[-122.676343,45.623776],[-122.676359,45.623844],[-122.676408,45.623875],[-122.676676,45.623877],[-122.676737,45.623835],[-122.676723,45.623706],[-122.67682,45.623695],[-122.676861,45.623665],[-122.676868,45.623559]],[[-122.676794,45.623069],[-122.676848,45.623053],[-122.676871,45.62302],[-122.67687,45.622932],[-122.676831,45.622895],[-122.676615,45.622888],[-122.676547,45.622864],[-122.676368,45.622916],[-122.676338,45.623017],[-122.676378,45.623061],[-122.676794,45.623069]],[[-122.677506,45.62424],[-122.677524,45.624196],[-122.677492,45.62416],[-122.677419,45.624151],[-122.67737,45.624175],[-122.67736,45.624217],[-122.677395,45.624254],[-122.677453,45.624264],[-122.677506,45.62424]],[[-122.678656,45.623941],[-122.678681,45.623839],[-122.678649,45.623803],[-122.67846,45.623796],[-122.678409,45.623831],[-122.678408,45.623935],[-122.678459,45.623971],[-122.678607,45.623971],[-122.678656,45.623941]],[[-122.682117,45.625424],[-122.682232,45.6254],[-122.682242,45.625282],[-122.682191,45.625246],[-122.682044,45.625246],[-122.681991,45.625287],[-122.682004,45.625416],[-122.681894,45.625432],[-122.68186,45.625513],[-122.681779,45.625517],[-122.681737,45.625546],[-122.681753,45.625677],[-122.681807,45.625693],[-122.681964,45.625677],[-122.681988,45.625603],[-122.682068,45.625599],[-122.68211,45.62557],[-122.682117,45.625424]]]}},{"type":"Feature","properties":{"id":15,"area_m2":77400,"px":774,"rank":3,"persistent":false},"geometry":{"type":"Polygon","coordinates":[[[-122.683504,45.629568],[-122.683504,45.629658],[-122.682606,45.629655],[-122.682607,45.629344],[-122.682539,45.629296],[-122.682019,45.629283],[-122.681972,45.629314],[-122.681966,45.629384],[-122.681872,45.629393],[-122.681837,45.629473],[-122.681722,45.629497],[-122.681708,45.629653],[-122.68162,45.629659],[-122.68158,45.629701],[-122.681577,45.630329],[-122.681616,45.630366],[-122.681704,45.630373],[-122.681709,45.63043],[-122.681751,45.630459],[-122.682088,45.630464],[-122.682088,45.630554],[-122.681982,45.63057],[-122.681959,45.630644],[-122.681772,45.630644],[-122.681715,45.630667],[-122.681702,45.630769],[-122.681724,45.630807],[-122.681778,45.630823],[-122.682214,45.630825],[-122.682236,45.630989],[-122.68247,45.631005],[-122.682469,45.631095],[-122.682435,45.631143],[-122.682469,45.631185],[-122.682468,45.631454],[-122.682433,45.631498],[-122.682467,45.631547],[-122.682463,45.632175],[-122.682358,45.632191],[-122.682335,45.632265],[-122.682206,45.632265],[-122.682192,45.631911],[-122.682134,45.631891],[-122.681824,45.631903],[-122.681824,45.631814],[-122.681925,45.63181],[-122.68197,45.631774],[-122.681954,45.631544],[-122.682048,45.631542],[-122.682097,45.63151],[-122.68207,45.631388],[-122.682014,45.631364],[-122.681698,45.631363],[-122.681615,45.63134],[-122.681476,45.631372],[-122.681441,45.631452],[-122.68136,45.631456],[-122.681316,45.63149],[-122.68131,45.631902],[-122.681276,45.631944],[-122.68131,45.631992],[-122.681309,45.632172],[-122.681215,45.632181],[-122.68118,45.632262],[-122.681106,45.632264],[-122.681061,45.63229],[-122.68105,45.632531],[-122.680922,45.632531],[-122.680861,45.632507],[-122.680794,45.632531],[-122.680537,45.63253],[-122.680538,45.63244],[-122.680638,45.632428],[-122.680666,45.63235],[-122.68076,45.632342],[-122.680795,45.632261],[-122.680906,45.632241],[-122.680925,45.632081],[-122.681012,45.632075],[-122.681051,45.632038],[-122.681048,45.631845],[-122.681007,45.631815],[-122.680926,45.631811],[-122.680925,45.631399],[-122.680859,45.631361],[-122.680572,45.631372],[-122.680543,45.631414],[-122.680541,45.63181],[-122.680435,45.631825],[-122.680412,45.6319],[-122.680027,45.631898],[-122.680028,45.631809],[-122.680122,45.6318],[-122.680156,45.631755],[-122.680152,45.631572],[-122.68011,45.631543],[-122.68003,45.631538],[-122.680031,45.631359],[-122.680104,45.631356],[-122.68015,45.63133],[-122.68016,45.631179],[-122.680545,45.63118],[-122.680613,45.631204],[-122.680673,45.63118],[-122.68086,45.631181],[-122.680912,45.631161],[-122.680931,45.631001],[-122.681018,45.630995],[-122.681058,45.630958],[-122.681077,45.630406],[-122.681005,45.630371],[-122.679395,45.630367],[-122.679373,45.630292],[-122.679267,45.630276],[-122.679268,45.630006],[-122.679356,45.63],[-122.679395,45.629963],[-122.679399,45.629647],[-122.679433,45.629604],[-122.679399,45.629556],[-122.6794,45.629467],[-122.6795,45.629455],[-122.679529,45.629377],[-122.679623,45.629368],[-122.679657,45.629287],[-122.679768,45.629268],[-122.679787,45.629108],[-122.680252,45.629105],[-122.680294,45.629076],[-122.6803,45.629019],[-122.680416,45.628995],[-122.680429,45.628929],[-122.680557,45.62893],[-122.680591,45.629011],[-122.680744,45.62902],[-122.680805,45.628992],[-122.680814,45.62893],[-122.681137,45.62893],[-122.68119,45.628903],[-122.681199,45.628842],[-122.681417,45.628849],[-122.681456,45.628807],[-122.681454,45.62852],[-122.68141,45.628486],[-122.68133,45.628482],[-122.681331,45.62826],[-122.681303,45.628224],[-122.681129,45.628214],[-122.68108,45.628244],[-122.681074,45.628301],[-122.680946,45.628301],[-122.680924,45.628226],[-122.680818,45.62821],[-122.680805,45.628144],[-122.68069,45.62812],[-122.680663,45.628042],[-122.680563,45.62803],[-122.680546,45.627869],[-122.680382,45.627835],[-122.68031,45.627874],[-122.680306,45.628029],[-122.680097,45.628032],[-122.680055,45.628062],[-122.680049,45.628118],[-122.679968,45.628122],[-122.679926,45.628151],[-122.679918,45.628568],[-122.679389,45.628559],[-122.679405,45.62834],[-122.679366,45.628303],[-122.679278,45.628296],[-122.679279,45.628206],[-122.679373,45.628197],[-122.679408,45.628116],[-122.679509,45.628112],[-122.679553,45.628077],[-122.679524,45.627961],[-122.679409,45.627936],[-122.679394,45.627674],[-122.679518,45.62766],[-122.679558,45.627611],[-122.679517,45.627502],[-122.679357,45.627472],[-122.679284,45.627516],[-122.679297,45.627658],[-122.679201,45.62767],[-122.679159,45.627699],[-122.679152,45.627846],[-122.679072,45.62785],[-122.67903,45.627879],[-122.679023,45.628025],[-122.678451,45.628024],[-122.678404,45.628039],[-122.678381,45.628078],[-122.678383,45.628345],[-122.678427,45.62838],[-122.678508,45.628384],[-122.67853,45.628458],[-122.678584,45.628474],[-122.679149,45.628476],[-122.679171,45.62855],[-122.679292,45.628574],[-122.679276,45.628656],[-122.67906,45.628662],[-122.679023,45.628694],[-122.679019,45.628745],[-122.677864,45.628742],[-122.677859,45.628685],[-122.677817,45.628656],[-122.67748,45.628651],[-122.677477,45.628586],[-122.677435,45.628552],[-122.677224,45.62856],[-122.677227,45.62802],[-122.678213,45.628017],[-122.678253,45.627974],[-122.678256,45.627663],[-122.67835,45.627654],[-122.678384,45.627574],[-122.678465,45.62757],[-122.678509,45.627535],[-122.678496,45.627323],[-122.678445,45.627304],[-122.678258,45.627303],[-122.678257,45.627167],[-122.678218,45.627129],[-122.678002,45.627122],[-122.678003,45.627032],[-122.678197,45.627032],[-122.678258,45.62699],[-122.678259,45.626806],[-122.67822,45.626769],[-122.678132,45.626763],[-122.678133,45.626584],[-122.678214,45.626579],[-122.678259,45.626545],[-122.678263,45.626313],[-122.67852,45.626314],[-122.678528,45.626375],[-122.678581,45.626403],[-122.678904,45.626405],[-122.67892,45.626655],[-122.679235,45.626699],[-122.679307,45.626663],[-122.67932,45.626618],[-122.679266,45.626512],[-122.67916,45.626495],[-122.67916,45.626269],[-122.679121,45.626232],[-122.679033,45.626225],[-122.679034,45.626135],[-122.679162,45.626136],[-122.679168,45.626192],[-122.679216,45.626223],[-122.679418,45.626226],[-122.67944,45.6263],[-122.679546,45.626317],[-122.679563,45.626387],[-122.679674,45.626407],[-122.679708,45.626488],[-122.679801,45.626497],[-122.679829,45.626575],[-122.679929,45.626588],[-122.679922,45.627287],[-122.679982,45.627308],[-122.680567,45.62731],[-122.680589,45.627384],[-122.680694,45.6274],[-122.680728,45.627481],[-122.680822,45.62749],[-122.680843,45.627745],[-122.681205,45.627761],[-122.681228,45.627836],[-122.681333,45.627852],[-122.681333,45.627983],[-122.68136,45.62802],[-122.681589,45.628033],[-122.681601,45.628099],[-122.681717,45.628123],[-122.681722,45.62818],[-122.681764,45.628209],[-122.681973,45.628214],[-122.681995,45.628288],[-122.6821,45.628304],[-122.682118,45.628374],[-122.682228,45.628394],[-122.682262,45.628475],[-122.682356,45.628485],[-122.682384,45.628562],[-122.682484,45.628575],[-122.6825,45.628825],[-122.68261,45.628845],[-122.682616,45.628902],[-122.682658,45.628931],[-122.682867,45.628936],[-122.682889,45.62901],[-122.682994,45.629027],[-122.683028,45.629108],[-122.683122,45.629117],[-122.683134,45.629273],[-122.683249,45.629297],[-122.683283,45.629378],[-122.683377,45.629388],[-122.683385,45.629539],[-122.683431,45.629565],[-122.683504,45.629568]],[[-122.678267,45.628613],[-122.678234,45.628403],[-122.678084,45.62837],[-122.678022,45.628382],[-122.677995,45.628423],[-122.678011,45.628633],[-122.678063,45.628652],[-122.678223,45.628649],[-122.678267,45.628613]],[[-122.678818,45.627935],[-122.678873,45.627919],[-122.678895,45.627886],[-122.678896,45.627528],[-122.678843,45.627487],[-122.678703,45.627485],[-122.678643,45.627528],[-122.67864,45.627664],[-122.678546,45.627673],[-122.678511,45.627754],[-122.678401,45.627773],[-122.678384,45.62789],[-122.678452,45.627933],[-122.678818,45.627935]],[[-122.679412,45.627396],[-122.67943,45.627351],[-122.679398,45.627316],[-122.679333,45.627306],[-122.67928,45.627327],[-122.679264,45.627367],[-122.679301,45.62741],[-122.679359,45.62742],[-122.679412,45.627396]],[[-122.679713,45.628477],[-122.679789,45.628434],[-122.679786,45.628241],[-122.67973,45.628208],[-122.679562,45.628211],[-122.679515,45.628257],[-122.67954,45.628443],[-122.679588,45.628475],[-122.679713,45.628477]],[[-122.679654,45.629555],[-122.679603,45.629533],[-122.679546,45.629543],[-122.679508,45.629586],[-122.679524,45.629626],[-122.679577,45.629647],[-122.679648,45.629634],[-122.679675,45.629597],[-122.679654,45.629555]],[[-122.680926,45.630252],[-122.680952,45.630141],[-122.680901,45.630103],[-122.680423,45.630099],[-122.680419,45.630048],[-122.680382,45.630016],[-122.680167,45.630009],[-122.680166,45.629872],[-122.680113,45.629831],[-122.679595,45.629827],[-122.679529,45.629865],[-122.679524,45.630228],[-122.679578,45.630275],[-122.680865,45.63028],[-122.680926,45.630252]],[[-122.679791,45.628025],[-122.67974,45.628004],[-122.679683,45.628014],[-122.679645,45.628056],[-122.679661,45.628097],[-122.679714,45.628117],[-122.679785,45.628105],[-122.679812,45.628067],[-122.679791,45.628025]],[[-122.679842,45.627663],[-122.679992,45.62768],[-122.680043,45.627653],[-122.680046,45.627521],[-122.679991,45.627489],[-122.679823,45.627492],[-122.679776,45.627538],[-122.679801,45.627634],[-122.679842,45.627663]],[[-122.680093,45.629468],[-122.680168,45.629425],[-122.680169,45.629332],[-122.680142,45.629301],[-122.679863,45.629288],[-122.679803,45.629307],[-122.679785,45.629419],[-122.679813,45.629455],[-122.680093,45.629468]],[[-122.681044,45.629635],[-122.681086,45.629516],[-122.681047,45.629478],[-122.680811,45.62947],[-122.680777,45.629389],[-122.680624,45.62938],[-122.680558,45.629418],[-122.680554,45.62956],[-122.680211,45.62956],[-122.680161,45.629584],[-122.68015,45.62962],[-122.680186,45.629719],[-122.680296,45.629739],[-122.680297,45.629876],[-122.680336,45.629913],[-122.680867,45.62992],[-122.680935,45.629877],[-122.680938,45.629651],[-122.681044,45.629635]],[[-122.680607,45.62929],[-122.680682,45.629247],[-122.680683,45.629154],[-122.680656,45.629122],[-122.680377,45.629109],[-122.680317,45.629129],[-122.680299,45.62924],[-122.680327,45.629277],[-122.680607,45.62929]],[[-122.681248,45.629292],[-122.681324,45.629248],[-122.681309,45.629042],[-122.68125,45.629022],[-122.68097,45.629033],[-122.680941,45.629075],[-122.680958,45.629271],[-122.68101,45.629291],[-122.681248,45.629292]],[[-122.682245,45.628709],[-122.682205,45.62859],[-122.682099,45.628574],[-122.682091,45.628422],[-122.682045,45.628396],[-122.681972,45.628394],[-122.68195,45.628319],[-122.681895,45.628303],[-122.681738,45.628319],[-122.681694,45.628607],[-122.681716,45.628646],[-122.68197,45.628664],[-122.681983,45.62873],[-122.682047,45.628754],[-122.682213,45.628745],[-122.682245,45.628709]],[[-122.682403,45.629205],[-122.682477,45.629167],[-122.682472,45.629054],[-122.682419,45.629026],[-122.682265,45.629031],[-122.682226,45.629068],[-122.682233,45.629176],[-122.682286,45.629204],[-122.682403,45.629205]],[[-122.683171,45.629567],[-122.683245,45.629529],[-122.68324,45.629416],[-122.683187,45.629388],[-122.683032,45.62938],[-122.682994,45.629416],[-122.68298,45.629537],[-122.683033,45.629566],[-122.683171,45.629567]]]}},{"type":"Feature","properties":{"id":7,"area_m2":17700,"px":177,"rank":4,"persistent":true},"geometry":{"type":"Polygon","coordinates":[[[-122.690292,45.631747],[-122.690284,45.633097],[-122.6899,45.633096],[-122.689839,45.633072],[-122.689771,45.633095],[-122.689258,45.633094],[-122.68925,45.632943],[-122.689205,45.632916],[-122.689131,45.632914],[-122.689122,45.632852],[-122.689062,45.632824],[-122.688685,45.632809],[-122.688624,45.632842],[-122.688618,45.632912],[-122.688233,45.632911],[-122.688225,45.63276],[-122.688179,45.632733],[-122.688106,45.632731],[-122.688089,45.632571],[-122.687978,45.632551],[-122.68798,45.632281],[-122.688214,45.632265],[-122.688237,45.632101],[-122.688439,45.632099],[-122.688488,45.632069],[-122.688494,45.632012],[-122.688723,45.632],[-122.688752,45.631923],[-122.688852,45.631911],[-122.68888,45.631833],[-122.68898,45.631821],[-122.689009,45.631743],[-122.689103,45.631734],[-122.689138,45.631654],[-122.689253,45.63163],[-122.689267,45.631474],[-122.689524,45.631475],[-122.689523,45.631655],[-122.689417,45.63167],[-122.689394,45.631744],[-122.689294,45.631756],[-122.689265,45.631834],[-122.689165,45.631846],[-122.689136,45.631924],[-122.689042,45.631933],[-122.689007,45.632013],[-122.688897,45.632033],[-122.688879,45.632103],[-122.688663,45.632109],[-122.688625,45.632141],[-122.688622,45.632192],[-122.688506,45.632216],[-122.688493,45.632282],[-122.688387,45.632297],[-122.688364,45.632413],[-122.688398,45.632453],[-122.688552,45.632486],[-122.68862,45.632462],[-122.688836,45.632457],[-122.688874,45.632425],[-122.688877,45.632373],[-122.688993,45.632349],[-122.689006,45.632283],[-122.689117,45.632264],[-122.689135,45.632194],[-122.689246,45.632174],[-122.689264,45.632104],[-122.689375,45.632085],[-122.689393,45.632014],[-122.689503,45.631995],[-122.689521,45.631925],[-122.689627,45.631909],[-122.68965,45.631835],[-122.689866,45.631829],[-122.689903,45.631797],[-122.689907,45.631746],[-122.690035,45.631746],[-122.690096,45.63177],[-122.690164,45.631747],[-122.690292,45.631747]]]}},{"type":"Feature","properties":{"id":92,"area_m2":16100,"px":161,"rank":5,"persistent":false},"geometry":{"type":"Polygon","coordinates":[[[-122.674938,45.624593],[-122.674937,45.624683],[-122.674843,45.624692],[-122.674809,45.624737],[-122.674821,45.624839],[-122.674936,45.624863],[-122.674932,45.625493],[-122.674827,45.625509],[-122.674804,45.625583],[-122.674034,45.625581],[-122.674026,45.625429],[-122.67398,45.625403],[-122.673907,45.6254],[-122.673899,45.625326],[-122.673833,45.625297],[-122.673685,45.625319],[-122.67365,45.6254],[-122.673539,45.625419],[-122.673521,45.625579],[-122.67288,45.625578],[-122.67288,45.625488],[-122.672915,45.625445],[-122.672881,45.625396],[-122.672884,45.624816],[-122.672844,45.624774],[-122.672756,45.624767],[-122.672758,45.624407],[-122.672839,45.624403],[-122.672883,45.624369],[-122.672888,45.624138],[-122.673203,45.624138],[-122.67326,45.624115],[-122.673274,45.623923],[-122.673212,45.623869],[-122.67289,45.623867],[-122.672889,45.623641],[-122.67285,45.623604],[-122.672763,45.623597],[-122.672763,45.623507],[-122.672869,45.623492],[-122.672892,45.623417],[-122.673533,45.623419],[-122.673556,45.623494],[-122.673661,45.62351],[-122.673661,45.623736],[-122.6737,45.623773],[-122.673788,45.62378],[-122.673787,45.62387],[-122.673659,45.62387],[-122.673637,45.623795],[-122.673516,45.623772],[-122.673532,45.623558],[-122.673471,45.62351],[-122.673048,45.62352],[-122.67302,45.623562],[-122.673036,45.623758],[-122.673088,45.623778],[-122.673419,45.623787],[-122.673402,45.624],[-122.673442,45.624043],[-122.673786,45.62405],[-122.673789,45.624102],[-122.673827,45.624134],[-122.674042,45.624141],[-122.674041,45.624376],[-122.67408,45.624418],[-122.674426,45.624412],[-122.674426,45.624548],[-122.674479,45.62459],[-122.674938,45.624593]],[[-122.674554,45.624861],[-122.674585,45.624809],[-122.674512,45.624689],[-122.674109,45.624681],[-122.674048,45.624709],[-122.674039,45.624771],[-122.67381,45.624782],[-122.673782,45.62486],[-122.673666,45.624884],[-122.673653,45.62495],[-122.673525,45.624949],[-122.673525,45.624859],[-122.673606,45.624856],[-122.67365,45.624821],[-122.673656,45.6245],[-122.673749,45.624498],[-122.673795,45.62447],[-122.673776,45.624349],[-122.673715,45.62432],[-122.673092,45.624318],[-122.673021,45.624351],[-122.673019,45.624735],[-122.673074,45.624767],[-122.673269,45.624769],[-122.673268,45.624859],[-122.673175,45.624861],[-122.673125,45.624893],[-122.673145,45.625005],[-122.673201,45.625037],[-122.673396,45.625039],[-122.673401,45.625096],[-122.673443,45.625125],[-122.673856,45.625141],[-122.673907,45.625101],[-122.67391,45.624951],[-122.674294,45.624952],[-122.674298,45.625278],[-122.674347,45.625309],[-122.674496,45.625323],[-122.674549,45.625277],[-122.674554,45.624861]]]}},{"type":"Feature","properties":{"id":80,"area_m2":12200,"px":122,"rank":6,"persistent":false},"geometry":{"type":"Polygon","coordinates":[[[-122.677753,45.625772],[-122.677753,45.625861],[-122.677665,45.625868],[-122.677624,45.62591],[-122.677621,45.626491],[-122.677533,45.626497],[-122.677493,45.62654],[-122.677488,45.627211],[-122.677382,45.627226],[-122.677358,45.627301],[-122.677231,45.6273],[-122.677223,45.627239],[-122.677162,45.62721],[-122.676077,45.627207],[-122.67608,45.626667],[-122.676174,45.626658],[-122.676209,45.626577],[-122.67631,45.626573],[-122.676356,45.626533],[-122.676339,45.626398],[-122.676373,45.62635],[-122.676339,45.626308],[-122.676341,45.626038],[-122.676446,45.626022],[-122.676469,45.625948],[-122.676826,45.625937],[-122.676854,45.6259],[-122.676855,45.625769],[-122.677753,45.625772]],[[-122.676528,45.626487],[-122.676798,45.6265],[-122.67685,45.626459],[-122.67685,45.626077],[-122.676792,45.62604],[-122.676523,45.62604],[-122.67647,45.626081],[-122.676467,45.626308],[-122.676433,45.62635],[-122.67647,45.62645],[-122.676528,45.626487]],[[-122.677109,45.626668],[-122.67714,45.626633],[-122.677126,45.626593],[-122.677068,45.626566],[-122.677006,45.626579],[-122.676979,45.626614],[-122.676995,45.626663],[-122.677053,45.626683],[-122.677109,45.626668]]]}},{"type":"Feature","properties":{"id":79,"area_m2":10400,"px":104,"rank":7,"persistent":false},"geometry":{"type":"Polygon","coordinates":[[[-122.687111,45.627058],[-122.68711,45.627238],[-122.686894,45.627243],[-122.686856,45.627275],[-122.686852,45.627327],[-122.686724,45.627327],[-122.686702,45.627252],[-122.686597,45.627236],[-122.686594,45.627095],[-122.686528,45.627056],[-122.686011,45.627057],[-122.685957,45.627098],[-122.685955,45.627234],[-122.685699,45.627234],[-122.685686,45.627168],[-122.685571,45.627143],[-122.685565,45.627087],[-122.685517,45.627056],[-122.68493,45.627052],[-122.684908,45.626977],[-122.684802,45.626961],[-122.684768,45.62688],[-122.684674,45.626871],[-122.684675,45.626691],[-122.684781,45.626675],[-122.684806,45.626601],[-122.685189,45.626602],[-122.685194,45.626659],[-122.685243,45.62669],[-122.685632,45.626693],[-122.685693,45.626665],[-122.685702,45.626604],[-122.685889,45.626604],[-122.685941,45.626585],[-122.68596,45.626388],[-122.685932,45.626347],[-122.685447,45.626333],[-122.685425,45.626259],[-122.685319,45.626243],[-122.68532,45.626153],[-122.6854,45.626149],[-122.685445,45.626115],[-122.685449,45.625973],[-122.685577,45.625973],[-122.685605,45.626051],[-122.685833,45.626064],[-122.685855,45.626138],[-122.685961,45.626154],[-122.685995,45.626235],[-122.686089,45.626245],[-122.686094,45.626391],[-122.686135,45.626421],[-122.686216,45.626425],[-122.68625,45.626506],[-122.686344,45.626516],[-122.686366,45.62668],[-122.686471,45.626696],[-122.686477,45.626753],[-122.686518,45.626782],[-122.686727,45.626787],[-122.686749,45.626861],[-122.686855,45.626877],[-122.686868,45.626943],[-122.686983,45.626967],[-122.687011,45.627045],[-122.687111,45.627058]]]}},{"type":"Feature","properties":{"id":42,"area_m2":8900,"px":89,"rank":8,"persistent":false},"geometry":{"type":"Polygon","coordinates":[[[-122.679139,45.630096],[-122.679136,45.630726],[-122.67903,45.630741],[-122.679007,45.630815],[-122.678751,45.630815],[-122.678738,45.630749],[-122.678674,45.630725],[-122.678529,45.630733],[-122.678494,45.630814],[-122.678238,45.630813],[-122.678215,45.630739],[-122.67811,45.630723],[-122.678109,45.630586],[-122.67807,45.630549],[-122.677895,45.630549],[-122.677857,45.630581],[-122.677853,45.630632],[-122.677469,45.630631],[-122.67746,45.63048],[-122.677415,45.630453],[-122.677342,45.630451],[-122.677343,45.630181],[-122.677449,45.630165],[-122.677472,45.630091],[-122.677857,45.630092],[-122.677857,45.630319],[-122.677932,45.630362],[-122.67805,45.630362],[-122.678099,45.630339],[-122.678113,45.630093],[-122.678219,45.630077],[-122.678242,45.630003],[-122.678627,45.630004],[-122.67864,45.63007],[-122.678703,45.630095],[-122.678849,45.630086],[-122.678884,45.630005],[-122.679012,45.630006],[-122.679034,45.63008],[-122.679139,45.630096]]]}},{"type":"Feature","properties":{"id":66,"area_m2":7500,"px":75,"rank":9,"persistent":false},"geometry":{"type":"Polygon","coordinates":[[[-122.685438,45.627863],[-122.685437,45.628043],[-122.685343,45.628052],[-122.685309,45.628097],[-122.685321,45.628199],[-122.685436,45.628223],[-122.685435,45.628493],[-122.684962,45.628498],[-122.684923,45.628535],[-122.684921,45.628672],[-122.684793,45.628671],[-122.684784,45.62861],[-122.684724,45.628581],[-122.684571,45.62859],[-122.684536,45.628671],[-122.684408,45.62867],[-122.684402,45.628614],[-122.684353,45.628583],[-122.6841,45.62858],[-122.684036,45.628603],[-122.684023,45.628669],[-122.683896,45.628669],[-122.683886,45.628607],[-122.683833,45.62858],[-122.683638,45.628578],[-122.683578,45.628554],[-122.68351,45.628578],[-122.683382,45.628577],[-122.683374,45.628336],[-122.683329,45.62831],[-122.683255,45.628307],[-122.683221,45.628226],[-122.683127,45.628217],[-122.683128,45.628037],[-122.683513,45.628038],[-122.683513,45.628183],[-122.683545,45.628222],[-122.683897,45.628219],[-122.683931,45.6283],[-122.684091,45.628308],[-122.684144,45.628281],[-122.684154,45.62822],[-122.684227,45.628218],[-122.684273,45.628191],[-122.684283,45.62804],[-122.684796,45.628041],[-122.684795,45.628221],[-122.684714,45.628225],[-122.684672,45.628254],[-122.684666,45.628442],[-122.68472,45.628489],[-122.68486,45.628491],[-122.684921,45.628448],[-122.684923,45.628312],[-122.685023,45.6283],[-122.685052,45.628222],[-122.685139,45.628216],[-122.685179,45.628179],[-122.685181,45.628042],[-122.685215,45.628],[-122.685181,45.627952],[-122.685181,45.627726],[-122.685142,45.627689],[-122.685055,45.627682],[-122.685055,45.627592],[-122.685183,45.627592],[-122.685205,45.627667],[-122.685311,45.627683],[-122.685319,45.627834],[-122.685365,45.627861],[-122.685438,45.627863]]]}},{"type":"Feature","properties":{"id":12,"area_m2":7300,"px":73,"rank":10,"persistent":false},"geometry":{"type":"Polygon","coordinates":[[[-122.678616,45.631895],[-122.678616,45.631985],[-122.678528,45.631991],[-122.678489,45.632028],[-122.678485,45.632434],[-122.677898,45.632435],[-122.677849,45.632466],[-122.677843,45.632522],[-122.677614,45.632534],[-122.677586,45.632612],[-122.677201,45.632611],[-122.677179,45.632536],[-122.677073,45.63252],[-122.677077,45.63189],[-122.677205,45.631891],[-122.677214,45.631952],[-122.677266,45.63198],[-122.677683,45.63198],[-122.677736,45.631937],[-122.677719,45.631802],[-122.677824,45.631787],[-122.677849,45.631712],[-122.678489,45.631714],[-122.678497,45.631866],[-122.678542,45.631892],[-122.678616,45.631895]],[[-122.677511,45.632251],[-122.677585,45.632213],[-122.677579,45.6321],[-122.677527,45.632073],[-122.677373,45.632077],[-122.677333,45.632114],[-122.67734,45.632222],[-122.677393,45.63225],[-122.677511,45.632251]]]}},{"type":"Feature","properties":{"id":56,"area_m2":7300,"px":73,"rank":11,"persistent":false},"geometry":{"type":"Polygon","coordinates":[[[-122.674783,45.629183],[-122.674781,45.629453],[-122.674676,45.629469],[-122.674652,45.629543],[-122.673883,45.629541],[-122.673881,45.629386],[-122.673809,45.629347],[-122.673411,45.629366],[-122.673374,45.629398],[-122.67337,45.629449],[-122.673255,45.629473],[-122.673241,45.629539],[-122.672857,45.629538],[-122.672834,45.629464],[-122.672729,45.629448],[-122.672732,45.628908],[-122.672838,45.628892],[-122.672861,45.628818],[-122.673759,45.628821],[-122.673786,45.628898],[-122.674015,45.628911],[-122.67402,45.628968],[-122.674062,45.628997],[-122.674399,45.629002],[-122.6744,45.629139],[-122.674439,45.629176],[-122.674783,45.629183]],[[-122.673388,45.62923],[-122.67339,45.629039],[-122.673338,45.629002],[-122.673057,45.628999],[-122.67301,45.629014],[-122.672987,45.629088],[-122.6729,45.629094],[-122.67286,45.629131],[-122.672858,45.629399],[-122.67288,45.629432],[-122.672934,45.629448],[-122.673219,45.629433],[-122.673243,45.629269],[-122.673344,45.629265],[-122.673388,45.62923]]]}},{"type":"Feature","properties":{"id":30,"area_m2":6900,"px":69,"rank":12,"persistent":false},"geometry":{"type":"Polygon","coordinates":[[[-122.674643,45.631163],[-122.674643,45.631253],[-122.674562,45.631257],[-122.674517,45.631291],[-122.674493,45.631467],[-122.674533,45.631516],[-122.674641,45.631523],[-122.67464,45.631613],[-122.674406,45.631628],[-122.674383,45.631793],[-122.67387,45.631791],[-122.673809,45.631767],[-122.673741,45.631791],[-122.673357,45.63179],[-122.673346,45.631454],[-122.673297,45.63143],[-122.673157,45.631431],[-122.673108,45.631462],[-122.673101,45.631519],[-122.672973,45.631518],[-122.672961,45.631362],[-122.672846,45.631338],[-122.672812,45.631257],[-122.672718,45.631248],[-122.672719,45.631068],[-122.673746,45.631071],[-122.673758,45.631137],[-122.673822,45.631161],[-122.673968,45.631152],[-122.674002,45.631071],[-122.674515,45.631073],[-122.674538,45.631147],[-122.674643,45.631163]],[[-122.673539,45.63134],[-122.673613,45.631302],[-122.673608,45.631189],[-122.673555,45.631161],[-122.673401,45.631166],[-122.673361,45.631203],[-122.673368,45.631311],[-122.673421,45.631339],[-122.673539,45.63134]],[[-122.674136,45.631195],[-122.674111,45.631297],[-122.674143,45.631332],[-122.674331,45.63134],[-122.674382,45.631304],[-122.674383,45.631201],[-122.674332,45.631165],[-122.674185,45.631164],[-122.674136,45.631195]]]}},{"type":"Feature","properties":{"id":35,"area_m2":5100,"px":51,"rank":13,"persistent":true},"geometry":{"type":"Polygon","coordinates":[[[-122.689911,45.631026],[-122.68991,45.631116],[-122.689805,45.631131],[-122.689782,45.631205],[-122.689666,45.631229],[-122.689653,45.631295],[-122.689268,45.631294],[-122.689246,45.63122],[-122.68914,45.631204],[-122.68914,45.631067],[-122.689087,45.631026],[-122.688818,45.631024],[-122.688765,45.631051],[-122.688756,45.631112],[-122.688499,45.631112],[-122.688477,45.631038],[-122.688372,45.631021],[-122.688373,45.630842],[-122.688478,45.630826],[-122.688501,45.630752],[-122.688595,45.630743],[-122.68863,45.630662],[-122.688741,45.630643],[-122.688759,45.630573],[-122.689089,45.630571],[-122.689138,45.63054],[-122.689144,45.630484],[-122.689346,45.630482],[-122.689395,45.630451],[-122.689401,45.630394],[-122.68953,45.630395],[-122.689529,45.630575],[-122.689428,45.630579],[-122.689381,45.630619],[-122.689405,45.630811],[-122.689461,45.630843],[-122.689655,45.630845],[-122.689678,45.630919],[-122.689783,45.630935],[-122.689817,45.631016],[-122.689911,45.631026]]]}},{"type":"Feature","properties":{"id":11,"area_m2":4500,"px":45,"rank":14,"persistent":false},"geometry":{"type":"Polygon","coordinates":[[[-122.683233,45.632178],[-122.683232,45.632447],[-122.683138,45.632456],[-122.683103,45.632537],[-122.682987,45.632561],[-122.682974,45.632717],[-122.682845,45.632716],[-122.682837,45.632655],[-122.682784,45.632627],[-122.682204,45.632625],[-122.682196,45.63255],[-122.68213,45.632521],[-122.681976,45.632546],[-122.681948,45.632624],[-122.68182,45.632624],[-122.681807,45.632558],[-122.681743,45.632533],[-122.681483,45.632537],[-122.681441,45.632566],[-122.681434,45.632622],[-122.681178,45.632622],[-122.681179,45.632442],[-122.681285,45.632426],[-122.681308,45.632352],[-122.68278,45.63237],[-122.682846,45.632327],[-122.682848,45.632176],[-122.682954,45.632161],[-122.682977,45.632087],[-122.683105,45.632087],[-122.683128,45.632161],[-122.683233,45.632178]]]}},{"type":"Feature","properties":{"id":69,"area_m2":4500,"px":45,"rank":15,"persistent":false},"geometry":{"type":"Polygon","coordinates":[[[-122.68685,45.627777],[-122.686847,45.628227],[-122.686632,45.628233],[-122.686594,45.628265],[-122.68659,45.628316],[-122.686362,45.628328],[-122.686332,45.628406],[-122.686205,45.628405],[-122.686193,45.628339],[-122.686077,45.628315],[-122.686074,45.628263],[-122.686037,45.628231],[-122.685821,45.628224],[-122.685822,45.628044],[-122.68591,45.628038],[-122.68595,45.627996],[-122.685953,45.627595],[-122.686594,45.627596],[-122.686616,45.627761],[-122.68685,45.627777]],[[-122.686643,45.628046],[-122.686717,45.628008],[-122.686712,45.627895],[-122.686659,45.627868],[-122.686505,45.627872],[-122.686466,45.627909],[-122.686473,45.628017],[-122.686526,45.628045],[-122.686643,45.628046]]]}},{"type":"Feature","properties":{"id":3,"area_m2":4400,"px":44,"rank":16,"persistent":false},"geometry":{"type":"Polygon","coordinates":[[[-122.672577,45.632959],[-122.672545,45.633005],[-122.672579,45.633048],[-122.672579,45.633137],[-122.672473,45.633153],[-122.67245,45.633227],[-122.672194,45.633226],[-122.672193,45.63309],[-122.672133,45.633047],[-122.671972,45.633055],[-122.671937,45.633136],[-122.671681,45.633135],[-122.671659,45.633061],[-122.671553,45.633045],[-122.671555,45.632685],[-122.671661,45.632669],[-122.671684,45.632595],[-122.671812,45.632595],[-122.671873,45.63262],[-122.671942,45.632596],[-122.672582,45.632598],[-122.672577,45.632959]]]}},{"type":"Feature","properties":{"id":90,"area_m2":4200,"px":42,"rank":17,"persistent":false},"geometry":{"type":"Polygon","coordinates":[[[-122.678393,45.625505],[-122.678361,45.625551],[-122.678395,45.625593],[-122.678395,45.625683],[-122.677241,45.62568],[-122.677245,45.62487],[-122.677502,45.624871],[-122.677523,45.625035],[-122.677629,45.625051],[-122.677635,45.625108],[-122.677676,45.625137],[-122.677885,45.625142],[-122.67789,45.625288],[-122.677932,45.625318],[-122.678012,45.625322],[-122.678046,45.625403],[-122.678397,45.625413],[-122.678393,45.625505]]]}},{"type":"Feature","properties":{"id":32,"area_m2":3700,"px":37,"rank":18,"persistent":false},"geometry":{"type":"Polygon","coordinates":[[[-122.678748,45.631175],[-122.678746,45.631535],[-122.678295,45.631535],[-122.678242,45.631562],[-122.678231,45.631623],[-122.67772,45.631622],[-122.677717,45.63157],[-122.677679,45.631538],[-122.677464,45.631531],[-122.677465,45.631261],[-122.677681,45.631255],[-122.677719,45.631224],[-122.677722,45.631172],[-122.678748,45.631175]],[[-122.678106,45.631393],[-122.678046,45.63134],[-122.677884,45.631362],[-122.67785,45.631401],[-122.677862,45.631508],[-122.677918,45.631532],[-122.678071,45.631524],[-122.678104,45.63149],[-122.678106,45.631393]]]}},{"type":"Feature","properties":{"id":47,"area_m2":3200,"px":32,"rank":19,"persistent":false},"geometry":{"type":"Polygon","coordinates":[[[-122.676961,45.62973],[-122.676958,45.63018],[-122.676742,45.630185],[-122.676705,45.630217],[-122.676701,45.630269],[-122.676573,45.630269],[-122.676512,45.630244],[-122.676444,45.630268],[-122.676188,45.630267],[-122.67619,45.629998],[-122.67627,45.629994],[-122.676315,45.62996],[-122.676319,45.629728],[-122.676535,45.629722],[-122.676573,45.62969],[-122.676578,45.629639],[-122.676833,45.629639],[-122.676855,45.629714],[-122.676961,45.62973]]]}},{"type":"Feature","properties":{"id":29,"area_m2":3100,"px":31,"rank":20,"persistent":false},"geometry":{"type":"Polygon","coordinates":[[[-122.677079,45.63153],[-122.677078,45.63162],[-122.676961,45.631631],[-122.676941,45.631558],[-122.676888,45.631531],[-122.676748,45.631532],[-122.676697,45.631567],[-122.67669,45.631689],[-122.676742,45.631709],[-122.676939,45.631699],[-122.676949,45.6318],[-122.676564,45.631799],[-122.676555,45.631737],[-122.676495,45.631709],[-122.676051,45.631707],[-122.676054,45.631167],[-122.676567,45.631169],[-122.676588,45.631436],[-122.67664,45.631453],[-122.676951,45.63144],[-122.676973,45.631514],[-122.677079,45.63153]]]}},{"type":"Feature","properties":{"id":91,"area_m2":3100,"px":31,"rank":21,"persistent":false},"geometry":{"type":"Polygon","coordinates":[[[-122.675961,45.625136],[-122.675958,45.625586],[-122.675852,45.625602],[-122.675829,45.625676],[-122.675445,45.625675],[-122.675422,45.625601],[-122.675317,45.625585],[-122.675283,45.625504],[-122.675189,45.625494],[-122.675191,45.625224],[-122.675296,45.625209],[-122.67532,45.625135],[-122.675961,45.625136]]]}},{"type":"Feature","properties":{"id":18,"area_m2":3000,"px":30,"rank":22,"persistent":false},"geometry":{"type":"Polygon","coordinates":[[[-122.675665,45.631886],[-122.675665,45.631976],[-122.67545,45.631977],[-122.675389,45.632021],[-122.675441,45.632147],[-122.675664,45.632156],[-122.675663,45.632246],[-122.675569,45.632248],[-122.67552,45.63228],[-122.675534,45.632426],[-122.675406,45.632425],[-122.675397,45.632364],[-122.675344,45.632336],[-122.674765,45.632334],[-122.674743,45.632259],[-122.674637,45.632243],[-122.674638,45.632063],[-122.674766,45.632064],[-122.674767,45.6322],[-122.67482,45.632242],[-122.675229,45.632245],[-122.675296,45.632205],[-122.675251,45.632077],[-122.675023,45.632064],[-122.675001,45.63199],[-122.674895,45.631974],[-122.674898,45.631524],[-122.674971,45.631522],[-122.675017,45.631496],[-122.675027,45.631344],[-122.675283,45.631345],[-122.675292,45.631497],[-122.675337,45.631523],[-122.675411,45.631526],[-122.675419,45.631767],[-122.675464,45.631793],[-122.675537,45.631796],[-122.675571,45.631877],[-122.675665,45.631886]],[[-122.675065,45.631878],[-122.675228,45.631896],[-122.675277,45.63186],[-122.675282,45.631574],[-122.675235,45.631529],[-122.675095,45.631525],[-122.675027,45.631568],[-122.675025,45.631836],[-122.675065,45.631878]]]}},{"type":"Feature","properties":{"id":28,"area_m2":2900,"px":29,"rank":23,"persistent":false},"geometry":{"type":"Polygon","coordinates":[[[-122.679769,45.631629],[-122.679738,45.631675],[-122.679772,45.631718],[-122.679771,45.631808],[-122.67913,45.631806],[-122.679108,45.631732],[-122.679002,45.631716],[-122.679004,45.631446],[-122.679119,45.631422],[-122.679133,45.631266],[-122.679239,45.63125],[-122.679262,45.631176],[-122.679647,45.631177],[-122.679669,45.631252],[-122.679774,45.631268],[-122.679769,45.631629]]]}},{"type":"Feature","properties":{"id":82,"area_m2":2900,"px":29,"rank":24,"persistent":false},"geometry":{"type":"Polygon","coordinates":[[[-122.683777,45.626778],[-122.683776,45.626868],[-122.68367,45.626884],[-122.683647,45.626958],[-122.68346,45.626958],[-122.683408,45.626977],[-122.68339,45.627137],[-122.683284,45.627153],[-122.683261,45.627227],[-122.683005,45.627226],[-122.682983,45.627062],[-122.682749,45.627046],[-122.682751,45.626686],[-122.683008,45.626686],[-122.683068,45.626711],[-122.683136,45.626687],[-122.683521,45.626688],[-122.683524,45.626739],[-122.683561,45.626771],[-122.683777,45.626778]]]}},{"type":"Feature","properties":{"id":93,"area_m2":2900,"px":29,"rank":25,"persistent":false},"geometry":{"type":"Polygon","coordinates":[[[-122.670959,45.624942],[-122.670956,45.625392],[-122.670851,45.625408],[-122.670827,45.625482],[-122.670699,45.625481],[-122.670639,45.625457],[-122.670571,45.625481],[-122.670443,45.625481],[-122.67044,45.625429],[-122.670403,45.625397],[-122.670187,45.62539],[-122.670187,45.6253],[-122.670275,45.625294],[-122.670314,45.625257],[-122.670317,45.62503],[-122.670423,45.625015],[-122.670446,45.624941],[-122.670561,45.624917],[-122.670575,45.624851],[-122.670831,45.624852],[-122.670853,45.624926],[-122.670959,45.624942]]]}},{"type":"Feature","properties":{"id":48,"area_m2":2600,"px":26,"rank":26,"persistent":false},"geometry":{"type":"Polygon","coordinates":[[[-122.670418,45.629621],[-122.670416,45.629981],[-122.670311,45.629997],[-122.670287,45.630071],[-122.670053,45.630086],[-122.67003,45.63025],[-122.669773,45.630249],[-122.669774,45.630159],[-122.669868,45.63015],[-122.669902,45.630106],[-122.66989,45.630003],[-122.669775,45.629979],[-122.669777,45.629619],[-122.670418,45.629621]]]}},{"type":"Feature","properties":{"id":83,"area_m2":2400,"px":24,"rank":27,"persistent":false},"geometry":{"type":"Polygon","coordinates":[[[-122.682491,45.626866],[-122.682459,45.626912],[-122.682493,45.626955],[-122.682492,45.627135],[-122.682162,45.627136],[-122.682113,45.627167],[-122.682105,45.627224],[-122.68185,45.627223],[-122.681828,45.627149],[-122.681722,45.627133],[-122.681723,45.627043],[-122.68181,45.627037],[-122.68185,45.627],[-122.681853,45.626773],[-122.682175,45.626773],[-122.682228,45.626746],[-122.682238,45.626684],[-122.682494,45.626685],[-122.682491,45.626866]]]}},{"type":"Feature","properties":{"id":46,"area_m2":2300,"px":23,"rank":28,"persistent":false},"geometry":{"type":"Polygon","coordinates":[[[-122.685555,45.629934],[-122.685553,45.630294],[-122.685472,45.630298],[-122.685428,45.630332],[-122.685423,45.630563],[-122.685295,45.630563],[-122.685273,45.630489],[-122.685167,45.630473],[-122.685168,45.630341],[-122.68514,45.630305],[-122.684783,45.630292],[-122.684785,45.629932],[-122.684891,45.629916],[-122.684916,45.629842],[-122.685427,45.629843],[-122.685449,45.629918],[-122.685555,45.629934]],[[-122.685331,45.630076],[-122.685293,45.629966],[-122.685244,45.629935],[-122.684954,45.629938],[-122.684914,45.629981],[-122.684921,45.630173],[-122.684982,45.630202],[-122.685256,45.630196],[-122.685331,45.630076]]]}},{"type":"Feature","properties":{"id":2,"area_m2":2200,"px":22,"rank":29,"persistent":false},"geometry":{"type":"Polygon","coordinates":[[[-122.673606,45.633051],[-122.673605,45.63323],[-122.672835,45.633228],[-122.672839,45.632598],[-122.672967,45.632599],[-122.67298,45.632665],[-122.673095,45.632689],[-122.673098,45.632754],[-122.67314,45.632788],[-122.673351,45.63278],[-122.673373,45.632854],[-122.673478,45.63287],[-122.67347,45.633025],[-122.673512,45.633048],[-122.673606,45.633051]],[[-122.673222,45.63291],[-122.673162,45.632857],[-122.673,45.632878],[-122.672965,45.632917],[-122.672977,45.633025],[-122.673132,45.633062],[-122.673188,45.633053],[-122.67322,45.63302],[-122.673222,45.63291]]]}},{"type":"Feature","properties":{"id":27,"area_m2":2200,"px":22,"rank":30,"persistent":false},"geometry":{"type":"Polygon","coordinates":[[[-122.683367,45.631278],[-122.683365,45.631548],[-122.683284,45.631552],[-122.68324,45.631586],[-122.683235,45.631817],[-122.682979,45.631817],[-122.682974,45.63158],[-122.682933,45.631551],[-122.682852,45.631546],[-122.682818,45.631465],[-122.682724,45.631456],[-122.682722,45.631314],[-122.682678,45.63128],[-122.682597,45.631276],[-122.682597,45.631186],[-122.682703,45.63117],[-122.682726,45.631096],[-122.682854,45.631096],[-122.682857,45.631148],[-122.682895,45.63118],[-122.683239,45.631187],[-122.683261,45.631262],[-122.683367,45.631278]]]}},{"type":"Feature","properties":{"id":36,"area_m2":2200,"px":22,"rank":31,"persistent":false},"geometry":{"type":"Polygon","coordinates":[[[-122.684779,45.631012],[-122.684778,45.631192],[-122.68465,45.631191],[-122.684628,45.631117],[-122.684522,45.631101],[-122.684518,45.630864],[-122.684476,45.630835],[-122.684396,45.630831],[-122.684368,45.630753],[-122.684207,45.630716],[-122.684139,45.63074],[-122.683883,45.630739],[-122.683883,45.630649],[-122.683977,45.63064],[-122.684012,45.630595],[-122.684007,45.630413],[-122.683966,45.630383],[-122.683885,45.630379],[-122.683886,45.630199],[-122.684142,45.6302],[-122.684145,45.630341],[-122.684189,45.630376],[-122.68427,45.63038],[-122.684278,45.630532],[-122.684331,45.630559],[-122.684525,45.630561],[-122.684534,45.630712],[-122.684579,45.630739],[-122.684652,45.630741],[-122.684657,45.630978],[-122.684699,45.631007],[-122.684779,45.631012]]]}},{"type":"Feature","properties":{"id":73,"area_m2":2200,"px":22,"rank":32,"persistent":false},"geometry":{"type":"Polygon","coordinates":[[[-122.682362,45.627495],[-122.68236,45.627675],[-122.682255,45.62769],[-122.682232,45.627764],[-122.68159,45.627762],[-122.681592,45.627402],[-122.682234,45.627404],[-122.682256,45.627478],[-122.682362,45.627495]]]}},{"type":"Feature","properties":{"id":13,"area_m2":2000,"px":20,"rank":33,"persistent":false},"geometry":{"type":"Polygon","coordinates":[[[-122.670276,45.632051],[-122.670273,45.632501],[-122.670167,45.632516],[-122.670144,45.63259],[-122.669888,45.63259],[-122.669866,45.632515],[-122.66976,45.632499],[-122.669761,45.632319],[-122.669796,45.632277],[-122.669762,45.632229],[-122.669762,45.632139],[-122.669868,45.632124],[-122.669891,45.63205],[-122.670276,45.632051]]]}},{"type":"Feature","properties":{"id":54,"area_m2":2000,"px":20,"rank":34,"persistent":false},"geometry":{"type":"Polygon","coordinates":[[[-122.679144,45.629286],[-122.679144,45.629376],[-122.679038,45.629391],[-122.679015,45.629465],[-122.678899,45.629489],[-122.678886,45.629555],[-122.67863,45.629554],[-122.678621,45.629493],[-122.678568,45.629465],[-122.678245,45.629463],[-122.678246,45.629373],[-122.67834,45.629364],[-122.678375,45.629284],[-122.678448,45.629281],[-122.678494,45.629255],[-122.678504,45.629104],[-122.67876,45.629105],[-122.678794,45.629186],[-122.679016,45.629195],[-122.679039,45.62927],[-122.679144,45.629286]]]}},{"type":"Feature","properties":{"id":60,"area_m2":2000,"px":20,"rank":35,"persistent":false},"geometry":{"type":"Polygon","coordinates":[[[-122.688768,45.628952],[-122.688767,45.629042],[-122.688558,45.629046],[-122.688516,45.629075],[-122.68851,45.629132],[-122.688399,45.629151],[-122.688381,45.629311],[-122.687868,45.62931],[-122.687869,45.62913],[-122.687975,45.629114],[-122.687998,45.62904],[-122.688092,45.629031],[-122.688127,45.628951],[-122.688237,45.628931],[-122.688255,45.628861],[-122.68864,45.628862],[-122.688662,45.628936],[-122.688768,45.628952]]]}},{"type":"Feature","properties":{"id":61,"area_m2":2000,"px":20,"rank":36,"persistent":false},"geometry":{"type":"Polygon","coordinates":[[[-122.68415,45.62885],[-122.684149,45.62903],[-122.683826,45.62903],[-122.683773,45.629057],[-122.683764,45.629119],[-122.683635,45.629118],[-122.68363,45.629048],[-122.683583,45.629017],[-122.683251,45.629027],[-122.683243,45.628876],[-122.683197,45.628849],[-122.683124,45.628847],[-122.683125,45.628667],[-122.683509,45.628668],[-122.683522,45.628734],[-122.683637,45.628758],[-122.683643,45.628828],[-122.683697,45.628861],[-122.68415,45.62885]]]}},{"type":"Feature","properties":{"id":71,"area_m2":2000,"px":20,"rank":37,"persistent":false},"geometry":{"type":"Polygon","coordinates":[[[-122.683,45.627946],[-122.682999,45.628126],[-122.682894,45.628142],[-122.682871,45.628216],[-122.682229,45.628214],[-122.682207,45.62814],[-122.682102,45.628124],[-122.682068,45.628043],[-122.681974,45.628033],[-122.681975,45.627854],[-122.682359,45.627855],[-122.682368,45.628006],[-122.682413,45.628032],[-122.682487,45.628035],[-122.682496,45.628096],[-122.682556,45.628125],[-122.682688,45.628123],[-122.682737,45.628092],[-122.682745,45.627766],[-122.682873,45.627766],[-122.682881,45.627918],[-122.682927,45.627944],[-122.683,45.627946]]]}},{"type":"Feature","properties":{"id":40,"area_m2":1800,"px":18,"rank":38,"persistent":false},"geometry":{"type":"Polygon","coordinates":[[[-122.680291,45.630639],[-122.68029,45.630819],[-122.680216,45.630821],[-122.680171,45.630847],[-122.680161,45.630999],[-122.679904,45.630998],[-122.679883,45.630834],[-122.679649,45.630817],[-122.67965,45.630637],[-122.679684,45.630595],[-122.67965,45.630547],[-122.679651,45.630457],[-122.679779,45.630458],[-122.679788,45.630519],[-122.67984,45.630547],[-122.680163,45.630549],[-122.680185,45.630623],[-122.680291,45.630639]]]}},{"type":"Feature","properties":{"id":72,"area_m2":1800,"px":18,"rank":39,"persistent":false},"geometry":{"type":"Polygon","coordinates":[[[-122.676974,45.62739],[-122.676974,45.627479],[-122.676772,45.627481],[-122.676717,45.627533],[-122.676734,45.627639],[-122.676785,45.627659],[-122.676973,45.62766],[-122.676972,45.627749],[-122.676642,45.627751],[-122.676593,45.627782],[-122.676587,45.627838],[-122.676074,45.627837],[-122.676074,45.627747],[-122.676168,45.627745],[-122.676217,45.627713],[-122.676203,45.627567],[-122.676297,45.627565],[-122.676346,45.627533],[-122.676333,45.627388],[-122.676974,45.62739]]]}},{"type":"Feature","properties":{"id":17,"area_m2":1700,"px":17,"rank":40,"persistent":false},"geometry":{"type":"Polygon","coordinates":[[[-122.671171,45.632145],[-122.671139,45.632191],[-122.671173,45.632233],[-122.671171,45.632503],[-122.670658,45.632502],[-122.670636,45.632428],[-122.67053,45.632412],[-122.670533,45.632052],[-122.671174,45.632053],[-122.671171,45.632145]],[[-122.671035,45.632294],[-122.671062,45.632183],[-122.671018,45.632147],[-122.670722,45.632143],[-122.670663,45.63218],[-122.670661,45.632278],[-122.670721,45.632321],[-122.670982,45.632322],[-122.671035,45.632294]]]}},{"type":"Feature","properties":{"id":51,"area_m2":1700,"px":17,"rank":41,"persistent":false},"geometry":{"type":"Polygon","coordinates":[[[-122.673751,45.629722],[-122.673719,45.629768],[-122.673753,45.629811],[-122.673752,45.629901],[-122.673647,45.629916],[-122.673624,45.62999],[-122.673111,45.629989],[-122.673112,45.629719],[-122.673218,45.629703],[-122.673241,45.629629],[-122.673754,45.629631],[-122.673751,45.629722]]]}},{"type":"Feature","properties":{"id":41,"area_m2":1500,"px":15,"rank":42,"persistent":false},"geometry":{"type":"Polygon","coordinates":[[[-122.674903,45.630534],[-122.674901,45.630894],[-122.674795,45.630909],[-122.674772,45.630984],[-122.674516,45.630983],[-122.674513,45.630931],[-122.674476,45.630899],[-122.67426,45.630892],[-122.674261,45.630712],[-122.674376,45.630688],[-122.67439,45.630533],[-122.674496,45.630517],[-122.674519,45.630443],[-122.674647,45.630443],[-122.674653,45.6305],[-122.674701,45.630531],[-122.674903,45.630534]],[[-122.674562,45.630826],[-122.674761,45.63078],[-122.674771,45.630662],[-122.67472,45.630626],[-122.674573,45.630625],[-122.674524,45.630656],[-122.674485,45.630771],[-122.674562,45.630826]]]}},{"type":"Feature","properties":{"id":55,"area_m2":1500,"px":15,"rank":43,"persistent":false},"geometry":{"type":"Polygon","coordinates":[[[-122.678117,45.629373],[-122.678117,45.629463],[-122.678011,45.629478],[-122.677988,45.629552],[-122.67786,45.629552],[-122.677847,45.629486],[-122.677783,45.629462],[-122.677638,45.629471],[-122.677603,45.629551],[-122.677475,45.629551],[-122.677476,45.629371],[-122.677511,45.629329],[-122.677477,45.629281],[-122.677479,45.628921],[-122.677607,45.628921],[-122.677629,45.628996],[-122.677734,45.629012],[-122.677733,45.629192],[-122.677699,45.629234],[-122.677719,45.629273],[-122.677793,45.629306],[-122.677861,45.629282],[-122.67799,45.629283],[-122.678012,45.629357],[-122.678117,45.629373]]]}},{"type":"Feature","properties":{"id":26,"area_m2":1400,"px":14,"rank":44,"persistent":false},"geometry":{"type":"Polygon","coordinates":[[[-122.684519,45.631641],[-122.684518,45.631821],[-122.684412,45.631837],[-122.684389,45.631911],[-122.684261,45.63191],[-122.684252,45.631849],[-122.6842,45.631821],[-122.683749,45.631819],[-122.68375,45.631639],[-122.683855,45.631623],[-122.683878,45.631549],[-122.684006,45.63155],[-122.684015,45.631611],[-122.684068,45.631639],[-122.684519,45.631641]]]}},{"type":"Feature","properties":{"id":67,"area_m2":1400,"px":14,"rank":45,"persistent":false},"geometry":{"type":"Polygon","coordinates":[[[-122.674402,45.628462],[-122.674402,45.628552],[-122.674296,45.628568],[-122.674273,45.628642],[-122.674016,45.628641],[-122.674014,45.628409],[-122.67397,45.628375],[-122.67389,45.628371],[-122.67389,45.628281],[-122.673925,45.628238],[-122.673891,45.628191],[-122.673891,45.628101],[-122.674148,45.628102],[-122.67417,45.628176],[-122.674275,45.628192],[-122.674277,45.628424],[-122.674321,45.628458],[-122.674402,45.628462]]]}},{"type":"Feature","properties":{"id":53,"area_m2":1300,"px":13,"rank":46,"persistent":false},"geometry":{"type":"Polygon","coordinates":[[[-122.685559,45.629304],[-122.685558,45.629394],[-122.6851,45.629395],[-122.685051,45.629426],[-122.685044,45.629482],[-122.684929,45.629506],[-122.684916,45.629572],[-122.684787,45.629571],[-122.68479,45.629212],[-122.685302,45.629213],[-122.685306,45.629265],[-122.685343,45.629297],[-122.685559,45.629304]]]}},{"type":"Feature","properties":{"id":1,"area_m2":1200,"px":12,"rank":47,"persistent":false},"geometry":{"type":"Polygon","coordinates":[[[-122.685922,45.633175],[-122.685921,45.633265],[-122.68528,45.633263],[-122.685282,45.632993],[-122.685666,45.632994],[-122.685688,45.633069],[-122.685794,45.633085],[-122.685828,45.633166],[-122.685922,45.633175]]]}},{"type":"Feature","properties":{"id":14,"area_m2":1200,"px":12,"rank":48,"persistent":false},"geometry":{"type":"Polygon","coordinates":[[[-122.684131,45.63218],[-122.68413,45.63245],[-122.684024,45.632466],[-122.684001,45.63254],[-122.683873,45.632539],[-122.683873,45.632408],[-122.683839,45.632368],[-122.683617,45.632359],[-122.683619,45.632089],[-122.683747,45.632089],[-122.683756,45.63215],[-122.683808,45.632178],[-122.684131,45.63218]]]}},{"type":"Feature","properties":{"id":31,"area_m2":1200,"px":12,"rank":49,"persistent":false},"geometry":{"type":"Polygon","coordinates":[[[-122.689012,45.631203],[-122.689011,45.631293],[-122.688911,45.631305],[-122.688883,45.631383],[-122.688783,45.631395],[-122.688754,45.631473],[-122.68866,45.631481],[-122.688625,45.631562],[-122.688514,45.631582],[-122.688496,45.631652],[-122.688391,45.631667],[-122.688367,45.631741],[-122.688111,45.631741],[-122.688112,45.631651],[-122.688217,45.631635],[-122.68824,45.631561],[-122.68834,45.631549],[-122.688369,45.631472],[-122.688469,45.63146],[-122.688498,45.631382],[-122.688592,45.631373],[-122.688627,45.631292],[-122.688738,45.631273],[-122.688756,45.631203],[-122.689012,45.631203]]]}},{"type":"Feature","properties":{"id":98,"area_m2":1200,"px":12,"rank":50,"persistent":false},"geometry":{"type":"Polygon","coordinates":[[[-122.673535,45.623149],[-122.673534,45.623329],[-122.672893,45.623327],[-122.672894,45.623057],[-122.673,45.623042],[-122.673023,45.622968],[-122.673151,45.622968],[-122.673157,45.623025],[-122.673205,45.623056],[-122.673407,45.623059],[-122.673429,45.623133],[-122.673535,45.623149]]]}},{"type":"Feature","properties":{"id":19,"area_m2":1100,"px":11,"rank":51,"persistent":false},"geometry":{"type":"Polygon","coordinates":[[[-122.685928,45.632095],[-122.685926,45.632365],[-122.685798,45.632365],[-122.685776,45.63229],[-122.68567,45.632274],[-122.685672,45.631963],[-122.685632,45.63192],[-122.685544,45.631914],[-122.685546,45.631644],[-122.685674,45.631644],[-122.685682,45.631796],[-122.685728,45.631822],[-122.685801,45.631825],[-122.685806,45.632061],[-122.685847,45.632091],[-122.685928,45.632095]]]}},{"type":"Feature","properties":{"id":50,"area_m2":1100,"px":11,"rank":52,"persistent":false},"geometry":{"type":"Polygon","coordinates":[[[-122.683503,45.629748],[-122.683501,45.630108],[-122.683117,45.630107],[-122.683094,45.630033],[-122.682989,45.630017],[-122.68299,45.629837],[-122.683096,45.629821],[-122.683119,45.629747],[-122.683503,45.629748]]]}},{"type":"Feature","properties":{"id":87,"area_m2":1100,"px":11,"rank":53,"persistent":false},"geometry":{"type":"Polygon","coordinates":[[[-122.674544,45.626032],[-122.674543,45.626212],[-122.674159,45.626211],[-122.674154,45.625975],[-122.674113,45.625945],[-122.674032,45.625941],[-122.673998,45.62586],[-122.673904,45.625851],[-122.673905,45.625761],[-122.674161,45.625761],[-122.674183,45.625836],[-122.674289,45.625852],[-122.674311,45.626016],[-122.674544,45.626032]]]}},{"type":"Feature","properties":{"id":25,"area_m2":1000,"px":10,"rank":54,"persistent":false},"geometry":{"type":"Polygon","coordinates":[[[-122.68516,45.631823],[-122.685159,45.631913],[-122.684646,45.631911],[-122.684648,45.631641],[-122.685032,45.631642],[-122.685041,45.631794],[-122.685086,45.63182],[-122.68516,45.631823]]]}},{"type":"Feature","properties":{"id":89,"area_m2":1000,"px":10,"rank":55,"persistent":false},"geometry":{"type":"Polygon","coordinates":[[[-122.676342,45.625678],[-122.676341,45.625857],[-122.676236,45.625873],[-122.676213,45.625947],[-122.676097,45.625971],[-122.676084,45.626037],[-122.675956,45.626036],[-122.675934,45.625962],[-122.675828,45.625946],[-122.675794,45.625865],[-122.6757,45.625856],[-122.675701,45.625766],[-122.675957,45.625766],[-122.676018,45.625791],[-122.676073,45.625777],[-122.67612,45.625724],[-122.676086,45.625677],[-122.676087,45.625587],[-122.676215,45.625587],[-122.676237,45.625661],[-122.676342,45.625678]]]}},{"type":"Feature","properties":{"id":95,"area_m2":1000,"px":10,"rank":56,"persistent":false},"geometry":{"type":"Polygon","coordinates":[[[-122.67071,45.623591],[-122.670707,45.624131],[-122.670626,45.624135],[-122.670582,45.624169],[-122.670577,45.624401],[-122.670449,45.6244],[-122.670451,45.624131],[-122.670545,45.624122],[-122.670579,45.624077],[-122.670579,45.623814],[-122.67054,45.623777],[-122.670453,45.62377],[-122.670453,45.623681],[-122.670559,45.623665],[-122.670582,45.623591],[-122.67071,45.623591]]]}},{"type":"Feature","properties":{"id":16,"area_m2":900,"px":9,"rank":57,"persistent":false},"geometry":{"type":"Polygon","coordinates":[[[-122.675277,45.632425],[-122.675277,45.632515],[-122.674122,45.632512],[-122.674123,45.632422],[-122.675277,45.632425]]]}},{"type":"Feature","properties":{"id":38,"area_m2":900,"px":9,"rank":58,"persistent":false},"geometry":{"type":"Polygon","coordinates":[[[-122.690298,45.630577],[-122.690296,45.630937],[-122.690191,45.630952],[-122.690168,45.631026],[-122.690039,45.631026],[-122.690017,45.630952],[-122.689912,45.630936],[-122.689912,45.630846],[-122.689986,45.630844],[-122.690031,45.630817],[-122.690041,45.630666],[-122.690147,45.63065],[-122.69017,45.630576],[-122.690298,45.630577]]]}},{"type":"Feature","properties":{"id":81,"area_m2":900,"px":9,"rank":59,"persistent":false},"geometry":{"type":"Polygon","coordinates":[[[-122.68416,45.62705],[-122.684159,45.627229],[-122.683646,45.627228],[-122.683647,45.627138],[-122.683727,45.627134],[-122.683772,45.6271],[-122.683776,45.626959],[-122.684032,45.626959],[-122.684054,45.627033],[-122.68416,45.62705]]]}},{"type":"Feature","properties":{"id":85,"area_m2":900,"px":9,"rank":60,"persistent":false},"geometry":{"type":"Polygon","coordinates":[[[-122.675953,45.626397],[-122.675952,45.626576],[-122.675847,45.626592],[-122.675824,45.626666],[-122.675567,45.626665],[-122.675545,45.626591],[-122.675439,45.626575],[-122.67544,45.626485],[-122.675546,45.62647],[-122.675569,45.626395],[-122.675953,45.626397]]]}},{"type":"Feature","properties":{"id":22,"area_m2":800,"px":8,"rank":61,"persistent":false},"geometry":{"type":"Polygon","coordinates":[[[-122.67451,45.631973],[-122.674508,45.632333],[-122.673995,45.632331],[-122.673996,45.632152],[-122.674124,45.632152],[-122.67413,45.632209],[-122.674178,45.63224],[-122.67434,45.632236],[-122.67438,45.632194],[-122.674382,45.631973],[-122.67451,45.631973]]]}},{"type":"Feature","properties":{"id":64,"area_m2":800,"px":8,"rank":62,"persistent":false},"geometry":{"type":"Polygon","coordinates":[[[-122.675429,45.628285],[-122.675429,45.628375],[-122.675341,45.628381],[-122.675302,45.628418],[-122.675299,45.628735],[-122.67517,45.628734],[-122.675165,45.628664],[-122.675118,45.628633],[-122.674914,45.628644],[-122.674915,45.628464],[-122.675021,45.628448],[-122.675044,45.628374],[-122.675246,45.628372],[-122.675295,45.628341],[-122.675301,45.628285],[-122.675429,45.628285]]]}},{"type":"Feature","properties":{"id":74,"area_m2":800,"px":8,"rank":63,"persistent":false},"geometry":{"type":"Polygon","coordinates":[[[-122.674664,45.627563],[-122.674663,45.627743],[-122.67415,45.627741],[-122.674151,45.627562],[-122.674664,45.627563]]]}},{"type":"Feature","properties":{"id":104,"area_m2":800,"px":8,"rank":64,"persistent":false},"geometry":{"type":"Polygon","coordinates":[[[-122.687412,45.619048],[-122.687411,45.619138],[-122.687283,45.619137],[-122.687223,45.619113],[-122.687155,45.619137],[-122.686898,45.619136],[-122.6869,45.618866],[-122.687156,45.618867],[-122.687178,45.618941],[-122.687284,45.618957],[-122.687318,45.619038],[-122.687412,45.619048]]]}},{"type":"Feature","properties":{"id":6,"area_m2":700,"px":7,"rank":65,"persistent":false},"geometry":{"type":"Polygon","coordinates":[[[-122.674504,45.632963],[-122.674504,45.633053],[-122.674053,45.633053],[-122.674,45.63308],[-122.67399,45.633142],[-122.673862,45.633141],[-122.673864,45.632871],[-122.673992,45.632872],[-122.674001,45.632933],[-122.674053,45.632961],[-122.674504,45.632963]]]}},{"type":"Feature","properties":{"id":57,"area_m2":700,"px":7,"rank":66,"persistent":false},"geometry":{"type":"Polygon","coordinates":[[[-122.670291,45.629441],[-122.670291,45.629531],[-122.670036,45.62953],[-122.670012,45.629456],[-122.669906,45.629439],[-122.669906,45.629213],[-122.669867,45.629176],[-122.66978,45.629169],[-122.66978,45.629079],[-122.670037,45.62908],[-122.670044,45.629411],[-122.670097,45.629439],[-122.670291,45.629441]]]}},{"type":"Feature","properties":{"id":59,"area_m2":700,"px":7,"rank":67,"persistent":false},"geometry":{"type":"Polygon","coordinates":[[[-122.677092,45.62919],[-122.677091,45.62937],[-122.676963,45.62937],[-122.67695,45.629304],[-122.676886,45.629279],[-122.676741,45.629288],[-122.676706,45.629369],[-122.676578,45.629368],[-122.676579,45.629279],[-122.676659,45.629275],[-122.676704,45.629241],[-122.676708,45.629099],[-122.676964,45.6291],[-122.676986,45.629174],[-122.677092,45.62919]]]}},{"type":"Feature","properties":{"id":9,"area_m2":600,"px":6,"rank":68,"persistent":false},"geometry":{"type":"Polygon","coordinates":[[[-122.675532,45.632696],[-122.675532,45.632786],[-122.675053,45.632794],[-122.675019,45.632833],[-122.675018,45.632964],[-122.674889,45.632964],[-122.67489,45.632784],[-122.674996,45.632769],[-122.675019,45.632695],[-122.675532,45.632696]]]}},{"type":"Feature","properties":{"id":10,"area_m2":600,"px":6,"rank":69,"persistent":false},"geometry":{"type":"Polygon","coordinates":[[[-122.674635,45.632603],[-122.674634,45.632693],[-122.674418,45.632699],[-122.674381,45.632731],[-122.674377,45.632783],[-122.673864,45.632781],[-122.673865,45.632691],[-122.674316,45.632691],[-122.674369,45.632664],[-122.674378,45.632603],[-122.674635,45.632603]]]}},{"type":"Feature","properties":{"id":21,"area_m2":600,"px":6,"rank":70,"persistent":false},"geometry":{"type":"Polygon","coordinates":[[[-122.676947,45.63216],[-122.676946,45.63225],[-122.67684,45.632265],[-122.676817,45.632339],[-122.676689,45.632339],[-122.676667,45.632265],[-122.676561,45.632249],[-122.676562,45.632069],[-122.676819,45.63207],[-122.676841,45.632144],[-122.676947,45.63216]]]}},{"type":"Feature","properties":{"id":34,"area_m2":600,"px":6,"rank":71,"persistent":false},"geometry":{"type":"Polygon","coordinates":[[[-122.675797,45.631347],[-122.675796,45.631436],[-122.675411,45.631435],[-122.675413,45.631165],[-122.675669,45.631166],[-122.675657,45.631316],[-122.675703,45.631344],[-122.675797,45.631347]]]}},{"type":"Feature","properties":{"id":43,"area_m2":600,"px":6,"rank":72,"persistent":false},"geometry":{"type":"Polygon","coordinates":[[[-122.675545,45.630446],[-122.675543,45.630806],[-122.675415,45.630805],[-122.675407,45.630654],[-122.675361,45.630628],[-122.675288,45.630625],[-122.675289,45.630445],[-122.675545,45.630446]]]}},{"type":"Feature","properties":{"id":44,"area_m2":600,"px":6,"rank":73,"persistent":false},"geometry":{"type":"Polygon","coordinates":[[[-122.673236,45.630439],[-122.673235,45.630619],[-122.673161,45.630621],[-122.673116,45.630647],[-122.673106,45.630799],[-122.672978,45.630798],[-122.67298,45.630438],[-122.673236,45.630439]]]}},{"type":"Feature","properties":{"id":45,"area_m2":600,"px":6,"rank":74,"persistent":false},"geometry":{"type":"Polygon","coordinates":[[[-122.680934,45.630461],[-122.680933,45.630641],[-122.680827,45.630656],[-122.680804,45.630731],[-122.680547,45.63073],[-122.680548,45.63055],[-122.68075,45.630548],[-122.680799,45.630517],[-122.680805,45.630461],[-122.680934,45.630461]]]}},{"type":"Feature","properties":{"id":58,"area_m2":600,"px":6,"rank":75,"persistent":false},"geometry":{"type":"Polygon","coordinates":[[[-122.675809,45.629276],[-122.675808,45.629366],[-122.675702,45.629382],[-122.675679,45.629456],[-122.675295,45.629455],[-122.675295,45.629365],[-122.675401,45.629349],[-122.675424,45.629275],[-122.675809,45.629276]]]}},{"type":"Feature","properties":{"id":94,"area_m2":600,"px":6,"rank":76,"persistent":false},"geometry":{"type":"Polygon","coordinates":[[[-122.673528,45.624409],[-122.673527,45.624589],[-122.673142,45.624588],[-122.673143,45.624408],[-122.673528,45.624409]]]}},{"type":"Feature","properties":{"id":97,"area_m2":600,"px":6,"rank":77,"persistent":false},"geometry":{"type":"Polygon","coordinates":[[[-122.671738,45.623414],[-122.671737,45.623504],[-122.671611,45.623504],[-122.671606,45.623452],[-122.671569,45.62342],[-122.671353,45.623413],[-122.671331,45.623339],[-122.671225,45.623323],[-122.671191,45.623242],[-122.671097,45.623232],[-122.671098,45.623142],[-122.671226,45.623143],[-122.671232,45.623199],[-122.67128,45.62323],[-122.671482,45.623233],[-122.671504,45.623308],[-122.67161,45.623324],[-122.671644,45.623405],[-122.671738,45.623414]]]}},{"type":"Feature","properties":{"id":100,"area_m2":600,"px":6,"rank":78,"persistent":false},"geometry":{"type":"Polygon","coordinates":[[[-122.672003,45.621885],[-122.672002,45.621975],[-122.671897,45.62199],[-122.671874,45.622064],[-122.671617,45.622064],[-122.671595,45.621989],[-122.67149,45.621973],[-122.671491,45.621793],[-122.671747,45.621794],[-122.671752,45.621864],[-122.671806,45.621897],[-122.672003,45.621885]]]}},{"type":"Feature","properties":{"id":24,"area_m2":500,"px":5,"rank":79,"persistent":false},"geometry":{"type":"Polygon","coordinates":[[[-122.689139,45.631474],[-122.689138,45.631564],[-122.689032,45.631579],[-122.689009,45.631653],[-122.688909,45.631665],[-122.688881,45.631743],[-122.688787,45.631752],[-122.688752,45.631833],[-122.688641,45.631852],[-122.688623,45.631922],[-122.688495,45.631922],[-122.688495,45.631832],[-122.688601,45.631816],[-122.688624,45.631742],[-122.688724,45.63173],[-122.688753,45.631653],[-122.688847,45.631644],[-122.688882,45.631563],[-122.688993,45.631544],[-122.689011,45.631473],[-122.689139,45.631474]]]}},{"type":"Feature","properties":{"id":76,"area_m2":500,"px":5,"rank":80,"persistent":false},"geometry":{"type":"Polygon","coordinates":[[[-122.678,45.627482],[-122.677999,45.627572],[-122.677894,45.627588],[-122.677871,45.627662],[-122.677358,45.627661],[-122.677358,45.627571],[-122.677809,45.627571],[-122.677862,45.627543],[-122.677872,45.627482],[-122.678,45.627482]]]}},{"type":"Feature","properties":{"id":77,"area_m2":500,"px":5,"rank":81,"persistent":false},"geometry":{"type":"Polygon","coordinates":[[[-122.670047,45.62728],[-122.670046,45.62746],[-122.66994,45.627475],[-122.669917,45.627549],[-122.669789,45.627549],[-122.669791,45.627279],[-122.670047,45.62728]]]}},{"type":"Feature","properties":{"id":101,"area_m2":500,"px":5,"rank":82,"persistent":false},"geometry":{"type":"Polygon","coordinates":[[[-122.671752,45.620894],[-122.671751,45.621074],[-122.671495,45.621073],[-122.671473,45.620999],[-122.671367,45.620983],[-122.671368,45.620893],[-122.671752,45.620894]]]}},{"type":"Feature","properties":{"id":102,"area_m2":500,"px":5,"rank":83,"persistent":false},"geometry":{"type":"Polygon","coordinates":[[[-122.670215,45.62053],[-122.670215,45.620619],[-122.670013,45.620621],[-122.669964,45.620652],[-122.669957,45.620709],[-122.669829,45.620708],[-122.669831,45.620438],[-122.669959,45.620439],[-122.669965,45.620495],[-122.670013,45.620527],[-122.670215,45.62053]]]}},{"type":"Feature","properties":{"id":5,"area_m2":400,"px":4,"rank":84,"persistent":false},"geometry":{"type":"Polygon","coordinates":[[[-122.670013,45.63313],[-122.670012,45.63322],[-122.669756,45.633219],[-122.669758,45.632949],[-122.669886,45.63295],[-122.669894,45.633101],[-122.669939,45.633128],[-122.670013,45.63313]]]}},{"type":"Feature","properties":{"id":20,"area_m2":400,"px":4,"rank":85,"persistent":false},"geometry":{"type":"Polygon","coordinates":[[[-122.680668,45.63208],[-122.680667,45.63217],[-122.680587,45.632174],[-122.680542,45.632208],[-122.680538,45.63235],[-122.680281,45.632349],[-122.680282,45.632259],[-122.680388,45.632244],[-122.680411,45.63217],[-122.680526,45.632146],[-122.68054,45.63208],[-122.680668,45.63208]]]}},{"type":"Feature","properties":{"id":39,"area_m2":400,"px":4,"rank":86,"persistent":false},"geometry":{"type":"Polygon","coordinates":[[[-122.680803,45.630911],[-122.680802,45.631001],[-122.680417,45.630999],[-122.680418,45.63091],[-122.680524,45.630894],[-122.680547,45.63082],[-122.680675,45.63082],[-122.680697,45.630894],[-122.680803,45.630911]]]}},{"type":"Feature","properties":{"id":52,"area_m2":400,"px":4,"rank":87,"persistent":false},"geometry":{"type":"Polygon","coordinates":[[[-122.68607,45.629665],[-122.686069,45.629755],[-122.685813,45.629754],[-122.68581,45.629703],[-122.685773,45.629671],[-122.685557,45.629664],[-122.685557,45.629574],[-122.685814,45.629574],[-122.685817,45.629626],[-122.685854,45.629658],[-122.68607,45.629665]]]}},{"type":"Feature","properties":{"id":68,"area_m2":400,"px":4,"rank":88,"persistent":false},"geometry":{"type":"Polygon","coordinates":[[[-122.677096,45.62847],[-122.677096,45.62856],[-122.676968,45.62856],[-122.676962,45.628503],[-122.676913,45.628472],[-122.676583,45.628468],[-122.676584,45.628379],[-122.676968,45.62838],[-122.676991,45.628454],[-122.677096,45.62847]]]}},{"type":"Feature","properties":{"id":70,"area_m2":400,"px":4,"rank":89,"persistent":false},"geometry":{"type":"Polygon","coordinates":[[[-122.674789,45.628103],[-122.674789,45.628193],[-122.674708,45.628197],[-122.674663,45.628231],[-122.674659,45.628373],[-122.674531,45.628373],[-122.674533,45.628103],[-122.674789,45.628103]]]}},{"type":"Feature","properties":{"id":75,"area_m2":400,"px":4,"rank":90,"persistent":false},"geometry":{"type":"Polygon","coordinates":[[[-122.684542,45.627501],[-122.684542,45.627591],[-122.684436,45.627606],[-122.684413,45.62768],[-122.684157,45.62768],[-122.684157,45.62759],[-122.684263,45.627574],[-122.684286,45.6275],[-122.684542,45.627501]]]}},{"type":"Feature","properties":{"id":78,"area_m2":400,"px":4,"rank":91,"persistent":false},"geometry":{"type":"Polygon","coordinates":[[[-122.687751,45.627149],[-122.68775,45.627329],[-122.687494,45.627329],[-122.687495,45.627149],[-122.687751,45.627149]]]}},{"type":"Feature","properties":{"id":96,"area_m2":400,"px":4,"rank":92,"persistent":false},"geometry":{"type":"Polygon","coordinates":[[[-122.670067,45.623859],[-122.670065,45.624219],[-122.669937,45.624219],[-122.669939,45.623859],[-122.670067,45.623859]]]}},{"type":"Feature","properties":{"id":99,"area_m2":400,"px":4,"rank":93,"persistent":false},"geometry":{"type":"Polygon","coordinates":[[[-122.669944,45.622959],[-122.669942,45.623319],[-122.669814,45.623319],[-122.669816,45.622959],[-122.669944,45.622959]]]}},{"type":"Feature","properties":{"id":8,"area_m2":300,"px":3,"rank":94,"persistent":false},"geometry":{"type":"Polygon","coordinates":[[[-122.67566,45.632876],[-122.675659,45.632966],[-122.675553,45.632982],[-122.67553,45.633056],[-122.675402,45.633056],[-122.675403,45.632876],[-122.67566,45.632876]]]}},{"type":"Feature","properties":{"id":23,"area_m2":300,"px":3,"rank":95,"persistent":false},"geometry":{"type":"Polygon","coordinates":[[[-122.6731,45.631789],[-122.673099,45.631879],[-122.672897,45.631881],[-122.672849,45.631912],[-122.672842,45.631968],[-122.672714,45.631968],[-122.672715,45.631878],[-122.67282,45.631862],[-122.672843,45.631788],[-122.6731,45.631789]]]}},{"type":"Feature","properties":{"id":33,"area_m2":300,"px":3,"rank":96,"persistent":false},"geometry":{"type":"Polygon","coordinates":[[[-122.683879,45.631369],[-122.683879,45.631459],[-122.683622,45.631458],[-122.683623,45.631279],[-122.683751,45.631279],[-122.683774,45.631353],[-122.683879,45.631369]]]}},{"type":"Feature","properties":{"id":37,"area_m2":300,"px":3,"rank":97,"persistent":false},"geometry":{"type":"Polygon","coordinates":[[[-122.676953,45.63099],[-122.676953,45.63108],[-122.676568,45.631079],[-122.676569,45.630989],[-122.676953,45.63099]]]}},{"type":"Feature","properties":{"id":49,"area_m2":300,"px":3,"rank":98,"persistent":false},"geometry":{"type":"Polygon","coordinates":[[[-122.673623,45.63008],[-122.673622,45.63017],[-122.673238,45.630169],[-122.673238,45.630079],[-122.673623,45.63008]]]}},{"type":"Feature","properties":{"id":62,"area_m2":300,"px":3,"rank":99,"persistent":false},"geometry":{"type":"Polygon","coordinates":[[[-122.674529,45.628733],[-122.674528,45.628913],[-122.674271,45.628912],[-122.674272,45.628822],[-122.674378,45.628806],[-122.674401,45.628732],[-122.674529,45.628733]]]}},{"type":"Feature","properties":{"id":63,"area_m2":300,"px":3,"rank":100,"persistent":false},"geometry":{"type":"Polygon","coordinates":[[[-122.67671,45.628739],[-122.676709,45.628829],[-122.676583,45.628829],[-122.676559,45.628754],[-122.676453,45.628738],[-122.676454,45.628558],[-122.676582,45.628559],[-122.676591,45.62871],[-122.676636,45.628736],[-122.67671,45.628739]]]}},{"type":"Feature","properties":{"id":65,"area_m2":300,"px":3,"rank":101,"persistent":false},"geometry":{"type":"Polygon","coordinates":[[[-122.688129,45.628501],[-122.688128,45.628591],[-122.688023,45.628606],[-122.688,45.62868],[-122.687871,45.62868],[-122.687872,45.6285],[-122.688129,45.628501]]]}},{"type":"Feature","properties":{"id":84,"area_m2":300,"px":3,"rank":102,"persistent":false},"geometry":{"type":"Polygon","coordinates":[[[-122.680955,45.626681],[-122.680954,45.626771],[-122.680849,45.626786],[-122.680826,45.62686],[-122.680698,45.62686],[-122.680699,45.62668],[-122.680955,45.626681]]]}},{"type":"Feature","properties":{"id":88,"area_m2":300,"px":3,"rank":103,"persistent":false},"geometry":{"type":"Polygon","coordinates":[[[-122.678907,45.625865],[-122.678906,45.626135],[-122.678777,45.626134],[-122.678779,45.625864],[-122.678907,45.625865]]]}},{"type":"Feature","properties":{"id":103,"area_m2":300,"px":3,"rank":104,"persistent":false},"geometry":{"type":"Polygon","coordinates":[[[-122.689332,45.619683],[-122.689332,45.619773],[-122.689226,45.619788],[-122.689203,45.619863],[-122.689075,45.619862],[-122.689053,45.619788],[-122.688947,45.619772],[-122.688948,45.619682],[-122.689076,45.619682],[-122.689136,45.619707],[-122.689204,45.619683],[-122.689332,45.619683]]]}}]}