{"type":"FeatureCollection","features":[{"type":"Feature","properties":{"id":5,"area_m2":8200,"px":82,"rank":1,"persistent":false},"geometry":{"type":"Polygon","coordinates":[[[-122.728842,45.645616],[-122.728841,45.645886],[-122.728735,45.645902],[-122.728712,45.645976],[-122.728484,45.645988],[-122.728455,45.646065],[-122.728361,45.646074],[-122.728326,45.646155],[-122.728216,45.646175],[-122.728198,45.646245],[-122.727969,45.646256],[-122.727941,45.646334],[-122.727867,45.646336],[-122.727821,45.646362],[-122.727811,45.646514],[-122.727706,45.646529],[-122.727683,45.646603],[-122.727554,45.646602],[-122.727555,45.646513],[-122.727642,45.646507],[-122.727682,45.64647],[-122.727681,45.646192],[-122.727644,45.64616],[-122.727496,45.646129],[-122.727317,45.646172],[-122.727299,45.646333],[-122.727193,45.646348],[-122.72717,45.646422],[-122.727076,45.646431],[-122.727041,45.646512],[-122.72693,45.646531],[-122.726913,45.646602],[-122.726784,45.646601],[-122.726785,45.646511],[-122.726866,45.646507],[-122.72691,45.646473],[-122.726914,45.646332],[-122.727008,45.646323],[-122.727043,45.646242],[-122.727154,45.646223],[-122.727172,45.646062],[-122.72726,45.646056],[-122.7273,45.646014],[-122.727288,45.645817],[-122.727173,45.645792],[-122.727168,45.645736],[-122.727126,45.645706],[-122.726917,45.645702],[-122.726918,45.645612],[-122.727557,45.645613],[-122.72762,45.645637],[-122.727689,45.645613],[-122.728511,45.645629],[-122.728577,45.6456],[-122.728588,45.645526],[-122.728714,45.645526],[-122.728737,45.6456],[-122.728842,45.645616]]]}},{"type":"Feature","properties":{"id":1,"area_m2":1200,"px":12,"rank":2,"persistent":false},"geometry":{"type":"Polygon","coordinates":[[[-122.735614,45.651933],[-122.735614,45.652023],[-122.735404,45.652026],[-122.735363,45.652055],[-122.735356,45.652112],[-122.735128,45.652124],[-122.735099,45.652201],[-122.734883,45.652207],[-122.734846,45.652239],[-122.734842,45.652291],[-122.734727,45.652315],[-122.734713,45.652381],[-122.734585,45.65238],[-122.734597,45.65223],[-122.734552,45.652203],[-122.734458,45.6522],[-122.734458,45.65211],[-122.735059,45.652105],[-122.735097,45.652073],[-122.7351,45.652022],[-122.735216,45.651998],[-122.735229,45.651932],[-122.735614,45.651933]]]}},{"type":"Feature","properties":{"id":2,"area_m2":900,"px":9,"rank":3,"persistent":false},"geometry":{"type":"Polygon","coordinates":[[[-122.734073,45.652109],[-122.734072,45.652289],[-122.733966,45.652305],[-122.733943,45.652379],[-122.733815,45.652379],[-122.733802,45.652313],[-122.733687,45.652288],[-122.733684,45.652237],[-122.733647,45.652205],[-122.733431,45.652198],[-122.733431,45.652108],[-122.734073,45.652109]]]}},{"type":"Feature","properties":{"id":4,"area_m2":700,"px":7,"rank":4,"persistent":false},"geometry":{"type":"Polygon","coordinates":[[[-122.726773,45.648852],[-122.726773,45.648942],[-122.726388,45.648941],[-122.726366,45.648866],[-122.72626,45.64885],[-122.726261,45.64867],[-122.726389,45.648671],[-122.726395,45.648727],[-122.726443,45.648758],[-122.726645,45.648761],[-122.726668,45.648836],[-122.726773,45.648852]]]}},{"type":"Feature","properties":{"id":7,"area_m2":500,"px":5,"rank":5,"persistent":false},"geometry":{"type":"Polygon","coordinates":[[[-122.729614,45.645348],[-122.729613,45.645528],[-122.729228,45.645527],[-122.729228,45.645437],[-122.729334,45.645422],[-122.729357,45.645347],[-122.729614,45.645348]]]}},{"type":"Feature","properties":{"id":3,"area_m2":300,"px":3,"rank":6,"persistent":false},"geometry":{"type":"Polygon","coordinates":[[[-122.728178,45.650205],[-122.728178,45.650385],[-122.728049,45.650385],[-122.728047,45.650243],[-122.728003,45.650209],[-122.727922,45.650204],[-122.727922,45.650115],[-122.728051,45.650115],[-122.728073,45.650189],[-122.728178,45.650205]]]}},{"type":"Feature","properties":{"id":6,"area_m2":300,"px":3,"rank":7,"persistent":false},"geometry":{"type":"Polygon","coordinates":[[[-122.729609,45.646248],[-122.729608,45.646518],[-122.72948,45.646518],[-122.729481,45.646248],[-122.729609,45.646248]]]}}]}