{"type":"FeatureCollection","features":[{"type":"Feature","properties":{"id":19,"area_m2":68500,"px":685,"rank":1,"persistent":false},"geometry":{"type":"Polygon","coordinates":[[[-122.73063,45.647511],[-122.730629,45.647691],[-122.730246,45.64769],[-122.730216,45.647612],[-122.729988,45.647599],[-122.729982,45.647542],[-122.729941,45.647513],[-122.729603,45.647508],[-122.729581,45.647434],[-122.729475,45.647418],[-122.729476,45.647287],[-122.729448,45.64725],[-122.72922,45.647237],[-122.729202,45.647167],[-122.729092,45.647147],[-122.729058,45.647066],[-122.728964,45.647057],[-122.728942,45.646982],[-122.728708,45.646966],[-122.728695,45.6469],[-122.72858,45.646876],[-122.728577,45.646824],[-122.728539,45.646792],[-122.728351,45.646797],[-122.728323,45.646875],[-122.728223,45.646887],[-122.728194,45.646965],[-122.728094,45.646977],[-122.728065,45.647054],[-122.727971,45.647063],[-122.727937,45.647144],[-122.727821,45.647168],[-122.727807,45.647324],[-122.727773,45.647366],[-122.727807,45.647414],[-122.727807,45.647504],[-122.727706,45.647516],[-122.727678,45.647594],[-122.72759,45.6476],[-122.72755,45.647642],[-122.72755,45.64773],[-122.727589,45.647767],[-122.72819,45.647775],[-122.728212,45.647849],[-122.728318,45.647865],[-122.728352,45.647946],[-122.728446,45.647956],[-122.728445,45.648135],[-122.72833,45.648159],[-122.728316,45.648315],[-122.72821,45.648331],[-122.728187,45.648405],[-122.727802,45.648404],[-122.727793,45.648343],[-122.727733,45.648314],[-122.727289,45.648313],[-122.727267,45.648239],[-122.727162,45.648222],[-122.727162,45.648132],[-122.727196,45.648079],[-122.727154,45.647968],[-122.727096,45.647939],[-122.726825,45.647956],[-122.726783,45.647985],[-122.726777,45.648041],[-122.726568,45.648045],[-122.726526,45.648074],[-122.72652,45.648131],[-122.726326,45.648131],[-122.726265,45.648174],[-122.726271,45.648372],[-122.726317,45.648398],[-122.72639,45.648401],[-122.726424,45.648482],[-122.726518,45.648491],[-122.726552,45.648572],[-122.726775,45.648582],[-122.726783,45.648643],[-122.726836,45.648671],[-122.727288,45.648673],[-122.727321,45.648754],[-122.727544,45.648763],[-122.727566,45.648838],[-122.727672,45.648854],[-122.727671,45.649034],[-122.727565,45.649049],[-122.727542,45.649123],[-122.727286,45.649123],[-122.727268,45.649053],[-122.727158,45.649032],[-122.727124,45.648952],[-122.72703,45.648942],[-122.727002,45.648864],[-122.726773,45.648852],[-122.726761,45.648786],[-122.726646,45.648761],[-122.726618,45.648683],[-122.726389,45.648671],[-122.726384,45.648614],[-122.726335,45.648583],[-122.726167,45.648589],[-122.726133,45.64867],[-122.725619,45.648669],[-122.725616,45.648617],[-122.725579,45.648585],[-122.725235,45.648578],[-122.725226,45.648516],[-122.725173,45.648489],[-122.724594,45.648486],[-122.724591,45.648255],[-122.724547,45.64822],[-122.724467,45.648216],[-122.724467,45.648036],[-122.724573,45.64802],[-122.724596,45.647946],[-122.724926,45.647945],[-122.724975,45.647914],[-122.724982,45.647857],[-122.72521,45.647845],[-122.725239,45.647768],[-122.725461,45.647759],[-122.725496,45.647678],[-122.725611,45.647655],[-122.725625,45.647589],[-122.725735,45.647569],[-122.725753,45.647499],[-122.725864,45.64748],[-122.725882,45.647409],[-122.725993,45.64739],[-122.726011,45.64732],[-122.726117,45.647304],[-122.72614,45.64714],[-122.72624,45.647128],[-122.726269,45.64705],[-122.726363,45.647041],[-122.726398,45.646961],[-122.726509,45.646941],[-122.726527,45.646781],[-122.726621,45.646772],[-122.726656,45.646691],[-122.726736,45.646687],[-122.726778,45.646658],[-122.726785,45.646511],[-122.726879,45.646503],[-122.726914,45.646422],[-122.726987,45.64642],[-122.727033,45.646393],[-122.727043,45.646242],[-122.727137,45.646233],[-122.727172,45.646152],[-122.727245,45.64615],[-122.727291,45.646124],[-122.727284,45.645902],[-122.727173,45.645882],[-122.72717,45.645831],[-122.727133,45.645799],[-122.726917,45.645792],[-122.726894,45.645717],[-122.726789,45.645701],[-122.726791,45.645161],[-122.727048,45.645162],[-122.727061,45.645228],[-122.727176,45.645252],[-122.727204,45.64533],[-122.72739,45.645342],[-122.727452,45.645292],[-122.727418,45.64508],[-122.727535,45.645069],[-122.727579,45.645033],[-122.72754,45.644909],[-122.727375,45.644893],[-122.727307,45.644936],[-122.727321,45.645065],[-122.727177,45.645072],[-122.727178,45.644802],[-122.72782,45.644804],[-122.727842,45.644878],[-122.727947,45.644894],[-122.727963,45.644976],[-122.727913,45.645037],[-122.727993,45.645088],[-122.728066,45.645059],[-122.728075,45.644984],[-122.728304,45.644973],[-122.728333,45.644895],[-122.728589,45.644896],[-122.728588,45.645165],[-122.728477,45.645185],[-122.72844,45.645284],[-122.728456,45.645325],[-122.728508,45.645345],[-122.728675,45.645339],[-122.728712,45.645308],[-122.728716,45.645256],[-122.728831,45.645232],[-122.728846,45.644896],[-122.728974,45.644897],[-122.728977,45.644948],[-122.729014,45.64498],[-122.72923,45.644987],[-122.72923,45.645077],[-122.729149,45.645081],[-122.729105,45.645115],[-122.729116,45.645249],[-122.72902,45.645261],[-122.728976,45.645295],[-122.728973,45.645393],[-122.729012,45.64543],[-122.729154,45.645451],[-122.729211,45.645431],[-122.729229,45.645257],[-122.729614,45.645258],[-122.72962,45.645315],[-122.729661,45.645344],[-122.729999,45.645349],[-122.730002,45.645401],[-122.730039,45.645433],[-122.730255,45.64544],[-122.73026,45.645496],[-122.730309,45.645527],[-122.730511,45.64553],[-122.730511,45.64562],[-122.730476,45.645662],[-122.73051,45.64571],[-122.73051,45.6458],[-122.730276,45.645815],[-122.730252,45.64598],[-122.729867,45.645979],[-122.729858,45.645917],[-122.729798,45.645889],[-122.72916,45.645888],[-122.729107,45.645915],[-122.729097,45.645977],[-122.729024,45.645979],[-122.728978,45.646005],[-122.728968,45.646116],[-122.729035,45.64617],[-122.729481,45.646158],[-122.72949,45.646219],[-122.729543,45.646247],[-122.729866,45.646249],[-122.729865,45.646429],[-122.729831,45.646471],[-122.729865,45.646519],[-122.729864,45.646609],[-122.72983,45.646656],[-122.729864,45.646699],[-122.729865,45.646835],[-122.729904,45.646872],[-122.729991,45.646879],[-122.730019,45.646957],[-122.730119,45.646971],[-122.730118,45.647149],[-122.72989,45.647161],[-122.729862,45.647197],[-122.729867,45.647295],[-122.72993,45.647329],[-122.730246,45.64733],[-122.730258,45.647396],[-122.730374,45.64742],[-122.730407,45.647501],[-122.73063,45.647511]],[[-122.727555,45.646513],[-122.727636,45.646509],[-122.72768,45.646475],[-122.727684,45.646202],[-122.727637,45.646158],[-122.727498,45.646153],[-122.727437,45.646181],[-122.727428,45.646243],[-122.727354,45.646245],[-122.727308,45.646271],[-122.727298,45.646423],[-122.727198,45.646435],[-122.72717,45.646512],[-122.72707,45.646524],[-122.727041,45.646602],[-122.726947,45.646611],[-122.726912,45.646692],[-122.726797,45.646715],[-122.726783,45.646871],[-122.726683,45.646883],[-122.726654,45.646961],[-122.72656,45.64697],[-122.726525,45.647051],[-122.72641,45.647075],[-122.726396,45.64723],[-122.726296,45.647243],[-122.726267,45.64732],[-122.726167,45.647332],[-122.726139,45.64741],[-122.726045,45.647419],[-122.72601,45.6475],[-122.725894,45.647523],[-122.725881,45.647679],[-122.725775,45.647695],[-122.725752,45.647769],[-122.725529,45.647778],[-122.725495,45.647858],[-122.725266,45.64787],[-122.725219,45.647977],[-122.725239,45.648021],[-122.725287,45.648038],[-122.725568,45.648036],[-122.725617,45.648005],[-122.725623,45.647949],[-122.725851,45.647937],[-122.72588,45.647859],[-122.726096,45.647854],[-122.726133,45.647822],[-122.726137,45.64777],[-122.726252,45.647746],[-122.726266,45.64768],[-122.726377,45.647661],[-122.726395,45.647591],[-122.726505,45.647571],[-122.726523,45.647501],[-122.726757,45.647486],[-122.72678,45.647412],[-122.726861,45.647408],[-122.726903,45.647378],[-122.72691,45.647232],[-122.727015,45.647216],[-122.727038,45.647142],[-122.727254,45.647136],[-122.727292,45.647104],[-122.727296,45.647053],[-122.727369,45.647051],[-122.727415,45.647024],[-122.727425,45.646783],[-122.727513,45.646777],[-122.727552,45.64674],[-122.727555,45.646513]],[[-122.728444,45.645681],[-122.728477,45.64548],[-122.728445,45.645445],[-122.728279,45.645435],[-122.728214,45.645459],[-122.728201,45.645525],[-122.727816,45.645524],[-122.727814,45.645369],[-122.727735,45.64533],[-122.727573,45.645367],[-122.727559,45.645523],[-122.727525,45.645571],[-122.727593,45.645694],[-122.727815,45.645704],[-122.72782,45.64594],[-122.727862,45.64597],[-122.72801,45.645998],[-122.728177,45.645959],[-122.7282,45.645795],[-122.728294,45.645786],[-122.728329,45.645705],[-122.728444,45.645681]],[[-122.729228,45.645567],[-122.729168,45.645514],[-122.728985,45.645536],[-122.728951,45.645582],[-122.728983,45.645683],[-122.729138,45.64572],[-122.729194,45.645711],[-122.729226,45.645677],[-122.729228,45.645567]],[[-122.730257,45.645621],[-122.730201,45.645596],[-122.730144,45.645606],[-122.730093,45.645651],[-122.730106,45.645697],[-122.730171,45.645732],[-122.730235,45.645723],[-122.730287,45.645673],[-122.730257,45.645621]]]}},{"type":"Feature","properties":{"id":1,"area_m2":4600,"px":46,"rank":2,"persistent":false},"geometry":{"type":"Polygon","coordinates":[[[-122.736385,45.651665],[-122.736384,45.651934],[-122.736168,45.65194],[-122.736131,45.651972],[-122.736127,45.652024],[-122.736012,45.652048],[-122.735998,45.652114],[-122.735782,45.652119],[-122.735745,45.652151],[-122.735741,45.652203],[-122.735513,45.652215],[-122.735484,45.652292],[-122.735356,45.652292],[-122.735288,45.652268],[-122.735227,45.652292],[-122.735033,45.652292],[-122.73498,45.65232],[-122.73497,45.652381],[-122.734714,45.652381],[-122.734646,45.652356],[-122.734585,45.65238],[-122.73439,45.652381],[-122.734337,45.652408],[-122.734328,45.65247],[-122.733815,45.652469],[-122.733815,45.652379],[-122.734017,45.652377],[-122.734072,45.652325],[-122.734055,45.652219],[-122.734003,45.652199],[-122.733816,45.652198],[-122.733817,45.652109],[-122.734715,45.652111],[-122.734749,45.652192],[-122.734894,45.652201],[-122.734958,45.652177],[-122.734972,45.652111],[-122.7351,45.652112],[-122.735168,45.652136],[-122.735228,45.652112],[-122.735423,45.652111],[-122.735476,45.652084],[-122.735485,45.652022],[-122.735687,45.652021],[-122.735736,45.65199],[-122.735742,45.651933],[-122.73593,45.651933],[-122.735982,45.651914],[-122.736034,45.651801],[-122.736,45.651754],[-122.736,45.651664],[-122.736129,45.651664],[-122.736189,45.651688],[-122.736257,45.651664],[-122.736385,45.651665]]]}},{"type":"Feature","properties":{"id":7,"area_m2":2900,"px":29,"rank":3,"persistent":false},"geometry":{"type":"Polygon","coordinates":[[[-122.73806,45.650228],[-122.738059,45.650588],[-122.737985,45.65059],[-122.737939,45.650616],[-122.73793,45.650768],[-122.737835,45.650777],[-122.737801,45.650858],[-122.737685,45.650881],[-122.737672,45.651037],[-122.737566,45.651053],[-122.737543,45.651127],[-122.737443,45.651139],[-122.737414,45.651217],[-122.737314,45.651229],[-122.737285,45.651306],[-122.737191,45.651315],[-122.737157,45.651396],[-122.737046,45.651416],[-122.737028,45.651486],[-122.736771,45.651485],[-122.736772,45.651395],[-122.736872,45.651383],[-122.736901,45.651306],[-122.737001,45.651294],[-122.737029,45.651216],[-122.737129,45.651204],[-122.737158,45.651126],[-122.737252,45.651117],[-122.737287,45.651037],[-122.737402,45.651013],[-122.737416,45.650857],[-122.737497,45.650853],[-122.737541,45.650819],[-122.737545,45.650677],[-122.737626,45.650673],[-122.737668,45.650644],[-122.737674,45.650497],[-122.737755,45.650493],[-122.737797,45.650464],[-122.737804,45.650318],[-122.737909,45.650302],[-122.737932,45.650228],[-122.73806,45.650228]]]}},{"type":"Feature","properties":{"id":3,"area_m2":2700,"px":27,"rank":4,"persistent":false},"geometry":{"type":"Polygon","coordinates":[[[-122.732405,45.651925],[-122.732405,45.652015],[-122.732299,45.652031],[-122.732276,45.652105],[-122.732148,45.652105],[-122.732142,45.652048],[-122.732094,45.652017],[-122.731892,45.652014],[-122.731889,45.651872],[-122.731845,45.651838],[-122.731764,45.651834],[-122.731748,45.651673],[-122.731696,45.651654],[-122.731509,45.651653],[-122.731486,45.651579],[-122.731381,45.651563],[-122.731368,45.651497],[-122.731253,45.651472],[-122.731225,45.651395],[-122.731125,45.651382],[-122.731125,45.651292],[-122.731382,45.651293],[-122.731399,45.651363],[-122.73151,45.651383],[-122.731527,45.651453],[-122.731638,45.651473],[-122.731646,45.651535],[-122.731699,45.651563],[-122.73186,45.651555],[-122.731894,45.651474],[-122.732151,45.651475],[-122.732173,45.651549],[-122.732279,45.651566],[-122.732278,45.651655],[-122.732185,45.651657],[-122.732135,45.651689],[-122.732155,45.651801],[-122.732197,45.651831],[-122.732278,45.651835],[-122.732311,45.651916],[-122.732405,45.651925]]]}},{"type":"Feature","properties":{"id":18,"area_m2":2700,"px":27,"rank":5,"persistent":false},"geometry":{"type":"Polygon","coordinates":[[[-122.735882,45.649413],[-122.735882,45.649503],[-122.735369,45.649502],[-122.735363,45.649445],[-122.735322,45.649416],[-122.734984,45.649411],[-122.734981,45.649359],[-122.734944,45.649327],[-122.734728,45.64932],[-122.7347,45.649243],[-122.734472,45.64923],[-122.734466,45.649173],[-122.734425,45.649144],[-122.734216,45.649139],[-122.734216,45.649049],[-122.734858,45.649051],[-122.734861,45.649102],[-122.734898,45.649134],[-122.735242,45.649142],[-122.735276,45.649223],[-122.735498,45.649232],[-122.735532,45.649313],[-122.735755,45.649323],[-122.735777,45.649397],[-122.735882,45.649413]]]}},{"type":"Feature","properties":{"id":23,"area_m2":2700,"px":27,"rank":6,"persistent":false},"geometry":{"type":"Polygon","coordinates":[[[-122.727051,45.644622],[-122.72705,45.644802],[-122.726921,45.644801],[-122.726918,45.64475],[-122.726881,45.644718],[-122.726537,45.644711],[-122.726528,45.644649],[-122.726475,45.644622],[-122.724869,45.644617],[-122.72487,45.644527],[-122.724975,45.644511],[-122.724998,45.644437],[-122.725896,45.644439],[-122.725905,45.644501],[-122.725958,45.644528],[-122.726794,45.644531],[-122.726797,45.644583],[-122.726835,45.644615],[-122.727051,45.644622]]]}},{"type":"Feature","properties":{"id":5,"area_m2":2400,"px":24,"rank":7,"persistent":false},"geometry":{"type":"Polygon","coordinates":[[[-122.735358,45.651752],[-122.735358,45.651842],[-122.734718,45.651841],[-122.734713,45.651775],[-122.734671,45.651741],[-122.73446,45.65175],[-122.734438,45.651676],[-122.734332,45.651658],[-122.734333,45.65139],[-122.734427,45.651387],[-122.734473,45.65136],[-122.734462,45.65121],[-122.734847,45.651211],[-122.734847,45.651301],[-122.734759,45.651307],[-122.73472,45.651344],[-122.73473,45.651547],[-122.734846,45.651571],[-122.734851,45.651628],[-122.734893,45.651657],[-122.73523,45.651662],[-122.735253,45.651736],[-122.735358,45.651752]]]}},{"type":"Feature","properties":{"id":13,"area_m2":2000,"px":20,"rank":8,"persistent":false},"geometry":{"type":"Polygon","coordinates":[[[-122.729974,45.650479],[-122.729972,45.650839],[-122.729844,45.650839],[-122.729835,45.650778],[-122.729782,45.65075],[-122.729459,45.650748],[-122.729457,45.650516],[-122.729413,45.650482],[-122.729332,45.650478],[-122.729298,45.650397],[-122.729204,45.650387],[-122.729205,45.650208],[-122.729462,45.650208],[-122.729462,45.650339],[-122.729489,45.650376],[-122.729718,45.650389],[-122.729723,45.650445],[-122.729772,45.650477],[-122.729974,45.650479]]]}},{"type":"Feature","properties":{"id":6,"area_m2":1900,"px":19,"rank":9,"persistent":false},"geometry":{"type":"Polygon","coordinates":[[[-122.730611,45.651471],[-122.73061,45.651651],[-122.730225,45.65165],[-122.730197,45.651572],[-122.729969,45.651559],[-122.729963,45.651503],[-122.729922,45.651473],[-122.729584,45.651468],[-122.729585,45.651379],[-122.72969,45.651363],[-122.729713,45.651289],[-122.730227,45.65129],[-122.730261,45.651371],[-122.730483,45.651381],[-122.730505,45.651455],[-122.730611,45.651471]]]}},{"type":"Feature","properties":{"id":16,"area_m2":1900,"px":19,"rank":10,"persistent":false},"geometry":{"type":"Polygon","coordinates":[[[-122.728949,45.650027],[-122.728948,45.650297],[-122.72882,45.650297],[-122.728798,45.650222],[-122.728692,45.650206],[-122.728675,45.650136],[-122.728564,45.650116],[-122.72853,45.650035],[-122.728436,45.650026],[-122.728408,45.649948],[-122.728308,45.649935],[-122.72828,45.649858],[-122.72818,45.649845],[-122.728213,45.649697],[-122.728159,45.649591],[-122.728053,45.649575],[-122.728054,45.649485],[-122.728182,45.649485],[-122.728199,45.649555],[-122.72831,45.649575],[-122.728327,45.649646],[-122.728438,45.649666],[-122.72845,45.649732],[-122.728566,45.649756],[-122.7286,45.649837],[-122.728822,45.649847],[-122.72883,45.649998],[-122.728876,45.650024],[-122.728949,45.650027]]]}},{"type":"Feature","properties":{"id":15,"area_m2":1300,"px":13,"rank":11,"persistent":false},"geometry":{"type":"Polygon","coordinates":[[[-122.733569,45.650128],[-122.733568,45.650398],[-122.733183,45.650397],[-122.733161,45.650323],[-122.733055,45.650307],[-122.733056,45.650037],[-122.733313,45.650037],[-122.733316,45.650089],[-122.733353,45.650121],[-122.733569,45.650128]]]}},{"type":"Feature","properties":{"id":2,"area_m2":1200,"px":12,"rank":12,"persistent":false},"geometry":{"type":"Polygon","coordinates":[[[-122.733688,45.652198],[-122.733687,45.652378],[-122.733302,45.652377],[-122.733296,45.652321],[-122.733248,45.65229],[-122.732917,45.652286],[-122.732895,45.652212],[-122.732789,45.652196],[-122.73279,45.652106],[-122.733175,45.652107],[-122.733184,45.652169],[-122.733244,45.652197],[-122.733688,45.652198]]]}},{"type":"Feature","properties":{"id":14,"area_m2":1200,"px":12,"rank":13,"persistent":false},"geometry":{"type":"Polygon","coordinates":[[[-122.728306,45.650295],[-122.728306,45.650385],[-122.728225,45.650389],[-122.728181,45.650423],[-122.728177,45.650565],[-122.728071,45.650581],[-122.728048,45.650655],[-122.72792,45.650654],[-122.727907,45.650498],[-122.727792,45.650474],[-122.727758,45.650393],[-122.727664,45.650384],[-122.727665,45.650204],[-122.727771,45.650188],[-122.727794,45.650114],[-122.728051,45.650115],[-122.728073,45.650189],[-122.728178,45.650205],[-122.728212,45.650286],[-122.728306,45.650295]],[[-122.72805,45.650384],[-122.728068,45.65034],[-122.728036,45.650304],[-122.727963,45.650296],[-122.727914,45.650319],[-122.727903,45.650361],[-122.727939,45.650398],[-122.727996,45.650408],[-122.72805,45.650384]]]}},{"type":"Feature","properties":{"id":20,"area_m2":1200,"px":12,"rank":14,"persistent":false},"geometry":{"type":"Polygon","coordinates":[[[-122.73807,45.648248],[-122.738069,45.648428],[-122.737941,45.648428],[-122.737918,45.648353],[-122.737813,45.648337],[-122.737791,45.648173],[-122.737557,45.648157],[-122.737548,45.648005],[-122.737503,45.647979],[-122.737429,45.647976],[-122.737431,45.647707],[-122.737559,45.647707],[-122.737571,45.647863],[-122.737686,45.647887],[-122.73772,45.647968],[-122.737814,45.647977],[-122.737836,45.648142],[-122.737942,45.648158],[-122.737976,45.648239],[-122.73807,45.648248]]]}},{"type":"Feature","properties":{"id":17,"area_m2":900,"px":9,"rank":15,"persistent":false},"geometry":{"type":"Polygon","coordinates":[[[-122.73845,45.649149],[-122.738448,45.649689],[-122.73832,45.649689],[-122.738297,45.649614],[-122.738192,45.649598],[-122.738193,45.649418],[-122.738227,45.649376],[-122.738193,45.649328],[-122.738194,45.649238],[-122.738299,45.649223],[-122.738322,45.649149],[-122.73845,45.649149]]]}},{"type":"Feature","properties":{"id":10,"area_m2":700,"px":7,"rank":16,"persistent":false},"geometry":{"type":"Polygon","coordinates":[[[-122.732026,45.650664],[-122.732025,45.651024],[-122.731897,45.651024],[-122.731874,45.65095],[-122.731769,45.650934],[-122.73177,45.650664],[-122.732026,45.650664]]]}},{"type":"Feature","properties":{"id":8,"area_m2":600,"px":6,"rank":17,"persistent":false},"geometry":{"type":"Polygon","coordinates":[[[-122.733694,45.650848],[-122.733693,45.651028],[-122.733619,45.65103],[-122.733574,45.651056],[-122.733564,45.651208],[-122.733483,45.651212],[-122.733439,45.651246],[-122.733435,45.651388],[-122.733307,45.651387],[-122.733307,45.651207],[-122.733381,45.651205],[-122.733427,45.651179],[-122.733437,45.651028],[-122.733517,45.651024],[-122.733562,45.65099],[-122.733566,45.650848],[-122.733694,45.650848]]]}},{"type":"Feature","properties":{"id":22,"area_m2":500,"px":5,"rank":18,"persistent":false},"geometry":{"type":"Polygon","coordinates":[[[-122.730896,45.645441],[-122.730896,45.645531],[-122.730802,45.64554],[-122.730767,45.645585],[-122.73078,45.645687],[-122.730895,45.645711],[-122.730895,45.645801],[-122.730766,45.645801],[-122.730744,45.645727],[-122.730639,45.64571],[-122.73064,45.645441],[-122.730896,45.645441]]]}},{"type":"Feature","properties":{"id":4,"area_m2":400,"px":4,"rank":19,"persistent":false},"geometry":{"type":"Polygon","coordinates":[[[-122.73677,45.651665],[-122.736769,45.651845],[-122.736664,45.651861],[-122.736641,45.651935],[-122.736513,45.651935],[-122.736513,45.651755],[-122.736619,45.651739],[-122.736642,45.651665],[-122.73677,45.651665]]]}},{"type":"Feature","properties":{"id":9,"area_m2":400,"px":4,"rank":20,"persistent":false},"geometry":{"type":"Polygon","coordinates":[[[-122.730869,45.651202],[-122.730868,45.651292],[-122.730612,45.651291],[-122.73059,45.651217],[-122.730484,45.651201],[-122.730484,45.651111],[-122.730741,45.651111],[-122.730763,45.651185],[-122.730869,45.651202]]]}},{"type":"Feature","properties":{"id":11,"area_m2":400,"px":4,"rank":21,"persistent":false},"geometry":{"type":"Polygon","coordinates":[[[-122.731641,45.650843],[-122.73164,45.651023],[-122.731383,45.651023],[-122.731384,45.650843],[-122.731641,45.650843]]]}},{"type":"Feature","properties":{"id":12,"area_m2":300,"px":3,"rank":22,"persistent":false},"geometry":{"type":"Polygon","coordinates":[[[-122.72856,45.650836],[-122.72856,45.650926],[-122.728303,45.650925],[-122.728304,45.650746],[-122.728433,45.650746],[-122.728455,45.65082],[-122.72856,45.650836]]]}},{"type":"Feature","properties":{"id":21,"area_m2":300,"px":3,"rank":23,"persistent":false},"geometry":{"type":"Polygon","coordinates":[[[-122.736278,45.647254],[-122.736277,45.647434],[-122.736149,45.647433],[-122.736126,45.647359],[-122.736021,45.647343],[-122.736021,45.647253],[-122.736278,45.647254]]]}}]}