{"type":"FeatureCollection","features":[{"type":"Feature","properties":{"id":16,"area_m2":46000,"px":460,"rank":1,"persistent":false},"geometry":{"type":"Polygon","coordinates":[[[-122.730381,45.6458],[-122.730381,45.64589],[-122.730275,45.645905],[-122.730252,45.64598],[-122.730124,45.645979],[-122.730064,45.645955],[-122.729996,45.645979],[-122.729739,45.645978],[-122.729671,45.645954],[-122.729611,45.645978],[-122.72928,45.64598],[-122.729231,45.646011],[-122.729225,45.646067],[-122.728997,45.646079],[-122.728968,45.646156],[-122.728853,45.64618],[-122.728839,45.646246],[-122.728637,45.646248],[-122.728582,45.6463],[-122.728583,45.646382],[-122.728623,45.646419],[-122.728897,45.646426],[-122.728958,45.646398],[-122.728967,45.646337],[-122.729196,45.646325],[-122.729224,45.646247],[-122.729866,45.646249],[-122.729865,45.646429],[-122.729771,45.646438],[-122.729736,45.646518],[-122.729625,45.646538],[-122.729611,45.64666],[-122.729655,45.646694],[-122.729735,45.646698],[-122.729769,45.646779],[-122.729863,45.646789],[-122.729872,45.64694],[-122.729917,45.646967],[-122.729991,45.646969],[-122.72999,45.647149],[-122.729916,45.647151],[-122.729871,45.647177],[-122.72987,45.6473],[-122.729923,45.647328],[-122.730117,45.647329],[-122.73014,45.647404],[-122.730245,45.64742],[-122.730279,45.647501],[-122.730373,45.64751],[-122.730373,45.6476],[-122.730245,45.6476],[-122.730236,45.647538],[-122.730183,45.647511],[-122.729732,45.647508],[-122.729714,45.647438],[-122.729604,45.647418],[-122.72957,45.647337],[-122.729476,45.647328],[-122.729448,45.64725],[-122.72922,45.647237],[-122.729202,45.647167],[-122.729092,45.647147],[-122.729058,45.647066],[-122.728964,45.647057],[-122.728936,45.646979],[-122.728836,45.646966],[-122.728808,45.646889],[-122.728708,45.646876],[-122.728686,45.646802],[-122.728452,45.646785],[-122.728446,45.646729],[-122.728405,45.646699],[-122.728241,45.646672],[-122.72809,45.64671],[-122.728067,45.646784],[-122.727843,45.64678],[-122.72781,45.646874],[-122.727553,45.646873],[-122.727555,45.646513],[-122.727642,45.646507],[-122.727683,45.646465],[-122.727684,45.646202],[-122.727623,45.646154],[-122.727469,45.646159],[-122.727431,45.646191],[-122.727428,45.646243],[-122.727322,45.646258],[-122.727298,45.646423],[-122.727198,45.646435],[-122.72717,45.646512],[-122.72707,45.646524],[-122.727041,45.646602],[-122.726941,45.646614],[-122.726912,45.646692],[-122.726818,45.646701],[-122.726783,45.646781],[-122.726673,45.646801],[-122.726654,45.646961],[-122.726548,45.646977],[-122.726525,45.647051],[-122.726397,45.64705],[-122.726398,45.646961],[-122.726478,45.646957],[-122.726523,45.646922],[-122.726527,45.646781],[-122.726621,45.646772],[-122.726656,45.646691],[-122.726767,45.646672],[-122.726785,45.646511],[-122.726885,45.646499],[-122.726914,45.646422],[-122.727008,45.646413],[-122.727042,45.646332],[-122.727153,45.646313],[-122.727172,45.646152],[-122.727259,45.646146],[-122.727299,45.646109],[-122.727284,45.645902],[-122.727173,45.645882],[-122.72717,45.645831],[-122.727133,45.645799],[-122.726917,45.645792],[-122.726894,45.645717],[-122.726789,45.645701],[-122.726789,45.645611],[-122.7269,45.645592],[-122.726937,45.645493],[-122.726898,45.645438],[-122.72679,45.64543],[-122.726791,45.645251],[-122.726879,45.645245],[-122.726919,45.645203],[-122.726913,45.64474],[-122.726867,45.644714],[-122.726794,45.644711],[-122.726785,45.64465],[-122.726725,45.644621],[-122.724613,45.644616],[-122.724613,45.644526],[-122.724719,45.64451],[-122.724742,45.644436],[-122.725768,45.644439],[-122.725777,45.6445],[-122.72583,45.644528],[-122.727051,45.644532],[-122.727054,45.644584],[-122.727091,45.644616],[-122.727435,45.644623],[-122.727444,45.644684],[-122.727497,45.644712],[-122.728077,45.644714],[-122.728086,45.644776],[-122.728146,45.644804],[-122.728718,45.644806],[-122.728721,45.644858],[-122.728758,45.64489],[-122.728974,45.644897],[-122.72898,45.644953],[-122.729028,45.644984],[-122.72923,45.644987],[-122.72923,45.645077],[-122.729142,45.645083],[-122.729103,45.64512],[-122.729101,45.645312],[-122.729127,45.645348],[-122.729182,45.645361],[-122.729316,45.645341],[-122.729354,45.645309],[-122.729359,45.645257],[-122.729486,45.645258],[-122.729491,45.645314],[-122.72954,45.645346],[-122.72987,45.645349],[-122.729869,45.645529],[-122.729835,45.645576],[-122.729886,45.645689],[-122.729997,45.645709],[-122.730002,45.645766],[-122.730051,45.645797],[-122.730381,45.6458]],[[-122.727177,45.645611],[-122.727209,45.645565],[-122.727159,45.645515],[-122.727169,45.645452],[-122.727129,45.645423],[-122.727072,45.645421],[-122.727012,45.645474],[-122.727062,45.64553],[-122.727052,45.645592],[-122.727106,45.645625],[-122.727177,45.645611]],[[-122.727437,45.644894],[-122.727366,45.644869],[-122.7272,45.644908],[-122.727177,45.644946],[-122.727199,45.645056],[-122.727254,45.645072],[-122.727411,45.645057],[-122.727468,45.644946],[-122.727437,45.644894]],[[-122.72781,45.64567],[-122.727831,45.645558],[-122.727774,45.645525],[-122.727473,45.645524],[-122.727412,45.645568],[-122.727436,45.64567],[-122.727492,45.645702],[-122.727768,45.6457],[-122.72781,45.64567]],[[-122.727939,45.646694],[-122.727958,45.646649],[-122.727926,45.646614],[-122.727861,45.646604],[-122.727808,45.646624],[-122.727792,45.646665],[-122.727829,45.646707],[-122.727886,45.646718],[-122.727939,45.646694]],[[-122.729228,45.645567],[-122.729168,45.645514],[-122.728985,45.645536],[-122.728951,45.645582],[-122.728983,45.645683],[-122.729138,45.64572],[-122.729194,45.645711],[-122.729226,45.645677],[-122.729228,45.645567]]]}},{"type":"Feature","properties":{"id":15,"area_m2":18900,"px":189,"rank":2,"persistent":false},"geometry":{"type":"Polygon","coordinates":[[[-122.728446,45.647956],[-122.728446,45.648045],[-122.728365,45.648049],[-122.72832,45.648084],[-122.728316,45.648225],[-122.728211,45.648241],[-122.728188,45.648315],[-122.728072,45.648339],[-122.728059,45.648405],[-122.727802,45.648404],[-122.727799,45.648352],[-122.727762,45.64832],[-122.727418,45.648313],[-122.727395,45.648239],[-122.72729,45.648223],[-122.727288,45.647991],[-122.727244,45.647957],[-122.727163,45.647952],[-122.727135,45.647875],[-122.726907,45.647862],[-122.726903,45.64781],[-122.726866,45.647778],[-122.726698,45.647775],[-122.726656,45.647805],[-122.72665,45.647861],[-122.726534,45.647885],[-122.726521,45.647951],[-122.72641,45.64797],[-122.726392,45.648041],[-122.726312,45.648045],[-122.72627,45.648074],[-122.726229,45.648173],[-122.726263,45.64822],[-122.726261,45.64858],[-122.726156,45.648596],[-122.726133,45.64867],[-122.725748,45.648669],[-122.725739,45.648608],[-122.725679,45.648579],[-122.725235,45.648578],[-122.725226,45.648516],[-122.725173,45.648489],[-122.724594,45.648486],[-122.724591,45.648255],[-122.724547,45.64822],[-122.724467,45.648216],[-122.724467,45.648036],[-122.724683,45.64803],[-122.724721,45.647998],[-122.724725,45.647947],[-122.724926,45.647945],[-122.724975,45.647914],[-122.724982,45.647857],[-122.725204,45.647849],[-122.725239,45.647768],[-122.725495,45.647768],[-122.725495,45.647858],[-122.7253,45.647859],[-122.725247,45.647886],[-122.725219,45.647993],[-122.725272,45.648035],[-122.72556,45.648038],[-122.725613,45.64801],[-122.725623,45.647949],[-122.725967,45.647943],[-122.726005,45.647911],[-122.726008,45.64786],[-122.726124,45.647836],[-122.726137,45.64777],[-122.726371,45.647755],[-122.726394,45.647681],[-122.726494,45.647669],[-122.726523,45.647591],[-122.726623,45.647579],[-122.726652,45.647501],[-122.726752,45.647489],[-122.72678,45.647412],[-122.726875,45.647403],[-122.726909,45.647322],[-122.72702,45.647302],[-122.727038,45.647232],[-122.727166,45.647232],[-122.727166,45.647377],[-122.727198,45.647417],[-122.727381,45.647407],[-122.727419,45.647375],[-122.727423,45.647323],[-122.727503,45.647319],[-122.727545,45.64729],[-122.727552,45.647143],[-122.727658,45.647128],[-122.727681,45.647054],[-122.727775,45.647045],[-122.727809,45.646964],[-122.72792,45.646944],[-122.727938,45.646874],[-122.728066,45.646875],[-122.728065,45.647054],[-122.727971,45.647063],[-122.727937,45.647144],[-122.727863,45.647146],[-122.727817,45.647172],[-122.727807,45.647324],[-122.727773,45.647366],[-122.727807,45.647414],[-122.727807,45.647504],[-122.727701,45.647519],[-122.727678,45.647594],[-122.727546,45.647614],[-122.727552,45.647735],[-122.727596,45.647769],[-122.727677,45.647774],[-122.727711,45.647855],[-122.727851,45.647878],[-122.727925,45.647849],[-122.727934,45.647774],[-122.72819,45.647775],[-122.728212,45.647849],[-122.728318,45.647865],[-122.728352,45.647946],[-122.728446,45.647956]]]}},{"type":"Feature","properties":{"id":3,"area_m2":4800,"px":48,"rank":3,"persistent":false},"geometry":{"type":"Polygon","coordinates":[[[-122.73279,45.651926],[-122.73279,45.652016],[-122.732148,45.652015],[-122.732136,45.651949],[-122.732021,45.651924],[-122.731993,45.651847],[-122.731764,45.651834],[-122.731742,45.651759],[-122.731636,45.651743],[-122.731631,45.651597],[-122.73159,45.651567],[-122.731509,45.651563],[-122.731481,45.651485],[-122.731253,45.651472],[-122.731244,45.651411],[-122.731191,45.651383],[-122.730868,45.651382],[-122.730846,45.651307],[-122.73074,45.651291],[-122.730741,45.651201],[-122.730846,45.651186],[-122.730869,45.651112],[-122.730985,45.651088],[-122.730998,45.651022],[-122.731255,45.651023],[-122.731272,45.651093],[-122.731383,45.651113],[-122.731416,45.651194],[-122.73151,45.651203],[-122.731538,45.651281],[-122.731767,45.651294],[-122.731769,45.651435],[-122.731814,45.65147],[-122.731894,45.651474],[-122.731894,45.651605],[-122.731922,45.651642],[-122.732278,45.651655],[-122.732291,45.651721],[-122.732406,45.651745],[-122.732434,45.651823],[-122.732663,45.651836],[-122.732685,45.65191],[-122.73279,45.651926]]]}},{"type":"Feature","properties":{"id":1,"area_m2":3300,"px":33,"rank":4,"persistent":false},"geometry":{"type":"Polygon","coordinates":[[[-122.734843,45.652111],[-122.734843,45.652201],[-122.734755,45.652207],[-122.734716,45.652244],[-122.734713,45.652471],[-122.734328,45.65247],[-122.7343,45.652392],[-122.734072,45.652379],[-122.734066,45.652322],[-122.734025,45.652293],[-122.733559,45.652288],[-122.73355,45.652226],[-122.733497,45.652199],[-122.73335,45.652202],[-122.733308,45.652231],[-122.733302,45.652287],[-122.733174,45.652287],[-122.733152,45.652213],[-122.733046,45.652197],[-122.733012,45.652116],[-122.732918,45.652106],[-122.732919,45.652017],[-122.733303,45.652017],[-122.733307,45.652069],[-122.733344,45.652101],[-122.733688,45.652108],[-122.733697,45.65217],[-122.733757,45.652198],[-122.73391,45.65219],[-122.733945,45.652109],[-122.734843,45.652111]]]}},{"type":"Feature","properties":{"id":11,"area_m2":2100,"px":21,"rank":5,"persistent":false},"geometry":{"type":"Polygon","coordinates":[[[-122.72895,45.649937],[-122.728949,45.650027],[-122.728693,45.650026],[-122.728676,45.649956],[-122.728565,45.649936],[-122.728548,45.649866],[-122.728437,45.649846],[-122.72842,45.649775],[-122.728309,45.649755],[-122.728296,45.649689],[-122.728181,45.649665],[-122.728147,45.649584],[-122.727797,45.649574],[-122.727774,45.6495],[-122.727669,45.649484],[-122.72767,45.649304],[-122.727926,45.649304],[-122.727935,45.649366],[-122.727988,45.649394],[-122.728311,45.649395],[-122.728327,45.649646],[-122.728498,45.64969],[-122.728566,45.649666],[-122.728694,45.649666],[-122.728717,45.649741],[-122.728822,45.649757],[-122.728835,45.649913],[-122.72895,45.649937]]]}},{"type":"Feature","properties":{"id":13,"area_m2":2000,"px":20,"rank":6,"persistent":false},"geometry":{"type":"Polygon","coordinates":[[[-122.735755,45.649323],[-122.735754,45.649503],[-122.735497,45.649502],[-122.735494,45.649451],[-122.735457,45.649418],[-122.735113,45.649411],[-122.735085,45.649333],[-122.734856,45.649321],[-122.734851,45.649264],[-122.734809,45.649235],[-122.734472,45.64923],[-122.73445,45.649156],[-122.734344,45.649139],[-122.734344,45.64905],[-122.734729,45.64905],[-122.734735,45.649107],[-122.734776,45.649136],[-122.735114,45.649141],[-122.735119,45.649198],[-122.735161,45.649227],[-122.735498,45.649232],[-122.735501,45.649284],[-122.735539,45.649316],[-122.735755,45.649323]]]}},{"type":"Feature","properties":{"id":6,"area_m2":1800,"px":18,"rank":7,"persistent":false},"geometry":{"type":"Polygon","coordinates":[[[-122.730611,45.651471],[-122.73061,45.651651],[-122.730225,45.65165],[-122.730197,45.651572],[-122.729969,45.651559],[-122.729963,45.651503],[-122.729922,45.651473],[-122.729584,45.651468],[-122.729585,45.651379],[-122.72969,45.651363],[-122.729713,45.651289],[-122.730227,45.65129],[-122.730239,45.651356],[-122.730355,45.65138],[-122.730388,45.651461],[-122.730611,45.651471]]]}},{"type":"Feature","properties":{"id":5,"area_m2":1500,"px":15,"rank":8,"persistent":false},"geometry":{"type":"Polygon","coordinates":[[[-122.735358,45.651752],[-122.735358,45.651842],[-122.734716,45.651841],[-122.734713,45.651775],[-122.734671,45.651741],[-122.73446,45.65175],[-122.734438,45.651676],[-122.734332,45.65166],[-122.734332,45.65157],[-122.734438,45.651554],[-122.734461,45.65148],[-122.734718,45.651481],[-122.73473,45.651547],[-122.734846,45.651571],[-122.73488,45.651652],[-122.735102,45.651662],[-122.735108,45.651718],[-122.735156,45.651749],[-122.735358,45.651752]]]}},{"type":"Feature","properties":{"id":14,"area_m2":1400,"px":14,"rank":9,"persistent":false},"geometry":{"type":"Polygon","coordinates":[[[-122.727543,45.648944],[-122.727542,45.649123],[-122.727286,45.649123],[-122.727263,45.649049],[-122.727158,45.649032],[-122.72714,45.648962],[-122.72703,45.648942],[-122.726996,45.648861],[-122.726902,45.648852],[-122.726874,45.648774],[-122.726774,45.648762],[-122.726774,45.648672],[-122.727031,45.648672],[-122.72704,45.648734],[-122.727092,45.648761],[-122.727415,45.648763],[-122.727424,45.648915],[-122.727469,45.648941],[-122.727543,45.648944]]]}},{"type":"Feature","properties":{"id":17,"area_m2":1200,"px":12,"rank":10,"persistent":false},"geometry":{"type":"Polygon","coordinates":[[[-122.736406,45.647344],[-122.736405,45.647524],[-122.736277,45.647524],[-122.736273,45.647472],[-122.736236,45.64744],[-122.73602,45.647433],[-122.735992,45.647355],[-122.735764,45.647343],[-122.735758,45.647286],[-122.735717,45.647257],[-122.735508,45.647252],[-122.735486,45.647178],[-122.73538,45.647162],[-122.73538,45.647072],[-122.735637,45.647072],[-122.73564,45.647124],[-122.735677,45.647156],[-122.735893,45.647163],[-122.735921,45.647241],[-122.736149,45.647254],[-122.736155,45.64731],[-122.736197,45.647339],[-122.736406,45.647344]]]}},{"type":"Feature","properties":{"id":8,"area_m2":1000,"px":10,"rank":11,"persistent":false},"geometry":{"type":"Polygon","coordinates":[[[-122.730486,45.650661],[-122.730485,45.650841],[-122.730229,45.65084],[-122.730212,45.65077],[-122.730101,45.65075],[-122.730067,45.650669],[-122.729973,45.650659],[-122.729945,45.650582],[-122.729717,45.650569],[-122.729717,45.650479],[-122.730102,45.65048],[-122.730115,45.650546],[-122.73023,45.65057],[-122.730264,45.650651],[-122.730486,45.650661]]]}},{"type":"Feature","properties":{"id":9,"area_m2":1000,"px":10,"rank":12,"persistent":false},"geometry":{"type":"Polygon","coordinates":[[[-122.728306,45.650295],[-122.728306,45.650385],[-122.7282,45.650401],[-122.728177,45.650475],[-122.728062,45.650499],[-122.728048,45.650565],[-122.72792,45.650564],[-122.727898,45.65049],[-122.727792,45.650474],[-122.727758,45.650393],[-122.727664,45.650384],[-122.727665,45.650204],[-122.727771,45.650188],[-122.727794,45.650114],[-122.727922,45.650115],[-122.727956,45.650195],[-122.728178,45.650205],[-122.728201,45.650279],[-122.728306,45.650295]]]}},{"type":"Feature","properties":{"id":4,"area_m2":900,"px":9,"rank":13,"persistent":false},"geometry":{"type":"Polygon","coordinates":[[[-122.736514,45.651575],[-122.736513,45.651755],[-122.736291,45.651763],[-122.736256,45.651844],[-122.736141,45.651868],[-122.736127,45.651934],[-122.735871,45.651933],[-122.735871,45.651843],[-122.735977,45.651828],[-122.736,45.651754],[-122.736094,45.651745],[-122.736129,45.651664],[-122.73624,45.651644],[-122.736258,45.651574],[-122.736514,45.651575]]]}},{"type":"Feature","properties":{"id":12,"area_m2":900,"px":9,"rank":14,"persistent":false},"geometry":{"type":"Polygon","coordinates":[[[-122.738451,45.649059],[-122.738449,45.649509],[-122.738321,45.649509],[-122.738318,45.649277],[-122.738274,45.649243],[-122.738194,45.649238],[-122.738195,45.648878],[-122.738323,45.648879],[-122.738332,45.64903],[-122.738377,45.649056],[-122.738451,45.649059]]]}},{"type":"Feature","properties":{"id":2,"area_m2":800,"px":8,"rank":15,"persistent":false},"geometry":{"type":"Polygon","coordinates":[[[-122.735741,45.652113],[-122.735741,45.652203],[-122.735635,45.652219],[-122.735612,45.652293],[-122.735099,45.652291],[-122.7351,45.652202],[-122.73518,45.652198],[-122.735225,45.652164],[-122.735229,45.652022],[-122.735357,45.652022],[-122.735362,45.652092],[-122.735416,45.652125],[-122.735741,45.652113]]]}},{"type":"Feature","properties":{"id":10,"area_m2":700,"px":7,"rank":16,"persistent":false},"geometry":{"type":"Polygon","coordinates":[[[-122.738319,45.649779],[-122.738318,45.650139],[-122.738212,45.650154],[-122.738189,45.650228],[-122.738061,45.650228],[-122.738062,45.649958],[-122.738135,45.649956],[-122.738181,45.64993],[-122.738191,45.649778],[-122.738319,45.649779]]]}},{"type":"Feature","properties":{"id":18,"area_m2":400,"px":4,"rank":17,"persistent":false},"geometry":{"type":"Polygon","coordinates":[[[-122.733714,45.646528],[-122.733714,45.646708],[-122.733585,45.646707],[-122.73358,45.646651],[-122.733531,45.64662],[-122.733329,45.646617],[-122.73333,45.646527],[-122.733714,45.646528]]]}},{"type":"Feature","properties":{"id":20,"area_m2":400,"px":4,"rank":18,"persistent":false},"geometry":{"type":"Polygon","coordinates":[[[-122.731153,45.645442],[-122.731153,45.645532],[-122.730639,45.64553],[-122.73064,45.645441],[-122.731153,45.645442]]]}},{"type":"Feature","properties":{"id":7,"area_m2":300,"px":3,"rank":19,"persistent":false},"geometry":{"type":"Polygon","coordinates":[[[-122.730871,45.650752],[-122.73087,45.651021],[-122.730741,45.651021],[-122.730743,45.650751],[-122.730871,45.650752]]]}},{"type":"Feature","properties":{"id":19,"area_m2":300,"px":3,"rank":20,"persistent":false},"geometry":{"type":"Polygon","coordinates":[[[-122.732689,45.646255],[-122.732688,45.646435],[-122.73256,45.646435],[-122.732538,45.646361],[-122.732432,45.646345],[-122.732433,45.646255],[-122.732689,45.646255]]]}}]}