{"type":"FeatureCollection","features":[{"type":"Feature","properties":{"id":25,"area_m2":7100,"px":71,"rank":1},"geometry":{"type":"Polygon","coordinates":[[[-122.747497,45.635218],[-122.747495,45.635488],[-122.747301,45.635489],[-122.74724,45.635531],[-122.747244,45.635634],[-122.747286,45.635663],[-122.747366,45.635668],[-122.747366,45.635758],[-122.747041,45.635744],[-122.746987,45.635777],[-122.746981,45.635847],[-122.746852,45.635846],[-122.746853,45.635667],[-122.746927,45.635664],[-122.746972,45.635638],[-122.746969,45.635511],[-122.746854,45.635486],[-122.74682,45.635406],[-122.746726,45.635396],[-122.746698,45.635318],[-122.746598,45.635306],[-122.746576,45.635142],[-122.746342,45.635125],[-122.74632,45.635051],[-122.746215,45.635035],[-122.746197,45.634965],[-122.746087,45.634945],[-122.746053,45.634864],[-122.745959,45.634854],[-122.745931,45.634777],[-122.745831,45.634764],[-122.745803,45.634686],[-122.745703,45.634674],[-122.745675,45.634596],[-122.745575,45.634584],[-122.745553,45.634419],[-122.745319,45.634403],[-122.745297,45.634329],[-122.745191,45.634313],[-122.745157,45.634232],[-122.745063,45.634222],[-122.745064,45.634042],[-122.745321,45.634043],[-122.745381,45.634067],[-122.745449,45.634043],[-122.745706,45.634044],[-122.745728,45.634118],[-122.745834,45.634134],[-122.745851,45.634204],[-122.745961,45.634224],[-122.745995,45.634305],[-122.746089,45.634315],[-122.746117,45.634392],[-122.746217,45.634405],[-122.746245,45.634483],[-122.746345,45.634495],[-122.746373,45.634573],[-122.746473,45.634586],[-122.746473,45.634676],[-122.746258,45.634676],[-122.746204,45.634705],[-122.746215,45.634896],[-122.746249,45.634936],[-122.746561,45.634953],[-122.746598,45.634916],[-122.746601,45.634766],[-122.746729,45.634766],[-122.746746,45.634836],[-122.746857,45.634857],[-122.746891,45.634937],[-122.746985,45.634947],[-122.747012,45.635025],[-122.747112,45.635037],[-122.74714,45.635115],[-122.74724,45.635127],[-122.747268,45.635205],[-122.747497,45.635218]]]}},{"type":"Feature","properties":{"id":10,"area_m2":5600,"px":56,"rank":2},"geometry":{"type":"Polygon","coordinates":[[[-122.748254,45.6381],[-122.748252,45.63837],[-122.748124,45.63837],[-122.748115,45.638308],[-122.748063,45.63828],[-122.747611,45.638278],[-122.747606,45.638132],[-122.747565,45.638102],[-122.747484,45.638098],[-122.74745,45.638017],[-122.747356,45.638008],[-122.747339,45.637848],[-122.747287,45.637828],[-122.7471,45.637827],[-122.747098,45.637492],[-122.747035,45.637454],[-122.746845,45.637467],[-122.746837,45.637315],[-122.746791,45.637289],[-122.746718,45.637286],[-122.746719,45.637016],[-122.746975,45.637017],[-122.746992,45.637177],[-122.747103,45.637197],[-122.747137,45.637278],[-122.747231,45.637288],[-122.747259,45.637365],[-122.747359,45.637378],[-122.747386,45.637456],[-122.747486,45.637468],[-122.747514,45.637546],[-122.747614,45.637558],[-122.747642,45.637636],[-122.747742,45.637649],[-122.747748,45.637795],[-122.747789,45.637825],[-122.74787,45.637829],[-122.747892,45.637903],[-122.748126,45.63792],[-122.748135,45.638071],[-122.74818,45.638097],[-122.748254,45.6381]]]}},{"type":"Feature","properties":{"id":21,"area_m2":3600,"px":36,"rank":3},"geometry":{"type":"Polygon","coordinates":[[[-122.74967,45.636933],[-122.749669,45.637113],[-122.749541,45.637113],[-122.749528,45.637047],[-122.749413,45.637022],[-122.749408,45.636966],[-122.749359,45.636934],[-122.749157,45.636932],[-122.749097,45.636907],[-122.749029,45.636931],[-122.748772,45.636931],[-122.74875,45.636857],[-122.748644,45.636841],[-122.748627,45.63668],[-122.748576,45.636661],[-122.748388,45.63666],[-122.748383,45.636603],[-122.748341,45.636574],[-122.748171,45.636563],[-122.748135,45.636594],[-122.748132,45.636659],[-122.747875,45.636659],[-122.747853,45.636585],[-122.747747,45.636569],[-122.747725,45.636404],[-122.747492,45.636388],[-122.747492,45.636208],[-122.74762,45.636208],[-122.747638,45.636279],[-122.747748,45.636299],[-122.747766,45.636369],[-122.747876,45.636389],[-122.747889,45.636455],[-122.747953,45.636479],[-122.748078,45.636477],[-122.748127,45.636446],[-122.748127,45.636333],[-122.748086,45.636303],[-122.748005,45.636299],[-122.748005,45.63621],[-122.748134,45.636209],[-122.748162,45.636287],[-122.74839,45.6363],[-122.748412,45.636374],[-122.748518,45.63639],[-122.748552,45.636471],[-122.748646,45.636481],[-122.748646,45.636612],[-122.748679,45.636652],[-122.74897,45.636674],[-122.749024,45.636642],[-122.74903,45.636571],[-122.749159,45.636572],[-122.749181,45.636646],[-122.749286,45.636662],[-122.749308,45.636826],[-122.749414,45.636842],[-122.74942,45.636899],[-122.749461,45.636928],[-122.74967,45.636933]]]}},{"type":"Feature","properties":{"id":4,"area_m2":3200,"px":32,"rank":4},"geometry":{"type":"Polygon","coordinates":[[[-122.749528,45.639993],[-122.749527,45.640173],[-122.749271,45.640172],[-122.749249,45.640098],[-122.749143,45.640082],[-122.749126,45.640012],[-122.749015,45.639992],[-122.748981,45.639911],[-122.748887,45.639901],[-122.748859,45.639824],[-122.748759,45.639811],[-122.748731,45.639733],[-122.748631,45.639721],[-122.748632,45.639541],[-122.748733,45.639537],[-122.748779,45.639496],[-122.748744,45.639291],[-122.7487,45.639272],[-122.748437,45.639258],[-122.748382,45.63929],[-122.748376,45.63936],[-122.748248,45.63936],[-122.748226,45.639286],[-122.74812,45.63927],[-122.748121,45.63909],[-122.748318,45.639103],[-122.748372,45.63907],[-122.748378,45.639],[-122.748634,45.639001],[-122.748634,45.639132],[-122.748668,45.639172],[-122.749019,45.639182],[-122.749041,45.639256],[-122.749146,45.639272],[-122.749146,45.639361],[-122.749059,45.639368],[-122.749019,45.639405],[-122.749017,45.639542],[-122.748982,45.639584],[-122.749017,45.639632],[-122.749004,45.639782],[-122.74905,45.639809],[-122.749144,45.639812],[-122.749145,45.639949],[-122.749184,45.639986],[-122.749528,45.639993]]]}},{"type":"Feature","properties":{"id":29,"area_m2":2900,"px":29,"rank":5},"geometry":{"type":"Polygon","coordinates":[[[-122.745976,45.631074],[-122.745975,45.631164],[-122.745719,45.631163],[-122.745713,45.631107],[-122.745672,45.631078],[-122.745334,45.631073],[-122.745331,45.631021],[-122.745294,45.630989],[-122.74495,45.630982],[-122.744941,45.63092],[-122.744881,45.630892],[-122.744728,45.6309],[-122.744693,45.630981],[-122.744052,45.63098],[-122.744049,45.630928],[-122.744011,45.630896],[-122.743796,45.630889],[-122.743796,45.630799],[-122.744053,45.6308],[-122.744113,45.630824],[-122.744183,45.6308],[-122.744627,45.630814],[-122.744685,45.630786],[-122.744696,45.630711],[-122.744823,45.630712],[-122.744828,45.630768],[-122.74487,45.630797],[-122.745009,45.630802],[-122.74507,45.630774],[-122.745079,45.630712],[-122.745208,45.630712],[-122.74522,45.630778],[-122.745335,45.630803],[-122.745369,45.630884],[-122.74572,45.630894],[-122.745742,45.630968],[-122.745848,45.630984],[-122.745882,45.631065],[-122.745976,45.631074]]]}},{"type":"Feature","properties":{"id":19,"area_m2":2000,"px":20,"rank":6},"geometry":{"type":"Polygon","coordinates":[[[-122.751981,45.636578],[-122.75198,45.636758],[-122.751758,45.636766],[-122.751691,45.636879],[-122.75174,45.637008],[-122.751851,45.637028],[-122.75185,45.637208],[-122.751722,45.637207],[-122.7517,45.637133],[-122.751594,45.637117],[-122.75156,45.637036],[-122.751466,45.637027],[-122.751458,45.636875],[-122.751412,45.636849],[-122.751339,45.636846],[-122.751305,45.636766],[-122.751211,45.636756],[-122.751211,45.636666],[-122.751285,45.636664],[-122.75133,45.636638],[-122.75134,45.636487],[-122.751468,45.636487],[-122.751529,45.636511],[-122.751597,45.636487],[-122.751725,45.636487],[-122.751728,45.636539],[-122.751765,45.636571],[-122.751981,45.636578]]]}},{"type":"Feature","properties":{"id":22,"area_m2":1800,"px":18,"rank":7},"geometry":{"type":"Polygon","coordinates":[[[-122.750827,45.636395],[-122.750827,45.636485],[-122.75057,45.636485],[-122.750558,45.636419],[-122.750494,45.636395],[-122.750348,45.636403],[-122.750314,45.636484],[-122.749929,45.636483],[-122.749916,45.636417],[-122.749801,45.636393],[-122.749767,45.636312],[-122.749545,45.636302],[-122.749523,45.636228],[-122.749417,45.636212],[-122.749417,45.636122],[-122.749802,45.636123],[-122.74983,45.636201],[-122.750058,45.636214],[-122.750064,45.63627],[-122.750105,45.6363],[-122.750571,45.636305],[-122.750574,45.636356],[-122.750611,45.636388],[-122.750827,45.636395]]]}},{"type":"Feature","properties":{"id":16,"area_m2":1200,"px":12,"rank":8},"geometry":{"type":"Polygon","coordinates":[[[-122.746588,45.637556],[-122.746588,45.637646],[-122.746461,45.637646],[-122.746456,45.637594],[-122.746419,45.637562],[-122.746203,45.637555],[-122.7462,45.637414],[-122.746156,45.637379],[-122.746076,45.637375],[-122.746063,45.637219],[-122.746007,45.637195],[-122.74582,45.637194],[-122.745798,45.63712],[-122.745692,45.637104],[-122.745692,45.637014],[-122.745949,45.637015],[-122.745971,45.637089],[-122.746077,45.637105],[-122.746094,45.637175],[-122.746205,45.637195],[-122.746239,45.637276],[-122.746333,45.637286],[-122.74636,45.637363],[-122.74646,45.637376],[-122.746477,45.637536],[-122.746588,45.637556]]]}},{"type":"Feature","properties":{"id":17,"area_m2":1200,"px":12,"rank":9},"geometry":{"type":"Polygon","coordinates":[[[-122.75249,45.63694],[-122.752458,45.636987],[-122.752492,45.637029],[-122.752492,45.637209],[-122.752297,45.63721],[-122.752236,45.637252],[-122.75224,45.637355],[-122.752282,45.637384],[-122.752363,45.637389],[-122.752362,45.637479],[-122.752234,45.637478],[-122.752228,45.637422],[-122.75218,45.637391],[-122.751978,45.637388],[-122.751979,45.637208],[-122.752173,45.637207],[-122.752232,45.63717],[-122.752237,45.636849],[-122.752493,45.636849],[-122.75249,45.63694]]]}},{"type":"Feature","properties":{"id":28,"area_m2":1200,"px":12,"rank":10},"geometry":{"type":"Polygon","coordinates":[[[-122.745194,45.633683],[-122.745194,45.633773],[-122.745088,45.633788],[-122.745065,45.633862],[-122.74468,45.633861],[-122.744672,45.63371],[-122.744626,45.633684],[-122.744553,45.633681],[-122.744554,45.633501],[-122.74481,45.633502],[-122.744823,45.633568],[-122.744938,45.633592],[-122.744972,45.633673],[-122.745194,45.633683]]]}},{"type":"Feature","properties":{"id":11,"area_m2":1100,"px":11,"rank":11},"geometry":{"type":"Polygon","coordinates":[[[-122.752618,45.637749],[-122.752617,45.637839],[-122.752511,45.637855],[-122.752489,45.637929],[-122.752388,45.637941],[-122.75236,45.638019],[-122.75226,45.638031],[-122.752231,45.638108],[-122.752137,45.638117],[-122.752102,45.638198],[-122.751992,45.638218],[-122.751974,45.638288],[-122.751846,45.638288],[-122.751847,45.638018],[-122.752049,45.638016],[-122.752098,45.637985],[-122.752104,45.637928],[-122.752332,45.637916],[-122.75236,45.63788],[-122.752361,45.637749],[-122.752618,45.637749]]]}},{"type":"Feature","properties":{"id":13,"area_m2":1000,"px":10,"rank":12},"geometry":{"type":"Polygon","coordinates":[[[-122.753646,45.637392],[-122.753645,45.637571],[-122.753539,45.637587],[-122.753516,45.637661],[-122.753388,45.637661],[-122.753366,45.637587],[-122.75326,45.637571],[-122.753257,45.637429],[-122.753213,45.637395],[-122.753133,45.63739],[-122.753133,45.6373],[-122.753518,45.637301],[-122.75354,45.637375],[-122.753646,45.637392]]]}},{"type":"Feature","properties":{"id":31,"area_m2":900,"px":9,"rank":13},"geometry":{"type":"Polygon","coordinates":[[[-122.739706,45.62755],[-122.739705,45.62773],[-122.73932,45.627729],[-122.739317,45.627677],[-122.73928,45.627645],[-122.739064,45.627638],[-122.739064,45.627548],[-122.73928,45.627542],[-122.739318,45.62751],[-122.739321,45.627459],[-122.739449,45.627459],[-122.739455,45.627516],[-122.739504,45.627547],[-122.739706,45.62755]]]}},{"type":"Feature","properties":{"id":18,"area_m2":800,"px":8,"rank":14},"geometry":{"type":"Polygon","coordinates":[[[-122.749027,45.637202],[-122.749027,45.637291],[-122.748771,45.637291],[-122.748748,45.637217],[-122.748643,45.637201],[-122.74863,45.637135],[-122.748515,45.63711],[-122.748487,45.637033],[-122.748387,45.63702],[-122.748387,45.63693],[-122.748644,45.636931],[-122.748666,45.637005],[-122.748772,45.637021],[-122.748784,45.637087],[-122.748899,45.637111],[-122.748927,45.637189],[-122.749027,45.637202]]]}},{"type":"Feature","properties":{"id":8,"area_m2":700,"px":7,"rank":15},"geometry":{"type":"Polygon","coordinates":[[[-122.753641,45.638382],[-122.753641,45.638472],[-122.753256,45.638471],[-122.753253,45.638406],[-122.753211,45.638372],[-122.753,45.63838],[-122.753,45.63829],[-122.753106,45.638275],[-122.753129,45.638201],[-122.753386,45.638201],[-122.753407,45.638365],[-122.753641,45.638382]]]}},{"type":"Feature","properties":{"id":15,"area_m2":700,"px":7,"rank":16},"geometry":{"type":"Polygon","coordinates":[[[-122.748128,45.63756],[-122.748127,45.637649],[-122.748001,45.637649],[-122.747996,45.637598],[-122.747959,45.637566],[-122.747743,45.637559],[-122.747721,45.637484],[-122.747615,45.637468],[-122.747615,45.637378],[-122.747721,45.637363],[-122.747744,45.637289],[-122.747872,45.637289],[-122.747895,45.637363],[-122.748,45.637379],[-122.748012,45.637535],[-122.748128,45.63756]]]}},{"type":"Feature","properties":{"id":9,"area_m2":600,"px":6,"rank":17},"geometry":{"type":"Polygon","coordinates":[[[-122.758902,45.638303],[-122.758902,45.638393],[-122.758774,45.638393],[-122.758757,45.638322],[-122.758646,45.638302],[-122.758612,45.638221],[-122.758518,45.638212],[-122.75849,45.638134],[-122.758262,45.638121],[-122.75824,45.638047],[-122.758134,45.638031],[-122.758134,45.637941],[-122.758262,45.637942],[-122.758268,45.637998],[-122.758317,45.638029],[-122.758519,45.638032],[-122.758541,45.638106],[-122.758647,45.638122],[-122.758659,45.638188],[-122.758775,45.638213],[-122.758802,45.63829],[-122.758902,45.638303]]]}},{"type":"Feature","properties":{"id":33,"area_m2":600,"px":6,"rank":18},"geometry":{"type":"Polygon","coordinates":[[[-122.73586,45.626911],[-122.735859,45.627001],[-122.735658,45.627003],[-122.735609,45.627033],[-122.735602,45.62709],[-122.735474,45.62709],[-122.735452,45.627016],[-122.735347,45.626999],[-122.735313,45.626919],[-122.735219,45.626909],[-122.735219,45.626819],[-122.735347,45.62682],[-122.735356,45.626881],[-122.735409,45.626909],[-122.73586,45.626911]]]}},{"type":"Feature","properties":{"id":3,"area_m2":500,"px":5,"rank":19},"geometry":{"type":"Polygon","coordinates":[[[-122.749909,45.640265],[-122.749877,45.640311],[-122.749912,45.640354],[-122.749911,45.640534],[-122.749783,45.640533],[-122.74976,45.640459],[-122.749655,45.640443],[-122.749655,45.640263],[-122.749761,45.640248],[-122.749784,45.640173],[-122.749911,45.640174],[-122.749909,45.640265]]]}},{"type":"Feature","properties":{"id":6,"area_m2":500,"px":5,"rank":20},"geometry":{"type":"Polygon","coordinates":[[[-122.75223,45.638379],[-122.75223,45.638469],[-122.752124,45.638484],[-122.752101,45.638558],[-122.751985,45.638582],[-122.751972,45.638648],[-122.751716,45.638647],[-122.751716,45.638558],[-122.751903,45.638558],[-122.75196,45.638534],[-122.751973,45.638378],[-122.75223,45.638379]]]}},{"type":"Feature","properties":{"id":12,"area_m2":500,"px":5,"rank":21},"geometry":{"type":"Polygon","coordinates":[[[-122.751848,45.637748],[-122.751847,45.637928],[-122.751741,45.637943],[-122.751718,45.638017],[-122.751603,45.638041],[-122.75159,45.638107],[-122.751461,45.638107],[-122.751462,45.638017],[-122.751496,45.637975],[-122.751462,45.637927],[-122.751463,45.637837],[-122.751666,45.637848],[-122.751714,45.637817],[-122.75172,45.637747],[-122.751848,45.637748]]]}},{"type":"Feature","properties":{"id":34,"area_m2":500,"px":5,"rank":22},"geometry":{"type":"Polygon","coordinates":[[[-122.73445,45.626637],[-122.734449,45.626817],[-122.734193,45.626817],[-122.734171,45.626743],[-122.734065,45.626726],[-122.734065,45.626637],[-122.73445,45.626637]]]}},{"type":"Feature","properties":{"id":2,"area_m2":400,"px":4,"rank":23},"geometry":{"type":"Polygon","coordinates":[[[-122.752348,45.640629],[-122.752348,45.640809],[-122.752091,45.640808],[-122.752092,45.640629],[-122.752348,45.640629]]]}},{"type":"Feature","properties":{"id":7,"area_m2":400,"px":4,"rank":24},"geometry":{"type":"Polygon","coordinates":[[[-122.751717,45.638198],[-122.751717,45.638377],[-122.751643,45.63838],[-122.751597,45.638406],[-122.751588,45.638557],[-122.751459,45.638557],[-122.75146,45.638377],[-122.751534,45.638375],[-122.75158,45.638349],[-122.751589,45.638197],[-122.751717,45.638198]]]}},{"type":"Feature","properties":{"id":20,"area_m2":400,"px":4,"rank":25},"geometry":{"type":"Polygon","coordinates":[[[-122.754931,45.636944],[-122.75493,45.637034],[-122.754719,45.637011],[-122.754568,45.637049],[-122.754545,45.637123],[-122.754417,45.637123],[-122.754417,45.637033],[-122.754523,45.637018],[-122.754546,45.636943],[-122.754661,45.63692],[-122.754675,45.636854],[-122.754803,45.636854],[-122.754825,45.636928],[-122.754931,45.636944]]]}},{"type":"Feature","properties":{"id":24,"area_m2":400,"px":4,"rank":26},"geometry":{"type":"Polygon","coordinates":[[[-122.747878,45.635939],[-122.747877,45.636119],[-122.747749,45.636118],[-122.747727,45.636044],[-122.747621,45.636028],[-122.747587,45.635947],[-122.747494,45.635938],[-122.747494,45.635848],[-122.747622,45.635848],[-122.747628,45.635905],[-122.747676,45.635936],[-122.747878,45.635939]]]}},{"type":"Feature","properties":{"id":32,"area_m2":400,"px":4,"rank":27},"geometry":{"type":"Polygon","coordinates":[[[-122.736244,45.627002],[-122.736244,45.627092],[-122.736138,45.627107],[-122.736115,45.627181],[-122.735731,45.62718],[-122.735731,45.627091],[-122.736054,45.62709],[-122.736107,45.627063],[-122.736116,45.627001],[-122.736244,45.627002]]]}},{"type":"Feature","properties":{"id":1,"area_m2":300,"px":3,"rank":28},"geometry":{"type":"Polygon","coordinates":[[[-122.75337,45.641801],[-122.753369,45.641891],[-122.753113,45.641891],[-122.753114,45.641711],[-122.753242,45.641711],[-122.753264,45.641785],[-122.75337,45.641801]]]}},{"type":"Feature","properties":{"id":5,"area_m2":300,"px":3,"rank":29},"geometry":{"type":"Polygon","coordinates":[[[-122.750172,45.639544],[-122.750171,45.639634],[-122.750066,45.63965],[-122.750043,45.639724],[-122.749915,45.639724],[-122.749915,45.639544],[-122.750172,45.639544]]]}},{"type":"Feature","properties":{"id":14,"area_m2":300,"px":3,"rank":30},"geometry":{"type":"Polygon","coordinates":[[[-122.748513,45.63738],[-122.748512,45.63765],[-122.748384,45.63765],[-122.748385,45.63738],[-122.748513,45.63738]]]}},{"type":"Feature","properties":{"id":23,"area_m2":300,"px":3,"rank":31},"geometry":{"type":"Polygon","coordinates":[[[-122.744157,45.635931],[-122.744156,45.636201],[-122.744028,45.6362],[-122.744029,45.63593],[-122.744157,45.635931]]]}},{"type":"Feature","properties":{"id":26,"area_m2":300,"px":3,"rank":32},"geometry":{"type":"Polygon","coordinates":[[[-122.753654,45.635501],[-122.753654,45.635591],[-122.753397,45.635591],[-122.753398,45.635411],[-122.753526,45.635411],[-122.753548,45.635485],[-122.753654,45.635501]]]}},{"type":"Feature","properties":{"id":27,"area_m2":300,"px":3,"rank":33},"geometry":{"type":"Polygon","coordinates":[[[-122.75096,45.635316],[-122.75096,45.635405],[-122.750704,45.635405],[-122.750681,45.635331],[-122.750576,45.635315],[-122.750576,45.635225],[-122.750704,45.635225],[-122.75071,45.635282],[-122.750759,45.635313],[-122.75096,45.635316]]]}},{"type":"Feature","properties":{"id":30,"area_m2":300,"px":3,"rank":34},"geometry":{"type":"Polygon","coordinates":[[[-122.738805,45.627998],[-122.738805,45.628088],[-122.73842,45.628087],[-122.738421,45.627997],[-122.738805,45.627998]]]}}]}