{"type":"FeatureCollection","features":[{"type":"Feature","properties":{"id":12,"area_m2":8700,"px":87,"rank":1},"geometry":{"type":"Polygon","coordinates":[[[-122.74967,45.636933],[-122.749669,45.637113],[-122.749487,45.637099],[-122.749434,45.637115],[-122.749412,45.637292],[-122.749284,45.637292],[-122.74925,45.637211],[-122.749087,45.637189],[-122.749029,45.637231],[-122.749027,45.637381],[-122.748898,45.637381],[-122.748876,45.637307],[-122.748771,45.637291],[-122.748758,45.637225],[-122.748643,45.637201],[-122.748615,45.637123],[-122.748515,45.63711],[-122.748498,45.63695],[-122.748387,45.63693],[-122.748388,45.63684],[-122.74857,45.636854],[-122.748632,45.63683],[-122.748645,45.636715],[-122.748622,45.636676],[-122.748388,45.63666],[-122.748376,45.636594],[-122.748261,45.63657],[-122.748255,45.636513],[-122.748206,45.636482],[-122.748043,45.636472],[-122.748007,45.636504],[-122.748004,45.636569],[-122.747749,45.636569],[-122.747725,45.636494],[-122.747619,45.636478],[-122.747611,45.636327],[-122.747565,45.6363],[-122.747492,45.636298],[-122.747492,45.636208],[-122.7476,45.636202],[-122.74764,45.636152],[-122.747604,45.636048],[-122.747493,45.636028],[-122.747494,45.635848],[-122.747716,45.635839],[-122.74775,45.6358],[-122.747751,45.635669],[-122.747879,45.635669],[-122.747902,45.635743],[-122.748007,45.635759],[-122.748041,45.63584],[-122.748135,45.635849],[-122.748134,45.636029],[-122.7481,45.636077],[-122.748156,45.636194],[-122.748322,45.636234],[-122.74839,45.63621],[-122.748647,45.636211],[-122.748669,45.636285],[-122.748775,45.636301],[-122.748774,45.636391],[-122.748673,45.636395],[-122.748627,45.636436],[-122.748668,45.636645],[-122.74884,45.63666],[-122.748893,45.636633],[-122.748902,45.636571],[-122.749159,45.636572],[-122.749181,45.636646],[-122.749286,45.636662],[-122.749304,45.636732],[-122.749414,45.636752],[-122.749448,45.636833],[-122.749542,45.636843],[-122.74957,45.63692],[-122.74967,45.636933]]]}},{"type":"Feature","properties":{"id":19,"area_m2":5300,"px":53,"rank":2},"geometry":{"type":"Polygon","coordinates":[[[-122.747624,45.635398],[-122.747624,45.635488],[-122.747313,45.635474],[-122.747256,45.635494],[-122.747238,45.635757],[-122.747034,45.635746],[-122.746987,45.635777],[-122.746981,45.635847],[-122.746852,45.635846],[-122.74683,45.635772],[-122.746725,45.635756],[-122.746725,45.635576],[-122.74676,45.635529],[-122.746726,45.635486],[-122.746709,45.635326],[-122.746509,45.635299],[-122.746471,45.635335],[-122.746469,45.635486],[-122.746341,45.635485],[-122.746319,45.635411],[-122.746213,45.635395],[-122.746179,45.635314],[-122.746085,45.635305],[-122.746086,45.635125],[-122.746217,45.635104],[-122.746215,45.634945],[-122.746321,45.634929],[-122.746344,45.634855],[-122.746459,45.634832],[-122.746472,45.634766],[-122.746729,45.634766],[-122.746751,45.63484],[-122.746857,45.634857],[-122.746874,45.634927],[-122.746985,45.634947],[-122.747019,45.635028],[-122.747112,45.635037],[-122.74714,45.635115],[-122.74724,45.635127],[-122.747268,45.635205],[-122.747368,45.635218],[-122.747396,45.635295],[-122.747496,45.635308],[-122.747524,45.635386],[-122.747624,45.635398]]]}},{"type":"Feature","properties":{"id":7,"area_m2":4600,"px":46,"rank":3},"geometry":{"type":"Polygon","coordinates":[[[-122.748254,45.6381],[-122.748253,45.63819],[-122.748147,45.638205],[-122.748124,45.63828],[-122.74774,45.638279],[-122.747717,45.638205],[-122.747612,45.638188],[-122.74759,45.638024],[-122.747356,45.638008],[-122.747347,45.637856],[-122.747302,45.63783],[-122.747228,45.637828],[-122.747224,45.637501],[-122.747168,45.637468],[-122.746973,45.637467],[-122.746951,45.637393],[-122.746846,45.637377],[-122.746812,45.637296],[-122.746718,45.637286],[-122.746719,45.637016],[-122.746847,45.637017],[-122.746864,45.637087],[-122.746975,45.637107],[-122.747009,45.637188],[-122.747103,45.637197],[-122.747131,45.637275],[-122.747231,45.637288],[-122.747259,45.637365],[-122.747359,45.637378],[-122.747386,45.637456],[-122.747486,45.637468],[-122.747514,45.637546],[-122.747743,45.637559],[-122.747734,45.637804],[-122.747776,45.637826],[-122.74787,45.637829],[-122.747873,45.637894],[-122.747915,45.637928],[-122.748126,45.63792],[-122.748135,45.638071],[-122.74818,45.638097],[-122.748254,45.6381]]]}},{"type":"Feature","properties":{"id":21,"area_m2":4500,"px":45,"rank":4},"geometry":{"type":"Polygon","coordinates":[[[-122.746345,45.634495],[-122.746344,45.634675],[-122.746243,45.634679],[-122.746199,45.634715],[-122.746215,45.634855],[-122.745959,45.634854],[-122.745942,45.634784],[-122.745831,45.634764],[-122.745814,45.634694],[-122.745703,45.634674],[-122.74569,45.634608],[-122.745575,45.634584],[-122.745569,45.634527],[-122.745521,45.634496],[-122.745358,45.634486],[-122.745322,45.634518],[-122.745318,45.634583],[-122.745062,45.634582],[-122.745053,45.634431],[-122.745008,45.634405],[-122.744934,45.634401],[-122.744935,45.634312],[-122.745129,45.634312],[-122.745188,45.634274],[-122.745186,45.634166],[-122.745145,45.634137],[-122.745064,45.634132],[-122.745064,45.634042],[-122.745389,45.634056],[-122.745444,45.634023],[-122.74545,45.633953],[-122.745578,45.633954],[-122.745595,45.634024],[-122.745706,45.634044],[-122.74574,45.634125],[-122.745834,45.634134],[-122.745861,45.634212],[-122.745961,45.634224],[-122.745989,45.634302],[-122.746218,45.634315],[-122.746226,45.634466],[-122.746272,45.634493],[-122.746345,45.634495]]]}},{"type":"Feature","properties":{"id":11,"area_m2":1400,"px":14,"rank":5},"geometry":{"type":"Polygon","coordinates":[[[-122.752493,45.636849],[-122.752492,45.637119],[-122.752398,45.637128],[-122.752363,45.637209],[-122.752248,45.637233],[-122.752234,45.637388],[-122.751978,45.637388],[-122.751979,45.637208],[-122.752066,45.637202],[-122.752106,45.637165],[-122.752108,45.636938],[-122.752214,45.636923],[-122.752237,45.636849],[-122.752493,45.636849]]]}},{"type":"Feature","properties":{"id":17,"area_m2":1100,"px":11,"rank":6},"geometry":{"type":"Polygon","coordinates":[[[-122.750443,45.636305],[-122.750442,45.636394],[-122.750227,45.6364],[-122.750189,45.636432],[-122.750185,45.636484],[-122.749929,45.636483],[-122.749907,45.636409],[-122.749801,45.636393],[-122.749788,45.636327],[-122.749673,45.636303],[-122.749645,45.636225],[-122.749545,45.636212],[-122.749546,45.636123],[-122.749802,45.636123],[-122.749829,45.636214],[-122.750058,45.636214],[-122.750064,45.63627],[-122.750113,45.636301],[-122.750443,45.636305]]]}},{"type":"Feature","properties":{"id":26,"area_m2":1000,"px":10,"rank":7},"geometry":{"type":"Polygon","coordinates":[[[-122.735091,45.626729],[-122.735091,45.626819],[-122.734321,45.626817],[-122.734318,45.626765],[-122.734281,45.626733],[-122.734065,45.626726],[-122.734065,45.626637],[-122.73445,45.626637],[-122.734463,45.626703],[-122.734527,45.626728],[-122.73478,45.626726],[-122.734829,45.626695],[-122.734835,45.626638],[-122.734963,45.626639],[-122.734985,45.626713],[-122.735091,45.626729]]]}},{"type":"Feature","properties":{"id":4,"area_m2":900,"px":9,"rank":8},"geometry":{"type":"Polygon","coordinates":[[[-122.749147,45.639182],[-122.749146,45.639452],[-122.748889,45.639451],[-122.748886,45.6394],[-122.748849,45.639368],[-122.748633,45.639361],[-122.748633,45.639271],[-122.748739,45.639255],[-122.748762,45.639181],[-122.749147,45.639182]]]}},{"type":"Feature","properties":{"id":22,"area_m2":900,"px":9,"rank":9},"geometry":{"type":"Polygon","coordinates":[[[-122.745066,45.633682],[-122.745065,45.633772],[-122.74496,45.633788],[-122.744937,45.633862],[-122.74468,45.633861],[-122.74468,45.633635],[-122.744641,45.633598],[-122.744553,45.633591],[-122.744554,45.633501],[-122.74481,45.633502],[-122.744832,45.633576],[-122.744938,45.633592],[-122.744972,45.633673],[-122.745066,45.633682]]]}},{"type":"Feature","properties":{"id":8,"area_m2":700,"px":7,"rank":10},"geometry":{"type":"Polygon","coordinates":[[[-122.746588,45.637556],[-122.746588,45.637646],[-122.746459,45.637646],[-122.746437,45.637572],[-122.746331,45.637555],[-122.746314,45.637485],[-122.746204,45.637465],[-122.74617,45.637384],[-122.746076,45.637375],[-122.746048,45.637297],[-122.745948,45.637285],[-122.745948,45.637195],[-122.746076,45.637195],[-122.746082,45.637252],[-122.746131,45.637283],[-122.746333,45.637286],[-122.746355,45.63736],[-122.74646,45.637376],[-122.746473,45.637532],[-122.746588,45.637556]]]}},{"type":"Feature","properties":{"id":13,"area_m2":700,"px":7,"rank":11},"geometry":{"type":"Polygon","coordinates":[[[-122.751851,45.637028],[-122.75185,45.637208],[-122.751722,45.637207],[-122.7517,45.637133],[-122.751594,45.637117],[-122.751582,45.636961],[-122.751467,45.636937],[-122.751467,45.636847],[-122.751573,45.636831],[-122.751596,45.636757],[-122.751724,45.636757],[-122.751726,45.636989],[-122.75177,45.637023],[-122.751851,45.637028]]]}},{"type":"Feature","properties":{"id":9,"area_m2":600,"px":6,"rank":12},"geometry":{"type":"Polygon","coordinates":[[[-122.753646,45.637392],[-122.753645,45.637481],[-122.75354,45.637497],[-122.753517,45.637571],[-122.753388,45.637571],[-122.753366,45.637497],[-122.753261,45.637481],[-122.753261,45.637301],[-122.753518,45.637301],[-122.75354,45.637375],[-122.753646,45.637392]]]}},{"type":"Feature","properties":{"id":20,"area_m2":500,"px":5,"rank":13},"geometry":{"type":"Polygon","coordinates":[[[-122.745958,45.634945],[-122.745957,45.635124],[-122.745829,45.635124],[-122.745807,45.63496],[-122.745573,45.634944],[-122.745574,45.634764],[-122.745702,45.634764],[-122.745725,45.634838],[-122.74583,45.634854],[-122.745864,45.634935],[-122.745958,45.634945]]]}},{"type":"Feature","properties":{"id":23,"area_m2":500,"px":5,"rank":14},"geometry":{"type":"Polygon","coordinates":[[[-122.744437,45.630801],[-122.744437,45.630891],[-122.744331,45.630906],[-122.744308,45.63098],[-122.743924,45.630979],[-122.743924,45.63089],[-122.74414,45.630884],[-122.744177,45.630852],[-122.744181,45.6308],[-122.744437,45.630801]]]}},{"type":"Feature","properties":{"id":24,"area_m2":500,"px":5,"rank":15},"geometry":{"type":"Polygon","coordinates":[[[-122.739577,45.627549],[-122.739576,45.627729],[-122.73932,45.627729],[-122.739298,45.627655],[-122.739192,45.627638],[-122.739193,45.627549],[-122.739577,45.627549]]]}},{"type":"Feature","properties":{"id":1,"area_m2":400,"px":4,"rank":16},"geometry":{"type":"Polygon","coordinates":[[[-122.749912,45.640264],[-122.749911,45.640444],[-122.749655,45.640443],[-122.749655,45.640263],[-122.749912,45.640264]]]}},{"type":"Feature","properties":{"id":6,"area_m2":400,"px":4,"rank":17},"geometry":{"type":"Polygon","coordinates":[[[-122.753514,45.638111],[-122.753513,45.638291],[-122.753257,45.638291],[-122.753258,45.638111],[-122.753514,45.638111]]]}},{"type":"Feature","properties":{"id":10,"area_m2":400,"px":4,"rank":18},"geometry":{"type":"Polygon","coordinates":[[[-122.747872,45.637289],[-122.747871,45.637469],[-122.747615,45.637468],[-122.747616,45.637288],[-122.747872,45.637289]]]}},{"type":"Feature","properties":{"id":25,"area_m2":400,"px":4,"rank":19},"geometry":{"type":"Polygon","coordinates":[[[-122.735988,45.627001],[-122.735987,45.627091],[-122.735859,45.627091],[-122.735854,45.627034],[-122.735805,45.627003],[-122.735475,45.627],[-122.735475,45.62691],[-122.73586,45.626911],[-122.735882,45.626985],[-122.735988,45.627001]]]}},{"type":"Feature","properties":{"id":2,"area_m2":300,"px":3,"rank":20},"geometry":{"type":"Polygon","coordinates":[[[-122.749528,45.639993],[-122.749527,45.640173],[-122.749399,45.640173],[-122.749377,45.640098],[-122.749271,45.640082],[-122.749272,45.639992],[-122.749528,45.639993]]]}},{"type":"Feature","properties":{"id":3,"area_m2":300,"px":3,"rank":21},"geometry":{"type":"Polygon","coordinates":[[[-122.753124,45.639371],[-122.753123,45.639461],[-122.752867,45.63946],[-122.752868,45.63928],[-122.752996,45.63928],[-122.753018,45.639355],[-122.753124,45.639371]]]}},{"type":"Feature","properties":{"id":5,"area_m2":300,"px":3,"rank":22},"geometry":{"type":"Polygon","coordinates":[[[-122.751973,45.638468],[-122.751973,45.638558],[-122.751867,45.638574],[-122.751844,45.638648],[-122.751716,45.638647],[-122.751716,45.638468],[-122.751973,45.638468]]]}},{"type":"Feature","properties":{"id":14,"area_m2":300,"px":3,"rank":23},"geometry":{"type":"Polygon","coordinates":[[[-122.754803,45.636854],[-122.754802,45.637034],[-122.754546,45.637033],[-122.754546,45.636943],[-122.754652,45.636928],[-122.754675,45.636854],[-122.754803,45.636854]]]}},{"type":"Feature","properties":{"id":15,"area_m2":300,"px":3,"rank":24},"geometry":{"type":"Polygon","coordinates":[[[-122.755316,45.636765],[-122.755316,45.636945],[-122.755188,45.636945],[-122.755165,45.636871],[-122.75506,45.636854],[-122.75506,45.636765],[-122.755316,45.636765]]]}},{"type":"Feature","properties":{"id":16,"area_m2":300,"px":3,"rank":25},"geometry":{"type":"Polygon","coordinates":[[[-122.751468,45.636487],[-122.751467,45.636757],[-122.751339,45.636756],[-122.75134,45.636487],[-122.751468,45.636487]]]}},{"type":"Feature","properties":{"id":18,"area_m2":300,"px":3,"rank":26},"geometry":{"type":"Polygon","coordinates":[[[-122.744285,45.636021],[-122.744285,45.636111],[-122.744028,45.63611],[-122.744029,45.63593],[-122.744157,45.635931],[-122.74418,45.636005],[-122.744285,45.636021]]]}}]}