{"type":"FeatureCollection","features":[{"type":"Feature","properties":{"id":4,"area_m2":11100,"px":111,"rank":1},"geometry":{"type":"Polygon","coordinates":[[[-122.75517,45.640995],[-122.755169,45.641175],[-122.755063,45.641191],[-122.75504,45.641265],[-122.754925,45.641289],[-122.754912,45.641355],[-122.754527,45.641354],[-122.754524,45.641302],[-122.754486,45.64127],[-122.75427,45.641263],[-122.754268,45.641198],[-122.754225,45.641164],[-122.754014,45.641173],[-122.753992,45.641098],[-122.753886,45.641082],[-122.753869,45.640922],[-122.753759,45.640902],[-122.753725,45.640821],[-122.753631,45.640812],[-122.753603,45.640734],[-122.753503,45.640722],[-122.753486,45.640471],[-122.753435,45.640452],[-122.753248,45.640451],[-122.753242,45.640394],[-122.753193,45.640363],[-122.752991,45.64036],[-122.752969,45.640286],[-122.752863,45.64027],[-122.752846,45.6402],[-122.752735,45.64018],[-122.752701,45.640099],[-122.752608,45.64009],[-122.75258,45.640012],[-122.75248,45.639999],[-122.752458,45.639745],[-122.752096,45.639728],[-122.752097,45.639548],[-122.752225,45.639549],[-122.75223,45.639605],[-122.752279,45.639636],[-122.752481,45.639639],[-122.752498,45.63971],[-122.752609,45.63973],[-122.752618,45.639791],[-122.752678,45.639819],[-122.752966,45.639816],[-122.753013,45.63977],[-122.752994,45.63964],[-122.753251,45.639641],[-122.753273,45.639715],[-122.753379,45.639731],[-122.753401,45.639895],[-122.753635,45.639912],[-122.753657,45.639986],[-122.753763,45.640002],[-122.75378,45.640072],[-122.75389,45.640092],[-122.753924,45.640173],[-122.754018,45.640183],[-122.754046,45.64026],[-122.754146,45.640273],[-122.754174,45.640351],[-122.754274,45.640363],[-122.754296,45.640527],[-122.754402,45.640544],[-122.754407,45.6406],[-122.754449,45.640629],[-122.754658,45.640634],[-122.754667,45.640786],[-122.754712,45.640812],[-122.754786,45.640814],[-122.754819,45.640895],[-122.754913,45.640905],[-122.754941,45.640982],[-122.75517,45.640995]],[[-122.75378,45.640407],[-122.753748,45.640296],[-122.753633,45.640272],[-122.753599,45.640191],[-122.753451,45.640168],[-122.753389,45.640192],[-122.753382,45.640328],[-122.753424,45.640357],[-122.753504,45.640362],[-122.753538,45.640443],[-122.75374,45.640445],[-122.75378,45.640407]],[[-122.754803,45.641129],[-122.754779,45.641028],[-122.75473,45.640997],[-122.754583,45.640996],[-122.754531,45.641032],[-122.754531,45.641136],[-122.754582,45.641172],[-122.75477,45.641165],[-122.754803,45.641129]]]}},{"type":"Feature","properties":{"id":7,"area_m2":4900,"px":49,"rank":2},"geometry":{"type":"Polygon","coordinates":[[[-122.755685,45.640636],[-122.755684,45.640816],[-122.755556,45.640816],[-122.755533,45.640742],[-122.755428,45.640726],[-122.755415,45.64057],[-122.7553,45.640545],[-122.755278,45.640381],[-122.755044,45.640365],[-122.755027,45.640295],[-122.754916,45.640275],[-122.754904,45.640209],[-122.754788,45.640184],[-122.754785,45.640133],[-122.754748,45.640101],[-122.754532,45.640094],[-122.754527,45.639947],[-122.754485,45.639918],[-122.754405,45.639913],[-122.754371,45.639832],[-122.754148,45.639823],[-122.754136,45.639667],[-122.754021,45.639643],[-122.753987,45.639562],[-122.753893,45.639552],[-122.753885,45.639401],[-122.753839,45.639374],[-122.753766,45.639372],[-122.753766,45.639282],[-122.753874,45.639276],[-122.753914,45.639226],[-122.753892,45.639051],[-122.753848,45.639016],[-122.753767,45.639012],[-122.753767,45.638922],[-122.753896,45.638922],[-122.753918,45.638996],[-122.754024,45.639013],[-122.754057,45.639094],[-122.754151,45.639103],[-122.754157,45.639249],[-122.754198,45.639279],[-122.754279,45.639283],[-122.754307,45.639361],[-122.754535,45.639374],[-122.754544,45.639525],[-122.754589,45.639551],[-122.754663,45.639555],[-122.754662,45.639644],[-122.754569,45.639646],[-122.754519,45.639678],[-122.754546,45.6398],[-122.754662,45.639824],[-122.754696,45.639905],[-122.754789,45.639914],[-122.754817,45.639992],[-122.754917,45.640005],[-122.754951,45.640086],[-122.755174,45.640095],[-122.755186,45.640251],[-122.755301,45.640275],[-122.755335,45.640356],[-122.755429,45.640366],[-122.755457,45.640443],[-122.755557,45.640456],[-122.755566,45.640607],[-122.755611,45.640634],[-122.755685,45.640636]]]}},{"type":"Feature","properties":{"id":16,"area_m2":4700,"px":47,"rank":3},"geometry":{"type":"Polygon","coordinates":[[[-122.750045,45.639184],[-122.750045,45.639274],[-122.749939,45.63929],[-122.749916,45.639364],[-122.749659,45.639363],[-122.749656,45.639311],[-122.749619,45.639279],[-122.749403,45.639272],[-122.749381,45.639198],[-122.749275,45.639182],[-122.749258,45.639112],[-122.749147,45.639092],[-122.749114,45.639011],[-122.74902,45.639002],[-122.748992,45.638924],[-122.748892,45.638911],[-122.748864,45.638834],[-122.748764,45.638821],[-122.748765,45.638551],[-122.748871,45.638535],[-122.748894,45.638461],[-122.74915,45.638462],[-122.749172,45.638536],[-122.749278,45.638552],[-122.749295,45.638622],[-122.749406,45.638643],[-122.74944,45.638723],[-122.749534,45.638733],[-122.749562,45.638811],[-122.749662,45.638823],[-122.74969,45.638901],[-122.74979,45.638913],[-122.749818,45.638991],[-122.749918,45.639004],[-122.749926,45.639155],[-122.749971,45.639181],[-122.750045,45.639184]]]}},{"type":"Feature","properties":{"id":27,"area_m2":3900,"px":39,"rank":4},"geometry":{"type":"Polygon","coordinates":[[[-122.752621,45.636939],[-122.752621,45.637029],[-122.752426,45.63703],[-122.752367,45.637067],[-122.752363,45.637209],[-122.752329,45.637251],[-122.752363,45.637299],[-122.752364,45.637435],[-122.752403,45.637472],[-122.752491,45.637479],[-122.75249,45.637568],[-122.752362,45.637569],[-122.752349,45.637503],[-122.752234,45.637478],[-122.7522,45.637398],[-122.751978,45.637388],[-122.751963,45.637216],[-122.752098,45.63718],[-122.752127,45.637084],[-122.7521,45.637041],[-122.751885,45.637037],[-122.751851,45.637076],[-122.751866,45.6372],[-122.751724,45.637207],[-122.751709,45.637141],[-122.751594,45.637117],[-122.751572,45.637043],[-122.751466,45.637027],[-122.751458,45.636875],[-122.751412,45.636849],[-122.751339,45.636846],[-122.75134,45.636577],[-122.751468,45.636577],[-122.751481,45.636643],[-122.751545,45.636667],[-122.75169,45.636658],[-122.751725,45.636577],[-122.751981,45.636578],[-122.752004,45.636652],[-122.752109,45.636668],[-122.752143,45.636749],[-122.752237,45.636758],[-122.752264,45.636849],[-122.752493,45.636849],[-122.752516,45.636923],[-122.752621,45.636939]]]}},{"type":"Feature","properties":{"id":6,"area_m2":3400,"px":34,"rank":5},"geometry":{"type":"Polygon","coordinates":[[[-122.755427,45.640906],[-122.755426,45.640996],[-122.755298,45.640995],[-122.755285,45.640929],[-122.75517,45.640905],[-122.755136,45.640824],[-122.754914,45.640815],[-122.754902,45.640659],[-122.754787,45.640634],[-122.754753,45.640553],[-122.754659,45.640544],[-122.754631,45.640466],[-122.754531,45.640454],[-122.754503,45.640376],[-122.754403,45.640363],[-122.754381,45.640199],[-122.754147,45.640183],[-122.754125,45.640109],[-122.754019,45.640093],[-122.754006,45.640027],[-122.753891,45.640002],[-122.753863,45.639925],[-122.753763,45.639912],[-122.753763,45.639781],[-122.753736,45.639744],[-122.753507,45.639731],[-122.753508,45.639552],[-122.753765,45.639552],[-122.753787,45.639626],[-122.753892,45.639642],[-122.753926,45.639723],[-122.75402,45.639733],[-122.754042,45.639897],[-122.754276,45.639913],[-122.754299,45.639987],[-122.754404,45.640004],[-122.754417,45.640159],[-122.754532,45.640184],[-122.754566,45.640265],[-122.75466,45.640274],[-122.754687,45.640352],[-122.754788,45.640364],[-122.754815,45.640442],[-122.755044,45.640455],[-122.755056,45.640611],[-122.755171,45.640635],[-122.755205,45.640716],[-122.755299,45.640725],[-122.755308,45.640877],[-122.755353,45.640903],[-122.755427,45.640906]]]}},{"type":"Feature","properties":{"id":20,"area_m2":2700,"px":27,"rank":6},"geometry":{"type":"Polygon","coordinates":[[[-122.748254,45.6381],[-122.748252,45.63837],[-122.748147,45.638385],[-122.748124,45.63846],[-122.747995,45.638459],[-122.747973,45.638385],[-122.747868,45.638369],[-122.747855,45.638303],[-122.74774,45.638279],[-122.747712,45.638201],[-122.747612,45.638188],[-122.747603,45.638037],[-122.747558,45.638011],[-122.747484,45.638008],[-122.747485,45.637828],[-122.747591,45.637813],[-122.747616,45.637738],[-122.747742,45.637739],[-122.747748,45.637795],[-122.747796,45.637827],[-122.747998,45.637829],[-122.74802,45.637904],[-122.748126,45.63792],[-122.748138,45.638076],[-122.748254,45.6381]]]}},{"type":"Feature","properties":{"id":3,"area_m2":2600,"px":26,"rank":7},"geometry":{"type":"Polygon","coordinates":[[[-122.753113,45.641891],[-122.753112,45.642071],[-122.752984,45.642071],[-122.752981,45.642019],[-122.752943,45.641987],[-122.752728,45.64198],[-122.752722,45.641923],[-122.752673,45.641892],[-122.752471,45.641889],[-122.75247,45.641753],[-122.752431,45.641716],[-122.752087,45.641709],[-122.752065,45.641634],[-122.751959,45.641618],[-122.75196,45.641528],[-122.751994,45.641486],[-122.75196,45.641438],[-122.75196,45.641348],[-122.752089,45.641349],[-122.752149,45.641373],[-122.752217,45.641349],[-122.752345,45.641349],[-122.752367,45.641423],[-122.752473,45.641439],[-122.75249,45.64151],[-122.752601,45.64153],[-122.752635,45.641611],[-122.752729,45.64162],[-122.752757,45.641698],[-122.752857,45.64171],[-122.752885,45.641788],[-122.752985,45.641801],[-122.753013,45.641878],[-122.753113,45.641891]]]}},{"type":"Feature","properties":{"id":55,"area_m2":2600,"px":26,"rank":8},"geometry":{"type":"Polygon","coordinates":[[[-122.745848,45.630984],[-122.745847,45.631074],[-122.745719,45.631073],[-122.745714,45.631017],[-122.745672,45.630988],[-122.745335,45.630983],[-122.745332,45.630931],[-122.745294,45.630899],[-122.74495,45.630892],[-122.744941,45.63083],[-122.744881,45.630802],[-122.744722,45.630814],[-122.744694,45.630891],[-122.744578,45.630915],[-122.744565,45.630981],[-122.74418,45.63098],[-122.74412,45.630956],[-122.744052,45.63098],[-122.743924,45.630979],[-122.743863,45.630955],[-122.743795,45.630979],[-122.743667,45.630979],[-122.743667,45.630889],[-122.743773,45.630873],[-122.743796,45.630799],[-122.743924,45.6308],[-122.743992,45.630824],[-122.744053,45.6308],[-122.744262,45.630796],[-122.744303,45.630767],[-122.74431,45.63071],[-122.745208,45.630712],[-122.745241,45.630793],[-122.745464,45.630803],[-122.745498,45.630884],[-122.74572,45.630894],[-122.745742,45.630968],[-122.745848,45.630984]]]}},{"type":"Feature","properties":{"id":36,"area_m2":1800,"px":18,"rank":9},"geometry":{"type":"Polygon","coordinates":[[[-122.745568,45.636024],[-122.745568,45.636204],[-122.745311,45.636203],[-122.745251,45.636179],[-122.745183,45.636203],[-122.744926,45.636202],[-122.744904,45.636128],[-122.744798,45.636112],[-122.744764,45.636031],[-122.74467,45.636022],[-122.744671,45.635932],[-122.745033,45.635917],[-122.745053,45.635791],[-122.745009,45.635757],[-122.744928,45.635752],[-122.744929,45.635662],[-122.745057,45.635663],[-122.74506,45.635714],[-122.745097,45.635746],[-122.745313,45.635753],[-122.745313,45.635843],[-122.745232,45.635847],[-122.745188,45.635881],[-122.745206,45.636007],[-122.745568,45.636024]]]}},{"type":"Feature","properties":{"id":46,"area_m2":1500,"px":15,"rank":10},"geometry":{"type":"Polygon","coordinates":[[[-122.744289,45.635301],[-122.744288,45.635481],[-122.744031,45.63548],[-122.744022,45.635419],[-122.74397,45.635391],[-122.743647,45.635389],[-122.743649,45.634939],[-122.743777,45.63494],[-122.743782,45.635086],[-122.743824,45.635116],[-122.743905,45.63512],[-122.743932,45.635198],[-122.744161,45.635211],[-122.744183,45.635285],[-122.744289,45.635301]]]}},{"type":"Feature","properties":{"id":43,"area_m2":1300,"px":13,"rank":11},"geometry":{"type":"Polygon","coordinates":[[[-122.747367,45.635578],[-122.747366,45.635668],[-122.74711,45.635667],[-122.747088,45.635593],[-122.746982,45.635577],[-122.746965,45.635506],[-122.746854,45.635486],[-122.74682,45.635406],[-122.746726,45.635396],[-122.746698,45.635318],[-122.746598,45.635306],[-122.74657,45.635228],[-122.74647,45.635216],[-122.746442,45.635138],[-122.746342,45.635125],[-122.746343,45.634945],[-122.746471,45.634946],[-122.746494,45.63502],[-122.746599,45.635036],[-122.746633,45.635117],[-122.746727,45.635126],[-122.746727,45.635257],[-122.746755,45.635294],[-122.746983,45.635307],[-122.746983,45.635438],[-122.74701,45.635475],[-122.747239,45.635487],[-122.747261,45.635562],[-122.747367,45.635578]]]}},{"type":"Feature","properties":{"id":14,"area_m2":1200,"px":12,"rank":12},"geometry":{"type":"Polygon","coordinates":[[[-122.751712,45.639368],[-122.751712,45.639458],[-122.751455,45.639457],[-122.751433,45.639383],[-122.751328,45.639367],[-122.751315,45.639301],[-122.7512,45.639276],[-122.751172,45.639199],[-122.751072,45.639186],[-122.751069,45.639044],[-122.751025,45.63901],[-122.750944,45.639006],[-122.750945,45.638916],[-122.751073,45.638916],[-122.751086,45.638982],[-122.751201,45.639006],[-122.751204,45.639058],[-122.751241,45.63909],[-122.751457,45.639097],[-122.751479,45.639171],[-122.751585,45.639187],[-122.751597,45.639343],[-122.751712,45.639368]]]}},{"type":"Feature","properties":{"id":34,"area_m2":1200,"px":12,"rank":13},"geometry":{"type":"Polygon","coordinates":[[[-122.750571,45.636305],[-122.75057,45.636485],[-122.750442,45.636484],[-122.750429,45.636418],[-122.750365,45.636394],[-122.75022,45.636403],[-122.750185,45.636484],[-122.749801,45.636483],[-122.749802,45.636213],[-122.750058,45.636214],[-122.750067,45.636275],[-122.75012,45.636303],[-122.750571,45.636305]]]}},{"type":"Feature","properties":{"id":54,"area_m2":1200,"px":12,"rank":14},"geometry":{"type":"Polygon","coordinates":[[[-122.745066,45.633682],[-122.745065,45.633862],[-122.74468,45.633861],[-122.744678,45.63363],[-122.744634,45.633595],[-122.744553,45.633591],[-122.744519,45.63351],[-122.744425,45.633501],[-122.744426,45.633321],[-122.744554,45.633321],[-122.744554,45.633452],[-122.744582,45.633489],[-122.74481,45.633502],[-122.744832,45.633576],[-122.744938,45.633592],[-122.744972,45.633673],[-122.745066,45.633682]]]}},{"type":"Feature","properties":{"id":63,"area_m2":1200,"px":12,"rank":15},"geometry":{"type":"Polygon","coordinates":[[[-122.735091,45.626729],[-122.735091,45.626819],[-122.734321,45.626817],[-122.734299,45.626743],[-122.734193,45.626727],[-122.734194,45.626637],[-122.734963,45.626639],[-122.734985,45.626713],[-122.735091,45.626729]]]}},{"type":"Feature","properties":{"id":21,"area_m2":1100,"px":11,"rank":16},"geometry":{"type":"Polygon","coordinates":[[[-122.753514,45.638111],[-122.753513,45.638381],[-122.753257,45.638381],[-122.753234,45.638307],[-122.753129,45.63829],[-122.753095,45.63821],[-122.753001,45.6382],[-122.753001,45.63811],[-122.753082,45.638106],[-122.753126,45.638072],[-122.75313,45.637931],[-122.753258,45.637931],[-122.753258,45.638062],[-122.753292,45.638102],[-122.753514,45.638111]]]}},{"type":"Feature","properties":{"id":2,"area_m2":1000,"px":10,"rank":17},"geometry":{"type":"Polygon","coordinates":[[[-122.761326,45.641638],[-122.761326,45.641728],[-122.76122,45.641744],[-122.761197,45.641818],[-122.761097,45.64183],[-122.761068,45.641908],[-122.760974,45.641917],[-122.76094,45.641997],[-122.760829,45.642017],[-122.760811,45.642087],[-122.760683,45.642087],[-122.760684,45.641907],[-122.760784,45.641895],[-122.760812,45.641817],[-122.760906,45.641808],[-122.760941,45.641728],[-122.761052,45.641708],[-122.76107,45.641548],[-122.761198,45.641548],[-122.761221,45.641622],[-122.761326,45.641638]]]}},{"type":"Feature","properties":{"id":5,"area_m2":1000,"px":10,"rank":18},"geometry":{"type":"Polygon","coordinates":[[[-122.761457,45.641009],[-122.761456,45.641188],[-122.761351,45.641204],[-122.761328,45.641278],[-122.760943,45.641277],[-122.760944,45.641097],[-122.761049,45.641082],[-122.761072,45.641008],[-122.761457,45.641009]]]}},{"type":"Feature","properties":{"id":42,"area_m2":1000,"px":10,"rank":19},"geometry":{"type":"Polygon","coordinates":[[[-122.743775,45.63548],[-122.743774,45.63566],[-122.743668,45.635675],[-122.743645,45.635749],[-122.74326,45.635748],[-122.743261,45.635659],[-122.743348,45.635652],[-122.743388,45.635615],[-122.74339,45.635389],[-122.743518,45.635389],[-122.743524,45.635446],[-122.743573,45.635477],[-122.743775,45.63548]]]}},{"type":"Feature","properties":{"id":39,"area_m2":900,"px":9,"rank":20},"geometry":{"type":"Polygon","coordinates":[[[-122.749676,45.635583],[-122.749675,45.635763],[-122.74957,45.635778],[-122.749547,45.635852],[-122.749419,45.635852],[-122.749396,45.635778],[-122.749291,45.635762],[-122.749291,45.635672],[-122.749325,45.63563],[-122.749291,45.635582],[-122.749292,45.635402],[-122.74942,45.635402],[-122.749443,45.635476],[-122.749548,45.635493],[-122.749582,45.635573],[-122.749676,45.635583]]]}},{"type":"Feature","properties":{"id":45,"area_m2":900,"px":9,"rank":21},"geometry":{"type":"Polygon","coordinates":[[[-122.745315,45.635303],[-122.745314,45.635483],[-122.744929,45.635482],[-122.744929,45.635256],[-122.74489,45.635218],[-122.744802,45.635212],[-122.744803,45.635122],[-122.744931,45.635122],[-122.744937,45.635179],[-122.744985,45.63521],[-122.745187,45.635213],[-122.745209,45.635287],[-122.745315,45.635303]]]}},{"type":"Feature","properties":{"id":52,"area_m2":900,"px":9,"rank":22},"geometry":{"type":"Polygon","coordinates":[[[-122.746088,45.634675],[-122.746087,45.634765],[-122.745959,45.634764],[-122.745937,45.63469],[-122.745831,45.634674],[-122.745814,45.634604],[-122.745703,45.634584],[-122.745669,45.634503],[-122.745575,45.634493],[-122.745548,45.634416],[-122.745448,45.634403],[-122.74542,45.634325],[-122.74532,45.634313],[-122.745292,45.634235],[-122.745192,45.634223],[-122.745164,45.634145],[-122.745064,45.634132],[-122.745064,45.634042],[-122.745321,45.634043],[-122.745338,45.634203],[-122.745448,45.634223],[-122.745482,45.634304],[-122.745576,45.634314],[-122.745604,45.634391],[-122.745704,45.634404],[-122.745732,45.634482],[-122.745832,45.634494],[-122.74586,45.634572],[-122.74596,45.634584],[-122.745988,45.634662],[-122.746088,45.634675]]]}},{"type":"Feature","properties":{"id":62,"area_m2":900,"px":9,"rank":23},"geometry":{"type":"Polygon","coordinates":[[[-122.736889,45.626373],[-122.736888,45.626463],[-122.736794,45.626472],[-122.73676,45.626553],[-122.736649,45.626572],[-122.73663,45.626732],[-122.736525,45.626748],[-122.736502,45.626822],[-122.736245,45.626822],[-122.736246,45.626642],[-122.736455,45.626638],[-122.736497,45.626609],[-122.736503,45.626552],[-122.736577,45.62655],[-122.736622,45.626524],[-122.736666,45.62642],[-122.736632,45.626372],[-122.736633,45.626283],[-122.736761,45.626283],[-122.736783,45.626357],[-122.736889,45.626373]]]}},{"type":"Feature","properties":{"id":29,"area_m2":800,"px":8,"rank":24},"geometry":{"type":"Polygon","coordinates":[[[-122.755314,45.637215],[-122.755314,45.637395],[-122.755208,45.637411],[-122.755185,45.637485],[-122.754929,45.637484],[-122.75493,45.637214],[-122.755314,45.637215]]]}},{"type":"Feature","properties":{"id":30,"area_m2":800,"px":8,"rank":25},"geometry":{"type":"Polygon","coordinates":[[[-122.755573,45.636856],[-122.755571,45.637126],[-122.755443,45.637125],[-122.755438,45.637069],[-122.755389,45.637038],[-122.755187,45.637035],[-122.755188,45.636855],[-122.755294,45.636839],[-122.755317,45.636765],[-122.755445,45.636765],[-122.755467,45.63684],[-122.755573,45.636856]]]}},{"type":"Feature","properties":{"id":41,"area_m2":800,"px":8,"rank":26},"geometry":{"type":"Polygon","coordinates":[[[-122.744672,45.635572],[-122.744671,45.635842],[-122.744415,45.635841],[-122.744412,45.635699],[-122.744368,45.635665],[-122.744287,45.635661],[-122.744288,45.635571],[-122.744393,45.635555],[-122.744418,45.635481],[-122.744544,45.635481],[-122.744567,45.635556],[-122.744672,45.635572]]]}},{"type":"Feature","properties":{"id":60,"area_m2":800,"px":8,"rank":27},"geometry":{"type":"Polygon","coordinates":[[[-122.739577,45.627549],[-122.739577,45.627639],[-122.739471,45.627655],[-122.739448,45.627729],[-122.73932,45.627729],[-122.739298,45.627655],[-122.739192,45.627638],[-122.73918,45.627482],[-122.739065,45.627458],[-122.739066,45.627278],[-122.739194,45.627278],[-122.739193,45.62741],[-122.739221,45.627446],[-122.739449,45.627459],[-122.739472,45.627533],[-122.739577,45.627549]]]}},{"type":"Feature","properties":{"id":40,"area_m2":700,"px":7,"rank":28},"geometry":{"type":"Polygon","coordinates":[[[-122.745699,45.635574],[-122.745697,45.635844],[-122.745441,45.635843],[-122.745438,45.635702],[-122.745394,45.635667],[-122.745314,45.635663],[-122.745314,45.635573],[-122.745699,45.635574]]]}},{"type":"Feature","properties":{"id":12,"area_m2":600,"px":6,"rank":29},"geometry":{"type":"Polygon","coordinates":[[[-122.750428,45.639545],[-122.750428,45.639725],[-122.750299,45.639724],[-122.750287,45.639658],[-122.750172,45.639634],[-122.750138,45.639553],[-122.749915,45.639544],[-122.749916,45.639454],[-122.7503,45.639455],[-122.750323,45.639529],[-122.750428,45.639545]]]}},{"type":"Feature","properties":{"id":17,"area_m2":600,"px":6,"rank":30},"geometry":{"type":"Polygon","coordinates":[[[-122.753639,45.639012],[-122.753638,45.639192],[-122.75351,45.639191],[-122.753487,45.639117],[-122.753382,45.639101],[-122.753348,45.63902],[-122.753254,45.639011],[-122.753255,45.638831],[-122.753383,45.638831],[-122.753405,45.638905],[-122.753511,45.638921],[-122.753545,45.639002],[-122.753639,45.639012]]]}},{"type":"Feature","properties":{"id":19,"area_m2":600,"px":6,"rank":31},"geometry":{"type":"Polygon","coordinates":[[[-122.751588,45.638377],[-122.751588,45.638557],[-122.751459,45.638557],[-122.751451,45.638495],[-122.751398,45.638468],[-122.750947,45.638466],[-122.750947,45.638376],[-122.751588,45.638377]]]}},{"type":"Feature","properties":{"id":31,"area_m2":600,"px":6,"rank":32},"geometry":{"type":"Polygon","coordinates":[[[-122.750184,45.636754],[-122.750183,45.637024],[-122.749798,45.637023],[-122.749799,45.636933],[-122.749904,45.636918],[-122.749927,45.636843],[-122.750043,45.63682],[-122.750056,45.636754],[-122.750184,45.636754]]]}},{"type":"Feature","properties":{"id":33,"area_m2":600,"px":6,"rank":33},"geometry":{"type":"Polygon","coordinates":[[[-122.746591,45.636836],[-122.746591,45.636926],[-122.746485,45.636942],[-122.746462,45.637016],[-122.746334,45.637015],[-122.746312,45.636941],[-122.746206,45.636925],[-122.746207,45.636745],[-122.746463,45.636746],[-122.746486,45.63682],[-122.746591,45.636836]]]}},{"type":"Feature","properties":{"id":47,"area_m2":600,"px":6,"rank":34},"geometry":{"type":"Polygon","coordinates":[[[-122.74724,45.635127],[-122.74724,45.635307],[-122.747111,45.635307],[-122.747089,45.635233],[-122.746984,45.635217],[-122.74695,45.635136],[-122.746856,45.635126],[-122.746856,45.634947],[-122.746985,45.634947],[-122.747007,45.635021],[-122.747112,45.635037],[-122.747146,45.635118],[-122.74724,45.635127]]]}},{"type":"Feature","properties":{"id":53,"area_m2":600,"px":6,"rank":35},"geometry":{"type":"Polygon","coordinates":[[[-122.746345,45.634495],[-122.746344,45.634675],[-122.746216,45.634675],[-122.746194,45.634601],[-122.746088,45.634585],[-122.746054,45.634504],[-122.74596,45.634494],[-122.745961,45.634314],[-122.746089,45.634315],[-122.746112,45.634389],[-122.746217,45.634405],[-122.746251,45.634486],[-122.746345,45.634495]]]}},{"type":"Feature","properties":{"id":64,"area_m2":600,"px":6,"rank":36},"geometry":{"type":"Polygon","coordinates":[[[-122.734836,45.626458],[-122.734835,45.626548],[-122.734579,45.626548],[-122.734581,45.626098],[-122.734709,45.626098],[-122.734709,45.626415],[-122.734748,45.626452],[-122.734836,45.626458]]]}},{"type":"Feature","properties":{"id":11,"area_m2":500,"px":5,"rank":37},"geometry":{"type":"Polygon","coordinates":[[[-122.749528,45.639993],[-122.749528,45.640083],[-122.749273,45.640082],[-122.749268,45.640031],[-122.749231,45.639999],[-122.749015,45.639992],[-122.749016,45.639812],[-122.749144,45.639812],[-122.749157,45.639878],[-122.749272,45.639902],[-122.749275,45.639954],[-122.749312,45.639986],[-122.749528,45.639993]]]}},{"type":"Feature","properties":{"id":13,"area_m2":500,"px":5,"rank":38},"geometry":{"type":"Polygon","coordinates":[[[-122.748761,45.639451],[-122.74876,45.639541],[-122.748376,45.63954],[-122.748377,45.63927],[-122.748505,45.639271],[-122.748505,45.639402],[-122.748538,45.639442],[-122.748761,45.639451]]]}},{"type":"Feature","properties":{"id":22,"area_m2":500,"px":5,"rank":39},"geometry":{"type":"Polygon","coordinates":[[[-122.751975,45.638108],[-122.751974,45.638288],[-122.751589,45.638287],[-122.75159,45.638107],[-122.751718,45.638108],[-122.751778,45.638132],[-122.751846,45.638108],[-122.751975,45.638108]]]}},{"type":"Feature","properties":{"id":23,"area_m2":500,"px":5,"rank":40},"geometry":{"type":"Polygon","coordinates":[[[-122.750049,45.638194],[-122.750049,45.638284],[-122.749921,45.638283],[-122.749908,45.638218],[-122.749793,45.638193],[-122.749759,45.638112],[-122.749537,45.638103],[-122.749538,45.637923],[-122.749666,45.637923],[-122.749688,45.637997],[-122.749794,45.638013],[-122.749806,45.638079],[-122.749922,45.638104],[-122.749949,45.638181],[-122.750049,45.638194]]]}},{"type":"Feature","properties":{"id":26,"area_m2":500,"px":5,"rank":41},"geometry":{"type":"Polygon","coordinates":[[[-122.753517,45.637481],[-122.753516,45.637751],[-122.753388,45.637751],[-122.753379,45.6376],[-122.753334,45.637573],[-122.75326,45.637571],[-122.753261,45.637391],[-122.753389,45.637391],[-122.753411,45.637465],[-122.753517,45.637481]]]}},{"type":"Feature","properties":{"id":37,"area_m2":500,"px":5,"rank":42},"geometry":{"type":"Polygon","coordinates":[[[-122.746338,45.636025],[-122.746338,45.636115],[-122.745953,45.636115],[-122.745954,45.635935],[-122.74621,45.635935],[-122.746233,45.636009],[-122.746338,45.636025]]]}},{"type":"Feature","properties":{"id":38,"area_m2":500,"px":5,"rank":43},"geometry":{"type":"Polygon","coordinates":[[[-122.749159,45.635763],[-122.749128,45.635809],[-122.749162,45.635852],[-122.749161,45.635942],[-122.748905,45.635941],[-122.748883,45.635867],[-122.748777,45.635851],[-122.748777,45.635761],[-122.748993,45.635755],[-122.749031,45.635723],[-122.749034,45.635671],[-122.749163,45.635672],[-122.749159,45.635763]]]}},{"type":"Feature","properties":{"id":44,"area_m2":500,"px":5,"rank":44},"geometry":{"type":"Polygon","coordinates":[[[-122.746598,45.635396],[-122.746597,45.635576],[-122.746469,45.635576],[-122.746446,45.635501],[-122.746341,45.635485],[-122.746307,45.635404],[-122.746213,45.635395],[-122.746213,45.635305],[-122.74647,45.635306],[-122.746492,45.63538],[-122.746598,45.635396]]]}},{"type":"Feature","properties":{"id":49,"area_m2":500,"px":5,"rank":45},"geometry":{"type":"Polygon","coordinates":[[[-122.744548,45.634761],[-122.744546,45.635031],[-122.744418,45.635031],[-122.744396,45.634957],[-122.74429,45.634941],[-122.744291,45.634761],[-122.744548,45.634761]]]}},{"type":"Feature","properties":{"id":8,"area_m2":400,"px":4,"rank":46},"geometry":{"type":"Polygon","coordinates":[[[-122.749912,45.640264],[-122.749911,45.640534],[-122.749783,45.640533],[-122.74978,45.640392],[-122.749736,45.640357],[-122.749655,45.640353],[-122.749655,45.640263],[-122.749912,45.640264]]]}},{"type":"Feature","properties":{"id":9,"area_m2":400,"px":4,"rank":47},"geometry":{"type":"Polygon","coordinates":[[[-122.761204,45.640288],[-122.761203,45.640378],[-122.76069,45.640377],[-122.760691,45.640287],[-122.761204,45.640288]]]}},{"type":"Feature","properties":{"id":10,"area_m2":400,"px":4,"rank":48},"geometry":{"type":"Polygon","coordinates":[[[-122.75017,45.639994],[-122.750169,45.640174],[-122.749913,45.640174],[-122.749913,45.639994],[-122.75017,45.639994]]]}},{"type":"Feature","properties":{"id":28,"area_m2":400,"px":4,"rank":49},"geometry":{"type":"Polygon","coordinates":[[[-122.746332,45.637376],[-122.746331,45.637555],[-122.746203,45.637555],[-122.746181,45.637481],[-122.746075,45.637465],[-122.746076,45.637285],[-122.746204,45.637285],[-122.746227,45.637359],[-122.746332,45.637376]]]}},{"type":"Feature","properties":{"id":35,"area_m2":400,"px":4,"rank":50},"geometry":{"type":"Polygon","coordinates":[[[-122.749674,45.636123],[-122.749673,45.636213],[-122.749417,45.636212],[-122.749395,45.636138],[-122.749289,45.636122],[-122.749289,45.636032],[-122.749546,45.636033],[-122.749568,45.636107],[-122.749674,45.636123]]]}},{"type":"Feature","properties":{"id":48,"area_m2":400,"px":4,"rank":51},"geometry":{"type":"Polygon","coordinates":[[[-122.746214,45.635125],[-122.746214,45.635215],[-122.746108,45.635231],[-122.746085,45.635305],[-122.745957,45.635304],[-122.745954,45.635163],[-122.74591,45.635128],[-122.745829,45.635124],[-122.74583,45.635034],[-122.745958,45.635035],[-122.745963,45.635091],[-122.746012,45.635122],[-122.746214,45.635125]]]}},{"type":"Feature","properties":{"id":56,"area_m2":400,"px":4,"rank":52},"geometry":{"type":"Polygon","coordinates":[[[-122.740591,45.630342],[-122.74059,45.630432],[-122.740462,45.630432],[-122.740449,45.630366],[-122.740334,45.630341],[-122.7403,45.63026],[-122.740078,45.630251],[-122.740078,45.630161],[-122.740335,45.630161],[-122.740357,45.630236],[-122.740463,45.630252],[-122.740497,45.630333],[-122.740591,45.630342]]]}},{"type":"Feature","properties":{"id":1,"area_m2":300,"px":3,"rank":53},"geometry":{"type":"Polygon","coordinates":[[[-122.753752,45.642522],[-122.753751,45.642612],[-122.753623,45.642612],[-122.75362,45.64256],[-122.753583,45.642528],[-122.753367,45.642521],[-122.753367,45.642432],[-122.753624,45.642432],[-122.753646,45.642506],[-122.753752,45.642522]]]}},{"type":"Feature","properties":{"id":15,"area_m2":300,"px":3,"rank":54},"geometry":{"type":"Polygon","coordinates":[[[-122.749146,45.639362],[-122.749146,45.639452],[-122.749018,45.639452],[-122.749014,45.6394],[-122.748977,45.639368],[-122.748761,45.639361],[-122.748762,45.639271],[-122.749018,45.639272],[-122.74904,45.639346],[-122.749146,45.639362]]]}},{"type":"Feature","properties":{"id":18,"area_m2":300,"px":3,"rank":55},"geometry":{"type":"Polygon","coordinates":[[[-122.748507,45.638821],[-122.748507,45.63891],[-122.748122,45.63891],[-122.748122,45.63882],[-122.748507,45.638821]]]}},{"type":"Feature","properties":{"id":24,"area_m2":300,"px":3,"rank":56},"geometry":{"type":"Polygon","coordinates":[[[-122.752361,45.637839],[-122.75236,45.637929],[-122.75228,45.637933],[-122.752235,45.637967],[-122.752231,45.638108],[-122.752103,45.638108],[-122.752104,45.637928],[-122.75221,45.637913],[-122.752232,45.637839],[-122.752361,45.637839]]]}},{"type":"Feature","properties":{"id":25,"area_m2":300,"px":3,"rank":57},"geometry":{"type":"Polygon","coordinates":[[[-122.752618,45.637659],[-122.752617,45.637929],[-122.752489,45.637929],[-122.75249,45.637659],[-122.752618,45.637659]]]}},{"type":"Feature","properties":{"id":32,"area_m2":300,"px":3,"rank":58},"geometry":{"type":"Polygon","coordinates":[[[-122.747104,45.636837],[-122.747104,45.637017],[-122.746975,45.637017],[-122.746953,45.636943],[-122.746848,45.636927],[-122.746848,45.636837],[-122.747104,45.636837]]]}},{"type":"Feature","properties":{"id":50,"area_m2":300,"px":3,"rank":59},"geometry":{"type":"Polygon","coordinates":[[[-122.746729,45.634766],[-122.746728,45.634946],[-122.7466,45.634946],[-122.746578,45.634872],[-122.746472,45.634856],[-122.746472,45.634766],[-122.746729,45.634766]]]}},{"type":"Feature","properties":{"id":51,"area_m2":300,"px":3,"rank":60},"geometry":{"type":"Polygon","coordinates":[[[-122.745574,45.634674],[-122.745574,45.634854],[-122.745446,45.634853],[-122.745443,45.634712],[-122.745399,45.634677],[-122.745318,45.634673],[-122.745318,45.634583],[-122.745447,45.634583],[-122.745469,45.634658],[-122.745574,45.634674]]]}},{"type":"Feature","properties":{"id":57,"area_m2":300,"px":3,"rank":61},"geometry":{"type":"Polygon","coordinates":[[[-122.738933,45.628088],[-122.738933,45.628178],[-122.738731,45.62818],[-122.738682,45.628211],[-122.738676,45.628267],[-122.738548,45.628267],[-122.738548,45.628177],[-122.738654,45.628161],[-122.738677,45.628087],[-122.738933,45.628088]]]}},{"type":"Feature","properties":{"id":58,"area_m2":300,"px":3,"rank":62},"geometry":{"type":"Polygon","coordinates":[[[-122.737651,45.627995],[-122.73765,45.628085],[-122.737266,45.628084],[-122.737266,45.627994],[-122.737651,45.627995]]]}},{"type":"Feature","properties":{"id":59,"area_m2":300,"px":3,"rank":63},"geometry":{"type":"Polygon","coordinates":[[[-122.737267,45.627814],[-122.737266,45.627904],[-122.736882,45.627903],[-122.736882,45.627813],[-122.737267,45.627814]]]}},{"type":"Feature","properties":{"id":61,"area_m2":300,"px":3,"rank":64},"geometry":{"type":"Polygon","coordinates":[[[-122.735604,45.62682],[-122.735603,45.62691],[-122.735219,45.626909],[-122.735219,45.626819],[-122.735604,45.62682]]]}}]}