{"type":"FeatureCollection","features":[{"type":"Feature","properties":{"id":6,"area_m2":11600,"px":116,"rank":1},"geometry":{"type":"Polygon","coordinates":[[[-122.75517,45.640995],[-122.755169,45.641175],[-122.755063,45.641191],[-122.75504,45.641265],[-122.754925,45.641289],[-122.754912,45.641355],[-122.754527,45.641354],[-122.754466,45.64133],[-122.754398,45.641354],[-122.75427,45.641353],[-122.754253,45.641193],[-122.754201,45.641173],[-122.754014,45.641173],[-122.754001,45.641107],[-122.753886,45.641082],[-122.753881,45.641026],[-122.753832,45.640995],[-122.753683,45.640981],[-122.753636,45.641012],[-122.75363,45.641082],[-122.753501,45.641082],[-122.753479,45.641007],[-122.753373,45.640991],[-122.753351,45.640917],[-122.753246,45.640901],[-122.753212,45.64082],[-122.753118,45.640809],[-122.75312,45.640721],[-122.753246,45.640721],[-122.753252,45.640778],[-122.7533,45.640809],[-122.753482,45.640805],[-122.753522,45.640761],[-122.75349,45.640656],[-122.753375,45.640631],[-122.753341,45.64055],[-122.753247,45.640541],[-122.753219,45.640463],[-122.753119,45.640451],[-122.753091,45.640373],[-122.752991,45.64036],[-122.752957,45.640279],[-122.752735,45.64027],[-122.752723,45.640114],[-122.752608,45.64009],[-122.752574,45.640009],[-122.75248,45.639999],[-122.752468,45.639753],[-122.752411,45.639729],[-122.752096,45.639728],[-122.752096,45.639638],[-122.752202,45.639623],[-122.752225,45.639549],[-122.752353,45.639549],[-122.752366,45.639615],[-122.752481,45.639639],[-122.752509,45.639717],[-122.752737,45.63973],[-122.75275,45.639796],[-122.752865,45.63982],[-122.752887,45.639894],[-122.753032,45.639924],[-122.753109,45.6399],[-122.753122,45.639821],[-122.753507,45.639822],[-122.753519,45.639978],[-122.753575,45.640001],[-122.753763,45.640002],[-122.753768,45.640149],[-122.753809,45.640178],[-122.75389,45.640182],[-122.753924,45.640263],[-122.754018,45.640273],[-122.75404,45.640437],[-122.754402,45.640454],[-122.754424,45.640618],[-122.754658,45.640634],[-122.754667,45.640786],[-122.754712,45.640812],[-122.754786,45.640814],[-122.754819,45.640895],[-122.754913,45.640905],[-122.754947,45.640986],[-122.75517,45.640995]],[[-122.753168,45.640087],[-122.753317,45.640104],[-122.753369,45.640076],[-122.753372,45.639945],[-122.753316,45.639912],[-122.753149,45.639915],[-122.753102,45.639961],[-122.753127,45.640057],[-122.753168,45.640087]],[[-122.753667,45.640443],[-122.753829,45.640465],[-122.75388,45.640437],[-122.753877,45.640296],[-122.753762,45.640272],[-122.753756,45.640215],[-122.753714,45.640186],[-122.753519,45.640191],[-122.753485,45.640237],[-122.753518,45.640338],[-122.753633,45.640362],[-122.753667,45.640443]],[[-122.754803,45.641129],[-122.754772,45.641018],[-122.754657,45.640994],[-122.754623,45.640913],[-122.754475,45.64089],[-122.754413,45.640914],[-122.754406,45.64105],[-122.754447,45.64108],[-122.754528,45.641084],[-122.754562,45.641165],[-122.754764,45.641168],[-122.754803,45.641129]]]}},{"type":"Feature","properties":{"id":11,"area_m2":7600,"px":76,"rank":2},"geometry":{"type":"Polygon","coordinates":[[[-122.755814,45.640367],[-122.755813,45.640636],[-122.755719,45.640639],[-122.755673,45.640666],[-122.755684,45.640816],[-122.755556,45.640816],[-122.755533,45.640742],[-122.755428,45.640726],[-122.755411,45.640565],[-122.7553,45.640545],[-122.755266,45.640464],[-122.755172,45.640455],[-122.755176,45.640296],[-122.755123,45.640275],[-122.754916,45.640275],[-122.754899,45.640204],[-122.754788,45.640184],[-122.754771,45.640114],[-122.754661,45.640094],[-122.754648,45.640028],[-122.754533,45.640004],[-122.754499,45.639923],[-122.754343,45.6399],[-122.754279,45.639938],[-122.754279,45.640055],[-122.754323,45.640089],[-122.754404,45.640094],[-122.754403,45.640183],[-122.754147,45.640183],[-122.754125,45.640109],[-122.754019,45.640093],[-122.754006,45.640027],[-122.753891,45.640002],[-122.753863,45.639925],[-122.753763,45.639912],[-122.753746,45.639752],[-122.753636,45.639732],[-122.753602,45.639651],[-122.753508,45.639641],[-122.753508,45.639462],[-122.753619,45.639442],[-122.753669,45.639314],[-122.753615,45.639207],[-122.75351,45.639191],[-122.753497,45.639125],[-122.753382,45.639101],[-122.753354,45.639023],[-122.753254,45.639011],[-122.753254,45.638921],[-122.753511,45.638921],[-122.753533,45.638996],[-122.753654,45.639019],[-122.753655,45.639172],[-122.753766,45.639192],[-122.753769,45.639244],[-122.753807,45.639276],[-122.753953,45.639282],[-122.754019,45.639244],[-122.754014,45.639131],[-122.753969,45.639105],[-122.753895,45.639102],[-122.753861,45.639021],[-122.753751,45.639004],[-122.753767,45.638922],[-122.753896,45.638922],[-122.753918,45.638996],[-122.754024,45.639013],[-122.754057,45.639094],[-122.754151,45.639103],[-122.754168,45.639263],[-122.754279,45.639283],[-122.754313,45.639364],[-122.754407,45.639373],[-122.754435,45.639451],[-122.754535,45.639464],[-122.754534,45.639554],[-122.754433,45.639558],[-122.754389,45.639593],[-122.754428,45.639718],[-122.754662,45.639734],[-122.754667,45.639881],[-122.754709,45.63991],[-122.754789,45.639914],[-122.754795,45.639971],[-122.754837,45.64],[-122.754998,45.640001],[-122.75504,45.639971],[-122.755046,45.639915],[-122.755174,45.639915],[-122.755187,45.639981],[-122.755302,45.640005],[-122.755336,45.640086],[-122.755559,45.640096],[-122.755571,45.640252],[-122.755686,45.640276],[-122.75572,45.640357],[-122.755814,45.640367]],[[-122.754293,45.639873],[-122.754254,45.639749],[-122.754149,45.639733],[-122.75414,45.639581],[-122.754095,45.639555],[-122.754021,45.639553],[-122.753993,45.639475],[-122.753714,45.639462],[-122.753654,45.639482],[-122.753649,45.639618],[-122.753764,45.639642],[-122.753798,45.639723],[-122.753892,45.639732],[-122.75392,45.63981],[-122.75402,45.639823],[-122.754048,45.6399],[-122.754249,45.639909],[-122.754293,45.639873]]]}},{"type":"Feature","properties":{"id":2,"area_m2":7000,"px":70,"rank":3},"geometry":{"type":"Polygon","coordinates":[[[-122.753368,45.642161],[-122.753368,45.642251],[-122.752983,45.642251],[-122.752961,45.642176],[-122.752855,45.64216],[-122.752833,45.642086],[-122.752727,45.64207],[-122.75271,45.642],[-122.752599,45.64198],[-122.752565,45.641899],[-122.752471,45.641889],[-122.752443,45.641812],[-122.752343,45.641799],[-122.752315,45.641721],[-122.752215,45.641709],[-122.752188,45.641631],[-122.752088,45.641619],[-122.75206,45.641541],[-122.75196,45.641528],[-122.75198,45.641404],[-122.751958,45.641365],[-122.751704,45.641348],[-122.751681,45.641274],[-122.751576,45.641257],[-122.751563,45.641191],[-122.751448,45.641167],[-122.75142,45.641089],[-122.75132,45.641077],[-122.75134,45.640953],[-122.751319,45.640913],[-122.751192,45.640897],[-122.751187,45.64084],[-122.751145,45.640811],[-122.750936,45.640806],[-122.750931,45.640749],[-122.750889,45.64072],[-122.75068,45.640715],[-122.750682,45.640355],[-122.751066,45.640356],[-122.751079,45.640422],[-122.751194,45.640447],[-122.751228,45.640528],[-122.751451,45.640537],[-122.751455,45.640774],[-122.751497,45.640803],[-122.751578,45.640807],[-122.751612,45.640888],[-122.751706,45.640898],[-122.751722,45.641058],[-122.751774,45.641078],[-122.751961,45.641078],[-122.751984,45.641153],[-122.752089,45.641169],[-122.752111,45.641333],[-122.752217,45.641349],[-122.752239,45.641423],[-122.752345,45.641439],[-122.752367,45.641513],[-122.752473,45.641529],[-122.752495,45.641604],[-122.752601,45.64162],[-122.752618,45.64169],[-122.752729,45.64171],[-122.752762,45.641791],[-122.752856,45.6418],[-122.752884,45.641878],[-122.752984,45.641891],[-122.753012,45.641968],[-122.753112,45.641981],[-122.75314,45.642059],[-122.75324,45.642071],[-122.753268,45.642149],[-122.753368,45.642161]]]}},{"type":"Feature","properties":{"id":31,"area_m2":5200,"px":52,"rank":4},"geometry":{"type":"Polygon","coordinates":[[[-122.74967,45.636933],[-122.74967,45.637023],[-122.749483,45.637023],[-122.749426,45.637046],[-122.749412,45.637202],[-122.749156,45.637202],[-122.749134,45.637038],[-122.7489,45.637021],[-122.748878,45.636947],[-122.748772,45.636931],[-122.748738,45.63685],[-122.748644,45.636841],[-122.748622,45.636676],[-122.748388,45.63666],[-122.748366,45.636586],[-122.748261,45.63657],[-122.748248,45.636504],[-122.748133,45.636479],[-122.748105,45.636402],[-122.748005,45.636389],[-122.747983,45.636225],[-122.747749,45.636208],[-122.747727,45.636134],[-122.747621,45.636118],[-122.747613,45.635967],[-122.747567,45.63594],[-122.747494,45.635938],[-122.747494,45.635758],[-122.747622,45.635758],[-122.74764,45.635829],[-122.74775,45.635849],[-122.747784,45.63593],[-122.747878,45.635939],[-122.747901,45.636013],[-122.748052,45.636052],[-122.748235,45.636017],[-122.748263,45.63594],[-122.748391,45.63594],[-122.748413,45.636104],[-122.748519,45.63612],[-122.748525,45.636177],[-122.748566,45.636206],[-122.748775,45.636211],[-122.748774,45.636481],[-122.748673,45.636485],[-122.748627,45.636526],[-122.748668,45.636645],[-122.748847,45.636659],[-122.748896,45.636628],[-122.748902,45.636571],[-122.74903,45.636571],[-122.74903,45.636661],[-122.748995,45.636709],[-122.749057,45.636829],[-122.749233,45.636853],[-122.74928,45.636822],[-122.749286,45.636752],[-122.749414,45.636752],[-122.749437,45.636827],[-122.749542,45.636843],[-122.749576,45.636924],[-122.74967,45.636933]]]}},{"type":"Feature","properties":{"id":16,"area_m2":3700,"px":37,"rank":5},"geometry":{"type":"Polygon","coordinates":[[[-122.749918,45.639004],[-122.749916,45.639274],[-122.749532,45.639273],[-122.749519,45.639207],[-122.749404,45.639182],[-122.74937,45.639102],[-122.749147,45.639092],[-122.749131,45.638932],[-122.74902,45.638912],[-122.748986,45.638831],[-122.748892,45.638821],[-122.748864,45.638744],[-122.748764,45.638731],[-122.748765,45.638551],[-122.748967,45.638549],[-122.749016,45.638518],[-122.749022,45.638462],[-122.74915,45.638462],[-122.749172,45.638536],[-122.749278,45.638552],[-122.749295,45.638622],[-122.749406,45.638643],[-122.74944,45.638723],[-122.749534,45.638733],[-122.749562,45.638811],[-122.749662,45.638823],[-122.749684,45.638987],[-122.749918,45.639004]]]}},{"type":"Feature","properties":{"id":3,"area_m2":3500,"px":35,"rank":6},"geometry":{"type":"Polygon","coordinates":[[[-122.751701,45.641978],[-122.7517,45.642158],[-122.751594,45.642173],[-122.751571,45.642247],[-122.751443,45.642247],[-122.751421,45.642173],[-122.751315,45.642157],[-122.751302,45.642091],[-122.751187,45.642067],[-122.751159,45.641989],[-122.751059,45.641976],[-122.751043,45.641726],[-122.750932,45.641706],[-122.750915,45.641636],[-122.750804,45.641616],[-122.750787,45.641546],[-122.750676,45.641525],[-122.750664,45.641459],[-122.750548,45.641435],[-122.750515,45.641354],[-122.750292,45.641345],[-122.75028,45.641189],[-122.750165,45.641164],[-122.750131,45.641083],[-122.750037,45.641074],[-122.750038,45.640894],[-122.750166,45.640894],[-122.750188,45.640969],[-122.750294,45.640985],[-122.750316,45.641059],[-122.750422,45.641075],[-122.750444,45.641149],[-122.75055,45.641165],[-122.750572,45.641239],[-122.750677,45.641256],[-122.7507,45.64133],[-122.750805,45.641346],[-122.750828,45.64142],[-122.750933,45.641436],[-122.750951,45.641506],[-122.751061,45.641526],[-122.751095,45.641607],[-122.751189,45.641617],[-122.751217,45.641694],[-122.751317,45.641707],[-122.751345,45.641785],[-122.751445,45.641797],[-122.751473,45.641875],[-122.751573,45.641888],[-122.751601,45.641965],[-122.751701,45.641978]]]}},{"type":"Feature","properties":{"id":15,"area_m2":2100,"px":21,"rank":7},"geometry":{"type":"Polygon","coordinates":[[[-122.758261,45.638392],[-122.75826,45.638481],[-122.758149,45.638501],[-122.758112,45.638605],[-122.758151,45.638655],[-122.758259,45.638662],[-122.758259,45.638751],[-122.758002,45.638751],[-122.757934,45.638727],[-122.757793,45.638755],[-122.757752,45.638784],[-122.757748,45.638982],[-122.757792,45.639016],[-122.757873,45.639021],[-122.757872,45.639111],[-122.757657,45.639117],[-122.757619,45.639149],[-122.757614,45.6392],[-122.757487,45.6392],[-122.757482,45.63913],[-122.757435,45.639099],[-122.757286,45.639112],[-122.757237,45.639143],[-122.757231,45.639199],[-122.757115,45.639223],[-122.757102,45.639289],[-122.756974,45.639289],[-122.756974,45.639199],[-122.757074,45.639187],[-122.757103,45.639109],[-122.757203,45.639097],[-122.757232,45.639019],[-122.757332,45.639007],[-122.75736,45.63893],[-122.757454,45.638921],[-122.757489,45.63884],[-122.7576,45.63882],[-122.757618,45.63866],[-122.757724,45.638645],[-122.757747,45.63857],[-122.757862,45.638547],[-122.757875,45.638481],[-122.758077,45.638479],[-122.758126,45.638448],[-122.758132,45.638391],[-122.758261,45.638392]]]}},{"type":"Feature","properties":{"id":19,"area_m2":1900,"px":19,"rank":8},"geometry":{"type":"Polygon","coordinates":[[[-122.753514,45.638111],[-122.753513,45.638291],[-122.753408,45.638307],[-122.753353,45.638413],[-122.753384,45.638561],[-122.753256,45.638561],[-122.753243,45.638495],[-122.753128,45.63847],[-122.753125,45.638405],[-122.753082,45.638371],[-122.752743,45.63838],[-122.752744,45.63829],[-122.752844,45.638278],[-122.752872,45.6382],[-122.752967,45.638191],[-122.753001,45.63811],[-122.753082,45.638106],[-122.753124,45.638077],[-122.753131,45.637751],[-122.753259,45.637751],[-122.753268,45.637902],[-122.753313,45.637929],[-122.753387,45.637931],[-122.753404,45.638091],[-122.753514,45.638111]]]}},{"type":"Feature","properties":{"id":38,"area_m2":1900,"px":19,"rank":9},"geometry":{"type":"Polygon","coordinates":[[[-122.750443,45.636305],[-122.750442,45.636394],[-122.750227,45.6364],[-122.750189,45.636432],[-122.750185,45.636484],[-122.749929,45.636483],[-122.749912,45.636413],[-122.749801,45.636393],[-122.749767,45.636312],[-122.749673,45.636303],[-122.749645,45.636225],[-122.749545,45.636212],[-122.749517,45.636135],[-122.749289,45.636122],[-122.749276,45.636056],[-122.749161,45.636032],[-122.749155,45.635975],[-122.749114,45.635946],[-122.748905,45.635941],[-122.748883,45.635867],[-122.748777,45.635851],[-122.748777,45.635761],[-122.748906,45.635761],[-122.748911,45.635818],[-122.74896,45.635849],[-122.749162,45.635852],[-122.749174,45.635918],[-122.74929,45.635942],[-122.749324,45.636023],[-122.749546,45.636033],[-122.749552,45.636089],[-122.7496,45.63612],[-122.749802,45.636123],[-122.749808,45.63618],[-122.749849,45.636209],[-122.750187,45.636214],[-122.75019,45.636266],[-122.750227,45.636298],[-122.750443,45.636305]]]}},{"type":"Feature","properties":{"id":23,"area_m2":1800,"px":18,"rank":10},"geometry":{"type":"Polygon","coordinates":[[[-122.752748,45.63739],[-122.752747,45.63757],[-122.752659,45.637576],[-122.75262,45.637613],[-122.752617,45.637839],[-122.752511,45.637855],[-122.752489,45.637929],[-122.75226,45.637941],[-122.752232,45.638018],[-122.752116,45.638042],[-122.752103,45.638108],[-122.751975,45.638108],[-122.751952,45.638034],[-122.751847,45.638018],[-122.751848,45.637838],[-122.752058,45.637847],[-122.752101,45.637813],[-122.752105,45.637748],[-122.752233,45.637749],[-122.752301,45.637773],[-122.752455,45.63774],[-122.752488,45.637706],[-122.752489,45.637613],[-122.752449,45.637575],[-122.752362,45.637569],[-122.752363,45.637389],[-122.752748,45.63739]]]}},{"type":"Feature","properties":{"id":1,"area_m2":1500,"px":15,"rank":11},"geometry":{"type":"Polygon","coordinates":[[[-122.752596,45.6427],[-122.752595,45.64279],[-122.752339,45.642789],[-122.752317,45.642715],[-122.752211,45.642699],[-122.752177,45.642618],[-122.752083,45.642609],[-122.752066,45.642448],[-122.752014,45.642429],[-122.751827,45.642428],[-122.751805,45.642354],[-122.751699,45.642338],[-122.7517,45.642248],[-122.752085,45.642249],[-122.752107,45.642323],[-122.752212,45.642339],[-122.752225,45.642405],[-122.75234,45.642429],[-122.752368,45.642507],[-122.752468,45.64252],[-122.752485,45.64268],[-122.752596,45.6427]]]}},{"type":"Feature","properties":{"id":9,"area_m2":1500,"px":15,"rank":12},"geometry":{"type":"Polygon","coordinates":[[[-122.755427,45.640816],[-122.755426,45.640996],[-122.755298,45.640995],[-122.755281,45.640835],[-122.755229,45.640816],[-122.755042,45.640815],[-122.75502,45.640741],[-122.754914,45.640725],[-122.754897,45.640654],[-122.754787,45.640634],[-122.754753,45.640553],[-122.754659,45.640544],[-122.754631,45.640466],[-122.754531,45.640454],[-122.754503,45.640376],[-122.754403,45.640363],[-122.754403,45.640274],[-122.75466,45.640274],[-122.754672,45.64034],[-122.754788,45.640364],[-122.754821,45.640445],[-122.755044,45.640455],[-122.755061,45.640615],[-122.755171,45.640635],[-122.755205,45.640716],[-122.755299,45.640725],[-122.755327,45.640803],[-122.755427,45.640816]]]}},{"type":"Feature","properties":{"id":18,"area_m2":1500,"px":15,"rank":13},"geometry":{"type":"Polygon","coordinates":[[[-122.75967,45.638755],[-122.75967,45.638934],[-122.759542,45.638934],[-122.759525,45.638774],[-122.759473,45.638754],[-122.759286,45.638754],[-122.759306,45.63863],[-122.759284,45.63859],[-122.759158,45.638573],[-122.759152,45.638517],[-122.759111,45.638487],[-122.758902,45.638483],[-122.75888,45.638409],[-122.758774,45.638393],[-122.758757,45.638322],[-122.758646,45.638302],[-122.758612,45.638221],[-122.758518,45.638212],[-122.75849,45.638134],[-122.75839,45.638122],[-122.758391,45.638032],[-122.758519,45.638032],[-122.758531,45.638098],[-122.758647,45.638122],[-122.75865,45.638174],[-122.758687,45.638206],[-122.758903,45.638213],[-122.75892,45.638283],[-122.759031,45.638303],[-122.759044,45.638369],[-122.759159,45.638393],[-122.759193,45.638474],[-122.759415,45.638484],[-122.759437,45.638558],[-122.759543,45.638574],[-122.759555,45.63873],[-122.75967,45.638755]]]}},{"type":"Feature","properties":{"id":13,"area_m2":1400,"px":14,"rank":14},"geometry":{"type":"Polygon","coordinates":[[[-122.74953,45.639543],[-122.749529,45.639813],[-122.749435,45.639822],[-122.749401,45.639867],[-122.749413,45.639969],[-122.749528,45.639993],[-122.749528,45.640083],[-122.749422,45.640098],[-122.749399,45.640173],[-122.749271,45.640172],[-122.749249,45.640098],[-122.749143,45.640082],[-122.749144,45.639812],[-122.749225,45.639808],[-122.749269,45.639774],[-122.749274,45.639542],[-122.74953,45.639543]]]}},{"type":"Feature","properties":{"id":40,"area_m2":1400,"px":14,"rank":15},"geometry":{"type":"Polygon","coordinates":[[[-122.754424,45.635503],[-122.754423,45.635593],[-122.754167,45.635592],[-122.754164,45.635541],[-122.754127,45.635509],[-122.753911,45.635502],[-122.753877,45.635421],[-122.753724,45.635412],[-122.753658,45.63545],[-122.753654,45.635591],[-122.753525,45.635591],[-122.753503,45.635517],[-122.753397,45.635499],[-122.753398,45.635411],[-122.753492,45.635409],[-122.753541,45.635376],[-122.753523,45.635269],[-122.753479,45.635235],[-122.753399,45.635231],[-122.753365,45.63515],[-122.753271,45.63514],[-122.753271,45.635051],[-122.753399,45.635051],[-122.753412,45.635117],[-122.753527,45.635141],[-122.75353,45.635193],[-122.753568,45.635225],[-122.753783,45.635232],[-122.753789,45.635288],[-122.753838,45.635319],[-122.75404,45.635322],[-122.754052,45.635388],[-122.754168,45.635413],[-122.754171,45.635464],[-122.754208,45.635496],[-122.754424,45.635503]]]}},{"type":"Feature","properties":{"id":20,"area_m2":1100,"px":11,"rank":16},"geometry":{"type":"Polygon","coordinates":[[[-122.748381,45.63819],[-122.748381,45.63837],[-122.748165,45.638376],[-122.748127,45.638408],[-122.748124,45.63846],[-122.747995,45.638459],[-122.747973,45.638385],[-122.747868,45.638369],[-122.747868,45.638189],[-122.747974,45.638173],[-122.747997,45.638099],[-122.748254,45.6381],[-122.748276,45.638174],[-122.748381,45.63819]]]}},{"type":"Feature","properties":{"id":4,"area_m2":1000,"px":10,"rank":17},"geometry":{"type":"Polygon","coordinates":[[[-122.753755,45.641712],[-122.753755,45.641802],[-122.753628,45.641802],[-122.753623,45.64175],[-122.753586,45.641718],[-122.75337,45.641711],[-122.753358,45.641555],[-122.753243,45.641531],[-122.753237,45.641474],[-122.753196,45.641445],[-122.752987,45.64144],[-122.752978,45.641289],[-122.752933,45.641263],[-122.752859,45.64126],[-122.752825,45.641179],[-122.752731,45.64117],[-122.752731,45.64108],[-122.75286,45.64108],[-122.752882,45.641154],[-122.752988,45.641171],[-122.753005,45.641241],[-122.753115,45.641261],[-122.753149,45.641342],[-122.753243,45.641351],[-122.753271,45.641429],[-122.753371,45.641441],[-122.753399,45.641519],[-122.753499,45.641532],[-122.753527,45.641609],[-122.753627,45.641622],[-122.753655,45.6417],[-122.753755,45.641712]]]}},{"type":"Feature","properties":{"id":28,"area_m2":1000,"px":10,"rank":18},"geometry":{"type":"Polygon","coordinates":[[[-122.752365,45.636759],[-122.752364,45.637119],[-122.752283,45.637123],[-122.752239,45.637157],[-122.752234,45.637388],[-122.752106,45.637388],[-122.752109,45.636848],[-122.752214,45.636833],[-122.752237,45.636758],[-122.752365,45.636759]]]}},{"type":"Feature","properties":{"id":44,"area_m2":900,"px":9,"rank":19},"geometry":{"type":"Polygon","coordinates":[[[-122.744548,45.634671],[-122.744547,45.634941],[-122.744162,45.63494],[-122.744163,45.63467],[-122.744548,45.634671]]]}},{"type":"Feature","properties":{"id":45,"area_m2":900,"px":9,"rank":20},"geometry":{"type":"Polygon","coordinates":[[[-122.745066,45.633592],[-122.745065,45.633862],[-122.74468,45.633861],[-122.744681,45.633772],[-122.744715,45.633729],[-122.744681,45.633681],[-122.744682,45.633502],[-122.74481,45.633502],[-122.744816,45.633558],[-122.744864,45.63359],[-122.745066,45.633592]]]}},{"type":"Feature","properties":{"id":10,"area_m2":800,"px":8,"rank":21},"geometry":{"type":"Polygon","coordinates":[[[-122.752476,45.640809],[-122.752475,45.640899],[-122.752347,45.640899],[-122.752335,45.640833],[-122.752219,45.640809],[-122.752185,45.640728],[-122.751963,45.640718],[-122.751941,45.640644],[-122.751835,45.640628],[-122.751836,45.640448],[-122.752092,45.640449],[-122.752109,45.640609],[-122.75222,45.640629],[-122.752254,45.64071],[-122.752348,45.640719],[-122.752376,45.640797],[-122.752476,45.640809]]]}},{"type":"Feature","properties":{"id":22,"area_m2":800,"px":8,"rank":22},"geometry":{"type":"Polygon","coordinates":[[[-122.750178,45.638194],[-122.750177,45.638284],[-122.749921,45.638283],[-122.749899,45.638209],[-122.749793,45.638193],[-122.74978,45.638127],[-122.749665,45.638103],[-122.749637,45.638025],[-122.749537,45.638013],[-122.749538,45.637923],[-122.749922,45.637924],[-122.749934,45.63817],[-122.749991,45.638193],[-122.750178,45.638194]]]}},{"type":"Feature","properties":{"id":29,"area_m2":800,"px":8,"rank":23},"geometry":{"type":"Polygon","coordinates":[[[-122.749027,45.637202],[-122.749027,45.637381],[-122.748898,45.637381],[-122.748876,45.637307],[-122.748771,45.637291],[-122.748749,45.637127],[-122.748643,45.637111],[-122.748637,45.637054],[-122.748596,45.637025],[-122.748387,45.63702],[-122.748388,45.63684],[-122.748516,45.63684],[-122.748538,45.636915],[-122.748644,45.636931],[-122.748661,45.637001],[-122.748772,45.637021],[-122.748806,45.637102],[-122.748899,45.637111],[-122.748927,45.637189],[-122.749027,45.637202]]]}},{"type":"Feature","properties":{"id":39,"area_m2":800,"px":8,"rank":24},"geometry":{"type":"Polygon","coordinates":[[[-122.746338,45.636115],[-122.746337,45.636295],[-122.745952,45.636295],[-122.745953,45.636025],[-122.74621,45.636025],[-122.746232,45.636099],[-122.746338,45.636115]]]}},{"type":"Feature","properties":{"id":41,"area_m2":800,"px":8,"rank":25},"geometry":{"type":"Polygon","coordinates":[[[-122.745315,45.635393],[-122.745314,45.635483],[-122.745208,45.635499],[-122.745186,45.635573],[-122.745057,45.635572],[-122.745035,45.635498],[-122.744929,45.635482],[-122.744927,45.635341],[-122.744883,45.635306],[-122.744802,45.635302],[-122.744802,45.635212],[-122.745059,45.635213],[-122.745081,45.635287],[-122.745187,45.635303],[-122.745221,45.635384],[-122.745315,45.635393]]]}},{"type":"Feature","properties":{"id":42,"area_m2":800,"px":8,"rank":26},"geometry":{"type":"Polygon","coordinates":[[[-122.749036,45.635221],[-122.749036,45.635311],[-122.748825,45.635288],[-122.748673,45.635326],[-122.748651,45.6354],[-122.748522,45.6354],[-122.748524,45.63504],[-122.748652,45.63504],[-122.748658,45.635097],[-122.748706,45.635128],[-122.748908,45.635131],[-122.748931,45.635205],[-122.749036,45.635221]]]}},{"type":"Feature","properties":{"id":8,"area_m2":700,"px":7,"rank":27},"geometry":{"type":"Polygon","coordinates":[[[-122.750935,45.640986],[-122.750935,45.641076],[-122.75068,45.641075],[-122.750656,45.641001],[-122.75055,45.640985],[-122.750542,45.640834],[-122.750497,45.640807],[-122.750423,45.640805],[-122.750424,45.640625],[-122.750552,45.640625],[-122.750569,45.640785],[-122.750679,45.640806],[-122.750713,45.640886],[-122.750807,45.640896],[-122.750835,45.640974],[-122.750935,45.640986]]]}},{"type":"Feature","properties":{"id":17,"area_m2":700,"px":7,"rank":28},"geometry":{"type":"Polygon","coordinates":[[[-122.748507,45.638821],[-122.748506,45.639],[-122.748378,45.639],[-122.748317,45.638976],[-122.74825,45.639],[-122.748121,45.639],[-122.748123,45.63873],[-122.748379,45.63873],[-122.748401,45.638804],[-122.748507,45.638821]]]}},{"type":"Feature","properties":{"id":5,"area_m2":600,"px":6,"rank":29},"geometry":{"type":"Polygon","coordinates":[[[-122.753628,45.641352],[-122.753628,45.641442],[-122.7535,45.641442],[-122.753477,45.641367],[-122.753372,45.641351],[-122.753359,45.641285],[-122.753244,45.641261],[-122.753216,45.641183],[-122.753116,45.641171],[-122.753113,45.641029],[-122.753069,45.640995],[-122.752989,45.64099],[-122.752989,45.640901],[-122.753117,45.640901],[-122.753139,45.640975],[-122.753245,45.640991],[-122.753262,45.641151],[-122.753372,45.641171],[-122.753406,45.641252],[-122.7535,45.641262],[-122.753528,45.641339],[-122.753628,45.641352]]]}},{"type":"Feature","properties":{"id":12,"area_m2":600,"px":6,"rank":30},"geometry":{"type":"Polygon","coordinates":[[[-122.750426,45.640175],[-122.750425,45.640265],[-122.750319,45.64028],[-122.750296,45.640355],[-122.750168,45.640354],[-122.750146,45.64028],[-122.75004,45.640264],[-122.750041,45.640084],[-122.750298,45.640085],[-122.75032,45.640159],[-122.750426,45.640175]]]}},{"type":"Feature","properties":{"id":24,"area_m2":600,"px":6,"rank":31},"geometry":{"type":"Polygon","coordinates":[[[-122.747357,45.637738],[-122.747355,45.638098],[-122.747099,45.638097],[-122.7471,45.637917],[-122.747173,45.637915],[-122.747219,45.637889],[-122.747229,45.637738],[-122.747357,45.637738]]]}},{"type":"Feature","properties":{"id":33,"area_m2":600,"px":6,"rank":32},"geometry":{"type":"Polygon","coordinates":[[[-122.750184,45.636754],[-122.750183,45.637024],[-122.749798,45.637023],[-122.749799,45.636933],[-122.749904,45.636918],[-122.749927,45.636843],[-122.750043,45.63682],[-122.750056,45.636754],[-122.750184,45.636754]]]}},{"type":"Feature","properties":{"id":43,"area_m2":600,"px":6,"rank":33},"geometry":{"type":"Polygon","coordinates":[[[-122.743905,45.63512],[-122.743903,45.63539],[-122.743775,45.63539],[-122.743753,45.635315],[-122.743647,45.635299],[-122.743648,45.635029],[-122.743777,45.63503],[-122.743799,45.635104],[-122.743905,45.63512]]]}},{"type":"Feature","properties":{"id":14,"area_m2":500,"px":5,"rank":34},"geometry":{"type":"Polygon","coordinates":[[[-122.748889,45.639451],[-122.748888,45.639631],[-122.748632,45.639631],[-122.748609,45.639557],[-122.748504,45.63954],[-122.748504,45.639451],[-122.748889,45.639451]]]}},{"type":"Feature","properties":{"id":25,"area_m2":500,"px":5,"rank":35},"geometry":{"type":"Polygon","coordinates":[[[-122.7548,45.637574],[-122.754799,45.637664],[-122.754694,45.63768],[-122.754671,45.637754],[-122.754414,45.637753],[-122.754415,45.637573],[-122.7548,45.637574]]]}},{"type":"Feature","properties":{"id":26,"area_m2":500,"px":5,"rank":36},"geometry":{"type":"Polygon","coordinates":[[[-122.746716,45.637556],[-122.746715,45.637736],[-122.746459,45.637736],[-122.74646,45.637466],[-122.746588,45.637466],[-122.746611,45.63754],[-122.746716,45.637556]]]}},{"type":"Feature","properties":{"id":7,"area_m2":400,"px":4,"rank":37},"geometry":{"type":"Polygon","coordinates":[[[-122.761329,45.641008],[-122.761328,45.641188],[-122.761072,45.641188],[-122.761072,45.641008],[-122.761329,45.641008]]]}},{"type":"Feature","properties":{"id":27,"area_m2":400,"px":4,"rank":38},"geometry":{"type":"Polygon","coordinates":[[[-122.747359,45.637378],[-122.747358,45.637468],[-122.74723,45.637467],[-122.747208,45.637393],[-122.747102,45.637377],[-122.747068,45.637296],[-122.746974,45.637287],[-122.746975,45.637197],[-122.747231,45.637198],[-122.74724,45.637349],[-122.747285,45.637375],[-122.747359,45.637378]]]}},{"type":"Feature","properties":{"id":30,"area_m2":400,"px":4,"rank":39},"geometry":{"type":"Polygon","coordinates":[[[-122.751851,45.637028],[-122.75185,45.637208],[-122.751722,45.637207],[-122.7517,45.637133],[-122.751594,45.637117],[-122.751595,45.636937],[-122.751723,45.636937],[-122.751745,45.637012],[-122.751851,45.637028]]]}},{"type":"Feature","properties":{"id":34,"area_m2":400,"px":4,"rank":40},"geometry":{"type":"Polygon","coordinates":[[[-122.751981,45.636668],[-122.75198,45.636848],[-122.751852,45.636848],[-122.751843,45.636696],[-122.751798,45.63667],[-122.751724,45.636667],[-122.751725,45.636487],[-122.751853,45.636488],[-122.751862,45.636639],[-122.751907,45.636665],[-122.751981,45.636668]]]}},{"type":"Feature","properties":{"id":37,"area_m2":400,"px":4,"rank":41},"geometry":{"type":"Polygon","coordinates":[[[-122.748004,45.636479],[-122.748004,45.636569],[-122.747747,45.636569],[-122.747749,45.636299],[-122.747877,45.636299],[-122.747885,45.63645],[-122.747931,45.636477],[-122.748004,45.636479]]]}},{"type":"Feature","properties":{"id":46,"area_m2":400,"px":4,"rank":42},"geometry":{"type":"Polygon","coordinates":[[[-122.745453,45.633233],[-122.745452,45.633413],[-122.745195,45.633413],[-122.745196,45.633233],[-122.745453,45.633233]]]}},{"type":"Feature","properties":{"id":48,"area_m2":400,"px":4,"rank":43},"geometry":{"type":"Polygon","coordinates":[[[-122.739449,45.627549],[-122.739448,45.627729],[-122.73932,45.627729],[-122.739312,45.627577],[-122.739266,45.627551],[-122.739193,45.627548],[-122.739193,45.627368],[-122.739321,45.627369],[-122.73933,45.62752],[-122.739375,45.627547],[-122.739449,45.627549]]]}},{"type":"Feature","properties":{"id":21,"area_m2":300,"px":3,"rank":44},"geometry":{"type":"Polygon","coordinates":[[[-122.751846,45.638108],[-122.751845,45.638288],[-122.75174,45.638303],[-122.751717,45.638377],[-122.751589,45.638377],[-122.751589,45.638287],[-122.75167,45.638283],[-122.751714,45.638249],[-122.751718,45.638108],[-122.751846,45.638108]]]}},{"type":"Feature","properties":{"id":32,"area_m2":300,"px":3,"rank":45},"geometry":{"type":"Polygon","coordinates":[[[-122.754802,45.636944],[-122.754802,45.637034],[-122.754417,45.637033],[-122.754418,45.636943],[-122.754802,45.636944]]]}},{"type":"Feature","properties":{"id":35,"area_m2":300,"px":3,"rank":46},"geometry":{"type":"Polygon","coordinates":[[[-122.751597,45.636487],[-122.751596,45.636577],[-122.751516,45.636581],[-122.751471,45.636615],[-122.751467,45.636757],[-122.751339,45.636756],[-122.75134,45.636577],[-122.751446,45.636561],[-122.751469,45.636487],[-122.751597,45.636487]]]}},{"type":"Feature","properties":{"id":36,"area_m2":300,"px":3,"rank":47},"geometry":{"type":"Polygon","coordinates":[[[-122.755574,45.636496],[-122.755574,45.636586],[-122.755317,45.636585],[-122.755318,45.636405],[-122.755446,45.636405],[-122.755469,45.63648],[-122.755574,45.636496]]]}},{"type":"Feature","properties":{"id":47,"area_m2":300,"px":3,"rank":48},"geometry":{"type":"Polygon","coordinates":[[[-122.744685,45.632871],[-122.744684,45.632961],[-122.744428,45.632961],[-122.744429,45.632781],[-122.744557,45.632781],[-122.744579,45.632855],[-122.744685,45.632871]]]}},{"type":"Feature","properties":{"id":49,"area_m2":300,"px":3,"rank":49},"geometry":{"type":"Polygon","coordinates":[[[-122.735351,45.6261],[-122.73535,45.626189],[-122.735222,45.626189],[-122.7352,45.626115],[-122.735094,45.626099],[-122.73506,45.626018],[-122.734966,45.626009],[-122.734967,45.625919],[-122.735095,45.625919],[-122.735117,45.625993],[-122.735223,45.626009],[-122.735257,45.62609],[-122.735351,45.6261]]]}}]}