{"type":"FeatureCollection","features":[{"type":"Feature","properties":{"id":1,"area_m2":5600,"px":56,"rank":1},"geometry":{"type":"Polygon","coordinates":[[[-122.75004,45.640354],[-122.750039,45.640624],[-122.749911,45.640624],[-122.749898,45.640468],[-122.749842,45.640444],[-122.749655,45.640443],[-122.749632,45.640369],[-122.749527,45.640353],[-122.749521,45.640206],[-122.74948,45.640177],[-122.749399,45.640173],[-122.749365,45.640092],[-122.749271,45.640082],[-122.749249,45.639918],[-122.748887,45.639901],[-122.748884,45.63976],[-122.74884,45.639725],[-122.74876,45.639721],[-122.748743,45.639561],[-122.748691,45.639541],[-122.748504,45.63954],[-122.748482,45.639466],[-122.748376,45.63945],[-122.748342,45.639369],[-122.748248,45.63936],[-122.748248,45.63927],[-122.74835,45.639266],[-122.748396,45.639225],[-122.748378,45.63891],[-122.748635,45.638911],[-122.748647,45.639067],[-122.748762,45.639091],[-122.748796,45.639172],[-122.74889,45.639181],[-122.748889,45.639361],[-122.748796,45.639364],[-122.748753,45.639386],[-122.748762,45.639498],[-122.748801,45.639535],[-122.748889,45.639541],[-122.748917,45.639619],[-122.749017,45.639632],[-122.749039,45.639706],[-122.749227,45.639745],[-122.749379,45.639707],[-122.749402,45.639633],[-122.74953,45.639633],[-122.749552,45.639707],[-122.749658,45.639723],[-122.749692,45.639804],[-122.749786,45.639813],[-122.749794,45.639965],[-122.74984,45.639991],[-122.749913,45.639995],[-122.749913,45.640084],[-122.749819,45.640086],[-122.74977,45.640118],[-122.749787,45.640225],[-122.749831,45.640259],[-122.749912,45.640264],[-122.749946,45.640345],[-122.75004,45.640354]]]}},{"type":"Feature","properties":{"id":20,"area_m2":5600,"px":56,"rank":2},"geometry":{"type":"Polygon","coordinates":[[[-122.747624,45.635398],[-122.747623,45.635578],[-122.747389,45.635594],[-122.747366,45.635758],[-122.74715,45.635764],[-122.747112,45.635795],[-122.747109,45.635847],[-122.746994,45.635871],[-122.74698,45.635937],[-122.746852,45.635936],[-122.746853,45.635757],[-122.746947,45.635754],[-122.746989,45.635732],[-122.746976,45.63561],[-122.746934,45.635581],[-122.746854,45.635576],[-122.74682,45.635496],[-122.746726,45.635486],[-122.746698,45.635408],[-122.746598,45.635396],[-122.74657,45.635318],[-122.74647,45.635306],[-122.746442,45.635228],[-122.746342,45.635215],[-122.746339,45.635074],[-122.746295,45.635039],[-122.746215,45.635035],[-122.746215,45.634945],[-122.74647,45.634929],[-122.746491,45.63489],[-122.746472,45.634766],[-122.746729,45.634766],[-122.746751,45.63484],[-122.746857,45.634857],[-122.746874,45.634927],[-122.746985,45.634947],[-122.747019,45.635028],[-122.747112,45.635037],[-122.74714,45.635115],[-122.74724,45.635127],[-122.747268,45.635205],[-122.747368,45.635218],[-122.74739,45.635382],[-122.747624,45.635398]]]}},{"type":"Feature","properties":{"id":25,"area_m2":4200,"px":42,"rank":3},"geometry":{"type":"Polygon","coordinates":[[[-122.746473,45.634586],[-122.746473,45.634676],[-122.746286,45.634675],[-122.746229,45.634699],[-122.746215,45.634855],[-122.745959,45.634854],[-122.745936,45.63478],[-122.745831,45.634764],[-122.745814,45.634694],[-122.745703,45.634674],[-122.745669,45.634593],[-122.745575,45.634584],[-122.745547,45.634506],[-122.745447,45.634493],[-122.745419,45.634415],[-122.745319,45.634403],[-122.745291,45.634325],[-122.745191,45.634313],[-122.745164,45.634235],[-122.745063,45.634222],[-122.745064,45.634042],[-122.745192,45.634043],[-122.745198,45.634099],[-122.745247,45.63413],[-122.745502,45.634147],[-122.745568,45.634118],[-122.745578,45.634044],[-122.745706,45.634044],[-122.745728,45.634118],[-122.745834,45.634134],[-122.745851,45.634204],[-122.745961,45.634224],[-122.745995,45.634305],[-122.746089,45.634315],[-122.746117,45.634392],[-122.746217,45.634405],[-122.746245,45.634483],[-122.746345,45.634495],[-122.746373,45.634573],[-122.746473,45.634586]]]}},{"type":"Feature","properties":{"id":15,"area_m2":2900,"px":29,"rank":4},"geometry":{"type":"Polygon","coordinates":[[[-122.74595,45.636655],[-122.74595,45.636745],[-122.745565,45.636744],[-122.745543,45.63658],[-122.745309,45.636563],[-122.745287,45.636489],[-122.745182,45.636473],[-122.745169,45.636407],[-122.745054,45.636383],[-122.745026,45.636305],[-122.744926,45.636292],[-122.744928,45.635842],[-122.745056,45.635843],[-122.745078,45.635917],[-122.745184,45.635933],[-122.745184,45.636064],[-122.745211,45.636101],[-122.74544,45.636113],[-122.745452,45.636269],[-122.745567,45.636294],[-122.745601,45.636375],[-122.745695,45.636384],[-122.745717,45.636548],[-122.745823,45.636564],[-122.745856,45.636645],[-122.74595,45.636655]]]}},{"type":"Feature","properties":{"id":5,"area_m2":1700,"px":17,"rank":5},"geometry":{"type":"Polygon","coordinates":[[[-122.748381,45.63819],[-122.748381,45.63828],[-122.748275,45.638296],[-122.748252,45.63837],[-122.748137,45.638394],[-122.748124,45.63846],[-122.747995,45.638459],[-122.747973,45.638385],[-122.747868,45.638369],[-122.747834,45.638288],[-122.74774,45.638279],[-122.747737,45.638137],[-122.747693,45.638103],[-122.747612,45.638098],[-122.747613,45.638009],[-122.748126,45.63801],[-122.748148,45.638084],[-122.748254,45.6381],[-122.748287,45.638181],[-122.748381,45.63819]]]}},{"type":"Feature","properties":{"id":13,"area_m2":1500,"px":15,"rank":6},"geometry":{"type":"Polygon","coordinates":[[[-122.746591,45.636926],[-122.74659,45.637016],[-122.74651,45.63702],[-122.746465,45.637054],[-122.746461,45.637196],[-122.746333,45.637195],[-122.74632,45.637129],[-122.746256,45.637105],[-122.746111,45.637114],[-122.746076,45.637195],[-122.74582,45.637194],[-122.745798,45.63712],[-122.745692,45.637104],[-122.745692,45.637014],[-122.746003,45.637029],[-122.74606,45.637008],[-122.746079,45.636745],[-122.746207,45.636745],[-122.746219,45.636811],[-122.746335,45.636836],[-122.746338,45.636887],[-122.746375,45.636919],[-122.746591,45.636926]]]}},{"type":"Feature","properties":{"id":27,"area_m2":1100,"px":11,"rank":7},"geometry":{"type":"Polygon","coordinates":[[[-122.745066,45.633682],[-122.745065,45.633952],[-122.744808,45.633952],[-122.744786,45.633878],[-122.74468,45.633861],[-122.744668,45.633705],[-122.744553,45.633681],[-122.744554,45.633501],[-122.744682,45.633502],[-122.744687,45.633572],[-122.744734,45.633603],[-122.744938,45.633592],[-122.74496,45.633666],[-122.745066,45.633682]]]}},{"type":"Feature","properties":{"id":17,"area_m2":1000,"px":10,"rank":8},"geometry":{"type":"Polygon","coordinates":[[[-122.750314,45.636304],[-122.750314,45.636394],[-122.750208,45.63641],[-122.750185,45.636484],[-122.749801,45.636483],[-122.749779,45.636319],[-122.749545,45.636302],[-122.749546,45.636123],[-122.749674,45.636123],[-122.749687,45.636189],[-122.749802,45.636213],[-122.749807,45.63627],[-122.749856,45.636301],[-122.750314,45.636304]]]}},{"type":"Feature","properties":{"id":19,"area_m2":1000,"px":10,"rank":9},"geometry":{"type":"Polygon","coordinates":[[[-122.745954,45.635935],[-122.745953,45.636024],[-122.745825,45.636024],[-122.745812,45.635958],[-122.745697,45.635934],[-122.745694,45.635882],[-122.745657,45.63585],[-122.745313,45.635843],[-122.745314,45.635573],[-122.74557,45.635574],[-122.745587,45.635734],[-122.745639,45.635754],[-122.745826,45.635754],[-122.745835,45.635906],[-122.74588,45.635932],[-122.745954,45.635935]]]}},{"type":"Feature","properties":{"id":11,"area_m2":900,"px":9,"rank":10},"geometry":{"type":"Polygon","coordinates":[[[-122.752493,45.636849],[-122.752492,45.637029],[-122.752398,45.637038],[-122.752364,45.637119],[-122.752248,45.637142],[-122.752235,45.637298],[-122.751978,45.637298],[-122.751979,45.637208],[-122.752066,45.637202],[-122.752106,45.637165],[-122.752108,45.636938],[-122.75231,45.636936],[-122.752359,45.636905],[-122.752365,45.636849],[-122.752493,45.636849]]]}},{"type":"Feature","properties":{"id":7,"area_m2":800,"px":8,"rank":11},"geometry":{"type":"Polygon","coordinates":[[[-122.752618,45.637749],[-122.752617,45.637839],[-122.752511,45.637855],[-122.752489,45.637929],[-122.752301,45.637929],[-122.752249,45.637948],[-122.752231,45.638108],[-122.752125,45.638124],[-122.752102,45.638198],[-122.751987,45.638222],[-122.751974,45.638288],[-122.751846,45.638288],[-122.751846,45.638198],[-122.751927,45.638194],[-122.751971,45.63816],[-122.751975,45.638018],[-122.752081,45.638002],[-122.752104,45.637928],[-122.752219,45.637905],[-122.752232,45.637839],[-122.752434,45.637837],[-122.752483,45.637806],[-122.75249,45.637749],[-122.752618,45.637749]]]}},{"type":"Feature","properties":{"id":6,"area_m2":600,"px":6,"rank":12},"geometry":{"type":"Polygon","coordinates":[[[-122.747611,45.638279],[-122.747611,45.638368],[-122.747483,45.638368],[-122.74746,45.638294],[-122.747355,45.638278],[-122.747342,45.638212],[-122.747227,45.638188],[-122.747199,45.63811],[-122.747099,45.638097],[-122.747099,45.638007],[-122.747356,45.638008],[-122.747378,45.638082],[-122.747484,45.638098],[-122.747496,45.638254],[-122.747611,45.638279]]]}},{"type":"Feature","properties":{"id":8,"area_m2":600,"px":6,"rank":13},"geometry":{"type":"Polygon","coordinates":[[[-122.745945,45.637915],[-122.745944,45.638005],[-122.745688,45.638004],[-122.745666,45.63793],[-122.74556,45.637914],[-122.745526,45.637833],[-122.745432,45.637824],[-122.745433,45.637734],[-122.745689,45.637734],[-122.745711,45.637808],[-122.745817,45.637825],[-122.745851,45.637905],[-122.745945,45.637915]]]}},{"type":"Feature","properties":{"id":24,"area_m2":600,"px":6,"rank":14},"geometry":{"type":"Polygon","coordinates":[[[-122.744547,45.634851],[-122.744546,45.635031],[-122.74429,45.635031],[-122.744268,45.634957],[-122.744162,45.63494],[-122.744163,45.634851],[-122.744268,45.634835],[-122.744291,45.634761],[-122.744419,45.634761],[-122.744442,45.634835],[-122.744547,45.634851]]]}},{"type":"Feature","properties":{"id":26,"area_m2":600,"px":6,"rank":15},"geometry":{"type":"Polygon","coordinates":[[[-122.745447,45.634583],[-122.745446,45.634763],[-122.745318,45.634763],[-122.745295,45.634689],[-122.74519,45.634673],[-122.745156,45.634592],[-122.745062,45.634582],[-122.745063,45.634402],[-122.745191,45.634403],[-122.745213,45.634477],[-122.745319,45.634493],[-122.745353,45.634574],[-122.745447,45.634583]]]}},{"type":"Feature","properties":{"id":3,"area_m2":500,"px":5,"rank":16},"geometry":{"type":"Polygon","coordinates":[[[-122.752102,45.638378],[-122.752101,45.638558],[-122.751995,45.638574],[-122.751972,45.638648],[-122.751716,45.638647],[-122.751716,45.638558],[-122.751822,45.638542],[-122.751845,45.638468],[-122.75196,45.638444],[-122.751973,45.638378],[-122.752102,45.638378]]]}},{"type":"Feature","properties":{"id":4,"area_m2":500,"px":5,"rank":17},"geometry":{"type":"Polygon","coordinates":[[[-122.753256,45.638381],[-122.753256,45.638471],[-122.75315,45.638486],[-122.753127,45.63856],[-122.752999,45.63856],[-122.752977,45.638486],[-122.752871,45.63847],[-122.752872,45.63838],[-122.752977,45.638364],[-122.753,45.63829],[-122.753129,45.638291],[-122.753151,45.638365],[-122.753256,45.638381]]]}},{"type":"Feature","properties":{"id":18,"area_m2":500,"px":5,"rank":18},"geometry":{"type":"Polygon","coordinates":[[[-122.744285,45.636111],[-122.744284,45.636291],[-122.744156,45.636291],[-122.744151,45.63622],[-122.744104,45.636189],[-122.7439,45.6362],[-122.7439,45.63611],[-122.743981,45.636106],[-122.744025,45.636072],[-122.744029,45.63593],[-122.744157,45.635931],[-122.744166,45.636082],[-122.744211,45.636108],[-122.744285,45.636111]]]}},{"type":"Feature","properties":{"id":21,"area_m2":500,"px":5,"rank":19},"geometry":{"type":"Polygon","coordinates":[[[-122.744801,45.635572],[-122.7448,45.635662],[-122.744694,45.635678],[-122.744671,45.635752],[-122.744543,45.635751],[-122.744521,45.635677],[-122.744415,45.635661],[-122.744416,45.635481],[-122.744544,45.635481],[-122.74455,45.635538],[-122.744599,45.635569],[-122.744801,45.635572]]]}},{"type":"Feature","properties":{"id":22,"area_m2":500,"px":5,"rank":20},"geometry":{"type":"Polygon","coordinates":[[[-122.746341,45.635305],[-122.746341,45.635395],[-122.746213,45.635395],[-122.746191,45.635321],[-122.746085,45.635305],[-122.746051,45.635224],[-122.745957,45.635214],[-122.745958,45.635035],[-122.746086,45.635035],[-122.746108,45.635109],[-122.746214,45.635125],[-122.746222,45.635277],[-122.746268,45.635303],[-122.746341,45.635305]]]}},{"type":"Feature","properties":{"id":2,"area_m2":400,"px":4,"rank":21},"geometry":{"type":"Polygon","coordinates":[[[-122.750298,45.640085],[-122.750297,45.640265],[-122.750169,45.640264],[-122.750146,45.64019],[-122.750041,45.640174],[-122.750042,45.639994],[-122.75017,45.639994],[-122.750192,45.640069],[-122.750298,45.640085]]]}},{"type":"Feature","properties":{"id":9,"area_m2":400,"px":4,"rank":22},"geometry":{"type":"Polygon","coordinates":[[[-122.746716,45.637556],[-122.746715,45.637736],[-122.746459,45.637736],[-122.74646,45.637556],[-122.746716,45.637556]]]}},{"type":"Feature","properties":{"id":10,"area_m2":400,"px":4,"rank":23},"geometry":{"type":"Polygon","coordinates":[[[-122.753646,45.637392],[-122.753645,45.637481],[-122.75354,45.637497],[-122.753517,45.637571],[-122.753388,45.637571],[-122.753366,45.637497],[-122.753261,45.637481],[-122.753261,45.637391],[-122.753646,45.637392]]]}},{"type":"Feature","properties":{"id":14,"area_m2":400,"px":4,"rank":24},"geometry":{"type":"Polygon","coordinates":[[[-122.754931,45.636944],[-122.75493,45.637034],[-122.754546,45.637033],[-122.754546,45.636943],[-122.754652,45.636928],[-122.754675,45.636854],[-122.754803,45.636854],[-122.754825,45.636928],[-122.754931,45.636944]]]}},{"type":"Feature","properties":{"id":16,"area_m2":400,"px":4,"rank":25},"geometry":{"type":"Polygon","coordinates":[[[-122.744925,45.636472],[-122.744924,45.636652],[-122.744818,45.636668],[-122.744795,45.636742],[-122.744667,45.636742],[-122.744668,45.636562],[-122.744774,45.636546],[-122.744797,45.636472],[-122.744925,45.636472]]]}},{"type":"Feature","properties":{"id":23,"area_m2":400,"px":4,"rank":26},"geometry":{"type":"Polygon","coordinates":[[[-122.744289,45.635211],[-122.744289,45.635301],[-122.743776,45.6353],[-122.743776,45.63521],[-122.744289,45.635211]]]}},{"type":"Feature","properties":{"id":12,"area_m2":300,"px":3,"rank":27},"geometry":{"type":"Polygon","coordinates":[[[-122.751851,45.637118],[-122.75185,45.637208],[-122.751724,45.637207],[-122.7517,45.637133],[-122.751594,45.637117],[-122.751595,45.636937],[-122.751723,45.636937],[-122.751732,45.637089],[-122.751777,45.637115],[-122.751851,45.637118]]]}},{"type":"Feature","properties":{"id":28,"area_m2":300,"px":3,"rank":28},"geometry":{"type":"Polygon","coordinates":[[[-122.745848,45.630984],[-122.745847,45.631074],[-122.745719,45.631073],[-122.745716,45.631022],[-122.745679,45.63099],[-122.745463,45.630983],[-122.745463,45.630893],[-122.74572,45.630894],[-122.745742,45.630968],[-122.745848,45.630984]]]}}]}