{"type":"FeatureCollection","features":[{"type":"Feature","properties":{"id":13,"area_m2":49500,"px":495,"rank":1},"geometry":{"type":"Polygon","coordinates":[[[-122.755942,45.640367],[-122.755942,45.640547],[-122.755591,45.640555],[-122.755557,45.640595],[-122.755555,45.640816],[-122.75545,45.640832],[-122.755427,45.640906],[-122.755232,45.640906],[-122.755173,45.640944],[-122.755179,45.641057],[-122.755224,45.641083],[-122.755298,45.641086],[-122.755326,45.641163],[-122.755554,45.641176],[-122.755553,45.641266],[-122.755473,45.64127],[-122.755428,45.641304],[-122.755424,45.641446],[-122.755296,45.641445],[-122.755291,45.641209],[-122.75525,45.641179],[-122.755169,45.641175],[-122.75516,45.641114],[-122.755107,45.641086],[-122.754941,45.641097],[-122.754912,45.641175],[-122.754797,45.641198],[-122.754784,45.641264],[-122.754439,45.64127],[-122.754402,45.641302],[-122.754398,45.641354],[-122.75427,45.641353],[-122.754261,45.641292],[-122.754208,45.641264],[-122.75381,45.641251],[-122.753758,45.641292],[-122.753762,45.641409],[-122.753818,45.641441],[-122.754013,45.641443],[-122.754012,45.641623],[-122.75381,45.641625],[-122.753761,45.641656],[-122.753755,45.641712],[-122.753533,45.641721],[-122.753499,45.64176],[-122.753498,45.641892],[-122.75337,45.641891],[-122.753347,45.641817],[-122.753241,45.6418],[-122.753242,45.641711],[-122.753343,45.641707],[-122.753387,45.641672],[-122.753353,45.641551],[-122.753243,45.641531],[-122.753209,45.64145],[-122.753068,45.641427],[-122.752995,45.641456],[-122.752986,45.64153],[-122.752858,45.64153],[-122.752836,45.641456],[-122.75273,45.64144],[-122.752696,45.641359],[-122.752602,45.64135],[-122.752622,45.641226],[-122.752601,45.641186],[-122.752346,45.641169],[-122.752347,45.641079],[-122.752448,45.641075],[-122.752492,45.64104],[-122.752463,45.640833],[-122.752348,45.640809],[-122.752342,45.640752],[-122.7523,45.640723],[-122.752091,45.640718],[-122.752069,45.640644],[-122.751964,45.640628],[-122.751951,45.640562],[-122.751836,45.640538],[-122.751808,45.64046],[-122.751708,45.640448],[-122.751691,45.640287],[-122.75158,45.640267],[-122.751567,45.640201],[-122.751452,45.640177],[-122.751449,45.640125],[-122.751412,45.640093],[-122.751196,45.640086],[-122.751196,45.639997],[-122.751451,45.639981],[-122.751473,45.639941],[-122.751454,45.639817],[-122.751669,45.639816],[-122.751722,45.639788],[-122.751711,45.639638],[-122.751893,45.639652],[-122.751946,45.639635],[-122.751969,45.639458],[-122.752482,45.639459],[-122.752482,45.639591],[-122.752509,45.639627],[-122.752792,45.639654],[-122.752857,45.639625],[-122.752867,45.63955],[-122.752982,45.639526],[-122.752995,45.63946],[-122.753177,45.639475],[-122.753235,45.639454],[-122.753253,45.639281],[-122.753381,45.639281],[-122.753386,45.639338],[-122.753435,45.639369],[-122.753732,45.639376],[-122.753765,45.639337],[-122.753753,45.639216],[-122.753638,45.639192],[-122.753604,45.639111],[-122.75351,45.639101],[-122.753482,45.639024],[-122.753382,45.639011],[-122.753354,45.638933],[-122.753254,45.638921],[-122.753226,45.638843],[-122.753126,45.638831],[-122.753127,45.638742],[-122.753383,45.638741],[-122.753417,45.638822],[-122.753562,45.638832],[-122.753627,45.638808],[-122.75364,45.638742],[-122.753768,45.638742],[-122.75379,45.638816],[-122.753896,45.638832],[-122.753913,45.638903],[-122.754024,45.638923],[-122.754058,45.639003],[-122.754152,45.639013],[-122.75418,45.639091],[-122.75428,45.639103],[-122.754308,45.639181],[-122.754408,45.639193],[-122.75443,45.639358],[-122.754664,45.639374],[-122.754663,45.639554],[-122.754562,45.639558],[-122.754516,45.639599],[-122.754556,45.639718],[-122.754662,45.639734],[-122.754684,45.639808],[-122.754835,45.639847],[-122.754918,45.639825],[-122.755175,45.639825],[-122.755188,45.639891],[-122.755303,45.639915],[-122.755337,45.639996],[-122.755559,45.640006],[-122.755576,45.640166],[-122.755686,45.640186],[-122.75572,45.640267],[-122.755814,45.640277],[-122.755842,45.640354],[-122.755942,45.640367]],[[-122.751985,45.639953],[-122.751961,45.639851],[-122.75192,45.639822],[-122.751778,45.639804],[-122.751716,45.639838],[-122.751711,45.639954],[-122.751757,45.639994],[-122.751946,45.639991],[-122.751985,45.639953]],[[-122.752752,45.64032],[-122.752718,45.64011],[-122.752568,45.640076],[-122.752506,45.640088],[-122.752479,45.640124],[-122.752478,45.640269],[-122.752445,45.640306],[-122.752464,45.640351],[-122.752538,45.640384],[-122.752707,45.640356],[-122.752752,45.64032]],[[-122.752785,45.64063],[-122.752859,45.640592],[-122.752853,45.640479],[-122.7528,45.640451],[-122.752647,45.640456],[-122.752607,45.640493],[-122.752614,45.640601],[-122.752667,45.640629],[-122.752785,45.64063]],[[-122.75342,45.641167],[-122.753562,45.641185],[-122.753617,45.641161],[-122.753627,45.64103],[-122.753575,45.640994],[-122.753428,45.640994],[-122.753377,45.64103],[-122.753376,45.641133],[-122.75342,45.641167]]]}},{"type":"Feature","properties":{"id":26,"area_m2":18800,"px":188,"rank":2},"geometry":{"type":"Polygon","coordinates":[[[-122.758134,45.637941],[-122.758133,45.638211],[-122.758027,45.638227],[-122.758004,45.638301],[-122.757876,45.638301],[-122.757867,45.638239],[-122.757814,45.638212],[-122.757541,45.63821],[-122.757484,45.638235],[-122.757496,45.638447],[-122.757538,45.638476],[-122.757619,45.63848],[-122.757618,45.63866],[-122.757512,45.638676],[-122.757489,45.63875],[-122.757307,45.638736],[-122.757254,45.638752],[-122.757232,45.638839],[-122.757151,45.638843],[-122.75711,45.638872],[-122.757103,45.639019],[-122.756975,45.639019],[-122.756914,45.638995],[-122.756846,45.639019],[-122.75665,45.639006],[-122.756595,45.639038],[-122.756589,45.639108],[-122.756461,45.639108],[-122.756439,45.639034],[-122.756333,45.639017],[-122.756334,45.638927],[-122.756368,45.638885],[-122.756334,45.638837],[-122.756335,45.638658],[-122.756441,45.638642],[-122.756464,45.638568],[-122.756579,45.638544],[-122.756592,45.638478],[-122.756779,45.638478],[-122.756836,45.638454],[-122.756884,45.638346],[-122.75685,45.638298],[-122.756847,45.638157],[-122.756803,45.638122],[-122.756722,45.638118],[-122.756742,45.637989],[-122.756715,45.637951],[-122.756466,45.637938],[-122.756467,45.637848],[-122.756501,45.6378],[-122.756434,45.637663],[-122.756258,45.637671],[-122.756216,45.6377],[-122.75621,45.637757],[-122.756082,45.637757],[-122.756083,45.637577],[-122.756117,45.637529],[-122.756083,45.637487],[-122.756078,45.63734],[-122.756022,45.637308],[-122.755827,45.637306],[-122.755828,45.637175],[-122.755794,45.637135],[-122.755572,45.637126],[-122.755571,45.636899],[-122.755532,45.636862],[-122.755445,45.636855],[-122.755445,45.636765],[-122.755573,45.636766],[-122.755634,45.63679],[-122.755702,45.636766],[-122.756215,45.636767],[-122.756227,45.636833],[-122.756343,45.636857],[-122.75637,45.636935],[-122.756599,45.636948],[-122.756621,45.637022],[-122.756727,45.637038],[-122.756726,45.637183],[-122.756753,45.637219],[-122.756982,45.637219],[-122.756982,45.637364],[-122.757009,45.6374],[-122.757238,45.637399],[-122.757238,45.637531],[-122.757266,45.637567],[-122.757494,45.63758],[-122.7575,45.637636],[-122.757549,45.637668],[-122.75775,45.63767],[-122.757773,45.637745],[-122.757878,45.637761],[-122.757891,45.637827],[-122.758006,45.637851],[-122.758034,45.637929],[-122.758134,45.637941]]]}},{"type":"Feature","properties":{"id":19,"area_m2":11100,"px":111,"rank":3},"geometry":{"type":"Polygon","coordinates":[[[-122.750298,45.639995],[-122.750297,45.640174],[-122.750192,45.64019],[-122.750169,45.640264],[-122.749946,45.640273],[-122.749912,45.640354],[-122.749783,45.640353],[-122.749778,45.640297],[-122.749729,45.640266],[-122.749527,45.640263],[-122.74951,45.640193],[-122.749399,45.640173],[-122.749365,45.640092],[-122.749271,45.640082],[-122.749243,45.640004],[-122.749015,45.639992],[-122.748993,45.639917],[-122.748887,45.639901],[-122.748884,45.63976],[-122.74884,45.639725],[-122.74876,45.639721],[-122.748738,45.639557],[-122.748504,45.63954],[-122.748495,45.639389],[-122.74845,45.639363],[-122.748376,45.639359],[-122.748377,45.63927],[-122.748478,45.639266],[-122.748522,45.639231],[-122.748483,45.639106],[-122.748309,45.639078],[-122.748255,45.63911],[-122.748249,45.63918],[-122.747992,45.639179],[-122.74797,45.639105],[-122.747864,45.639089],[-122.74783,45.639008],[-122.747736,45.638999],[-122.747738,45.638729],[-122.747948,45.638738],[-122.747991,45.638705],[-122.747995,45.638639],[-122.74811,45.638616],[-122.748123,45.63855],[-122.748252,45.63855],[-122.748273,45.638714],[-122.748507,45.638731],[-122.74853,45.638805],[-122.748635,45.638821],[-122.748615,45.638945],[-122.748636,45.638984],[-122.748891,45.639001],[-122.748913,45.639076],[-122.749019,45.639092],[-122.749053,45.639173],[-122.749147,45.639182],[-122.749126,45.639396],[-122.749148,45.639435],[-122.749203,45.639452],[-122.749659,45.639453],[-122.749681,45.639527],[-122.749787,45.639543],[-122.749821,45.639624],[-122.749915,45.639634],[-122.749911,45.639793],[-122.750042,45.639814],[-122.750065,45.639888],[-122.75017,45.639904],[-122.750204,45.639985],[-122.750298,45.639995]],[[-122.749164,45.639587],[-122.74914,45.639472],[-122.749086,45.639439],[-122.748924,45.639454],[-122.748872,45.639491],[-122.748894,45.639598],[-122.748943,45.639629],[-122.749131,45.639622],[-122.749164,45.639587]]]}},{"type":"Feature","properties":{"id":4,"area_m2":9700,"px":97,"rank":4},"geometry":{"type":"Polygon","coordinates":[[[-122.752597,45.64252],[-122.752596,45.64261],[-122.75249,45.642625],[-122.752468,45.642699],[-122.752211,45.642699],[-122.752199,45.642543],[-122.752084,45.642519],[-122.752071,45.642453],[-122.751956,45.642428],[-122.751952,45.642377],[-122.751915,45.642345],[-122.751699,45.642338],[-122.751699,45.642207],[-122.751672,45.64217],[-122.751315,45.642157],[-122.751293,45.642083],[-122.751187,45.642067],[-122.751153,45.641986],[-122.751059,45.641976],[-122.751043,45.641726],[-122.750932,45.641706],[-122.750919,45.64164],[-122.750804,45.641616],[-122.750799,45.641559],[-122.750757,45.64153],[-122.75042,45.641525],[-122.750417,45.641383],[-122.750373,45.641349],[-122.750292,45.641345],[-122.75028,45.641189],[-122.750165,45.641164],[-122.750131,45.641083],[-122.750037,45.641074],[-122.750037,45.640943],[-122.750009,45.640906],[-122.749781,45.640893],[-122.749781,45.640804],[-122.749887,45.640788],[-122.74991,45.640714],[-122.750262,45.640719],[-122.750295,45.64068],[-122.750298,45.640535],[-122.750424,45.640535],[-122.750441,45.640605],[-122.750552,45.640625],[-122.750565,45.640691],[-122.75068,45.640716],[-122.750714,45.640796],[-122.750936,45.640806],[-122.750953,45.640966],[-122.751064,45.640986],[-122.751098,45.641067],[-122.751191,45.641077],[-122.751219,45.641154],[-122.751319,45.641167],[-122.751347,45.641245],[-122.751447,45.641257],[-122.751447,45.641437],[-122.751318,45.641437],[-122.751302,45.641277],[-122.751191,45.641257],[-122.751185,45.6412],[-122.751144,45.641171],[-122.750935,45.641166],[-122.750929,45.641109],[-122.750887,45.64108],[-122.75068,45.641092],[-122.750658,45.641131],[-122.750691,45.641232],[-122.750806,45.641256],[-122.75084,45.641337],[-122.750934,45.641346],[-122.750962,45.641424],[-122.751062,45.641436],[-122.751089,45.641514],[-122.75119,45.641527],[-122.751217,45.641604],[-122.751317,45.641617],[-122.751345,45.641695],[-122.751445,45.641707],[-122.751468,45.641781],[-122.751573,45.641798],[-122.751596,45.641872],[-122.751701,45.641888],[-122.751723,45.641962],[-122.751829,45.641978],[-122.751851,45.642052],[-122.751957,45.642068],[-122.751979,45.642143],[-122.752085,45.642159],[-122.752107,45.642233],[-122.752213,45.642249],[-122.752235,45.642323],[-122.752341,45.642339],[-122.752363,45.642413],[-122.752469,45.64243],[-122.752491,45.642504],[-122.752597,45.64252]]]}},{"type":"Feature","properties":{"id":31,"area_m2":8300,"px":83,"rank":5},"geometry":{"type":"Polygon","coordinates":[[[-122.752622,45.636849],[-122.752621,45.636939],[-122.752527,45.636942],[-122.752478,45.636974],[-122.752492,45.637119],[-122.752384,45.637125],[-122.752344,45.637169],[-122.752397,45.63729],[-122.75262,45.637299],[-122.752619,45.637479],[-122.752531,45.637486],[-122.752492,45.637523],[-122.752489,45.637749],[-122.752384,45.637765],[-122.752361,45.637839],[-122.75226,45.637851],[-122.752232,45.637928],[-122.752132,45.637941],[-122.752103,45.638018],[-122.752003,45.63803],[-122.751975,45.638108],[-122.751874,45.63812],[-122.751846,45.638198],[-122.751752,45.638207],[-122.751717,45.638287],[-122.751606,45.638307],[-122.751588,45.638377],[-122.751366,45.638386],[-122.751331,45.638467],[-122.751216,45.63849],[-122.751203,45.638556],[-122.751092,45.638576],[-122.751074,45.638646],[-122.750946,45.638646],[-122.750947,45.638466],[-122.751041,45.638457],[-122.751075,45.638412],[-122.751063,45.63831],[-122.750947,45.638286],[-122.750948,45.638196],[-122.751271,45.638195],[-122.751333,45.638143],[-122.75132,45.638041],[-122.751205,45.638016],[-122.751193,45.63786],[-122.751078,45.637836],[-122.751044,45.637755],[-122.75095,45.637746],[-122.750922,45.637668],[-122.750822,45.637655],[-122.750822,45.637566],[-122.750903,45.637562],[-122.750947,45.637527],[-122.750951,45.637386],[-122.75108,45.637386],[-122.751062,45.637616],[-122.751106,45.637652],[-122.751207,45.637656],[-122.751208,45.637793],[-122.751247,45.63783],[-122.751422,45.63783],[-122.751459,45.637799],[-122.751463,45.637747],[-122.751846,45.637748],[-122.751851,45.637813],[-122.751887,45.637845],[-122.752057,45.637834],[-122.752103,45.637795],[-122.752099,45.637692],[-122.752057,45.637662],[-122.751977,45.637658],[-122.751943,45.637577],[-122.751849,45.637568],[-122.751849,45.637478],[-122.751977,45.637478],[-122.752045,45.637502],[-122.752206,45.637466],[-122.752234,45.63743],[-122.752229,45.637242],[-122.752188,45.637212],[-122.752107,45.637208],[-122.752101,45.637152],[-122.752053,45.63712],[-122.751594,45.637117],[-122.751591,45.636975],[-122.751547,45.636941],[-122.751467,45.636937],[-122.751467,45.636847],[-122.751723,45.636847],[-122.751732,45.636909],[-122.751785,45.636936],[-122.752174,45.636937],[-122.752235,45.636895],[-122.752239,45.636758],[-122.752365,45.636759],[-122.752371,45.636815],[-122.75242,45.636847],[-122.752622,45.636849]]]}},{"type":"Feature","properties":{"id":7,"area_m2":7800,"px":78,"rank":6},"geometry":{"type":"Polygon","coordinates":[[[-122.753241,45.641981],[-122.75324,45.642161],[-122.753134,45.642177],[-122.753111,45.642251],[-122.752983,45.642251],[-122.752961,45.642176],[-122.752855,45.64216],[-122.752833,45.642086],[-122.752727,45.64207],[-122.75271,45.642],[-122.752599,45.64198],[-122.752565,45.641899],[-122.752471,45.641889],[-122.752443,45.641812],[-122.752343,45.641799],[-122.752315,45.641721],[-122.752215,45.641709],[-122.752188,45.641631],[-122.752088,45.641619],[-122.75206,45.641541],[-122.75196,45.641528],[-122.751938,45.641364],[-122.751832,45.641348],[-122.751826,45.641291],[-122.751785,45.641262],[-122.751576,45.641257],[-122.751554,45.641183],[-122.751448,45.641167],[-122.751414,45.641086],[-122.75132,45.641077],[-122.751308,45.640921],[-122.751192,45.640897],[-122.751159,45.640816],[-122.751065,45.640806],[-122.751037,45.640728],[-122.750808,45.640716],[-122.750786,45.640641],[-122.75068,45.640625],[-122.750672,45.640474],[-122.750626,45.640448],[-122.750553,45.640445],[-122.750554,45.640265],[-122.75081,45.640266],[-122.750823,45.640332],[-122.750938,45.640356],[-122.750972,45.640437],[-122.751194,45.640447],[-122.751217,45.640521],[-122.751322,45.640537],[-122.751344,45.640701],[-122.751578,45.640717],[-122.7516,45.640792],[-122.751706,45.640808],[-122.751723,45.640968],[-122.751833,45.640988],[-122.751867,45.641069],[-122.751961,45.641078],[-122.751989,45.641156],[-122.752089,45.641169],[-122.752117,45.641246],[-122.752217,45.641259],[-122.752245,45.641337],[-122.752345,45.641349],[-122.752373,45.641427],[-122.752473,45.641439],[-122.752501,45.641517],[-122.752601,45.64153],[-122.752623,45.641604],[-122.752729,45.64162],[-122.752751,45.641784],[-122.752985,45.641801],[-122.753007,45.641875],[-122.753113,45.641891],[-122.753147,45.641972],[-122.753241,45.641981]]]}},{"type":"Feature","properties":{"id":24,"area_m2":4300,"px":43,"rank":7},"geometry":{"type":"Polygon","coordinates":[[[-122.74979,45.638823],[-122.749789,45.639093],[-122.749715,45.639095],[-122.74967,45.639122],[-122.74966,45.639273],[-122.749532,45.639273],[-122.749514,45.639202],[-122.749404,45.639182],[-122.749391,45.639116],[-122.749276,45.639092],[-122.749242,45.639011],[-122.74902,45.639002],[-122.748997,45.638927],[-122.748892,45.638911],[-122.748884,45.63867],[-122.748838,45.638644],[-122.748765,45.638641],[-122.748765,45.638461],[-122.748839,45.638459],[-122.748885,45.638433],[-122.748894,45.638281],[-122.749023,45.638282],[-122.749045,45.638356],[-122.74915,45.638372],[-122.749168,45.638442],[-122.749278,45.638462],[-122.749312,45.638543],[-122.749406,45.638553],[-122.749434,45.63863],[-122.749534,45.638643],[-122.749562,45.638721],[-122.749662,45.638733],[-122.74969,45.638811],[-122.74979,45.638823]]]}},{"type":"Feature","properties":{"id":30,"area_m2":4100,"px":41,"rank":8},"geometry":{"type":"Polygon","coordinates":[[[-122.753642,45.638202],[-122.753642,45.638292],[-122.753536,45.638307],[-122.753513,45.638381],[-122.753413,45.638393],[-122.753384,45.638471],[-122.75329,45.63848],[-122.753256,45.638561],[-122.753145,45.63858],[-122.753127,45.63865],[-122.752999,45.63865],[-122.752999,45.638429],[-122.752972,45.638392],[-122.752615,45.638379],[-122.752616,45.638199],[-122.75271,45.638191],[-122.752745,45.63811],[-122.752825,45.638106],[-122.75287,45.638072],[-122.752908,45.637978],[-122.752874,45.63793],[-122.752874,45.63784],[-122.753117,45.637831],[-122.75315,45.63779],[-122.753131,45.637661],[-122.753342,45.63767],[-122.753385,45.637636],[-122.753388,45.637571],[-122.753517,45.637573],[-122.753516,45.637751],[-122.753428,45.637757],[-122.753389,45.637794],[-122.75339,45.637983],[-122.753434,45.638017],[-122.753515,45.638021],[-122.753511,45.638181],[-122.753642,45.638202]]]}},{"type":"Feature","properties":{"id":27,"area_m2":3500,"px":35,"rank":9},"geometry":{"type":"Polygon","coordinates":[[[-122.75544,45.637755],[-122.75544,45.637935],[-122.755352,45.637942],[-122.755312,45.637984],[-122.75531,45.638205],[-122.755276,45.638247],[-122.75531,45.638295],[-122.755309,45.638385],[-122.755053,45.638385],[-122.754992,45.63836],[-122.754924,45.638384],[-122.754796,45.638384],[-122.75477,45.638293],[-122.754715,45.63828],[-122.754659,45.638299],[-122.754634,45.638342],[-122.754684,45.638391],[-122.754671,45.638526],[-122.754715,45.63856],[-122.754795,45.638564],[-122.754795,45.638654],[-122.754721,45.638656],[-122.754676,45.638682],[-122.754666,45.638834],[-122.754585,45.638838],[-122.754541,45.638872],[-122.754537,45.639014],[-122.754409,45.639013],[-122.754406,45.638872],[-122.754362,45.638837],[-122.754281,45.638833],[-122.754282,45.638743],[-122.754476,45.638742],[-122.754529,45.638715],[-122.754538,45.638427],[-122.754485,45.638386],[-122.754345,45.638384],[-122.754292,45.638412],[-122.754283,45.638473],[-122.754154,45.638473],[-122.754155,45.638293],[-122.754384,45.638281],[-122.754412,45.638203],[-122.754506,45.638194],[-122.754541,45.638114],[-122.754652,45.638094],[-122.75467,45.638024],[-122.754798,45.638024],[-122.754803,45.638081],[-122.754845,45.63811],[-122.755015,45.638121],[-122.755053,45.638085],[-122.755055,45.637935],[-122.755136,45.637931],[-122.75518,45.637897],[-122.755184,45.637755],[-122.75544,45.637755]]]}},{"type":"Feature","properties":{"id":36,"area_m2":3500,"px":35,"rank":10},"geometry":{"type":"Polygon","coordinates":[[[-122.748254,45.63792],[-122.748253,45.63828],[-122.748037,45.638286],[-122.747999,45.638318],[-122.747996,45.638369],[-122.747868,45.638369],[-122.74784,45.638291],[-122.747686,45.638265],[-122.74762,45.638294],[-122.747611,45.638368],[-122.747483,45.638368],[-122.74746,45.638294],[-122.747355,45.638277],[-122.747355,45.638188],[-122.747456,45.638184],[-122.747501,45.638148],[-122.747467,45.638028],[-122.747415,45.638008],[-122.747099,45.638007],[-122.7471,45.637917],[-122.747462,45.637902],[-122.747485,45.637828],[-122.747566,45.637824],[-122.747608,45.637795],[-122.747614,45.637648],[-122.747742,45.637649],[-122.74776,45.637719],[-122.74787,45.637739],[-122.747883,45.637805],[-122.747998,45.637829],[-122.748032,45.63791],[-122.748254,45.63792]]]}},{"type":"Feature","properties":{"id":6,"area_m2":2800,"px":28,"rank":11},"geometry":{"type":"Polygon","coordinates":[[[-122.757091,45.641899],[-122.75709,45.642079],[-122.756984,45.642095],[-122.756961,45.642169],[-122.756759,45.642171],[-122.75671,45.642202],[-122.756704,45.642259],[-122.756576,45.642258],[-122.756576,45.642168],[-122.756687,45.642149],[-122.756725,45.642044],[-122.756685,45.641995],[-122.756577,45.641988],[-122.756585,45.641833],[-122.756528,45.641808],[-122.756255,45.641809],[-122.756202,45.641836],[-122.756192,45.641897],[-122.756064,45.641897],[-122.756065,45.641717],[-122.75618,45.641693],[-122.756194,45.641537],[-122.7563,45.641522],[-122.756323,45.641448],[-122.756579,45.641448],[-122.756582,45.6415],[-122.75662,45.641532],[-122.756835,45.641539],[-122.756844,45.64178],[-122.756889,45.641807],[-122.756963,45.641809],[-122.756997,45.64189],[-122.757091,45.641899]]]}},{"type":"Feature","properties":{"id":18,"area_m2":2600,"px":26,"rank":12},"geometry":{"type":"Polygon","coordinates":[[[-122.761844,45.640469],[-122.761844,45.640559],[-122.761588,45.640559],[-122.761575,45.640493],[-122.76146,45.640468],[-122.761451,45.640394],[-122.761386,45.640364],[-122.761231,45.64039],[-122.761203,45.640468],[-122.761075,45.640468],[-122.761083,45.640313],[-122.761041,45.64029],[-122.760947,45.640287],[-122.760925,45.640213],[-122.760819,45.640197],[-122.760798,45.639943],[-122.760564,45.639926],[-122.760563,45.63979],[-122.760502,45.639747],[-122.760355,45.63975],[-122.760314,45.639779],[-122.760307,45.639836],[-122.760179,45.639836],[-122.76018,45.639566],[-122.760437,45.639566],[-122.760454,45.639637],[-122.760565,45.639657],[-122.760599,45.639737],[-122.760693,45.639747],[-122.760721,45.639825],[-122.760821,45.639837],[-122.760849,45.639915],[-122.760949,45.639927],[-122.760976,45.640005],[-122.761076,45.640018],[-122.761104,45.640095],[-122.761204,45.640108],[-122.761227,45.640182],[-122.761461,45.640198],[-122.761483,45.640273],[-122.761589,45.640289],[-122.761601,45.640355],[-122.761717,45.640379],[-122.761744,45.640457],[-122.761844,45.640469]]]}},{"type":"Feature","properties":{"id":60,"area_m2":2600,"px":26,"rank":13},"geometry":{"type":"Polygon","coordinates":[[[-122.750444,45.636125],[-122.750442,45.636394],[-122.750314,45.636394],[-122.750254,45.63637],[-122.750186,45.636394],[-122.749801,45.636393],[-122.749779,45.636319],[-122.749673,45.636303],[-122.749673,45.636171],[-122.749646,45.636135],[-122.749289,45.636122],[-122.74929,45.635852],[-122.749418,45.635852],[-122.749431,45.635918],[-122.749546,45.635943],[-122.749552,45.635999],[-122.749601,45.63603],[-122.749931,45.636033],[-122.749991,45.636058],[-122.750059,45.636034],[-122.750316,45.636034],[-122.750338,45.636108],[-122.750444,45.636125]]]}},{"type":"Feature","properties":{"id":98,"area_m2":1900,"px":19,"rank":14},"geometry":{"type":"Polygon","coordinates":[[[-122.738034,45.628356],[-122.738034,45.628446],[-122.737905,45.628446],[-122.737888,45.628375],[-122.737778,45.628355],[-122.737744,45.628274],[-122.73765,45.628265],[-122.737622,45.628187],[-122.737394,45.628174],[-122.737381,45.628108],[-122.737266,45.628084],[-122.73726,45.628027],[-122.737219,45.627998],[-122.73701,45.627993],[-122.736992,45.627923],[-122.736882,45.627903],[-122.736869,45.627837],[-122.736754,45.627813],[-122.736751,45.627761],[-122.736713,45.627729],[-122.736369,45.627722],[-122.73637,45.627632],[-122.736693,45.627632],[-122.736746,45.627604],[-122.736755,45.627543],[-122.737012,45.627544],[-122.736994,45.627684],[-122.737038,45.627719],[-122.737139,45.627724],[-122.737119,45.627848],[-122.73714,45.627887],[-122.737266,45.627904],[-122.737272,45.627961],[-122.737321,45.627992],[-122.737651,45.627995],[-122.737668,45.628155],[-122.737778,45.628175],[-122.737812,45.628256],[-122.737906,45.628266],[-122.737934,45.628343],[-122.738034,45.628356]]]}},{"type":"Feature","properties":{"id":57,"area_m2":1800,"px":18,"rank":15},"geometry":{"type":"Polygon","coordinates":[[[-122.752238,45.636578],[-122.752237,45.636668],[-122.751981,45.636668],[-122.751968,45.636602],[-122.751904,45.636578],[-122.751402,45.636578],[-122.751349,45.636605],[-122.751339,45.636666],[-122.751211,45.636666],[-122.751213,45.636306],[-122.751341,45.636307],[-122.751401,45.636331],[-122.751469,45.636307],[-122.751726,45.636307],[-122.751729,45.636359],[-122.751766,45.636391],[-122.751982,45.636398],[-122.751982,45.636529],[-122.75201,45.636566],[-122.752238,45.636578]]]}},{"type":"Feature","properties":{"id":32,"area_m2":1700,"px":17,"rank":16},"geometry":{"type":"Polygon","coordinates":[[[-122.750689,45.638555],[-122.750689,45.638645],[-122.750563,45.638645],[-122.750558,45.638593],[-122.75052,45.638561],[-122.750305,45.638554],[-122.750282,45.63848],[-122.750177,45.638464],[-122.750143,45.638383],[-122.750049,45.638374],[-122.750027,45.63821],[-122.749921,45.638193],[-122.749916,45.638137],[-122.749874,45.638108],[-122.749665,45.638103],[-122.749643,45.638029],[-122.749537,45.638013],[-122.749503,45.637932],[-122.749409,45.637922],[-122.74941,45.637742],[-122.749667,45.637743],[-122.749683,45.637903],[-122.749794,45.637923],[-122.749828,45.638004],[-122.749922,45.638014],[-122.74995,45.638091],[-122.75005,45.638104],[-122.750078,45.638182],[-122.750178,45.638194],[-122.750206,45.638272],[-122.750306,45.638284],[-122.750334,45.638362],[-122.750434,45.638375],[-122.750461,45.638452],[-122.750561,45.638465],[-122.750584,45.638539],[-122.750689,45.638555]]]}},{"type":"Feature","properties":{"id":67,"area_m2":1500,"px":15,"rank":17},"geometry":{"type":"Polygon","coordinates":[[[-122.751088,45.635406],[-122.751087,45.635586],[-122.750961,45.635586],[-122.750956,45.635534],[-122.750919,45.635502],[-122.750703,45.635495],[-122.7507,45.63543],[-122.750658,45.635396],[-122.750447,45.635404],[-122.750425,45.63533],[-122.750319,45.635313],[-122.750319,45.635224],[-122.7504,45.63522],[-122.750445,45.635186],[-122.750449,45.635044],[-122.750705,45.635045],[-122.750722,45.635205],[-122.750774,45.635225],[-122.750961,45.635226],[-122.750969,45.635377],[-122.751015,45.635403],[-122.751088,45.635406]]]}},{"type":"Feature","properties":{"id":71,"area_m2":1300,"px":13,"rank":18},"geometry":{"type":"Polygon","coordinates":[[[-122.747368,45.635218],[-122.747368,45.635308],[-122.74724,45.635307],[-122.747217,45.635233],[-122.747112,45.635217],[-122.747095,45.635147],[-122.746984,45.635127],[-122.74695,45.635046],[-122.746856,45.635036],[-122.746828,45.634959],[-122.746728,45.634946],[-122.7467,45.634868],[-122.7466,45.634856],[-122.746572,45.634778],[-122.746472,45.634766],[-122.746473,45.634586],[-122.746601,45.634586],[-122.746624,45.63466],[-122.746729,45.634676],[-122.746746,45.634746],[-122.746857,45.634766],[-122.746891,45.634847],[-122.746985,45.634857],[-122.747013,45.634935],[-122.747113,45.634947],[-122.747141,45.635025],[-122.747241,45.635037],[-122.747249,45.635189],[-122.747295,45.635215],[-122.747368,45.635218]]]}},{"type":"Feature","properties":{"id":78,"area_m2":1300,"px":13,"rank":19},"geometry":{"type":"Polygon","coordinates":[[[-122.746088,45.634585],[-122.746087,45.634765],[-122.745959,45.634764],[-122.745937,45.63469],[-122.745831,45.634674],[-122.745797,45.634593],[-122.745703,45.634584],[-122.745681,45.63442],[-122.745448,45.634403],[-122.745425,45.634329],[-122.74532,45.634313],[-122.745286,45.634232],[-122.745192,45.634223],[-122.745193,45.634043],[-122.745321,45.634043],[-122.745343,45.634117],[-122.745449,45.634133],[-122.745466,45.634204],[-122.745577,45.634224],[-122.74561,45.634305],[-122.745704,45.634314],[-122.745732,45.634392],[-122.745832,45.634404],[-122.74586,45.634482],[-122.74596,45.634494],[-122.745988,45.634572],[-122.746088,45.634585]]]}},{"type":"Feature","properties":{"id":22,"area_m2":1200,"px":12,"rank":20},"geometry":{"type":"Polygon","coordinates":[[[-122.751585,45.639097],[-122.751584,45.639367],[-122.751456,45.639367],[-122.751443,45.639301],[-122.751328,45.639277],[-122.751294,45.639196],[-122.751072,45.639186],[-122.751069,45.639044],[-122.751025,45.63901],[-122.750944,45.639006],[-122.750945,45.638916],[-122.751329,45.638917],[-122.751351,45.639081],[-122.751585,45.639097]]]}},{"type":"Feature","properties":{"id":70,"area_m2":1200,"px":12,"rank":21},"geometry":{"type":"Polygon","coordinates":[[[-122.749165,45.635132],[-122.749163,45.635222],[-122.748908,45.635221],[-122.748874,45.63514],[-122.748706,45.635133],[-122.748658,45.635164],[-122.748651,45.63522],[-122.748536,45.635244],[-122.748523,45.63531],[-122.748394,45.63531],[-122.748427,45.635162],[-122.748373,45.635056],[-122.748267,45.63504],[-122.748268,45.63495],[-122.74847,45.634948],[-122.748519,45.634917],[-122.748525,45.63486],[-122.748653,45.63486],[-122.748653,45.634992],[-122.74868,45.635028],[-122.748909,45.635041],[-122.748914,45.635098],[-122.748963,45.635129],[-122.749165,45.635132]]]}},{"type":"Feature","properties":{"id":82,"area_m2":1200,"px":12,"rank":22},"geometry":{"type":"Polygon","coordinates":[[[-122.745067,45.633502],[-122.745065,45.633772],[-122.744681,45.633771],[-122.744658,45.633697],[-122.744553,45.633681],[-122.744554,45.633501],[-122.744659,45.633486],[-122.744682,45.633412],[-122.74481,45.633412],[-122.744816,45.633468],[-122.744865,45.6335],[-122.745067,45.633502]]]}},{"type":"Feature","properties":{"id":91,"area_m2":1200,"px":12,"rank":23},"geometry":{"type":"Polygon","coordinates":[[[-122.745464,45.630803],[-122.745463,45.630893],[-122.744822,45.630891],[-122.744809,45.630825],[-122.744745,45.630801],[-122.7446,45.63081],[-122.744565,45.630891],[-122.744181,45.63089],[-122.744158,45.630816],[-122.744053,45.6308],[-122.744053,45.63071],[-122.744309,45.63071],[-122.744318,45.630772],[-122.744379,45.6308],[-122.744532,45.630792],[-122.744566,45.630711],[-122.744821,45.630711],[-122.744832,45.630773],[-122.744884,45.630801],[-122.745464,45.630803]]]}},{"type":"Feature","properties":{"id":68,"area_m2":1100,"px":11,"rank":24},"geometry":{"type":"Polygon","coordinates":[[[-122.743387,45.63539],[-122.743356,45.635436],[-122.74339,45.635479],[-122.743389,45.635569],[-122.743133,45.635568],[-122.74312,45.635412],[-122.743064,45.635388],[-122.742877,45.635388],[-122.742877,45.635298],[-122.742983,45.635282],[-122.743006,45.635208],[-122.743122,45.635184],[-122.743135,45.635118],[-122.743263,45.635119],[-122.743285,45.635193],[-122.743391,45.635209],[-122.743387,45.63539]]]}},{"type":"Feature","properties":{"id":69,"area_m2":1100,"px":11,"rank":25},"geometry":{"type":"Polygon","coordinates":[[[-122.746342,45.635125],[-122.746341,45.635305],[-122.746268,45.635308],[-122.746222,45.635334],[-122.746212,45.635485],[-122.746084,45.635485],[-122.746071,45.635419],[-122.745956,45.635394],[-122.745951,45.635338],[-122.745909,45.635308],[-122.745572,45.635304],[-122.745572,45.635214],[-122.746023,45.635214],[-122.746076,45.635186],[-122.746086,45.635125],[-122.746342,45.635125]]]}},{"type":"Feature","properties":{"id":74,"area_m2":1100,"px":11,"rank":26},"geometry":{"type":"Polygon","coordinates":[[[-122.752758,45.634959],[-122.752757,45.635139],[-122.752244,45.635138],[-122.752253,45.634983],[-122.752196,45.634958],[-122.751989,45.634958],[-122.751989,45.634868],[-122.752502,45.634869],[-122.752505,45.634921],[-122.752542,45.634953],[-122.752758,45.634959]]]}},{"type":"Feature","properties":{"id":93,"area_m2":1100,"px":11,"rank":27},"geometry":{"type":"Polygon","coordinates":[[[-122.739568,45.62962],[-122.739567,45.629709],[-122.739439,45.629709],[-122.739379,45.629685],[-122.739311,45.629709],[-122.739183,45.629709],[-122.739186,45.629549],[-122.739134,45.629529],[-122.738927,45.629528],[-122.738904,45.629454],[-122.738799,45.629438],[-122.738786,45.629372],[-122.738671,45.629347],[-122.738643,45.62927],[-122.738543,45.629257],[-122.738544,45.629167],[-122.738672,45.629167],[-122.738677,45.629224],[-122.738726,45.629255],[-122.738928,45.629258],[-122.738941,45.629324],[-122.739056,45.629348],[-122.739084,45.629426],[-122.739312,45.629439],[-122.739334,45.629513],[-122.73944,45.629529],[-122.739474,45.62961],[-122.739568,45.62962]]]}},{"type":"Feature","properties":{"id":17,"area_m2":1000,"px":10,"rank":28},"geometry":{"type":"Polygon","coordinates":[[[-122.761458,45.640919],[-122.761457,45.641098],[-122.761072,45.641098],[-122.76105,45.641023],[-122.760944,45.641007],[-122.760945,45.640917],[-122.760979,45.640875],[-122.760945,45.640827],[-122.760945,45.640737],[-122.761073,45.640738],[-122.761079,45.640794],[-122.761128,45.640825],[-122.76133,45.640828],[-122.761352,45.640902],[-122.761458,45.640919]]]}},{"type":"Feature","properties":{"id":62,"area_m2":1000,"px":10,"rank":29},"geometry":{"type":"Polygon","coordinates":[[[-122.754551,45.635863],[-122.75455,45.635953],[-122.754294,45.635953],[-122.754272,45.635789],[-122.754038,45.635772],[-122.754032,45.635716],[-122.753984,45.635684],[-122.753782,45.635682],[-122.753782,45.635592],[-122.753888,45.635576],[-122.753911,45.635502],[-122.754039,45.635502],[-122.754052,45.635568],[-122.754167,45.635593],[-122.754201,45.635673],[-122.754423,45.635683],[-122.754432,45.635835],[-122.754477,45.635861],[-122.754551,45.635863]]]}},{"type":"Feature","properties":{"id":92,"area_m2":1000,"px":10,"rank":30},"geometry":{"type":"Polygon","coordinates":[[[-122.741487,45.630614],[-122.741487,45.630704],[-122.741381,45.63072],[-122.741358,45.630794],[-122.74123,45.630793],[-122.741225,45.630723],[-122.741178,45.630692],[-122.740974,45.630703],[-122.740982,45.630548],[-122.74094,45.630525],[-122.740847,45.630522],[-122.740824,45.630448],[-122.740719,45.630432],[-122.74072,45.630252],[-122.740848,45.630253],[-122.740847,45.630384],[-122.740881,45.630423],[-122.741103,45.630433],[-122.741137,45.630514],[-122.74136,45.630524],[-122.741382,45.630598],[-122.741487,45.630614]]]}},{"type":"Feature","properties":{"id":14,"area_m2":900,"px":9,"rank":31},"geometry":{"type":"Polygon","coordinates":[[[-122.755168,45.641445],[-122.755167,45.641715],[-122.755061,45.641731],[-122.755038,45.641805],[-122.754525,45.641804],[-122.754525,45.641714],[-122.754734,45.64171],[-122.754776,45.641681],[-122.754782,45.641624],[-122.754914,45.641604],[-122.754911,45.641445],[-122.755168,45.641445]]]}},{"type":"Feature","properties":{"id":33,"area_m2":900,"px":9,"rank":32},"geometry":{"type":"Polygon","coordinates":[[[-122.75903,45.638483],[-122.75903,45.638573],[-122.758903,45.638573],[-122.758898,45.638521],[-122.758861,45.638489],[-122.758645,45.638482],[-122.758642,45.638341],[-122.758598,45.638306],[-122.758518,45.638302],[-122.758505,45.638146],[-122.758449,45.638122],[-122.758262,45.638121],[-122.758262,45.638032],[-122.758519,45.638032],[-122.758541,45.638106],[-122.758647,45.638122],[-122.758681,45.638203],[-122.758775,45.638213],[-122.758791,45.638373],[-122.758902,45.638393],[-122.758936,45.638474],[-122.75903,45.638483]]]}},{"type":"Feature","properties":{"id":41,"area_m2":900,"px":9,"rank":33},"geometry":{"type":"Polygon","coordinates":[[[-122.750182,45.637204],[-122.750182,45.637294],[-122.750101,45.637298],[-122.750057,45.637332],[-122.750053,45.637474],[-122.749866,45.637474],[-122.749809,45.637497],[-122.749795,45.637653],[-122.749539,45.637653],[-122.749539,45.637563],[-122.74962,45.637559],[-122.749664,45.637525],[-122.749668,45.637383],[-122.749855,45.637383],[-122.749912,45.637359],[-122.749926,45.637204],[-122.750182,45.637204]]]}},{"type":"Feature","properties":{"id":50,"area_m2":900,"px":9,"rank":34},"geometry":{"type":"Polygon","coordinates":[[[-122.750185,45.636664],[-122.750184,45.636844],[-122.750078,45.63686],[-122.750055,45.636934],[-122.74994,45.636957],[-122.749926,45.637023],[-122.749798,45.637023],[-122.7498,45.636663],[-122.750185,45.636664]]]}},{"type":"Feature","properties":{"id":58,"area_m2":900,"px":9,"rank":35},"geometry":{"type":"Polygon","coordinates":[[[-122.748518,45.63639],[-122.748517,45.63648],[-122.748261,45.63648],[-122.748239,45.636315],[-122.748005,45.636299],[-122.747993,45.636143],[-122.747878,45.636119],[-122.747844,45.636038],[-122.74775,45.636028],[-122.74775,45.635939],[-122.747856,45.635923],[-122.747879,45.635849],[-122.748007,45.635849],[-122.748007,45.635939],[-122.747972,45.635987],[-122.748023,45.636099],[-122.748134,45.636119],[-122.748168,45.6362],[-122.748262,45.63621],[-122.74829,45.636287],[-122.74839,45.6363],[-122.748418,45.636378],[-122.748518,45.63639]]]}},{"type":"Feature","properties":{"id":66,"area_m2":900,"px":9,"rank":36},"geometry":{"type":"Polygon","coordinates":[[[-122.744801,45.635392],[-122.744801,45.635482],[-122.744606,45.635483],[-122.74455,45.635515],[-122.744547,45.635713],[-122.744591,45.635747],[-122.744671,45.635752],[-122.744671,45.63584],[-122.744543,45.635841],[-122.744521,45.635767],[-122.744415,45.635751],[-122.744403,45.635595],[-122.744288,45.635571],[-122.744288,45.635391],[-122.744801,45.635392]]]}},{"type":"Feature","properties":{"id":5,"area_m2":800,"px":8,"rank":37},"geometry":{"type":"Polygon","coordinates":[[[-122.755421,45.642256],[-122.75542,45.642436],[-122.755097,45.642436],[-122.755044,45.642464],[-122.755035,45.642525],[-122.754907,45.642525],[-122.754907,45.642435],[-122.755013,45.642419],[-122.755068,45.642313],[-122.755036,45.642255],[-122.755036,45.642165],[-122.755293,45.642166],[-122.755315,45.64224],[-122.755421,45.642256]]]}},{"type":"Feature","properties":{"id":72,"area_m2":800,"px":8,"rank":38},"geometry":{"type":"Polygon","coordinates":[[[-122.746983,45.635217],[-122.746983,45.635307],[-122.746857,45.635306],[-122.746852,45.635255],[-122.746814,45.635223],[-122.746599,45.635216],[-122.746576,45.635142],[-122.746471,45.635126],[-122.746458,45.63506],[-122.746343,45.635035],[-122.746315,45.634958],[-122.746215,45.634945],[-122.746215,45.634855],[-122.746472,45.634856],[-122.746494,45.63493],[-122.7466,45.634946],[-122.746622,45.63511],[-122.746855,45.635127],[-122.746878,45.635201],[-122.746983,45.635217]]]}},{"type":"Feature","properties":{"id":59,"area_m2":700,"px":7,"rank":39},"geometry":{"type":"Polygon","coordinates":[[[-122.744797,45.636292],[-122.744797,45.636472],[-122.744668,45.636472],[-122.744652,45.636311],[-122.7446,45.636292],[-122.744413,45.636291],[-122.7444,45.636135],[-122.744344,45.636111],[-122.744157,45.63611],[-122.744157,45.636021],[-122.744414,45.636021],[-122.744436,45.636095],[-122.744542,45.636111],[-122.744554,45.636177],[-122.744669,45.636202],[-122.744697,45.63628],[-122.744797,45.636292]]]}},{"type":"Feature","properties":{"id":100,"area_m2":700,"px":7,"rank":40},"geometry":{"type":"Polygon","coordinates":[[[-122.739577,45.627549],[-122.739576,45.627729],[-122.739448,45.627729],[-122.739426,45.627565],[-122.739193,45.627548],[-122.73917,45.627474],[-122.739065,45.627458],[-122.739066,45.627278],[-122.739194,45.627278],[-122.739216,45.627353],[-122.739321,45.627369],[-122.739334,45.627435],[-122.739449,45.627459],[-122.739477,45.627537],[-122.739577,45.627549]]]}},{"type":"Feature","properties":{"id":23,"area_m2":600,"px":6,"rank":41},"geometry":{"type":"Polygon","coordinates":[[[-122.750943,45.639186],[-122.750942,45.639366],[-122.750814,45.639366],[-122.750802,45.6393],[-122.750686,45.639275],[-122.750652,45.639194],[-122.75043,45.639185],[-122.750431,45.639005],[-122.750559,45.639005],[-122.750572,45.639071],[-122.750687,45.639095],[-122.75069,45.639147],[-122.750727,45.639179],[-122.750943,45.639186]]]}},{"type":"Feature","properties":{"id":39,"area_m2":600,"px":6,"rank":42},"geometry":{"type":"Polygon","coordinates":[[[-122.754801,45.637214],[-122.754801,45.637304],[-122.754713,45.63731],[-122.754674,45.637347],[-122.754671,45.637574],[-122.754566,45.637589],[-122.754543,45.637663],[-122.754286,45.637663],[-122.754287,45.637573],[-122.754481,45.637572],[-122.754534,45.637545],[-122.754544,45.637304],[-122.75465,45.637288],[-122.754673,45.637214],[-122.754801,45.637214]]]}},{"type":"Feature","properties":{"id":52,"area_m2":600,"px":6,"rank":43},"geometry":{"type":"Polygon","coordinates":[[[-122.754675,45.636764],[-122.754674,45.636944],[-122.754289,45.636943],[-122.75429,45.636763],[-122.754675,45.636764]]]}},{"type":"Feature","properties":{"id":53,"area_m2":600,"px":6,"rank":44},"geometry":{"type":"Polygon","coordinates":[[[-122.748644,45.636841],[-122.748644,45.636931],[-122.748387,45.63693],[-122.748365,45.636856],[-122.748259,45.63684],[-122.748242,45.636679],[-122.748191,45.63666],[-122.748004,45.636659],[-122.748004,45.636569],[-122.74826,45.63657],[-122.748283,45.636644],[-122.748388,45.63666],[-122.74841,45.636824],[-122.748644,45.636841]]]}},{"type":"Feature","properties":{"id":56,"area_m2":600,"px":6,"rank":45},"geometry":{"type":"Polygon","coordinates":[[[-122.746208,45.636475],[-122.746207,45.636745],[-122.74595,45.636745],[-122.745951,45.636475],[-122.746208,45.636475]]]}},{"type":"Feature","properties":{"id":65,"area_m2":600,"px":6,"rank":46},"geometry":{"type":"Polygon","coordinates":[[[-122.749034,45.635671],[-122.749034,45.635761],[-122.748928,45.635777],[-122.748905,45.635851],[-122.748777,45.635851],[-122.748755,45.635777],[-122.748649,45.63576],[-122.748615,45.63568],[-122.748521,45.63567],[-122.748522,45.63558],[-122.748778,45.635581],[-122.748781,45.635632],[-122.748818,45.635664],[-122.749034,45.635671]]]}},{"type":"Feature","properties":{"id":80,"area_m2":600,"px":6,"rank":47},"geometry":{"type":"Polygon","coordinates":[[[-122.746346,45.634405],[-122.746345,45.634495],[-122.746089,45.634495],[-122.746066,45.63442],[-122.745961,45.634404],[-122.745927,45.634323],[-122.745833,45.634314],[-122.745833,45.634224],[-122.74609,45.634225],[-122.746112,45.634299],[-122.746218,45.634315],[-122.746252,45.634396],[-122.746346,45.634405]]]}},{"type":"Feature","properties":{"id":86,"area_m2":600,"px":6,"rank":48},"geometry":{"type":"Polygon","coordinates":[[[-122.744685,45.632691],[-122.744685,45.632871],[-122.7443,45.63287],[-122.744301,45.632691],[-122.744685,45.632691]]]}},{"type":"Feature","properties":{"id":88,"area_m2":600,"px":6,"rank":49},"geometry":{"type":"Polygon","coordinates":[[[-122.744052,45.63089],[-122.744052,45.63098],[-122.743539,45.630979],[-122.743539,45.630889],[-122.743633,45.630886],[-122.743682,45.630854],[-122.743668,45.630709],[-122.743796,45.630709],[-122.743819,45.630783],[-122.743924,45.6308],[-122.743958,45.63088],[-122.744052,45.63089]]]}},{"type":"Feature","properties":{"id":8,"area_m2":500,"px":5,"rank":50},"geometry":{"type":"Polygon","coordinates":[[[-122.752727,45.64216],[-122.752726,45.64225],[-122.75247,45.642249],[-122.752447,45.642175],[-122.752342,45.642159],[-122.752343,45.641979],[-122.752471,45.64198],[-122.752493,45.642054],[-122.752599,45.64207],[-122.752633,45.642151],[-122.752727,45.64216]]]}},{"type":"Feature","properties":{"id":21,"area_m2":500,"px":5,"rank":51},"geometry":{"type":"Polygon","coordinates":[[[-122.759925,45.639295],[-122.759924,45.639385],[-122.759819,45.639401],[-122.759796,45.639475],[-122.759668,45.639475],[-122.759659,45.639323],[-122.759614,45.639297],[-122.75954,45.639294],[-122.759541,45.639114],[-122.759669,45.639115],[-122.759669,45.639246],[-122.759702,45.639286],[-122.759925,45.639295]]]}},{"type":"Feature","properties":{"id":42,"area_m2":500,"px":5,"rank":52},"geometry":{"type":"Polygon","coordinates":[[[-122.749155,45.637292],[-122.749155,45.637382],[-122.749061,45.637391],[-122.749026,45.637435],[-122.749039,45.637538],[-122.749154,45.637562],[-122.749154,45.637652],[-122.749026,45.637651],[-122.749003,45.637577],[-122.748898,45.637561],[-122.748899,45.637291],[-122.749155,45.637292]]]}},{"type":"Feature","properties":{"id":43,"area_m2":500,"px":5,"rank":53},"geometry":{"type":"Polygon","coordinates":[[[-122.745947,45.637375],[-122.745946,45.637555],[-122.745818,45.637554],[-122.745796,45.63748],[-122.74569,45.637464],[-122.745656,45.637383],[-122.745562,45.637374],[-122.745563,45.637284],[-122.745819,45.637284],[-122.745842,45.637359],[-122.745947,45.637375]]]}},{"type":"Feature","properties":{"id":51,"area_m2":500,"px":5,"rank":54},"geometry":{"type":"Polygon","coordinates":[[[-122.749285,45.636932],[-122.749285,45.637022],[-122.749028,45.637021],[-122.749006,45.636947],[-122.7489,45.636931],[-122.748867,45.63685],[-122.748773,45.636841],[-122.748773,45.636751],[-122.749029,45.636751],[-122.749051,45.636916],[-122.749285,45.636932]]]}},{"type":"Feature","properties":{"id":55,"area_m2":500,"px":5,"rank":55},"geometry":{"type":"Polygon","coordinates":[[[-122.745565,45.636834],[-122.745564,45.636924],[-122.745436,45.636923],[-122.745423,45.636857],[-122.745308,45.636833],[-122.745274,45.636752],[-122.745052,45.636743],[-122.745052,45.636653],[-122.745437,45.636654],[-122.745446,45.636805],[-122.745491,45.636831],[-122.745565,45.636834]]]}},{"type":"Feature","properties":{"id":73,"area_m2":500,"px":5,"rank":56},"geometry":{"type":"Polygon","coordinates":[[[-122.74429,45.635031],[-122.744289,45.635211],[-122.744183,45.635226],[-122.74416,45.6353],[-122.744032,45.6353],[-122.744033,45.63503],[-122.74429,45.635031]]]}},{"type":"Feature","properties":{"id":79,"area_m2":500,"px":5,"rank":57},"geometry":{"type":"Polygon","coordinates":[[[-122.750195,45.634414],[-122.750194,45.634504],[-122.749938,45.634503],[-122.749935,45.634452],[-122.749897,45.634419],[-122.749682,45.634413],[-122.749682,45.634323],[-122.750067,45.634324],[-122.750089,45.634398],[-122.750195,45.634414]]]}},{"type":"Feature","properties":{"id":84,"area_m2":500,"px":5,"rank":58},"geometry":{"type":"Polygon","coordinates":[[[-122.745453,45.633143],[-122.745452,45.633323],[-122.745196,45.633323],[-122.745174,45.633248],[-122.745068,45.633232],[-122.745068,45.633142],[-122.745453,45.633143]]]}},{"type":"Feature","properties":{"id":94,"area_m2":500,"px":5,"rank":59},"geometry":{"type":"Polygon","coordinates":[[[-122.739698,45.62917],[-122.739697,45.62944],[-122.739569,45.629439],[-122.739546,45.629365],[-122.739441,45.629349],[-122.739442,45.629169],[-122.739698,45.62917]]]}},{"type":"Feature","properties":{"id":102,"area_m2":500,"px":5,"rank":60},"geometry":{"type":"Polygon","coordinates":[[[-122.738937,45.627278],[-122.738937,45.627368],[-122.738856,45.627372],[-122.738812,45.627406],[-122.738808,45.627548],[-122.738679,45.627547],[-122.738697,45.627317],[-122.738653,45.627281],[-122.738552,45.627277],[-122.738553,45.627187],[-122.738809,45.627188],[-122.738831,45.627262],[-122.738937,45.627278]]]}},{"type":"Feature","properties":{"id":103,"area_m2":500,"px":5,"rank":61},"geometry":{"type":"Polygon","coordinates":[[[-122.734961,45.626999],[-122.734961,45.627089],[-122.734576,45.627088],[-122.734573,45.627036],[-122.734536,45.627004],[-122.73432,45.626997],[-122.734321,45.626907],[-122.734577,45.626908],[-122.734586,45.626969],[-122.734639,45.626997],[-122.734961,45.626999]]]}},{"type":"Feature","properties":{"id":104,"area_m2":500,"px":5,"rank":62},"geometry":{"type":"Polygon","coordinates":[[[-122.733938,45.626456],[-122.733937,45.626546],[-122.733832,45.626562],[-122.733809,45.626636],[-122.733552,45.626635],[-122.733553,45.626455],[-122.733938,45.626456]]]}},{"type":"Feature","properties":{"id":1,"area_m2":400,"px":4,"rank":63},"geometry":{"type":"Polygon","coordinates":[[[-122.755034,45.642615],[-122.755034,45.642705],[-122.75494,45.642714],[-122.754905,45.642759],[-122.754918,45.642861],[-122.755033,45.642885],[-122.755033,45.642975],[-122.754905,45.642975],[-122.754882,45.642901],[-122.754777,45.642884],[-122.754777,45.642705],[-122.754883,45.642689],[-122.754906,45.642615],[-122.755034,45.642615]]]}},{"type":"Feature","properties":{"id":11,"area_m2":400,"px":4,"rank":64},"geometry":{"type":"Polygon","coordinates":[[[-122.752215,45.641799],[-122.752214,45.642069],[-122.752086,45.642069],[-122.752083,45.641927],[-122.752039,45.641893],[-122.751958,45.641888],[-122.751958,45.641798],[-122.752215,45.641799]]]}},{"type":"Feature","properties":{"id":37,"area_m2":400,"px":4,"rank":65},"geometry":{"type":"Polygon","coordinates":[[[-122.750308,45.637744],[-122.750308,45.637834],[-122.750051,45.637834],[-122.750029,45.63776],[-122.749923,45.637743],[-122.749924,45.637654],[-122.75018,45.637654],[-122.750202,45.637728],[-122.750308,45.637744]]]}},{"type":"Feature","properties":{"id":54,"area_m2":400,"px":4,"rank":66},"geometry":{"type":"Polygon","coordinates":[[[-122.74672,45.636746],[-122.746719,45.636836],[-122.746397,45.636837],[-122.746344,45.636864],[-122.746334,45.636925],[-122.746206,45.636925],[-122.746206,45.636835],[-122.746312,45.63682],[-122.746335,45.636746],[-122.74672,45.636746]]]}},{"type":"Feature","properties":{"id":63,"area_m2":400,"px":4,"rank":67},"geometry":{"type":"Polygon","coordinates":[[[-122.745184,45.635843],[-122.745184,45.635933],[-122.744927,45.635932],[-122.744905,45.635858],[-122.7448,45.635842],[-122.7448,45.635752],[-122.745056,45.635753],[-122.745079,45.635827],[-122.745184,45.635843]]]}},{"type":"Feature","properties":{"id":76,"area_m2":400,"px":4,"rank":68},"geometry":{"type":"Polygon","coordinates":[[[-122.75122,45.634596],[-122.751219,45.634866],[-122.751091,45.634866],[-122.751069,45.634792],[-122.750963,45.634775],[-122.750963,45.634686],[-122.751069,45.63467],[-122.751092,45.634596],[-122.75122,45.634596]]]}},{"type":"Feature","properties":{"id":97,"area_m2":400,"px":4,"rank":69},"geometry":{"type":"Polygon","coordinates":[[[-122.737392,45.628534],[-122.737391,45.628714],[-122.737263,45.628714],[-122.73725,45.628558],[-122.737194,45.628534],[-122.737007,45.628533],[-122.737007,45.628444],[-122.737264,45.628444],[-122.737286,45.628518],[-122.737392,45.628534]]]}},{"type":"Feature","properties":{"id":2,"area_m2":300,"px":3,"rank":70},"geometry":{"type":"Polygon","coordinates":[[[-122.756702,45.642799],[-122.756701,45.642889],[-122.756317,45.642888],[-122.756317,45.642798],[-122.756702,45.642799]]]}},{"type":"Feature","properties":{"id":3,"area_m2":300,"px":3,"rank":71},"geometry":{"type":"Polygon","coordinates":[[[-122.755676,45.642526],[-122.755676,45.642616],[-122.755595,45.64262],[-122.755551,45.642654],[-122.755547,45.642796],[-122.755419,45.642796],[-122.755419,45.642616],[-122.755525,45.6426],[-122.755548,45.642526],[-122.755676,45.642526]]]}},{"type":"Feature","properties":{"id":9,"area_m2":300,"px":3,"rank":72},"geometry":{"type":"Polygon","coordinates":[[[-122.75632,45.641988],[-122.756319,45.642168],[-122.756191,45.642167],[-122.756169,45.642093],[-122.756063,45.642077],[-122.756064,45.641987],[-122.75632,45.641988]]]}},{"type":"Feature","properties":{"id":10,"area_m2":300,"px":3,"rank":73},"geometry":{"type":"Polygon","coordinates":[[[-122.755936,45.641897],[-122.755935,45.641987],[-122.755733,45.641989],[-122.755684,45.64202],[-122.755678,45.642076],[-122.75555,45.642076],[-122.755551,45.641986],[-122.755656,45.641971],[-122.755679,45.641896],[-122.755936,45.641897]]]}},{"type":"Feature","properties":{"id":12,"area_m2":300,"px":3,"rank":74},"geometry":{"type":"Polygon","coordinates":[[[-122.755552,45.641716],[-122.755551,45.641806],[-122.755349,45.641808],[-122.7553,45.641839],[-122.755294,45.641895],[-122.755166,45.641895],[-122.755166,45.641805],[-122.755272,45.64179],[-122.755295,45.641716],[-122.755552,45.641716]]]}},{"type":"Feature","properties":{"id":15,"area_m2":300,"px":3,"rank":75},"geometry":{"type":"Polygon","coordinates":[[[-122.751959,45.641618],[-122.751959,45.641708],[-122.751574,45.641707],[-122.751574,45.641618],[-122.751959,45.641618]]]}},{"type":"Feature","properties":{"id":16,"area_m2":300,"px":3,"rank":76},"geometry":{"type":"Polygon","coordinates":[[[-122.756709,45.641179],[-122.756708,45.641268],[-122.756324,45.641268],[-122.756324,45.641178],[-122.756709,45.641179]]]}},{"type":"Feature","properties":{"id":20,"area_m2":300,"px":3,"rank":77},"geometry":{"type":"Polygon","coordinates":[[[-122.750684,45.639815],[-122.750683,45.639905],[-122.750299,45.639904],[-122.750299,45.639815],[-122.750684,45.639815]]]}},{"type":"Feature","properties":{"id":25,"area_m2":300,"px":3,"rank":78},"geometry":{"type":"Polygon","coordinates":[[[-122.759413,45.638934],[-122.759412,45.639204],[-122.759284,45.639204],[-122.759285,45.638934],[-122.759413,45.638934]]]}},{"type":"Feature","properties":{"id":28,"area_m2":300,"px":3,"rank":79},"geometry":{"type":"Polygon","coordinates":[[[-122.750432,45.638825],[-122.750431,45.638915],[-122.750046,45.638914],[-122.750047,45.638824],[-122.750432,45.638825]]]}},{"type":"Feature","properties":{"id":29,"area_m2":300,"px":3,"rank":80},"geometry":{"type":"Polygon","coordinates":[[[-122.751716,45.638468],[-122.751716,45.638557],[-122.75161,45.638573],[-122.751587,45.638647],[-122.751472,45.638671],[-122.751458,45.638737],[-122.75133,45.638737],[-122.751331,45.638647],[-122.751436,45.638631],[-122.751459,45.638557],[-122.751575,45.638533],[-122.751588,45.638467],[-122.751716,45.638468]]]}},{"type":"Feature","properties":{"id":34,"area_m2":300,"px":3,"rank":81},"geometry":{"type":"Polygon","coordinates":[[[-122.748637,45.638461],[-122.748636,45.638551],[-122.74851,45.63855],[-122.748486,45.638476],[-122.74838,45.63846],[-122.748381,45.63828],[-122.748509,45.638281],[-122.748518,45.638432],[-122.748563,45.638458],[-122.748637,45.638461]]]}},{"type":"Feature","properties":{"id":35,"area_m2":300,"px":3,"rank":82},"geometry":{"type":"Polygon","coordinates":[[[-122.752359,45.638289],[-122.752358,45.638469],[-122.752101,45.638468],[-122.752102,45.638378],[-122.752208,45.638363],[-122.752231,45.638289],[-122.752359,45.638289]]]}},{"type":"Feature","properties":{"id":38,"area_m2":300,"px":3,"rank":83},"geometry":{"type":"Polygon","coordinates":[[[-122.755442,45.637485],[-122.755441,45.637575],[-122.755335,45.637591],[-122.755313,45.637665],[-122.755056,45.637665],[-122.755056,45.637575],[-122.755258,45.637573],[-122.755307,45.637542],[-122.755313,45.637485],[-122.755442,45.637485]]]}},{"type":"Feature","properties":{"id":40,"area_m2":300,"px":3,"rank":84},"geometry":{"type":"Polygon","coordinates":[[[-122.750435,45.637476],[-122.750403,45.637522],[-122.750437,45.637565],[-122.750437,45.637655],[-122.750309,45.637654],[-122.750286,45.63758],[-122.750181,45.637564],[-122.750181,45.637474],[-122.750287,45.637458],[-122.75031,45.637384],[-122.750436,45.637385],[-122.750435,45.637476]]]}},{"type":"Feature","properties":{"id":44,"area_m2":300,"px":3,"rank":85},"geometry":{"type":"Polygon","coordinates":[[[-122.747231,45.637288],[-122.74723,45.637377],[-122.747028,45.637379],[-122.746979,45.63741],[-122.746973,45.637467],[-122.746845,45.637467],[-122.746846,45.637377],[-122.746951,45.637361],[-122.746974,45.637287],[-122.747231,45.637288]]]}},{"type":"Feature","properties":{"id":45,"area_m2":300,"px":3,"rank":86},"geometry":{"type":"Polygon","coordinates":[[[-122.748258,45.63711],[-122.748258,45.6372],[-122.748152,45.637215],[-122.748129,45.637289],[-122.747872,45.637289],[-122.747873,45.637199],[-122.748075,45.637197],[-122.748124,45.637166],[-122.74813,45.63711],[-122.748258,45.63711]]]}},{"type":"Feature","properties":{"id":46,"area_m2":300,"px":3,"rank":87},"geometry":{"type":"Polygon","coordinates":[[[-122.74736,45.637108],[-122.747359,45.637198],[-122.746975,45.637197],[-122.746975,45.637107],[-122.74736,45.637108]]]}},{"type":"Feature","properties":{"id":48,"area_m2":300,"px":3,"rank":88},"geometry":{"type":"Polygon","coordinates":[[[-122.75044,45.637025],[-122.750439,45.637114],[-122.750183,45.637114],[-122.750184,45.636934],[-122.750312,45.636934],[-122.750334,45.637008],[-122.75044,45.637025]]]}},{"type":"Feature","properties":{"id":47,"area_m2":300,"px":3,"rank":89},"geometry":{"type":"Polygon","coordinates":[[[-122.751082,45.636846],[-122.751081,45.637026],[-122.750975,45.637042],[-122.750952,45.637116],[-122.750824,45.637115],[-122.750825,45.637025],[-122.750905,45.637021],[-122.75095,45.636987],[-122.750954,45.636846],[-122.751082,45.636846]]]}},{"type":"Feature","properties":{"id":49,"area_m2":300,"px":3,"rank":90},"geometry":{"type":"Polygon","coordinates":[[[-122.753134,45.63694],[-122.753134,45.63703],[-122.752878,45.63703],[-122.752855,45.636956],[-122.75275,45.636939],[-122.75275,45.63685],[-122.752878,45.63685],[-122.752884,45.636907],[-122.752933,45.636938],[-122.753134,45.63694]]]}},{"type":"Feature","properties":{"id":61,"area_m2":300,"px":3,"rank":91},"geometry":{"type":"Polygon","coordinates":[[[-122.747621,45.636118],[-122.74762,45.636208],[-122.747492,45.636208],[-122.747489,45.636156],[-122.747452,45.636124],[-122.747236,45.636117],[-122.747237,45.636027],[-122.747493,45.636028],[-122.747515,45.636102],[-122.747621,45.636118]]]}},{"type":"Feature","properties":{"id":64,"area_m2":300,"px":3,"rank":92},"geometry":{"type":"Polygon","coordinates":[[[-122.751344,45.635586],[-122.751343,45.635856],[-122.751215,45.635856],[-122.751216,45.635586],[-122.751344,45.635586]]]}},{"type":"Feature","properties":{"id":75,"area_m2":300,"px":3,"rank":93},"geometry":{"type":"Polygon","coordinates":[[[-122.744675,45.634942],[-122.744675,45.635032],[-122.744547,45.635031],[-122.744524,45.634957],[-122.744419,45.634941],[-122.744385,45.63486],[-122.744291,45.634851],[-122.744291,45.634761],[-122.744419,45.634761],[-122.744442,45.634835],[-122.744547,45.634851],[-122.744581,45.634932],[-122.744675,45.634942]]]}},{"type":"Feature","properties":{"id":77,"area_m2":300,"px":3,"rank":94},"geometry":{"type":"Polygon","coordinates":[[[-122.750706,45.634775],[-122.750706,45.634865],[-122.750578,45.634865],[-122.750555,45.63479],[-122.75045,45.634774],[-122.750416,45.634693],[-122.750322,45.634684],[-122.750322,45.634594],[-122.75045,45.634594],[-122.750473,45.634669],[-122.750578,45.634685],[-122.750612,45.634766],[-122.750706,45.634775]]]}},{"type":"Feature","properties":{"id":81,"area_m2":300,"px":3,"rank":95},"geometry":{"type":"Polygon","coordinates":[[[-122.745706,45.633954],[-122.745705,45.634134],[-122.745577,45.634133],[-122.745555,45.634059],[-122.745449,45.634043],[-122.74545,45.633953],[-122.745706,45.633954]]]}},{"type":"Feature","properties":{"id":83,"area_m2":300,"px":3,"rank":96},"geometry":{"type":"Polygon","coordinates":[[[-122.749942,45.633423],[-122.749942,45.633603],[-122.749813,45.633603],[-122.749791,45.633529],[-122.749686,45.633512],[-122.749686,45.633423],[-122.749942,45.633423]]]}},{"type":"Feature","properties":{"id":85,"area_m2":300,"px":3,"rank":97},"geometry":{"type":"Polygon","coordinates":[[[-122.744555,45.633231],[-122.744554,45.633321],[-122.744298,45.633321],[-122.744275,45.633246],[-122.74417,45.63323],[-122.74417,45.63314],[-122.744298,45.633141],[-122.744304,45.633197],[-122.744353,45.633228],[-122.744555,45.633231]]]}},{"type":"Feature","properties":{"id":87,"area_m2":300,"px":3,"rank":98},"geometry":{"type":"Polygon","coordinates":[[[-122.742252,45.631786],[-122.742251,45.631966],[-122.742123,45.631965],[-122.742101,45.631891],[-122.741995,45.631875],[-122.741995,45.631785],[-122.742252,45.631786]]]}},{"type":"Feature","properties":{"id":90,"area_m2":300,"px":3,"rank":99},"geometry":{"type":"Polygon","coordinates":[[[-122.742128,45.630886],[-122.742127,45.630975],[-122.741743,45.630975],[-122.741743,45.630885],[-122.742128,45.630886]]]}},{"type":"Feature","properties":{"id":89,"area_m2":300,"px":3,"rank":100},"geometry":{"type":"Polygon","coordinates":[[[-122.743411,45.630798],[-122.743411,45.630888],[-122.743305,45.630904],[-122.743282,45.630978],[-122.743154,45.630978],[-122.743131,45.630904],[-122.743026,45.630887],[-122.743026,45.630798],[-122.743154,45.630798],[-122.743215,45.630822],[-122.743283,45.630798],[-122.743411,45.630798]]]}},{"type":"Feature","properties":{"id":95,"area_m2":300,"px":3,"rank":101},"geometry":{"type":"Polygon","coordinates":[[[-122.740212,45.629081],[-122.740211,45.629261],[-122.740083,45.629261],[-122.74006,45.629186],[-122.739955,45.62917],[-122.739955,45.62908],[-122.740212,45.629081]]]}},{"type":"Feature","properties":{"id":96,"area_m2":300,"px":3,"rank":102},"geometry":{"type":"Polygon","coordinates":[[[-122.73893,45.628718],[-122.73893,45.628808],[-122.738545,45.628807],[-122.738546,45.628717],[-122.73893,45.628718]]]}},{"type":"Feature","properties":{"id":99,"area_m2":300,"px":3,"rank":103},"geometry":{"type":"Polygon","coordinates":[[[-122.738549,45.627907],[-122.738549,45.627997],[-122.738423,45.627997],[-122.738398,45.627922],[-122.738293,45.627906],[-122.738294,45.627726],[-122.738422,45.627727],[-122.73843,45.627878],[-122.738476,45.627905],[-122.738549,45.627907]]]}},{"type":"Feature","properties":{"id":101,"area_m2":300,"px":3,"rank":104},"geometry":{"type":"Polygon","coordinates":[[[-122.735473,45.62745],[-122.735472,45.62763],[-122.735215,45.627629],[-122.735216,45.627539],[-122.735321,45.627524],[-122.735344,45.62745],[-122.735473,45.62745]]]}}]}