{"type":"FeatureCollection","features":[{"type":"Feature","properties":{"id":11,"area_m2":4600,"px":46,"rank":1},"geometry":{"type":"Polygon","coordinates":[[[-122.747874,45.636929],[-122.747873,45.637109],[-122.747639,45.637124],[-122.747616,45.637288],[-122.747359,45.637288],[-122.747356,45.637236],[-122.747319,45.637204],[-122.747103,45.637197],[-122.747086,45.637037],[-122.746975,45.637017],[-122.746942,45.636936],[-122.746848,45.636927],[-122.74682,45.636849],[-122.74672,45.636836],[-122.746692,45.636759],[-122.746592,45.636746],[-122.746564,45.636668],[-122.746464,45.636656],[-122.746465,45.636476],[-122.746647,45.63649],[-122.7467,45.636474],[-122.746722,45.636296],[-122.746979,45.636297],[-122.747001,45.636371],[-122.747106,45.636387],[-122.747124,45.636457],[-122.747234,45.636478],[-122.747268,45.636558],[-122.747362,45.636568],[-122.74739,45.636646],[-122.74749,45.636658],[-122.747518,45.636736],[-122.747618,45.636748],[-122.747646,45.636826],[-122.747746,45.636839],[-122.747774,45.636916],[-122.747874,45.636929]],[[-122.746995,45.636702],[-122.746971,45.6366],[-122.74693,45.636571],[-122.746788,45.636553],[-122.746726,45.636586],[-122.746722,45.636703],[-122.746768,45.636742],[-122.746956,45.63674],[-122.746995,45.636702]]]}},{"type":"Feature","properties":{"id":15,"area_m2":2400,"px":24,"rank":2},"geometry":{"type":"Polygon","coordinates":[[[-122.748901,45.636751],[-122.748901,45.636841],[-122.748644,45.636841],[-122.748622,45.636676],[-122.748388,45.63666],[-122.748366,45.636586],[-122.748261,45.63657],[-122.748227,45.636489],[-122.748133,45.636479],[-122.748111,45.636315],[-122.748005,45.636299],[-122.748002,45.636247],[-122.747965,45.636215],[-122.747749,45.636208],[-122.747727,45.636134],[-122.747621,45.636118],[-122.747618,45.635977],[-122.747574,45.635942],[-122.747494,45.635938],[-122.747494,45.635848],[-122.747622,45.635848],[-122.747628,45.635905],[-122.747676,45.635936],[-122.747878,45.635939],[-122.747901,45.636013],[-122.748006,45.636029],[-122.748023,45.636099],[-122.748134,45.636119],[-122.748168,45.6362],[-122.748262,45.63621],[-122.74829,45.636287],[-122.74839,45.6363],[-122.748418,45.636378],[-122.748518,45.63639],[-122.748546,45.636468],[-122.748646,45.636481],[-122.748663,45.636641],[-122.748773,45.636661],[-122.748807,45.636742],[-122.748901,45.636751]]]}},{"type":"Feature","properties":{"id":7,"area_m2":2100,"px":21,"rank":3},"geometry":{"type":"Polygon","coordinates":[[[-122.748253,45.63819],[-122.748252,45.63837],[-122.748147,45.638385],[-122.748124,45.63846],[-122.747995,45.638459],[-122.747973,45.638385],[-122.747868,45.638369],[-122.747855,45.638303],[-122.74774,45.638279],[-122.747712,45.638201],[-122.747612,45.638188],[-122.747611,45.637962],[-122.747572,45.637925],[-122.747485,45.637918],[-122.747485,45.637828],[-122.74787,45.637829],[-122.747892,45.637903],[-122.747998,45.637919],[-122.748015,45.63808],[-122.748125,45.6381],[-122.748159,45.638181],[-122.748253,45.63819]]]}},{"type":"Feature","properties":{"id":6,"area_m2":1100,"px":11,"rank":4},"geometry":{"type":"Polygon","coordinates":[[[-122.753385,45.638381],[-122.753384,45.638561],[-122.753256,45.638561],[-122.753243,45.638495],[-122.753179,45.638471],[-122.753034,45.638479],[-122.752999,45.63856],[-122.752871,45.63856],[-122.752872,45.63838],[-122.752945,45.638378],[-122.752991,45.638352],[-122.753001,45.6382],[-122.753081,45.638196],[-122.753126,45.638162],[-122.75313,45.638021],[-122.753258,45.638021],[-122.753257,45.638201],[-122.753225,45.638259],[-122.753279,45.638365],[-122.753385,45.638381]]]}},{"type":"Feature","properties":{"id":20,"area_m2":1100,"px":11,"rank":5},"geometry":{"type":"Polygon","coordinates":[[[-122.745315,45.635393],[-122.745314,45.635483],[-122.744929,45.635482],[-122.744907,45.635408],[-122.744802,45.635392],[-122.744803,45.635122],[-122.745059,45.635123],[-122.745082,45.635197],[-122.745187,45.635213],[-122.745199,45.635369],[-122.745315,45.635393]]]}},{"type":"Feature","properties":{"id":21,"area_m2":1000,"px":10,"rank":6},"geometry":{"type":"Polygon","coordinates":[[[-122.752757,45.635139],[-122.752757,45.635319],[-122.752372,45.635319],[-122.75235,45.635244],[-122.752244,45.635228],[-122.752245,45.635048],[-122.75263,45.635049],[-122.752652,45.635123],[-122.752757,45.635139]]]}},{"type":"Feature","properties":{"id":9,"area_m2":800,"px":8,"rank":7},"geometry":{"type":"Polygon","coordinates":[[[-122.748256,45.63765],[-122.748255,45.63783],[-122.748127,45.637829],[-122.748104,45.637755],[-122.747999,45.637739],[-122.747986,45.637673],[-122.747871,45.637649],[-122.747843,45.637571],[-122.747743,45.637559],[-122.747744,45.637379],[-122.747872,45.637379],[-122.747894,45.637453],[-122.748,45.637469],[-122.748012,45.637535],[-122.748128,45.63756],[-122.748156,45.637637],[-122.748256,45.63765]]]}},{"type":"Feature","properties":{"id":13,"area_m2":800,"px":8,"rank":8},"geometry":{"type":"Polygon","coordinates":[[[-122.748387,45.63702],[-122.748386,45.63711],[-122.748258,45.63711],[-122.748236,45.637036],[-122.74813,45.637019],[-122.748117,45.636953],[-122.748002,45.636929],[-122.747974,45.636851],[-122.747874,45.636839],[-122.747875,45.636659],[-122.74791,45.636617],[-122.747876,45.636569],[-122.747876,45.636479],[-122.748004,45.636479],[-122.748026,45.636553],[-122.748132,45.636569],[-122.748131,45.636749],[-122.748097,45.636797],[-122.748137,45.636896],[-122.748178,45.636925],[-122.748259,45.63693],[-122.748293,45.637011],[-122.748387,45.63702]]]}},{"type":"Feature","properties":{"id":5,"area_m2":700,"px":7,"rank":9},"geometry":{"type":"Polygon","coordinates":[[[-122.749405,45.638733],[-122.749405,45.638912],[-122.749277,45.638912],[-122.749277,45.638781],[-122.749243,45.638741],[-122.748892,45.638731],[-122.748893,45.638551],[-122.74915,45.638552],[-122.749172,45.638626],[-122.749278,45.638642],[-122.749312,45.638723],[-122.749405,45.638733]]]}},{"type":"Feature","properties":{"id":8,"area_m2":700,"px":7,"rank":10},"geometry":{"type":"Polygon","coordinates":[[[-122.748897,45.637741],[-122.748896,45.637921],[-122.748768,45.637921],[-122.748745,45.637847],[-122.74864,45.637831],[-122.748618,45.637666],[-122.748384,45.63765],[-122.748385,45.63747],[-122.748513,45.63747],[-122.748535,45.637545],[-122.748641,45.637561],[-122.748654,45.637627],[-122.748769,45.637651],[-122.748797,45.637729],[-122.748897,45.637741]]]}},{"type":"Feature","properties":{"id":16,"area_m2":700,"px":7,"rank":11},"geometry":{"type":"Polygon","coordinates":[[[-122.747745,45.63648],[-122.747713,45.636526],[-122.747747,45.636569],[-122.747747,45.636659],[-122.747619,45.636658],[-122.747596,45.636584],[-122.747491,45.636568],[-122.747491,45.636478],[-122.747526,45.63643],[-122.747492,45.636388],[-122.747491,45.636251],[-122.747452,45.636214],[-122.747364,45.636208],[-122.747364,45.636118],[-122.747493,45.636118],[-122.747515,45.636192],[-122.74762,45.636208],[-122.747654,45.636289],[-122.747748,45.636299],[-122.747745,45.63648]]]}},{"type":"Feature","properties":{"id":24,"area_m2":700,"px":7,"rank":12},"geometry":{"type":"Polygon","coordinates":[[[-122.734963,45.626729],[-122.734962,45.626819],[-122.734193,45.626817],[-122.734194,45.626637],[-122.734322,45.626637],[-122.734331,45.626699],[-122.734383,45.626726],[-122.734963,45.626729]]]}},{"type":"Feature","properties":{"id":2,"area_m2":600,"px":6,"rank":13},"geometry":{"type":"Polygon","coordinates":[[[-122.755558,45.640186],[-122.755557,45.640366],[-122.755429,45.640366],[-122.755426,45.640314],[-122.755389,45.640282],[-122.755173,45.640275],[-122.755174,45.640095],[-122.75543,45.640096],[-122.755453,45.64017],[-122.755558,45.640186]]]}},{"type":"Feature","properties":{"id":4,"area_m2":500,"px":5,"rank":14},"geometry":{"type":"Polygon","coordinates":[[[-122.74889,45.639181],[-122.74889,45.639271],[-122.748784,45.639287],[-122.748761,45.639361],[-122.748633,45.639361],[-122.74863,45.639219],[-122.748586,45.639185],[-122.748505,45.63918],[-122.748506,45.639091],[-122.748762,45.639091],[-122.748785,45.639165],[-122.74889,45.639181]]]}},{"type":"Feature","properties":{"id":22,"area_m2":500,"px":5,"rank":15},"geometry":{"type":"Polygon","coordinates":[[[-122.74878,45.635131],[-122.748779,45.635311],[-122.748523,45.63531],[-122.7485,45.635236],[-122.748395,45.63522],[-122.748395,45.63513],[-122.74878,45.635131]]]}},{"type":"Feature","properties":{"id":23,"area_m2":500,"px":5,"rank":16},"geometry":{"type":"Polygon","coordinates":[[[-122.744548,45.634761],[-122.744547,45.634941],[-122.74429,45.634941],[-122.744288,45.634799],[-122.744244,45.634765],[-122.744163,45.63476],[-122.744163,45.63467],[-122.744291,45.634671],[-122.744297,45.634727],[-122.744346,45.634759],[-122.744548,45.634761]]]}},{"type":"Feature","properties":{"id":1,"area_m2":400,"px":4,"rank":17},"geometry":{"type":"Polygon","coordinates":[[[-122.754784,45.641264],[-122.754783,45.641354],[-122.754527,45.641354],[-122.754504,45.64128],[-122.754399,45.641263],[-122.754399,45.641174],[-122.754656,45.641174],[-122.754678,45.641248],[-122.754784,45.641264]]]}},{"type":"Feature","properties":{"id":12,"area_m2":400,"px":4,"rank":18},"geometry":{"type":"Polygon","coordinates":[[[-122.751851,45.637118],[-122.75185,45.637208],[-122.751724,45.637207],[-122.7517,45.637133],[-122.751594,45.637117],[-122.751591,45.636975],[-122.751547,45.636941],[-122.751467,45.636937],[-122.751467,45.636847],[-122.751595,45.636847],[-122.751617,45.636921],[-122.751723,45.636937],[-122.751732,45.637089],[-122.751777,45.637115],[-122.751851,45.637118]]]}},{"type":"Feature","properties":{"id":17,"area_m2":400,"px":4,"rank":19},"geometry":{"type":"Polygon","coordinates":[[[-122.745695,45.636384],[-122.745694,45.636564],[-122.745438,45.636563],[-122.745439,45.636384],[-122.745695,45.636384]]]}},{"type":"Feature","properties":{"id":18,"area_m2":400,"px":4,"rank":20},"geometry":{"type":"Polygon","coordinates":[[[-122.750186,45.636304],[-122.750186,45.636394],[-122.75008,45.63641],[-122.750057,45.636484],[-122.749929,45.636483],[-122.749907,45.636409],[-122.749801,45.636393],[-122.749801,45.636303],[-122.750186,45.636304]]]}},{"type":"Feature","properties":{"id":19,"area_m2":400,"px":4,"rank":21},"geometry":{"type":"Polygon","coordinates":[[[-122.745056,45.635933],[-122.745055,45.636113],[-122.744798,45.636112],[-122.744799,45.635932],[-122.745056,45.635933]]]}},{"type":"Feature","properties":{"id":3,"area_m2":300,"px":3,"rank":22},"geometry":{"type":"Polygon","coordinates":[[[-122.750041,45.639994],[-122.750041,45.640174],[-122.749913,45.640174],[-122.74989,45.640099],[-122.749785,45.640083],[-122.749785,45.639993],[-122.750041,45.639994]]]}},{"type":"Feature","properties":{"id":10,"area_m2":300,"px":3,"rank":23},"geometry":{"type":"Polygon","coordinates":[[[-122.748129,45.6372],[-122.748128,45.637379],[-122.748,45.637379],[-122.747978,45.637305],[-122.747872,45.637289],[-122.747873,45.637199],[-122.748129,45.6372]]]}},{"type":"Feature","properties":{"id":14,"area_m2":300,"px":3,"rank":24},"geometry":{"type":"Polygon","coordinates":[[[-122.745308,45.636923],[-122.745307,45.637013],[-122.745051,45.637013],[-122.745029,45.636938],[-122.744923,45.636922],[-122.744923,45.636832],[-122.745051,45.636833],[-122.745057,45.636889],[-122.745106,45.63692],[-122.745308,45.636923]]]}}]}