{"type":"FeatureCollection","features":[{"type":"Feature","properties":{"id":19,"area_m2":4200,"px":42,"rank":1},"geometry":{"type":"Polygon","coordinates":[[[-122.74609,45.634135],[-122.746089,45.634315],[-122.745981,45.634321],[-122.745941,45.63437],[-122.745978,45.634475],[-122.746089,45.634495],[-122.746088,45.634675],[-122.74598,45.634681],[-122.74594,45.63473],[-122.745976,45.634835],[-122.746087,45.634855],[-122.746086,45.635035],[-122.745958,45.635034],[-122.745945,45.634968],[-122.74583,45.634944],[-122.745808,45.63487],[-122.745663,45.634841],[-122.745586,45.634864],[-122.745573,45.634944],[-122.745317,45.634943],[-122.745318,45.634763],[-122.745411,45.634761],[-122.745454,45.634738],[-122.745441,45.634617],[-122.745399,45.634587],[-122.745318,45.634583],[-122.745285,45.634502],[-122.745191,45.634493],[-122.745191,45.634361],[-122.745163,45.634325],[-122.744935,45.634312],[-122.744936,45.634132],[-122.745037,45.634128],[-122.745081,45.634093],[-122.745065,45.633952],[-122.745321,45.633953],[-122.745382,45.633977],[-122.74545,45.633953],[-122.745834,45.633954],[-122.745857,45.634028],[-122.745962,45.634044],[-122.745996,45.634125],[-122.74609,45.634135]],[[-122.745594,45.634449],[-122.74557,45.634347],[-122.745522,45.634316],[-122.745374,45.634315],[-122.745323,45.634351],[-122.745322,45.634455],[-122.745373,45.634491],[-122.745562,45.634484],[-122.745594,45.634449]],[[-122.745852,45.634269],[-122.745828,45.634167],[-122.745786,45.634138],[-122.745644,45.63412],[-122.745583,45.634153],[-122.745578,45.63427],[-122.745624,45.63431],[-122.745813,45.634307],[-122.745852,45.634269]],[[-122.74585,45.634629],[-122.745826,45.634527],[-122.745784,45.634498],[-122.745643,45.63448],[-122.745581,45.634513],[-122.745576,45.63463],[-122.745622,45.63467],[-122.745811,45.634667],[-122.74585,45.634629]]]}},{"type":"Feature","properties":{"id":7,"area_m2":2900,"px":29,"rank":2},"geometry":{"type":"Polygon","coordinates":[[[-122.753121,45.640091],[-122.75312,45.640271],[-122.753019,45.640275],[-122.752974,45.64031],[-122.752991,45.64045],[-122.752734,45.64045],[-122.752712,45.640376],[-122.752606,45.64036],[-122.752589,45.640289],[-122.752478,45.640269],[-122.752444,45.640188],[-122.75235,45.640179],[-122.752323,45.640101],[-122.752223,45.640089],[-122.752223,45.639909],[-122.752258,45.639861],[-122.752224,45.639819],[-122.752223,45.639682],[-122.752184,45.639645],[-122.752096,45.639638],[-122.752097,45.639548],[-122.752353,45.639549],[-122.752375,45.639713],[-122.752481,45.639729],[-122.752486,45.639786],[-122.752528,45.639815],[-122.752737,45.63982],[-122.752759,45.639894],[-122.752865,45.63991],[-122.752865,45.640041],[-122.752898,45.640081],[-122.753121,45.640091]]]}},{"type":"Feature","properties":{"id":10,"area_m2":1700,"px":17,"rank":3},"geometry":{"type":"Polygon","coordinates":[[[-122.753513,45.638291],[-122.753513,45.638471],[-122.753407,45.638487],[-122.753384,45.638561],[-122.752999,45.63856],[-122.752977,45.638486],[-122.752871,45.63847],[-122.752872,45.63829],[-122.752978,45.638274],[-122.753001,45.6382],[-122.753116,45.638176],[-122.753129,45.638111],[-122.753258,45.638111],[-122.75328,45.638185],[-122.753386,45.638201],[-122.753419,45.638282],[-122.753513,45.638291]]]}},{"type":"Feature","properties":{"id":4,"area_m2":1600,"px":16,"rank":4},"geometry":{"type":"Polygon","coordinates":[[[-122.754527,45.641174],[-122.754527,45.641354],[-122.754323,45.641342],[-122.754276,45.641373],[-122.75427,45.641443],[-122.754041,45.641455],[-122.754013,45.641491],[-122.754012,45.641623],[-122.753884,45.641622],[-122.753862,45.641548],[-122.753756,45.641532],[-122.753743,45.641466],[-122.753628,45.641442],[-122.7536,45.641364],[-122.7535,45.641352],[-122.753501,45.641172],[-122.753629,45.641172],[-122.753657,45.64125],[-122.753811,45.641276],[-122.753877,45.641247],[-122.753886,45.641173],[-122.754014,45.641173],[-122.754027,45.641239],[-122.754091,45.641263],[-122.754236,45.641254],[-122.754271,45.641173],[-122.754527,45.641174]]]}},{"type":"Feature","properties":{"id":5,"area_m2":1600,"px":16,"rank":5},"geometry":{"type":"Polygon","coordinates":[[[-122.75376,45.640632],[-122.753759,45.640812],[-122.753658,45.640816],[-122.753614,45.640852],[-122.75363,45.640992],[-122.753419,45.640982],[-122.753376,45.641016],[-122.753373,45.641081],[-122.753116,45.641081],[-122.753094,45.641007],[-122.752989,45.64099],[-122.752976,45.640834],[-122.752861,45.64081],[-122.752861,45.64072],[-122.753072,45.64073],[-122.753115,45.640696],[-122.753118,45.640631],[-122.753375,45.640631],[-122.753435,45.640656],[-122.753503,45.640632],[-122.75376,45.640632]]]}},{"type":"Feature","properties":{"id":15,"area_m2":1200,"px":12,"rank":6},"geometry":{"type":"Polygon","coordinates":[[[-122.747367,45.635488],[-122.747367,45.635578],[-122.74711,45.635577],[-122.747088,45.635503],[-122.746982,45.635487],[-122.746965,45.635416],[-122.746854,45.635396],[-122.746821,45.635316],[-122.746727,45.635306],[-122.746699,45.635228],[-122.746599,45.635216],[-122.746599,45.635126],[-122.746984,45.635127],[-122.747006,45.635201],[-122.747112,45.635217],[-122.747129,45.635377],[-122.747239,45.635397],[-122.747273,45.635478],[-122.747367,45.635488]]]}},{"type":"Feature","properties":{"id":17,"area_m2":900,"px":9,"rank":7},"geometry":{"type":"Polygon","coordinates":[[[-122.752758,45.634959],[-122.752757,45.635229],[-122.752501,45.635229],[-122.752478,45.635155],[-122.752373,45.635138],[-122.752339,45.635058],[-122.752245,45.635048],[-122.752245,45.634958],[-122.752758,45.634959]]]}},{"type":"Feature","properties":{"id":2,"area_m2":700,"px":7,"rank":8},"geometry":{"type":"Polygon","coordinates":[[[-122.751957,45.642068],[-122.751956,45.642248],[-122.751571,45.642247],[-122.751549,45.642173],[-122.751444,45.642157],[-122.751444,45.642067],[-122.751957,45.642068]]]}},{"type":"Feature","properties":{"id":11,"area_m2":700,"px":7,"rank":9},"geometry":{"type":"Polygon","coordinates":[[[-122.744926,45.636112],[-122.744926,45.636202],[-122.74482,45.636218],[-122.744797,45.636292],[-122.744682,45.636316],[-122.744669,45.636382],[-122.744412,45.636381],[-122.744413,45.636201],[-122.744629,45.636195],[-122.744666,45.636163],[-122.74467,45.636112],[-122.744926,45.636112]]]}},{"type":"Feature","properties":{"id":13,"area_m2":700,"px":7,"rank":10},"geometry":{"type":"Polygon","coordinates":[[[-122.748521,45.63558],[-122.748521,45.63567],[-122.748136,45.635669],[-122.748137,45.635399],[-122.748394,45.6354],[-122.748402,45.635551],[-122.748448,45.635578],[-122.748521,45.63558]]]}},{"type":"Feature","properties":{"id":1,"area_m2":600,"px":6,"rank":11},"geometry":{"type":"Polygon","coordinates":[[[-122.7576,45.642711],[-122.7576,45.6428],[-122.757494,45.642816],[-122.757471,45.64289],[-122.757215,45.64289],[-122.757216,45.64271],[-122.757321,45.642694],[-122.757344,45.64262],[-122.757472,45.64262],[-122.757495,45.642695],[-122.7576,45.642711]]]}},{"type":"Feature","properties":{"id":9,"area_m2":600,"px":6,"rank":12},"geometry":{"type":"Polygon","coordinates":[[[-122.749406,45.638643],[-122.749405,45.638822],[-122.749277,45.638822],[-122.749265,45.638666],[-122.749149,45.638642],[-122.749116,45.638561],[-122.749022,45.638552],[-122.748994,45.638474],[-122.748894,45.638461],[-122.748894,45.638371],[-122.749022,45.638372],[-122.749028,45.638428],[-122.749077,45.638459],[-122.749278,45.638462],[-122.749287,45.638614],[-122.749332,45.63864],[-122.749406,45.638643]]]}},{"type":"Feature","properties":{"id":6,"area_m2":500,"px":5,"rank":13},"geometry":{"type":"Polygon","coordinates":[[[-122.752734,45.64054],[-122.752733,45.64063],[-122.752605,45.64063],[-122.752592,45.640564],[-122.752477,45.640539],[-122.752443,45.640458],[-122.752221,45.640449],[-122.752222,45.640269],[-122.75235,45.640269],[-122.752372,45.640343],[-122.752478,45.640359],[-122.752491,45.640425],[-122.752606,45.64045],[-122.752634,45.640527],[-122.752734,45.64054]]]}},{"type":"Feature","properties":{"id":16,"area_m2":500,"px":5,"rank":14},"geometry":{"type":"Polygon","coordinates":[[[-122.75327,45.635231],[-122.75327,45.63532],[-122.753164,45.635336],[-122.753141,45.63541],[-122.753026,45.635434],[-122.753012,45.6355],[-122.752884,45.6355],[-122.752885,45.63532],[-122.752991,45.635304],[-122.753014,45.63523],[-122.75327,45.635231]]]}},{"type":"Feature","properties":{"id":8,"area_m2":400,"px":4,"rank":15},"geometry":{"type":"Polygon","coordinates":[[[-122.752094,45.640089],[-122.752094,45.640178],[-122.751966,45.640178],[-122.751943,45.640104],[-122.751838,45.640088],[-122.751825,45.640022],[-122.75171,45.639998],[-122.751682,45.63992],[-122.751582,45.639907],[-122.751582,45.639817],[-122.75171,45.639818],[-122.751733,45.639892],[-122.751838,45.639908],[-122.751851,45.639974],[-122.751966,45.639998],[-122.751994,45.640076],[-122.752094,45.640089]]]}},{"type":"Feature","properties":{"id":12,"area_m2":400,"px":4,"rank":16},"geometry":{"type":"Polygon","coordinates":[[[-122.750187,45.636214],[-122.750186,45.636304],[-122.74993,45.636303],[-122.749907,45.636229],[-122.749802,45.636213],[-122.749802,45.636123],[-122.750059,45.636124],[-122.750081,45.636198],[-122.750187,45.636214]]]}},{"type":"Feature","properties":{"id":3,"area_m2":300,"px":3,"rank":17},"geometry":{"type":"Polygon","coordinates":[[[-122.756706,45.641899],[-122.756704,45.642169],[-122.756576,45.642168],[-122.756577,45.641898],[-122.756706,45.641899]]]}},{"type":"Feature","properties":{"id":14,"area_m2":300,"px":3,"rank":18},"geometry":{"type":"Polygon","coordinates":[[[-122.745571,45.635484],[-122.74557,45.635664],[-122.745442,45.635663],[-122.74542,45.635589],[-122.745314,45.635573],[-122.745314,45.635483],[-122.745571,45.635484]]]}},{"type":"Feature","properties":{"id":18,"area_m2":300,"px":3,"rank":19},"geometry":{"type":"Polygon","coordinates":[[[-122.7466,45.634856],[-122.746599,45.635036],[-122.746471,45.635036],[-122.746449,45.634961],[-122.746343,45.634945],[-122.746344,45.634855],[-122.7466,45.634856]]]}}]}