{"type":"FeatureCollection","features":[{"type":"Feature","properties":{"id":11,"area_m2":5200,"px":52,"rank":1},"geometry":{"type":"Polygon","coordinates":[[[-122.749283,45.637472],[-122.749282,45.637562],[-122.749095,45.637562],[-122.749043,45.637581],[-122.749025,45.637741],[-122.748919,45.637757],[-122.748896,45.637831],[-122.748768,45.637831],[-122.748751,45.637671],[-122.748641,45.637651],[-122.748607,45.63757],[-122.748513,45.63756],[-122.748485,45.637483],[-122.748385,45.63747],[-122.748357,45.637392],[-122.748257,45.63738],[-122.748229,45.637302],[-122.748129,45.637289],[-122.748101,45.637212],[-122.748001,45.637199],[-122.74798,45.637022],[-122.747927,45.637005],[-122.747745,45.637019],[-122.747723,45.636854],[-122.747489,45.636838],[-122.747477,45.636682],[-122.747421,45.636658],[-122.747234,45.636657],[-122.747211,45.636583],[-122.747106,45.636567],[-122.747106,45.636436],[-122.747078,45.636399],[-122.74685,45.636387],[-122.746851,45.636117],[-122.746979,45.636117],[-122.747002,45.636191],[-122.747107,45.636207],[-122.747141,45.636288],[-122.747235,45.636297],[-122.747257,45.636462],[-122.747491,45.636478],[-122.747513,45.636552],[-122.747619,45.636568],[-122.747636,45.636639],[-122.747747,45.636659],[-122.747781,45.63674],[-122.747875,45.636749],[-122.747903,45.636827],[-122.748003,45.636839],[-122.74803,45.636917],[-122.74813,45.63693],[-122.748158,45.637007],[-122.748258,45.63702],[-122.748286,45.637098],[-122.748386,45.63711],[-122.748386,45.637241],[-122.748414,45.637278],[-122.748565,45.63729],[-122.74862,45.637275],[-122.748643,45.637021],[-122.748772,45.637021],[-122.748786,45.637283],[-122.748738,45.637323],[-122.748751,45.637368],[-122.748809,45.637394],[-122.748865,45.637385],[-122.748899,45.637291],[-122.749155,45.637292],[-122.749164,45.637443],[-122.749209,45.63747],[-122.749283,45.637472]]]}},{"type":"Feature","properties":{"id":8,"area_m2":1200,"px":12,"rank":2},"geometry":{"type":"Polygon","coordinates":[[[-122.753513,45.638291],[-122.753513,45.638381],[-122.753407,45.638397],[-122.753384,45.638471],[-122.753,45.63847],[-122.753001,45.6382],[-122.753107,45.638185],[-122.753129,45.638111],[-122.753386,45.638111],[-122.753394,45.638263],[-122.75344,45.638289],[-122.753513,45.638291]]]}},{"type":"Feature","properties":{"id":23,"area_m2":1000,"px":10,"rank":3},"geometry":{"type":"Polygon","coordinates":[[[-122.752886,45.63505],[-122.752886,45.63514],[-122.752373,45.635138],[-122.75235,45.635064],[-122.752245,45.635048],[-122.752246,45.634868],[-122.752502,45.634869],[-122.752536,45.63495],[-122.752758,45.634959],[-122.752781,45.635034],[-122.752886,45.63505]]]}},{"type":"Feature","properties":{"id":29,"area_m2":1000,"px":10,"rank":4},"geometry":{"type":"Polygon","coordinates":[[[-122.745577,45.634044],[-122.745576,45.634313],[-122.745448,45.634313],[-122.745426,45.634239],[-122.74532,45.634223],[-122.745286,45.634142],[-122.745192,45.634133],[-122.745189,45.633991],[-122.745145,45.633957],[-122.745065,45.633952],[-122.745065,45.633862],[-122.745322,45.633863],[-122.745344,45.633937],[-122.745449,45.633953],[-122.745483,45.634034],[-122.745577,45.634044]]]}},{"type":"Feature","properties":{"id":5,"area_m2":900,"px":9,"rank":5},"geometry":{"type":"Polygon","coordinates":[[[-122.749918,45.638914],[-122.749918,45.639004],[-122.749789,45.639003],[-122.749772,45.638933],[-122.749661,45.638913],[-122.749628,45.638832],[-122.749534,45.638823],[-122.749506,45.638745],[-122.749277,45.638732],[-122.749269,45.638491],[-122.749217,45.638463],[-122.749022,45.638462],[-122.749022,45.638372],[-122.749279,45.638372],[-122.749301,45.638446],[-122.749407,45.638462],[-122.749424,45.638623],[-122.749534,45.638643],[-122.749568,45.638724],[-122.749662,45.638733],[-122.74969,45.638811],[-122.74979,45.638823],[-122.749818,45.638901],[-122.749918,45.638914]]]}},{"type":"Feature","properties":{"id":3,"area_m2":700,"px":7,"rank":6},"geometry":{"type":"Polygon","coordinates":[[[-122.750171,45.639724],[-122.75017,45.639994],[-122.750042,45.639994],[-122.750019,45.63992],[-122.749914,45.639904],[-122.74988,45.639823],[-122.749786,45.639813],[-122.749787,45.639633],[-122.749915,45.639634],[-122.74992,45.63969],[-122.749969,45.639721],[-122.750171,45.639724]]]}},{"type":"Feature","properties":{"id":20,"area_m2":700,"px":7,"rank":7},"geometry":{"type":"Polygon","coordinates":[[[-122.75327,45.635231],[-122.75327,45.63532],[-122.753164,45.635336],[-122.753141,45.63541],[-122.753026,45.635434],[-122.753012,45.6355],[-122.752884,45.6355],[-122.752886,45.63523],[-122.752991,45.635214],[-122.753014,45.63514],[-122.753142,45.63514],[-122.753165,45.635214],[-122.75327,45.635231]]]}},{"type":"Feature","properties":{"id":2,"area_m2":600,"px":6,"rank":8},"geometry":{"type":"Polygon","coordinates":[[[-122.754145,45.640633],[-122.754144,45.640723],[-122.754018,45.640723],[-122.754013,45.640671],[-122.753976,45.640639],[-122.75376,45.640632],[-122.753738,45.640558],[-122.753632,45.640542],[-122.753633,45.640362],[-122.753761,45.640362],[-122.753783,45.640436],[-122.753889,45.640452],[-122.753902,45.640518],[-122.754017,45.640543],[-122.754045,45.64062],[-122.754145,45.640633]]]}},{"type":"Feature","properties":{"id":9,"area_m2":600,"px":6,"rank":9},"geometry":{"type":"Polygon","coordinates":[[[-122.748254,45.63801],[-122.748253,45.63819],[-122.747868,45.638189],[-122.747869,45.638009],[-122.748254,45.63801]]]}},{"type":"Feature","properties":{"id":12,"area_m2":600,"px":6,"rank":10},"geometry":{"type":"Polygon","coordinates":[[[-122.748515,45.63693],[-122.748515,45.63702],[-122.748387,45.63702],[-122.748365,45.636946],[-122.748259,45.63693],[-122.748246,45.636864],[-122.748131,45.636839],[-122.748103,45.636762],[-122.748003,45.636749],[-122.748004,45.636659],[-122.74826,45.63666],[-122.748282,45.636734],[-122.748388,45.63675],[-122.7484,45.636906],[-122.748515,45.63693]]]}},{"type":"Feature","properties":{"id":15,"area_m2":600,"px":6,"rank":11},"geometry":{"type":"Polygon","coordinates":[[[-122.745696,45.636204],[-122.745695,45.636384],[-122.745439,45.636383],[-122.745416,45.636309],[-122.745311,45.636293],[-122.745312,45.636113],[-122.74544,45.636113],[-122.745445,45.63617],[-122.745494,45.636201],[-122.745696,45.636204]]]}},{"type":"Feature","properties":{"id":21,"area_m2":600,"px":6,"rank":12},"geometry":{"type":"Polygon","coordinates":[[[-122.745315,45.635213],[-122.745315,45.635303],[-122.745059,45.635302],[-122.745036,45.635228],[-122.744931,45.635212],[-122.744932,45.635032],[-122.745188,45.635033],[-122.745196,45.635184],[-122.745242,45.635211],[-122.745315,45.635213]]]}},{"type":"Feature","properties":{"id":17,"area_m2":500,"px":5,"rank":13},"geometry":{"type":"Polygon","coordinates":[[[-122.744158,45.635841],[-122.744157,45.63602],[-122.743772,45.63602],[-122.743773,45.63593],[-122.743878,45.635914],[-122.743901,45.63584],[-122.744158,45.635841]]]}},{"type":"Feature","properties":{"id":19,"area_m2":500,"px":5,"rank":14},"geometry":{"type":"Polygon","coordinates":[[[-122.744801,45.635392],[-122.744801,45.635482],[-122.744707,45.635491],[-122.744673,45.635536],[-122.744685,45.635638],[-122.7448,45.635662],[-122.7448,45.635752],[-122.744672,45.635752],[-122.744649,45.635677],[-122.744544,45.635661],[-122.744545,45.635391],[-122.744801,45.635392]]]}},{"type":"Feature","properties":{"id":26,"area_m2":500,"px":5,"rank":15},"geometry":{"type":"Polygon","coordinates":[[[-122.744676,45.634672],[-122.744676,45.634852],[-122.744419,45.634851],[-122.744416,45.634709],[-122.744372,45.634675],[-122.744292,45.634671],[-122.744292,45.634581],[-122.74442,45.634581],[-122.744426,45.634638],[-122.744475,45.634669],[-122.744676,45.634672]]]}},{"type":"Feature","properties":{"id":1,"area_m2":400,"px":4,"rank":16},"geometry":{"type":"Polygon","coordinates":[[[-122.7517,45.642068],[-122.7517,45.642248],[-122.751571,45.642247],[-122.751549,45.642173],[-122.751444,45.642157],[-122.751444,45.641977],[-122.751572,45.641978],[-122.751595,45.642052],[-122.7517,45.642068]]]}},{"type":"Feature","properties":{"id":7,"area_m2":400,"px":4,"rank":17},"geometry":{"type":"Polygon","coordinates":[[[-122.748508,45.638551],[-122.748507,45.63873],[-122.748251,45.63873],[-122.748252,45.63855],[-122.748508,45.638551]]]}},{"type":"Feature","properties":{"id":10,"area_m2":400,"px":4,"rank":18},"geometry":{"type":"Polygon","coordinates":[[[-122.749922,45.637924],[-122.749922,45.638103],[-122.749793,45.638103],[-122.749771,45.638029],[-122.749666,45.638013],[-122.749666,45.637833],[-122.749794,45.637833],[-122.749817,45.637907],[-122.749922,45.637924]]]}},{"type":"Feature","properties":{"id":14,"area_m2":400,"px":4,"rank":19},"geometry":{"type":"Polygon","coordinates":[[[-122.747748,45.636299],[-122.747748,45.636479],[-122.747619,45.636478],[-122.747597,45.636404],[-122.747492,45.636388],[-122.747458,45.636307],[-122.747364,45.636298],[-122.747364,45.636208],[-122.747492,45.636208],[-122.747498,45.636265],[-122.747546,45.636296],[-122.747748,45.636299]]]}},{"type":"Feature","properties":{"id":16,"area_m2":400,"px":4,"rank":20},"geometry":{"type":"Polygon","coordinates":[[[-122.750187,45.636124],[-122.750186,45.636304],[-122.74993,45.636303],[-122.749931,45.636123],[-122.750187,45.636124]]]}},{"type":"Feature","properties":{"id":24,"area_m2":400,"px":4,"rank":21},"geometry":{"type":"Polygon","coordinates":[[[-122.748653,45.63486],[-122.748652,45.63504],[-122.748396,45.63504],[-122.748397,45.63486],[-122.748653,45.63486]]]}},{"type":"Feature","properties":{"id":25,"area_m2":400,"px":4,"rank":22},"geometry":{"type":"Polygon","coordinates":[[[-122.746986,45.634677],[-122.746985,45.634857],[-122.746729,45.634856],[-122.746729,45.634676],[-122.746986,45.634677]]]}},{"type":"Feature","properties":{"id":31,"area_m2":400,"px":4,"rank":23},"geometry":{"type":"Polygon","coordinates":[[[-122.734693,45.629428],[-122.734693,45.629518],[-122.734437,45.629518],[-122.734414,45.629443],[-122.734309,45.629427],[-122.734309,45.629337],[-122.734566,45.629338],[-122.734588,45.629412],[-122.734693,45.629428]]]}},{"type":"Feature","properties":{"id":4,"area_m2":300,"px":3,"rank":24},"geometry":{"type":"Polygon","coordinates":[[[-122.749659,45.639543],[-122.749658,45.639633],[-122.749532,45.639633],[-122.749508,45.639559],[-122.749402,45.639542],[-122.749403,45.639363],[-122.749531,45.639363],[-122.74954,45.639514],[-122.749585,45.639541],[-122.749659,45.639543]]]}},{"type":"Feature","properties":{"id":6,"area_m2":300,"px":3,"rank":25},"geometry":{"type":"Polygon","coordinates":[[[-122.747353,45.638728],[-122.747352,45.638908],[-122.747224,45.638908],[-122.747221,45.638766],[-122.747177,45.638732],[-122.747096,45.638727],[-122.747096,45.638637],[-122.747225,45.638638],[-122.747247,45.638712],[-122.747353,45.638728]]]}},{"type":"Feature","properties":{"id":13,"area_m2":300,"px":3,"rank":26},"geometry":{"type":"Polygon","coordinates":[[[-122.74454,45.636472],[-122.744539,45.636741],[-122.744411,45.636741],[-122.744412,45.636471],[-122.74454,45.636472]]]}},{"type":"Feature","properties":{"id":18,"area_m2":300,"px":3,"rank":27},"geometry":{"type":"Polygon","coordinates":[[[-122.745184,45.635843],[-122.745184,45.635933],[-122.744927,45.635932],[-122.744928,45.635752],[-122.745056,45.635753],[-122.745079,45.635827],[-122.745184,45.635843]]]}},{"type":"Feature","properties":{"id":22,"area_m2":300,"px":3,"rank":28},"geometry":{"type":"Polygon","coordinates":[[[-122.747369,45.635038],[-122.747368,45.635218],[-122.74724,45.635217],[-122.747218,45.635143],[-122.747112,45.635127],[-122.747113,45.635037],[-122.747369,45.635038]]]}},{"type":"Feature","properties":{"id":27,"area_m2":300,"px":3,"rank":29},"geometry":{"type":"Polygon","coordinates":[[[-122.745575,45.634494],[-122.745574,45.634674],[-122.745446,45.634673],[-122.745424,45.634599],[-122.745318,45.634583],[-122.745319,45.634493],[-122.745575,45.634494]]]}},{"type":"Feature","properties":{"id":28,"area_m2":300,"px":3,"rank":30},"geometry":{"type":"Polygon","coordinates":[[[-122.742239,45.634486],[-122.742239,45.634576],[-122.742111,45.634576],[-122.742089,45.634502],[-122.741983,45.634485],[-122.741949,45.634405],[-122.741855,45.634395],[-122.741856,45.634305],[-122.741984,45.634306],[-122.742006,45.63438],[-122.742112,45.634396],[-122.742146,45.634477],[-122.742239,45.634486]]]}},{"type":"Feature","properties":{"id":30,"area_m2":300,"px":3,"rank":31},"geometry":{"type":"Polygon","coordinates":[[[-122.738146,45.631777],[-122.738146,45.631866],[-122.73802,45.631866],[-122.737996,45.631792],[-122.73789,45.631776],[-122.737891,45.631596],[-122.738019,45.631596],[-122.738027,45.631748],[-122.738073,45.631774],[-122.738146,45.631777]]]}}]}