{"type":"FeatureCollection","features":[{"type":"Feature","properties":{"id":8,"area_m2":3500,"px":35,"rank":1},"geometry":{"type":"Polygon","coordinates":[[[-122.75377,45.638292],[-122.753769,45.638472],[-122.753541,45.638484],[-122.753512,45.638561],[-122.753418,45.63857],[-122.753384,45.638651],[-122.753273,45.638671],[-122.753255,45.638741],[-122.753127,45.63874],[-122.753121,45.638684],[-122.753072,45.638653],[-122.75287,45.63865],[-122.752862,45.638499],[-122.752817,45.638472],[-122.752743,45.63847],[-122.752743,45.63838],[-122.752849,45.638364],[-122.752872,45.63829],[-122.752972,45.638278],[-122.753001,45.6382],[-122.753095,45.638191],[-122.753129,45.638111],[-122.75324,45.638091],[-122.753258,45.638021],[-122.753515,45.638021],[-122.753527,45.638177],[-122.753642,45.638202],[-122.753676,45.638283],[-122.75377,45.638292]]]}},{"type":"Feature","properties":{"id":7,"area_m2":1800,"px":18,"rank":2},"geometry":{"type":"Polygon","coordinates":[[[-122.759798,45.638845],[-122.759798,45.638935],[-122.759542,45.638934],[-122.759519,45.63886],[-122.759414,45.638844],[-122.759397,45.638684],[-122.759286,45.638664],[-122.759269,45.638593],[-122.759158,45.638573],[-122.759145,45.638507],[-122.75903,45.638483],[-122.758996,45.638402],[-122.758774,45.638393],[-122.758752,45.638318],[-122.758646,45.638302],[-122.758633,45.638236],[-122.758518,45.638212],[-122.75849,45.638134],[-122.75839,45.638122],[-122.758391,45.638032],[-122.758647,45.638032],[-122.758664,45.638103],[-122.758775,45.638123],[-122.758809,45.638204],[-122.758903,45.638213],[-122.758931,45.638291],[-122.759031,45.638303],[-122.759059,45.638381],[-122.759159,45.638393],[-122.759187,45.638471],[-122.759415,45.638484],[-122.759437,45.638558],[-122.759543,45.638574],[-122.75956,45.638735],[-122.75967,45.638755],[-122.759704,45.638835],[-122.759798,45.638845]]]}},{"type":"Feature","properties":{"id":15,"area_m2":1100,"px":11,"rank":3},"geometry":{"type":"Polygon","coordinates":[[[-122.746853,45.635128],[-122.746821,45.635174],[-122.746855,45.635217],[-122.746855,45.635306],[-122.746598,45.635306],[-122.746576,45.635232],[-122.74647,45.635216],[-122.746436,45.635135],[-122.746342,45.635125],[-122.746343,45.634945],[-122.746471,45.634946],[-122.746532,45.63497],[-122.7466,45.634946],[-122.746856,45.634947],[-122.746853,45.635128]]]}},{"type":"Feature","properties":{"id":22,"area_m2":1100,"px":11,"rank":4},"geometry":{"type":"Polygon","coordinates":[[[-122.747896,45.631979],[-122.747896,45.632068],[-122.747769,45.632068],[-122.747764,45.632016],[-122.747727,45.631984],[-122.747511,45.631978],[-122.747494,45.631907],[-122.747383,45.631887],[-122.747349,45.631806],[-122.747256,45.631797],[-122.747228,45.631719],[-122.747128,45.631707],[-122.7471,45.631629],[-122.746871,45.631616],[-122.746849,45.631542],[-122.746744,45.631526],[-122.74671,45.631445],[-122.746616,45.631435],[-122.746616,45.631346],[-122.746744,45.631346],[-122.746757,45.631412],[-122.746872,45.631436],[-122.746875,45.631488],[-122.746912,45.63152],[-122.747128,45.631527],[-122.747146,45.631597],[-122.747256,45.631617],[-122.74729,45.631698],[-122.747384,45.631707],[-122.747412,45.631785],[-122.74764,45.631798],[-122.747663,45.631872],[-122.747768,45.631888],[-122.747802,45.631969],[-122.747896,45.631979]]]}},{"type":"Feature","properties":{"id":17,"area_m2":900,"px":9,"rank":5},"geometry":{"type":"Polygon","coordinates":[[[-122.752632,45.634509],[-122.752631,45.634689],[-122.752375,45.634688],[-122.752352,45.634614],[-122.752247,45.634598],[-122.75223,45.634438],[-122.752178,45.634418],[-122.751991,45.634418],[-122.751991,45.634328],[-122.752248,45.634328],[-122.752282,45.634409],[-122.752504,45.634419],[-122.752526,45.634493],[-122.752632,45.634509]]]}},{"type":"Feature","properties":{"id":23,"area_m2":900,"px":9,"rank":6},"geometry":{"type":"Polygon","coordinates":[[[-122.734963,45.626639],[-122.734962,45.626819],[-122.734449,45.626817],[-122.734446,45.626766],[-122.734409,45.626734],[-122.734193,45.626727],[-122.734194,45.626637],[-122.734578,45.626638],[-122.734639,45.626662],[-122.734707,45.626638],[-122.734963,45.626639]]]}},{"type":"Feature","properties":{"id":4,"area_m2":700,"px":7,"rank":7},"geometry":{"type":"Polygon","coordinates":[[[-122.750813,45.639726],[-122.750811,45.639996],[-122.750683,45.639995],[-122.750623,45.639971],[-122.750555,45.639995],[-122.750427,45.639995],[-122.750428,45.639725],[-122.750813,45.639726]]]}},{"type":"Feature","properties":{"id":2,"area_m2":600,"px":6,"rank":8},"geometry":{"type":"Polygon","coordinates":[[[-122.752222,45.640269],[-122.752221,45.640449],[-122.752147,45.640451],[-122.752102,45.640477],[-122.752092,45.640628],[-122.751964,45.640628],[-122.751964,45.640448],[-122.75208,45.640424],[-122.752092,45.640312],[-122.752031,45.640269],[-122.751837,45.640268],[-122.751837,45.640178],[-122.752094,45.640179],[-122.752116,45.640253],[-122.752222,45.640269]]]}},{"type":"Feature","properties":{"id":6,"area_m2":600,"px":6,"rank":9},"geometry":{"type":"Polygon","coordinates":[[[-122.749277,45.638732],[-122.749276,45.639002],[-122.749148,45.639002],[-122.749145,45.63877],[-122.749101,45.638736],[-122.749021,45.638732],[-122.749022,45.638462],[-122.74915,45.638462],[-122.749152,45.638694],[-122.749197,45.638728],[-122.749277,45.638732]]]}},{"type":"Feature","properties":{"id":3,"area_m2":500,"px":5,"rank":10},"geometry":{"type":"Polygon","coordinates":[[[-122.761846,45.640199],[-122.761845,45.640289],[-122.761589,45.640289],[-122.761566,45.640214],[-122.761461,45.640198],[-122.761427,45.640117],[-122.761333,45.640108],[-122.761333,45.640018],[-122.761461,45.640018],[-122.761467,45.640075],[-122.761516,45.640106],[-122.761718,45.640109],[-122.76174,45.640183],[-122.761846,45.640199]]]}},{"type":"Feature","properties":{"id":10,"area_m2":500,"px":5,"rank":11},"geometry":{"type":"Polygon","coordinates":[[[-122.751851,45.637118],[-122.75185,45.637208],[-122.751724,45.637207],[-122.7517,45.637133],[-122.751594,45.637117],[-122.751586,45.636966],[-122.75154,45.636939],[-122.751467,45.636937],[-122.751467,45.636757],[-122.751596,45.636757],[-122.751604,45.636909],[-122.751649,45.636935],[-122.751723,45.636937],[-122.75174,45.637098],[-122.751851,45.637118]]]}},{"type":"Feature","properties":{"id":13,"area_m2":500,"px":5,"rank":12},"geometry":{"type":"Polygon","coordinates":[[[-122.753142,45.63532],[-122.753141,45.6355],[-122.753035,45.635516],[-122.753012,45.63559],[-122.752756,45.635589],[-122.752756,45.635499],[-122.752862,45.635484],[-122.752885,45.63541],[-122.753,45.635386],[-122.753013,45.63532],[-122.753142,45.63532]]]}},{"type":"Feature","properties":{"id":19,"area_m2":500,"px":5,"rank":13},"geometry":{"type":"Polygon","coordinates":[[[-122.745577,45.634224],[-122.745575,45.634493],[-122.745447,45.634493],[-122.745425,45.634419],[-122.745319,45.634403],[-122.74532,45.634223],[-122.745577,45.634224]]]}},{"type":"Feature","properties":{"id":1,"area_m2":400,"px":4,"rank":14},"geometry":{"type":"Polygon","coordinates":[[[-122.753115,45.641261],[-122.753115,45.641441],[-122.752987,45.64144],[-122.752964,45.641366],[-122.752859,45.64135],[-122.752859,45.64117],[-122.752988,45.641171],[-122.75301,45.641245],[-122.753115,45.641261]]]}},{"type":"Feature","properties":{"id":5,"area_m2":400,"px":4,"rank":15},"geometry":{"type":"Polygon","coordinates":[[[-122.748505,45.639271],[-122.748504,45.63936],[-122.74812,45.63936],[-122.748121,45.63918],[-122.748249,45.63918],[-122.748254,45.639237],[-122.748303,45.639268],[-122.748505,45.639271]]]}},{"type":"Feature","properties":{"id":9,"area_m2":400,"px":4,"rank":16},"geometry":{"type":"Polygon","coordinates":[[[-122.752235,45.637119],[-122.752235,45.637298],[-122.752129,45.637314],[-122.752106,45.637388],[-122.751978,45.637388],[-122.751979,45.637208],[-122.752084,45.637192],[-122.752107,45.637118],[-122.752235,45.637119]]]}},{"type":"Feature","properties":{"id":12,"area_m2":400,"px":4,"rank":17},"geometry":{"type":"Polygon","coordinates":[[[-122.75532,45.636045],[-122.755319,45.636135],[-122.755191,45.636135],[-122.755178,45.636069],[-122.755063,45.636044],[-122.755029,45.635963],[-122.754807,45.635954],[-122.754807,45.635864],[-122.755064,45.635864],[-122.755086,45.635939],[-122.755192,45.635955],[-122.755226,45.636036],[-122.75532,45.636045]]]}},{"type":"Feature","properties":{"id":21,"area_m2":400,"px":4,"rank":18},"geometry":{"type":"Polygon","coordinates":[[[-122.74892,45.632521],[-122.74892,45.632611],[-122.748663,45.63261],[-122.748641,45.632536],[-122.748535,45.63252],[-122.748501,45.632439],[-122.748407,45.63243],[-122.748408,45.63234],[-122.748536,45.63234],[-122.748549,45.632406],[-122.748664,45.63243],[-122.748667,45.632482],[-122.748704,45.632514],[-122.74892,45.632521]]]}},{"type":"Feature","properties":{"id":11,"area_m2":300,"px":3,"rank":19},"geometry":{"type":"Polygon","coordinates":[[[-122.748775,45.636301],[-122.748774,45.636481],[-122.748668,45.636496],[-122.748645,45.636571],[-122.748517,45.63657],[-122.748518,45.63648],[-122.748598,45.636476],[-122.748643,45.636442],[-122.748647,45.636301],[-122.748775,45.636301]]]}},{"type":"Feature","properties":{"id":14,"area_m2":300,"px":3,"rank":20},"geometry":{"type":"Polygon","coordinates":[[[-122.747368,45.635218],[-122.747368,45.635308],[-122.746983,45.635307],[-122.746984,45.635217],[-122.747368,45.635218]]]}},{"type":"Feature","properties":{"id":16,"area_m2":300,"px":3,"rank":21},"geometry":{"type":"Polygon","coordinates":[[[-122.752501,45.635139],[-122.7525,45.635229],[-122.752244,45.635228],[-122.752245,45.635048],[-122.752373,45.635049],[-122.752395,45.635123],[-122.752501,45.635139]]]}},{"type":"Feature","properties":{"id":18,"area_m2":300,"px":3,"rank":22},"geometry":{"type":"Polygon","coordinates":[[[-122.74596,45.634494],[-122.74596,45.634584],[-122.745854,45.6346],[-122.745831,45.634674],[-122.745703,45.634674],[-122.745704,45.634494],[-122.74596,45.634494]]]}},{"type":"Feature","properties":{"id":20,"area_m2":300,"px":3,"rank":23},"geometry":{"type":"Polygon","coordinates":[[[-122.749816,45.633063],[-122.749815,45.633153],[-122.749687,45.633152],[-122.749665,45.633078],[-122.749559,45.633062],[-122.749525,45.632981],[-122.749431,45.632972],[-122.749432,45.632882],[-122.74956,45.632882],[-122.749582,45.632956],[-122.749688,45.632973],[-122.749722,45.633053],[-122.749816,45.633063]]]}}]}