{"type":"FeatureCollection","features":[{"type":"Feature","properties":{"id":7,"area_m2":2500,"px":25,"rank":1},"geometry":{"type":"Polygon","coordinates":[[[-122.74723,45.637378],[-122.74723,45.637467],[-122.747124,45.637483],[-122.747101,45.637557],[-122.746986,45.637581],[-122.746972,45.637647],[-122.746844,45.637647],[-122.746822,45.637572],[-122.746716,45.637556],[-122.746682,45.637475],[-122.746589,45.637466],[-122.746586,45.637324],[-122.746542,45.63729],[-122.746461,45.637286],[-122.746453,45.637134],[-122.746407,45.637108],[-122.746334,45.637105],[-122.7463,45.637025],[-122.746206,45.637015],[-122.746206,45.636925],[-122.746591,45.636926],[-122.746613,45.63709],[-122.746847,45.637107],[-122.746869,45.637181],[-122.746974,45.637197],[-122.746987,45.637263],[-122.747102,45.637287],[-122.74713,45.637365],[-122.74723,45.637378]]]}},{"type":"Feature","properties":{"id":4,"area_m2":2000,"px":20,"rank":2},"geometry":{"type":"Polygon","coordinates":[[[-122.753513,45.638381],[-122.753512,45.638561],[-122.753407,45.638577],[-122.753384,45.638651],[-122.752999,45.63865],[-122.752976,45.638576],[-122.752871,45.63856],[-122.752872,45.63838],[-122.752945,45.638378],[-122.752991,45.638352],[-122.753001,45.6382],[-122.753107,45.638185],[-122.753129,45.638111],[-122.753245,45.638087],[-122.753258,45.638021],[-122.753386,45.638022],[-122.753386,45.638111],[-122.753305,45.638115],[-122.753261,45.638149],[-122.753266,45.638262],[-122.753312,45.638289],[-122.753385,45.638291],[-122.753419,45.638372],[-122.753513,45.638381]]]}},{"type":"Feature","properties":{"id":5,"area_m2":1900,"px":19,"rank":3},"geometry":{"type":"Polygon","coordinates":[[[-122.748253,45.63819],[-122.748252,45.63837],[-122.747868,45.638369],[-122.747847,45.638192],[-122.747794,45.638175],[-122.747612,45.638188],[-122.747603,45.638037],[-122.747558,45.638011],[-122.747484,45.638008],[-122.747467,45.637848],[-122.747357,45.637828],[-122.747358,45.637648],[-122.747486,45.637648],[-122.747508,45.637722],[-122.747614,45.637738],[-122.747631,45.637809],[-122.747741,45.637829],[-122.747775,45.63791],[-122.747869,45.637919],[-122.747897,45.637997],[-122.747997,45.638009],[-122.748025,45.638087],[-122.748125,45.6381],[-122.748153,45.638177],[-122.748253,45.63819]]]}},{"type":"Feature","properties":{"id":3,"area_m2":1800,"px":18,"rank":4},"geometry":{"type":"Polygon","coordinates":[[[-122.750298,45.640085],[-122.750297,45.640265],[-122.75004,45.640264],[-122.750018,45.64019],[-122.749913,45.640174],[-122.749895,45.640103],[-122.749785,45.640083],[-122.749751,45.640002],[-122.749657,45.639993],[-122.749629,45.639915],[-122.749529,45.639903],[-122.749526,45.639761],[-122.749482,45.639727],[-122.749401,45.639722],[-122.749402,45.639633],[-122.749658,45.639633],[-122.74968,45.639707],[-122.749786,45.639723],[-122.749803,45.639794],[-122.749914,45.639814],[-122.749948,45.639895],[-122.750042,45.639904],[-122.75007,45.639982],[-122.75017,45.639994],[-122.750198,45.640072],[-122.750298,45.640085]]]}},{"type":"Feature","properties":{"id":11,"area_m2":1100,"px":11,"rank":5},"geometry":{"type":"Polygon","coordinates":[[[-122.752886,45.63514],[-122.752885,45.63523],[-122.75278,45.635245],[-122.752757,45.635319],[-122.752372,45.635319],[-122.75235,45.635244],[-122.752244,45.635228],[-122.752245,45.635048],[-122.75263,45.635049],[-122.752633,45.635101],[-122.75267,45.635133],[-122.752886,45.63514]]]}},{"type":"Feature","properties":{"id":2,"area_m2":500,"px":5,"rank":6},"geometry":{"type":"Polygon","coordinates":[[[-122.755686,45.640366],[-122.755685,45.640456],[-122.755557,45.640456],[-122.755535,45.640382],[-122.755429,45.640366],[-122.755416,45.6403],[-122.755301,45.640275],[-122.755273,45.640198],[-122.755173,45.640185],[-122.755174,45.640095],[-122.75543,45.640096],[-122.755443,45.640252],[-122.755558,45.640276],[-122.755592,45.640357],[-122.755686,45.640366]]]}},{"type":"Feature","properties":{"id":9,"area_m2":500,"px":5,"rank":7},"geometry":{"type":"Polygon","coordinates":[[[-122.751851,45.637028],[-122.75185,45.637208],[-122.751722,45.637207],[-122.7517,45.637133],[-122.751594,45.637117],[-122.751591,45.636975],[-122.751547,45.636941],[-122.751467,45.636937],[-122.751467,45.636847],[-122.751595,45.636847],[-122.751617,45.636921],[-122.751723,45.636937],[-122.751757,45.637018],[-122.751851,45.637028]]]}},{"type":"Feature","properties":{"id":10,"area_m2":500,"px":5,"rank":8},"geometry":{"type":"Polygon","coordinates":[[[-122.753142,45.63532],[-122.753141,45.6355],[-122.753035,45.635516],[-122.753012,45.63559],[-122.752756,45.635589],[-122.752756,45.635499],[-122.752862,45.635484],[-122.752885,45.63541],[-122.753,45.635386],[-122.753013,45.63532],[-122.753142,45.63532]]]}},{"type":"Feature","properties":{"id":8,"area_m2":400,"px":4,"rank":9},"geometry":{"type":"Polygon","coordinates":[[[-122.752235,45.637209],[-122.752235,45.637298],[-122.751978,45.637298],[-122.751979,45.637028],[-122.752108,45.637028],[-122.752116,45.63718],[-122.752162,45.637206],[-122.752235,45.637209]]]}},{"type":"Feature","properties":{"id":12,"area_m2":400,"px":4,"rank":10},"geometry":{"type":"Polygon","coordinates":[[[-122.745335,45.630803],[-122.745335,45.630983],[-122.745078,45.630982],[-122.745079,45.630802],[-122.745335,45.630803]]]}},{"type":"Feature","properties":{"id":1,"area_m2":300,"px":3,"rank":11},"geometry":{"type":"Polygon","coordinates":[[[-122.750421,45.641255],[-122.75042,45.641435],[-122.750292,45.641435],[-122.750289,45.641293],[-122.750245,45.641259],[-122.750164,45.641254],[-122.750165,45.641164],[-122.750293,45.641165],[-122.750315,45.641239],[-122.750421,45.641255]]]}},{"type":"Feature","properties":{"id":6,"area_m2":300,"px":3,"rank":12},"geometry":{"type":"Polygon","coordinates":[[[-122.74633,45.637826],[-122.74633,45.637916],[-122.746073,45.637915],[-122.746074,45.637735],[-122.746202,45.637735],[-122.746224,45.63781],[-122.74633,45.637826]]]}}]}