{"type":"FeatureCollection","features":[{"type":"Feature","properties":{"id":13,"area_m2":13300,"px":133,"rank":1},"geometry":{"type":"Polygon","coordinates":[[[-122.750184,45.636844],[-122.750183,45.636934],[-122.750078,45.63695],[-122.750055,45.637024],[-122.749744,45.637009],[-122.749691,45.637026],[-122.749669,45.637113],[-122.749589,45.637117],[-122.749547,45.637146],[-122.74954,45.637293],[-122.749217,45.637293],[-122.749164,45.63732],[-122.749155,45.637382],[-122.748898,45.637381],[-122.748876,45.637307],[-122.748771,45.637291],[-122.748753,45.637221],[-122.748643,45.637201],[-122.748609,45.63712],[-122.748515,45.63711],[-122.748487,45.637033],[-122.748387,45.63702],[-122.748359,45.636942],[-122.748259,45.63693],[-122.748237,45.636766],[-122.748003,45.636749],[-122.747981,45.636675],[-122.747875,45.636659],[-122.747853,45.636495],[-122.747619,45.636478],[-122.747597,45.636404],[-122.747492,45.636388],[-122.747492,45.636208],[-122.7476,45.636202],[-122.74764,45.636152],[-122.747604,45.636048],[-122.747493,45.636028],[-122.747494,45.635758],[-122.747698,45.635769],[-122.747745,45.635739],[-122.747751,45.635669],[-122.747879,45.635669],[-122.747902,45.635743],[-122.748007,45.635759],[-122.748025,45.635829],[-122.748135,45.635849],[-122.748169,45.63593],[-122.748263,45.63594],[-122.748291,45.636017],[-122.748391,45.63603],[-122.748419,45.636108],[-122.748519,45.63612],[-122.748547,45.636198],[-122.748647,45.636211],[-122.748675,45.636288],[-122.748775,45.636301],[-122.748774,45.636481],[-122.748673,45.636485],[-122.748627,45.636526],[-122.748648,45.636622],[-122.748686,45.636654],[-122.748861,45.636655],[-122.748898,45.636623],[-122.748902,45.636571],[-122.749159,45.636572],[-122.749227,45.636596],[-122.749368,45.636568],[-122.74941,45.636539],[-122.749416,45.636482],[-122.749531,45.636459],[-122.749544,45.636393],[-122.749673,45.636393],[-122.749671,45.636663],[-122.749417,45.636679],[-122.749395,45.636718],[-122.749432,45.636823],[-122.749625,45.636852],[-122.749665,45.636823],[-122.749682,45.636742],[-122.750056,45.636754],[-122.750078,45.636828],[-122.750184,45.636844]]]}},{"type":"Feature","properties":{"id":14,"area_m2":11900,"px":119,"rank":2},"geometry":{"type":"Polygon","coordinates":[[[-122.747624,45.635398],[-122.747623,45.635578],[-122.7474,45.635574],[-122.747366,45.635668],[-122.747261,45.635683],[-122.747238,45.635757],[-122.747109,45.635757],[-122.747101,45.635606],[-122.747056,45.635579],[-122.746982,45.635577],[-122.746976,45.63552],[-122.746928,45.635489],[-122.74676,45.635495],[-122.746725,45.635576],[-122.746469,45.635576],[-122.746446,45.635501],[-122.746341,45.635485],[-122.746328,45.635419],[-122.746213,45.635395],[-122.746185,45.635317],[-122.746085,45.635305],[-122.746085,45.635215],[-122.746273,45.635215],[-122.746329,45.635191],[-122.746343,45.635089],[-122.74632,45.635051],[-122.746215,45.635035],[-122.746211,45.634983],[-122.746174,45.634951],[-122.746018,45.634932],[-122.74596,45.634974],[-122.745957,45.635124],[-122.745829,45.635124],[-122.745807,45.63505],[-122.745701,45.635034],[-122.745684,45.634964],[-122.745573,45.634944],[-122.74554,45.634863],[-122.745446,45.634853],[-122.745418,45.634775],[-122.745318,45.634763],[-122.74529,45.634685],[-122.74519,45.634673],[-122.745181,45.634521],[-122.745136,45.634495],[-122.745062,45.634491],[-122.745063,45.634402],[-122.745164,45.634398],[-122.745208,45.634363],[-122.745192,45.634133],[-122.74532,45.634133],[-122.745326,45.63419],[-122.745368,45.634219],[-122.745515,45.634222],[-122.745575,45.63418],[-122.745578,45.634044],[-122.745706,45.634044],[-122.745728,45.634118],[-122.745834,45.634134],[-122.745851,45.634204],[-122.745961,45.634224],[-122.745995,45.634305],[-122.746089,45.634315],[-122.746117,45.634392],[-122.746217,45.634405],[-122.746245,45.634483],[-122.746345,45.634495],[-122.74636,45.634668],[-122.746257,45.634681],[-122.746217,45.634718],[-122.746237,45.634929],[-122.746422,45.634945],[-122.746479,45.634921],[-122.746457,45.634683],[-122.746729,45.634676],[-122.746752,45.63475],[-122.746857,45.634766],[-122.746874,45.634837],[-122.746985,45.634857],[-122.747019,45.634938],[-122.747113,45.634947],[-122.747141,45.635025],[-122.747241,45.635037],[-122.747269,45.635115],[-122.747369,45.635128],[-122.747397,45.635205],[-122.747497,45.635218],[-122.747505,45.635369],[-122.747551,45.635396],[-122.747624,45.635398]]]}},{"type":"Feature","properties":{"id":8,"area_m2":7200,"px":72,"rank":3},"geometry":{"type":"Polygon","coordinates":[[[-122.748254,45.6381],[-122.748252,45.63837],[-122.748147,45.638385],[-122.748124,45.63846],[-122.747995,45.638459],[-122.747973,45.638385],[-122.747868,45.638369],[-122.747846,45.638205],[-122.747612,45.638188],[-122.747589,45.638114],[-122.747484,45.638098],[-122.747462,45.637934],[-122.747356,45.637918],[-122.747339,45.637848],[-122.747228,45.637828],[-122.747194,45.637747],[-122.747101,45.637737],[-122.747073,45.637659],[-122.746844,45.637647],[-122.746822,45.637572],[-122.746716,45.637556],[-122.746704,45.63749],[-122.746589,45.637466],[-122.746561,45.637388],[-122.746461,45.637376],[-122.746456,45.637139],[-122.7464,45.637107],[-122.746205,45.637105],[-122.746205,45.636789],[-122.746166,45.636751],[-122.746079,45.636745],[-122.746079,45.636655],[-122.746185,45.636639],[-122.746208,45.636565],[-122.746336,45.636566],[-122.746358,45.63664],[-122.746464,45.636656],[-122.746498,45.636737],[-122.746592,45.636746],[-122.746613,45.637],[-122.746719,45.637016],[-122.746741,45.637091],[-122.746847,45.637107],[-122.746869,45.637181],[-122.746974,45.637197],[-122.746992,45.637267],[-122.747102,45.637287],[-122.747136,45.637368],[-122.74723,45.637378],[-122.747258,45.637455],[-122.747358,45.637468],[-122.747386,45.637546],[-122.747486,45.637558],[-122.747514,45.637636],[-122.747614,45.637648],[-122.747642,45.637726],[-122.747742,45.637739],[-122.747745,45.63788],[-122.747789,45.637915],[-122.747869,45.637919],[-122.74789,45.638096],[-122.747943,45.638113],[-122.748254,45.6381]]]}},{"type":"Feature","properties":{"id":12,"area_m2":2500,"px":25,"rank":4},"geometry":{"type":"Polygon","coordinates":[[[-122.752235,45.637119],[-122.752235,45.637298],[-122.752129,45.637314],[-122.752106,45.637388],[-122.751978,45.637388],[-122.751956,45.637314],[-122.75185,45.637298],[-122.751833,45.637227],[-122.751722,45.637207],[-122.751688,45.637126],[-122.751594,45.637117],[-122.751566,45.637039],[-122.751466,45.637027],[-122.751458,45.636875],[-122.751412,45.636849],[-122.751339,45.636846],[-122.751339,45.636757],[-122.751374,45.636709],[-122.751336,45.636615],[-122.751292,45.63658],[-122.751212,45.636576],[-122.751212,45.636486],[-122.751535,45.636486],[-122.751588,45.636458],[-122.751597,45.636397],[-122.751725,45.636397],[-122.751705,45.636521],[-122.751727,45.636561],[-122.751853,45.636578],[-122.751859,45.636634],[-122.7519,45.636664],[-122.752109,45.636669],[-122.752109,45.636758],[-122.752003,45.636774],[-122.75198,45.636848],[-122.751852,45.636848],[-122.751784,45.636823],[-122.7517,45.636865],[-122.751732,45.637089],[-122.751792,45.637117],[-122.752235,45.637119]],[[-122.751599,45.636756],[-122.751629,45.636704],[-122.751578,45.636653],[-122.751513,45.636644],[-122.751448,45.63668],[-122.751435,45.636725],[-122.751486,45.63677],[-122.751543,45.63678],[-122.751599,45.636756]]]}},{"type":"Feature","properties":{"id":7,"area_m2":2400,"px":24,"rank":5},"geometry":{"type":"Polygon","coordinates":[[[-122.753513,45.638381],[-122.753512,45.638561],[-122.753407,45.638577],[-122.753384,45.638651],[-122.753268,45.638675],[-122.753255,45.638741],[-122.752998,45.63874],[-122.75299,45.638589],[-122.752944,45.638562],[-122.752871,45.63856],[-122.752872,45.63829],[-122.752966,45.638281],[-122.753001,45.6382],[-122.753116,45.638176],[-122.75313,45.638021],[-122.753386,45.638021],[-122.753386,45.638111],[-122.753305,45.638115],[-122.753263,45.638144],[-122.753259,45.638247],[-122.753298,45.638285],[-122.753385,45.638291],[-122.753413,45.638369],[-122.753513,45.638381]]]}},{"type":"Feature","properties":{"id":4,"area_m2":1400,"px":14,"rank":6},"geometry":{"type":"Polygon","coordinates":[[[-122.750426,45.640175],[-122.750425,45.640355],[-122.750168,45.640354],[-122.750146,45.64028],[-122.75004,45.640264],[-122.750028,45.640198],[-122.749913,45.640174],[-122.749885,45.640096],[-122.749785,45.640083],[-122.749785,45.639903],[-122.75017,45.639904],[-122.750183,45.64006],[-122.750298,45.640085],[-122.750332,45.640166],[-122.750426,45.640175]]]}},{"type":"Feature","properties":{"id":6,"area_m2":1100,"px":11,"rank":7},"geometry":{"type":"Polygon","coordinates":[[[-122.749534,45.638733],[-122.749533,45.638913],[-122.749317,45.638919],[-122.74928,45.638951],[-122.749276,45.639002],[-122.749148,45.639002],[-122.749126,45.638928],[-122.74902,45.638912],[-122.749021,45.638642],[-122.749278,45.638642],[-122.749281,45.638694],[-122.749318,45.638726],[-122.749534,45.638733]]]}},{"type":"Feature","properties":{"id":17,"area_m2":1100,"px":11,"rank":8},"geometry":{"type":"Polygon","coordinates":[[[-122.752758,45.635049],[-122.752757,45.635319],[-122.752372,45.635319],[-122.75235,45.635244],[-122.752244,45.635228],[-122.752245,45.635048],[-122.752758,45.635049]]]}},{"type":"Feature","properties":{"id":3,"area_m2":600,"px":6,"rank":9},"geometry":{"type":"Polygon","coordinates":[[[-122.755558,45.640186],[-122.755557,45.640456],[-122.755429,45.640456],[-122.755416,45.6403],[-122.755301,45.640275],[-122.755267,45.640194],[-122.755173,45.640185],[-122.755146,45.640107],[-122.755045,45.640095],[-122.755046,45.640005],[-122.755174,45.640005],[-122.755187,45.640071],[-122.755302,45.640095],[-122.755305,45.640147],[-122.755342,45.640179],[-122.755558,45.640186]]]}},{"type":"Feature","properties":{"id":2,"area_m2":500,"px":5,"rank":10},"geometry":{"type":"Polygon","coordinates":[[[-122.754788,45.640364],[-122.754787,45.640544],[-122.754659,45.640544],[-122.754636,45.64047],[-122.754531,45.640454],[-122.754497,45.640373],[-122.754403,45.640363],[-122.754403,45.640274],[-122.75466,45.640274],[-122.754682,45.640348],[-122.754788,45.640364]]]}},{"type":"Feature","properties":{"id":15,"area_m2":500,"px":5,"rank":11},"geometry":{"type":"Polygon","coordinates":[[[-122.754039,45.635502],[-122.754038,45.635592],[-122.753912,45.635592],[-122.753907,45.63554],[-122.75387,45.635508],[-122.753654,45.635501],[-122.753632,45.635427],[-122.753526,45.635411],[-122.753527,45.635321],[-122.753783,45.635322],[-122.753805,45.635396],[-122.753911,45.635412],[-122.753945,45.635493],[-122.754039,45.635502]]]}},{"type":"Feature","properties":{"id":16,"area_m2":500,"px":5,"rank":12},"geometry":{"type":"Polygon","coordinates":[[[-122.753142,45.63532],[-122.753141,45.6355],[-122.753035,45.635516],[-122.753012,45.63559],[-122.752756,45.635589],[-122.752756,45.635499],[-122.752862,45.635484],[-122.752885,45.63541],[-122.753,45.635386],[-122.753013,45.63532],[-122.753142,45.63532]]]}},{"type":"Feature","properties":{"id":1,"area_m2":400,"px":4,"rank":13},"geometry":{"type":"Polygon","coordinates":[[[-122.750421,45.641255],[-122.75042,45.641435],[-122.750292,45.641435],[-122.75027,45.64136],[-122.750164,45.641344],[-122.750165,45.641164],[-122.750293,45.641165],[-122.750315,45.641239],[-122.750421,45.641255]]]}},{"type":"Feature","properties":{"id":11,"area_m2":400,"px":4,"rank":14},"geometry":{"type":"Polygon","coordinates":[[[-122.753262,45.637211],[-122.753261,45.637391],[-122.753004,45.63739],[-122.753005,45.63721],[-122.753262,45.637211]]]}},{"type":"Feature","properties":{"id":18,"area_m2":400,"px":4,"rank":15},"geometry":{"type":"Polygon","coordinates":[[[-122.745207,45.630892],[-122.745206,45.630982],[-122.74495,45.630982],[-122.744947,45.63093],[-122.744909,45.630898],[-122.744694,45.630891],[-122.744694,45.630801],[-122.744951,45.630802],[-122.744954,45.630853],[-122.744991,45.630886],[-122.745207,45.630892]]]}},{"type":"Feature","properties":{"id":5,"area_m2":300,"px":3,"rank":16},"geometry":{"type":"Polygon","coordinates":[[[-122.749658,45.639633],[-122.749657,45.639813],[-122.749529,45.639813],[-122.749507,45.639739],[-122.749401,45.639722],[-122.749402,45.639633],[-122.749658,45.639633]]]}},{"type":"Feature","properties":{"id":10,"area_m2":300,"px":3,"rank":17},"geometry":{"type":"Polygon","coordinates":[[[-122.750177,45.638284],[-122.750177,45.638374],[-122.749921,45.638373],[-122.749921,45.638194],[-122.750049,45.638194],[-122.750072,45.638268],[-122.750177,45.638284]]]}},{"type":"Feature","properties":{"id":9,"area_m2":300,"px":3,"rank":18},"geometry":{"type":"Polygon","coordinates":[[[-122.758902,45.638303],[-122.758902,45.638393],[-122.758774,45.638393],[-122.758752,45.638318],[-122.758646,45.638302],[-122.758612,45.638221],[-122.758518,45.638212],[-122.758518,45.638122],[-122.758647,45.638122],[-122.758669,45.638197],[-122.758775,45.638213],[-122.758809,45.638294],[-122.758902,45.638303]]]}}]}