{"type":"FeatureCollection","features":[{"type":"Feature","properties":{"id":7,"area_m2":6500,"px":65,"rank":1},"geometry":{"type":"Polygon","coordinates":[[[-122.748253,45.63819],[-122.748252,45.63837],[-122.748147,45.638385],[-122.748124,45.63846],[-122.747995,45.638459],[-122.747973,45.638385],[-122.747868,45.638369],[-122.74785,45.638299],[-122.74774,45.638279],[-122.747706,45.638198],[-122.747612,45.638188],[-122.747584,45.638111],[-122.747484,45.638098],[-122.747462,45.637934],[-122.747356,45.637918],[-122.747339,45.637848],[-122.747228,45.637828],[-122.747216,45.637762],[-122.747101,45.637737],[-122.747067,45.637656],[-122.746844,45.637647],[-122.746822,45.637572],[-122.746716,45.637556],[-122.746699,45.637486],[-122.746589,45.637466],[-122.746555,45.637385],[-122.746461,45.637376],[-122.746433,45.637298],[-122.746333,45.637285],[-122.746316,45.637125],[-122.746205,45.637105],[-122.746171,45.637024],[-122.746077,45.637015],[-122.746049,45.636937],[-122.745949,45.636925],[-122.74595,45.636745],[-122.746335,45.636746],[-122.746356,45.636923],[-122.746409,45.636939],[-122.746591,45.636926],[-122.746613,45.637],[-122.746719,45.637016],[-122.746736,45.637087],[-122.746847,45.637107],[-122.746881,45.637188],[-122.746974,45.637197],[-122.747002,45.637275],[-122.747102,45.637287],[-122.747124,45.637541],[-122.747358,45.637558],[-122.74738,45.637632],[-122.747486,45.637648],[-122.747503,45.637718],[-122.747614,45.637738],[-122.747648,45.637819],[-122.747741,45.637829],[-122.747769,45.637907],[-122.747869,45.637919],[-122.747891,45.638083],[-122.748125,45.6381],[-122.748148,45.638174],[-122.748253,45.63819]]]}},{"type":"Feature","properties":{"id":1,"area_m2":4400,"px":44,"rank":2},"geometry":{"type":"Polygon","coordinates":[[[-122.752596,45.64261],[-122.752595,45.64288],[-122.752339,45.642879],[-122.752321,45.642809],[-122.752211,45.642789],[-122.752177,45.642708],[-122.752083,45.642699],[-122.752055,45.642621],[-122.751955,45.642608],[-122.751927,45.642531],[-122.751699,45.642518],[-122.751682,45.642358],[-122.751571,45.642337],[-122.751537,45.642257],[-122.751443,45.642247],[-122.751415,45.642169],[-122.751315,45.642157],[-122.751287,45.642079],[-122.751187,45.642067],[-122.751159,45.641989],[-122.751059,45.641976],[-122.75106,45.641796],[-122.751188,45.641797],[-122.751249,45.641821],[-122.751317,45.641797],[-122.751445,45.641797],[-122.751467,45.641871],[-122.751573,45.641888],[-122.751595,45.641962],[-122.751701,45.641978],[-122.751723,45.642052],[-122.751829,45.642068],[-122.751846,45.642138],[-122.751957,45.642158],[-122.751991,45.642239],[-122.752085,45.642249],[-122.752112,45.642326],[-122.752212,45.642339],[-122.75224,45.642417],[-122.75234,45.642429],[-122.752368,45.642507],[-122.752468,45.64252],[-122.752496,45.642597],[-122.752596,45.64261]]]}},{"type":"Feature","properties":{"id":6,"area_m2":1700,"px":17,"rank":3},"geometry":{"type":"Polygon","coordinates":[[[-122.753386,45.638021],[-122.753386,45.638111],[-122.753275,45.638131],[-122.753223,45.638243],[-122.753274,45.638361],[-122.753385,45.638381],[-122.753384,45.638651],[-122.752999,45.63865],[-122.752976,45.638576],[-122.752871,45.63856],[-122.752872,45.63829],[-122.752978,45.638274],[-122.753001,45.6382],[-122.753095,45.638191],[-122.753129,45.638111],[-122.75324,45.638091],[-122.753258,45.638021],[-122.753386,45.638021]]]}},{"type":"Feature","properties":{"id":9,"area_m2":1100,"px":11,"rank":4},"geometry":{"type":"Polygon","coordinates":[[[-122.745823,45.636474],[-122.745822,45.636744],[-122.745565,45.636744],[-122.745543,45.63667],[-122.745437,45.636653],[-122.745425,45.636497],[-122.74531,45.636473],[-122.745311,45.636293],[-122.745439,45.636294],[-122.745452,45.636359],[-122.745567,45.636384],[-122.74557,45.636435],[-122.745607,45.636467],[-122.745823,45.636474]]]}},{"type":"Feature","properties":{"id":12,"area_m2":1000,"px":10,"rank":5},"geometry":{"type":"Polygon","coordinates":[[[-122.752757,45.635139],[-122.752757,45.635319],[-122.752372,45.635319],[-122.75235,45.635244],[-122.752244,45.635228],[-122.752245,45.635048],[-122.75263,45.635049],[-122.752652,45.635123],[-122.752757,45.635139]]]}},{"type":"Feature","properties":{"id":5,"area_m2":800,"px":8,"rank":6},"geometry":{"type":"Polygon","coordinates":[[[-122.749277,45.638732],[-122.749276,45.639002],[-122.749148,45.639002],[-122.749135,45.638846],[-122.74902,45.638822],[-122.748986,45.638741],[-122.748892,45.638731],[-122.748893,45.638641],[-122.748974,45.638637],[-122.749018,45.638603],[-122.749022,45.638462],[-122.74915,45.638462],[-122.749152,45.638694],[-122.749197,45.638728],[-122.749277,45.638732]]]}},{"type":"Feature","properties":{"id":4,"area_m2":600,"px":6,"rank":7},"geometry":{"type":"Polygon","coordinates":[[[-122.748889,45.639541],[-122.748888,45.639721],[-122.748631,45.639721],[-122.748609,45.639647],[-122.748503,45.639631],[-122.748504,45.639541],[-122.74861,45.639525],[-122.748633,45.639451],[-122.748761,45.639451],[-122.748783,45.639525],[-122.748889,45.639541]]]}},{"type":"Feature","properties":{"id":3,"area_m2":500,"px":5,"rank":8},"geometry":{"type":"Polygon","coordinates":[[[-122.75145,45.640717],[-122.751449,45.640897],[-122.751321,45.640897],[-122.75126,45.640873],[-122.751192,45.640897],[-122.751064,45.640896],[-122.751065,45.640806],[-122.751145,45.640802],[-122.75119,45.640768],[-122.751194,45.640627],[-122.751322,45.640627],[-122.751344,45.640701],[-122.75145,45.640717]]]}},{"type":"Feature","properties":{"id":8,"area_m2":500,"px":5,"rank":9},"geometry":{"type":"Polygon","coordinates":[[[-122.751851,45.637118],[-122.75185,45.637208],[-122.751724,45.637207],[-122.7517,45.637133],[-122.751594,45.637117],[-122.751591,45.636975],[-122.751547,45.636941],[-122.751467,45.636937],[-122.751467,45.636847],[-122.751723,45.636847],[-122.751726,45.637079],[-122.75177,45.637113],[-122.751851,45.637118]]]}},{"type":"Feature","properties":{"id":10,"area_m2":500,"px":5,"rank":10},"geometry":{"type":"Polygon","coordinates":[[[-122.749292,45.635402],[-122.749291,45.635672],[-122.749163,45.635672],[-122.74914,45.635597],[-122.749035,45.635581],[-122.749036,45.635401],[-122.749292,45.635402]]]}},{"type":"Feature","properties":{"id":15,"area_m2":500,"px":5,"rank":11},"geometry":{"type":"Polygon","coordinates":[[[-122.734963,45.626729],[-122.734962,45.626819],[-122.734449,45.626817],[-122.734427,45.626743],[-122.734322,45.626727],[-122.734322,45.626637],[-122.73445,45.626637],[-122.734459,45.626699],[-122.734512,45.626727],[-122.734963,45.626729]]]}},{"type":"Feature","properties":{"id":2,"area_m2":400,"px":4,"rank":12},"geometry":{"type":"Polygon","coordinates":[[[-122.751447,45.641347],[-122.751446,45.641527],[-122.75119,45.641527],[-122.75119,45.641347],[-122.751447,45.641347]]]}},{"type":"Feature","properties":{"id":11,"area_m2":400,"px":4,"rank":13},"geometry":{"type":"Polygon","coordinates":[[[-122.753142,45.63532],[-122.753141,45.6355],[-122.753035,45.635516],[-122.753012,45.63559],[-122.752884,45.63559],[-122.752885,45.63541],[-122.75299,45.635394],[-122.753013,45.63532],[-122.753142,45.63532]]]}},{"type":"Feature","properties":{"id":13,"area_m2":300,"px":3,"rank":14},"geometry":{"type":"Polygon","coordinates":[[[-122.745701,45.635124],[-122.7457,45.635214],[-122.745595,45.635229],[-122.745572,45.635304],[-122.745444,45.635303],[-122.745444,45.635123],[-122.745701,45.635124]]]}},{"type":"Feature","properties":{"id":14,"area_m2":300,"px":3,"rank":15},"geometry":{"type":"Polygon","coordinates":[[[-122.745832,45.634494],[-122.745831,45.634764],[-122.745703,45.634764],[-122.745704,45.634494],[-122.745832,45.634494]]]}}]}