{"type":"FeatureCollection","features":[{"type":"Feature","properties":{"id":16,"area_m2":2800,"px":28,"rank":1},"geometry":{"type":"Polygon","coordinates":[[[-122.753526,45.635321],[-122.753526,45.635411],[-122.753164,45.635426],[-122.753141,45.6355],[-122.753041,45.635512],[-122.753012,45.63559],[-122.752912,45.635602],[-122.752883,45.63568],[-122.752789,45.635689],[-122.752755,45.635769],[-122.752644,45.635789],[-122.752626,45.635949],[-122.75252,45.635965],[-122.752497,45.636039],[-122.752369,45.636039],[-122.752346,45.635964],[-122.752241,45.635948],[-122.752242,45.635768],[-122.752342,45.635756],[-122.75237,45.635679],[-122.75247,45.635667],[-122.752499,45.635589],[-122.752599,45.635577],[-122.752628,45.635499],[-122.752722,45.63549],[-122.752756,45.635409],[-122.752867,45.63539],[-122.752886,45.63523],[-122.753399,45.635231],[-122.753421,45.635305],[-122.753526,45.635321]]]}},{"type":"Feature","properties":{"id":20,"area_m2":2000,"px":20,"rank":2},"geometry":{"type":"Polygon","coordinates":[[[-122.747625,45.635218],[-122.747624,45.635308],[-122.747544,45.635312],[-122.747499,45.635346],[-122.747495,45.635488],[-122.747367,45.635488],[-122.747345,45.635413],[-122.747239,45.635397],[-122.747239,45.635247],[-122.74718,45.635205],[-122.746996,45.635241],[-122.746983,45.635397],[-122.746854,45.635396],[-122.746832,45.635322],[-122.746727,45.635306],[-122.746727,45.635216],[-122.746949,45.635208],[-122.746982,45.635173],[-122.746984,45.635085],[-122.746944,45.635043],[-122.746856,45.635036],[-122.746828,45.634959],[-122.746728,45.634946],[-122.746729,45.634766],[-122.746857,45.634766],[-122.746858,45.634903],[-122.746897,45.63494],[-122.747113,45.634947],[-122.747122,45.635009],[-122.747175,45.635036],[-122.747497,45.635038],[-122.747506,45.635189],[-122.747551,45.635216],[-122.747625,45.635218]]]}},{"type":"Feature","properties":{"id":3,"area_m2":1800,"px":18,"rank":3},"geometry":{"type":"Polygon","coordinates":[[[-122.749401,45.639184],[-122.749369,45.63923],[-122.749403,45.639273],[-122.749403,45.639362],[-122.749329,45.639365],[-122.749283,45.639391],[-122.749274,45.639542],[-122.749145,45.639542],[-122.749142,45.63949],[-122.749105,45.639458],[-122.748889,45.639451],[-122.748881,45.6393],[-122.748835,45.639274],[-122.748762,45.639271],[-122.748763,45.639001],[-122.749019,45.639002],[-122.749042,45.639076],[-122.749193,45.639115],[-122.749276,45.639092],[-122.749404,45.639093],[-122.749401,45.639184]]]}},{"type":"Feature","properties":{"id":15,"area_m2":1400,"px":14,"rank":4},"geometry":{"type":"Polygon","coordinates":[[[-122.746081,45.636205],[-122.74608,45.636295],[-122.745567,45.636294],[-122.745507,45.636269],[-122.745439,45.636293],[-122.745311,45.636293],[-122.745312,45.636023],[-122.745418,45.636008],[-122.745441,45.635933],[-122.745569,45.635934],[-122.745572,45.635985],[-122.745609,45.636017],[-122.745825,45.636024],[-122.745825,45.636156],[-122.745852,45.636192],[-122.746081,45.636205]]]}},{"type":"Feature","properties":{"id":6,"area_m2":1300,"px":13,"rank":5},"geometry":{"type":"Polygon","coordinates":[[[-122.75377,45.638202],[-122.75377,45.638292],[-122.753664,45.638307],[-122.753641,45.638382],[-122.753526,45.638405],[-122.753513,45.638471],[-122.753256,45.638471],[-122.753256,45.638244],[-122.753217,45.638207],[-122.753129,45.6382],[-122.75313,45.638021],[-122.753386,45.638021],[-122.753387,45.638158],[-122.753433,45.638197],[-122.75377,45.638202]]]}},{"type":"Feature","properties":{"id":9,"area_m2":1300,"px":13,"rank":6},"geometry":{"type":"Polygon","coordinates":[[[-122.746203,45.637555],[-122.746202,45.637735],[-122.746074,45.637735],[-122.746068,45.637678],[-122.74602,45.637647],[-122.745818,45.637644],[-122.745805,45.637488],[-122.74569,45.637464],[-122.745656,45.637383],[-122.745562,45.637374],[-122.745535,45.637296],[-122.745435,45.637283],[-122.745435,45.637194],[-122.745691,45.637194],[-122.745704,45.63726],[-122.745819,45.637284],[-122.745853,45.637365],[-122.746076,45.637375],[-122.746084,45.637526],[-122.746129,45.637553],[-122.746203,45.637555]]]}},{"type":"Feature","properties":{"id":23,"area_m2":1100,"px":11,"rank":7},"geometry":{"type":"Polygon","coordinates":[[[-122.752758,45.635049],[-122.752757,45.635229],[-122.752244,45.635228],[-122.752245,45.634958],[-122.75263,45.634959],[-122.752652,45.635033],[-122.752758,45.635049]]]}},{"type":"Feature","properties":{"id":1,"area_m2":1000,"px":10,"rank":8},"geometry":{"type":"Polygon","coordinates":[[[-122.750805,45.641436],[-122.750804,45.641706],[-122.750676,45.641705],[-122.750653,45.641631],[-122.750548,45.641615],[-122.750526,45.641451],[-122.75042,45.641435],[-122.750414,45.641378],[-122.750373,45.641349],[-122.750164,45.641344],[-122.750165,45.641164],[-122.750293,45.641165],[-122.750299,45.641221],[-122.750347,45.641252],[-122.750549,45.641255],[-122.750549,45.641387],[-122.750583,45.641426],[-122.750805,45.641436]]]}},{"type":"Feature","properties":{"id":21,"area_m2":1000,"px":10,"rank":9},"geometry":{"type":"Polygon","coordinates":[[[-122.746598,45.635306],[-122.746598,45.635396],[-122.746492,45.635412],[-122.746469,45.635486],[-122.745956,45.635484],[-122.745956,45.635395],[-122.746179,45.635386],[-122.746246,45.635273],[-122.746196,45.635145],[-122.746086,45.635125],[-122.746086,45.635035],[-122.746214,45.635035],[-122.746237,45.635109],[-122.746342,45.635125],[-122.746355,45.635191],[-122.74647,45.635216],[-122.746498,45.635293],[-122.746598,45.635306]]]}},{"type":"Feature","properties":{"id":30,"area_m2":1000,"px":10,"rank":10},"geometry":{"type":"Polygon","coordinates":[[[-122.745066,45.633592],[-122.745066,45.633682],[-122.74496,45.633698],[-122.744937,45.633772],[-122.744681,45.633771],[-122.744658,45.633697],[-122.744553,45.633681],[-122.744519,45.6336],[-122.744425,45.633591],[-122.744426,45.633411],[-122.744554,45.633411],[-122.744559,45.633468],[-122.744608,45.633499],[-122.74481,45.633502],[-122.744816,45.633558],[-122.744857,45.633588],[-122.745066,45.633592]]]}},{"type":"Feature","properties":{"id":11,"area_m2":800,"px":8,"rank":11},"geometry":{"type":"Polygon","coordinates":[[[-122.752236,45.637029],[-122.752235,45.637118],[-122.75213,45.637134],[-122.752107,45.637208],[-122.751979,45.637208],[-122.751975,45.637156],[-122.751938,45.637124],[-122.751722,45.637117],[-122.7517,45.637043],[-122.751595,45.637027],[-122.751595,45.636937],[-122.751851,45.636938],[-122.751912,45.636962],[-122.75198,45.636938],[-122.752108,45.636938],[-122.75213,45.637012],[-122.752236,45.637029]]]}},{"type":"Feature","properties":{"id":19,"area_m2":800,"px":8,"rank":12},"geometry":{"type":"Polygon","coordinates":[[[-122.744929,45.635482],[-122.744929,45.635572],[-122.744606,45.635573],[-122.744553,45.6356],[-122.744544,45.635661],[-122.744415,45.635661],[-122.744417,45.635391],[-122.744801,45.635392],[-122.744824,45.635466],[-122.744929,45.635482]]]}},{"type":"Feature","properties":{"id":27,"area_m2":800,"px":8,"rank":13},"geometry":{"type":"Polygon","coordinates":[[[-122.745577,45.634134],[-122.745576,45.634313],[-122.74532,45.634313],[-122.745297,45.634239],[-122.745192,45.634223],[-122.745189,45.634081],[-122.745145,45.634047],[-122.745064,45.634042],[-122.745065,45.633952],[-122.745193,45.633953],[-122.745199,45.634009],[-122.745247,45.63404],[-122.745449,45.634043],[-122.745471,45.634117],[-122.745577,45.634134]]]}},{"type":"Feature","properties":{"id":13,"area_m2":600,"px":6,"rank":14},"geometry":{"type":"Polygon","coordinates":[[[-122.751594,45.636488],[-122.751562,45.636535],[-122.751596,45.636577],[-122.751596,45.636667],[-122.75134,45.636666],[-122.751317,45.636592],[-122.751212,45.636576],[-122.751212,45.636396],[-122.751341,45.636397],[-122.751401,45.636421],[-122.751469,45.636397],[-122.751597,45.636397],[-122.751594,45.636488]]]}},{"type":"Feature","properties":{"id":8,"area_m2":500,"px":5,"rank":15},"geometry":{"type":"Polygon","coordinates":[[[-122.748126,45.63792],[-122.748125,45.6381],[-122.747997,45.638099],[-122.747975,45.638025],[-122.747869,45.638009],[-122.747835,45.637928],[-122.747741,45.637919],[-122.747742,45.637829],[-122.747998,45.637829],[-122.74802,45.637904],[-122.748126,45.63792]]]}},{"type":"Feature","properties":{"id":12,"area_m2":500,"px":5,"rank":16},"geometry":{"type":"Polygon","coordinates":[[[-122.746077,45.637015],[-122.746076,45.637195],[-122.74582,45.637194],[-122.745821,45.636924],[-122.745949,45.636925],[-122.745972,45.636999],[-122.746077,45.637015]]]}},{"type":"Feature","properties":{"id":24,"area_m2":500,"px":5,"rank":17},"geometry":{"type":"Polygon","coordinates":[[[-122.7466,45.634946],[-122.746599,45.635126],[-122.746471,45.635126],[-122.746448,45.635051],[-122.746343,45.635035],[-122.746309,45.634954],[-122.746215,45.634945],[-122.746215,45.634855],[-122.746472,45.634856],[-122.746494,45.63493],[-122.7466,45.634946]]]}},{"type":"Feature","properties":{"id":29,"area_m2":500,"px":5,"rank":18},"geometry":{"type":"Polygon","coordinates":[[[-122.743269,45.633768],[-122.743269,45.633858],[-122.743012,45.633858],[-122.74299,45.633784],[-122.742884,45.633767],[-122.742851,45.633686],[-122.742757,45.633677],[-122.742757,45.633587],[-122.743013,45.633588],[-122.743035,45.633752],[-122.743269,45.633768]]]}},{"type":"Feature","properties":{"id":2,"area_m2":400,"px":4,"rank":19},"geometry":{"type":"Polygon","coordinates":[[[-122.748503,45.639631],[-122.748502,45.639811],[-122.748246,45.63981],[-122.748247,45.63963],[-122.748503,45.639631]]]}},{"type":"Feature","properties":{"id":5,"area_m2":400,"px":4,"rank":20},"geometry":{"type":"Polygon","coordinates":[[[-122.749534,45.638733],[-122.749533,45.638823],[-122.749149,45.638822],[-122.749149,45.638732],[-122.749255,45.638716],[-122.749278,45.638642],[-122.749406,45.638643],[-122.749428,45.638717],[-122.749534,45.638733]]]}},{"type":"Feature","properties":{"id":10,"area_m2":400,"px":4,"rank":21},"geometry":{"type":"Polygon","coordinates":[[[-122.746588,45.637466],[-122.746588,45.637556],[-122.74646,45.637556],[-122.746457,45.637504],[-122.746419,45.637472],[-122.746204,45.637465],[-122.746204,45.637375],[-122.74631,45.63736],[-122.746333,45.637286],[-122.746461,45.637286],[-122.746469,45.637437],[-122.746515,45.637464],[-122.746588,45.637466]]]}},{"type":"Feature","properties":{"id":18,"area_m2":400,"px":4,"rank":22},"geometry":{"type":"Polygon","coordinates":[[[-122.746468,45.635666],[-122.746467,45.635846],[-122.746211,45.635845],[-122.746212,45.635665],[-122.746468,45.635666]]]}},{"type":"Feature","properties":{"id":31,"area_m2":400,"px":4,"rank":23},"geometry":{"type":"Polygon","coordinates":[[[-122.745592,45.630803],[-122.745592,45.630893],[-122.745207,45.630892],[-122.745208,45.630712],[-122.745336,45.630713],[-122.745342,45.630769],[-122.74539,45.6308],[-122.745592,45.630803]]]}},{"type":"Feature","properties":{"id":32,"area_m2":400,"px":4,"rank":24},"geometry":{"type":"Polygon","coordinates":[[[-122.744951,45.630802],[-122.74495,45.630892],[-122.744565,45.630891],[-122.744566,45.630711],[-122.744694,45.630711],[-122.7447,45.630768],[-122.744749,45.630799],[-122.744951,45.630802]]]}},{"type":"Feature","properties":{"id":4,"area_m2":300,"px":3,"rank":25},"geometry":{"type":"Polygon","coordinates":[[[-122.747224,45.638728],[-122.747223,45.638998],[-122.747095,45.638997],[-122.747096,45.638727],[-122.747224,45.638728]]]}},{"type":"Feature","properties":{"id":7,"area_m2":300,"px":3,"rank":26},"geometry":{"type":"Polygon","coordinates":[[[-122.753001,45.6382],[-122.752999,45.63847],[-122.752871,45.63847],[-122.752872,45.6382],[-122.753001,45.6382]]]}},{"type":"Feature","properties":{"id":14,"area_m2":300,"px":3,"rank":27},"geometry":{"type":"Polygon","coordinates":[[[-122.745952,45.636385],[-122.745951,45.636565],[-122.745694,45.636564],[-122.745695,45.636474],[-122.745801,45.636458],[-122.745824,45.636384],[-122.745952,45.636385]]]}},{"type":"Feature","properties":{"id":17,"area_m2":300,"px":3,"rank":28},"geometry":{"type":"Polygon","coordinates":[[[-122.745955,45.635755],[-122.745954,45.635934],[-122.745697,45.635934],[-122.745698,45.635844],[-122.745803,45.635828],[-122.745826,45.635754],[-122.745955,45.635755]]]}},{"type":"Feature","properties":{"id":22,"area_m2":300,"px":3,"rank":29},"geometry":{"type":"Polygon","coordinates":[[[-122.744546,45.635211],[-122.744545,45.635301],[-122.74416,45.6353],[-122.744161,45.635211],[-122.744546,45.635211]]]}},{"type":"Feature","properties":{"id":25,"area_m2":300,"px":3,"rank":30},"geometry":{"type":"Polygon","coordinates":[[[-122.746216,45.634675],[-122.746216,45.634765],[-122.746087,45.634765],[-122.746084,45.634713],[-122.746047,45.634681],[-122.745831,45.634674],[-122.745832,45.634584],[-122.746088,45.634585],[-122.74611,45.634659],[-122.746216,45.634675]]]}},{"type":"Feature","properties":{"id":26,"area_m2":300,"px":3,"rank":31},"geometry":{"type":"Polygon","coordinates":[[[-122.743011,45.634218],[-122.74301,45.634398],[-122.742882,45.634397],[-122.742859,45.634323],[-122.742754,45.634307],[-122.742754,45.634217],[-122.743011,45.634218]]]}},{"type":"Feature","properties":{"id":28,"area_m2":300,"px":3,"rank":32},"geometry":{"type":"Polygon","coordinates":[[[-122.743653,45.633949],[-122.743652,45.634129],[-122.743396,45.634129],[-122.743396,45.634039],[-122.743502,45.634023],[-122.743525,45.633949],[-122.743653,45.633949]]]}}]}