{"type":"FeatureCollection","features":[{"type":"Feature","properties":{"id":14,"area_m2":4300,"px":43,"rank":1},"geometry":{"type":"Polygon","coordinates":[[[-122.754552,45.635593],[-122.754551,45.635683],[-122.754295,45.635683],[-122.754289,45.635626],[-122.754241,45.635595],[-122.754107,45.635568],[-122.754039,45.635592],[-122.75391,45.635592],[-122.753909,45.635455],[-122.753856,45.635414],[-122.753655,45.635411],[-122.753594,45.635387],[-122.753526,45.635411],[-122.753196,45.635413],[-122.753147,45.635444],[-122.753141,45.6355],[-122.753025,45.635524],[-122.753012,45.63559],[-122.752901,45.635609],[-122.752883,45.63568],[-122.752773,45.635699],[-122.752755,45.635769],[-122.752644,45.635789],[-122.752626,45.635949],[-122.75252,45.635965],[-122.752497,45.636039],[-122.75224,45.636038],[-122.752242,45.635768],[-122.752342,45.635756],[-122.75237,45.635679],[-122.75247,45.635667],[-122.752499,45.635589],[-122.752599,45.635577],[-122.752628,45.635499],[-122.752722,45.63549],[-122.752756,45.635409],[-122.752867,45.63539],[-122.752886,45.63523],[-122.753221,45.63523],[-122.753269,45.635214],[-122.75329,45.635175],[-122.753271,45.635051],[-122.753399,45.635051],[-122.753412,45.635117],[-122.753527,45.635141],[-122.753533,45.635198],[-122.753574,45.635227],[-122.753912,45.635232],[-122.753929,45.635302],[-122.75404,45.635322],[-122.754074,45.635403],[-122.754168,45.635413],[-122.754195,45.63549],[-122.754424,45.635503],[-122.754446,45.635577],[-122.754552,45.635593]]]}},{"type":"Feature","properties":{"id":8,"area_m2":3000,"px":30,"rank":2},"geometry":{"type":"Polygon","coordinates":[[[-122.753642,45.638292],[-122.753641,45.638382],[-122.753536,45.638397],[-122.753513,45.638471],[-122.753419,45.63848],[-122.753384,45.638561],[-122.753273,45.638581],[-122.753255,45.638651],[-122.752999,45.63865],[-122.752976,45.638576],[-122.752871,45.63856],[-122.752837,45.638479],[-122.752743,45.63847],[-122.752744,45.63829],[-122.752849,45.638274],[-122.752872,45.6382],[-122.752973,45.638188],[-122.753001,45.63811],[-122.753095,45.638101],[-122.75313,45.638021],[-122.753241,45.638001],[-122.753259,45.637931],[-122.753387,45.637931],[-122.753395,45.638173],[-122.75344,45.638199],[-122.753514,45.638201],[-122.753548,45.638282],[-122.753642,45.638292]]]}},{"type":"Feature","properties":{"id":18,"area_m2":1400,"px":14,"rank":3},"geometry":{"type":"Polygon","coordinates":[[[-122.752758,45.635049],[-122.752757,45.635229],[-122.752651,45.635245],[-122.752628,45.635319],[-122.7525,45.635319],[-122.752491,45.635257],[-122.752439,45.63523],[-122.752116,45.635228],[-122.752116,45.635048],[-122.752222,45.635032],[-122.752245,45.634958],[-122.75263,45.634959],[-122.752652,45.635033],[-122.752758,45.635049]]]}},{"type":"Feature","properties":{"id":17,"area_m2":1100,"px":11,"rank":4},"geometry":{"type":"Polygon","coordinates":[[[-122.749165,45.635222],[-122.749164,45.635402],[-122.749058,45.635417],[-122.749035,45.635491],[-122.748779,45.635491],[-122.748756,45.635417],[-122.748651,45.6354],[-122.748617,45.635319],[-122.748523,45.63531],[-122.748523,45.63522],[-122.749165,45.635222]]]}},{"type":"Feature","properties":{"id":10,"area_m2":700,"px":7,"rank":5},"geometry":{"type":"Polygon","coordinates":[[[-122.752108,45.636938],[-122.752107,45.637118],[-122.751594,45.637117],[-122.751591,45.636975],[-122.751547,45.636941],[-122.751467,45.636937],[-122.751467,45.636847],[-122.751595,45.636847],[-122.751612,45.636917],[-122.751723,45.636937],[-122.751732,45.636999],[-122.751785,45.637026],[-122.751932,45.637024],[-122.751974,45.636995],[-122.75198,45.636938],[-122.752108,45.636938]]]}},{"type":"Feature","properties":{"id":7,"area_m2":600,"px":6,"rank":6},"geometry":{"type":"Polygon","coordinates":[[[-122.749661,45.638913],[-122.749661,45.639003],[-122.749404,45.639002],[-122.749383,45.638838],[-122.74902,45.638822],[-122.749021,45.638732],[-122.749405,45.638733],[-122.749428,45.638807],[-122.749533,45.638823],[-122.749567,45.638904],[-122.749661,45.638913]]]}},{"type":"Feature","properties":{"id":20,"area_m2":600,"px":6,"rank":7},"geometry":{"type":"Polygon","coordinates":[[[-122.749423,45.634862],[-122.749422,45.635042],[-122.749166,45.635041],[-122.749143,45.634967],[-122.749038,45.634951],[-122.749038,45.634861],[-122.749144,45.634846],[-122.749167,45.634772],[-122.749295,45.634772],[-122.749317,45.634846],[-122.749423,45.634862]]]}},{"type":"Feature","properties":{"id":2,"area_m2":500,"px":5,"rank":8},"geometry":{"type":"Polygon","coordinates":[[[-122.755298,45.640996],[-122.755297,45.641265],[-122.755169,45.641265],[-122.755146,45.641191],[-122.755041,45.641175],[-122.755042,45.640995],[-122.755298,45.640996]]]}},{"type":"Feature","properties":{"id":3,"area_m2":400,"px":4,"rank":9},"geometry":{"type":"Polygon","coordinates":[[[-122.749145,45.639632],[-122.749143,45.639992],[-122.749015,45.639992],[-122.749017,45.639632],[-122.749145,45.639632]]]}},{"type":"Feature","properties":{"id":12,"area_m2":400,"px":4,"rank":10},"geometry":{"type":"Polygon","coordinates":[[[-122.754933,45.636494],[-122.754932,45.636674],[-122.754826,45.63669],[-122.754803,45.636764],[-122.754675,45.636764],[-122.754676,45.636584],[-122.754782,45.636568],[-122.754805,45.636494],[-122.754933,45.636494]]]}},{"type":"Feature","properties":{"id":19,"area_m2":400,"px":4,"rank":11},"geometry":{"type":"Polygon","coordinates":[[[-122.748653,45.63495],[-122.748652,45.63513],[-122.748267,45.63513],[-122.748267,45.63504],[-122.748469,45.635038],[-122.748518,45.635007],[-122.748524,45.63495],[-122.748653,45.63495]]]}},{"type":"Feature","properties":{"id":22,"area_m2":400,"px":4,"rank":12},"geometry":{"type":"Polygon","coordinates":[[[-122.747884,45.634769],[-122.747883,45.634949],[-122.747755,45.634948],[-122.747746,45.634797],[-122.747701,45.634771],[-122.747627,45.634768],[-122.747628,45.634588],[-122.747756,45.634588],[-122.747765,45.63474],[-122.74781,45.634766],[-122.747884,45.634769]]]}},{"type":"Feature","properties":{"id":1,"area_m2":300,"px":3,"rank":13},"geometry":{"type":"Polygon","coordinates":[[[-122.750805,45.641436],[-122.750804,45.641616],[-122.750548,45.641615],[-122.750548,45.641525],[-122.750654,45.64151],[-122.750677,45.641436],[-122.750805,45.641436]]]}},{"type":"Feature","properties":{"id":4,"area_m2":300,"px":3,"rank":14},"geometry":{"type":"Polygon","coordinates":[[[-122.749531,45.639453],[-122.74953,45.639633],[-122.749402,45.639632],[-122.749379,45.639558],[-122.749274,45.639542],[-122.749274,45.639452],[-122.749531,45.639453]]]}},{"type":"Feature","properties":{"id":5,"area_m2":300,"px":3,"rank":15},"geometry":{"type":"Polygon","coordinates":[[[-122.748505,45.639181],[-122.748505,45.63927],[-122.748399,45.639286],[-122.748376,45.63936],[-122.748248,45.63936],[-122.748249,45.63918],[-122.748505,45.639181]]]}},{"type":"Feature","properties":{"id":6,"area_m2":300,"px":3,"rank":16},"geometry":{"type":"Polygon","coordinates":[[[-122.75967,45.638845],[-122.759669,45.639114],[-122.759541,45.639114],[-122.759542,45.638844],[-122.75967,45.638845]]]}},{"type":"Feature","properties":{"id":9,"area_m2":300,"px":3,"rank":17},"geometry":{"type":"Polygon","coordinates":[[[-122.746075,45.637465],[-122.746075,45.637555],[-122.745818,45.637554],[-122.745819,45.637374],[-122.745947,45.637375],[-122.745969,45.637449],[-122.746075,45.637465]]]}},{"type":"Feature","properties":{"id":11,"area_m2":300,"px":3,"rank":18},"geometry":{"type":"Polygon","coordinates":[[[-122.750697,45.636845],[-122.750696,45.637025],[-122.75044,45.637024],[-122.75044,45.636935],[-122.750546,45.636919],[-122.750569,45.636845],[-122.750697,45.636845]]]}},{"type":"Feature","properties":{"id":13,"area_m2":300,"px":3,"rank":19},"geometry":{"type":"Polygon","coordinates":[[[-122.744414,45.635931],[-122.744413,45.636111],[-122.744285,45.636111],[-122.744263,45.636037],[-122.744157,45.63602],[-122.744158,45.635931],[-122.744414,45.635931]]]}},{"type":"Feature","properties":{"id":15,"area_m2":300,"px":3,"rank":20},"geometry":{"type":"Polygon","coordinates":[[[-122.74942,45.635582],[-122.749419,45.635762],[-122.749291,45.635762],[-122.749288,45.63562],[-122.749244,45.635586],[-122.749163,45.635582],[-122.749164,45.635492],[-122.749292,45.635492],[-122.749314,45.635566],[-122.74942,45.635582]]]}},{"type":"Feature","properties":{"id":16,"area_m2":300,"px":3,"rank":21},"geometry":{"type":"Polygon","coordinates":[[[-122.746725,45.635576],[-122.746725,45.635666],[-122.746597,45.635666],[-122.746593,45.635614],[-122.746556,45.635582],[-122.74634,45.635575],[-122.746341,45.635485],[-122.746597,45.635486],[-122.74662,45.63556],[-122.746725,45.635576]]]}},{"type":"Feature","properties":{"id":21,"area_m2":300,"px":3,"rank":22},"geometry":{"type":"Polygon","coordinates":[[[-122.753144,45.63478],[-122.753143,45.63496],[-122.752887,45.63496],[-122.752887,45.63487],[-122.752993,45.634854],[-122.753016,45.63478],[-122.753144,45.63478]]]}},{"type":"Feature","properties":{"id":23,"area_m2":300,"px":3,"rank":23},"geometry":{"type":"Polygon","coordinates":[[[-122.745962,45.634134],[-122.745961,45.634224],[-122.745833,45.634224],[-122.74583,45.634172],[-122.745793,45.63414],[-122.745577,45.634133],[-122.745578,45.634044],[-122.745834,45.634044],[-122.745856,45.634118],[-122.745962,45.634134]]]}},{"type":"Feature","properties":{"id":24,"area_m2":300,"px":3,"rank":24},"geometry":{"type":"Polygon","coordinates":[[[-122.746745,45.631256],[-122.746744,45.631346],[-122.74636,45.631345],[-122.74636,45.631255],[-122.746745,45.631256]]]}}]}