{"type":"FeatureCollection","features":[{"type":"Feature","properties":{"id":13,"area_m2":8000,"px":80,"rank":1},"geometry":{"type":"Polygon","coordinates":[[[-122.364239,47.578322],[-122.364219,47.579941],[-122.364143,47.579943],[-122.364095,47.579969],[-122.364084,47.580121],[-122.363974,47.580136],[-122.36395,47.58021],[-122.36383,47.580233],[-122.363816,47.580299],[-122.363683,47.580298],[-122.363684,47.580208],[-122.36372,47.580166],[-122.363685,47.580117],[-122.363706,47.578409],[-122.363782,47.578407],[-122.36383,47.578381],[-122.363841,47.57823],[-122.363974,47.578231],[-122.36398,47.578287],[-122.36403,47.578318],[-122.364239,47.578322]]]}},{"type":"Feature","properties":{"id":7,"area_m2":4600,"px":46,"rank":2},"geometry":{"type":"Polygon","coordinates":[[[-122.363545,47.580748],[-122.363513,47.583355],[-122.363382,47.583356],[-122.363379,47.583124],[-122.363334,47.58309],[-122.36325,47.583084],[-122.363253,47.582905],[-122.36335,47.582897],[-122.363386,47.582852],[-122.363374,47.58275],[-122.363255,47.582724],[-122.36326,47.582276],[-122.363358,47.582267],[-122.363394,47.582222],[-122.363398,47.58178],[-122.363357,47.581743],[-122.363267,47.581736],[-122.363272,47.581287],[-122.363308,47.581244],[-122.363273,47.581195],[-122.363279,47.580747],[-122.363545,47.580748]]]}},{"type":"Feature","properties":{"id":9,"area_m2":2600,"px":26,"rank":3},"geometry":{"type":"Polygon","coordinates":[[[-122.367647,47.58239],[-122.367646,47.58248],[-122.367555,47.582486],[-122.367514,47.582523],[-122.367509,47.582839],[-122.367399,47.582854],[-122.367375,47.582928],[-122.367109,47.582927],[-122.367111,47.582747],[-122.367231,47.582723],[-122.367245,47.582616],[-122.367204,47.582574],[-122.367113,47.582567],[-122.367097,47.582407],[-122.366983,47.582386],[-122.366985,47.582206],[-122.367094,47.582191],[-122.367119,47.582117],[-122.367385,47.582118],[-122.367407,47.582193],[-122.367517,47.582209],[-122.367528,47.582365],[-122.367647,47.58239]]]}},{"type":"Feature","properties":{"id":5,"area_m2":2100,"px":21,"rank":4},"geometry":{"type":"Polygon","coordinates":[[[-122.364859,47.582015],[-122.364858,47.582104],[-122.364761,47.582113],[-122.364725,47.582158],[-122.364721,47.5826],[-122.364761,47.582637],[-122.364852,47.582646],[-122.36485,47.582734],[-122.364767,47.582738],[-122.364721,47.582772],[-122.364715,47.582955],[-122.364757,47.582997],[-122.364847,47.583004],[-122.364846,47.583094],[-122.364762,47.583098],[-122.364716,47.583132],[-122.36471,47.583363],[-122.364577,47.583363],[-122.364597,47.581743],[-122.364729,47.581744],[-122.36473,47.581975],[-122.364776,47.58201],[-122.364859,47.582015]]]}},{"type":"Feature","properties":{"id":11,"area_m2":1500,"px":15,"rank":5},"geometry":{"type":"Polygon","coordinates":[[[-122.364205,47.581111],[-122.364202,47.581381],[-122.364126,47.581383],[-122.364078,47.581409],[-122.364067,47.58156],[-122.363801,47.581559],[-122.363778,47.581484],[-122.363669,47.581467],[-122.363671,47.581288],[-122.363748,47.581286],[-122.363795,47.58126],[-122.363806,47.581109],[-122.364205,47.581111]]]}},{"type":"Feature","properties":{"id":6,"area_m2":900,"px":9,"rank":6},"geometry":{"type":"Polygon","coordinates":[[[-122.364182,47.583001],[-122.364181,47.58309],[-122.364071,47.583106],[-122.364013,47.583211],[-122.364045,47.58336],[-122.363779,47.583358],[-122.363784,47.582998],[-122.363893,47.582983],[-122.363919,47.582909],[-122.36405,47.58291],[-122.364073,47.582984],[-122.364182,47.583001]]]}},{"type":"Feature","properties":{"id":14,"area_m2":700,"px":7,"rank":7},"geometry":{"type":"Polygon","coordinates":[[[-122.368878,47.579607],[-122.36887,47.580237],[-122.368737,47.580236],[-122.368745,47.579607],[-122.368878,47.579607]]]}},{"type":"Feature","properties":{"id":21,"area_m2":600,"px":6,"rank":8},"geometry":{"type":"Polygon","coordinates":[[[-122.366396,47.575904],[-122.366394,47.576084],[-122.365995,47.576082],[-122.365997,47.575902],[-122.366396,47.575904]]]}},{"type":"Feature","properties":{"id":23,"area_m2":600,"px":6,"rank":9},"geometry":{"type":"Polygon","coordinates":[[[-122.366019,47.574103],[-122.366017,47.574193],[-122.36522,47.574188],[-122.365221,47.574098],[-122.366019,47.574103]]]}},{"type":"Feature","properties":{"id":3,"area_m2":500,"px":5,"rank":10},"geometry":{"type":"Polygon","coordinates":[[[-122.365371,47.583637],[-122.36537,47.583727],[-122.364706,47.583723],[-122.364707,47.583633],[-122.365371,47.583637]]]}},{"type":"Feature","properties":{"id":10,"area_m2":500,"px":5,"rank":11},"geometry":{"type":"Polygon","coordinates":[[[-122.364736,47.581204],[-122.364731,47.581654],[-122.364598,47.581653],[-122.364603,47.581203],[-122.364736,47.581204]]]}},{"type":"Feature","properties":{"id":15,"area_m2":500,"px":5,"rank":12},"geometry":{"type":"Polygon","coordinates":[[[-122.363554,47.579938],[-122.363551,47.580208],[-122.363418,47.580207],[-122.363396,47.580133],[-122.363286,47.580116],[-122.363289,47.579936],[-122.363554,47.579938]]]}},{"type":"Feature","properties":{"id":16,"area_m2":500,"px":5,"rank":13},"geometry":{"type":"Polygon","coordinates":[[[-122.362514,47.578042],[-122.36251,47.578312],[-122.362245,47.578311],[-122.362247,47.578131],[-122.362356,47.578116],[-122.362381,47.578042],[-122.362514,47.578042]]]}},{"type":"Feature","properties":{"id":4,"area_m2":400,"px":4,"rank":14},"geometry":{"type":"Polygon","coordinates":[[[-122.367238,47.583287],[-122.367234,47.583557],[-122.367101,47.583556],[-122.367079,47.583482],[-122.36697,47.583466],[-122.366971,47.583376],[-122.36708,47.583361],[-122.367105,47.583287],[-122.367238,47.583287]]]}},{"type":"Feature","properties":{"id":12,"area_m2":400,"px":4,"rank":15},"geometry":{"type":"Polygon","coordinates":[[[-122.368868,47.580417],[-122.368864,47.580777],[-122.368731,47.580776],[-122.368735,47.580416],[-122.368868,47.580417]]]}},{"type":"Feature","properties":{"id":19,"area_m2":400,"px":4,"rank":16},"geometry":{"type":"Polygon","coordinates":[[[-122.363055,47.577236],[-122.363053,47.577415],[-122.362787,47.577414],[-122.36279,47.577234],[-122.363055,47.577236]]]}},{"type":"Feature","properties":{"id":1,"area_m2":300,"px":3,"rank":17},"geometry":{"type":"Polygon","coordinates":[[[-122.366561,47.584273],[-122.36656,47.584363],[-122.366161,47.584361],[-122.366162,47.584271],[-122.366561,47.584273]]]}},{"type":"Feature","properties":{"id":2,"area_m2":300,"px":3,"rank":18},"geometry":{"type":"Polygon","coordinates":[[[-122.363643,47.583627],[-122.363642,47.583717],[-122.363532,47.583733],[-122.363508,47.583807],[-122.363375,47.583806],[-122.363377,47.583626],[-122.363643,47.583627]]]}},{"type":"Feature","properties":{"id":8,"area_m2":300,"px":3,"rank":19},"geometry":{"type":"Polygon","coordinates":[[[-122.365249,47.582737],[-122.365246,47.583006],[-122.365113,47.583006],[-122.365117,47.582736],[-122.365249,47.582737]]]}},{"type":"Feature","properties":{"id":17,"area_m2":300,"px":3,"rank":20},"geometry":{"type":"Polygon","coordinates":[[[-122.361852,47.577769],[-122.361851,47.577859],[-122.361741,47.577874],[-122.361717,47.577948],[-122.361584,47.577947],[-122.361586,47.577767],[-122.361852,47.577769]]]}},{"type":"Feature","properties":{"id":18,"area_m2":300,"px":3,"rank":21},"geometry":{"type":"Polygon","coordinates":[[[-122.3689,47.577718],[-122.368898,47.577898],[-122.368632,47.577896],[-122.368634,47.577806],[-122.368743,47.577791],[-122.368768,47.577717],[-122.3689,47.577718]]]}},{"type":"Feature","properties":{"id":20,"area_m2":300,"px":3,"rank":22},"geometry":{"type":"Polygon","coordinates":[[[-122.365318,47.577068],[-122.365317,47.577158],[-122.365233,47.577162],[-122.365187,47.577196],[-122.365182,47.577337],[-122.365049,47.577337],[-122.365051,47.577157],[-122.365161,47.577141],[-122.365185,47.577068],[-122.365318,47.577068]]]}},{"type":"Feature","properties":{"id":22,"area_m2":300,"px":3,"rank":23},"geometry":{"type":"Polygon","coordinates":[[[-122.365215,47.574548],[-122.365213,47.574728],[-122.365103,47.574743],[-122.365079,47.574817],[-122.364946,47.574817],[-122.364947,47.574727],[-122.365031,47.574723],[-122.365077,47.574689],[-122.365083,47.574548],[-122.365215,47.574548]]]}}]}