{"type":"FeatureCollection","features":[{"type":"Feature","properties":{"id":12,"area_m2":1900,"px":19,"rank":1},"geometry":{"type":"Polygon","coordinates":[[[-122.363038,47.578675],[-122.363028,47.579485],[-122.362762,47.579483],[-122.362773,47.578584],[-122.362906,47.578585],[-122.362929,47.578659],[-122.363038,47.578675]]]}},{"type":"Feature","properties":{"id":8,"area_m2":1200,"px":12,"rank":2},"geometry":{"type":"Polygon","coordinates":[[[-122.364066,47.58165],[-122.364063,47.58183],[-122.363987,47.581832],[-122.36394,47.581858],[-122.363928,47.582009],[-122.363663,47.582008],[-122.363668,47.581558],[-122.363934,47.58156],[-122.363956,47.581634],[-122.364066,47.58165]]]}},{"type":"Feature","properties":{"id":9,"area_m2":700,"px":7,"rank":3},"geometry":{"type":"Polygon","coordinates":[[[-122.364735,47.581294],[-122.364729,47.581744],[-122.364597,47.581743],[-122.364599,47.581427],[-122.364559,47.581389],[-122.364468,47.581382],[-122.36447,47.581203],[-122.364603,47.581203],[-122.364626,47.581278],[-122.364735,47.581294]]]}},{"type":"Feature","properties":{"id":10,"area_m2":600,"px":6,"rank":4},"geometry":{"type":"Polygon","coordinates":[[[-122.364749,47.580124],[-122.364745,47.580484],[-122.364612,47.580483],[-122.364604,47.580332],[-122.364557,47.580306],[-122.364481,47.580303],[-122.364483,47.580123],[-122.364749,47.580124]]]}},{"type":"Feature","properties":{"id":11,"area_m2":500,"px":5,"rank":5},"geometry":{"type":"Polygon","coordinates":[[[-122.364754,47.579675],[-122.364752,47.579854],[-122.364643,47.57987],[-122.364618,47.579944],[-122.364485,47.579943],[-122.364489,47.579673],[-122.364754,47.579675]]]}},{"type":"Feature","properties":{"id":4,"area_m2":400,"px":4,"rank":6},"geometry":{"type":"Polygon","coordinates":[[[-122.367513,47.582479],[-122.367512,47.582569],[-122.367402,47.582584],[-122.367378,47.582658],[-122.367112,47.582657],[-122.367113,47.582567],[-122.367223,47.582552],[-122.367247,47.582478],[-122.367513,47.582479]]]}},{"type":"Feature","properties":{"id":6,"area_m2":400,"px":4,"rank":7},"geometry":{"type":"Polygon","coordinates":[[[-122.362996,47.582094],[-122.362994,47.582274],[-122.362861,47.582273],[-122.362839,47.582199],[-122.362729,47.582183],[-122.362732,47.582003],[-122.362864,47.582003],[-122.362887,47.582078],[-122.362996,47.582094]]]}},{"type":"Feature","properties":{"id":1,"area_m2":300,"px":3,"rank":8},"geometry":{"type":"Polygon","coordinates":[[[-122.362984,47.583084],[-122.362981,47.583354],[-122.362848,47.583353],[-122.362852,47.583083],[-122.362984,47.583084]]]}},{"type":"Feature","properties":{"id":2,"area_m2":300,"px":3,"rank":9},"geometry":{"type":"Polygon","coordinates":[[[-122.367374,47.583018],[-122.367372,47.583198],[-122.367239,47.583197],[-122.367216,47.583123],[-122.367107,47.583107],[-122.367108,47.583017],[-122.367374,47.583018]]]}},{"type":"Feature","properties":{"id":3,"area_m2":300,"px":3,"rank":10},"geometry":{"type":"Polygon","coordinates":[[[-122.362988,47.582814],[-122.362985,47.582994],[-122.362853,47.582993],[-122.362851,47.582851],[-122.362805,47.582817],[-122.362722,47.582812],[-122.362723,47.582723],[-122.362856,47.582723],[-122.362878,47.582798],[-122.362988,47.582814]]]}},{"type":"Feature","properties":{"id":5,"area_m2":300,"px":3,"rank":11},"geometry":{"type":"Polygon","coordinates":[[[-122.364723,47.582284],[-122.36472,47.582554],[-122.364587,47.582553],[-122.36459,47.582283],[-122.364723,47.582284]]]}},{"type":"Feature","properties":{"id":7,"area_m2":300,"px":3,"rank":12},"geometry":{"type":"Polygon","coordinates":[[[-122.364727,47.581924],[-122.364724,47.582194],[-122.364591,47.582193],[-122.364594,47.581923],[-122.364727,47.581924]]]}},{"type":"Feature","properties":{"id":13,"area_m2":300,"px":3,"rank":13},"geometry":{"type":"Polygon","coordinates":[[[-122.364018,47.574632],[-122.364014,47.574901],[-122.363882,47.574901],[-122.363885,47.574631],[-122.364018,47.574632]]]}}]}