{"type":"FeatureCollection","features":[{"type":"Feature","properties":{"id":21,"area_m2":9300,"px":93,"rank":1},"geometry":{"type":"Polygon","coordinates":[[[-122.364364,47.578953],[-122.364363,47.579042],[-122.364241,47.579053],[-122.364152,47.579018],[-122.364077,47.579075],[-122.364117,47.579124],[-122.364229,47.579132],[-122.364216,47.580211],[-122.364132,47.580215],[-122.364089,47.580244],[-122.364081,47.580427],[-122.364115,47.580472],[-122.364213,47.580481],[-122.364206,47.581021],[-122.363997,47.581022],[-122.363946,47.581053],[-122.363939,47.58111],[-122.363806,47.581109],[-122.363807,47.581019],[-122.363891,47.581015],[-122.363937,47.580981],[-122.363943,47.580804],[-122.363908,47.580759],[-122.363811,47.580749],[-122.363782,47.580671],[-122.363679,47.580658],[-122.36368,47.580568],[-122.363777,47.58056],[-122.363813,47.580515],[-122.363813,47.580247],[-122.363768,47.580213],[-122.363684,47.580208],[-122.36369,47.579759],[-122.363766,47.579757],[-122.363814,47.579731],[-122.363825,47.579579],[-122.363861,47.579537],[-122.363809,47.579419],[-122.363694,47.579399],[-122.363695,47.579309],[-122.363815,47.579285],[-122.36383,47.579183],[-122.363795,47.579138],[-122.363697,47.579129],[-122.363706,47.57841],[-122.363804,47.5784],[-122.36384,47.57832],[-122.36395,47.578305],[-122.363974,47.578231],[-122.364107,47.578231],[-122.364115,47.578383],[-122.364162,47.578409],[-122.364238,47.578412],[-122.364237,47.578502],[-122.364153,47.578506],[-122.364107,47.578539],[-122.364103,47.578728],[-122.364143,47.578765],[-122.364233,47.578772],[-122.36425,47.578932],[-122.364364,47.578953]]]}},{"type":"Feature","properties":{"id":13,"area_m2":6700,"px":67,"rank":2},"geometry":{"type":"Polygon","coordinates":[[[-122.364196,47.581652],[-122.364163,47.581698],[-122.364198,47.581741],[-122.364194,47.582011],[-122.364085,47.582026],[-122.36406,47.5821],[-122.36394,47.582123],[-122.363926,47.582189],[-122.363793,47.582188],[-122.363785,47.582127],[-122.36373,47.582099],[-122.363593,47.582098],[-122.363537,47.582126],[-122.363521,47.582727],[-122.363388,47.582726],[-122.363365,47.582652],[-122.363256,47.582634],[-122.363262,47.582096],[-122.363378,47.582077],[-122.363433,47.581964],[-122.363398,47.581915],[-122.363407,47.581065],[-122.363366,47.581023],[-122.363276,47.581015],[-122.363277,47.580926],[-122.363367,47.58092],[-122.363409,47.580883],[-122.363414,47.580567],[-122.363547,47.580568],[-122.363547,47.581272],[-122.363608,47.581301],[-122.36374,47.581287],[-122.363795,47.58126],[-122.363805,47.581199],[-122.364071,47.5812],[-122.364094,47.581275],[-122.364203,47.581291],[-122.364196,47.581652]],[[-122.363787,47.581583],[-122.36359,47.581546],[-122.363538,47.581582],[-122.363535,47.581707],[-122.363595,47.58175],[-122.363749,47.581734],[-122.363798,47.581695],[-122.363787,47.581583]]]}},{"type":"Feature","properties":{"id":62,"area_m2":5600,"px":56,"rank":3},"geometry":{"type":"Polygon","coordinates":[[[-122.368947,47.573849],[-122.368938,47.574569],[-122.368805,47.574568],[-122.368783,47.574494],[-122.368627,47.574455],[-122.368437,47.574488],[-122.368407,47.574525],[-122.368405,47.574656],[-122.368209,47.574641],[-122.368142,47.574679],[-122.368134,47.575104],[-122.368024,47.575119],[-122.368,47.575193],[-122.367867,47.575193],[-122.367883,47.573843],[-122.368016,47.573844],[-122.368012,47.574259],[-122.368088,47.574308],[-122.368228,47.574291],[-122.368276,47.574252],[-122.368284,47.573665],[-122.368417,47.573666],[-122.368417,47.573816],[-122.368462,47.573855],[-122.368947,47.573849]],[[-122.368544,47.574206],[-122.368508,47.574244],[-122.368523,47.574284],[-122.368583,47.57431],[-122.368641,47.574301],[-122.368675,47.574268],[-122.368664,47.574218],[-122.368607,47.574194],[-122.368544,47.574206]]]}},{"type":"Feature","properties":{"id":8,"area_m2":5100,"px":51,"rank":4},"geometry":{"type":"Polygon","coordinates":[[[-122.363128,47.582006],[-122.363094,47.582052],[-122.363129,47.582095],[-122.363128,47.582185],[-122.363037,47.582191],[-122.362995,47.582233],[-122.362989,47.58267],[-122.363024,47.582715],[-122.363122,47.582725],[-122.363117,47.583085],[-122.363041,47.583086],[-122.362994,47.583112],[-122.362982,47.583264],[-122.362872,47.583279],[-122.362848,47.583353],[-122.362715,47.583352],[-122.362717,47.583172],[-122.362815,47.583164],[-122.362851,47.583119],[-122.362839,47.583017],[-122.36272,47.582991],[-122.362722,47.582812],[-122.362758,47.58277],[-122.362723,47.582721],[-122.362734,47.581823],[-122.362831,47.581814],[-122.362867,47.581769],[-122.362867,47.581502],[-122.362822,47.581467],[-122.362738,47.581463],[-122.362743,47.581103],[-122.363008,47.581104],[-122.363016,47.581256],[-122.363063,47.581282],[-122.363139,47.581285],[-122.363137,47.581465],[-122.363039,47.581474],[-122.363003,47.581518],[-122.363002,47.581781],[-122.363042,47.581818],[-122.363133,47.581825],[-122.363128,47.582006]]]}},{"type":"Feature","properties":{"id":18,"area_m2":4200,"px":42,"rank":5},"geometry":{"type":"Polygon","coordinates":[[[-122.36753,47.580861],[-122.367497,47.580907],[-122.367532,47.58095],[-122.367528,47.581219],[-122.367492,47.581267],[-122.367527,47.581311],[-122.367522,47.581759],[-122.367389,47.581758],[-122.367376,47.581692],[-122.367257,47.581668],[-122.367223,47.581587],[-122.366992,47.581576],[-122.366992,47.581345],[-122.366946,47.58131],[-122.366863,47.581306],[-122.366868,47.580856],[-122.366978,47.580841],[-122.367002,47.580767],[-122.367532,47.58077],[-122.36753,47.580861]]]}},{"type":"Feature","properties":{"id":30,"area_m2":3500,"px":35,"rank":6},"geometry":{"type":"Polygon","coordinates":[[[-122.368499,47.577896],[-122.368492,47.578525],[-122.368394,47.578534],[-122.368358,47.578579],[-122.36837,47.578681],[-122.36849,47.578705],[-122.368486,47.578975],[-122.368389,47.578984],[-122.368353,47.579028],[-122.368357,47.579211],[-122.368399,47.579241],[-122.368483,47.579245],[-122.368481,47.579425],[-122.368397,47.579429],[-122.368351,47.579463],[-122.368345,47.579694],[-122.368212,47.579693],[-122.368207,47.579272],[-122.368145,47.579244],[-122.367818,47.579241],[-122.367819,47.579152],[-122.368146,47.579153],[-122.368215,47.579115],[-122.368234,47.577894],[-122.368499,47.577896]]]}},{"type":"Feature","properties":{"id":20,"area_m2":3300,"px":33,"rank":7},"geometry":{"type":"Polygon","coordinates":[[[-122.368083,47.579333],[-122.368059,47.581311],[-122.367928,47.581312],[-122.367919,47.58116],[-122.367872,47.581134],[-122.367796,47.58113],[-122.367797,47.581041],[-122.367894,47.581032],[-122.36793,47.580988],[-122.367926,47.580805],[-122.367884,47.580776],[-122.3678,47.580771],[-122.367801,47.580681],[-122.367899,47.580672],[-122.367935,47.580628],[-122.367922,47.580526],[-122.367803,47.580501],[-122.367806,47.580231],[-122.367904,47.580223],[-122.36794,47.580178],[-122.367928,47.580076],[-122.367809,47.580051],[-122.367811,47.579871],[-122.367931,47.579848],[-122.367945,47.579746],[-122.36791,47.579701],[-122.367813,47.579691],[-122.367817,47.579333],[-122.368083,47.579333]]]}},{"type":"Feature","properties":{"id":45,"area_m2":2900,"px":29,"rank":8},"geometry":{"type":"Polygon","coordinates":[[[-122.363061,47.576517],[-122.363028,47.576563],[-122.363063,47.576606],[-122.363061,47.576786],[-122.362984,47.576788],[-122.362937,47.576814],[-122.362905,47.576999],[-122.362946,47.577048],[-122.363057,47.577056],[-122.363054,47.577326],[-122.362944,47.577341],[-122.36292,47.577415],[-122.3628,47.577438],[-122.362786,47.577504],[-122.362653,47.577503],[-122.362654,47.577413],[-122.362752,47.577405],[-122.362788,47.57736],[-122.362776,47.577258],[-122.362657,47.577233],[-122.362658,47.577143],[-122.362694,47.577101],[-122.362659,47.577053],[-122.36266,47.576964],[-122.362757,47.576955],[-122.362793,47.57691],[-122.362793,47.576643],[-122.362748,47.576608],[-122.362664,47.576602],[-122.362665,47.576514],[-122.362749,47.57651],[-122.362795,47.576476],[-122.3628,47.576293],[-122.362759,47.576251],[-122.362669,47.576244],[-122.36267,47.576154],[-122.362779,47.576139],[-122.362804,47.576065],[-122.363069,47.576066],[-122.363061,47.576517]]]}},{"type":"Feature","properties":{"id":2,"area_m2":2600,"px":26,"rank":9},"geometry":{"type":"Polygon","coordinates":[[[-122.364308,47.583631],[-122.364304,47.583901],[-122.363837,47.583899],[-122.363782,47.583927],[-122.363771,47.583988],[-122.363639,47.583987],[-122.363626,47.583921],[-122.363507,47.583896],[-122.363472,47.583815],[-122.363186,47.583791],[-122.363118,47.58382],[-122.363108,47.583894],[-122.362975,47.583894],[-122.362978,47.583624],[-122.363244,47.583625],[-122.363306,47.58365],[-122.363379,47.583626],[-122.364308,47.583631]]]}},{"type":"Feature","properties":{"id":49,"area_m2":1900,"px":19,"rank":10},"geometry":{"type":"Polygon","coordinates":[[[-122.368509,47.576817],[-122.368476,47.576863],[-122.368511,47.576906],[-122.368509,47.577086],[-122.368399,47.577101],[-122.368375,47.577175],[-122.368242,47.577174],[-122.368248,47.576726],[-122.368284,47.576682],[-122.368249,47.576633],[-122.368255,47.576095],[-122.368521,47.576096],[-122.368519,47.576276],[-122.368421,47.576285],[-122.368385,47.576329],[-122.368397,47.576431],[-122.368517,47.576456],[-122.368509,47.576817]]]}},{"type":"Feature","properties":{"id":12,"area_m2":1800,"px":18,"rank":11},"geometry":{"type":"Polygon","coordinates":[[[-122.367649,47.58221],[-122.367648,47.5823],[-122.367551,47.582308],[-122.367515,47.582353],[-122.367516,47.582531],[-122.367562,47.582565],[-122.367645,47.58257],[-122.367644,47.58266],[-122.367534,47.582675],[-122.36751,47.582749],[-122.367377,47.582748],[-122.367355,47.582674],[-122.367245,47.582657],[-122.367255,47.582503],[-122.367212,47.58248],[-122.367115,47.582477],[-122.367092,47.582403],[-122.366983,47.582386],[-122.366984,47.582296],[-122.36706,47.582294],[-122.367108,47.582268],[-122.367119,47.582117],[-122.367385,47.582118],[-122.367388,47.58217],[-122.367426,47.582202],[-122.367649,47.58221]]]}},{"type":"Feature","properties":{"id":27,"area_m2":1800,"px":18,"rank":12},"geometry":{"type":"Polygon","coordinates":[[[-122.363564,47.579128],[-122.363562,47.579308],[-122.363465,47.579316],[-122.363429,47.579361],[-122.363441,47.579463],[-122.36356,47.579488],[-122.363552,47.580118],[-122.363286,47.580116],[-122.36329,47.579846],[-122.363326,47.579804],[-122.363291,47.579755],[-122.363297,47.579217],[-122.363407,47.579201],[-122.363431,47.579127],[-122.363564,47.579128]]]}},{"type":"Feature","properties":{"id":73,"area_m2":1800,"px":18,"rank":13},"geometry":{"type":"Polygon","coordinates":[[[-122.36602,47.574013],[-122.366017,47.574193],[-122.365089,47.574188],[-122.365024,47.574163],[-122.364954,47.574187],[-122.364821,47.574186],[-122.364822,47.574096],[-122.364906,47.574092],[-122.364952,47.574059],[-122.364957,47.573917],[-122.36509,47.573918],[-122.365118,47.573996],[-122.365262,47.574022],[-122.365342,47.573998],[-122.365358,47.573919],[-122.365622,47.573921],[-122.365631,47.573982],[-122.365685,47.57401],[-122.36602,47.574013]]]}},{"type":"Feature","properties":{"id":23,"area_m2":1700,"px":17,"rank":14},"geometry":{"type":"Polygon","coordinates":[[[-122.368469,47.580146],[-122.368436,47.580192],[-122.368471,47.580235],[-122.368469,47.580415],[-122.368433,47.580462],[-122.368468,47.580505],[-122.368464,47.580865],[-122.368354,47.58088],[-122.36833,47.580954],[-122.368197,47.580953],[-122.3682,47.580683],[-122.368236,47.580641],[-122.368201,47.580592],[-122.368206,47.580145],[-122.368243,47.580101],[-122.368208,47.580053],[-122.368209,47.579964],[-122.368474,47.579965],[-122.368469,47.580146]]]}},{"type":"Feature","properties":{"id":36,"area_m2":1600,"px":16,"rank":15},"geometry":{"type":"Polygon","coordinates":[[[-122.368101,47.577803],[-122.368099,47.577983],[-122.368002,47.577992],[-122.367966,47.578037],[-122.367978,47.578139],[-122.368097,47.578163],[-122.36809,47.578793],[-122.36798,47.578808],[-122.367956,47.578882],[-122.367823,47.578882],[-122.367826,47.578612],[-122.367862,47.578569],[-122.367827,47.578522],[-122.367829,47.578342],[-122.367927,47.578333],[-122.367963,47.578289],[-122.367951,47.578186],[-122.367831,47.578162],[-122.367834,47.577982],[-122.36791,47.57798],[-122.367957,47.577954],[-122.367969,47.577803],[-122.368101,47.577803]]]}},{"type":"Feature","properties":{"id":57,"area_m2":1600,"px":16,"rank":16},"geometry":{"type":"Polygon","coordinates":[[[-122.368132,47.575284],[-122.368122,47.576094],[-122.367856,47.576092],[-122.36786,47.575823],[-122.367896,47.57578],[-122.367861,47.575732],[-122.367865,47.575373],[-122.367975,47.575357],[-122.367999,47.575283],[-122.368132,47.575284]]]}},{"type":"Feature","properties":{"id":60,"area_m2":1600,"px":16,"rank":17},"geometry":{"type":"Polygon","coordinates":[[[-122.368534,47.575016],[-122.368533,47.575106],[-122.368435,47.575115],[-122.368399,47.57516],[-122.368403,47.575342],[-122.368446,47.575372],[-122.36853,47.575376],[-122.368526,47.575646],[-122.36845,47.575648],[-122.368403,47.575674],[-122.368391,47.575825],[-122.368258,47.575825],[-122.368271,47.574745],[-122.368404,47.574746],[-122.368405,47.574977],[-122.36845,47.575012],[-122.368534,47.575016]]]}},{"type":"Feature","properties":{"id":16,"area_m2":1400,"px":14,"rank":18},"geometry":{"type":"Polygon","coordinates":[[[-122.362604,47.581552],[-122.362601,47.581822],[-122.362524,47.581824],[-122.362477,47.58185],[-122.362466,47.582001],[-122.3622,47.582],[-122.362205,47.58155],[-122.362315,47.581535],[-122.362341,47.581461],[-122.362472,47.581461],[-122.362495,47.581536],[-122.362604,47.581552]]]}},{"type":"Feature","properties":{"id":7,"area_m2":1300,"px":13,"rank":19},"geometry":{"type":"Polygon","coordinates":[[[-122.364314,47.583091],[-122.364312,47.583271],[-122.364202,47.583286],[-122.364178,47.58336],[-122.363779,47.583358],[-122.363782,47.583088],[-122.363892,47.583073],[-122.363916,47.582999],[-122.364182,47.583001],[-122.364205,47.583075],[-122.364314,47.583091]]]}},{"type":"Feature","properties":{"id":9,"area_m2":1200,"px":12,"rank":20},"geometry":{"type":"Polygon","coordinates":[[[-122.365385,47.582557],[-122.365382,47.582737],[-122.365285,47.582746],[-122.365249,47.58279],[-122.365261,47.582893],[-122.36538,47.582917],[-122.365378,47.583097],[-122.365245,47.583096],[-122.365223,47.583022],[-122.365113,47.583006],[-122.365122,47.582286],[-122.365255,47.582287],[-122.365256,47.582518],[-122.365301,47.582553],[-122.365385,47.582557]]]}},{"type":"Feature","properties":{"id":34,"area_m2":1100,"px":11,"rank":21},"geometry":{"type":"Polygon","coordinates":[[[-122.363163,47.579306],[-122.363162,47.579396],[-122.363052,47.579411],[-122.363028,47.579485],[-122.362762,47.579483],[-122.362764,47.579304],[-122.3628,47.579261],[-122.362766,47.579213],[-122.362769,47.578944],[-122.363035,47.578945],[-122.363032,47.579125],[-122.362998,47.579183],[-122.363054,47.579289],[-122.363163,47.579306]]]}},{"type":"Feature","properties":{"id":46,"area_m2":1000,"px":10,"rank":22},"geometry":{"type":"Polygon","coordinates":[[[-122.363592,47.576879],[-122.363586,47.577328],[-122.363476,47.577344],[-122.363452,47.577418],[-122.363319,47.577417],[-122.363317,47.577275],[-122.363272,47.577241],[-122.363188,47.577236],[-122.36319,47.577146],[-122.363287,47.577138],[-122.363324,47.577057],[-122.363443,47.577034],[-122.363459,47.576878],[-122.363592,47.576879]]]}},{"type":"Feature","properties":{"id":28,"area_m2":900,"px":9,"rank":23},"geometry":{"type":"Polygon","coordinates":[[[-122.363158,47.579756],[-122.363156,47.579935],[-122.363046,47.579951],[-122.363021,47.580025],[-122.362623,47.580022],[-122.362624,47.579933],[-122.362707,47.579929],[-122.362754,47.579895],[-122.362759,47.579753],[-122.363158,47.579756]]]}},{"type":"Feature","properties":{"id":32,"area_m2":900,"px":9,"rank":24},"geometry":{"type":"Polygon","coordinates":[[[-122.361968,47.579209],[-122.361966,47.579299],[-122.361869,47.579308],[-122.361832,47.579388],[-122.361756,47.57939],[-122.361709,47.579416],[-122.361697,47.579567],[-122.361587,47.579583],[-122.361563,47.579657],[-122.36143,47.579656],[-122.361431,47.579566],[-122.361515,47.579562],[-122.361561,47.579528],[-122.361567,47.579387],[-122.361657,47.579381],[-122.361698,47.579344],[-122.361688,47.579232],[-122.361569,47.579207],[-122.361571,47.579028],[-122.361681,47.579012],[-122.361705,47.578938],[-122.361838,47.57894],[-122.361837,47.579028],[-122.361753,47.579032],[-122.361707,47.579066],[-122.361715,47.579184],[-122.361774,47.579208],[-122.361968,47.579209]]]}},{"type":"Feature","properties":{"id":22,"area_m2":800,"px":8,"rank":25},"geometry":{"type":"Polygon","coordinates":[[[-122.364877,47.580575],[-122.364875,47.580665],[-122.364778,47.580673],[-122.364742,47.580718],[-122.364743,47.580896],[-122.364789,47.58093],[-122.364872,47.580935],[-122.364871,47.581025],[-122.364605,47.581023],[-122.364612,47.580484],[-122.364745,47.580484],[-122.364767,47.580559],[-122.364877,47.580575]]]}},{"type":"Feature","properties":{"id":37,"area_m2":800,"px":8,"rank":26},"geometry":{"type":"Polygon","coordinates":[[[-122.363572,47.578498],[-122.363568,47.578858],[-122.363302,47.578857],[-122.363306,47.578497],[-122.363572,47.578498]]]}},{"type":"Feature","properties":{"id":71,"area_m2":800,"px":8,"rank":27},"geometry":{"type":"Polygon","coordinates":[[[-122.362032,47.573901],[-122.362031,47.573991],[-122.361933,47.573999],[-122.361897,47.57408],[-122.361821,47.574082],[-122.361773,47.574108],[-122.361762,47.574259],[-122.361652,47.574274],[-122.361628,47.574348],[-122.361495,47.574348],[-122.361496,47.574258],[-122.36158,47.574254],[-122.361626,47.57422],[-122.361652,47.574044],[-122.361611,47.573995],[-122.361499,47.573988],[-122.3615,47.573898],[-122.36161,47.573883],[-122.361636,47.573809],[-122.361767,47.573809],[-122.361773,47.573866],[-122.361823,47.573897],[-122.362032,47.573901]]]}},{"type":"Feature","properties":{"id":5,"area_m2":700,"px":7,"rank":28},"geometry":{"type":"Polygon","coordinates":[[[-122.364716,47.582824],[-122.364709,47.583453],[-122.364576,47.583453],[-122.364584,47.582823],[-122.364716,47.582824]]]}},{"type":"Feature","properties":{"id":17,"area_m2":700,"px":7,"rank":29},"geometry":{"type":"Polygon","coordinates":[[[-122.365268,47.581207],[-122.36526,47.581837],[-122.365127,47.581836],[-122.365135,47.581206],[-122.365268,47.581207]]]}},{"type":"Feature","properties":{"id":42,"area_m2":700,"px":7,"rank":30},"geometry":{"type":"Polygon","coordinates":[[[-122.367571,47.577711],[-122.36757,47.5778],[-122.36746,47.577816],[-122.367436,47.57789],[-122.367303,47.577889],[-122.36729,47.577823],[-122.367224,47.577799],[-122.367073,47.577807],[-122.367037,47.577887],[-122.366904,47.577887],[-122.366906,47.577707],[-122.367571,47.577711]]]}},{"type":"Feature","properties":{"id":52,"area_m2":700,"px":7,"rank":31},"geometry":{"type":"Polygon","coordinates":[[[-122.368119,47.576364],[-122.368116,47.576634],[-122.368039,47.576636],[-122.367992,47.576662],[-122.36798,47.576813],[-122.367848,47.576812],[-122.367851,47.576542],[-122.367887,47.5765],[-122.367852,47.576452],[-122.367853,47.576362],[-122.368119,47.576364]]]}},{"type":"Feature","properties":{"id":58,"area_m2":700,"px":7,"rank":32},"geometry":{"type":"Polygon","coordinates":[[[-122.366529,47.575905],[-122.366528,47.575995],[-122.366418,47.57601],[-122.366394,47.576084],[-122.365995,47.576082],[-122.365997,47.575902],[-122.366529,47.575905]]]}},{"type":"Feature","properties":{"id":6,"area_m2":600,"px":6,"rank":33},"geometry":{"type":"Polygon","coordinates":[[[-122.362584,47.583172],[-122.362581,47.583441],[-122.362315,47.58344],[-122.362317,47.58326],[-122.362353,47.583218],[-122.362319,47.58317],[-122.36232,47.58308],[-122.362452,47.583081],[-122.362475,47.583155],[-122.362584,47.583172]]]}},{"type":"Feature","properties":{"id":15,"area_m2":600,"px":6,"rank":34},"geometry":{"type":"Polygon","coordinates":[[[-122.364726,47.582014],[-122.36472,47.582554],[-122.364587,47.582553],[-122.364593,47.582013],[-122.364726,47.582014]]]}},{"type":"Feature","properties":{"id":24,"area_m2":600,"px":6,"rank":35},"geometry":{"type":"Polygon","coordinates":[[[-122.365407,47.580668],[-122.365406,47.580758],[-122.365323,47.580761],[-122.365276,47.580795],[-122.365271,47.580937],[-122.365138,47.580936],[-122.365144,47.580486],[-122.365277,47.580487],[-122.365284,47.580639],[-122.365331,47.580665],[-122.365407,47.580668]]]}},{"type":"Feature","properties":{"id":33,"area_m2":600,"px":6,"rank":36},"geometry":{"type":"Polygon","coordinates":[[[-122.364762,47.579045],[-122.364756,47.579584],[-122.364623,47.579584],[-122.364629,47.579044],[-122.364762,47.579045]]]}},{"type":"Feature","properties":{"id":50,"area_m2":600,"px":6,"rank":37},"geometry":{"type":"Polygon","coordinates":[[[-122.365854,47.576711],[-122.365853,47.576801],[-122.365769,47.576805],[-122.365723,47.576839],[-122.365718,47.57698],[-122.365585,47.57698],[-122.365591,47.57653],[-122.365723,47.576531],[-122.365731,47.576682],[-122.365778,47.576708],[-122.365854,47.576711]]]}},{"type":"Feature","properties":{"id":75,"area_m2":600,"px":6,"rank":38},"geometry":{"type":"Polygon","coordinates":[[[-122.365773,47.572392],[-122.365772,47.572482],[-122.365667,47.572485],[-122.365621,47.572521],[-122.365636,47.572751],[-122.365526,47.572766],[-122.365502,47.57284],[-122.365369,47.572839],[-122.36537,47.57275],[-122.365468,47.572741],[-122.365504,47.572696],[-122.365492,47.572594],[-122.365372,47.572569],[-122.365374,47.57248],[-122.365483,47.572464],[-122.365508,47.57239],[-122.365773,47.572392]]]}},{"type":"Feature","properties":{"id":10,"area_m2":500,"px":5,"rank":39},"geometry":{"type":"Polygon","coordinates":[[[-122.363653,47.582818],[-122.363651,47.582908],[-122.363568,47.582911],[-122.363522,47.582945],[-122.363516,47.583087],[-122.36325,47.583085],[-122.363252,47.582995],[-122.363335,47.582992],[-122.363381,47.582958],[-122.363387,47.582816],[-122.363653,47.582818]]]}},{"type":"Feature","properties":{"id":29,"area_m2":500,"px":5,"rank":40},"geometry":{"type":"Polygon","coordinates":[[[-122.361829,47.579658],[-122.361827,47.579838],[-122.361717,47.579853],[-122.361693,47.579927],[-122.361573,47.579951],[-122.361559,47.580017],[-122.361426,47.580016],[-122.361427,47.579926],[-122.361511,47.579922],[-122.361557,47.579888],[-122.361562,47.579747],[-122.361672,47.579732],[-122.361696,47.579658],[-122.361829,47.579658]]]}},{"type":"Feature","properties":{"id":35,"area_m2":500,"px":5,"rank":41},"geometry":{"type":"Polygon","coordinates":[[[-122.362506,47.578672],[-122.3625,47.579122],[-122.362368,47.579121],[-122.362373,47.578672],[-122.362506,47.578672]]]}},{"type":"Feature","properties":{"id":38,"area_m2":500,"px":5,"rank":42},"geometry":{"type":"Polygon","coordinates":[[[-122.363035,47.578677],[-122.363002,47.578723],[-122.363037,47.578765],[-122.363036,47.578855],[-122.36277,47.578854],[-122.362773,47.578584],[-122.363039,47.578585],[-122.363035,47.578677]]]}},{"type":"Feature","properties":{"id":40,"area_m2":500,"px":5,"rank":43},"geometry":{"type":"Polygon","coordinates":[[[-122.365304,47.578238],[-122.365298,47.578688],[-122.365166,47.578687],[-122.365171,47.578237],[-122.365304,47.578238]]]}},{"type":"Feature","properties":{"id":51,"area_m2":500,"px":5,"rank":44},"geometry":{"type":"Polygon","coordinates":[[[-122.368914,47.576548],[-122.368913,47.576638],[-122.368823,47.576644],[-122.368781,47.576681],[-122.368777,47.576907],[-122.368644,47.576907],[-122.368649,47.576547],[-122.368914,47.576548]]]}},{"type":"Feature","properties":{"id":56,"area_m2":500,"px":5,"rank":45},"geometry":{"type":"Polygon","coordinates":[[[-122.365728,47.576171],[-122.365724,47.576441],[-122.365459,47.576439],[-122.365461,47.576259],[-122.36557,47.576244],[-122.365595,47.57617],[-122.365728,47.576171]]]}},{"type":"Feature","properties":{"id":59,"area_m2":500,"px":5,"rank":46},"geometry":{"type":"Polygon","coordinates":[[[-122.368926,47.575559],[-122.368925,47.575648],[-122.368842,47.575652],[-122.368795,47.575686],[-122.36879,47.575828],[-122.368657,47.575827],[-122.368662,47.575467],[-122.368794,47.575468],[-122.368817,47.575542],[-122.368926,47.575559]]]}},{"type":"Feature","properties":{"id":61,"area_m2":500,"px":5,"rank":47},"geometry":{"type":"Polygon","coordinates":[[[-122.361884,47.57516],[-122.361883,47.575249],[-122.361799,47.575253],[-122.361753,47.575287],[-122.361748,47.575429],[-122.361638,47.575444],[-122.361613,47.575518],[-122.361481,47.575517],[-122.361482,47.575427],[-122.361573,47.575421],[-122.361614,47.575385],[-122.361618,47.575158],[-122.361884,47.57516]]]}},{"type":"Feature","properties":{"id":64,"area_m2":500,"px":5,"rank":48},"geometry":{"type":"Polygon","coordinates":[[[-122.361889,47.57471],[-122.361887,47.57489],[-122.361811,47.574892],[-122.361763,47.574918],[-122.361752,47.575069],[-122.361619,47.575068],[-122.361622,47.574798],[-122.361732,47.574783],[-122.361756,47.574709],[-122.361889,47.57471]]]}},{"type":"Feature","properties":{"id":67,"area_m2":500,"px":5,"rank":49},"geometry":{"type":"Polygon","coordinates":[[[-122.36362,47.574539],[-122.363618,47.574719],[-122.363352,47.574718],[-122.363355,47.574448],[-122.363488,47.574449],[-122.363511,47.574523],[-122.36362,47.574539]]]}},{"type":"Feature","properties":{"id":74,"area_m2":500,"px":5,"rank":50},"geometry":{"type":"Polygon","coordinates":[[[-122.36284,47.573095],[-122.362838,47.573185],[-122.362371,47.573184],[-122.362316,47.573211],[-122.362306,47.573272],[-122.362173,47.573272],[-122.362174,47.573182],[-122.362284,47.573166],[-122.362308,47.573092],[-122.36284,47.573095]]]}},{"type":"Feature","properties":{"id":1,"area_m2":400,"px":4,"rank":51},"geometry":{"type":"Polygon","coordinates":[[[-122.364966,47.584175],[-122.364965,47.584264],[-122.364832,47.584264],[-122.36477,47.584239],[-122.364699,47.584263],[-122.364566,47.584262],[-122.364568,47.584082],[-122.364834,47.584084],[-122.364857,47.584158],[-122.364966,47.584175]]]}},{"type":"Feature","properties":{"id":4,"area_m2":400,"px":4,"rank":52},"geometry":{"type":"Polygon","coordinates":[[[-122.363513,47.583357],[-122.363511,47.583537],[-122.363245,47.583535],[-122.363247,47.583355],[-122.363513,47.583357]]]}},{"type":"Feature","properties":{"id":14,"area_m2":400,"px":4,"rank":53},"geometry":{"type":"Polygon","coordinates":[[[-122.36246,47.582451],[-122.362458,47.582631],[-122.362325,47.58263],[-122.362317,47.582479],[-122.362271,47.582452],[-122.362194,47.58245],[-122.362196,47.58227],[-122.362329,47.58227],[-122.362337,47.582422],[-122.362384,47.582448],[-122.36246,47.582451]]]}},{"type":"Feature","properties":{"id":31,"area_m2":400,"px":4,"rank":54},"geometry":{"type":"Polygon","coordinates":[[[-122.365291,47.579318],[-122.365286,47.579677],[-122.365154,47.579677],[-122.365158,47.579317],[-122.365291,47.579318]]]}},{"type":"Feature","properties":{"id":39,"area_m2":400,"px":4,"rank":55},"geometry":{"type":"Polygon","coordinates":[[[-122.361842,47.578579],[-122.361841,47.578668],[-122.361757,47.578672],[-122.361711,47.578706],[-122.361706,47.578848],[-122.361573,47.578847],[-122.361576,47.578577],[-122.361842,47.578579]]]}},{"type":"Feature","properties":{"id":41,"area_m2":400,"px":4,"rank":56},"geometry":{"type":"Polygon","coordinates":[[[-122.362511,47.578222],[-122.362507,47.578582],[-122.362374,47.578581],[-122.362379,47.578222],[-122.362511,47.578222]]]}},{"type":"Feature","properties":{"id":43,"area_m2":400,"px":4,"rank":57},"geometry":{"type":"Polygon","coordinates":[[[-122.368904,47.577448],[-122.3689,47.577718],[-122.368768,47.577717],[-122.368745,47.577643],[-122.368636,47.577626],[-122.368637,47.577536],[-122.368746,47.577521],[-122.368771,47.577447],[-122.368904,47.577448]]]}},{"type":"Feature","properties":{"id":44,"area_m2":400,"px":4,"rank":58},"geometry":{"type":"Polygon","coordinates":[[[-122.367175,47.577438],[-122.367174,47.577528],[-122.366775,47.577526],[-122.366753,47.577452],[-122.366643,47.577435],[-122.366644,47.577346],[-122.366777,47.577346],[-122.366786,47.577408],[-122.36684,47.577435],[-122.367175,47.577438]]]}},{"type":"Feature","properties":{"id":53,"area_m2":400,"px":4,"rank":59},"geometry":{"type":"Polygon","coordinates":[[[-122.365327,47.576348],[-122.365324,47.576528],[-122.365215,47.576544],[-122.36519,47.576618],[-122.365058,47.576617],[-122.365059,47.576527],[-122.365156,47.576518],[-122.365192,47.576474],[-122.36518,47.576372],[-122.365061,47.576347],[-122.365062,47.576257],[-122.365195,47.576258],[-122.365217,47.576332],[-122.365327,47.576348]]]}},{"type":"Feature","properties":{"id":69,"area_m2":400,"px":4,"rank":60},"geometry":{"type":"Polygon","coordinates":[[[-122.365219,47.574278],[-122.365216,47.574458],[-122.364951,47.574457],[-122.364953,47.574277],[-122.365219,47.574278]]]}},{"type":"Feature","properties":{"id":3,"area_m2":300,"px":3,"rank":61},"geometry":{"type":"Polygon","coordinates":[[[-122.365637,47.583638],[-122.365635,47.583818],[-122.365502,47.583818],[-122.36548,47.583743],[-122.365371,47.583727],[-122.365372,47.583637],[-122.365637,47.583638]]]}},{"type":"Feature","properties":{"id":11,"area_m2":300,"px":3,"rank":62},"geometry":{"type":"Polygon","coordinates":[[[-122.367509,47.582839],[-122.367507,47.583019],[-122.367241,47.583017],[-122.367242,47.582928],[-122.367352,47.582912],[-122.367376,47.582838],[-122.367509,47.582839]]]}},{"type":"Feature","properties":{"id":19,"area_m2":300,"px":3,"rank":63},"geometry":{"type":"Polygon","coordinates":[[[-122.36819,47.581493],[-122.368189,47.581583],[-122.368079,47.581598],[-122.368055,47.581672],[-122.367922,47.581671],[-122.367924,47.581492],[-122.36819,47.581493]]]}},{"type":"Feature","properties":{"id":25,"area_m2":300,"px":3,"rank":64},"geometry":{"type":"Polygon","coordinates":[[[-122.362481,47.580742],[-122.36248,47.580832],[-122.362349,47.580831],[-122.362324,47.580757],[-122.362215,47.58074],[-122.362217,47.58056],[-122.36235,47.580561],[-122.362358,47.580712],[-122.362405,47.580739],[-122.362481,47.580742]]]}},{"type":"Feature","properties":{"id":26,"area_m2":300,"px":3,"rank":65},"geometry":{"type":"Polygon","coordinates":[[[-122.361685,47.580557],[-122.361684,47.580647],[-122.3616,47.580651],[-122.361554,47.580685],[-122.361549,47.580826],[-122.361416,47.580826],[-122.361418,47.580646],[-122.361528,47.58063],[-122.361552,47.580557],[-122.361685,47.580557]]]}},{"type":"Feature","properties":{"id":48,"area_m2":300,"px":3,"rank":66},"geometry":{"type":"Polygon","coordinates":[[[-122.36811,47.577084],[-122.368108,47.577263],[-122.367975,47.577263],[-122.367953,47.577189],[-122.367843,47.577172],[-122.367844,47.577082],[-122.36811,47.577084]]]}},{"type":"Feature","properties":{"id":47,"area_m2":300,"px":3,"rank":67},"geometry":{"type":"Polygon","coordinates":[[[-122.368776,47.576997],[-122.368773,47.577267],[-122.36864,47.577266],[-122.368643,47.576997],[-122.368776,47.576997]]]}},{"type":"Feature","properties":{"id":54,"area_m2":300,"px":3,"rank":68},"geometry":{"type":"Polygon","coordinates":[[[-122.363598,47.576339],[-122.363597,47.576429],[-122.363487,47.576444],[-122.363463,47.576518],[-122.36333,47.576517],[-122.363332,47.576337],[-122.363598,47.576339]]]}},{"type":"Feature","properties":{"id":55,"area_m2":300,"px":3,"rank":69},"geometry":{"type":"Polygon","coordinates":[[[-122.368786,47.576188],[-122.368783,47.576457],[-122.36865,47.576457],[-122.368653,47.576187],[-122.368786,47.576188]]]}},{"type":"Feature","properties":{"id":63,"area_m2":300,"px":3,"rank":70},"geometry":{"type":"Polygon","coordinates":[[[-122.362552,47.574893],[-122.36255,47.575073],[-122.362284,47.575072],[-122.362285,47.574982],[-122.362395,47.574967],[-122.362419,47.574893],[-122.362552,47.574893]]]}},{"type":"Feature","properties":{"id":65,"area_m2":300,"px":3,"rank":71},"geometry":{"type":"Polygon","coordinates":[[[-122.362555,47.574623],[-122.362554,47.574713],[-122.362444,47.574729],[-122.36242,47.574803],[-122.362287,47.574802],[-122.362289,47.574622],[-122.362555,47.574623]]]}},{"type":"Feature","properties":{"id":66,"area_m2":300,"px":3,"rank":72},"geometry":{"type":"Polygon","coordinates":[[[-122.36402,47.574452],[-122.364018,47.574631],[-122.363908,47.574647],[-122.363884,47.574721],[-122.363751,47.57472],[-122.363752,47.57463],[-122.363836,47.574626],[-122.363882,47.574592],[-122.363887,47.574451],[-122.36402,47.574452]]]}},{"type":"Feature","properties":{"id":68,"area_m2":300,"px":3,"rank":73},"geometry":{"type":"Polygon","coordinates":[[[-122.361894,47.57435],[-122.361892,47.57444],[-122.361809,47.574443],[-122.361763,47.574477],[-122.361757,47.574619],[-122.361625,47.574618],[-122.361627,47.574438],[-122.361736,47.574423],[-122.361761,47.574349],[-122.361894,47.57435]]]}},{"type":"Feature","properties":{"id":70,"area_m2":300,"px":3,"rank":74},"geometry":{"type":"Polygon","coordinates":[[[-122.362559,47.574264],[-122.362558,47.574353],[-122.362449,47.574369],[-122.362424,47.574443],[-122.362292,47.574442],[-122.362294,47.574262],[-122.362559,47.574264]]]}},{"type":"Feature","properties":{"id":72,"area_m2":300,"px":3,"rank":75},"geometry":{"type":"Polygon","coordinates":[[[-122.367214,47.574199],[-122.367213,47.574289],[-122.36708,47.574289],[-122.367077,47.574237],[-122.367039,47.574205],[-122.366815,47.574197],[-122.366816,47.574107],[-122.367082,47.574109],[-122.367105,47.574183],[-122.367214,47.574199]]]}}]}