{"type":"FeatureCollection","features":[{"type":"Feature","properties":{"id":15,"area_m2":7700,"px":77,"rank":1},"geometry":{"type":"Polygon","coordinates":[[[-122.364231,47.578952],[-122.364229,47.579132],[-122.364132,47.57914],[-122.364096,47.579185],[-122.364108,47.579287],[-122.364227,47.579312],[-122.364224,47.579581],[-122.364126,47.57959],[-122.36409,47.579635],[-122.364087,47.579987],[-122.364128,47.580025],[-122.364218,47.580031],[-122.364216,47.580211],[-122.36414,47.580213],[-122.364092,47.580239],[-122.364081,47.58039],[-122.363815,47.580389],[-122.363793,47.580315],[-122.363683,47.580297],[-122.363706,47.57841],[-122.36379,47.578405],[-122.363836,47.578371],[-122.363876,47.578277],[-122.363841,47.57823],[-122.363842,47.57814],[-122.364108,47.578141],[-122.364099,47.578902],[-122.364141,47.578945],[-122.364231,47.578952]]]}},{"type":"Feature","properties":{"id":7,"area_m2":7600,"px":76,"rank":2},"geometry":{"type":"Polygon","coordinates":[[[-122.364208,47.580841],[-122.364202,47.581381],[-122.364104,47.58139],[-122.364068,47.581434],[-122.364072,47.581617],[-122.364115,47.581646],[-122.364199,47.581652],[-122.364189,47.582461],[-122.364069,47.582484],[-122.364055,47.582591],[-122.364096,47.582634],[-122.364187,47.582641],[-122.364186,47.582731],[-122.364076,47.582746],[-122.364051,47.58282],[-122.363919,47.582819],[-122.363898,47.582642],[-122.363844,47.582625],[-122.363655,47.582638],[-122.363663,47.582008],[-122.36376,47.581999],[-122.363796,47.581955],[-122.363784,47.581853],[-122.363665,47.581828],[-122.363667,47.581648],[-122.363703,47.581606],[-122.363668,47.581557],[-122.363675,47.58093],[-122.363712,47.580886],[-122.363677,47.580838],[-122.363678,47.580748],[-122.364077,47.580751],[-122.364099,47.580825],[-122.364208,47.580841]]]}},{"type":"Feature","properties":{"id":6,"area_m2":2600,"px":26,"rank":3},"geometry":{"type":"Polygon","coordinates":[[[-122.363123,47.582635],[-122.363122,47.582725],[-122.363038,47.582728],[-122.362992,47.582762],[-122.362987,47.582904],[-122.362854,47.582903],[-122.362831,47.582829],[-122.362722,47.582812],[-122.362728,47.582273],[-122.362826,47.582264],[-122.362862,47.582219],[-122.36285,47.582117],[-122.362731,47.582093],[-122.362736,47.581643],[-122.363002,47.581644],[-122.362991,47.582585],[-122.363032,47.582628],[-122.363123,47.582635]]]}},{"type":"Feature","properties":{"id":5,"area_m2":2000,"px":20,"rank":4},"geometry":{"type":"Polygon","coordinates":[[[-122.367506,47.58284],[-122.367473,47.582886],[-122.367508,47.582929],[-122.367506,47.583109],[-122.36724,47.583107],[-122.367232,47.582956],[-122.367185,47.582929],[-122.367109,47.582925],[-122.367115,47.582477],[-122.367191,47.582475],[-122.367238,47.582449],[-122.36725,47.582298],[-122.367382,47.582298],[-122.367405,47.582373],[-122.367514,47.582389],[-122.367506,47.58284]]]}},{"type":"Feature","properties":{"id":11,"area_m2":1900,"px":19,"rank":5},"geometry":{"type":"Polygon","coordinates":[[[-122.367398,47.581039],[-122.367392,47.581489],[-122.36686,47.581486],[-122.366864,47.581216],[-122.3669,47.581174],[-122.366865,47.581126],[-122.366866,47.581036],[-122.367398,47.581039]]]}},{"type":"Feature","properties":{"id":17,"area_m2":1200,"px":12,"rank":6},"geometry":{"type":"Polygon","coordinates":[[[-122.36808,47.579603],[-122.368079,47.579693],[-122.367995,47.579696],[-122.367949,47.57973],[-122.367944,47.579872],[-122.367811,47.579871],[-122.367823,47.578882],[-122.367956,47.578882],[-122.367948,47.579553],[-122.367989,47.579596],[-122.36808,47.579603]]]}},{"type":"Feature","properties":{"id":35,"area_m2":1200,"px":12,"rank":7},"geometry":{"type":"Polygon","coordinates":[[[-122.363081,47.575076],[-122.36308,47.575166],[-122.36299,47.575172],[-122.362949,47.575209],[-122.362943,47.575525],[-122.36281,47.575525],[-122.362788,47.57545],[-122.362678,47.575434],[-122.362684,47.574984],[-122.36295,47.574986],[-122.362972,47.57506],[-122.363081,47.575076]]]}},{"type":"Feature","properties":{"id":8,"area_m2":800,"px":8,"rank":8},"geometry":{"type":"Polygon","coordinates":[[[-122.365257,47.582107],[-122.365249,47.582736],[-122.365117,47.582736],[-122.365115,47.582594],[-122.365069,47.58256],[-122.364986,47.582555],[-122.364987,47.582465],[-122.365078,47.582459],[-122.365119,47.582422],[-122.365124,47.582106],[-122.365257,47.582107]]]}},{"type":"Feature","properties":{"id":36,"area_m2":700,"px":7,"rank":9},"geometry":{"type":"Polygon","coordinates":[[[-122.362956,47.574446],[-122.362952,47.574806],[-122.362819,47.574805],[-122.362796,47.574731],[-122.362687,47.574714],[-122.36269,47.574444],[-122.362956,47.574446]]]}},{"type":"Feature","properties":{"id":3,"area_m2":600,"px":6,"rank":10},"geometry":{"type":"Polygon","coordinates":[[[-122.362983,47.583174],[-122.36298,47.583444],[-122.362714,47.583442],[-122.362717,47.583172],[-122.362983,47.583174]]]}},{"type":"Feature","properties":{"id":9,"area_m2":600,"px":6,"rank":11},"geometry":{"type":"Polygon","coordinates":[[[-122.365266,47.581387],[-122.365259,47.581927],[-122.365126,47.581926],[-122.365133,47.581386],[-122.365266,47.581387]]]}},{"type":"Feature","properties":{"id":23,"area_m2":600,"px":6,"rank":12},"geometry":{"type":"Polygon","coordinates":[[[-122.368763,47.578077],[-122.368757,47.578617],[-122.368624,47.578616],[-122.36863,47.578076],[-122.368763,47.578077]]]}},{"type":"Feature","properties":{"id":28,"area_m2":600,"px":6,"rank":13},"geometry":{"type":"Polygon","coordinates":[[[-122.367984,47.576543],[-122.367977,47.577083],[-122.367844,47.577082],[-122.367851,47.576542],[-122.367984,47.576543]]]}},{"type":"Feature","properties":{"id":16,"area_m2":500,"px":5,"rank":14},"geometry":{"type":"Polygon","coordinates":[[[-122.368875,47.579787],[-122.368874,47.579877],[-122.368609,47.579876],[-122.368613,47.579516],[-122.368746,47.579517],[-122.368747,47.579748],[-122.368792,47.579783],[-122.368875,47.579787]]]}},{"type":"Feature","properties":{"id":27,"area_m2":500,"px":5,"rank":15},"geometry":{"type":"Polygon","coordinates":[[[-122.368779,47.576727],[-122.368774,47.577177],[-122.368641,47.577176],[-122.368647,47.576727],[-122.368779,47.576727]]]}},{"type":"Feature","properties":{"id":29,"area_m2":500,"px":5,"rank":16},"geometry":{"type":"Polygon","coordinates":[[[-122.362931,47.576515],[-122.362928,47.576785],[-122.362662,47.576783],[-122.362664,47.576604],[-122.362774,47.576588],[-122.362798,47.576514],[-122.362931,47.576515]]]}},{"type":"Feature","properties":{"id":33,"area_m2":500,"px":5,"rank":17},"geometry":{"type":"Polygon","coordinates":[[[-122.36294,47.575795],[-122.362937,47.576065],[-122.362671,47.576064],[-122.362673,47.575884],[-122.362783,47.575869],[-122.362807,47.575795],[-122.36294,47.575795]]]}},{"type":"Feature","properties":{"id":34,"area_m2":500,"px":5,"rank":18},"geometry":{"type":"Polygon","coordinates":[[[-122.368794,47.575468],[-122.368789,47.575918],[-122.368656,47.575917],[-122.368662,47.575467],[-122.368794,47.575468]]]}},{"type":"Feature","properties":{"id":39,"area_m2":500,"px":5,"rank":19},"geometry":{"type":"Polygon","coordinates":[[[-122.367086,47.57357],[-122.367053,47.573616],[-122.367088,47.573659],[-122.367087,47.573749],[-122.366821,47.573747],[-122.366798,47.573673],[-122.366689,47.573656],[-122.36669,47.573567],[-122.3668,47.573551],[-122.366824,47.573477],[-122.36709,47.573479],[-122.367086,47.57357]]]}},{"type":"Feature","properties":{"id":21,"area_m2":400,"px":4,"rank":20},"geometry":{"type":"Polygon","coordinates":[[[-122.362903,47.578854],[-122.362898,47.579214],[-122.362766,47.579213],[-122.36277,47.578854],[-122.362903,47.578854]]]}},{"type":"Feature","properties":{"id":26,"area_m2":400,"px":4,"rank":21},"geometry":{"type":"Polygon","coordinates":[[[-122.361848,47.578129],[-122.361847,47.578219],[-122.361763,47.578222],[-122.361717,47.578256],[-122.361711,47.578398],[-122.361579,47.578397],[-122.361582,47.578127],[-122.361848,47.578129]]]}},{"type":"Feature","properties":{"id":30,"area_m2":400,"px":4,"rank":22},"geometry":{"type":"Polygon","coordinates":[[[-122.368788,47.576008],[-122.368784,47.576367],[-122.368651,47.576367],[-122.368655,47.576007],[-122.368788,47.576008]]]}},{"type":"Feature","properties":{"id":1,"area_m2":300,"px":3,"rank":23},"geometry":{"type":"Polygon","coordinates":[[[-122.366434,47.583733],[-122.366432,47.583913],[-122.366299,47.583912],[-122.366277,47.583838],[-122.366167,47.583821],[-122.366168,47.583731],[-122.366434,47.583733]]]}},{"type":"Feature","properties":{"id":2,"area_m2":300,"px":3,"rank":24},"geometry":{"type":"Polygon","coordinates":[[[-122.367369,47.583378],[-122.367366,47.583648],[-122.367233,47.583647],[-122.367237,47.583377],[-122.367369,47.583378]]]}},{"type":"Feature","properties":{"id":4,"area_m2":300,"px":3,"rank":25},"geometry":{"type":"Polygon","coordinates":[[[-122.365247,47.582916],[-122.365244,47.583186],[-122.365111,47.583186],[-122.365114,47.582916],[-122.365247,47.582916]]]}},{"type":"Feature","properties":{"id":10,"area_m2":300,"px":3,"rank":26},"geometry":{"type":"Polygon","coordinates":[[[-122.368724,47.581316],[-122.368721,47.581586],[-122.368588,47.581585],[-122.368591,47.581315],[-122.368724,47.581316]]]}},{"type":"Feature","properties":{"id":12,"area_m2":300,"px":3,"rank":27},"geometry":{"type":"Polygon","coordinates":[[[-122.367401,47.580769],[-122.3674,47.580859],[-122.36729,47.580874],[-122.367266,47.580948],[-122.367133,47.580947],[-122.367135,47.580767],[-122.367401,47.580769]]]}},{"type":"Feature","properties":{"id":13,"area_m2":300,"px":3,"rank":28},"geometry":{"type":"Polygon","coordinates":[[[-122.368735,47.580416],[-122.368732,47.580686],[-122.368599,47.580685],[-122.368602,47.580416],[-122.368735,47.580416]]]}},{"type":"Feature","properties":{"id":14,"area_m2":300,"px":3,"rank":29},"geometry":{"type":"Polygon","coordinates":[[[-122.368071,47.580323],[-122.36807,47.580413],[-122.367986,47.580416],[-122.36794,47.58045],[-122.367935,47.580592],[-122.367802,47.580591],[-122.367804,47.580411],[-122.367914,47.580396],[-122.367938,47.580322],[-122.368071,47.580323]]]}},{"type":"Feature","properties":{"id":18,"area_m2":300,"px":3,"rank":30},"geometry":{"type":"Polygon","coordinates":[[[-122.365287,47.579587],[-122.365284,47.579857],[-122.365151,47.579857],[-122.365155,47.579587],[-122.365287,47.579587]]]}},{"type":"Feature","properties":{"id":19,"area_m2":300,"px":3,"rank":31},"geometry":{"type":"Polygon","coordinates":[[[-122.36303,47.579305],[-122.363029,47.579395],[-122.362919,47.57941],[-122.362895,47.579484],[-122.362762,47.579483],[-122.362764,47.579304],[-122.36303,47.579305]]]}},{"type":"Feature","properties":{"id":20,"area_m2":300,"px":3,"rank":32},"geometry":{"type":"Polygon","coordinates":[[[-122.361835,47.579208],[-122.361833,47.579298],[-122.361724,47.579314],[-122.361699,47.579387],[-122.361567,47.579387],[-122.361569,47.579207],[-122.361835,47.579208]]]}},{"type":"Feature","properties":{"id":22,"area_m2":300,"px":3,"rank":33},"geometry":{"type":"Polygon","coordinates":[[[-122.361839,47.578849],[-122.361838,47.578938],[-122.361754,47.578942],[-122.361708,47.578976],[-122.361703,47.579118],[-122.36157,47.579117],[-122.361572,47.578937],[-122.361682,47.578922],[-122.361706,47.578848],[-122.361839,47.578849]]]}},{"type":"Feature","properties":{"id":24,"area_m2":300,"px":3,"rank":34},"geometry":{"type":"Polygon","coordinates":[[[-122.362509,47.578402],[-122.362508,47.578492],[-122.362242,47.578491],[-122.362245,47.578311],[-122.362377,47.578312],[-122.3624,47.578386],[-122.362509,47.578402]]]}},{"type":"Feature","properties":{"id":25,"area_m2":300,"px":3,"rank":35},"geometry":{"type":"Polygon","coordinates":[[[-122.367964,47.578163],[-122.367961,47.578432],[-122.367828,47.578432],[-122.367831,47.578162],[-122.367964,47.578163]]]}},{"type":"Feature","properties":{"id":31,"area_m2":300,"px":3,"rank":36},"geometry":{"type":"Polygon","coordinates":[[[-122.367989,47.576093],[-122.367986,47.576363],[-122.367853,47.576362],[-122.367856,47.576092],[-122.367989,47.576093]]]}},{"type":"Feature","properties":{"id":32,"area_m2":300,"px":3,"rank":37},"geometry":{"type":"Polygon","coordinates":[[[-122.366261,47.576084],[-122.366259,47.576174],[-122.365994,47.576172],[-122.365996,47.575992],[-122.366129,47.575993],[-122.366151,47.576067],[-122.366261,47.576084]]]}},{"type":"Feature","properties":{"id":37,"area_m2":300,"px":3,"rank":38},"geometry":{"type":"Polygon","coordinates":[[[-122.365884,47.574192],[-122.365883,47.574282],[-122.365618,47.57428],[-122.36562,47.574101],[-122.365753,47.574101],[-122.365775,47.574176],[-122.365884,47.574192]]]}},{"type":"Feature","properties":{"id":38,"area_m2":300,"px":3,"rank":39},"geometry":{"type":"Polygon","coordinates":[[[-122.363095,47.573997],[-122.363093,47.574086],[-122.362695,47.574084],[-122.362696,47.573994],[-122.363095,47.573997]]]}}]}