{"type":"FeatureCollection","features":[{"type":"Feature","properties":{"id":19,"area_m2":29600,"px":296,"rank":1},"geometry":{"type":"Polygon","coordinates":[[[-122.368993,47.581048],[-122.368991,47.581227],[-122.368894,47.581236],[-122.368858,47.581281],[-122.368854,47.581723],[-122.368894,47.58176],[-122.368985,47.581767],[-122.368984,47.581857],[-122.368907,47.581859],[-122.36886,47.581885],[-122.368848,47.582036],[-122.368716,47.582036],[-122.368708,47.581884],[-122.368661,47.581858],[-122.368585,47.581854],[-122.368588,47.581585],[-122.368624,47.581543],[-122.368589,47.581495],[-122.368591,47.581315],[-122.368689,47.581307],[-122.368725,47.581262],[-122.368721,47.581079],[-122.368678,47.58105],[-122.368595,47.581045],[-122.368597,47.580865],[-122.368633,47.580823],[-122.368598,47.580775],[-122.368601,47.580506],[-122.368721,47.580482],[-122.368735,47.580375],[-122.368694,47.580332],[-122.368603,47.580325],[-122.368606,47.580056],[-122.368643,47.580013],[-122.368608,47.579966],[-122.368611,47.579697],[-122.368645,47.579638],[-122.368589,47.579531],[-122.36848,47.579514],[-122.368481,47.579425],[-122.368579,47.579417],[-122.368615,47.579372],[-122.36863,47.578035],[-122.368589,47.577992],[-122.368498,47.577985],[-122.368499,47.577896],[-122.368614,47.577876],[-122.368654,47.577772],[-122.368613,47.577723],[-122.368502,47.577714],[-122.368542,47.574332],[-122.368481,47.574284],[-122.368277,47.574295],[-122.368269,47.574144],[-122.368222,47.574117],[-122.368146,47.574114],[-122.368151,47.573623],[-122.36811,47.573581],[-122.36802,47.573574],[-122.368012,47.573409],[-122.367952,47.57338],[-122.367756,47.573392],[-122.367759,47.572986],[-122.367719,47.572949],[-122.367628,47.572942],[-122.367629,47.572852],[-122.367853,47.572847],[-122.367892,47.572815],[-122.367896,47.572763],[-122.368162,47.572765],[-122.368185,47.572839],[-122.368341,47.572878],[-122.368427,47.572856],[-122.36856,47.572857],[-122.368568,47.573009],[-122.368614,47.573035],[-122.368691,47.573038],[-122.368707,47.573198],[-122.368821,47.573218],[-122.368824,47.573545],[-122.368867,47.573574],[-122.36895,47.573579],[-122.368948,47.573759],[-122.368912,47.573801],[-122.368947,47.57385],[-122.36887,47.580236],[-122.368834,47.580285],[-122.368869,47.580328],[-122.368842,47.581002],[-122.368889,47.581043],[-122.368993,47.581048]]]}},{"type":"Feature","properties":{"id":11,"area_m2":9300,"px":93,"rank":2},"geometry":{"type":"Polygon","coordinates":[[[-122.364186,47.582462],[-122.364153,47.582508],[-122.364188,47.582551],[-122.364187,47.582641],[-122.364077,47.582656],[-122.364053,47.58273],[-122.363843,47.582731],[-122.363792,47.582762],[-122.363785,47.582818],[-122.363653,47.582818],[-122.363675,47.58093],[-122.363712,47.580886],[-122.363677,47.580838],[-122.36368,47.58057],[-122.363764,47.580565],[-122.36381,47.580531],[-122.363816,47.580299],[-122.364082,47.580301],[-122.36408,47.580617],[-122.36412,47.580654],[-122.364211,47.580661],[-122.364207,47.580931],[-122.36411,47.58094],[-122.364074,47.580984],[-122.364078,47.581167],[-122.36412,47.581196],[-122.364204,47.581201],[-122.364195,47.581921],[-122.36408,47.58194],[-122.364041,47.582044],[-122.364081,47.582094],[-122.364193,47.582101],[-122.364186,47.582462]]]}},{"type":"Feature","properties":{"id":31,"area_m2":7700,"px":77,"rank":3},"geometry":{"type":"Polygon","coordinates":[[[-122.364233,47.578593],[-122.3642,47.578639],[-122.364235,47.578682],[-122.36423,47.579042],[-122.364147,47.579045],[-122.364103,47.579074],[-122.364095,47.579257],[-122.36413,47.579302],[-122.364227,47.579312],[-122.364226,47.579402],[-122.364142,47.579405],[-122.364099,47.579434],[-122.36409,47.579617],[-122.364125,47.579662],[-122.364223,47.579672],[-122.364217,47.580121],[-122.363882,47.580121],[-122.363827,47.580148],[-122.363817,47.580209],[-122.363684,47.580208],[-122.363688,47.579939],[-122.363724,47.579896],[-122.363689,47.579847],[-122.363703,47.578638],[-122.363662,47.578595],[-122.363571,47.578587],[-122.363573,47.578408],[-122.363649,47.578406],[-122.363697,47.57838],[-122.363708,47.578229],[-122.364107,47.578231],[-122.364115,47.578383],[-122.364162,47.578409],[-122.364238,47.578412],[-122.364233,47.578593]]]}},{"type":"Feature","properties":{"id":5,"area_m2":6000,"px":60,"rank":4},"geometry":{"type":"Polygon","coordinates":[[[-122.367506,47.58284],[-122.367473,47.582886],[-122.367508,47.582929],[-122.367505,47.583199],[-122.367393,47.583205],[-122.367351,47.583254],[-122.367388,47.583358],[-122.367502,47.583379],[-122.3675,47.583559],[-122.366836,47.583555],[-122.366838,47.583375],[-122.366935,47.583367],[-122.366972,47.583286],[-122.367091,47.583263],[-122.367107,47.583107],[-122.367142,47.583054],[-122.367053,47.582993],[-122.366975,47.583016],[-122.366709,47.583014],[-122.36671,47.582925],[-122.366801,47.582919],[-122.366842,47.582882],[-122.366847,47.582565],[-122.366884,47.582523],[-122.366849,47.582475],[-122.36685,47.582385],[-122.366969,47.582362],[-122.366985,47.582206],[-122.367094,47.582191],[-122.367119,47.582117],[-122.367252,47.582118],[-122.367274,47.582192],[-122.367384,47.582208],[-122.367418,47.582289],[-122.367515,47.582299],[-122.367506,47.58284]]]}},{"type":"Feature","properties":{"id":8,"area_m2":4500,"px":45,"rank":5},"geometry":{"type":"Polygon","coordinates":[[[-122.365261,47.581568],[-122.365227,47.581614],[-122.365262,47.581657],[-122.365259,47.581927],[-122.365139,47.58195],[-122.365125,47.582052],[-122.36516,47.582097],[-122.365257,47.582107],[-122.365244,47.583186],[-122.365111,47.583186],[-122.365118,47.582604],[-122.365076,47.582562],[-122.364986,47.582554],[-122.364989,47.582285],[-122.365025,47.582243],[-122.36499,47.582194],[-122.365003,47.581116],[-122.365123,47.581092],[-122.365138,47.58099],[-122.365103,47.580945],[-122.365005,47.580935],[-122.36501,47.580576],[-122.365275,47.580577],[-122.365261,47.581568]]]}},{"type":"Feature","properties":{"id":15,"area_m2":4300,"px":43,"rank":6},"geometry":{"type":"Polygon","coordinates":[[[-122.368065,47.580594],[-122.368032,47.58064],[-122.368067,47.580684],[-122.368048,47.582212],[-122.367939,47.582227],[-122.367914,47.582301],[-122.367782,47.582301],[-122.367784,47.582121],[-122.367881,47.582112],[-122.367917,47.582067],[-122.367913,47.581885],[-122.367871,47.581855],[-122.367787,47.581849],[-122.367802,47.580592],[-122.367838,47.580549],[-122.367803,47.5805],[-122.367809,47.580051],[-122.367941,47.580052],[-122.367964,47.580126],[-122.368073,47.580143],[-122.368065,47.580594]]]}},{"type":"Feature","properties":{"id":14,"area_m2":2700,"px":27,"rank":7},"geometry":{"type":"Polygon","coordinates":[[[-122.363133,47.581825],[-122.363132,47.581915],[-122.363041,47.581921],[-122.363,47.581958],[-122.362993,47.582364],[-122.362727,47.582363],[-122.362741,47.581193],[-122.363007,47.581194],[-122.363001,47.581776],[-122.363042,47.581818],[-122.363133,47.581825]]]}},{"type":"Feature","properties":{"id":45,"area_m2":2300,"px":23,"rank":8},"geometry":{"type":"Polygon","coordinates":[[[-122.368393,47.575646],[-122.368369,47.577714],[-122.368238,47.577714],[-122.36826,47.575646],[-122.368393,47.575646]]]}},{"type":"Feature","properties":{"id":46,"area_m2":1900,"px":19,"rank":9},"geometry":{"type":"Polygon","coordinates":[[[-122.368111,47.576994],[-122.368109,47.577174],[-122.368018,47.577179],[-122.367976,47.577222],[-122.36797,47.577713],[-122.367837,47.577712],[-122.367855,47.576182],[-122.367988,47.576183],[-122.367979,47.576944],[-122.368021,47.576987],[-122.368111,47.576994]]]}},{"type":"Feature","properties":{"id":26,"area_m2":1600,"px":16,"rank":10},"geometry":{"type":"Polygon","coordinates":[[[-122.367403,47.580589],[-122.367402,47.580679],[-122.367304,47.580687],[-122.367268,47.580732],[-122.367281,47.580834],[-122.3674,47.580859],[-122.367397,47.581129],[-122.367131,47.581127],[-122.367108,47.581053],[-122.366999,47.581036],[-122.367009,47.580882],[-122.366965,47.580859],[-122.366868,47.580856],[-122.36687,47.580676],[-122.36698,47.580661],[-122.367004,47.580587],[-122.367403,47.580589]]]}},{"type":"Feature","properties":{"id":35,"area_m2":1500,"px":15,"rank":11},"geometry":{"type":"Polygon","coordinates":[[[-122.368086,47.579063],[-122.368084,47.579243],[-122.367987,47.579252],[-122.367951,47.579296],[-122.367955,47.579479],[-122.367997,47.579508],[-122.368081,47.579513],[-122.368078,47.579783],[-122.367968,47.579798],[-122.367944,47.579872],[-122.367811,47.579871],[-122.367822,47.578972],[-122.367954,47.578972],[-122.367977,47.579047],[-122.368086,47.579063]]]}},{"type":"Feature","properties":{"id":41,"area_m2":1500,"px":15,"rank":12},"geometry":{"type":"Polygon","coordinates":[[[-122.3673,47.578069],[-122.367299,47.578159],[-122.367202,47.578167],[-122.367166,47.578212],[-122.367178,47.578314],[-122.367297,47.578339],[-122.367296,47.578429],[-122.366897,47.578427],[-122.366894,47.578375],[-122.366856,47.578343],[-122.366633,47.578335],[-122.366635,47.578155],[-122.366744,47.57814],[-122.366769,47.578066],[-122.3673,47.578069]]]}},{"type":"Feature","properties":{"id":48,"area_m2":1500,"px":15,"rank":13},"geometry":{"type":"Polygon","coordinates":[[[-122.363063,47.576606],[-122.363062,47.576696],[-122.362971,47.576702],[-122.36293,47.576738],[-122.362923,47.577145],[-122.362658,47.577143],[-122.362659,47.577054],[-122.362756,47.577045],[-122.362792,47.577],[-122.36278,47.576898],[-122.362661,47.576873],[-122.362663,47.576694],[-122.362761,47.576685],[-122.362797,47.57664],[-122.362784,47.576538],[-122.362665,47.576514],[-122.362667,47.576334],[-122.362933,47.576335],[-122.362934,47.576567],[-122.362979,47.576601],[-122.363063,47.576606]]]}},{"type":"Feature","properties":{"id":36,"area_m2":1300,"px":13,"rank":14},"geometry":{"type":"Polygon","coordinates":[[[-122.363564,47.578949],[-122.36353,47.578995],[-122.363565,47.579038],[-122.363562,47.579308],[-122.363452,47.579323],[-122.363428,47.579397],[-122.363295,47.579396],[-122.363273,47.579322],[-122.363163,47.579304],[-122.363166,47.579126],[-122.363256,47.57912],[-122.363297,47.579083],[-122.363303,47.578767],[-122.363436,47.578767],[-122.363458,47.578842],[-122.363568,47.578858],[-122.363564,47.578949]]]}},{"type":"Feature","properties":{"id":32,"area_m2":1200,"px":12,"rank":15},"geometry":{"type":"Polygon","coordinates":[[[-122.368352,47.579065],[-122.368339,47.580144],[-122.368206,47.580143],[-122.368219,47.579064],[-122.368352,47.579065]]]}},{"type":"Feature","properties":{"id":33,"area_m2":1100,"px":11,"rank":16},"geometry":{"type":"Polygon","coordinates":[[[-122.363023,47.579935],[-122.363021,47.580025],[-122.362912,47.58004],[-122.362887,47.580114],[-122.362755,47.580113],[-122.362766,47.579214],[-122.362898,47.579214],[-122.362891,47.579885],[-122.362932,47.579928],[-122.363023,47.579935]]]}},{"type":"Feature","properties":{"id":38,"area_m2":1100,"px":11,"rank":17},"geometry":{"type":"Polygon","coordinates":[[[-122.368099,47.577983],[-122.368097,47.578163],[-122.368006,47.578169],[-122.367964,47.578211],[-122.367957,47.578792],[-122.367824,47.578792],[-122.367831,47.578163],[-122.367867,47.57812],[-122.367832,47.578072],[-122.367835,47.577892],[-122.367967,47.577893],[-122.36799,47.577967],[-122.368099,47.577983]]]}},{"type":"Feature","properties":{"id":23,"area_m2":1000,"px":10,"rank":18},"geometry":{"type":"Polygon","coordinates":[[[-122.367394,47.581309],[-122.36739,47.581668],[-122.366991,47.581666],[-122.366995,47.581397],[-122.367204,47.581395],[-122.367255,47.581365],[-122.367262,47.581308],[-122.367394,47.581309]]]}},{"type":"Feature","properties":{"id":39,"area_m2":1000,"px":10,"rank":19},"geometry":{"type":"Polygon","coordinates":[[[-122.363444,47.578048],[-122.363437,47.578677],[-122.363304,47.578677],[-122.363281,47.578602],[-122.363172,47.578586],[-122.363175,47.578316],[-122.363259,47.578312],[-122.363305,47.578278],[-122.363312,47.578047],[-122.363444,47.578048]]]}},{"type":"Feature","properties":{"id":17,"area_m2":900,"px":9,"rank":20},"geometry":{"type":"Polygon","coordinates":[[[-122.368448,47.581946],[-122.368415,47.581992],[-122.36845,47.582034],[-122.368447,47.582214],[-122.368315,47.582213],[-122.368307,47.582062],[-122.36826,47.582036],[-122.368184,47.582033],[-122.368186,47.581853],[-122.368222,47.581811],[-122.368187,47.581763],[-122.368189,47.581583],[-122.368322,47.581584],[-122.368345,47.581658],[-122.368454,47.581674],[-122.368448,47.581946]]]}},{"type":"Feature","properties":{"id":52,"area_m2":900,"px":9,"rank":21},"geometry":{"type":"Polygon","coordinates":[[[-122.368402,47.574926],[-122.368394,47.575555],[-122.368262,47.575555],[-122.368263,47.575328],[-122.368223,47.575291],[-122.368132,47.575284],[-122.368134,47.575104],[-122.36821,47.575102],[-122.368258,47.575076],[-122.368269,47.574925],[-122.368402,47.574926]]]}},{"type":"Feature","properties":{"id":10,"area_m2":800,"px":8,"rank":22},"geometry":{"type":"Polygon","coordinates":[[[-122.365781,47.582739],[-122.36578,47.582829],[-122.365697,47.582833],[-122.36565,47.582867],[-122.365645,47.583009],[-122.365512,47.583008],[-122.36552,47.582378],[-122.365653,47.582379],[-122.36565,47.582695],[-122.365691,47.582733],[-122.365781,47.582739]]]}},{"type":"Feature","properties":{"id":20,"area_m2":800,"px":8,"rank":23},"geometry":{"type":"Polygon","coordinates":[[[-122.367388,47.581849],[-122.367387,47.581938],[-122.367277,47.581954],[-122.367253,47.582028],[-122.366987,47.582026],[-122.366964,47.581952],[-122.366855,47.581935],[-122.366856,47.581846],[-122.366966,47.58183],[-122.36699,47.581756],[-122.367256,47.581758],[-122.367279,47.581832],[-122.367388,47.581849]]]}},{"type":"Feature","properties":{"id":37,"area_m2":800,"px":8,"rank":24},"geometry":{"type":"Polygon","coordinates":[[[-122.368362,47.578255],[-122.368353,47.578974],[-122.368221,47.578974],[-122.368229,47.578254],[-122.368362,47.578255]]]}},{"type":"Feature","properties":{"id":12,"area_m2":600,"px":6,"rank":25},"geometry":{"type":"Polygon","coordinates":[[[-122.362992,47.582454],[-122.362988,47.582814],[-122.362722,47.582812],[-122.362724,47.582633],[-122.3628,47.582631],[-122.362848,47.582605],[-122.362859,47.582453],[-122.362992,47.582454]]]}},{"type":"Feature","properties":{"id":28,"area_m2":600,"px":6,"rank":26},"geometry":{"type":"Polygon","coordinates":[[[-122.368337,47.580324],[-122.368331,47.580864],[-122.368198,47.580863],[-122.368204,47.580323],[-122.368337,47.580324]]]}},{"type":"Feature","properties":{"id":42,"area_m2":600,"px":6,"rank":27},"geometry":{"type":"Polygon","coordinates":[[[-122.365304,47.578238],[-122.365302,47.578418],[-122.365036,47.578416],[-122.365037,47.578326],[-122.365073,47.578284],[-122.365038,47.578236],[-122.365041,47.577967],[-122.365174,47.577967],[-122.365175,47.578199],[-122.36522,47.578233],[-122.365304,47.578238]]]}},{"type":"Feature","properties":{"id":55,"area_m2":600,"px":6,"rank":28},"geometry":{"type":"Polygon","coordinates":[[[-122.365886,47.574102],[-122.365884,47.574192],[-122.365775,47.574207],[-122.36575,47.574281],[-122.365352,47.574279],[-122.365353,47.574189],[-122.365463,47.574174],[-122.365487,47.5741],[-122.365886,47.574102]]]}},{"type":"Feature","properties":{"id":7,"area_m2":500,"px":5,"rank":29},"geometry":{"type":"Polygon","coordinates":[[[-122.362983,47.583174],[-122.36298,47.583444],[-122.362847,47.583443],[-122.362825,47.583369],[-122.362715,47.583352],[-122.362717,47.583172],[-122.362983,47.583174]]]}},{"type":"Feature","properties":{"id":9,"area_m2":500,"px":5,"rank":30},"geometry":{"type":"Polygon","coordinates":[[[-122.363917,47.582909],[-122.363914,47.583179],[-122.363781,47.583178],[-122.363759,47.583104],[-122.363649,47.583087],[-122.363652,47.582908],[-122.363917,47.582909]]]}},{"type":"Feature","properties":{"id":29,"area_m2":500,"px":5,"rank":31},"geometry":{"type":"Polygon","coordinates":[[[-122.365949,47.579861],[-122.365945,47.580221],[-122.365812,47.58022],[-122.365789,47.580146],[-122.36568,47.580129],[-122.365681,47.58004],[-122.365757,47.580038],[-122.365805,47.580012],[-122.365816,47.57986],[-122.365949,47.579861]]]}},{"type":"Feature","properties":{"id":40,"area_m2":500,"px":5,"rank":32},"geometry":{"type":"Polygon","coordinates":[[[-122.36251,47.578312],[-122.362507,47.578582],[-122.362374,47.578581],[-122.362352,47.578507],[-122.362242,47.578491],[-122.362245,47.578311],[-122.36251,47.578312]]]}},{"type":"Feature","properties":{"id":43,"area_m2":500,"px":5,"rank":33},"geometry":{"type":"Polygon","coordinates":[[[-122.363045,47.578045],[-122.363043,47.578225],[-122.362934,47.578241],[-122.362909,47.578314],[-122.362776,47.578314],[-122.36278,47.578044],[-122.363045,47.578045]]]}},{"type":"Feature","properties":{"id":44,"area_m2":500,"px":5,"rank":34},"geometry":{"type":"Polygon","coordinates":[[[-122.367437,47.5778],[-122.367436,47.57789],[-122.367326,47.577905],[-122.367302,47.577979],[-122.367169,47.577978],[-122.367163,47.577922],[-122.367113,47.57789],[-122.366904,47.577887],[-122.366905,47.577797],[-122.367437,47.5778]]]}},{"type":"Feature","properties":{"id":56,"area_m2":500,"px":5,"rank":35},"geometry":{"type":"Polygon","coordinates":[[[-122.368018,47.573664],[-122.368013,47.574114],[-122.36788,47.574113],[-122.367886,47.573663],[-122.368018,47.573664]]]}},{"type":"Feature","properties":{"id":3,"area_m2":400,"px":4,"rank":36},"geometry":{"type":"Polygon","coordinates":[[[-122.366036,47.583641],[-122.366033,47.58391],[-122.3659,47.58391],[-122.365878,47.583836],[-122.365768,47.583819],[-122.36577,47.583729],[-122.365879,47.583714],[-122.365904,47.58364],[-122.366036,47.583641]]]}},{"type":"Feature","properties":{"id":13,"area_m2":400,"px":4,"rank":37},"geometry":{"type":"Polygon","coordinates":[[[-122.36246,47.582451],[-122.362458,47.582631],[-122.362192,47.582629],[-122.362194,47.58245],[-122.36246,47.582451]]]}},{"type":"Feature","properties":{"id":16,"area_m2":400,"px":4,"rank":38},"geometry":{"type":"Polygon","coordinates":[[[-122.362464,47.582091],[-122.362462,47.582271],[-122.362196,47.58227],[-122.362199,47.58209],[-122.362464,47.582091]]]}},{"type":"Feature","properties":{"id":21,"area_m2":400,"px":4,"rank":39},"geometry":{"type":"Polygon","coordinates":[[[-122.364733,47.581474],[-122.364729,47.581744],[-122.364597,47.581743],[-122.364595,47.581601],[-122.364549,47.581567],[-122.364466,47.581562],[-122.364467,47.581473],[-122.364733,47.581474]]]}},{"type":"Feature","properties":{"id":25,"area_m2":400,"px":4,"rank":40},"geometry":{"type":"Polygon","coordinates":[[[-122.366067,47.581121],[-122.366066,47.581211],[-122.365731,47.581211],[-122.365676,47.581238],[-122.365666,47.581299],[-122.365533,47.581298],[-122.365534,47.581208],[-122.365644,47.581193],[-122.365668,47.581119],[-122.366067,47.581121]]]}},{"type":"Feature","properties":{"id":47,"area_m2":400,"px":4,"rank":41},"geometry":{"type":"Polygon","coordinates":[[[-122.363852,47.57733],[-122.363849,47.5776],[-122.363716,47.577599],[-122.363693,47.577525],[-122.363584,47.577508],[-122.363585,47.577419],[-122.363695,47.577403],[-122.363719,47.577329],[-122.363852,47.57733]]]}},{"type":"Feature","properties":{"id":54,"area_m2":400,"px":4,"rank":42},"geometry":{"type":"Polygon","coordinates":[[[-122.363487,47.574539],[-122.363486,47.574629],[-122.363376,47.574644],[-122.363352,47.574718],[-122.363219,47.574717],[-122.363222,47.574447],[-122.363355,47.574448],[-122.363378,47.574522],[-122.363487,47.574539]]]}},{"type":"Feature","properties":{"id":1,"area_m2":300,"px":3,"rank":43},"geometry":{"type":"Polygon","coordinates":[[[-122.364301,47.584171],[-122.3643,47.584261],[-122.363901,47.584259],[-122.363902,47.584169],[-122.364301,47.584171]]]}},{"type":"Feature","properties":{"id":2,"area_m2":300,"px":3,"rank":44},"geometry":{"type":"Polygon","coordinates":[[[-122.36337,47.584166],[-122.363369,47.584256],[-122.363103,47.584254],[-122.363106,47.584074],[-122.363238,47.584075],[-122.363261,47.584149],[-122.36337,47.584166]]]}},{"type":"Feature","properties":{"id":4,"area_m2":300,"px":3,"rank":45},"geometry":{"type":"Polygon","coordinates":[[[-122.364574,47.583633],[-122.364571,47.583812],[-122.364306,47.583811],[-122.364307,47.583721],[-122.364416,47.583706],[-122.364441,47.583632],[-122.364574,47.583633]]]}},{"type":"Feature","properties":{"id":6,"area_m2":300,"px":3,"rank":46},"geometry":{"type":"Polygon","coordinates":[[[-122.36471,47.583363],[-122.364708,47.583543],[-122.364575,47.583542],[-122.364552,47.583468],[-122.364443,47.583452],[-122.364444,47.583362],[-122.36471,47.583363]]]}},{"type":"Feature","properties":{"id":18,"area_m2":300,"px":3,"rank":47},"geometry":{"type":"Polygon","coordinates":[[[-122.36353,47.581917],[-122.363528,47.582097],[-122.363395,47.582096],[-122.363373,47.582022],[-122.363264,47.582006],[-122.363265,47.581916],[-122.36353,47.581917]]]}},{"type":"Feature","properties":{"id":22,"area_m2":300,"px":3,"rank":48},"geometry":{"type":"Polygon","coordinates":[[[-122.362471,47.581551],[-122.362469,47.581731],[-122.362336,47.58173],[-122.362313,47.581656],[-122.362204,47.58164],[-122.362205,47.58155],[-122.362471,47.581551]]]}},{"type":"Feature","properties":{"id":24,"area_m2":300,"px":3,"rank":49},"geometry":{"type":"Polygon","coordinates":[[[-122.366064,47.581391],[-122.366062,47.581481],[-122.365797,47.58148],[-122.365799,47.5813],[-122.365932,47.581301],[-122.365954,47.581375],[-122.366064,47.581391]]]}},{"type":"Feature","properties":{"id":27,"area_m2":300,"px":3,"rank":50},"geometry":{"type":"Polygon","coordinates":[[[-122.364741,47.580754],[-122.364738,47.581024],[-122.364605,47.581023],[-122.364609,47.580753],[-122.364741,47.580754]]]}},{"type":"Feature","properties":{"id":30,"area_m2":300,"px":3,"rank":51},"geometry":{"type":"Polygon","coordinates":[[[-122.36475,47.580034],[-122.364748,47.580214],[-122.364615,47.580213],[-122.364613,47.580072],[-122.364568,47.580037],[-122.364484,47.580033],[-122.364485,47.579943],[-122.364618,47.579944],[-122.364641,47.580018],[-122.36475,47.580034]]]}},{"type":"Feature","properties":{"id":34,"area_m2":300,"px":3,"rank":52},"geometry":{"type":"Polygon","coordinates":[[[-122.363557,47.579758],[-122.363554,47.579938],[-122.363422,47.579937],[-122.363399,47.579863],[-122.36329,47.579846],[-122.363291,47.579756],[-122.363557,47.579758]]]}},{"type":"Feature","properties":{"id":49,"area_m2":300,"px":3,"rank":53},"geometry":{"type":"Polygon","coordinates":[[[-122.366395,47.575994],[-122.366394,47.576084],[-122.366184,47.576086],[-122.366133,47.576116],[-122.366127,47.576173],[-122.365994,47.576172],[-122.365995,47.576082],[-122.366105,47.576067],[-122.366129,47.575993],[-122.366395,47.575994]]]}},{"type":"Feature","properties":{"id":50,"area_m2":300,"px":3,"rank":54},"geometry":{"type":"Polygon","coordinates":[[[-122.367993,47.575733],[-122.36799,47.576003],[-122.367857,47.576002],[-122.367861,47.575733],[-122.367993,47.575733]]]}},{"type":"Feature","properties":{"id":51,"area_m2":300,"px":3,"rank":55},"geometry":{"type":"Polygon","coordinates":[[[-122.363474,47.575618],[-122.363472,47.575798],[-122.363206,47.575797],[-122.363207,47.575707],[-122.363317,47.575692],[-122.363341,47.575618],[-122.363474,47.575618]]]}},{"type":"Feature","properties":{"id":53,"area_m2":300,"px":3,"rank":56},"geometry":{"type":"Polygon","coordinates":[[[-122.368002,47.575014],[-122.367999,47.575283],[-122.367866,47.575283],[-122.367869,47.575013],[-122.368002,47.575014]]]}},{"type":"Feature","properties":{"id":57,"area_m2":300,"px":3,"rank":57},"geometry":{"type":"Polygon","coordinates":[[[-122.366041,47.572213],[-122.36604,47.572303],[-122.365831,47.572304],[-122.36578,47.572335],[-122.365773,47.572392],[-122.36564,47.572391],[-122.365642,47.572301],[-122.365751,47.572286],[-122.365776,47.572212],[-122.366041,47.572213]]]}}]}