{"type":"FeatureCollection","features":[{"type":"Feature","properties":{"id":27,"area_m2":2400,"px":24,"rank":1},"geometry":{"type":"Polygon","coordinates":[[[-122.368142,47.574474],[-122.368139,47.574654],[-122.368049,47.57466],[-122.368006,47.574702],[-122.367991,47.575913],[-122.367858,47.575912],[-122.367882,47.573933],[-122.368015,47.573934],[-122.368011,47.57443],[-122.368051,47.574468],[-122.368142,47.574474]]]}},{"type":"Feature","properties":{"id":11,"area_m2":1900,"px":19,"rank":2},"geometry":{"type":"Polygon","coordinates":[[[-122.365274,47.580667],[-122.365259,47.581927],[-122.365126,47.581926],[-122.365131,47.58143],[-122.365091,47.581392],[-122.365,47.581384],[-122.365003,47.581116],[-122.365087,47.581112],[-122.36513,47.581083],[-122.365138,47.580895],[-122.365097,47.580852],[-122.365006,47.580846],[-122.365009,47.580666],[-122.365274,47.580667]]]}},{"type":"Feature","properties":{"id":20,"area_m2":1800,"px":18,"rank":3},"geometry":{"type":"Polygon","coordinates":[[[-122.367159,47.578519],[-122.367126,47.578565],[-122.367161,47.578608],[-122.36716,47.578698],[-122.367069,47.578704],[-122.367027,47.578746],[-122.367024,47.578967],[-122.366988,47.579009],[-122.367023,47.579057],[-122.367021,47.579147],[-122.366756,47.579146],[-122.36676,47.578786],[-122.366795,47.578733],[-122.366761,47.578696],[-122.366757,47.578549],[-122.366714,47.57852],[-122.36663,47.578515],[-122.366631,47.578425],[-122.366841,47.578424],[-122.366892,47.578393],[-122.366898,47.578337],[-122.367031,47.578337],[-122.367054,47.578412],[-122.367163,47.578428],[-122.367159,47.578519]]]}},{"type":"Feature","properties":{"id":4,"area_m2":1400,"px":14,"rank":4},"geometry":{"type":"Polygon","coordinates":[[[-122.367505,47.58293],[-122.367472,47.582976],[-122.367507,47.583019],[-122.367506,47.583109],[-122.367422,47.583113],[-122.367378,47.583141],[-122.36737,47.583324],[-122.367405,47.583369],[-122.367502,47.583379],[-122.3675,47.583559],[-122.367367,47.583558],[-122.367356,47.583402],[-122.367237,47.583377],[-122.367202,47.583296],[-122.367105,47.583287],[-122.367106,47.583197],[-122.367142,47.583154],[-122.367107,47.583107],[-122.367108,47.583017],[-122.367192,47.583013],[-122.367238,47.582979],[-122.367244,47.582748],[-122.36751,47.582749],[-122.367505,47.58293]]]}},{"type":"Feature","properties":{"id":1,"area_m2":1300,"px":13,"rank":5},"geometry":{"type":"Polygon","coordinates":[[[-122.366168,47.583731],[-122.366166,47.583911],[-122.365942,47.583916],[-122.365903,47.583948],[-122.365899,47.584],[-122.3655,47.583998],[-122.365478,47.583923],[-122.365368,47.583907],[-122.365369,47.583817],[-122.365479,47.583802],[-122.365504,47.583728],[-122.365902,47.58373],[-122.365965,47.583754],[-122.366035,47.583731],[-122.366168,47.583731]]]}},{"type":"Feature","properties":{"id":16,"area_m2":1100,"px":11,"rank":6},"geometry":{"type":"Polygon","coordinates":[[[-122.367018,47.579417],[-122.367012,47.579957],[-122.366879,47.579956],[-122.366871,47.579805],[-122.366824,47.579778],[-122.366748,47.579775],[-122.366714,47.579694],[-122.366616,47.579685],[-122.366617,47.579595],[-122.366694,47.579593],[-122.366741,47.579567],[-122.366752,47.579416],[-122.367018,47.579417]]]}},{"type":"Feature","properties":{"id":14,"area_m2":1000,"px":10,"rank":7},"geometry":{"type":"Polygon","coordinates":[[[-122.363554,47.579938],[-122.363549,47.580388],[-122.363439,47.580403],[-122.363415,47.580477],[-122.363282,47.580476],[-122.363284,47.580296],[-122.36332,47.580254],[-122.363285,47.580206],[-122.363289,47.579936],[-122.363554,47.579938]]]}},{"type":"Feature","properties":{"id":24,"area_m2":800,"px":8,"rank":8},"geometry":{"type":"Polygon","coordinates":[[[-122.367988,47.576183],[-122.367979,47.576903],[-122.367847,47.576902],[-122.367855,47.576182],[-122.367988,47.576183]]]}},{"type":"Feature","properties":{"id":9,"area_m2":700,"px":7,"rank":9},"geometry":{"type":"Polygon","coordinates":[[[-122.36246,47.582451],[-122.362456,47.582811],[-122.36219,47.582809],[-122.362191,47.58272],[-122.362227,47.582677],[-122.362192,47.582629],[-122.362194,47.58245],[-122.36246,47.582451]]]}},{"type":"Feature","properties":{"id":21,"area_m2":700,"px":7,"rank":10},"geometry":{"type":"Polygon","coordinates":[[[-122.3641,47.578771],[-122.364099,47.578861],[-122.36399,47.578876],[-122.363965,47.57895],[-122.363833,47.578949],[-122.363834,47.578723],[-122.363793,47.578686],[-122.363703,47.578679],[-122.363705,47.578499],[-122.363971,47.5785],[-122.36397,47.57859],[-122.363934,47.578638],[-122.363972,47.578732],[-122.364017,47.578766],[-122.3641,47.578771]]]}},{"type":"Feature","properties":{"id":6,"area_m2":600,"px":6,"rank":11},"geometry":{"type":"Polygon","coordinates":[[[-122.362583,47.583262],[-122.362582,47.583351],[-122.362498,47.583355],[-122.362452,47.583389],[-122.362447,47.583531],[-122.362314,47.58353],[-122.362312,47.583388],[-122.362267,47.583354],[-122.362183,47.583349],[-122.362184,47.583259],[-122.362294,47.583244],[-122.36232,47.58317],[-122.362451,47.583171],[-122.362474,47.583245],[-122.362583,47.583262]]]}},{"type":"Feature","properties":{"id":8,"area_m2":600,"px":6,"rank":12},"geometry":{"type":"Polygon","coordinates":[[[-122.365253,47.582467],[-122.365246,47.583006],[-122.365113,47.583006],[-122.36512,47.582466],[-122.365253,47.582467]]]}},{"type":"Feature","properties":{"id":18,"area_m2":600,"px":6,"rank":13},"geometry":{"type":"Polygon","coordinates":[[[-122.365291,47.579318],[-122.365285,47.579767],[-122.365152,47.579767],[-122.365154,47.57954],[-122.365113,47.579503],[-122.365023,47.579496],[-122.365024,47.579406],[-122.365134,47.579391],[-122.365158,47.579317],[-122.365291,47.579318]]]}},{"type":"Feature","properties":{"id":22,"area_m2":600,"px":6,"rank":14},"geometry":{"type":"Polygon","coordinates":[[[-122.368103,47.577445],[-122.36807,47.577491],[-122.368105,47.577534],[-122.368104,47.577623],[-122.367838,47.577622],[-122.367841,47.577352],[-122.367951,47.577337],[-122.367975,47.577263],[-122.368108,47.577264],[-122.368103,47.577445]]]}},{"type":"Feature","properties":{"id":25,"area_m2":600,"px":6,"rank":15},"geometry":{"type":"Polygon","coordinates":[[[-122.368785,47.576278],[-122.368779,47.576727],[-122.368647,47.576727],[-122.368648,47.5765],[-122.368607,47.576463],[-122.368517,47.576456],[-122.368518,47.576366],[-122.368628,47.576351],[-122.368652,47.576277],[-122.368785,47.576278]]]}},{"type":"Feature","properties":{"id":10,"area_m2":500,"px":5,"rank":16},"geometry":{"type":"Polygon","coordinates":[[[-122.364732,47.581564],[-122.364726,47.582014],[-122.364593,47.582013],[-122.364599,47.581563],[-122.364732,47.581564]]]}},{"type":"Feature","properties":{"id":13,"area_m2":500,"px":5,"rank":17},"geometry":{"type":"Polygon","coordinates":[[[-122.364077,47.580751],[-122.364075,47.58084],[-122.363866,47.580842],[-122.363815,47.580872],[-122.363808,47.580929],[-122.363676,47.580928],[-122.363678,47.580748],[-122.363787,47.580733],[-122.363812,47.580659],[-122.363945,47.58066],[-122.363967,47.580734],[-122.364077,47.580751]]]}},{"type":"Feature","properties":{"id":17,"area_m2":500,"px":5,"rank":18},"geometry":{"type":"Polygon","coordinates":[[[-122.36808,47.579603],[-122.368077,47.579873],[-122.367811,47.579871],[-122.367813,47.579691],[-122.367923,47.579676],[-122.367947,47.579602],[-122.36808,47.579603]]]}},{"type":"Feature","properties":{"id":23,"area_m2":500,"px":5,"rank":19},"geometry":{"type":"Polygon","coordinates":[[[-122.368778,47.576817],[-122.368773,47.577267],[-122.36864,47.577266],[-122.368645,47.576817],[-122.368778,47.576817]]]}},{"type":"Feature","properties":{"id":2,"area_m2":400,"px":4,"rank":20},"geometry":{"type":"Polygon","coordinates":[[[-122.364174,47.58372],[-122.36417,47.58399],[-122.364037,47.583989],[-122.364015,47.583915],[-122.363906,47.583899],[-122.363907,47.583809],[-122.364016,47.583794],[-122.364041,47.58372],[-122.364174,47.58372]]]}},{"type":"Feature","properties":{"id":5,"area_m2":400,"px":4,"rank":21},"geometry":{"type":"Polygon","coordinates":[[[-122.365244,47.583186],[-122.36524,47.583546],[-122.365107,47.583545],[-122.365111,47.583186],[-122.365244,47.583186]]]}},{"type":"Feature","properties":{"id":12,"area_m2":400,"px":4,"rank":22},"geometry":{"type":"Polygon","coordinates":[[[-122.364737,47.581114],[-122.364734,47.581384],[-122.364601,47.581383],[-122.364602,47.581157],[-122.364562,47.581119],[-122.364471,47.581112],[-122.364472,47.581023],[-122.364605,47.581023],[-122.364628,47.581098],[-122.364737,47.581114]]]}},{"type":"Feature","properties":{"id":19,"area_m2":400,"px":4,"rank":23},"geometry":{"type":"Polygon","coordinates":[[[-122.364091,47.579581],[-122.364089,47.579761],[-122.363823,47.579759],[-122.363825,47.579579],[-122.364091,47.579581]]]}},{"type":"Feature","properties":{"id":26,"area_m2":400,"px":4,"rank":24},"geometry":{"type":"Polygon","coordinates":[[[-122.366394,47.576084],[-122.366392,47.576174],[-122.365994,47.576172],[-122.365996,47.575992],[-122.366129,47.575993],[-122.366134,47.57605],[-122.366184,47.576081],[-122.366394,47.576084]]]}},{"type":"Feature","properties":{"id":3,"area_m2":300,"px":3,"rank":25},"geometry":{"type":"Polygon","coordinates":[[[-122.365236,47.583816],[-122.365235,47.583906],[-122.364969,47.583905],[-122.364947,47.58383],[-122.364838,47.583814],[-122.364839,47.583724],[-122.364971,47.583725],[-122.364977,47.583781],[-122.365027,47.583813],[-122.365236,47.583816]]]}},{"type":"Feature","properties":{"id":7,"area_m2":300,"px":3,"rank":26},"geometry":{"type":"Polygon","coordinates":[[[-122.364713,47.583093],[-122.36471,47.583363],[-122.364577,47.583363],[-122.36458,47.583093],[-122.364713,47.583093]]]}},{"type":"Feature","properties":{"id":15,"area_m2":300,"px":3,"rank":27},"geometry":{"type":"Polygon","coordinates":[[[-122.365281,47.580127],[-122.365279,47.580307],[-122.365146,47.580306],[-122.365144,47.580165],[-122.365099,47.58013],[-122.365015,47.580126],[-122.365016,47.580036],[-122.365149,47.580037],[-122.365172,47.580111],[-122.365281,47.580127]]]}},{"type":"Feature","properties":{"id":28,"area_m2":300,"px":3,"rank":28},"geometry":{"type":"Polygon","coordinates":[[[-122.365486,47.57419],[-122.365485,47.57428],[-122.365086,47.574277],[-122.365087,47.574188],[-122.365486,47.57419]]]}},{"type":"Feature","properties":{"id":29,"area_m2":300,"px":3,"rank":29},"geometry":{"type":"Polygon","coordinates":[[[-122.368424,47.573126],[-122.368422,47.573306],[-122.368156,47.573305],[-122.368157,47.573215],[-122.368267,47.5732],[-122.368291,47.573126],[-122.368424,47.573126]]]}}]}