{"type":"FeatureCollection","features":[{"type":"Feature","properties":{"id":10,"area_m2":5800,"px":58,"rank":1},"geometry":{"type":"Polygon","coordinates":[[[-122.364207,47.580931],[-122.364206,47.581021],[-122.364109,47.58103],[-122.364073,47.581074],[-122.364085,47.581176],[-122.364204,47.581201],[-122.364198,47.581741],[-122.3641,47.581749],[-122.364064,47.581794],[-122.364065,47.581972],[-122.364111,47.582006],[-122.364194,47.582011],[-122.364193,47.582101],[-122.364083,47.582116],[-122.364059,47.58219],[-122.363939,47.582213],[-122.363925,47.582279],[-122.363659,47.582278],[-122.363664,47.581918],[-122.3637,47.581876],[-122.363665,47.581827],[-122.363678,47.580748],[-122.363787,47.580733],[-122.363812,47.580659],[-122.363945,47.58066],[-122.363967,47.580734],[-122.364077,47.580751],[-122.364088,47.580906],[-122.364207,47.580931]]]}},{"type":"Feature","properties":{"id":20,"area_m2":5600,"px":56,"rank":2},"geometry":{"type":"Polygon","coordinates":[[[-122.364225,47.579492],[-122.364224,47.579581],[-122.364126,47.57959],[-122.36409,47.579635],[-122.364087,47.579987],[-122.364128,47.580025],[-122.364218,47.580031],[-122.364216,47.580211],[-122.36414,47.580213],[-122.364092,47.580239],[-122.364081,47.58039],[-122.363948,47.58039],[-122.363945,47.580338],[-122.363907,47.580306],[-122.363683,47.580298],[-122.36369,47.579759],[-122.363773,47.579755],[-122.36382,47.579721],[-122.363827,47.579399],[-122.363863,47.579357],[-122.363828,47.579308],[-122.36385,47.578989],[-122.363804,47.578954],[-122.3637,47.578949],[-122.363706,47.578409],[-122.364105,47.578411],[-122.364093,47.579442],[-122.364134,47.579485],[-122.364225,47.579492]]]}},{"type":"Feature","properties":{"id":12,"area_m2":4600,"px":46,"rank":3},"geometry":{"type":"Polygon","coordinates":[[[-122.367525,47.581489],[-122.36752,47.581939],[-122.367121,47.581937],[-122.367115,47.581606],[-122.367061,47.581578],[-122.366859,47.581576],[-122.366862,47.581396],[-122.366959,47.581387],[-122.366996,47.581307],[-122.367105,47.581291],[-122.36715,47.581189],[-122.36711,47.581134],[-122.366998,47.581126],[-122.366969,47.581049],[-122.366866,47.581036],[-122.366868,47.580856],[-122.366904,47.580814],[-122.366869,47.580766],[-122.36687,47.580676],[-122.36698,47.580661],[-122.367004,47.580587],[-122.36727,47.580588],[-122.367293,47.580662],[-122.367402,47.580679],[-122.367394,47.581307],[-122.367359,47.581361],[-122.367411,47.581469],[-122.367525,47.581489]]]}},{"type":"Feature","properties":{"id":6,"area_m2":1700,"px":17,"rank":4},"geometry":{"type":"Polygon","coordinates":[[[-122.365261,47.581747],[-122.365245,47.583096],[-122.365112,47.583096],[-122.365118,47.582604],[-122.365076,47.582562],[-122.364986,47.582555],[-122.364988,47.582375],[-122.365079,47.582369],[-122.365121,47.582327],[-122.365129,47.581746],[-122.365261,47.581747]]]}},{"type":"Feature","properties":{"id":4,"area_m2":1500,"px":15,"rank":5},"geometry":{"type":"Polygon","coordinates":[[[-122.362984,47.582905],[-122.36295,47.582951],[-122.362986,47.582995],[-122.362979,47.583534],[-122.362713,47.583532],[-122.362714,47.583442],[-122.36275,47.5834],[-122.362715,47.583351],[-122.362719,47.583082],[-122.362755,47.58304],[-122.36272,47.582992],[-122.362723,47.582723],[-122.362989,47.582724],[-122.362984,47.582905]]]}},{"type":"Feature","properties":{"id":11,"area_m2":1000,"px":10,"rank":6},"geometry":{"type":"Polygon","coordinates":[[[-122.363,47.581824],[-122.362995,47.582184],[-122.362886,47.582199],[-122.362861,47.582273],[-122.362728,47.582273],[-122.362735,47.581733],[-122.362868,47.581734],[-122.36289,47.581808],[-122.363,47.581824]]]}},{"type":"Feature","properties":{"id":25,"area_m2":1000,"px":10,"rank":7},"geometry":{"type":"Polygon","coordinates":[[[-122.36703,47.578427],[-122.367025,47.578877],[-122.366915,47.578892],[-122.366891,47.578966],[-122.366625,47.578965],[-122.366627,47.578785],[-122.366725,47.578776],[-122.366761,47.578696],[-122.366837,47.578694],[-122.366885,47.578668],[-122.366897,47.578427],[-122.36703,47.578427]]]}},{"type":"Feature","properties":{"id":16,"area_m2":900,"px":9,"rank":8},"geometry":{"type":"Polygon","coordinates":[[[-122.365274,47.580667],[-122.365269,47.581117],[-122.365136,47.581116],[-122.365114,47.581042],[-122.365004,47.581025],[-122.365009,47.580666],[-122.365274,47.580667]]]}},{"type":"Feature","properties":{"id":21,"area_m2":900,"px":9,"rank":9},"geometry":{"type":"Polygon","coordinates":[[[-122.363548,47.580209],[-122.363515,47.580255],[-122.36355,47.580298],[-122.363549,47.580388],[-122.363283,47.580386],[-122.363289,47.579936],[-122.363554,47.579938],[-122.363548,47.580209]]]}},{"type":"Feature","properties":{"id":24,"area_m2":900,"px":9,"rank":10},"geometry":{"type":"Polygon","coordinates":[[[-122.36702,47.579237],[-122.367016,47.579597],[-122.36675,47.579595],[-122.366748,47.579454],[-122.366703,47.579419],[-122.366619,47.579415],[-122.366621,47.579325],[-122.36673,47.57931],[-122.366755,47.579236],[-122.36702,47.579237]]]}},{"type":"Feature","properties":{"id":39,"area_m2":900,"px":9,"rank":11},"geometry":{"type":"Polygon","coordinates":[[[-122.368142,47.574474],[-122.36814,47.574564],[-122.368031,47.57458],[-122.368006,47.574654],[-122.367874,47.574653],[-122.367882,47.573933],[-122.368015,47.573934],[-122.368011,47.57443],[-122.368051,47.574468],[-122.368142,47.574474]]]}},{"type":"Feature","properties":{"id":2,"area_m2":800,"px":8,"rank":12},"geometry":{"type":"Polygon","coordinates":[[[-122.36245,47.583261],[-122.362446,47.583621],[-122.36218,47.583619],[-122.362184,47.583259],[-122.36245,47.583261]]]}},{"type":"Feature","properties":{"id":7,"area_m2":700,"px":7,"rank":13},"geometry":{"type":"Polygon","coordinates":[[[-122.362586,47.582992],[-122.362585,47.583082],[-122.362453,47.583081],[-122.36243,47.583007],[-122.362321,47.58299],[-122.362286,47.582909],[-122.362189,47.582899],[-122.362192,47.58263],[-122.362325,47.58263],[-122.362347,47.582705],[-122.362457,47.582721],[-122.362458,47.582953],[-122.362503,47.582987],[-122.362586,47.582992]]]}},{"type":"Feature","properties":{"id":9,"area_m2":600,"px":6,"rank":14},"geometry":{"type":"Polygon","coordinates":[[[-122.362463,47.582181],[-122.362461,47.582361],[-122.362351,47.582376],[-122.362327,47.58245],[-122.362194,47.58245],[-122.362199,47.58209],[-122.362331,47.582091],[-122.362354,47.582165],[-122.362463,47.582181]]]}},{"type":"Feature","properties":{"id":32,"area_m2":600,"px":6,"rank":15},"geometry":{"type":"Polygon","coordinates":[[[-122.362522,47.577144],[-122.362488,47.57719],[-122.362523,47.577233],[-122.362522,47.577323],[-122.362257,47.577321],[-122.36226,47.577051],[-122.36237,47.577036],[-122.362394,47.576962],[-122.362527,47.576963],[-122.362522,47.577144]]]}},{"type":"Feature","properties":{"id":34,"area_m2":600,"px":6,"rank":16},"geometry":{"type":"Polygon","coordinates":[[[-122.36799,47.576003],[-122.367984,47.576543],[-122.367851,47.576542],[-122.367857,47.576003],[-122.36799,47.576003]]]}},{"type":"Feature","properties":{"id":5,"area_m2":500,"px":5,"rank":17},"geometry":{"type":"Polygon","coordinates":[[[-122.367374,47.583018],[-122.367372,47.583198],[-122.367262,47.583213],[-122.367238,47.583287],[-122.366972,47.583286],[-122.366973,47.583196],[-122.367083,47.583181],[-122.367107,47.583107],[-122.367227,47.583083],[-122.367241,47.583017],[-122.367374,47.583018]]]}},{"type":"Feature","properties":{"id":8,"area_m2":500,"px":5,"rank":18},"geometry":{"type":"Polygon","coordinates":[[[-122.362993,47.582364],[-122.36299,47.582634],[-122.362857,47.582633],[-122.362834,47.582559],[-122.362725,47.582542],[-122.362727,47.582363],[-122.362993,47.582364]]]}},{"type":"Feature","properties":{"id":15,"area_m2":500,"px":5,"rank":19},"geometry":{"type":"Polygon","coordinates":[[[-122.363536,47.581467],[-122.363535,47.581557],[-122.363425,47.581572],[-122.363401,47.581646],[-122.363268,47.581646],[-122.363245,47.581571],[-122.363136,47.581555],[-122.363137,47.581465],[-122.363247,47.58145],[-122.363271,47.581376],[-122.363404,47.581377],[-122.363427,47.581451],[-122.363536,47.581467]]]}},{"type":"Feature","properties":{"id":14,"area_m2":500,"px":5,"rank":20},"geometry":{"type":"Polygon","coordinates":[[[-122.365268,47.581207],[-122.365262,47.581657],[-122.36513,47.581656],[-122.365135,47.581206],[-122.365268,47.581207]]]}},{"type":"Feature","properties":{"id":27,"area_m2":500,"px":5,"rank":21},"geometry":{"type":"Polygon","coordinates":[[[-122.363038,47.578675],[-122.363036,47.578855],[-122.362926,47.57887],[-122.362902,47.578944],[-122.362769,47.578944],[-122.362772,47.578674],[-122.363038,47.578675]]]}},{"type":"Feature","properties":{"id":1,"area_m2":400,"px":4,"rank":22},"geometry":{"type":"Polygon","coordinates":[[[-122.364705,47.583723],[-122.364704,47.583813],[-122.364595,47.583828],[-122.36457,47.583902],[-122.364172,47.5839],[-122.364173,47.58381],[-122.364507,47.583811],[-122.364562,47.583784],[-122.364573,47.583723],[-122.364705,47.583723]]]}},{"type":"Feature","properties":{"id":17,"area_m2":400,"px":4,"rank":23},"geometry":{"type":"Polygon","coordinates":[[[-122.364742,47.580664],[-122.364739,47.580934],[-122.364606,47.580933],[-122.364605,47.580792],[-122.364559,47.580757],[-122.364476,47.580753],[-122.364477,47.580663],[-122.364742,47.580664]]]}},{"type":"Feature","properties":{"id":22,"area_m2":400,"px":4,"rank":24},"geometry":{"type":"Polygon","coordinates":[[[-122.367011,47.580047],[-122.367007,47.580317],[-122.366875,47.580316],[-122.366852,47.580242],[-122.366743,47.580225],[-122.366744,47.580135],[-122.366853,47.58012],[-122.366878,47.580046],[-122.367011,47.580047]]]}},{"type":"Feature","properties":{"id":26,"area_m2":400,"px":4,"rank":25},"geometry":{"type":"Polygon","coordinates":[[[-122.364635,47.578594],[-122.36463,47.578954],[-122.364497,47.578953],[-122.364502,47.578593],[-122.364635,47.578594]]]}},{"type":"Feature","properties":{"id":31,"area_m2":400,"px":4,"rank":26},"geometry":{"type":"Polygon","coordinates":[[[-122.36292,47.577415],[-122.362918,47.577595],[-122.362808,47.57761],[-122.362784,47.577684],[-122.362651,47.577683],[-122.362653,47.577503],[-122.362763,47.577488],[-122.362787,47.577414],[-122.36292,47.577415]]]}},{"type":"Feature","properties":{"id":3,"area_m2":300,"px":3,"rank":27},"geometry":{"type":"Polygon","coordinates":[[[-122.367502,47.583379],[-122.3675,47.583559],[-122.367367,47.583558],[-122.367345,47.583484],[-122.367236,47.583467],[-122.367237,47.583377],[-122.367502,47.583379]]]}},{"type":"Feature","properties":{"id":13,"area_m2":300,"px":3,"rank":28},"geometry":{"type":"Polygon","coordinates":[[[-122.362337,47.581641],[-122.362334,47.58191],[-122.362201,47.58191],[-122.362204,47.58164],[-122.362337,47.581641]]]}},{"type":"Feature","properties":{"id":18,"area_m2":300,"px":3,"rank":29},"geometry":{"type":"Polygon","coordinates":[[[-122.368069,47.580503],[-122.368068,47.580592],[-122.367802,47.580591],[-122.367804,47.580411],[-122.367937,47.580412],[-122.36796,47.580486],[-122.368069,47.580503]]]}},{"type":"Feature","properties":{"id":19,"area_m2":300,"px":3,"rank":30},"geometry":{"type":"Polygon","coordinates":[[[-122.364746,47.580394],[-122.364745,47.580484],[-122.364479,47.580483],[-122.364481,47.580303],[-122.364614,47.580304],[-122.364636,47.580378],[-122.364746,47.580394]]]}},{"type":"Feature","properties":{"id":23,"area_m2":300,"px":3,"rank":31},"geometry":{"type":"Polygon","coordinates":[[[-122.363558,47.579668],[-122.363557,47.579758],[-122.363291,47.579756],[-122.363293,47.579576],[-122.363426,47.579577],[-122.363448,47.579651],[-122.363558,47.579668]]]}},{"type":"Feature","properties":{"id":28,"area_m2":300,"px":3,"rank":32},"geometry":{"type":"Polygon","coordinates":[[[-122.362909,47.578315],[-122.362906,47.578584],[-122.362773,47.578584],[-122.362776,47.578314],[-122.362909,47.578315]]]}},{"type":"Feature","properties":{"id":29,"area_m2":300,"px":3,"rank":33},"geometry":{"type":"Polygon","coordinates":[[[-122.365304,47.578238],[-122.365302,47.578418],[-122.365169,47.578417],[-122.365146,47.578343],[-122.365037,47.578326],[-122.365038,47.578236],[-122.365304,47.578238]]]}},{"type":"Feature","properties":{"id":30,"area_m2":300,"px":3,"rank":34},"geometry":{"type":"Polygon","coordinates":[[[-122.364773,47.578145],[-122.364771,47.578325],[-122.364661,47.57834],[-122.364637,47.578414],[-122.364504,47.578413],[-122.364505,47.578323],[-122.364589,47.57832],[-122.364635,47.578286],[-122.36464,47.578144],[-122.364773,47.578145]]]}},{"type":"Feature","properties":{"id":33,"area_m2":300,"px":3,"rank":35},"geometry":{"type":"Polygon","coordinates":[[[-122.362925,47.577055],[-122.362922,47.577235],[-122.36279,47.577234],[-122.362767,47.57716],[-122.362658,47.577143],[-122.362659,47.577054],[-122.362925,47.577055]]]}},{"type":"Feature","properties":{"id":35,"area_m2":300,"px":3,"rank":36},"geometry":{"type":"Polygon","coordinates":[[[-122.366262,47.575994],[-122.366259,47.576174],[-122.365994,47.576172],[-122.365995,47.576082],[-122.366105,47.576067],[-122.366129,47.575993],[-122.366262,47.575994]]]}},{"type":"Feature","properties":{"id":36,"area_m2":300,"px":3,"rank":37},"geometry":{"type":"Polygon","coordinates":[[[-122.367994,47.575643],[-122.367991,47.575913],[-122.367858,47.575912],[-122.367862,47.575643],[-122.367994,47.575643]]]}},{"type":"Feature","properties":{"id":37,"area_m2":300,"px":3,"rank":38},"geometry":{"type":"Polygon","coordinates":[[[-122.361882,47.57534],[-122.36188,47.575429],[-122.361771,47.575445],[-122.361746,47.575519],[-122.361627,47.575542],[-122.361612,47.575608],[-122.36148,47.575607],[-122.361481,47.575517],[-122.36159,47.575502],[-122.361615,47.575428],[-122.361734,47.575405],[-122.361749,47.575339],[-122.361882,47.57534]]]}},{"type":"Feature","properties":{"id":38,"area_m2":300,"px":3,"rank":39},"geometry":{"type":"Polygon","coordinates":[[[-122.368002,47.575014],[-122.367999,47.575283],[-122.367866,47.575283],[-122.367869,47.575013],[-122.368002,47.575014]]]}}]}