{"type":"FeatureCollection","features":[{"type":"Feature","properties":{"id":19,"area_m2":36600,"px":366,"rank":1},"geometry":{"type":"Polygon","coordinates":[[[-122.368992,47.581138],[-122.368991,47.581227],[-122.3689,47.581233],[-122.368858,47.581275],[-122.368829,47.581981],[-122.36887,47.58203],[-122.368981,47.582037],[-122.36898,47.582127],[-122.36889,47.582133],[-122.368848,47.58217],[-122.368842,47.582576],[-122.368766,47.582578],[-122.368718,47.582604],[-122.368707,47.582756],[-122.368574,47.582755],[-122.368581,47.582126],[-122.368618,47.582083],[-122.368583,47.582035],[-122.368586,47.581766],[-122.368622,47.581723],[-122.368587,47.581675],[-122.368591,47.581317],[-122.368627,47.581273],[-122.368592,47.581224],[-122.36864,47.577225],[-122.368599,47.577183],[-122.368468,47.577162],[-122.368381,47.577195],[-122.368368,47.577715],[-122.368236,47.577714],[-122.36824,47.577299],[-122.368207,47.57726],[-122.368149,47.577251],[-122.368004,47.577275],[-122.367975,47.577312],[-122.367973,47.577443],[-122.36784,47.577442],[-122.367848,47.576814],[-122.367884,47.57677],[-122.367849,47.576721],[-122.367878,47.574293],[-122.368011,47.574294],[-122.36801,47.574444],[-122.368056,47.574483],[-122.368225,47.574471],[-122.368275,47.574421],[-122.368271,47.574238],[-122.368229,47.574209],[-122.368145,47.574204],[-122.368148,47.573935],[-122.368184,47.573887],[-122.368144,47.573774],[-122.368081,47.573741],[-122.367884,47.573753],[-122.367906,47.573433],[-122.36786,47.573397],[-122.367756,47.573392],[-122.367759,47.573123],[-122.367881,47.573112],[-122.36797,47.573147],[-122.368043,47.573101],[-122.368012,47.573043],[-122.367893,47.573033],[-122.367894,47.572943],[-122.368293,47.572946],[-122.368321,47.573023],[-122.368479,47.57306],[-122.368558,47.573037],[-122.368691,47.573038],[-122.368698,47.573189],[-122.368745,47.573216],[-122.368821,47.573218],[-122.368821,47.57354],[-122.368867,47.573574],[-122.36895,47.573579],[-122.368947,47.573849],[-122.368911,47.573891],[-122.368946,47.57394],[-122.368923,47.575827],[-122.368887,47.575871],[-122.368922,47.57592],[-122.3689,47.577716],[-122.368864,47.57776],[-122.368899,47.577808],[-122.368895,47.578166],[-122.368859,47.57821],[-122.368894,47.578259],[-122.36886,47.581083],[-122.368895,47.581128],[-122.368992,47.581138]],[[-122.368114,47.576813],[-122.368133,47.576769],[-122.3681,47.576733],[-122.368025,47.576724],[-122.367973,47.576748],[-122.367963,47.576789],[-122.367999,47.576827],[-122.368059,47.576837],[-122.368114,47.576813]],[[-122.368141,47.574743],[-122.368174,47.574707],[-122.368159,47.574667],[-122.368099,47.574641],[-122.368035,47.574653],[-122.368006,47.574689],[-122.368023,47.574737],[-122.368082,47.574758],[-122.368141,47.574743]],[[-122.368257,47.574859],[-122.368059,47.574823],[-122.368007,47.574858],[-122.368004,47.574984],[-122.368064,47.575026],[-122.368219,47.575011],[-122.368267,47.574971],[-122.368257,47.574859]],[[-122.368218,47.575109],[-122.368056,47.575093],[-122.368002,47.575133],[-122.368,47.575344],[-122.368067,47.575387],[-122.368215,47.57537],[-122.368263,47.575331],[-122.368261,47.575138],[-122.368218,47.575109]],[[-122.368248,47.575579],[-122.36805,47.575543],[-122.367999,47.575578],[-122.367995,47.575703],[-122.368055,47.575746],[-122.36821,47.57573],[-122.368258,47.575691],[-122.368248,47.575579]],[[-122.368216,47.575831],[-122.368062,47.57581],[-122.368005,47.575834],[-122.367992,47.57596],[-122.36804,47.575999],[-122.368194,47.576017],[-122.368253,47.57598],[-122.368256,47.575868],[-122.368216,47.575831]],[[-122.368537,47.575015],[-122.368569,47.574979],[-122.368555,47.574939],[-122.368495,47.574913],[-122.36843,47.574925],[-122.368402,47.574961],[-122.368419,47.575009],[-122.368478,47.57503],[-122.368537,47.575015]],[[-122.368547,47.574208],[-122.368488,47.574193],[-122.368428,47.574213],[-122.36841,47.574261],[-122.368438,47.574297],[-122.368502,47.57431],[-122.368563,47.574284],[-122.368578,47.574244],[-122.368547,47.574208]],[[-122.36866,47.574501],[-122.368462,47.574465],[-122.368411,47.574501],[-122.368407,47.574626],[-122.368467,47.574669],[-122.368622,47.574653],[-122.36867,47.574614],[-122.36866,47.574501]],[[-122.36865,47.575311],[-122.368453,47.575275],[-122.368401,47.57531],[-122.368397,47.575436],[-122.368457,47.575478],[-122.368612,47.575463],[-122.368661,47.575424],[-122.36865,47.575311]],[[-122.368646,47.575671],[-122.368448,47.575635],[-122.368396,47.57567],[-122.368393,47.575796],[-122.368453,47.575838],[-122.368608,47.575823],[-122.368656,47.575783],[-122.368646,47.575671]],[[-122.368641,47.576031],[-122.368444,47.575995],[-122.368392,47.57603],[-122.368389,47.576156],[-122.368449,47.576198],[-122.368604,47.576182],[-122.368652,47.576143],[-122.368641,47.576031]],[[-122.368637,47.576391],[-122.36844,47.576355],[-122.368388,47.57639],[-122.368384,47.576515],[-122.368444,47.576558],[-122.368599,47.576542],[-122.368648,47.576503],[-122.368637,47.576391]]]}},{"type":"Feature","properties":{"id":28,"area_m2":12400,"px":124,"rank":2},"geometry":{"type":"Polygon","coordinates":[[[-122.368477,47.579516],[-122.368444,47.579563],[-122.368479,47.579605],[-122.368474,47.579965],[-122.368355,47.579988],[-122.36834,47.58009],[-122.368375,47.580135],[-122.368472,47.580145],[-122.368467,47.580595],[-122.368383,47.580598],[-122.36834,47.580627],[-122.368331,47.58081],[-122.368366,47.580855],[-122.368464,47.580865],[-122.368463,47.580955],[-122.368386,47.580957],[-122.368339,47.580982],[-122.368327,47.581134],[-122.368131,47.581119],[-122.368065,47.581157],[-122.368057,47.581492],[-122.368021,47.581535],[-122.368056,47.581582],[-122.368054,47.581762],[-122.367788,47.581761],[-122.367791,47.581491],[-122.367827,47.581449],[-122.367792,47.5814],[-122.36782,47.579063],[-122.367857,47.579019],[-122.367822,47.57897],[-122.367835,47.577892],[-122.367967,47.577893],[-122.36799,47.577967],[-122.368146,47.578006],[-122.368232,47.577984],[-122.368365,47.577985],[-122.368349,47.579376],[-122.36839,47.579418],[-122.368481,47.579425],[-122.368477,47.579516]],[[-122.36823,47.578204],[-122.368168,47.578151],[-122.368,47.578172],[-122.367964,47.578211],[-122.367976,47.578319],[-122.368135,47.578357],[-122.368194,47.578348],[-122.368227,47.578314],[-122.36823,47.578204]],[[-122.368149,47.580402],[-122.36795,47.580436],[-122.367937,47.580548],[-122.367984,47.580588],[-122.368139,47.580605],[-122.3682,47.580563],[-122.3682,47.580438],[-122.368149,47.580402]],[[-122.368088,47.578973],[-122.368052,47.57901],[-122.368067,47.57905],[-122.368127,47.579076],[-122.368185,47.579068],[-122.368218,47.579034],[-122.368207,47.578984],[-122.368151,47.57896],[-122.368088,47.578973]]]}},{"type":"Feature","properties":{"id":11,"area_m2":10900,"px":109,"rank":3},"geometry":{"type":"Polygon","coordinates":[[[-122.364206,47.581021],[-122.364198,47.581741],[-122.363967,47.581749],[-122.36391,47.581863],[-122.363965,47.581917],[-122.364195,47.581921],[-122.364178,47.58336],[-122.364068,47.583376],[-122.364044,47.58345],[-122.363835,47.583451],[-122.363784,47.583482],[-122.363777,47.583538],[-122.363644,47.583537],[-122.363665,47.581829],[-122.3637,47.581775],[-122.363657,47.581676],[-122.363595,47.581648],[-122.363436,47.581656],[-122.3634,47.581736],[-122.363267,47.581736],[-122.363273,47.581196],[-122.363539,47.581197],[-122.363625,47.58122],[-122.363782,47.581183],[-122.363806,47.581109],[-122.363926,47.581086],[-122.36394,47.58102],[-122.364206,47.581021]],[[-122.363673,47.581377],[-122.363705,47.581341],[-122.363691,47.581301],[-122.363631,47.581275],[-122.363566,47.581287],[-122.363538,47.581322],[-122.363555,47.581371],[-122.363614,47.581392],[-122.363673,47.581377]]]}},{"type":"Feature","properties":{"id":38,"area_m2":9400,"px":94,"rank":4},"geometry":{"type":"Polygon","coordinates":[[[-122.364231,47.578773],[-122.364197,47.578819],[-122.364232,47.578862],[-122.364229,47.579132],[-122.364193,47.579179],[-122.364228,47.579223],[-122.364223,47.579671],[-122.364132,47.579677],[-122.364091,47.579714],[-122.364085,47.580067],[-122.36412,47.580112],[-122.364217,47.580121],[-122.364214,47.580391],[-122.364104,47.580406],[-122.36408,47.58048],[-122.363681,47.580478],[-122.363685,47.580118],[-122.363721,47.580076],[-122.363687,47.580028],[-122.363689,47.579807],[-122.363647,47.579765],[-122.363557,47.579756],[-122.363558,47.579668],[-122.363649,47.579662],[-122.363691,47.57962],[-122.36371,47.578049],[-122.364109,47.578051],[-122.364104,47.578542],[-122.364145,47.578585],[-122.364236,47.578592],[-122.364231,47.578773]]]}},{"type":"Feature","properties":{"id":9,"area_m2":6800,"px":68,"rank":5},"geometry":{"type":"Polygon","coordinates":[[[-122.364859,47.582015],[-122.364858,47.582104],[-122.364761,47.582113],[-122.364725,47.582158],[-122.36472,47.58269],[-122.36476,47.582727],[-122.36485,47.582736],[-122.364849,47.582824],[-122.364766,47.582828],[-122.364719,47.582862],[-122.364714,47.583045],[-122.364755,47.583087],[-122.364846,47.583094],[-122.364845,47.583184],[-122.364754,47.58319],[-122.364713,47.583227],[-122.364707,47.583633],[-122.364574,47.583632],[-122.364551,47.583558],[-122.364442,47.58354],[-122.364448,47.583003],[-122.364484,47.58296],[-122.364449,47.582911],[-122.364477,47.580664],[-122.364586,47.580647],[-122.364611,47.580574],[-122.364744,47.580574],[-122.364727,47.581965],[-122.364768,47.582008],[-122.364859,47.582015]]]}},{"type":"Feature","properties":{"id":14,"area_m2":4100,"px":41,"rank":6},"geometry":{"type":"Polygon","coordinates":[[[-122.367515,47.582299],[-122.367504,47.583289],[-122.366972,47.583286],[-122.366974,47.583106],[-122.367009,47.583053],[-122.366958,47.582946],[-122.366843,47.582925],[-122.366844,47.582835],[-122.366928,47.582832],[-122.366974,47.582798],[-122.36698,47.582566],[-122.367071,47.58256],[-122.367112,47.582523],[-122.367117,47.582297],[-122.367515,47.582299]]]}},{"type":"Feature","properties":{"id":25,"area_m2":4100,"px":41,"rank":7},"geometry":{"type":"Polygon","coordinates":[[[-122.367657,47.58158],[-122.367656,47.58167],[-122.367565,47.581676],[-122.367524,47.581713],[-122.36752,47.581939],[-122.367296,47.581944],[-122.367257,47.581976],[-122.367253,47.582028],[-122.366854,47.582025],[-122.366874,47.581795],[-122.366829,47.58176],[-122.366724,47.581755],[-122.36669,47.581674],[-122.366592,47.581664],[-122.366596,47.581394],[-122.366705,47.581379],[-122.366732,47.581305],[-122.366862,47.581306],[-122.366871,47.581367],[-122.366926,47.581395],[-122.367526,47.581399],[-122.367534,47.581551],[-122.367581,47.581577],[-122.367657,47.58158]]]}},{"type":"Feature","properties":{"id":7,"area_m2":3600,"px":36,"rank":8},"geometry":{"type":"Polygon","coordinates":[[[-122.368567,47.583116],[-122.368533,47.583162],[-122.368568,47.583205],[-122.368567,47.583295],[-122.368358,47.583296],[-122.368301,47.583342],[-122.368313,47.583449],[-122.368432,47.583474],[-122.368429,47.583744],[-122.368319,47.583759],[-122.368295,47.583833],[-122.368162,47.583832],[-122.368166,47.583336],[-122.368126,47.583299],[-122.368036,47.583292],[-122.368037,47.583202],[-122.368073,47.58316],[-122.368038,47.58311],[-122.368058,47.582882],[-122.368013,47.582846],[-122.367908,47.582841],[-122.367873,47.58276],[-122.367776,47.58275],[-122.367777,47.582661],[-122.367861,47.582657],[-122.367907,47.582623],[-122.367913,47.582391],[-122.368062,47.5824],[-122.368045,47.582537],[-122.368085,47.582579],[-122.368292,47.582554],[-122.368303,47.582422],[-122.368163,47.582385],[-122.368181,47.582303],[-122.36829,47.582288],[-122.368315,47.582214],[-122.368447,47.582214],[-122.368443,47.582573],[-122.368359,47.582578],[-122.368313,47.582612],[-122.368286,47.582978],[-122.368348,47.583022],[-122.368571,47.583025],[-122.368567,47.583116]]]}},{"type":"Feature","properties":{"id":39,"area_m2":3000,"px":30,"rank":9},"geometry":{"type":"Polygon","coordinates":[[[-122.365418,47.579768],[-122.365417,47.579858],[-122.36532,47.579867],[-122.365284,47.579911],[-122.365287,47.580094],[-122.36533,47.580123],[-122.365414,47.580128],[-122.365411,47.580398],[-122.365145,47.580396],[-122.365165,47.578741],[-122.36513,47.578696],[-122.365033,47.578686],[-122.365037,47.578326],[-122.36517,47.578327],[-122.365192,47.578401],[-122.365302,47.578418],[-122.365286,47.579719],[-122.365328,47.579761],[-122.365418,47.579768]]]}},{"type":"Feature","properties":{"id":21,"area_m2":2300,"px":23,"rank":10},"geometry":{"type":"Polygon","coordinates":[[[-122.365925,47.58184],[-122.365921,47.5822],[-122.365788,47.5822],[-122.365725,47.582175],[-122.365655,47.582199],[-122.365522,47.582198],[-122.365452,47.582174],[-122.365291,47.582206],[-122.365256,47.582245],[-122.365252,47.582556],[-122.365119,47.582556],[-122.365118,47.582324],[-122.365073,47.58229],[-122.364989,47.582284],[-122.36499,47.582195],[-122.365081,47.582189],[-122.365122,47.582152],[-122.365129,47.581746],[-122.365394,47.581748],[-122.36541,47.58183],[-122.365302,47.581843],[-122.365261,47.58188],[-122.365262,47.581992],[-122.365328,47.58203],[-122.365511,47.581994],[-122.365526,47.581838],[-122.365659,47.581839],[-122.365729,47.581863],[-122.365792,47.58184],[-122.365925,47.58184]]]}},{"type":"Feature","properties":{"id":33,"area_m2":2100,"px":21,"rank":11},"geometry":{"type":"Polygon","coordinates":[[[-122.367533,47.58086],[-122.367532,47.580949],[-122.367434,47.580958],[-122.367398,47.581003],[-122.36741,47.581105],[-122.36753,47.58113],[-122.367528,47.581219],[-122.367419,47.581235],[-122.367394,47.581309],[-122.367262,47.581308],[-122.367253,47.581246],[-122.367198,47.581219],[-122.366598,47.581214],[-122.366601,47.580944],[-122.366711,47.580929],[-122.366735,47.580855],[-122.366868,47.580856],[-122.366873,47.580913],[-122.366916,47.580942],[-122.367133,47.580947],[-122.367195,47.580972],[-122.36737,47.580936],[-122.3674,47.580859],[-122.367533,47.58086]]]}},{"type":"Feature","properties":{"id":36,"area_m2":1700,"px":17,"rank":12},"geometry":{"type":"Polygon","coordinates":[[[-122.367404,47.580499],[-122.367401,47.580769],[-122.367002,47.580767],[-122.366932,47.580742],[-122.366869,47.580766],[-122.366675,47.580765],[-122.366612,47.580793],[-122.366602,47.580854],[-122.366469,47.580854],[-122.36647,47.580764],[-122.366554,47.58076],[-122.3666,47.580726],[-122.366605,47.580585],[-122.366829,47.580579],[-122.366868,47.580548],[-122.366872,47.580496],[-122.367109,47.580485],[-122.367139,47.580408],[-122.367272,47.580408],[-122.367295,47.580482],[-122.367404,47.580499]]]}},{"type":"Feature","properties":{"id":30,"area_m2":1600,"px":16,"rank":13},"geometry":{"type":"Polygon","coordinates":[[[-122.36541,47.580488],[-122.365408,47.580578],[-122.365318,47.580584],[-122.365275,47.580626],[-122.365262,47.581657],[-122.36513,47.581656],[-122.365131,47.581231],[-122.365066,47.581192],[-122.364869,47.581205],[-122.36487,47.581115],[-122.364985,47.581096],[-122.365005,47.580936],[-122.365089,47.580932],[-122.365135,47.580898],[-122.365143,47.580576],[-122.365252,47.580561],[-122.365277,47.580487],[-122.36541,47.580488]]]}},{"type":"Feature","properties":{"id":13,"area_m2":1500,"px":15,"rank":14},"geometry":{"type":"Polygon","coordinates":[[[-122.363524,47.582457],[-122.363514,47.583267],[-122.363404,47.583282],[-122.36338,47.583356],[-122.363247,47.583355],[-122.363254,47.582815],[-122.363345,47.58281],[-122.363386,47.582773],[-122.363391,47.582456],[-122.363524,47.582457]]]}},{"type":"Feature","properties":{"id":18,"area_m2":1500,"px":15,"rank":15},"geometry":{"type":"Polygon","coordinates":[[[-122.366449,47.582473],[-122.366448,47.582563],[-122.366073,47.582577],[-122.366048,47.582651],[-122.365965,47.582655],[-122.365921,47.582684],[-122.365913,47.58283],[-122.365647,47.582829],[-122.365653,47.582379],[-122.365919,47.58238],[-122.365927,47.582442],[-122.365982,47.58247],[-122.366449,47.582473]]]}},{"type":"Feature","properties":{"id":31,"area_m2":1500,"px":15,"rank":16},"geometry":{"type":"Polygon","coordinates":[[[-122.366339,47.580583],[-122.366329,47.581393],[-122.366197,47.581392],[-122.366189,47.581241],[-122.366142,47.581214],[-122.366066,47.581211],[-122.366069,47.580941],[-122.366105,47.580899],[-122.36607,47.580851],[-122.366071,47.580762],[-122.366107,47.580719],[-122.366072,47.580671],[-122.366075,47.580492],[-122.366207,47.580492],[-122.36623,47.580567],[-122.366339,47.580583]]]}},{"type":"Feature","properties":{"id":50,"area_m2":1500,"px":15,"rank":17},"geometry":{"type":"Polygon","coordinates":[[[-122.363572,47.578498],[-122.363571,47.578588],[-122.363473,47.578597],[-122.363437,47.578641],[-122.363441,47.578824],[-122.363484,47.578853],[-122.363568,47.578858],[-122.363565,47.579038],[-122.363167,47.579036],[-122.363172,47.578586],[-122.363248,47.578584],[-122.363296,47.578558],[-122.363307,47.578407],[-122.36344,47.578408],[-122.363463,47.578482],[-122.363572,47.578498]]]}},{"type":"Feature","properties":{"id":69,"area_m2":1400,"px":14,"rank":18},"geometry":{"type":"Polygon","coordinates":[[[-122.367223,47.57348],[-122.367222,47.573569],[-122.367091,47.573569],[-122.367086,47.573517],[-122.367048,47.573485],[-122.366824,47.573477],[-122.366816,47.573326],[-122.366769,47.573299],[-122.366693,47.573297],[-122.366693,47.573065],[-122.366647,47.573031],[-122.366564,47.573026],[-122.366565,47.572936],[-122.36683,47.572938],[-122.366853,47.573012],[-122.366962,47.573028],[-122.366997,47.573109],[-122.367094,47.573119],[-122.367093,47.573209],[-122.367057,47.573256],[-122.367092,47.573299],[-122.367092,47.573435],[-122.367132,47.573473],[-122.367223,47.57348]]]}},{"type":"Feature","properties":{"id":40,"area_m2":1200,"px":12,"rank":19},"geometry":{"type":"Polygon","coordinates":[[[-122.363556,47.579848],[-122.36355,47.580298],[-122.363417,47.580297],[-122.363395,47.580223],[-122.363285,47.580206],[-122.363274,47.58005],[-122.363155,47.580025],[-122.363157,47.579846],[-122.363266,47.57983],[-122.363293,47.579756],[-122.363424,47.579757],[-122.363446,47.579831],[-122.363556,47.579848]]]}},{"type":"Feature","properties":{"id":5,"area_m2":1100,"px":11,"rank":20},"geometry":{"type":"Polygon","coordinates":[[[-122.365503,47.583728],[-122.365501,47.583908],[-122.364836,47.583904],[-122.364814,47.58383],[-122.364705,47.583813],[-122.364706,47.583723],[-122.365503,47.583728]]]}},{"type":"Feature","properties":{"id":32,"area_m2":1100,"px":11,"rank":21},"geometry":{"type":"Polygon","coordinates":[[[-122.363009,47.581015],[-122.363005,47.581374],[-122.362739,47.581373],[-122.362739,47.581141],[-122.362693,47.581107],[-122.36261,47.581101],[-122.362611,47.581012],[-122.362694,47.581009],[-122.362741,47.580975],[-122.362746,47.580833],[-122.362879,47.580834],[-122.362886,47.580985],[-122.362933,47.581012],[-122.363009,47.581015]]]}},{"type":"Feature","properties":{"id":35,"area_m2":1100,"px":11,"rank":22},"geometry":{"type":"Polygon","coordinates":[[[-122.363545,47.580748],[-122.36354,47.581107],[-122.363142,47.581105],[-122.363145,47.580835],[-122.363254,47.58082],[-122.363279,47.580746],[-122.363545,47.580748]]]}},{"type":"Feature","properties":{"id":3,"area_m2":1000,"px":10,"rank":23},"geometry":{"type":"Polygon","coordinates":[[[-122.363376,47.583716],[-122.363373,47.583896],[-122.36315,47.583901],[-122.363111,47.583933],[-122.363106,47.583984],[-122.362841,47.583983],[-122.362844,47.583713],[-122.363376,47.583716]]]}},{"type":"Feature","properties":{"id":42,"area_m2":1000,"px":10,"rank":24},"geometry":{"type":"Polygon","coordinates":[[[-122.367543,47.58005],[-122.36754,47.58023],[-122.367275,47.580228],[-122.367268,47.579987],[-122.367214,47.579959],[-122.367012,47.579957],[-122.367013,47.579867],[-122.367123,47.579852],[-122.367147,47.579778],[-122.367413,47.579779],[-122.367414,47.580011],[-122.367459,47.580045],[-122.367543,47.58005]]]}},{"type":"Feature","properties":{"id":47,"area_m2":900,"px":9,"rank":25},"geometry":{"type":"Polygon","coordinates":[[[-122.363564,47.579128],[-122.36356,47.579488],[-122.363161,47.579486],[-122.363162,47.579396],[-122.363253,47.57939],[-122.363294,47.579353],[-122.363298,47.579127],[-122.363564,47.579128]]]}},{"type":"Feature","properties":{"id":48,"area_m2":900,"px":9,"rank":26},"geometry":{"type":"Polygon","coordinates":[[[-122.363028,47.579216],[-122.362995,47.579262],[-122.36303,47.579305],[-122.363029,47.579395],[-122.362919,47.57941],[-122.362895,47.579484],[-122.362762,47.579483],[-122.36277,47.578854],[-122.362903,47.578854],[-122.362902,47.579081],[-122.362942,47.579118],[-122.363032,47.579125],[-122.363028,47.579216]]]}},{"type":"Feature","properties":{"id":49,"area_m2":900,"px":9,"rank":27},"geometry":{"type":"Polygon","coordinates":[[[-122.364766,47.578685],[-122.364762,47.579045],[-122.364629,47.579044],[-122.364607,47.57897],[-122.364497,47.578953],[-122.364503,47.578503],[-122.364636,47.578504],[-122.364643,47.578656],[-122.36469,47.578682],[-122.364766,47.578685]]]}},{"type":"Feature","properties":{"id":20,"area_m2":800,"px":8,"rank":28},"geometry":{"type":"Polygon","coordinates":[[[-122.362461,47.582361],[-122.362458,47.582631],[-122.362192,47.582629],[-122.362198,47.58218],[-122.36233,47.58218],[-122.362338,47.582332],[-122.362385,47.582358],[-122.362461,47.582361]]]}},{"type":"Feature","properties":{"id":27,"area_m2":800,"px":8,"rank":29},"geometry":{"type":"Polygon","coordinates":[[[-122.368457,47.581405],[-122.368456,47.581494],[-122.368365,47.5815],[-122.368324,47.581537],[-122.368319,47.581854],[-122.368186,47.581853],[-122.368193,47.581223],[-122.368326,47.581224],[-122.368334,47.581375],[-122.368381,47.581402],[-122.368457,47.581405]]]}},{"type":"Feature","properties":{"id":8,"area_m2":700,"px":7,"rank":30},"geometry":{"type":"Polygon","coordinates":[[[-122.362449,47.583351],[-122.362445,47.583711],[-122.362312,47.58371],[-122.362289,47.583636],[-122.36218,47.583619],[-122.362183,47.583349],[-122.362449,47.583351]]]}},{"type":"Feature","properties":{"id":24,"area_m2":700,"px":7,"rank":31},"geometry":{"type":"Polygon","coordinates":[[[-122.363532,47.581827],[-122.363528,47.582097],[-122.363262,47.582096],[-122.36324,47.582021],[-122.363131,47.582005],[-122.363132,47.581915],[-122.363241,47.5819],[-122.363266,47.581826],[-122.363532,47.581827]]]}},{"type":"Feature","properties":{"id":41,"area_m2":700,"px":7,"rank":32},"geometry":{"type":"Polygon","coordinates":[[[-122.363023,47.579935],[-122.363018,47.580295],[-122.362752,47.580293],[-122.362756,47.580023],[-122.362865,47.580008],[-122.36289,47.579934],[-122.363023,47.579935]]]}},{"type":"Feature","properties":{"id":46,"area_m2":700,"px":7,"rank":33},"geometry":{"type":"Polygon","coordinates":[[[-122.364757,47.579226],[-122.364724,47.579272],[-122.364759,47.579315],[-122.364757,47.579494],[-122.364491,47.579493],[-122.364495,47.579133],[-122.364761,47.579135],[-122.364757,47.579226]]]}},{"type":"Feature","properties":{"id":61,"area_m2":700,"px":7,"rank":34},"geometry":{"type":"Polygon","coordinates":[[[-122.361887,47.57489],[-122.361886,47.57498],[-122.361802,47.574983],[-122.361756,47.575017],[-122.361751,47.575159],[-122.361618,47.575158],[-122.361636,47.574923],[-122.361585,47.57489],[-122.361488,47.574886],[-122.361489,47.574798],[-122.361573,47.574794],[-122.361619,47.57476],[-122.361625,47.574618],[-122.361757,47.574619],[-122.361758,47.574851],[-122.361803,47.574885],[-122.361887,47.57489]]]}},{"type":"Feature","properties":{"id":1,"area_m2":600,"px":6,"rank":35},"geometry":{"type":"Polygon","coordinates":[[[-122.366561,47.584273],[-122.366559,47.584453],[-122.36616,47.584451],[-122.366162,47.584271],[-122.366561,47.584273]]]}},{"type":"Feature","properties":{"id":15,"area_m2":600,"px":6,"rank":36},"geometry":{"type":"Polygon","coordinates":[[[-122.36538,47.582917],[-122.365379,47.583007],[-122.365295,47.583011],[-122.365249,47.583045],[-122.365244,47.583186],[-122.365111,47.583186],[-122.365117,47.582736],[-122.365249,47.582737],[-122.365257,47.582888],[-122.365304,47.582914],[-122.36538,47.582917]]]}},{"type":"Feature","properties":{"id":22,"area_m2":600,"px":6,"rank":37},"geometry":{"type":"Polygon","coordinates":[[[-122.362994,47.582274],[-122.362991,47.582544],[-122.362725,47.582542],[-122.362728,47.582273],[-122.362994,47.582274]]]}},{"type":"Feature","properties":{"id":52,"area_m2":600,"px":6,"rank":38},"geometry":{"type":"Polygon","coordinates":[[[-122.363041,47.578405],[-122.363038,47.578675],[-122.362928,47.57869],[-122.362904,47.578764],[-122.362771,47.578764],[-122.362774,47.578494],[-122.362884,47.578479],[-122.362908,47.578405],[-122.363041,47.578405]]]}},{"type":"Feature","properties":{"id":4,"area_m2":500,"px":5,"rank":39},"geometry":{"type":"Polygon","coordinates":[[[-122.366434,47.583733],[-122.366433,47.583823],[-122.366323,47.583838],[-122.366299,47.583912],[-122.366033,47.58391],[-122.366035,47.583731],[-122.366434,47.583733]]]}},{"type":"Feature","properties":{"id":12,"area_m2":500,"px":5,"rank":40},"geometry":{"type":"Polygon","coordinates":[[[-122.36644,47.583283],[-122.366437,47.583463],[-122.366172,47.583461],[-122.366175,47.583192],[-122.366308,47.583192],[-122.36633,47.583267],[-122.36644,47.583283]]]}},{"type":"Feature","properties":{"id":34,"area_m2":500,"px":5,"rank":41},"geometry":{"type":"Polygon","coordinates":[[[-122.365936,47.580941],[-122.365934,47.581121],[-122.365668,47.581119],[-122.365671,47.580849],[-122.365804,47.58085],[-122.365827,47.580924],[-122.365936,47.580941]]]}},{"type":"Feature","properties":{"id":43,"area_m2":500,"px":5,"rank":42},"geometry":{"type":"Polygon","coordinates":[[[-122.363027,47.579575],[-122.363024,47.579845],[-122.362758,47.579843],[-122.36276,47.579663],[-122.36287,47.579648],[-122.362894,47.579574],[-122.363027,47.579575]]]}},{"type":"Feature","properties":{"id":45,"area_m2":500,"px":5,"rank":43},"geometry":{"type":"Polygon","coordinates":[[[-122.367285,47.579329],[-122.367282,47.579598],[-122.367149,47.579598],[-122.367127,47.579523],[-122.367017,47.579507],[-122.367019,47.579327],[-122.367285,47.579329]]]}},{"type":"Feature","properties":{"id":54,"area_m2":500,"px":5,"rank":44},"geometry":{"type":"Polygon","coordinates":[[[-122.367695,47.578162],[-122.367662,47.578209],[-122.367697,47.578251],[-122.367695,47.578431],[-122.367562,47.57843],[-122.367555,47.578279],[-122.367508,47.578252],[-122.367431,47.57825],[-122.367434,47.57807],[-122.367699,47.578071],[-122.367695,47.578162]]]}},{"type":"Feature","properties":{"id":60,"area_m2":500,"px":5,"rank":45},"geometry":{"type":"Polygon","coordinates":[[[-122.361877,47.575699],[-122.361876,47.575789],[-122.361612,47.575788],[-122.361588,47.575714],[-122.361478,47.575697],[-122.36148,47.575607],[-122.361563,47.575604],[-122.361609,47.57557],[-122.361615,47.575428],[-122.361747,47.575429],[-122.36173,47.575664],[-122.36178,47.575696],[-122.361877,47.575699]]]}},{"type":"Feature","properties":{"id":63,"area_m2":500,"px":5,"rank":46},"geometry":{"type":"Polygon","coordinates":[[[-122.366017,47.574193],[-122.366016,47.574283],[-122.365485,47.57428],[-122.365487,47.5741],[-122.36562,47.574101],[-122.365628,47.574162],[-122.365683,47.57419],[-122.366017,47.574193]]]}},{"type":"Feature","properties":{"id":17,"area_m2":400,"px":4,"rank":47},"geometry":{"type":"Polygon","coordinates":[[[-122.362457,47.582721],[-122.362455,47.582901],[-122.362189,47.582899],[-122.362191,47.58272],[-122.362457,47.582721]]]}},{"type":"Feature","properties":{"id":26,"area_m2":400,"px":4,"rank":48},"geometry":{"type":"Polygon","coordinates":[[[-122.363134,47.581735],[-122.363133,47.581825],[-122.363023,47.58184],[-122.362999,47.581914],[-122.362733,47.581913],[-122.362734,47.581823],[-122.362844,47.581808],[-122.362868,47.581734],[-122.363134,47.581735]]]}},{"type":"Feature","properties":{"id":44,"area_m2":400,"px":4,"rank":49},"geometry":{"type":"Polygon","coordinates":[[[-122.367682,47.579511],[-122.36768,47.579691],[-122.367414,47.579689],[-122.367416,47.579509],[-122.367682,47.579511]]]}},{"type":"Feature","properties":{"id":51,"area_m2":400,"px":4,"rank":50},"geometry":{"type":"Polygon","coordinates":[[[-122.36184,47.578759],[-122.361838,47.578938],[-122.361728,47.578954],[-122.361704,47.579028],[-122.361571,47.579027],[-122.361573,47.578847],[-122.361683,47.578832],[-122.361707,47.578758],[-122.36184,47.578759]]]}},{"type":"Feature","properties":{"id":53,"area_m2":400,"px":4,"rank":51},"geometry":{"type":"Polygon","coordinates":[[[-122.361843,47.578489],[-122.361842,47.578578],[-122.361732,47.578594],[-122.361708,47.578668],[-122.361588,47.578691],[-122.361574,47.578757],[-122.361441,47.578756],[-122.361442,47.578666],[-122.361526,47.578663],[-122.361572,47.578629],[-122.361578,47.578487],[-122.361843,47.578489]]]}},{"type":"Feature","properties":{"id":57,"area_m2":400,"px":4,"rank":52},"geometry":{"type":"Polygon","coordinates":[[[-122.36252,47.577503],[-122.362519,47.577592],[-122.362409,47.577608],[-122.362385,47.577682],[-122.362252,47.577681],[-122.362255,47.577411],[-122.362388,47.577412],[-122.362411,47.577486],[-122.36252,47.577503]]]}},{"type":"Feature","properties":{"id":58,"area_m2":400,"px":4,"rank":53},"geometry":{"type":"Polygon","coordinates":[[[-122.36731,47.577259],[-122.367307,47.577529],[-122.367197,47.577544],[-122.367173,47.577618],[-122.36704,47.577618],[-122.367041,47.577528],[-122.367132,47.577522],[-122.367173,47.577485],[-122.367177,47.577258],[-122.36731,47.577259]]]}},{"type":"Feature","properties":{"id":66,"area_m2":400,"px":4,"rank":54},"geometry":{"type":"Polygon","coordinates":[[[-122.366956,47.573568],[-122.366952,47.573838],[-122.366687,47.573836],[-122.366688,47.573747],[-122.366772,47.573743],[-122.366818,47.573709],[-122.366823,47.573567],[-122.366956,47.573568]]]}},{"type":"Feature","properties":{"id":2,"area_m2":300,"px":3,"rank":55},"geometry":{"type":"Polygon","coordinates":[[[-122.368427,47.583924],[-122.368424,47.584194],[-122.368291,47.584193],[-122.368294,47.583923],[-122.368427,47.583924]]]}},{"type":"Feature","properties":{"id":6,"area_m2":300,"px":3,"rank":56},"geometry":{"type":"Polygon","coordinates":[[[-122.363908,47.583719],[-122.363905,47.583899],[-122.36364,47.583897],[-122.363641,47.583807],[-122.36375,47.583792],[-122.363775,47.583718],[-122.363908,47.583719]]]}},{"type":"Feature","properties":{"id":10,"area_m2":300,"px":3,"rank":57},"geometry":{"type":"Polygon","coordinates":[[[-122.363379,47.583446],[-122.363378,47.583536],[-122.363268,47.583551],[-122.363244,47.583625],[-122.363111,47.583624],[-122.363113,47.583445],[-122.363379,47.583446]]]}},{"type":"Feature","properties":{"id":16,"area_m2":300,"px":3,"rank":58},"geometry":{"type":"Polygon","coordinates":[[[-122.366444,47.582923],[-122.366443,47.583013],[-122.366333,47.583028],[-122.366309,47.583102],[-122.366176,47.583101],[-122.366178,47.582922],[-122.366444,47.582923]]]}},{"type":"Feature","properties":{"id":23,"area_m2":300,"px":3,"rank":59},"geometry":{"type":"Polygon","coordinates":[[[-122.363527,47.582187],[-122.363525,47.582367],[-122.363259,47.582365],[-122.36326,47.582276],[-122.36337,47.58226],[-122.363394,47.582186],[-122.363527,47.582187]]]}},{"type":"Feature","properties":{"id":29,"area_m2":300,"px":3,"rank":60},"geometry":{"type":"Polygon","coordinates":[[[-122.366327,47.581573],[-122.366325,47.581753],[-122.366059,47.581751],[-122.36606,47.581661],[-122.36617,47.581646],[-122.366195,47.581572],[-122.366327,47.581573]]]}},{"type":"Feature","properties":{"id":37,"area_m2":300,"px":3,"rank":61},"geometry":{"type":"Polygon","coordinates":[[[-122.361686,47.580467],[-122.361685,47.580557],[-122.361601,47.580561],[-122.361555,47.580595],[-122.36155,47.580736],[-122.361417,47.580736],[-122.361419,47.580556],[-122.361529,47.580541],[-122.361553,47.580467],[-122.361686,47.580467]]]}},{"type":"Feature","properties":{"id":55,"area_m2":300,"px":3,"rank":62},"geometry":{"type":"Polygon","coordinates":[[[-122.362912,47.578045],[-122.362909,47.578314],[-122.362776,47.578314],[-122.36278,47.578044],[-122.362912,47.578045]]]}},{"type":"Feature","properties":{"id":56,"area_m2":300,"px":3,"rank":63},"geometry":{"type":"Polygon","coordinates":[[[-122.368104,47.577624],[-122.368103,47.577713],[-122.367993,47.577729],[-122.367969,47.577803],[-122.367836,47.577802],[-122.367838,47.577622],[-122.368104,47.577624]]]}},{"type":"Feature","properties":{"id":59,"area_m2":300,"px":3,"rank":64},"geometry":{"type":"Polygon","coordinates":[[[-122.366261,47.576084],[-122.366259,47.576174],[-122.365994,47.576172],[-122.365996,47.575992],[-122.366129,47.575993],[-122.366151,47.576067],[-122.366261,47.576084]]]}},{"type":"Feature","properties":{"id":62,"area_m2":300,"px":3,"rank":65},"geometry":{"type":"Polygon","coordinates":[[[-122.361762,47.574259],[-122.36176,47.574439],[-122.36165,47.574454],[-122.361625,47.574528],[-122.361493,47.574527],[-122.361494,47.574438],[-122.361577,47.574434],[-122.361624,47.5744],[-122.361629,47.574258],[-122.361762,47.574259]]]}},{"type":"Feature","properties":{"id":65,"area_m2":300,"px":3,"rank":66},"geometry":{"type":"Polygon","coordinates":[[[-122.367084,47.573929],[-122.367083,47.574019],[-122.366685,47.574016],[-122.366686,47.573927],[-122.367084,47.573929]]]}},{"type":"Feature","properties":{"id":64,"area_m2":300,"px":3,"rank":67},"geometry":{"type":"Polygon","coordinates":[[[-122.368016,47.573844],[-122.368013,47.574114],[-122.36788,47.574113],[-122.367883,47.573843],[-122.368016,47.573844]]]}},{"type":"Feature","properties":{"id":67,"area_m2":300,"px":3,"rank":68},"geometry":{"type":"Polygon","coordinates":[[[-122.36177,47.573539],[-122.361768,47.573719],[-122.361503,47.573718],[-122.361504,47.573628],[-122.361613,47.573613],[-122.361638,47.573539],[-122.36177,47.573539]]]}},{"type":"Feature","properties":{"id":68,"area_m2":300,"px":3,"rank":69},"geometry":{"type":"Polygon","coordinates":[[[-122.367755,47.573483],[-122.367753,47.573572],[-122.367644,47.573588],[-122.367619,47.573662],[-122.367487,47.573661],[-122.367489,47.573481],[-122.367755,47.573483]]]}}]}