{"type":"FeatureCollection","features":[{"type":"Feature","properties":{"id":14,"area_m2":42600,"px":426,"rank":1},"geometry":{"type":"Polygon","coordinates":[[[-122.368993,47.581048],[-122.368991,47.581227],[-122.368894,47.581236],[-122.368858,47.581281],[-122.368851,47.581898],[-122.368892,47.58194],[-122.368983,47.581949],[-122.368981,47.582037],[-122.368898,47.582041],[-122.368854,47.58207],[-122.368847,47.582168],[-122.368889,47.58221],[-122.368979,47.582217],[-122.368977,47.582397],[-122.368886,47.582403],[-122.368845,47.58244],[-122.36884,47.582756],[-122.368764,47.582758],[-122.368716,47.582784],[-122.368705,47.582935],[-122.368572,47.582935],[-122.368583,47.582036],[-122.368619,47.581993],[-122.368584,47.581944],[-122.368632,47.577898],[-122.368668,47.577843],[-122.368625,47.577731],[-122.368573,47.577704],[-122.368404,47.577724],[-122.368366,47.577805],[-122.368235,47.577804],[-122.36823,47.577734],[-122.368174,47.577701],[-122.367837,47.577711],[-122.367889,47.573357],[-122.367854,47.573312],[-122.367757,47.573301],[-122.367759,47.573123],[-122.367879,47.573099],[-122.367893,47.572997],[-122.367859,47.572952],[-122.367761,47.572943],[-122.367762,47.572854],[-122.367986,47.572848],[-122.368025,47.572816],[-122.368029,47.572764],[-122.368162,47.572765],[-122.368225,47.572789],[-122.368295,47.572766],[-122.368428,47.572766],[-122.368451,47.572841],[-122.36856,47.572857],[-122.368568,47.573009],[-122.368614,47.573035],[-122.368691,47.573038],[-122.368707,47.573198],[-122.368821,47.573218],[-122.368824,47.573545],[-122.368867,47.573574],[-122.36895,47.573579],[-122.368937,47.574657],[-122.368901,47.574706],[-122.368936,47.57475],[-122.368861,47.580993],[-122.368896,47.581038],[-122.368993,47.581048]],[[-122.368272,47.574926],[-122.368267,47.574598],[-122.368217,47.574567],[-122.368055,47.574555],[-122.368007,47.574604],[-122.368,47.575153],[-122.368041,47.575201],[-122.368202,47.575194],[-122.368257,47.575166],[-122.368268,47.575015],[-122.368304,47.574973],[-122.368272,47.574926]],[[-122.36825,47.576495],[-122.368181,47.576441],[-122.368014,47.576465],[-122.367985,47.576502],[-122.368,47.576627],[-122.368067,47.576647],[-122.36822,47.576622],[-122.368248,47.576591],[-122.36825,47.576495]],[[-122.368223,47.575291],[-122.368054,47.575273],[-122.368002,47.575308],[-122.367996,47.575595],[-122.368044,47.575639],[-122.368191,47.575658],[-122.368261,47.57561],[-122.368264,47.575334],[-122.368223,47.575291]],[[-122.368238,47.574031],[-122.368062,47.574015],[-122.368014,47.574059],[-122.368009,47.574439],[-122.368078,47.574487],[-122.368225,47.574471],[-122.368275,47.574426],[-122.368278,47.574069],[-122.368238,47.574031]],[[-122.368107,47.577353],[-122.368072,47.57739],[-122.368086,47.577431],[-122.368146,47.577457],[-122.368205,47.577448],[-122.368238,47.577414],[-122.368227,47.577365],[-122.368171,47.57734],[-122.368107,47.577353]],[[-122.368105,47.577533],[-122.36807,47.57757],[-122.368084,47.577611],[-122.368144,47.577637],[-122.368203,47.577628],[-122.368236,47.577594],[-122.368225,47.577545],[-122.368168,47.57752],[-122.368105,47.577533]],[[-122.368535,47.574967],[-122.368513,47.574929],[-122.36845,47.574912],[-122.368387,47.574934],[-122.368366,47.574973],[-122.368392,47.575011],[-122.368457,47.57503],[-122.368517,47.57501],[-122.368535,47.574967]],[[-122.368516,47.576725],[-122.368549,47.576689],[-122.368534,47.576649],[-122.368474,47.576623],[-122.36841,47.576634],[-122.368382,47.57667],[-122.368398,47.576719],[-122.368457,47.576739],[-122.368516,47.576725]],[[-122.368512,47.577084],[-122.368544,47.577049],[-122.36853,47.577009],[-122.36847,47.576982],[-122.368405,47.576994],[-122.368377,47.57703],[-122.368394,47.577079],[-122.368453,47.577099],[-122.368512,47.577084]],[[-122.368526,47.575918],[-122.368468,47.575902],[-122.368408,47.575922],[-122.36839,47.57597],[-122.368417,47.576006],[-122.368481,47.576019],[-122.368542,47.575993],[-122.368558,47.575953],[-122.368526,47.575918]],[[-122.368626,47.57729],[-122.368429,47.577254],[-122.368377,47.57729],[-122.368374,47.577415],[-122.368434,47.577458],[-122.368589,47.577442],[-122.368637,47.577403],[-122.368626,47.57729]]]}},{"type":"Feature","properties":{"id":32,"area_m2":7300,"px":73,"rank":2},"geometry":{"type":"Polygon","coordinates":[[[-122.367543,47.58005],[-122.36754,47.58023],[-122.36745,47.580236],[-122.367407,47.580278],[-122.367404,47.580499],[-122.367368,47.580541],[-122.367403,47.580589],[-122.367401,47.580769],[-122.366933,47.580767],[-122.366878,47.580794],[-122.366868,47.580856],[-122.366735,47.580855],[-122.366713,47.580781],[-122.366603,47.580764],[-122.366606,47.580495],[-122.366739,47.580495],[-122.366774,47.580576],[-122.366932,47.580586],[-122.366995,47.580558],[-122.367005,47.580497],[-122.36711,47.580493],[-122.367158,47.580453],[-122.36714,47.580086],[-122.367094,47.580051],[-122.367011,47.580047],[-122.367011,47.579725],[-122.366966,47.579691],[-122.366882,47.579685],[-122.366888,47.579236],[-122.366971,47.579233],[-122.367015,47.579204],[-122.367025,47.578877],[-122.367135,47.578862],[-122.367159,47.578788],[-122.367425,47.578789],[-122.367411,47.58],[-122.367452,47.580043],[-122.367543,47.58005]]]}},{"type":"Feature","properties":{"id":9,"area_m2":5800,"px":58,"rank":3},"geometry":{"type":"Polygon","coordinates":[[[-122.364194,47.582011],[-122.364177,47.58345],[-122.363911,47.583449],[-122.363888,47.583375],[-122.363779,47.583358],[-122.363767,47.583202],[-122.363648,47.583177],[-122.363652,47.582908],[-122.363688,47.582865],[-122.363653,47.582816],[-122.363658,47.582369],[-122.363694,47.582326],[-122.363659,47.582278],[-122.363661,47.582098],[-122.363771,47.582083],[-122.363795,47.582009],[-122.363915,47.581985],[-122.36393,47.581919],[-122.364062,47.58192],[-122.364085,47.581994],[-122.364194,47.582011]]]}},{"type":"Feature","properties":{"id":44,"area_m2":5800,"px":58,"rank":4},"geometry":{"type":"Polygon","coordinates":[[[-122.361968,47.579209],[-122.361966,47.579299],[-122.361876,47.579305],[-122.361833,47.579347],[-122.361827,47.579838],[-122.361428,47.579836],[-122.361429,47.579746],[-122.361527,47.579737],[-122.361563,47.579693],[-122.361551,47.579591],[-122.361431,47.579565],[-122.361433,47.579476],[-122.36153,47.579467],[-122.361566,47.579423],[-122.361554,47.579321],[-122.361435,47.579295],[-122.361445,47.578486],[-122.361542,47.578478],[-122.361578,47.578433],[-122.361585,47.577816],[-122.361544,47.577773],[-122.361453,47.577767],[-122.361454,47.577677],[-122.36149,47.577634],[-122.361456,47.577587],[-122.361457,47.577497],[-122.361589,47.577497],[-122.361652,47.577522],[-122.361723,47.577498],[-122.361855,47.577499],[-122.361854,47.577589],[-122.361739,47.577608],[-122.361699,47.577712],[-122.36174,47.577762],[-122.361852,47.577769],[-122.361851,47.577859],[-122.361731,47.577882],[-122.361717,47.577989],[-122.361758,47.578032],[-122.361849,47.578039],[-122.361847,47.578219],[-122.36181,47.578266],[-122.361846,47.57831],[-122.36184,47.578757],[-122.361804,47.578801],[-122.361839,47.578849],[-122.361836,47.57916],[-122.361877,47.579202],[-122.361968,47.579209]]]}},{"type":"Feature","properties":{"id":1,"area_m2":5400,"px":54,"rank":5},"geometry":{"type":"Polygon","coordinates":[[[-122.368571,47.583025],[-122.368567,47.583295],[-122.368477,47.583301],[-122.368434,47.583343],[-122.368425,47.584104],[-122.368292,47.584103],[-122.368284,47.583951],[-122.368237,47.583925],[-122.368161,47.583922],[-122.368169,47.583156],[-122.368128,47.583119],[-122.368038,47.583112],[-122.368031,47.58287],[-122.367984,47.582844],[-122.367908,47.582841],[-122.367916,47.582211],[-122.368048,47.582212],[-122.368053,47.582282],[-122.368109,47.582315],[-122.368446,47.582304],[-122.368439,47.582975],[-122.36848,47.583018],[-122.368571,47.583025]]]}},{"type":"Feature","properties":{"id":24,"area_m2":5100,"px":51,"rank":6},"geometry":{"type":"Polygon","coordinates":[[[-122.364201,47.581202],[-122.364168,47.581248],[-122.364203,47.581292],[-122.364196,47.581831],[-122.363931,47.581829],[-122.363908,47.581755],[-122.363799,47.581739],[-122.363764,47.581658],[-122.363667,47.581648],[-122.36368,47.580568],[-122.364079,47.580571],[-122.364101,47.580645],[-122.364211,47.580661],[-122.364201,47.581202]]]}},{"type":"Feature","properties":{"id":35,"area_m2":5000,"px":50,"rank":7},"geometry":{"type":"Polygon","coordinates":[[[-122.365438,47.578149],[-122.365437,47.578239],[-122.365339,47.578247],[-122.365303,47.578292],[-122.365286,47.579719],[-122.365328,47.579761],[-122.365418,47.579768],[-122.365417,47.579858],[-122.365326,47.579864],[-122.365284,47.579906],[-122.365277,47.580487],[-122.365144,47.580486],[-122.365143,47.580255],[-122.365098,47.58022],[-122.365014,47.580214],[-122.365037,47.578326],[-122.365121,47.578323],[-122.365167,47.578289],[-122.365173,47.578057],[-122.365306,47.578058],[-122.365328,47.578132],[-122.365438,47.578149]]]}},{"type":"Feature","properties":{"id":37,"area_m2":4700,"px":47,"rank":8},"geometry":{"type":"Polygon","coordinates":[[[-122.364219,47.579763],[-122.364185,47.579809],[-122.36422,47.579851],[-122.364219,47.579941],[-122.3641,47.579965],[-122.364085,47.580067],[-122.36412,47.580112],[-122.364217,47.580121],[-122.364215,47.580301],[-122.364105,47.580317],[-122.364081,47.58039],[-122.363815,47.580389],[-122.363793,47.580315],[-122.363683,47.580298],[-122.363697,47.579129],[-122.363916,47.579139],[-122.36396,47.579105],[-122.363964,47.57904],[-122.364097,47.579041],[-122.364093,47.579442],[-122.364134,47.579485],[-122.364225,47.579492],[-122.364219,47.579763]]]}},{"type":"Feature","properties":{"id":3,"area_m2":3200,"px":32,"rank":9},"geometry":{"type":"Polygon","coordinates":[[[-122.365503,47.583728],[-122.3655,47.583998],[-122.365234,47.583996],[-122.365212,47.583922],[-122.365102,47.583905],[-122.365111,47.583144],[-122.36507,47.583102],[-122.364979,47.583094],[-122.36498,47.583005],[-122.365016,47.582963],[-122.364981,47.582915],[-122.364982,47.582825],[-122.365073,47.582819],[-122.365116,47.582777],[-122.36512,47.582466],[-122.365386,47.582467],[-122.365385,47.582557],[-122.365294,47.582563],[-122.365251,47.582605],[-122.365263,47.582713],[-122.365382,47.582737],[-122.36538,47.582917],[-122.365344,47.582959],[-122.365379,47.583008],[-122.365373,47.583546],[-122.365253,47.58357],[-122.365238,47.583691],[-122.365299,47.583739],[-122.365503,47.583728]]]}},{"type":"Feature","properties":{"id":21,"area_m2":3000,"px":30,"rank":10},"geometry":{"type":"Polygon","coordinates":[[[-122.368075,47.579963],[-122.368051,47.582031],[-122.36792,47.582031],[-122.367917,47.5818],[-122.367872,47.581765],[-122.367788,47.581759],[-122.36779,47.581581],[-122.367881,47.581575],[-122.367923,47.581533],[-122.367912,47.581425],[-122.367792,47.581401],[-122.367793,47.581311],[-122.36783,47.581269],[-122.367795,47.581221],[-122.367796,47.581131],[-122.367893,47.581122],[-122.367929,47.581078],[-122.367917,47.580976],[-122.367798,47.580951],[-122.367799,47.580861],[-122.367919,47.580838],[-122.367933,47.580736],[-122.367898,47.580691],[-122.367801,47.580681],[-122.367802,47.580592],[-122.367886,47.580587],[-122.367932,47.580553],[-122.367939,47.580286],[-122.367904,47.580241],[-122.367806,47.580231],[-122.367807,47.580143],[-122.367884,47.580139],[-122.367931,47.580113],[-122.367943,47.579962],[-122.368075,47.579963]]]}},{"type":"Feature","properties":{"id":45,"area_m2":2700,"px":27,"rank":11},"geometry":{"type":"Polygon","coordinates":[[[-122.368498,47.577986],[-122.368497,47.578075],[-122.3684,47.578084],[-122.368364,47.578129],[-122.368354,47.578926],[-122.368396,47.578968],[-122.368486,47.578975],[-122.368479,47.579605],[-122.368369,47.57962],[-122.368345,47.579694],[-122.368212,47.579693],[-122.368232,47.577984],[-122.368498,47.577986]]]}},{"type":"Feature","properties":{"id":19,"area_m2":2500,"px":25,"rank":12},"geometry":{"type":"Polygon","coordinates":[[[-122.364724,47.581925],[-122.364691,47.581971],[-122.364726,47.582014],[-122.364724,47.582194],[-122.364458,47.582192],[-122.364475,47.580843],[-122.36474,47.580844],[-122.364737,47.581114],[-122.36464,47.581123],[-122.364603,47.581167],[-122.364616,47.581269],[-122.364735,47.581294],[-122.364732,47.581564],[-122.364634,47.581572],[-122.364598,47.581617],[-122.36461,47.581719],[-122.364729,47.581744],[-122.364724,47.581925]]]}},{"type":"Feature","properties":{"id":62,"area_m2":2500,"px":25,"rank":13},"geometry":{"type":"Polygon","coordinates":[[[-122.361882,47.57534],[-122.361879,47.575519],[-122.361782,47.575528],[-122.361746,47.575573],[-122.361758,47.575675],[-122.361877,47.575699],[-122.361875,47.575879],[-122.36176,47.575898],[-122.36172,47.576003],[-122.361761,47.576052],[-122.361873,47.576059],[-122.361872,47.576149],[-122.361762,47.576164],[-122.361738,47.576238],[-122.361605,47.576238],[-122.361582,47.576163],[-122.361473,47.576146],[-122.361475,47.575967],[-122.361573,47.575959],[-122.361609,47.575914],[-122.361597,47.575812],[-122.361477,47.575787],[-122.36148,47.575607],[-122.361577,47.575599],[-122.361613,47.575554],[-122.361601,47.575452],[-122.361482,47.575427],[-122.361483,47.575337],[-122.36158,47.575329],[-122.361616,47.575284],[-122.361615,47.575106],[-122.36157,47.575072],[-122.361486,47.575067],[-122.361487,47.574977],[-122.361564,47.574976],[-122.361611,47.57495],[-122.361622,47.574798],[-122.361755,47.574799],[-122.361753,47.574979],[-122.361717,47.575026],[-122.361752,47.575069],[-122.361751,47.575295],[-122.361791,47.575333],[-122.361882,47.57534]]]}},{"type":"Feature","properties":{"id":63,"area_m2":2400,"px":24,"rank":14},"geometry":{"type":"Polygon","coordinates":[[[-122.363083,47.574986],[-122.363081,47.575076],[-122.362984,47.575085],[-122.362948,47.575129],[-122.36296,47.575232],[-122.363079,47.575256],[-122.363077,47.575436],[-122.362993,47.57544],[-122.362947,47.575474],[-122.362941,47.575705],[-122.362831,47.575721],[-122.362807,47.575794],[-122.362674,47.575794],[-122.362686,47.574804],[-122.362952,47.574806],[-122.362959,47.574957],[-122.363006,47.574984],[-122.363083,47.574986]]]}},{"type":"Feature","properties":{"id":2,"area_m2":2000,"px":20,"rank":15},"geometry":{"type":"Polygon","coordinates":[[[-122.366966,47.583736],[-122.366964,47.583916],[-122.366105,47.583911],[-122.366042,47.583939],[-122.36603,47.584001],[-122.365899,47.584],[-122.365894,47.583943],[-122.365844,47.583912],[-122.365634,47.583908],[-122.365637,47.583728],[-122.366565,47.583734],[-122.36663,47.583758],[-122.3667,47.583734],[-122.366966,47.583736]]]}},{"type":"Feature","properties":{"id":22,"area_m2":2000,"px":20,"rank":16},"geometry":{"type":"Polygon","coordinates":[[[-122.365399,47.581388],[-122.365398,47.581478],[-122.3653,47.581486],[-122.365264,47.581531],[-122.365276,47.581633],[-122.365395,47.581658],[-122.365392,47.581927],[-122.365282,47.581943],[-122.365258,47.582017],[-122.365125,47.582016],[-122.365138,47.580895],[-122.365097,47.580852],[-122.365006,47.580844],[-122.365008,47.580756],[-122.365117,47.58074],[-122.365142,47.580666],[-122.365274,47.580667],[-122.365267,47.581338],[-122.365308,47.581381],[-122.365399,47.581388]]]}},{"type":"Feature","properties":{"id":46,"area_m2":2000,"px":20,"rank":17},"geometry":{"type":"Polygon","coordinates":[[[-122.36477,47.578415],[-122.364769,47.578505],[-122.364671,47.578513],[-122.364635,47.578558],[-122.364635,47.578826],[-122.364681,47.57886],[-122.364764,47.578866],[-122.364763,47.578955],[-122.364679,47.578958],[-122.364633,47.578992],[-122.364628,47.579175],[-122.364669,47.579218],[-122.36476,47.579225],[-122.364758,47.579404],[-122.364681,47.579406],[-122.364634,47.579432],[-122.364623,47.579584],[-122.36449,47.579583],[-122.364493,47.579177],[-122.364453,47.579139],[-122.364362,47.579131],[-122.364363,47.579042],[-122.364454,47.579037],[-122.364496,47.578994],[-122.364506,47.578233],[-122.364639,47.578234],[-122.364647,47.578386],[-122.364693,47.578412],[-122.36477,47.578415]]]}},{"type":"Feature","properties":{"id":70,"area_m2":2000,"px":20,"rank":18},"geometry":{"type":"Polygon","coordinates":[[[-122.367091,47.573389],[-122.367089,47.573569],[-122.366887,47.573569],[-122.366829,47.573601],[-122.366821,47.573747],[-122.366785,47.573789],[-122.36682,47.573837],[-122.366816,47.574107],[-122.366684,47.574106],[-122.366676,47.573955],[-122.366629,47.573928],[-122.366553,47.573924],[-122.366555,47.573746],[-122.366646,47.57374],[-122.366688,47.573698],[-122.366676,47.573591],[-122.366557,47.573566],[-122.366559,47.573387],[-122.366656,47.573384],[-122.366708,47.573352],[-122.366695,47.573117],[-122.366961,47.573118],[-122.366962,47.57335],[-122.367007,47.573384],[-122.367091,47.573389]]]}},{"type":"Feature","properties":{"id":7,"area_m2":1900,"px":19,"rank":19},"geometry":{"type":"Polygon","coordinates":[[[-122.3675,47.58338],[-122.367466,47.583426],[-122.367501,47.583469],[-122.3675,47.583559],[-122.367367,47.583558],[-122.367359,47.583497],[-122.367304,47.583469],[-122.36697,47.583466],[-122.366947,47.583392],[-122.366838,47.583375],[-122.366841,47.583105],[-122.367506,47.583109],[-122.3675,47.58338]]]}},{"type":"Feature","properties":{"id":11,"area_m2":1800,"px":18,"rank":20},"geometry":{"type":"Polygon","coordinates":[[[-122.364711,47.583005],[-122.364678,47.583051],[-122.364713,47.583093],[-122.364711,47.583273],[-122.364601,47.583289],[-122.364577,47.583363],[-122.364444,47.583362],[-122.364457,47.582282],[-122.36459,47.582283],[-122.364598,47.582434],[-122.364644,47.582461],[-122.364721,47.582464],[-122.364719,47.582644],[-122.364621,47.582652],[-122.364585,47.582697],[-122.364597,47.582799],[-122.364716,47.582824],[-122.364711,47.583005]]]}},{"type":"Feature","properties":{"id":20,"area_m2":1800,"px":18,"rank":21},"geometry":{"type":"Polygon","coordinates":[[[-122.367523,47.581669],[-122.36752,47.581939],[-122.367289,47.581947],[-122.367253,47.582028],[-122.367133,47.582051],[-122.367119,47.582117],[-122.366853,47.582115],[-122.366856,47.581846],[-122.366932,47.581844],[-122.36698,47.581818],[-122.366991,47.581666],[-122.367523,47.581669]]]}},{"type":"Feature","properties":{"id":17,"area_m2":1700,"px":17,"rank":22},"geometry":{"type":"Polygon","coordinates":[[[-122.362869,47.581644],[-122.362868,47.581733],[-122.362758,47.581749],[-122.362734,47.581823],[-122.362614,47.581846],[-122.3626,47.581912],[-122.362398,47.581912],[-122.362337,47.581949],[-122.362333,47.582042],[-122.362361,47.582078],[-122.362597,47.582092],[-122.362595,47.582272],[-122.362386,47.582273],[-122.362335,47.582304],[-122.362328,47.58236],[-122.362195,47.58236],[-122.362203,47.58173],[-122.36254,47.581744],[-122.362596,47.581712],[-122.362603,47.581642],[-122.362869,47.581644]]]}},{"type":"Feature","properties":{"id":4,"area_m2":1500,"px":15,"rank":23},"geometry":{"type":"Polygon","coordinates":[[[-122.364305,47.583811],[-122.364304,47.583901],[-122.364195,47.583916],[-122.36417,47.58399],[-122.363904,47.583989],[-122.363892,47.583923],[-122.363826,47.583898],[-122.363563,47.583899],[-122.363512,47.58393],[-122.363505,47.583986],[-122.363373,47.583986],[-122.363376,47.583716],[-122.363908,47.583719],[-122.36397,47.583743],[-122.364041,47.58372],[-122.364174,47.58372],[-122.364196,47.583795],[-122.364305,47.583811]]]}},{"type":"Feature","properties":{"id":66,"area_m2":1500,"px":15,"rank":24},"geometry":{"type":"Polygon","coordinates":[[[-122.361898,47.57399],[-122.361897,47.57408],[-122.361799,47.574088],[-122.361763,47.574133],[-122.361767,47.574316],[-122.36181,47.574345],[-122.361894,47.57435],[-122.361891,47.57453],[-122.361815,47.574532],[-122.361768,47.574558],[-122.361756,47.574709],[-122.361491,47.574707],[-122.361492,47.574618],[-122.361589,47.574609],[-122.361625,47.574564],[-122.361613,47.574462],[-122.361494,47.574438],[-122.361496,47.574258],[-122.361594,47.574249],[-122.36163,47.574204],[-122.361617,47.574102],[-122.361498,47.574078],[-122.3615,47.573898],[-122.361633,47.573899],[-122.361638,47.573969],[-122.361687,47.574],[-122.361898,47.57399]]]}},{"type":"Feature","properties":{"id":25,"area_m2":1300,"px":13,"rank":25},"geometry":{"type":"Polygon","coordinates":[[[-122.367531,47.58104],[-122.367527,47.581309],[-122.367262,47.581308],[-122.367253,47.581246],[-122.367198,47.581219],[-122.366864,47.581216],[-122.366865,47.581126],[-122.366975,47.581111],[-122.367033,47.581005],[-122.367,47.580947],[-122.367001,47.580857],[-122.367134,47.580857],[-122.367147,47.580923],[-122.367266,47.580948],[-122.367269,47.581],[-122.367307,47.581032],[-122.367531,47.58104]]]}},{"type":"Feature","properties":{"id":29,"area_m2":1200,"px":12,"rank":26},"geometry":{"type":"Polygon","coordinates":[[[-122.361945,47.581099],[-122.361943,47.581188],[-122.361678,47.581187],[-122.361615,47.581163],[-122.361545,47.581186],[-122.361412,47.581185],[-122.361413,47.581096],[-122.361449,47.581053],[-122.361414,47.581006],[-122.361415,47.580916],[-122.361535,47.580892],[-122.36155,47.580736],[-122.36166,47.580721],[-122.361684,47.580647],[-122.361817,47.580648],[-122.361816,47.580738],[-122.36178,47.580785],[-122.361815,47.580828],[-122.361814,47.581054],[-122.361854,47.581092],[-122.361945,47.581099]]]}},{"type":"Feature","properties":{"id":52,"area_m2":1200,"px":12,"rank":27},"geometry":{"type":"Polygon","coordinates":[[[-122.364236,47.578592],[-122.364235,47.578682],[-122.364151,47.578685],[-122.364105,47.578719],[-122.364099,47.578861],[-122.363701,47.578859],[-122.363704,47.578589],[-122.363814,47.578574],[-122.363838,47.5785],[-122.364104,47.578501],[-122.364126,47.578575],[-122.364236,47.578592]]]}},{"type":"Feature","properties":{"id":27,"area_m2":1100,"px":11,"rank":28},"geometry":{"type":"Polygon","coordinates":[[[-122.368468,47.580505],[-122.368467,47.580595],[-122.368369,47.580603],[-122.368333,47.580648],[-122.368346,47.58075],[-122.368465,47.580775],[-122.368464,47.580865],[-122.368373,47.580871],[-122.368332,47.580907],[-122.368326,47.581224],[-122.368193,47.581223],[-122.368203,47.580413],[-122.368336,47.580414],[-122.368359,47.580488],[-122.368468,47.580505]]]}},{"type":"Feature","properties":{"id":10,"area_m2":1000,"px":10,"rank":29},"geometry":{"type":"Polygon","coordinates":[[[-122.363518,47.582907],[-122.363512,47.583447],[-122.363246,47.583445],[-122.363249,47.583175],[-122.363285,47.583133],[-122.36325,47.583085],[-122.363252,47.582995],[-122.363361,47.58298],[-122.363386,47.582906],[-122.363518,47.582907]]]}},{"type":"Feature","properties":{"id":42,"area_m2":1000,"px":10,"rank":30},"geometry":{"type":"Polygon","coordinates":[[[-122.363026,47.579665],[-122.363021,47.580025],[-122.362945,47.580027],[-122.362898,47.580053],[-122.362886,47.580204],[-122.362754,47.580203],[-122.36276,47.579663],[-122.363026,47.579665]]]}},{"type":"Feature","properties":{"id":13,"area_m2":900,"px":9,"rank":31},"geometry":{"type":"Polygon","coordinates":[[[-122.362987,47.582635],[-122.362954,47.582681],[-122.362989,47.582724],[-122.362985,47.582994],[-122.362853,47.582993],[-122.36283,47.582919],[-122.362721,47.582901],[-122.362724,47.582633],[-122.362808,47.582629],[-122.362854,47.582595],[-122.36286,47.582363],[-122.362993,47.582364],[-122.362987,47.582635]]]}},{"type":"Feature","properties":{"id":26,"area_m2":900,"px":9,"rank":32},"geometry":{"type":"Polygon","coordinates":[[[-122.365936,47.580941],[-122.365932,47.581301],[-122.365799,47.5813],[-122.365776,47.581226],[-122.365667,47.581209],[-122.365632,47.581128],[-122.365535,47.581118],[-122.365537,47.580939],[-122.365936,47.580941]]]}},{"type":"Feature","properties":{"id":34,"area_m2":900,"px":9,"rank":33},"geometry":{"type":"Polygon","coordinates":[[[-122.366474,47.580404],[-122.366473,47.580494],[-122.36625,47.580499],[-122.36621,47.580531],[-122.366206,47.580582],[-122.365941,47.580581],[-122.365942,47.580491],[-122.366032,47.580485],[-122.366073,47.580448],[-122.366078,47.580222],[-122.366344,47.580223],[-122.366351,47.580375],[-122.366398,47.580401],[-122.366474,47.580404]]]}},{"type":"Feature","properties":{"id":43,"area_m2":900,"px":9,"rank":34},"geometry":{"type":"Polygon","coordinates":[[[-122.36648,47.579954],[-122.366478,47.580134],[-122.366212,47.580132],[-122.366189,47.580058],[-122.36608,47.580042],[-122.366082,47.579862],[-122.366158,47.57986],[-122.366206,47.579834],[-122.366217,47.579683],[-122.36635,47.579683],[-122.366351,47.579915],[-122.366396,47.579949],[-122.36648,47.579954]]]}},{"type":"Feature","properties":{"id":55,"area_m2":900,"px":9,"rank":35},"geometry":{"type":"Polygon","coordinates":[[[-122.363041,47.578137],[-122.363008,47.578183],[-122.363043,47.578225],[-122.36304,47.578495],[-122.362774,47.578494],[-122.36278,47.578044],[-122.363045,47.578045],[-122.363041,47.578137]]]}},{"type":"Feature","properties":{"id":54,"area_m2":900,"px":9,"rank":36},"geometry":{"type":"Polygon","coordinates":[[[-122.363573,47.578408],[-122.363572,47.578498],[-122.363306,47.578497],[-122.363305,47.578265],[-122.36326,47.578231],[-122.363176,47.578225],[-122.363179,47.578046],[-122.363288,47.578031],[-122.363313,47.577957],[-122.363445,47.577958],[-122.363442,47.578364],[-122.363482,47.578401],[-122.363573,47.578408]]]}},{"type":"Feature","properties":{"id":12,"area_m2":800,"px":8,"rank":37},"geometry":{"type":"Polygon","coordinates":[[[-122.362589,47.582812],[-122.362585,47.583082],[-122.362453,47.583081],[-122.362447,47.583024],[-122.362397,47.582993],[-122.362188,47.582989],[-122.36219,47.58281],[-122.3623,47.582794],[-122.362324,47.58272],[-122.362457,47.582721],[-122.362479,47.582795],[-122.362589,47.582812]]]}},{"type":"Feature","properties":{"id":38,"area_m2":800,"px":8,"rank":38},"geometry":{"type":"Polygon","coordinates":[[[-122.368473,47.580055],[-122.368471,47.580235],[-122.368361,47.58025],[-122.368337,47.580324],[-122.368204,47.580323],[-122.368211,47.579784],[-122.368344,47.579784],[-122.368344,47.580016],[-122.36839,47.58005],[-122.368473,47.580055]]]}},{"type":"Feature","properties":{"id":49,"area_m2":800,"px":8,"rank":39},"geometry":{"type":"Polygon","coordinates":[[[-122.368091,47.578703],[-122.36809,47.578793],[-122.367992,47.578802],[-122.367956,47.578846],[-122.367968,47.578948],[-122.368087,47.578973],[-122.368085,47.579153],[-122.367976,47.579168],[-122.367951,47.579242],[-122.367818,47.579241],[-122.367824,47.578792],[-122.367934,47.578776],[-122.367958,47.578702],[-122.368091,47.578703]]]}},{"type":"Feature","properties":{"id":51,"area_m2":800,"px":8,"rank":40},"geometry":{"type":"Polygon","coordinates":[[[-122.363038,47.578675],[-122.363035,47.578945],[-122.362925,47.57896],[-122.3629,47.579034],[-122.362768,47.579034],[-122.362773,47.578584],[-122.362906,47.578585],[-122.362929,47.578659],[-122.363038,47.578675]]]}},{"type":"Feature","properties":{"id":18,"area_m2":700,"px":7,"rank":41},"geometry":{"type":"Polygon","coordinates":[[[-122.365925,47.58184],[-122.36592,47.58229],[-122.365787,47.582289],[-122.365779,47.582138],[-122.365732,47.582112],[-122.365656,47.582109],[-122.365658,47.581929],[-122.365768,47.581914],[-122.365792,47.58184],[-122.365925,47.58184]]]}},{"type":"Feature","properties":{"id":56,"area_m2":700,"px":7,"rank":42},"geometry":{"type":"Polygon","coordinates":[[[-122.3681,47.577893],[-122.368097,47.578163],[-122.367987,47.578178],[-122.367963,47.578252],[-122.36783,47.578252],[-122.367835,47.577892],[-122.3681,47.577893]]]}},{"type":"Feature","properties":{"id":57,"area_m2":700,"px":7,"rank":43},"geometry":{"type":"Polygon","coordinates":[[[-122.363053,47.577416],[-122.363052,47.577505],[-122.362968,47.577509],[-122.362922,47.577543],[-122.362917,47.577685],[-122.362784,47.577684],[-122.362776,47.577533],[-122.36273,47.577506],[-122.362653,47.577503],[-122.362655,47.577323],[-122.362921,47.577325],[-122.362944,47.577399],[-122.363053,47.577416]]]}},{"type":"Feature","properties":{"id":61,"area_m2":700,"px":7,"rank":44},"geometry":{"type":"Polygon","coordinates":[[[-122.366394,47.576084],[-122.366392,47.576174],[-122.366283,47.57619],[-122.366258,47.576264],[-122.366126,47.576263],[-122.36612,47.576206],[-122.36607,47.576175],[-122.365861,47.576171],[-122.365862,47.576081],[-122.365972,47.576066],[-122.365996,47.575992],[-122.366262,47.575994],[-122.366284,47.576068],[-122.366394,47.576084]]]}},{"type":"Feature","properties":{"id":6,"area_m2":600,"px":6,"rank":45},"geometry":{"type":"Polygon","coordinates":[[[-122.364971,47.583725],[-122.36497,47.583815],[-122.364861,47.58383],[-122.364836,47.583904],[-122.36457,47.583902],[-122.364573,47.583723],[-122.364682,47.583707],[-122.364707,47.583633],[-122.36484,47.583634],[-122.364862,47.583708],[-122.364971,47.583725]]]}},{"type":"Feature","properties":{"id":41,"area_m2":600,"px":6,"rank":46},"geometry":{"type":"Polygon","coordinates":[[[-122.364751,47.579944],[-122.364748,47.580214],[-122.364482,47.580213],[-122.364485,47.579943],[-122.364751,47.579944]]]}},{"type":"Feature","properties":{"id":69,"area_m2":600,"px":6,"rank":47},"geometry":{"type":"Polygon","coordinates":[[[-122.364155,47.574272],[-122.364154,47.574362],[-122.363755,47.57436],[-122.36375,47.574303],[-122.3637,47.574272],[-122.363357,47.574268],[-122.363358,47.574178],[-122.363757,47.57418],[-122.363763,47.574237],[-122.363813,47.574268],[-122.364155,47.574272]]]}},{"type":"Feature","properties":{"id":23,"area_m2":500,"px":5,"rank":48},"geometry":{"type":"Polygon","coordinates":[[[-122.366328,47.581483],[-122.366323,47.581933],[-122.36619,47.581932],[-122.366196,47.581482],[-122.366328,47.581483]]]}},{"type":"Feature","properties":{"id":28,"area_m2":500,"px":5,"rank":49},"geometry":{"type":"Polygon","coordinates":[[[-122.363541,47.581017],[-122.363539,47.581197],[-122.363273,47.581196],[-122.363277,47.580926],[-122.363409,47.580927],[-122.363432,47.581001],[-122.363541,47.581017]]]}},{"type":"Feature","properties":{"id":60,"area_m2":500,"px":5,"rank":50},"geometry":{"type":"Polygon","coordinates":[[[-122.363066,47.576336],[-122.363065,47.576426],[-122.362955,47.576441],[-122.362931,47.576515],[-122.362798,47.576514],[-122.362776,47.57644],[-122.362666,47.576424],[-122.362667,47.576334],[-122.362777,47.576318],[-122.362802,47.576244],[-122.362934,47.576245],[-122.362957,47.576319],[-122.363066,47.576336]]]}},{"type":"Feature","properties":{"id":67,"area_m2":500,"px":5,"rank":51},"geometry":{"type":"Polygon","coordinates":[[[-122.365752,47.574191],[-122.365749,47.574371],[-122.365617,47.57437],[-122.365594,47.574296],[-122.365485,47.57428],[-122.365472,47.574214],[-122.365353,47.574189],[-122.365325,47.574111],[-122.365221,47.574098],[-122.365222,47.574008],[-122.365355,47.574009],[-122.365368,47.574075],[-122.365487,47.5741],[-122.36549,47.574151],[-122.365528,47.574184],[-122.365752,47.574191]]]}},{"type":"Feature","properties":{"id":16,"area_m2":400,"px":4,"rank":52},"geometry":{"type":"Polygon","coordinates":[[[-122.36539,47.582107],[-122.365389,47.582197],[-122.365305,47.582201],[-122.365259,47.582235],[-122.365254,47.582377],[-122.365121,47.582376],[-122.365124,47.582106],[-122.36539,47.582107]]]}},{"type":"Feature","properties":{"id":31,"area_m2":400,"px":4,"rank":53},"geometry":{"type":"Polygon","coordinates":[[[-122.363012,47.580835],[-122.363009,47.581014],[-122.362744,47.581013],[-122.362746,47.580833],[-122.363012,47.580835]]]}},{"type":"Feature","properties":{"id":33,"area_m2":400,"px":4,"rank":54},"geometry":{"type":"Polygon","coordinates":[[[-122.361687,47.580377],[-122.361686,47.580467],[-122.361603,47.580471],[-122.361556,47.580505],[-122.361551,47.580646],[-122.361418,47.580646],[-122.361422,47.580376],[-122.361687,47.580377]]]}},{"type":"Feature","properties":{"id":36,"area_m2":400,"px":4,"rank":55},"geometry":{"type":"Polygon","coordinates":[[[-122.364747,47.580304],[-122.364745,47.580484],[-122.364479,47.580483],[-122.364481,47.580303],[-122.364747,47.580304]]]}},{"type":"Feature","properties":{"id":40,"area_m2":400,"px":4,"rank":56},"geometry":{"type":"Polygon","coordinates":[[[-122.361955,47.580199],[-122.361954,47.580289],[-122.361423,47.580286],[-122.361424,47.580196],[-122.361955,47.580199]]]}},{"type":"Feature","properties":{"id":39,"area_m2":400,"px":4,"rank":57},"geometry":{"type":"Polygon","coordinates":[[[-122.363552,47.580118],[-122.36355,47.580298],[-122.363284,47.580296],[-122.363286,47.580116],[-122.363552,47.580118]]]}},{"type":"Feature","properties":{"id":48,"area_m2":400,"px":4,"rank":58},"geometry":{"type":"Polygon","coordinates":[[[-122.366357,47.579144],[-122.366354,47.579323],[-122.366089,47.579322],[-122.366091,47.579142],[-122.366357,47.579144]]]}},{"type":"Feature","properties":{"id":53,"area_m2":400,"px":4,"rank":59},"geometry":{"type":"Polygon","coordinates":[[[-122.366362,47.578694],[-122.366361,47.578783],[-122.366095,47.578782],[-122.366098,47.578512],[-122.366231,47.578513],[-122.366239,47.578664],[-122.366286,47.578691],[-122.366362,47.578694]]]}},{"type":"Feature","properties":{"id":72,"area_m2":400,"px":4,"rank":60},"geometry":{"type":"Polygon","coordinates":[[[-122.362706,47.573185],[-122.362704,47.573275],[-122.362306,47.573272],[-122.362307,47.573182],[-122.362417,47.573167],[-122.362441,47.573093],[-122.362574,47.573094],[-122.362596,47.573168],[-122.362706,47.573185]]]}},{"type":"Feature","properties":{"id":5,"area_m2":300,"px":3,"rank":61},"geometry":{"type":"Polygon","coordinates":[[[-122.367499,47.583649],[-122.367496,47.583919],[-122.367363,47.583918],[-122.367366,47.583648],[-122.367499,47.583649]]]}},{"type":"Feature","properties":{"id":8,"area_m2":300,"px":3,"rank":62},"geometry":{"type":"Polygon","coordinates":[[[-122.365906,47.58346],[-122.365904,47.58355],[-122.365639,47.583548],[-122.365641,47.583369],[-122.365774,47.583369],[-122.365796,47.583444],[-122.365906,47.58346]]]}},{"type":"Feature","properties":{"id":15,"area_m2":300,"px":3,"rank":63},"geometry":{"type":"Polygon","coordinates":[[[-122.363522,47.582637],[-122.36352,47.582817],[-122.363254,47.582815],[-122.363255,47.582725],[-122.363365,47.58271],[-122.363389,47.582636],[-122.363522,47.582637]]]}},{"type":"Feature","properties":{"id":30,"area_m2":300,"px":3,"rank":64},"geometry":{"type":"Polygon","coordinates":[[[-122.366337,47.580763],[-122.366334,47.581033],[-122.366201,47.581032],[-122.366204,47.580762],[-122.366337,47.580763]]]}},{"type":"Feature","properties":{"id":47,"area_m2":300,"px":3,"rank":65},"geometry":{"type":"Polygon","coordinates":[[[-122.368083,47.579333],[-122.368081,47.579513],[-122.367815,47.579511],[-122.367816,47.579421],[-122.367926,47.579406],[-122.36795,47.579332],[-122.368083,47.579333]]]}},{"type":"Feature","properties":{"id":50,"area_m2":300,"px":3,"rank":66},"geometry":{"type":"Polygon","coordinates":[[[-122.363568,47.578858],[-122.363566,47.578948],[-122.363457,47.578963],[-122.363432,47.579037],[-122.3633,47.579036],[-122.363302,47.578857],[-122.363568,47.578858]]]}},{"type":"Feature","properties":{"id":58,"area_m2":300,"px":3,"rank":67},"geometry":{"type":"Polygon","coordinates":[[[-122.361728,47.577048],[-122.361726,47.577228],[-122.361593,47.577227],[-122.36157,47.577153],[-122.361461,47.577137],[-122.361462,47.577047],[-122.361728,47.577048]]]}},{"type":"Feature","properties":{"id":59,"area_m2":300,"px":3,"rank":68},"geometry":{"type":"Polygon","coordinates":[[[-122.362528,47.576873],[-122.362527,47.576963],[-122.362261,47.576961],[-122.362263,47.576781],[-122.362396,47.576782],[-122.362418,47.576856],[-122.362528,47.576873]]]}},{"type":"Feature","properties":{"id":64,"area_m2":300,"px":3,"rank":69},"geometry":{"type":"Polygon","coordinates":[[[-122.36654,47.575005],[-122.366538,47.575095],[-122.366273,47.575094],[-122.366275,47.574914],[-122.366408,47.574915],[-122.36643,47.574989],[-122.36654,47.575005]]]}},{"type":"Feature","properties":{"id":65,"area_m2":300,"px":3,"rank":70},"geometry":{"type":"Polygon","coordinates":[[[-122.36242,47.574803],[-122.362418,47.574983],[-122.362285,47.574982],[-122.362262,47.574908],[-122.362153,47.574891],[-122.362154,47.574801],[-122.36242,47.574803]]]}},{"type":"Feature","properties":{"id":68,"area_m2":300,"px":3,"rank":71},"geometry":{"type":"Polygon","coordinates":[[[-122.364953,47.574277],[-122.364952,47.574367],[-122.364686,47.574365],[-122.364688,47.574185],[-122.364821,47.574186],[-122.364843,47.57426],[-122.364953,47.574277]]]}},{"type":"Feature","properties":{"id":71,"area_m2":300,"px":3,"rank":72},"geometry":{"type":"Polygon","coordinates":[[[-122.361768,47.573719],[-122.361767,47.573809],[-122.361501,47.573808],[-122.361504,47.573628],[-122.361636,47.573629],[-122.361659,47.573703],[-122.361768,47.573719]]]}}]}