{"type":"FeatureCollection","features":[{"type":"Feature","properties":{"id":14,"area_m2":5000,"px":50,"rank":1},"geometry":{"type":"Polygon","coordinates":[[[-122.36408,47.580481],[-122.364071,47.5812],[-122.363974,47.581209],[-122.363938,47.581254],[-122.36395,47.581356],[-122.364069,47.58138],[-122.364059,47.58219],[-122.363793,47.582188],[-122.363786,47.582037],[-122.363739,47.582011],[-122.363663,47.582008],[-122.36367,47.581378],[-122.363768,47.581369],[-122.363804,47.581325],[-122.363791,47.581223],[-122.363672,47.581198],[-122.36368,47.580568],[-122.36379,47.580553],[-122.363814,47.580479],[-122.36408,47.580481]]]}},{"type":"Feature","properties":{"id":34,"area_m2":4600,"px":46,"rank":2},"geometry":{"type":"Polygon","coordinates":[[[-122.368892,47.578169],[-122.368859,47.578215],[-122.368894,47.578258],[-122.368891,47.578528],[-122.368771,47.578551],[-122.368756,47.578653],[-122.368791,47.578698],[-122.368888,47.578708],[-122.368886,47.578887],[-122.368621,47.578886],[-122.368627,47.578347],[-122.368663,47.578304],[-122.368628,47.578255],[-122.36863,47.578076],[-122.368666,47.578034],[-122.368631,47.577986],[-122.368634,47.577806],[-122.368731,47.577798],[-122.368767,47.577753],[-122.368755,47.577651],[-122.368636,47.577626],[-122.368655,47.576007],[-122.368921,47.576008],[-122.36892,47.576098],[-122.368822,47.576107],[-122.368786,47.576152],[-122.36879,47.576334],[-122.368833,47.576364],[-122.368917,47.57637],[-122.368915,47.576458],[-122.368818,47.576467],[-122.368782,47.576511],[-122.368794,47.576613],[-122.368913,47.576638],[-122.368912,47.576728],[-122.368815,47.576737],[-122.368779,47.576781],[-122.368775,47.577224],[-122.368815,47.577261],[-122.368906,47.577268],[-122.368892,47.578169]]]}},{"type":"Feature","properties":{"id":29,"area_m2":3400,"px":34,"rank":3},"geometry":{"type":"Polygon","coordinates":[[[-122.364775,47.577965],[-122.364771,47.578325],[-122.36468,47.578331],[-122.364638,47.578373],[-122.364632,47.57881],[-122.364667,47.578855],[-122.364764,47.578865],[-122.364752,47.579853],[-122.364621,47.579854],[-122.364597,47.579779],[-122.364488,47.579762],[-122.364506,47.578235],[-122.364542,47.578191],[-122.364507,47.578143],[-122.364509,47.577965],[-122.364775,47.577965]]]}},{"type":"Feature","properties":{"id":21,"area_m2":3200,"px":32,"rank":4},"geometry":{"type":"Polygon","coordinates":[[[-122.367398,47.581039],[-122.367395,47.581219],[-122.367319,47.581221],[-122.367272,47.581247],[-122.36726,47.581398],[-122.367051,47.581399],[-122.367,47.58143],[-122.366993,47.581486],[-122.36686,47.581486],[-122.366849,47.58133],[-122.36673,47.581305],[-122.366695,47.581224],[-122.366598,47.581214],[-122.366599,47.581124],[-122.366824,47.581132],[-122.366862,47.581101],[-122.366866,47.581036],[-122.366957,47.58103],[-122.366999,47.580988],[-122.366999,47.5809],[-122.366965,47.580866],[-122.366735,47.580855],[-122.366736,47.580765],[-122.366772,47.580723],[-122.366737,47.580675],[-122.366738,47.580585],[-122.367073,47.580586],[-122.367128,47.580559],[-122.367138,47.580498],[-122.367271,47.580498],[-122.367267,47.580995],[-122.367307,47.581032],[-122.367398,47.581039]]]}},{"type":"Feature","properties":{"id":33,"area_m2":3100,"px":31,"rank":5},"geometry":{"type":"Polygon","coordinates":[[[-122.364102,47.578413],[-122.364069,47.578459],[-122.364104,47.578502],[-122.364094,47.579311],[-122.363984,47.579326],[-122.36396,47.5794],[-122.363827,47.579399],[-122.363834,47.578818],[-122.363792,47.578776],[-122.363702,47.578768],[-122.363705,47.578499],[-122.363803,47.57849],[-122.363839,47.578446],[-122.36384,47.578183],[-122.3638,47.578146],[-122.363709,47.578139],[-122.36371,47.578049],[-122.36382,47.578034],[-122.363845,47.57796],[-122.363977,47.577961],[-122.364,47.578035],[-122.364109,47.578051],[-122.364108,47.578141],[-122.364011,47.57815],[-122.363975,47.578194],[-122.363987,47.578297],[-122.364106,47.578321],[-122.364102,47.578413]]]}},{"type":"Feature","properties":{"id":2,"area_m2":2400,"px":24,"rank":6},"geometry":{"type":"Polygon","coordinates":[[[-122.366169,47.583641],[-122.366168,47.583731],[-122.366059,47.583747],[-122.366034,47.583821],[-122.365768,47.583819],[-122.365698,47.583795],[-122.365635,47.583818],[-122.365434,47.583818],[-122.365378,47.583845],[-122.365368,47.583907],[-122.365235,47.583906],[-122.36523,47.583849],[-122.36518,47.583818],[-122.364915,47.583801],[-122.364846,47.583829],[-122.364836,47.583904],[-122.36457,47.583902],[-122.364563,47.583751],[-122.364516,47.583725],[-122.36444,47.583722],[-122.364441,47.583632],[-122.365503,47.583638],[-122.365567,47.583662],[-122.365638,47.583638],[-122.366169,47.583641]]]}},{"type":"Feature","properties":{"id":32,"area_m2":2300,"px":23,"rank":7},"geometry":{"type":"Polygon","coordinates":[[[-122.367426,47.5787],[-122.367425,47.578789],[-122.367334,47.578795],[-122.367292,47.578837],[-122.367284,47.579418],[-122.367018,47.579417],[-122.367002,47.579257],[-122.366949,47.579237],[-122.366755,47.579236],[-122.366732,47.579161],[-122.366623,47.579145],[-122.366624,47.579055],[-122.366721,47.579046],[-122.366758,47.578966],[-122.366878,47.578942],[-122.366893,47.578787],[-122.367112,47.57881],[-122.367269,47.578773],[-122.367293,47.578699],[-122.367426,47.5787]]]}},{"type":"Feature","properties":{"id":13,"area_m2":2000,"px":20,"rank":8},"geometry":{"type":"Polygon","coordinates":[[[-122.364735,47.581294],[-122.364724,47.582194],[-122.364458,47.582192],[-122.364469,47.581293],[-122.364735,47.581294]]]}},{"type":"Feature","properties":{"id":24,"area_m2":1900,"px":19,"rank":9},"geometry":{"type":"Polygon","coordinates":[[[-122.36741,47.580049],[-122.367408,47.580139],[-122.367318,47.580145],[-122.367277,47.580182],[-122.367272,47.580408],[-122.367139,47.580407],[-122.367127,47.580341],[-122.367008,47.580317],[-122.367005,47.580265],[-122.366966,47.580233],[-122.366743,47.580225],[-122.366746,47.579955],[-122.366856,47.57994],[-122.36688,47.579866],[-122.367279,47.579868],[-122.367286,47.58002],[-122.367333,47.580046],[-122.36741,47.580049]]]}},{"type":"Feature","properties":{"id":41,"area_m2":1900,"px":19,"rank":10},"geometry":{"type":"Polygon","coordinates":[[[-122.36893,47.575289],[-122.368928,47.575378],[-122.368831,47.575387],[-122.368795,47.575432],[-122.368796,47.575609],[-122.368842,47.575644],[-122.368925,47.575648],[-122.368924,47.575738],[-122.368848,47.57574],[-122.3688,47.575766],[-122.368789,47.575918],[-122.368656,47.575917],[-122.368675,47.574387],[-122.368807,47.574388],[-122.368798,47.575239],[-122.368839,47.575282],[-122.36893,47.575289]]]}},{"type":"Feature","properties":{"id":43,"area_m2":1900,"px":19,"rank":11},"geometry":{"type":"Polygon","coordinates":[[[-122.368816,47.573668],[-122.368808,47.574298],[-122.368676,47.574297],[-122.368678,47.573981],[-122.368638,47.573944],[-122.368547,47.573937],[-122.36855,47.57353],[-122.36851,47.573493],[-122.36842,47.573486],[-122.368421,47.57326],[-122.36838,47.573222],[-122.36829,47.573215],[-122.368292,47.573036],[-122.368425,47.573036],[-122.368447,47.573111],[-122.368557,47.573127],[-122.368557,47.573359],[-122.368603,47.573393],[-122.368686,47.573398],[-122.368693,47.573639],[-122.36874,47.573666],[-122.368816,47.573668]]]}},{"type":"Feature","properties":{"id":11,"area_m2":1600,"px":16,"rank":12},"geometry":{"type":"Polygon","coordinates":[[[-122.367384,47.582208],[-122.367379,47.582568],[-122.366847,47.582565],[-122.366849,47.582339],[-122.366808,47.582302],[-122.366718,47.582295],[-122.366719,47.582205],[-122.366985,47.582206],[-122.367047,47.582231],[-122.367118,47.582207],[-122.367384,47.582208]]]}},{"type":"Feature","properties":{"id":4,"area_m2":1300,"px":13,"rank":13},"geometry":{"type":"Polygon","coordinates":[[[-122.363776,47.583628],[-122.363774,47.583808],[-122.363664,47.583823],[-122.363639,47.583897],[-122.363374,47.583896],[-122.363365,47.583834],[-122.36331,47.583807],[-122.362976,47.583804],[-122.362978,47.583624],[-122.363377,47.583626],[-122.363439,47.58365],[-122.36351,47.583627],[-122.363776,47.583628]]]}},{"type":"Feature","properties":{"id":31,"area_m2":1300,"px":13,"rank":14},"geometry":{"type":"Polygon","coordinates":[[[-122.365295,47.578958],[-122.365289,47.579497],[-122.365023,47.579496],[-122.36503,47.578866],[-122.365163,47.578867],[-122.365186,47.578941],[-122.365295,47.578958]]]}},{"type":"Feature","properties":{"id":5,"area_m2":1200,"px":12,"rank":15},"geometry":{"type":"Polygon","coordinates":[[[-122.368571,47.583025],[-122.36857,47.583115],[-122.368479,47.583121],[-122.368438,47.583157],[-122.368433,47.583384],[-122.368168,47.583382],[-122.368169,47.583293],[-122.368205,47.58325],[-122.36817,47.583202],[-122.368174,47.582843],[-122.368258,47.582839],[-122.368304,47.582805],[-122.36831,47.582573],[-122.368443,47.582575],[-122.36844,47.582844],[-122.368363,47.582846],[-122.368316,47.582872],[-122.368311,47.583003],[-122.368374,47.583037],[-122.368571,47.583025]]]}},{"type":"Feature","properties":{"id":15,"area_m2":1100,"px":11,"rank":16},"geometry":{"type":"Polygon","coordinates":[[[-122.365795,47.58157],[-122.36579,47.58202],[-122.36568,47.582035],[-122.365656,47.582109],[-122.365523,47.582108],[-122.36553,47.581568],[-122.365795,47.58157]]]}},{"type":"Feature","properties":{"id":8,"area_m2":900,"px":9,"rank":17},"geometry":{"type":"Polygon","coordinates":[[[-122.368841,47.582398],[-122.368808,47.582444],[-122.368843,47.582486],[-122.368841,47.582666],[-122.368731,47.582682],[-122.368707,47.582756],[-122.368574,47.582755],[-122.368579,47.582305],[-122.368689,47.58229],[-122.368713,47.582216],[-122.368846,47.582217],[-122.368841,47.582398]]]}},{"type":"Feature","properties":{"id":1,"area_m2":800,"px":8,"rank":18},"geometry":{"type":"Polygon","coordinates":[[[-122.366961,47.584186],[-122.366959,47.584365],[-122.36656,47.584363],[-122.366563,47.584093],[-122.366829,47.584095],[-122.366851,47.584169],[-122.366961,47.584186]]]}},{"type":"Feature","properties":{"id":9,"area_m2":800,"px":8,"rank":19},"geometry":{"type":"Polygon","coordinates":[[[-122.364723,47.582284],[-122.364719,47.582644],[-122.364609,47.582659],[-122.364584,47.582733],[-122.364452,47.582732],[-122.364454,47.582552],[-122.36449,47.58251],[-122.364455,47.582462],[-122.364457,47.582282],[-122.364723,47.582284]]]}},{"type":"Feature","properties":{"id":6,"area_m2":700,"px":7,"rank":20},"geometry":{"type":"Polygon","coordinates":[[[-122.364714,47.583004],[-122.364712,47.583183],[-122.364636,47.583185],[-122.364588,47.583211],[-122.364577,47.583363],[-122.364444,47.583362],[-122.364449,47.582912],[-122.364582,47.582913],[-122.364605,47.582987],[-122.364714,47.583004]]]}},{"type":"Feature","properties":{"id":12,"area_m2":700,"px":7,"rank":21},"geometry":{"type":"Polygon","coordinates":[[[-122.362999,47.581914],[-122.362993,47.582364],[-122.36286,47.582363],[-122.362838,47.582289],[-122.362728,47.582273],[-122.362731,47.582093],[-122.362807,47.582091],[-122.362854,47.582065],[-122.362866,47.581914],[-122.362999,47.581914]]]}},{"type":"Feature","properties":{"id":40,"area_m2":700,"px":7,"rank":22},"geometry":{"type":"Polygon","coordinates":[[[-122.367993,47.575733],[-122.367986,47.576363],[-122.367853,47.576362],[-122.367861,47.575733],[-122.367993,47.575733]]]}},{"type":"Feature","properties":{"id":38,"area_m2":600,"px":6,"rank":23},"geometry":{"type":"Polygon","coordinates":[[[-122.36293,47.576605],[-122.362925,47.577055],[-122.362792,47.577054],[-122.362793,47.576828],[-122.362753,47.57679],[-122.362662,47.576783],[-122.362663,47.576694],[-122.362773,47.576678],[-122.362797,47.576604],[-122.36293,47.576605]]]}},{"type":"Feature","properties":{"id":44,"area_m2":600,"px":6,"rank":24},"geometry":{"type":"Polygon","coordinates":[[[-122.368418,47.573576],[-122.368413,47.574026],[-122.36828,47.574025],[-122.368283,47.573619],[-122.368243,47.573582],[-122.368153,47.573575],[-122.368154,47.573485],[-122.368286,47.573485],[-122.368309,47.57356],[-122.368418,47.573576]]]}},{"type":"Feature","properties":{"id":18,"area_m2":500,"px":5,"rank":25},"geometry":{"type":"Polygon","coordinates":[[[-122.368854,47.581587],[-122.368852,47.581767],[-122.368742,47.581782],[-122.368718,47.581856],[-122.368585,47.581855],[-122.368588,47.581585],[-122.368854,47.581587]]]}},{"type":"Feature","properties":{"id":22,"area_m2":500,"px":5,"rank":26},"geometry":{"type":"Polygon","coordinates":[[[-122.368863,47.580867],[-122.368858,47.581227],[-122.368725,47.581226],[-122.368703,47.581152],[-122.368594,47.581135],[-122.368595,47.581045],[-122.368671,47.581043],[-122.368718,47.581017],[-122.36873,47.580866],[-122.368863,47.580867]]]}},{"type":"Feature","properties":{"id":30,"area_m2":500,"px":5,"rank":27},"geometry":{"type":"Polygon","coordinates":[[[-122.364092,47.579491],[-122.36409,47.579671],[-122.363691,47.579669],[-122.363692,47.579579],[-122.363802,47.579563],[-122.363826,47.579489],[-122.364092,47.579491]]]}},{"type":"Feature","properties":{"id":36,"area_m2":500,"px":5,"rank":28},"geometry":{"type":"Polygon","coordinates":[[[-122.363442,47.578228],[-122.363439,47.578497],[-122.363306,47.578497],[-122.363284,47.578422],[-122.363174,47.578406],[-122.363176,47.578226],[-122.363442,47.578228]]]}},{"type":"Feature","properties":{"id":3,"area_m2":400,"px":4,"rank":29},"geometry":{"type":"Polygon","coordinates":[[[-122.364307,47.583721],[-122.364304,47.583901],[-122.364172,47.5839],[-122.364149,47.583826],[-122.36404,47.583809],[-122.364042,47.58363],[-122.364175,47.58363],[-122.364197,47.583705],[-122.364307,47.583721]]]}},{"type":"Feature","properties":{"id":10,"area_m2":400,"px":4,"rank":30},"geometry":{"type":"Polygon","coordinates":[[[-122.368047,47.582302],[-122.368043,47.582662],[-122.36791,47.582661],[-122.367915,47.582301],[-122.368047,47.582302]]]}},{"type":"Feature","properties":{"id":26,"area_m2":400,"px":4,"rank":31},"geometry":{"type":"Polygon","coordinates":[[[-122.364751,47.579944],[-122.364748,47.580214],[-122.364615,47.580213],[-122.364613,47.580072],[-122.364568,47.580037],[-122.364484,47.580033],[-122.364485,47.579943],[-122.364751,47.579944]]]}},{"type":"Feature","properties":{"id":37,"area_m2":400,"px":4,"rank":32},"geometry":{"type":"Polygon","coordinates":[[[-122.368374,47.577265],[-122.36837,47.577625],[-122.368237,47.577624],[-122.368241,47.577264],[-122.368374,47.577265]]]}},{"type":"Feature","properties":{"id":7,"area_m2":300,"px":3,"rank":33},"geometry":{"type":"Polygon","coordinates":[[[-122.362984,47.583084],[-122.362981,47.583354],[-122.362848,47.583353],[-122.362852,47.583083],[-122.362984,47.583084]]]}},{"type":"Feature","properties":{"id":16,"area_m2":300,"px":3,"rank":34},"geometry":{"type":"Polygon","coordinates":[[[-122.363399,47.581826],[-122.363395,47.582096],[-122.363262,47.582096],[-122.363266,47.581826],[-122.363399,47.581826]]]}},{"type":"Feature","properties":{"id":17,"area_m2":300,"px":3,"rank":35},"geometry":{"type":"Polygon","coordinates":[[[-122.362336,47.581731],[-122.362333,47.582],[-122.3622,47.582],[-122.362203,47.58173],[-122.362336,47.581731]]]}},{"type":"Feature","properties":{"id":19,"area_m2":300,"px":3,"rank":36},"geometry":{"type":"Polygon","coordinates":[[[-122.365262,47.581657],[-122.36526,47.581837],[-122.365127,47.581836],[-122.365105,47.581762],[-122.364996,47.581745],[-122.364997,47.581655],[-122.365262,47.581657]]]}},{"type":"Feature","properties":{"id":20,"area_m2":300,"px":3,"rank":37},"geometry":{"type":"Polygon","coordinates":[[[-122.367257,47.581668],[-122.367256,47.581758],[-122.366857,47.581756],[-122.366858,47.581666],[-122.367257,47.581668]]]}},{"type":"Feature","properties":{"id":23,"area_m2":300,"px":3,"rank":38},"geometry":{"type":"Polygon","coordinates":[[[-122.364738,47.581024],[-122.364737,47.581114],[-122.364471,47.581112],[-122.364473,47.580933],[-122.364606,47.580933],[-122.364629,47.581008],[-122.364738,47.581024]]]}},{"type":"Feature","properties":{"id":25,"area_m2":300,"px":3,"rank":39},"geometry":{"type":"Polygon","coordinates":[[[-122.363419,47.580117],[-122.363417,47.580297],[-122.363151,47.580295],[-122.363152,47.580206],[-122.363262,47.58019],[-122.363286,47.580116],[-122.363419,47.580117]]]}},{"type":"Feature","properties":{"id":27,"area_m2":300,"px":3,"rank":40},"geometry":{"type":"Polygon","coordinates":[[[-122.364086,47.579941],[-122.364085,47.580031],[-122.363687,47.580028],[-122.363688,47.579939],[-122.364086,47.579941]]]}},{"type":"Feature","properties":{"id":28,"area_m2":300,"px":3,"rank":41},"geometry":{"type":"Polygon","coordinates":[[[-122.368878,47.579607],[-122.368874,47.579877],[-122.368742,47.579876],[-122.368745,47.579607],[-122.368878,47.579607]]]}},{"type":"Feature","properties":{"id":35,"area_m2":300,"px":3,"rank":42},"geometry":{"type":"Polygon","coordinates":[[[-122.367296,47.578429],[-122.367294,47.578609],[-122.367161,47.578608],[-122.367139,47.578534],[-122.367029,47.578517],[-122.36703,47.578427],[-122.367296,47.578429]]]}},{"type":"Feature","properties":{"id":39,"area_m2":300,"px":3,"rank":43},"geometry":{"type":"Polygon","coordinates":[[[-122.368387,47.576185],[-122.368384,47.576455],[-122.368251,47.576454],[-122.368254,47.576185],[-122.368387,47.576185]]]}},{"type":"Feature","properties":{"id":42,"area_m2":300,"px":3,"rank":44},"geometry":{"type":"Polygon","coordinates":[[[-122.362946,47.575256],[-122.362944,47.575435],[-122.362834,47.575451],[-122.36281,47.575525],[-122.362677,47.575524],[-122.362678,47.575434],[-122.362762,47.57543],[-122.362808,47.575396],[-122.362814,47.575255],[-122.362946,47.575256]]]}}]}