{"type":"FeatureCollection","features":[{"type":"Feature","properties":{"id":8,"area_m2":43900,"px":439,"rank":1},"geometry":{"type":"Polygon","coordinates":[[[-122.368993,47.581048],[-122.368992,47.581137],[-122.368901,47.581143],[-122.368859,47.581185],[-122.368841,47.582666],[-122.368765,47.582668],[-122.368717,47.582694],[-122.368706,47.582845],[-122.368573,47.582845],[-122.368624,47.57858],[-122.368589,47.578535],[-122.368492,47.578524],[-122.368493,47.578435],[-122.368591,47.578427],[-122.368627,47.578382],[-122.368628,47.57812],[-122.368588,47.578082],[-122.368497,47.578075],[-122.368499,47.577896],[-122.368619,47.577872],[-122.368634,47.577765],[-122.368585,47.57772],[-122.368438,47.577702],[-122.368374,47.577735],[-122.368367,47.577805],[-122.368235,47.577804],[-122.36823,47.577734],[-122.368181,47.577703],[-122.367837,47.577711],[-122.367884,47.573807],[-122.367849,47.573762],[-122.367751,47.573751],[-122.367753,47.573662],[-122.367843,47.573657],[-122.367884,47.57362],[-122.367889,47.573357],[-122.367854,47.573312],[-122.367757,47.573302],[-122.367759,47.573123],[-122.367795,47.57308],[-122.36776,47.573033],[-122.367761,47.572944],[-122.368004,47.572928],[-122.368029,47.572764],[-122.368139,47.572749],[-122.368163,47.572675],[-122.368296,47.572676],[-122.368319,47.57275],[-122.368428,47.572766],[-122.368463,47.572847],[-122.36856,47.572857],[-122.368568,47.573009],[-122.368614,47.573035],[-122.368691,47.573038],[-122.368707,47.573198],[-122.368821,47.573218],[-122.368814,47.57389],[-122.368855,47.573932],[-122.368946,47.573939],[-122.368945,47.574029],[-122.368854,47.574035],[-122.368812,47.574077],[-122.368804,47.574694],[-122.368839,47.574739],[-122.368936,47.57475],[-122.368925,47.575647],[-122.368889,47.575691],[-122.368924,47.57574],[-122.368861,47.580993],[-122.368896,47.581038],[-122.368993,47.581048]],[[-122.368128,47.575823],[-122.368161,47.575787],[-122.368146,47.575747],[-122.368086,47.575721],[-122.368022,47.575732],[-122.367993,47.575768],[-122.36801,47.575817],[-122.368069,47.575837],[-122.368128,47.575823]],[[-122.368162,47.573036],[-122.368103,47.573021],[-122.368043,47.573041],[-122.368026,47.573089],[-122.368053,47.573125],[-122.368117,47.573138],[-122.368178,47.573112],[-122.368193,47.573072],[-122.368162,47.573036]],[[-122.368132,47.575555],[-122.368073,47.57554],[-122.368013,47.57556],[-122.367995,47.575608],[-122.368023,47.575644],[-122.368087,47.575657],[-122.368148,47.575631],[-122.368163,47.575591],[-122.368132,47.575555]],[[-122.368013,47.577617],[-122.368182,47.577635],[-122.368234,47.577599],[-122.36824,47.577313],[-122.368192,47.577268],[-122.368047,47.577263],[-122.367976,47.577306],[-122.367972,47.577574],[-122.368013,47.577617]],[[-122.368223,47.574659],[-122.368061,47.574643],[-122.368008,47.574683],[-122.368005,47.574894],[-122.368073,47.574937],[-122.36822,47.574921],[-122.368268,47.574882],[-122.368266,47.574688],[-122.368223,47.574659]],[[-122.368528,47.575738],[-122.36847,47.575722],[-122.36841,47.575742],[-122.368392,47.57579],[-122.368419,47.575827],[-122.368484,47.575839],[-122.368544,47.575813],[-122.36856,47.575773],[-122.368528,47.575738]],[[-122.368627,47.574211],[-122.368466,47.574195],[-122.368412,47.574236],[-122.368409,47.574446],[-122.368477,47.57449],[-122.368624,47.574473],[-122.368672,47.574434],[-122.36867,47.574241],[-122.368627,47.574211]],[[-122.368625,47.57738],[-122.368428,47.577344],[-122.368376,47.57738],[-122.368373,47.577505],[-122.368433,47.577548],[-122.368587,47.577532],[-122.368636,47.577493],[-122.368625,47.57738]]]}},{"type":"Feature","properties":{"id":2,"area_m2":25700,"px":257,"rank":2},"geometry":{"type":"Polygon","coordinates":[[[-122.364235,47.578682],[-122.364227,47.579312],[-122.364129,47.57932],[-122.364093,47.579365],[-122.364097,47.579548],[-122.36414,47.579577],[-122.364224,47.579583],[-122.364223,47.579671],[-122.364125,47.57968],[-122.364089,47.579725],[-122.364089,47.579992],[-122.364135,47.580027],[-122.364218,47.580033],[-122.364214,47.580391],[-122.364116,47.5804],[-122.36408,47.580445],[-122.364093,47.580547],[-122.364212,47.580571],[-122.364198,47.581741],[-122.363967,47.581749],[-122.363933,47.581783],[-122.36393,47.581865],[-122.363986,47.581917],[-122.364195,47.581921],[-122.364175,47.583629],[-122.364065,47.583646],[-122.364041,47.583719],[-122.36391,47.583719],[-122.363895,47.583653],[-122.363776,47.583628],[-122.363753,47.583554],[-122.363644,47.583536],[-122.363657,47.582459],[-122.363693,47.582415],[-122.363658,47.582366],[-122.363664,47.581918],[-122.363761,47.581909],[-122.363797,47.581865],[-122.363785,47.581763],[-122.363666,47.581737],[-122.363679,47.580658],[-122.363776,47.58065],[-122.363812,47.580605],[-122.363809,47.580422],[-122.363766,47.580393],[-122.363682,47.580388],[-122.363687,47.580028],[-122.363723,47.579986],[-122.363688,47.579938],[-122.363691,47.57967],[-122.363806,47.579649],[-122.363861,47.579532],[-122.363803,47.579415],[-122.363647,47.579376],[-122.363561,47.579398],[-122.363162,47.579396],[-122.36317,47.578766],[-122.363267,47.578757],[-122.363303,47.578713],[-122.3633,47.57853],[-122.363257,47.578501],[-122.363173,47.578496],[-122.363178,47.578136],[-122.363287,47.578121],[-122.363312,47.578047],[-122.363444,47.578048],[-122.363473,47.578125],[-122.363632,47.578152],[-122.3637,47.578124],[-122.36371,47.578049],[-122.364109,47.578051],[-122.364103,47.578632],[-122.364144,47.578675],[-122.364235,47.578682]],[[-122.363704,47.578539],[-122.363643,47.578486],[-122.363474,47.578507],[-122.363439,47.578546],[-122.363451,47.578653],[-122.363509,47.578678],[-122.363667,47.57867],[-122.363702,47.578635],[-122.363704,47.578539]],[[-122.363708,47.578269],[-122.363686,47.578231],[-122.363624,47.578215],[-122.36356,47.578237],[-122.363539,47.578276],[-122.363565,47.578313],[-122.36363,47.578332],[-122.36369,47.578312],[-122.363708,47.578269]]]}},{"type":"Feature","properties":{"id":16,"area_m2":13000,"px":130,"rank":3},"geometry":{"type":"Polygon","coordinates":[[[-122.368473,47.579876],[-122.368439,47.579922],[-122.368474,47.579966],[-122.368452,47.581854],[-122.3681,47.581843],[-122.368054,47.581882],[-122.368051,47.582032],[-122.367918,47.582031],[-122.367895,47.581957],[-122.367786,47.581939],[-122.367787,47.581851],[-122.367823,47.581808],[-122.367788,47.581759],[-122.36779,47.581581],[-122.367826,47.581539],[-122.367791,47.581489],[-122.367795,47.581221],[-122.367831,47.581179],[-122.367796,47.58113],[-122.367835,47.577892],[-122.367967,47.577893],[-122.367996,47.577971],[-122.368155,47.577997],[-122.368224,47.577969],[-122.368234,47.577894],[-122.368366,47.577895],[-122.36835,47.579286],[-122.368391,47.579328],[-122.368482,47.579336],[-122.368481,47.579425],[-122.368397,47.579429],[-122.368351,47.579463],[-122.368345,47.57964],[-122.36838,47.579685],[-122.368478,47.579695],[-122.368473,47.579876]],[[-122.368231,47.578114],[-122.368209,47.578077],[-122.368147,47.57806],[-122.368007,47.578079],[-122.367965,47.578121],[-122.36796,47.578659],[-122.368007,47.578699],[-122.368139,47.578717],[-122.368196,47.578705],[-122.368224,47.578669],[-122.368231,47.578114]],[[-122.368171,47.578978],[-122.368009,47.578962],[-122.367956,47.579002],[-122.367953,47.579212],[-122.368021,47.579256],[-122.368168,47.579239],[-122.368216,47.5792],[-122.368214,47.579007],[-122.368171,47.578978]],[[-122.368167,47.579504],[-122.36799,47.579519],[-122.367948,47.579561],[-122.367939,47.580268],[-122.367981,47.580316],[-122.368127,47.580337],[-122.368204,47.580288],[-122.368213,47.579554],[-122.368167,47.579504]],[[-122.368149,47.580402],[-122.367986,47.580416],[-122.367943,47.580445],[-122.367936,47.580638],[-122.367983,47.580678],[-122.36813,47.580696],[-122.368199,47.580653],[-122.368201,47.580443],[-122.368149,47.580402]],[[-122.368065,47.580862],[-122.368029,47.580899],[-122.368044,47.58094],[-122.368104,47.580966],[-122.368162,47.580957],[-122.368196,47.580923],[-122.368185,47.580874],[-122.368128,47.580849],[-122.368065,47.580862]],[[-122.368055,47.581672],[-122.36802,47.581709],[-122.368034,47.581749],[-122.368094,47.581776],[-122.368153,47.581767],[-122.368186,47.581733],[-122.368175,47.581684],[-122.368119,47.581659],[-122.368055,47.581672]]]}},{"type":"Feature","properties":{"id":4,"area_m2":8500,"px":85,"rank":4},"geometry":{"type":"Polygon","coordinates":[[[-122.36777,47.583022],[-122.367737,47.583068],[-122.367772,47.58311],[-122.367771,47.5832],[-122.367661,47.583216],[-122.367636,47.583289],[-122.367406,47.583297],[-122.367369,47.583378],[-122.366705,47.583374],[-122.366682,47.5833],[-122.366573,47.583284],[-122.366579,47.582744],[-122.367062,47.582742],[-122.367108,47.582708],[-122.367112,47.582616],[-122.367041,47.582567],[-122.366582,47.582564],[-122.366584,47.582384],[-122.366693,47.582369],[-122.366718,47.582295],[-122.367074,47.58229],[-122.367114,47.582259],[-122.367118,47.582207],[-122.367251,47.582208],[-122.367256,47.582264],[-122.367306,47.582296],[-122.367515,47.582299],[-122.367538,47.582373],[-122.367647,47.58239],[-122.367628,47.582715],[-122.367679,47.582747],[-122.367776,47.58275],[-122.36777,47.583022]]]}},{"type":"Feature","properties":{"id":1,"area_m2":5900,"px":59,"rank":5},"geometry":{"type":"Polygon","coordinates":[[[-122.368571,47.583025],[-122.368567,47.583295],[-122.368477,47.583301],[-122.368434,47.583343],[-122.368429,47.583744],[-122.368393,47.583786],[-122.368428,47.583834],[-122.368426,47.584014],[-122.36816,47.584012],[-122.368168,47.583246],[-122.368127,47.583209],[-122.368037,47.583202],[-122.36803,47.58296],[-122.367983,47.582934],[-122.367907,47.582931],[-122.367908,47.58252],[-122.367863,47.582485],[-122.367779,47.58248],[-122.367782,47.582301],[-122.367858,47.582299],[-122.367905,47.582273],[-122.367917,47.582121],[-122.36805,47.582122],[-122.368112,47.582147],[-122.368183,47.582123],[-122.368448,47.582124],[-122.368444,47.582484],[-122.368324,47.582508],[-122.36831,47.582615],[-122.368351,47.582657],[-122.368442,47.582664],[-122.368423,47.582989],[-122.368473,47.583022],[-122.368571,47.583025]]]}},{"type":"Feature","properties":{"id":15,"area_m2":4400,"px":44,"rank":6},"geometry":{"type":"Polygon","coordinates":[[[-122.367526,47.581399],[-122.36752,47.581939],[-122.367296,47.581944],[-122.367257,47.581976],[-122.367253,47.582028],[-122.366778,47.582027],[-122.366727,47.582058],[-122.36672,47.582115],[-122.366587,47.582114],[-122.36659,47.581844],[-122.366626,47.581802],[-122.366591,47.581754],[-122.366592,47.581664],[-122.366628,47.581622],[-122.366593,47.581574],[-122.366595,47.581484],[-122.366818,47.581479],[-122.366857,47.581447],[-122.366862,47.581396],[-122.367526,47.581399]]]}},{"type":"Feature","properties":{"id":27,"area_m2":2400,"px":24,"rank":7},"geometry":{"type":"Polygon","coordinates":[[[-122.363559,47.579578],[-122.363549,47.580388],[-122.363283,47.580386],[-122.363283,47.580155],[-122.363237,47.58012],[-122.363154,47.580115],[-122.363159,47.579666],[-122.363235,47.579664],[-122.363283,47.579638],[-122.363294,47.579486],[-122.363427,47.579487],[-122.363449,47.579561],[-122.363559,47.579578]]]}},{"type":"Feature","properties":{"id":12,"area_m2":1500,"px":15,"rank":8},"geometry":{"type":"Polygon","coordinates":[[[-122.36353,47.581917],[-122.363524,47.582457],[-122.363125,47.582455],[-122.363127,47.582275],[-122.363225,47.582266],[-122.363261,47.582222],[-122.36326,47.582044],[-122.363214,47.582009],[-122.363131,47.582005],[-122.363132,47.581915],[-122.36353,47.581917]]]}},{"type":"Feature","properties":{"id":19,"area_m2":1500,"px":15,"rank":9},"geometry":{"type":"Polygon","coordinates":[[[-122.363542,47.580928],[-122.363534,47.581647],[-122.363268,47.581646],[-122.36327,47.581466],[-122.363306,47.581424],[-122.363271,47.581375],[-122.363277,47.580926],[-122.363542,47.580928]]]}},{"type":"Feature","properties":{"id":49,"area_m2":1400,"px":14,"rank":10},"geometry":{"type":"Polygon","coordinates":[[[-122.361898,47.57399],[-122.361897,47.57408],[-122.361806,47.574086],[-122.361764,47.574128],[-122.361768,47.574226],[-122.361811,47.574255],[-122.361895,47.57426],[-122.361894,47.574348],[-122.36181,47.574353],[-122.361764,47.574387],[-122.361757,47.574619],[-122.361648,47.574634],[-122.361623,47.574708],[-122.361491,47.574707],[-122.361493,47.574528],[-122.36159,47.574519],[-122.361626,47.574474],[-122.361614,47.574372],[-122.361495,47.574348],[-122.361497,47.574168],[-122.361595,47.574159],[-122.361631,47.574114],[-122.361618,47.574012],[-122.361499,47.573988],[-122.3615,47.573898],[-122.361633,47.573899],[-122.361639,47.573955],[-122.361689,47.573986],[-122.361898,47.57399]]]}},{"type":"Feature","properties":{"id":5,"area_m2":1300,"px":13,"rank":11},"geometry":{"type":"Polygon","coordinates":[[[-122.363117,47.583085],[-122.363116,47.583174],[-122.363033,47.583178],[-122.362986,47.583212],[-122.362981,47.583354],[-122.362848,47.583353],[-122.362826,47.583279],[-122.362716,47.583262],[-122.362722,47.582813],[-122.362832,47.582797],[-122.362856,47.582723],[-122.362989,47.582724],[-122.362986,47.58304],[-122.363027,47.583078],[-122.363117,47.583085]]]}},{"type":"Feature","properties":{"id":36,"area_m2":1200,"px":12,"rank":12},"geometry":{"type":"Polygon","coordinates":[[[-122.361848,47.578129],[-122.361847,47.578219],[-122.361749,47.578227],[-122.361713,47.578272],[-122.361717,47.578455],[-122.36176,47.578484],[-122.361843,47.578489],[-122.361841,47.578668],[-122.361731,47.578684],[-122.361707,47.578758],[-122.361587,47.578781],[-122.361573,47.578847],[-122.36144,47.578846],[-122.361441,47.578756],[-122.361539,47.578748],[-122.361575,47.578703],[-122.361581,47.578176],[-122.36154,47.578133],[-122.361449,47.578126],[-122.36145,47.578037],[-122.361583,47.578037],[-122.361588,47.578094],[-122.361638,47.578125],[-122.361848,47.578129]]]}},{"type":"Feature","properties":{"id":21,"area_m2":1100,"px":11,"rank":13},"geometry":{"type":"Polygon","coordinates":[[[-122.363013,47.580745],[-122.363006,47.581284],[-122.362873,47.581284],[-122.362851,47.581209],[-122.362742,47.581193],[-122.362747,47.580743],[-122.363013,47.580745]]]}},{"type":"Feature","properties":{"id":24,"area_m2":1100,"px":11,"rank":14},"geometry":{"type":"Polygon","coordinates":[[[-122.363017,47.580116],[-122.362984,47.580162],[-122.363019,47.580205],[-122.363016,47.580475],[-122.36275,47.580473],[-122.362757,47.579933],[-122.363023,47.579935],[-122.363017,47.580116]]]}},{"type":"Feature","properties":{"id":33,"area_m2":1100,"px":11,"rank":15},"geometry":{"type":"Polygon","coordinates":[[[-122.362507,47.578582],[-122.362499,47.579212],[-122.362367,47.579211],[-122.362344,47.579137],[-122.362235,47.579121],[-122.362238,47.578851],[-122.362336,47.578842],[-122.362372,47.578797],[-122.362359,47.578695],[-122.36224,47.578671],[-122.362241,47.578581],[-122.362507,47.578582]]]}},{"type":"Feature","properties":{"id":50,"area_m2":1100,"px":11,"rank":16},"geometry":{"type":"Polygon","coordinates":[[[-122.365884,47.574192],[-122.365883,47.574282],[-122.36482,47.574276],[-122.364822,47.574096],[-122.365088,47.574098],[-122.365101,47.574164],[-122.365167,47.574188],[-122.365429,47.574187],[-122.36548,47.574156],[-122.365487,47.5741],[-122.36562,47.574101],[-122.365623,47.574152],[-122.365661,47.574184],[-122.365884,47.574192]]]}},{"type":"Feature","properties":{"id":20,"area_m2":1000,"px":10,"rank":17},"geometry":{"type":"Polygon","coordinates":[[[-122.367532,47.58095],[-122.367528,47.581219],[-122.367419,47.581235],[-122.367394,47.581309],[-122.367262,47.581308],[-122.367256,47.581251],[-122.367206,47.58122],[-122.366997,47.581216],[-122.366998,47.581127],[-122.367108,47.581111],[-122.367132,47.581037],[-122.367252,47.581014],[-122.367266,47.580948],[-122.367532,47.58095]]]}},{"type":"Feature","properties":{"id":43,"area_m2":1000,"px":10,"rank":18},"geometry":{"type":"Polygon","coordinates":[[[-122.363059,47.576966],[-122.363057,47.577056],[-122.362948,47.577071],[-122.362923,47.577145],[-122.362791,47.577144],[-122.362768,47.57707],[-122.362659,47.577053],[-122.362663,47.576694],[-122.362929,47.576695],[-122.36293,47.576927],[-122.362975,47.576961],[-122.363059,47.576966]]]}},{"type":"Feature","properties":{"id":7,"area_m2":900,"px":9,"rank":19},"geometry":{"type":"Polygon","coordinates":[[[-122.363523,47.582547],[-122.363517,47.582997],[-122.363252,47.582995],[-122.363256,47.582636],[-122.363366,47.58262],[-122.36339,47.582546],[-122.363523,47.582547]]]}},{"type":"Feature","properties":{"id":17,"area_m2":800,"px":8,"rank":20},"geometry":{"type":"Polygon","coordinates":[[[-122.362604,47.581552],[-122.362602,47.581732],[-122.362393,47.581733],[-122.362342,47.581764],[-122.362335,47.58182],[-122.362202,47.58182],[-122.362205,47.58155],[-122.362315,47.581535],[-122.362339,47.581461],[-122.362472,47.581461],[-122.362495,47.581536],[-122.362604,47.581552]]]}},{"type":"Feature","properties":{"id":30,"area_m2":800,"px":8,"rank":21},"geometry":{"type":"Polygon","coordinates":[[[-122.361835,47.579208],[-122.361832,47.579388],[-122.361735,47.579397],[-122.361699,47.579442],[-122.361711,47.579544],[-122.36183,47.579568],[-122.361828,47.579748],[-122.361695,47.579747],[-122.361684,47.579591],[-122.361625,47.579567],[-122.361431,47.579566],[-122.361433,47.579476],[-122.361509,47.579474],[-122.361556,47.579448],[-122.361568,47.579297],[-122.361677,47.579282],[-122.361702,47.579208],[-122.361835,47.579208]]]}},{"type":"Feature","properties":{"id":13,"area_m2":700,"px":7,"rank":22},"geometry":{"type":"Polygon","coordinates":[[[-122.362999,47.581914],[-122.362994,47.582274],[-122.362861,47.582273],[-122.362839,47.582199],[-122.362729,47.582183],[-122.362733,47.581913],[-122.362999,47.581914]]]}},{"type":"Feature","properties":{"id":40,"area_m2":700,"px":7,"rank":23},"geometry":{"type":"Polygon","coordinates":[[[-122.361855,47.577499],[-122.361854,47.577589],[-122.361645,47.57759],[-122.361588,47.577641],[-122.361605,47.577748],[-122.361658,47.577767],[-122.361852,47.577769],[-122.361851,47.577859],[-122.361741,47.577874],[-122.361717,47.577948],[-122.361584,47.577947],[-122.361576,47.577796],[-122.36153,47.577769],[-122.361453,47.577767],[-122.361456,47.577587],[-122.361565,47.577571],[-122.36159,47.577497],[-122.361855,47.577499]]]}},{"type":"Feature","properties":{"id":42,"area_m2":700,"px":7,"rank":24},"geometry":{"type":"Polygon","coordinates":[[[-122.362922,47.577235],[-122.362918,47.577595],[-122.362808,47.57761],[-122.362784,47.577684],[-122.362651,47.577683],[-122.362652,47.577593],[-122.36275,47.577585],[-122.362786,47.57754],[-122.362774,47.577438],[-122.362654,47.577413],[-122.362657,47.577233],[-122.362922,47.577235]]]}},{"type":"Feature","properties":{"id":6,"area_m2":600,"px":6,"rank":25},"geometry":{"type":"Polygon","coordinates":[[[-122.364719,47.582644],[-122.364714,47.583003],[-122.364581,47.583003],[-122.364559,47.582928],[-122.364449,47.582912],[-122.364452,47.582732],[-122.364561,47.582717],[-122.364586,47.582643],[-122.364719,47.582644]]]}},{"type":"Feature","properties":{"id":9,"area_m2":600,"px":6,"rank":26},"geometry":{"type":"Polygon","coordinates":[[[-122.362993,47.582364],[-122.36299,47.582634],[-122.362724,47.582632],[-122.362727,47.582363],[-122.362993,47.582364]]]}},{"type":"Feature","properties":{"id":29,"area_m2":600,"px":6,"rank":27},"geometry":{"type":"Polygon","coordinates":[[[-122.363027,47.579575],[-122.363026,47.579665],[-122.362916,47.57968],[-122.362892,47.579754],[-122.362759,47.579753],[-122.362764,47.579304],[-122.362897,47.579304],[-122.362898,47.579536],[-122.362943,47.57957],[-122.363027,47.579575]]]}},{"type":"Feature","properties":{"id":39,"area_m2":600,"px":6,"rank":28},"geometry":{"type":"Polygon","coordinates":[[[-122.363043,47.578225],[-122.363041,47.578405],[-122.362642,47.578403],[-122.362643,47.578313],[-122.362727,47.578309],[-122.362773,47.578275],[-122.362779,47.578134],[-122.362911,47.578135],[-122.362934,47.578209],[-122.363043,47.578225]]]}},{"type":"Feature","properties":{"id":26,"area_m2":500,"px":5,"rank":29},"geometry":{"type":"Polygon","coordinates":[[[-122.364748,47.580214],[-122.364746,47.580394],[-122.364613,47.580393],[-122.36459,47.580319],[-122.364481,47.580303],[-122.364484,47.580033],[-122.364617,47.580034],[-122.364625,47.580185],[-122.364672,47.580212],[-122.364748,47.580214]]]}},{"type":"Feature","properties":{"id":34,"area_m2":500,"px":5,"rank":30},"geometry":{"type":"Polygon","coordinates":[[[-122.361839,47.578849],[-122.361837,47.579028],[-122.361727,47.579044],[-122.361703,47.579118],[-122.361583,47.579141],[-122.361569,47.579207],[-122.361436,47.579206],[-122.361437,47.579116],[-122.361521,47.579113],[-122.361567,47.579079],[-122.361572,47.578937],[-122.361682,47.578922],[-122.361706,47.578848],[-122.361839,47.578849]]]}},{"type":"Feature","properties":{"id":35,"area_m2":500,"px":5,"rank":31},"geometry":{"type":"Polygon","coordinates":[[[-122.363035,47.578945],[-122.363032,47.579125],[-122.362767,47.579123],[-122.36277,47.578854],[-122.362903,47.578854],[-122.362925,47.578929],[-122.363035,47.578945]]]}},{"type":"Feature","properties":{"id":37,"area_m2":500,"px":5,"rank":32},"geometry":{"type":"Polygon","coordinates":[[[-122.36304,47.578495],[-122.363038,47.578675],[-122.362928,47.57869],[-122.362904,47.578764],[-122.362771,47.578764],[-122.362774,47.578494],[-122.36304,47.578495]]]}},{"type":"Feature","properties":{"id":41,"area_m2":500,"px":5,"rank":33},"geometry":{"type":"Polygon","coordinates":[[[-122.362522,47.577323],[-122.362521,47.577413],[-122.36243,47.577418],[-122.362389,47.577455],[-122.362384,47.577772],[-122.362251,47.577771],[-122.362255,47.577411],[-122.362365,47.577396],[-122.36239,47.577322],[-122.362522,47.577323]]]}},{"type":"Feature","properties":{"id":53,"area_m2":500,"px":5,"rank":34},"geometry":{"type":"Polygon","coordinates":[[[-122.361905,47.57345],[-122.361902,47.57363],[-122.361793,47.573645],[-122.361768,47.573719],[-122.361649,47.573743],[-122.361634,47.573808],[-122.361501,47.573808],[-122.361504,47.573628],[-122.361734,47.57362],[-122.36177,47.573581],[-122.361772,47.573449],[-122.361905,47.57345]]]}},{"type":"Feature","properties":{"id":3,"area_m2":400,"px":4,"rank":35},"geometry":{"type":"Polygon","coordinates":[[[-122.364709,47.583453],[-122.364707,47.583633],[-122.364441,47.583632],[-122.364443,47.583452],[-122.364709,47.583453]]]}},{"type":"Feature","properties":{"id":10,"area_m2":400,"px":4,"rank":36},"geometry":{"type":"Polygon","coordinates":[[[-122.36592,47.58229],[-122.365918,47.58247],[-122.365808,47.582485],[-122.365783,47.582559],[-122.365651,47.582559],[-122.365653,47.582379],[-122.365763,47.582364],[-122.365787,47.58229],[-122.36592,47.58229]]]}},{"type":"Feature","properties":{"id":22,"area_m2":400,"px":4,"rank":37},"geometry":{"type":"Polygon","coordinates":[[[-122.364742,47.580664],[-122.36474,47.580844],[-122.364631,47.580859],[-122.364606,47.580933],[-122.364473,47.580933],[-122.364476,47.580753],[-122.364585,47.580737],[-122.36461,47.580663],[-122.364742,47.580664]]]}},{"type":"Feature","properties":{"id":25,"area_m2":400,"px":4,"rank":38},"geometry":{"type":"Polygon","coordinates":[[[-122.366344,47.580223],[-122.366341,47.580403],[-122.366209,47.580402],[-122.366186,47.580328],[-122.366077,47.580312],[-122.366079,47.580132],[-122.366212,47.580132],[-122.366234,47.580207],[-122.366344,47.580223]]]}},{"type":"Feature","properties":{"id":32,"area_m2":400,"px":4,"rank":39},"geometry":{"type":"Polygon","coordinates":[[[-122.36463,47.578954],[-122.364627,47.579224],[-122.364494,47.579223],[-122.364472,47.579149],[-122.364362,47.579132],[-122.364363,47.579042],[-122.364473,47.579027],[-122.364497,47.578953],[-122.36463,47.578954]]]}},{"type":"Feature","properties":{"id":44,"area_m2":400,"px":4,"rank":40},"geometry":{"type":"Polygon","coordinates":[[[-122.366262,47.575994],[-122.366259,47.576174],[-122.365994,47.576172],[-122.365996,47.575992],[-122.366262,47.575994]]]}},{"type":"Feature","properties":{"id":48,"area_m2":400,"px":4,"rank":41},"geometry":{"type":"Polygon","coordinates":[[[-122.361755,47.574799],[-122.361753,47.574979],[-122.361643,47.574994],[-122.361619,47.575068],[-122.361486,47.575067],[-122.361488,47.574887],[-122.361598,47.574872],[-122.361622,47.574798],[-122.361755,47.574799]]]}},{"type":"Feature","properties":{"id":51,"area_m2":400,"px":4,"rank":42},"geometry":{"type":"Polygon","coordinates":[[[-122.36389,47.574181],[-122.363889,47.574271],[-122.363357,47.574268],[-122.363358,47.574178],[-122.36389,47.574181]]]}},{"type":"Feature","properties":{"id":11,"area_m2":300,"px":3,"rank":43},"geometry":{"type":"Polygon","coordinates":[[[-122.364723,47.582284],[-122.364721,47.582464],[-122.364455,47.582462],[-122.364456,47.582372],[-122.364566,47.582357],[-122.36459,47.582283],[-122.364723,47.582284]]]}},{"type":"Feature","properties":{"id":14,"area_m2":300,"px":3,"rank":44},"geometry":{"type":"Polygon","coordinates":[[[-122.364594,47.581923],[-122.364591,47.582193],[-122.364458,47.582192],[-122.364461,47.581922],[-122.364594,47.581923]]]}},{"type":"Feature","properties":{"id":18,"area_m2":300,"px":3,"rank":45},"geometry":{"type":"Polygon","coordinates":[[[-122.366329,47.581393],[-122.366326,47.581663],[-122.366193,47.581662],[-122.366197,47.581392],[-122.366329,47.581393]]]}},{"type":"Feature","properties":{"id":23,"area_m2":300,"px":3,"rank":46},"geometry":{"type":"Polygon","coordinates":[[[-122.363546,47.580658],[-122.363544,47.580837],[-122.363278,47.580836],[-122.363279,47.580746],[-122.363389,47.580731],[-122.363413,47.580657],[-122.363546,47.580658]]]}},{"type":"Feature","properties":{"id":28,"area_m2":300,"px":3,"rank":47},"geometry":{"type":"Polygon","coordinates":[[[-122.365283,47.579947],[-122.36528,47.580217],[-122.365147,47.580216],[-122.36515,47.579947],[-122.365283,47.579947]]]}},{"type":"Feature","properties":{"id":31,"area_m2":300,"px":3,"rank":48},"geometry":{"type":"Polygon","coordinates":[[[-122.365293,47.579138],[-122.365291,47.579317],[-122.365158,47.579317],[-122.365135,47.579242],[-122.365026,47.579226],[-122.365027,47.579136],[-122.365293,47.579138]]]}},{"type":"Feature","properties":{"id":38,"area_m2":300,"px":3,"rank":49},"geometry":{"type":"Polygon","coordinates":[[[-122.36251,47.578312],[-122.362509,47.578402],[-122.3624,47.578417],[-122.362375,47.578491],[-122.362242,47.578491],[-122.362245,47.578311],[-122.36251,47.578312]]]}},{"type":"Feature","properties":{"id":45,"area_m2":300,"px":3,"rank":50},"geometry":{"type":"Polygon","coordinates":[[[-122.361746,47.575519],[-122.361744,47.575699],[-122.361635,47.575714],[-122.36161,47.575788],[-122.361477,47.575787],[-122.361478,47.575697],[-122.361562,47.575694],[-122.361608,47.57566],[-122.361614,47.575518],[-122.361746,47.575519]]]}},{"type":"Feature","properties":{"id":46,"area_m2":300,"px":3,"rank":51},"geometry":{"type":"Polygon","coordinates":[[[-122.361751,47.575159],[-122.361749,47.575339],[-122.361639,47.575354],[-122.361615,47.575428],[-122.361482,47.575427],[-122.361483,47.575337],[-122.361567,47.575334],[-122.361613,47.5753],[-122.361618,47.575158],[-122.361751,47.575159]]]}},{"type":"Feature","properties":{"id":47,"area_m2":300,"px":3,"rank":52},"geometry":{"type":"Polygon","coordinates":[[[-122.362286,47.574892],[-122.362283,47.575162],[-122.36215,47.575161],[-122.362153,47.574891],[-122.362286,47.574892]]]}},{"type":"Feature","properties":{"id":52,"area_m2":300,"px":3,"rank":53},"geometry":{"type":"Polygon","coordinates":[[[-122.362432,47.573813],[-122.362431,47.573903],[-122.362032,47.573901],[-122.362033,47.573811],[-122.362432,47.573813]]]}}]}