{"type":"FeatureCollection","features":[{"type":"Feature","properties":{"id":37,"area_m2":24700,"px":247,"rank":1},"geometry":{"type":"Polygon","coordinates":[[[-122.36894,47.57421],[-122.368906,47.574256],[-122.368941,47.574299],[-122.368938,47.574569],[-122.368902,47.574611],[-122.368937,47.57466],[-122.368881,47.579336],[-122.368617,47.579336],[-122.368632,47.577898],[-122.368668,47.577854],[-122.368634,47.577806],[-122.368638,47.577405],[-122.368597,47.577363],[-122.368506,47.577356],[-122.368503,47.577291],[-122.368466,47.577259],[-122.368241,47.577263],[-122.368245,47.576904],[-122.368378,47.576905],[-122.368387,47.576967],[-122.368441,47.576994],[-122.368581,47.577009],[-122.368643,47.576962],[-122.368632,47.576841],[-122.368512,47.576815],[-122.368516,47.576546],[-122.368635,47.576523],[-122.36865,47.576421],[-122.368615,47.576376],[-122.368518,47.576366],[-122.368535,47.574871],[-122.368474,47.574824],[-122.368334,47.574836],[-122.368279,47.574864],[-122.368269,47.574925],[-122.368136,47.574924],[-122.368137,47.574834],[-122.368228,47.574828],[-122.368269,47.574792],[-122.368274,47.574524],[-122.368232,47.574481],[-122.368142,47.574474],[-122.368144,47.574294],[-122.36818,47.574252],[-122.36816,47.574213],[-122.368082,47.57418],[-122.368012,47.574204],[-122.367879,47.574203],[-122.367888,47.573442],[-122.367846,47.573399],[-122.367756,47.573391],[-122.367757,47.573303],[-122.367841,47.573299],[-122.367887,47.573265],[-122.367891,47.573063],[-122.367824,47.57302],[-122.367627,47.573032],[-122.367628,47.572942],[-122.367738,47.572927],[-122.367762,47.572853],[-122.368161,47.572855],[-122.368224,47.572879],[-122.368294,47.572856],[-122.368427,47.572856],[-122.368449,47.572931],[-122.368559,47.572947],[-122.368593,47.573028],[-122.368691,47.573038],[-122.368698,47.573189],[-122.368745,47.573216],[-122.368821,47.573218],[-122.36882,47.57363],[-122.368865,47.573664],[-122.368949,47.573669],[-122.36894,47.57421]],[[-122.36854,47.574745],[-122.368573,47.57471],[-122.368558,47.574669],[-122.368498,47.574643],[-122.368433,47.574655],[-122.368405,47.574691],[-122.368422,47.574739],[-122.368481,47.57476],[-122.36854,47.574745]]]}},{"type":"Feature","properties":{"id":33,"area_m2":8000,"px":80,"rank":2},"geometry":{"type":"Polygon","coordinates":[[[-122.364229,47.578863],[-122.364196,47.578909],[-122.364231,47.578952],[-122.36423,47.579042],[-122.364139,47.579048],[-122.364098,47.579084],[-122.364093,47.579437],[-122.364127,47.579482],[-122.364225,47.579492],[-122.364221,47.579761],[-122.364185,47.579804],[-122.36422,47.579852],[-122.364219,47.579941],[-122.36411,47.579957],[-122.364085,47.580031],[-122.363819,47.580029],[-122.363797,47.579955],[-122.363688,47.579938],[-122.363694,47.5794],[-122.36373,47.579351],[-122.363695,47.579307],[-122.363698,47.578794],[-122.363632,47.578755],[-122.3635,47.578769],[-122.363445,47.578796],[-122.363435,47.578857],[-122.363302,47.578857],[-122.363279,47.578782],[-122.36317,47.578766],[-122.363172,47.578586],[-122.363208,47.578544],[-122.363173,47.578496],[-122.363174,47.578406],[-122.363284,47.578391],[-122.363308,47.578317],[-122.363441,47.578318],[-122.363469,47.578395],[-122.363659,47.578431],[-122.363826,47.578386],[-122.363841,47.57823],[-122.364107,47.578231],[-122.364115,47.578383],[-122.364162,47.578409],[-122.364238,47.578412],[-122.364229,47.578863]]]}},{"type":"Feature","properties":{"id":14,"area_m2":7200,"px":72,"rank":3},"geometry":{"type":"Polygon","coordinates":[[[-122.368993,47.581048],[-122.368991,47.581227],[-122.3689,47.581233],[-122.368858,47.581275],[-122.368839,47.582846],[-122.368573,47.582845],[-122.368582,47.582125],[-122.368701,47.582102],[-122.368716,47.582],[-122.368681,47.581955],[-122.368584,47.581945],[-122.368594,47.581047],[-122.368714,47.581022],[-122.368729,47.58092],[-122.368694,47.580875],[-122.368597,47.580865],[-122.368599,47.580685],[-122.368635,47.580643],[-122.3686,47.580594],[-122.368613,47.579517],[-122.368723,47.579501],[-122.368747,47.579427],[-122.36888,47.579427],[-122.368861,47.580998],[-122.368903,47.581041],[-122.368993,47.581048]]]}},{"type":"Feature","properties":{"id":17,"area_m2":6100,"px":61,"rank":4},"geometry":{"type":"Polygon","coordinates":[[[-122.364211,47.580661],[-122.364195,47.581921],[-122.364086,47.581936],[-122.364061,47.58201],[-122.363942,47.582033],[-122.363927,47.582099],[-122.363794,47.582099],[-122.363787,47.581947],[-122.36374,47.581921],[-122.363664,47.581918],[-122.363679,47.580658],[-122.363789,47.580643],[-122.363815,47.580569],[-122.364079,47.580571],[-122.364101,47.580645],[-122.364211,47.580661]]]}},{"type":"Feature","properties":{"id":1,"area_m2":4800,"px":48,"rank":5},"geometry":{"type":"Polygon","coordinates":[[[-122.368445,47.582394],[-122.368424,47.584194],[-122.368158,47.584192],[-122.368159,47.584102],[-122.368279,47.584079],[-122.368293,47.583972],[-122.368252,47.583929],[-122.368161,47.583922],[-122.368169,47.583156],[-122.368128,47.583119],[-122.368038,47.583112],[-122.368031,47.58287],[-122.367984,47.582844],[-122.367908,47.582841],[-122.367915,47.582301],[-122.368047,47.582302],[-122.368047,47.582452],[-122.368107,47.582495],[-122.368276,47.582474],[-122.368312,47.582394],[-122.368445,47.582394]]]}},{"type":"Feature","properties":{"id":27,"area_m2":3900,"px":39,"rank":6},"geometry":{"type":"Polygon","coordinates":[[[-122.368474,47.579786],[-122.36844,47.579832],[-122.368475,47.579875],[-122.368472,47.580145],[-122.368436,47.580192],[-122.368471,47.580235],[-122.36847,47.580325],[-122.368386,47.580328],[-122.368343,47.580357],[-122.368335,47.58054],[-122.36837,47.580585],[-122.368467,47.580595],[-122.368466,47.580685],[-122.3682,47.580683],[-122.368229,47.578254],[-122.368362,47.578255],[-122.368385,47.578329],[-122.368494,47.578345],[-122.368493,47.578435],[-122.368395,47.578444],[-122.368359,47.578489],[-122.368359,47.578756],[-122.368405,47.578791],[-122.368488,47.578795],[-122.368487,47.578885],[-122.36839,47.578894],[-122.368354,47.578939],[-122.368358,47.579121],[-122.368401,47.579151],[-122.368484,47.579155],[-122.368482,47.579335],[-122.368384,47.579344],[-122.368348,47.579388],[-122.368361,47.57949],[-122.36848,47.579515],[-122.368474,47.579786]]]}},{"type":"Feature","properties":{"id":30,"area_m2":2900,"px":29,"rank":7},"geometry":{"type":"Polygon","coordinates":[[[-122.364889,47.579585],[-122.364887,47.579675],[-122.364797,47.579681],[-122.364754,47.579723],[-122.364751,47.579944],[-122.364715,47.579987],[-122.36475,47.580034],[-122.364747,47.580304],[-122.364614,47.580303],[-122.364591,47.580229],[-122.364482,47.580213],[-122.364489,47.579674],[-122.364525,47.579631],[-122.36449,47.579583],[-122.364493,47.579177],[-122.364453,47.579139],[-122.364362,47.579132],[-122.364363,47.579042],[-122.364447,47.579039],[-122.364493,47.579005],[-122.364498,47.578863],[-122.364764,47.578865],[-122.364759,47.579315],[-122.364639,47.579338],[-122.364625,47.579445],[-122.364666,47.579488],[-122.364757,47.579495],[-122.364785,47.579572],[-122.364889,47.579585]]]}},{"type":"Feature","properties":{"id":44,"area_m2":2700,"px":27,"rank":8},"geometry":{"type":"Polygon","coordinates":[[[-122.368121,47.575915],[-122.368088,47.575961],[-122.368123,47.576004],[-122.36812,47.576274],[-122.368084,47.576321],[-122.368119,47.576364],[-122.368118,47.576454],[-122.367998,47.576477],[-122.367983,47.576579],[-122.368018,47.576624],[-122.368116,47.576634],[-122.368113,47.576814],[-122.368023,47.57682],[-122.367982,47.576856],[-122.367974,47.577353],[-122.367841,47.577352],[-122.367863,47.575553],[-122.367996,47.575553],[-122.367994,47.57578],[-122.368035,47.575817],[-122.368125,47.575824],[-122.368121,47.575915]]]}},{"type":"Feature","properties":{"id":13,"area_m2":2000,"px":20,"rank":9},"geometry":{"type":"Polygon","coordinates":[[[-122.364189,47.582461],[-122.364184,47.582821],[-122.364075,47.582836],[-122.36405,47.58291],[-122.363785,47.582908],[-122.363762,47.582834],[-122.363653,47.582818],[-122.363657,47.582458],[-122.363767,47.582443],[-122.363793,47.582368],[-122.364057,47.58237],[-122.364079,47.582444],[-122.364189,47.582461]]]}},{"type":"Feature","properties":{"id":45,"area_m2":1800,"px":18,"rank":10},"geometry":{"type":"Polygon","coordinates":[[[-122.363197,47.576517],[-122.363196,47.576606],[-122.363,47.576592],[-122.362939,47.57662],[-122.362932,47.576747],[-122.362977,47.576781],[-122.363061,47.576786],[-122.36306,47.576876],[-122.362983,47.576878],[-122.362936,47.576904],[-122.362925,47.577055],[-122.362792,47.577054],[-122.362782,47.576795],[-122.362718,47.57677],[-122.362529,47.576783],[-122.362531,47.576603],[-122.362641,47.576588],[-122.362699,47.576482],[-122.362666,47.576424],[-122.362667,47.576334],[-122.362777,47.576318],[-122.362802,47.576244],[-122.363067,47.576246],[-122.363068,47.576478],[-122.363113,47.576512],[-122.363197,47.576517]]]}},{"type":"Feature","properties":{"id":20,"area_m2":1400,"px":14,"rank":11},"geometry":{"type":"Polygon","coordinates":[[[-122.363539,47.581197],[-122.363532,47.581827],[-122.363266,47.581826],[-122.363273,47.581196],[-122.363539,47.581197]]]}},{"type":"Feature","properties":{"id":21,"area_m2":1300,"px":13,"rank":12},"geometry":{"type":"Polygon","coordinates":[[[-122.36846,47.581135],[-122.368458,47.581314],[-122.368361,47.581323],[-122.368325,47.581368],[-122.368337,47.58147],[-122.368456,47.581495],[-122.368454,47.581674],[-122.368344,47.58169],[-122.36832,47.581764],[-122.368187,47.581763],[-122.368197,47.580953],[-122.36833,47.580954],[-122.368337,47.581105],[-122.368384,47.581132],[-122.36846,47.581135]]]}},{"type":"Feature","properties":{"id":54,"area_m2":1300,"px":13,"rank":13},"geometry":{"type":"Polygon","coordinates":[[[-122.365753,47.574101],[-122.365749,47.574371],[-122.365351,47.574369],[-122.365338,47.574303],[-122.365272,47.574279],[-122.365121,47.574287],[-122.365085,47.574367],[-122.364819,47.574366],[-122.36482,47.574276],[-122.364904,47.574272],[-122.36495,47.574238],[-122.364955,47.574097],[-122.365088,47.574098],[-122.365101,47.574164],[-122.365167,47.574188],[-122.365554,47.574189],[-122.36561,47.574162],[-122.36562,47.574101],[-122.365753,47.574101]]]}},{"type":"Feature","properties":{"id":18,"area_m2":1200,"px":12,"rank":14},"geometry":{"type":"Polygon","coordinates":[[[-122.366464,47.581304],[-122.366462,47.581393],[-122.366365,47.581402],[-122.366329,47.581447],[-122.36633,47.581624],[-122.366376,47.581659],[-122.366459,47.581663],[-122.366458,47.581753],[-122.366374,47.581757],[-122.366328,47.581791],[-122.366322,47.582023],[-122.366189,47.582022],[-122.366181,47.58187],[-122.366135,47.581844],[-122.366058,47.58184],[-122.366059,47.581751],[-122.36615,47.581745],[-122.366192,47.581703],[-122.366199,47.581212],[-122.366332,47.581213],[-122.366354,47.581287],[-122.366464,47.581304]]]}},{"type":"Feature","properties":{"id":36,"area_m2":1100,"px":11,"rank":15},"geometry":{"type":"Polygon","coordinates":[[[-122.363565,47.579038],[-122.36356,47.579488],[-122.363427,47.579487],[-122.363405,47.579413],[-122.363295,47.579396],[-122.363293,47.579255],[-122.363248,47.57922],[-122.363164,47.579216],[-122.363166,47.579126],[-122.363242,47.579124],[-122.363289,47.579098],[-122.363301,47.578947],[-122.363433,47.578947],[-122.363456,47.579022],[-122.363565,47.579038]]]}},{"type":"Feature","properties":{"id":8,"area_m2":900,"px":9,"rank":16},"geometry":{"type":"Polygon","coordinates":[[[-122.364976,47.583365],[-122.364975,47.583455],[-122.364865,47.58347],[-122.364841,47.583544],[-122.364721,47.583567],[-122.364707,47.583633],[-122.364441,47.583632],[-122.364442,47.583542],[-122.364552,47.583527],[-122.36461,47.583421],[-122.364577,47.583363],[-122.364579,47.583183],[-122.364689,47.583167],[-122.364713,47.583093],[-122.364846,47.583095],[-122.364845,47.583184],[-122.364761,47.583188],[-122.364715,47.583222],[-122.364724,47.583339],[-122.364782,47.583363],[-122.364976,47.583365]]]}},{"type":"Feature","properties":{"id":15,"area_m2":900,"px":9,"rank":17},"geometry":{"type":"Polygon","coordinates":[[[-122.367511,47.582659],[-122.36751,47.582749],[-122.3674,47.582764],[-122.367376,47.582838],[-122.36711,47.582837],[-122.367088,47.582762],[-122.366978,47.582746],[-122.366979,47.582656],[-122.367089,47.582641],[-122.367113,47.582567],[-122.367233,47.582543],[-122.367247,47.582478],[-122.36738,47.582478],[-122.367388,47.58263],[-122.367435,47.582656],[-122.367511,47.582659]]]}},{"type":"Feature","properties":{"id":31,"area_m2":900,"px":9,"rank":18},"geometry":{"type":"Polygon","coordinates":[[[-122.363554,47.579938],[-122.36355,47.580298],[-122.363284,47.580296],[-122.363285,47.58007],[-122.363245,47.580032],[-122.363155,47.580025],[-122.363156,47.579936],[-122.363554,47.579938]]]}},{"type":"Feature","properties":{"id":10,"area_m2":700,"px":7,"rank":19},"geometry":{"type":"Polygon","coordinates":[[[-122.365379,47.583007],[-122.365378,47.583097],[-122.36528,47.583106],[-122.365244,47.58315],[-122.365257,47.583252],[-122.365376,47.583277],[-122.365375,47.583367],[-122.365298,47.583369],[-122.365251,47.583395],[-122.36524,47.583546],[-122.365107,47.583545],[-122.365112,47.583096],[-122.365222,47.58308],[-122.365246,47.583006],[-122.365379,47.583007]]]}},{"type":"Feature","properties":{"id":46,"area_m2":700,"px":7,"rank":20},"geometry":{"type":"Polygon","coordinates":[[[-122.366394,47.576084],[-122.366392,47.576174],[-122.366283,47.57619],[-122.366258,47.576264],[-122.365993,47.576262],[-122.36597,47.576188],[-122.365861,47.576171],[-122.365862,47.576081],[-122.365972,47.576066],[-122.365996,47.575992],[-122.366129,47.575993],[-122.366134,47.57605],[-122.366184,47.576081],[-122.366394,47.576084]]]}},{"type":"Feature","properties":{"id":2,"area_m2":600,"px":6,"rank":21},"geometry":{"type":"Polygon","coordinates":[[[-122.36311,47.583714],[-122.363108,47.583894],[-122.363031,47.583896],[-122.362984,47.583922],[-122.362972,47.584073],[-122.36284,47.584073],[-122.362838,47.583931],[-122.362792,47.583897],[-122.362709,47.583892],[-122.36271,47.583802],[-122.362919,47.583801],[-122.36297,47.58377],[-122.362977,47.583714],[-122.36311,47.583714]]]}},{"type":"Feature","properties":{"id":16,"area_m2":600,"px":6,"rank":22},"geometry":{"type":"Polygon","coordinates":[[[-122.363528,47.582097],[-122.363524,47.582457],[-122.363391,47.582456],[-122.363369,47.582382],[-122.363259,47.582365],[-122.363261,47.582186],[-122.363371,47.58217],[-122.363395,47.582096],[-122.363528,47.582097]]]}},{"type":"Feature","properties":{"id":25,"area_m2":600,"px":6,"rank":23},"geometry":{"type":"Polygon","coordinates":[[[-122.366339,47.580583],[-122.366334,47.581033],[-122.366201,47.581032],[-122.366199,47.58089],[-122.366154,47.580856],[-122.36607,47.580851],[-122.366071,47.580762],[-122.366148,47.58076],[-122.366195,47.580734],[-122.366206,47.580582],[-122.366339,47.580583]]]}},{"type":"Feature","properties":{"id":32,"area_m2":600,"px":6,"rank":24},"geometry":{"type":"Polygon","coordinates":[[[-122.368077,47.579873],[-122.368073,47.580143],[-122.367808,47.580141],[-122.367811,47.579871],[-122.368077,47.579873]]]}},{"type":"Feature","properties":{"id":35,"area_m2":600,"px":6,"rank":25},"geometry":{"type":"Polygon","coordinates":[[[-122.368083,47.579333],[-122.36808,47.579603],[-122.367814,47.579601],[-122.367817,47.579332],[-122.368083,47.579333]]]}},{"type":"Feature","properties":{"id":4,"area_m2":500,"px":5,"rank":26},"geometry":{"type":"Polygon","coordinates":[[[-122.366034,47.583821],[-122.366032,47.584],[-122.365766,47.583999],[-122.36577,47.583729],[-122.365902,47.58373],[-122.365925,47.583804],[-122.366034,47.583821]]]}},{"type":"Feature","properties":{"id":7,"area_m2":500,"px":5,"rank":27},"geometry":{"type":"Polygon","coordinates":[[[-122.363774,47.583808],[-122.363772,47.583898],[-122.363507,47.583896],[-122.363444,47.583872],[-122.363373,47.583896],[-122.363241,47.583895],[-122.363242,47.583805],[-122.363351,47.58379],[-122.363376,47.583716],[-122.363642,47.583717],[-122.363664,47.583792],[-122.363774,47.583808]]]}},{"type":"Feature","properties":{"id":19,"area_m2":500,"px":5,"rank":28},"geometry":{"type":"Polygon","coordinates":[[[-122.364731,47.581654],[-122.364727,47.581924],[-122.364618,47.581939],[-122.364593,47.582013],[-122.36446,47.582012],[-122.364461,47.581922],[-122.364559,47.581914],[-122.364595,47.581869],[-122.364594,47.581691],[-122.364548,47.581657],[-122.364465,47.581652],[-122.364466,47.581562],[-122.364599,47.581563],[-122.364621,47.581637],[-122.364731,47.581654]]]}},{"type":"Feature","properties":{"id":24,"area_m2":500,"px":5,"rank":29},"geometry":{"type":"Polygon","coordinates":[[[-122.368067,47.580683],[-122.368066,47.580772],[-122.367968,47.580781],[-122.367932,47.580826],[-122.367944,47.580928],[-122.368064,47.580953],[-122.368063,47.581042],[-122.367797,47.581041],[-122.3678,47.580771],[-122.36791,47.580756],[-122.367934,47.580682],[-122.368067,47.580683]]]}},{"type":"Feature","properties":{"id":42,"area_m2":500,"px":5,"rank":30},"geometry":{"type":"Polygon","coordinates":[[[-122.368104,47.577624],[-122.368103,47.577713],[-122.367993,47.577729],[-122.367969,47.577803],[-122.367836,47.577802],[-122.36784,47.577442],[-122.367973,47.577443],[-122.367981,47.577594],[-122.368027,47.577621],[-122.368104,47.577624]]]}},{"type":"Feature","properties":{"id":52,"area_m2":500,"px":5,"rank":31},"geometry":{"type":"Polygon","coordinates":[[[-122.363084,47.574896],[-122.363083,47.574986],[-122.362684,47.574984],[-122.362686,47.574804],[-122.362952,47.574806],[-122.362974,47.57488],[-122.363084,47.574896]]]}},{"type":"Feature","properties":{"id":3,"area_m2":400,"px":4,"rank":32},"geometry":{"type":"Polygon","coordinates":[[[-122.367497,47.583829],[-122.367495,47.584009],[-122.367229,47.584007],[-122.367231,47.583827],[-122.367497,47.583829]]]}},{"type":"Feature","properties":{"id":5,"area_m2":400,"px":4,"rank":33},"geometry":{"type":"Polygon","coordinates":[[[-122.365636,47.583728],[-122.365635,47.583818],[-122.365426,47.58382],[-122.365375,47.58385],[-122.365368,47.583907],[-122.365235,47.583906],[-122.365238,47.583726],[-122.365636,47.583728]]]}},{"type":"Feature","properties":{"id":11,"area_m2":400,"px":4,"rank":34},"geometry":{"type":"Polygon","coordinates":[[[-122.367504,47.583289],[-122.367501,47.583469],[-122.367236,47.583467],[-122.367238,47.583287],[-122.367504,47.583289]]]}},{"type":"Feature","properties":{"id":12,"area_m2":400,"px":4,"rank":35},"geometry":{"type":"Polygon","coordinates":[[[-122.36525,47.582647],[-122.365247,47.582916],[-122.365137,47.582932],[-122.365113,47.583006],[-122.36498,47.583005],[-122.364981,47.582915],[-122.365072,47.582909],[-122.365113,47.582872],[-122.365118,47.582646],[-122.36525,47.582647]]]}},{"type":"Feature","properties":{"id":22,"area_m2":400,"px":4,"rank":36},"geometry":{"type":"Polygon","coordinates":[[[-122.368058,47.581402],[-122.368056,47.581582],[-122.367946,47.581597],[-122.367922,47.581671],[-122.367789,47.581671],[-122.367791,47.581491],[-122.367901,47.581476],[-122.367925,47.581402],[-122.368058,47.581402]]]}},{"type":"Feature","properties":{"id":23,"area_m2":400,"px":4,"rank":37},"geometry":{"type":"Polygon","coordinates":[[[-122.363542,47.580928],[-122.36354,47.581107],[-122.363274,47.581106],[-122.363277,47.580926],[-122.363542,47.580928]]]}},{"type":"Feature","properties":{"id":26,"area_m2":400,"px":4,"rank":38},"geometry":{"type":"Polygon","coordinates":[[[-122.364873,47.580845],[-122.364872,47.580935],[-122.364741,47.580934],[-122.364736,47.580882],[-122.364698,47.58085],[-122.364475,47.580843],[-122.364477,47.580663],[-122.36461,47.580663],[-122.364632,47.580738],[-122.364741,47.580754],[-122.364776,47.580835],[-122.364873,47.580845]]]}},{"type":"Feature","properties":{"id":29,"area_m2":400,"px":4,"rank":39},"geometry":{"type":"Polygon","coordinates":[[[-122.365282,47.580037],[-122.36528,47.580217],[-122.36517,47.580232],[-122.365146,47.580306],[-122.365013,47.580306],[-122.365015,47.580126],[-122.365125,47.580111],[-122.365149,47.580037],[-122.365282,47.580037]]]}},{"type":"Feature","properties":{"id":38,"area_m2":400,"px":4,"rank":40},"geometry":{"type":"Polygon","coordinates":[[[-122.368086,47.579063],[-122.368085,47.579153],[-122.367819,47.579151],[-122.367823,47.578882],[-122.367956,47.578882],[-122.367963,47.579034],[-122.36801,47.57906],[-122.368086,47.579063]]]}},{"type":"Feature","properties":{"id":39,"area_m2":400,"px":4,"rank":41},"geometry":{"type":"Polygon","coordinates":[[[-122.363037,47.578765],[-122.363035,47.578945],[-122.362769,47.578944],[-122.362771,47.578764],[-122.363037,47.578765]]]}},{"type":"Feature","properties":{"id":40,"area_m2":400,"px":4,"rank":42},"geometry":{"type":"Polygon","coordinates":[[[-122.3681,47.577893],[-122.368098,47.578073],[-122.367832,47.578072],[-122.367835,47.577892],[-122.3681,47.577893]]]}},{"type":"Feature","properties":{"id":41,"area_m2":400,"px":4,"rank":43},"geometry":{"type":"Polygon","coordinates":[[[-122.368372,47.577445],[-122.368367,47.577805],[-122.368235,47.577804],[-122.368239,47.577444],[-122.368372,47.577445]]]}},{"type":"Feature","properties":{"id":53,"area_m2":400,"px":4,"rank":44},"geometry":{"type":"Polygon","coordinates":[[[-122.361757,47.574619],[-122.361755,47.574799],[-122.361679,47.574801],[-122.361631,47.574827],[-122.36162,47.574978],[-122.361487,47.574977],[-122.361489,47.574798],[-122.361566,47.574796],[-122.361613,47.57477],[-122.361625,47.574618],[-122.361757,47.574619]]]}},{"type":"Feature","properties":{"id":6,"area_m2":300,"px":3,"rank":45},"geometry":{"type":"Polygon","coordinates":[[[-122.364838,47.583724],[-122.364836,47.583904],[-122.36457,47.583902],[-122.364572,47.583813],[-122.364681,47.583797],[-122.364706,47.583723],[-122.364838,47.583724]]]}},{"type":"Feature","properties":{"id":9,"area_m2":300,"px":3,"rank":46},"geometry":{"type":"Polygon","coordinates":[[[-122.365908,47.58328],[-122.365904,47.58355],[-122.365772,47.583549],[-122.365775,47.583279],[-122.365908,47.58328]]]}},{"type":"Feature","properties":{"id":28,"area_m2":300,"px":3,"rank":47},"geometry":{"type":"Polygon","coordinates":[[[-122.368069,47.580503],[-122.368068,47.580592],[-122.367802,47.580591],[-122.367804,47.580411],[-122.367937,47.580412],[-122.36796,47.580486],[-122.368069,47.580503]]]}},{"type":"Feature","properties":{"id":34,"area_m2":300,"px":3,"rank":48},"geometry":{"type":"Polygon","coordinates":[[[-122.36635,47.579683],[-122.366348,47.579863],[-122.366082,47.579862],[-122.366083,47.579772],[-122.366193,47.579757],[-122.366217,47.579683],[-122.36635,47.579683]]]}},{"type":"Feature","properties":{"id":43,"area_m2":300,"px":3,"rank":49},"geometry":{"type":"Polygon","coordinates":[[[-122.362923,47.577145],[-122.36292,47.577415],[-122.362787,47.577414],[-122.362791,47.577144],[-122.362923,47.577145]]]}},{"type":"Feature","properties":{"id":47,"area_m2":300,"px":3,"rank":50},"geometry":{"type":"Polygon","coordinates":[[[-122.368397,47.575376],[-122.368393,47.575645],[-122.368261,47.575645],[-122.368264,47.575375],[-122.368397,47.575376]]]}},{"type":"Feature","properties":{"id":48,"area_m2":300,"px":3,"rank":51},"geometry":{"type":"Polygon","coordinates":[[[-122.362413,47.575343],[-122.362411,47.575522],[-122.362278,47.575522],[-122.362256,47.575447],[-122.362147,47.575431],[-122.362148,47.575341],[-122.362413,47.575343]]]}},{"type":"Feature","properties":{"id":49,"area_m2":300,"px":3,"rank":52},"geometry":{"type":"Polygon","coordinates":[[[-122.36308,47.575166],[-122.363078,47.575346],[-122.362812,47.575345],[-122.362814,47.575255],[-122.362923,47.57524],[-122.362948,47.575166],[-122.36308,47.575166]]]}},{"type":"Feature","properties":{"id":50,"area_m2":300,"px":3,"rank":53},"geometry":{"type":"Polygon","coordinates":[[[-122.368401,47.575016],[-122.368398,47.575286],[-122.368265,47.575285],[-122.368268,47.575015],[-122.368401,47.575016]]]}},{"type":"Feature","properties":{"id":51,"area_m2":300,"px":3,"rank":54},"geometry":{"type":"Polygon","coordinates":[[[-122.362418,47.574983],[-122.362414,47.575252],[-122.362282,47.575252],[-122.362285,47.574982],[-122.362418,47.574983]]]}}]}