{"type":"FeatureCollection","features":[{"type":"Feature","properties":{"id":42,"area_m2":8200,"px":82,"rank":1},"geometry":{"type":"Polygon","coordinates":[[[-122.368928,47.5752],[-122.368895,47.575246],[-122.36893,47.575289],[-122.368926,47.575558],[-122.36889,47.575606],[-122.368925,47.575648],[-122.368923,47.575828],[-122.368803,47.575852],[-122.368789,47.575954],[-122.368824,47.575999],[-122.368921,47.576008],[-122.368918,47.576278],[-122.368882,47.57632],[-122.368917,47.576368],[-122.368913,47.576638],[-122.368794,47.576661],[-122.368779,47.576763],[-122.368814,47.576808],[-122.368911,47.576818],[-122.368909,47.576997],[-122.368789,47.577021],[-122.368775,47.577123],[-122.36881,47.577168],[-122.368907,47.577178],[-122.368905,47.577357],[-122.368785,47.577381],[-122.36877,47.577483],[-122.368805,47.577528],[-122.368903,47.577538],[-122.3689,47.577718],[-122.368791,47.577733],[-122.368766,47.577807],[-122.368634,47.577806],[-122.368677,47.574166],[-122.368636,47.574124],[-122.368545,47.574117],[-122.368549,47.573716],[-122.368508,47.573673],[-122.368417,47.573666],[-122.368411,47.573411],[-122.368351,47.573382],[-122.368155,47.573395],[-122.368156,47.573305],[-122.368265,47.57329],[-122.36829,47.573216],[-122.368423,47.573216],[-122.368445,47.573291],[-122.368554,47.573307],[-122.368562,47.573458],[-122.368609,47.573485],[-122.368685,47.573488],[-122.3687,47.573751],[-122.368759,47.573772],[-122.368948,47.573759],[-122.368946,47.573939],[-122.368848,47.573947],[-122.368812,47.573992],[-122.368824,47.574094],[-122.368944,47.574119],[-122.368943,47.574209],[-122.368845,47.574217],[-122.368809,47.574262],[-122.368813,47.574445],[-122.368856,47.574474],[-122.368939,47.574479],[-122.368937,47.574659],[-122.36884,47.574667],[-122.368804,47.574712],[-122.368807,47.574895],[-122.36885,47.574924],[-122.368934,47.574929],[-122.368928,47.5752]]]}},{"type":"Feature","properties":{"id":32,"area_m2":6600,"px":66,"rank":2},"geometry":{"type":"Polygon","coordinates":[[[-122.364237,47.578502],[-122.364224,47.579581],[-122.36414,47.579585],[-122.364094,47.579619],[-122.364087,47.579851],[-122.363822,47.579849],[-122.363814,47.579698],[-122.363767,47.579671],[-122.363691,47.579667],[-122.363708,47.578229],[-122.363818,47.578214],[-122.363842,47.57814],[-122.364108,47.578141],[-122.364106,47.578458],[-122.364146,47.578495],[-122.364237,47.578502]]]}},{"type":"Feature","properties":{"id":28,"area_m2":4700,"px":47,"rank":3},"geometry":{"type":"Polygon","coordinates":[[[-122.368088,47.578705],[-122.368055,47.578751],[-122.36809,47.578794],[-122.368083,47.579332],[-122.368047,47.57938],[-122.368082,47.579423],[-122.368081,47.579512],[-122.368045,47.579555],[-122.36808,47.579604],[-122.368071,47.580323],[-122.367805,47.580321],[-122.367835,47.577892],[-122.367967,47.577893],[-122.367965,47.578209],[-122.368005,47.578246],[-122.368096,47.578253],[-122.368088,47.578705]]]}},{"type":"Feature","properties":{"id":17,"area_m2":4300,"px":43,"rank":4},"geometry":{"type":"Polygon","coordinates":[[[-122.364209,47.580751],[-122.364199,47.581651],[-122.364089,47.581666],[-122.364065,47.58174],[-122.363932,47.581739],[-122.363909,47.581665],[-122.3638,47.581649],[-122.363765,47.581568],[-122.363668,47.581558],[-122.363672,47.581198],[-122.363708,47.581156],[-122.363673,47.581107],[-122.363679,47.580658],[-122.363789,47.580643],[-122.363813,47.580569],[-122.363946,47.58057],[-122.363968,47.580644],[-122.364078,47.580661],[-122.364112,47.580742],[-122.364209,47.580751]]]}},{"type":"Feature","properties":{"id":46,"area_m2":4100,"px":41,"rank":5},"geometry":{"type":"Polygon","coordinates":[[[-122.36813,47.575464],[-122.368129,47.575554],[-122.368031,47.575563],[-122.367995,47.575607],[-122.367995,47.575875],[-122.368041,47.575909],[-122.368124,47.575914],[-122.368122,47.576094],[-122.368025,47.576102],[-122.367989,47.576147],[-122.367992,47.57633],[-122.368035,47.576359],[-122.368119,47.576364],[-122.368113,47.576814],[-122.368023,47.57682],[-122.367982,47.576856],[-122.367976,47.577173],[-122.367843,47.577172],[-122.367879,47.574203],[-122.368012,47.574204],[-122.367998,47.575415],[-122.368039,47.575457],[-122.36813,47.575464]]]}},{"type":"Feature","properties":{"id":16,"area_m2":4000,"px":40,"rank":6},"geometry":{"type":"Polygon","coordinates":[[[-122.367531,47.58104],[-122.367521,47.581849],[-122.366856,47.581846],[-122.366834,47.581771],[-122.366724,47.581755],[-122.366725,47.581665],[-122.36684,47.581646],[-122.36688,47.581542],[-122.366839,47.581492],[-122.366728,47.581485],[-122.366731,47.581215],[-122.367206,47.581215],[-122.367257,47.581185],[-122.367264,47.581128],[-122.367383,47.581105],[-122.367398,47.581039],[-122.367531,47.58104]]]}},{"type":"Feature","properties":{"id":45,"area_m2":3700,"px":37,"rank":7},"geometry":{"type":"Polygon","coordinates":[[[-122.36841,47.574296],[-122.368374,47.577264],[-122.368243,47.577264],[-122.368252,47.576323],[-122.368211,47.576281],[-122.36812,47.576273],[-122.368121,47.576184],[-122.368212,47.576178],[-122.368254,47.576136],[-122.368272,47.574709],[-122.368237,47.574664],[-122.36814,47.574654],[-122.368143,47.574386],[-122.368252,47.574369],[-122.368277,47.574295],[-122.36841,47.574296]]]}},{"type":"Feature","properties":{"id":33,"area_m2":3400,"px":34,"rank":8},"geometry":{"type":"Polygon","coordinates":[[[-122.368891,47.578259],[-122.368858,47.578305],[-122.368893,47.578348],[-122.368891,47.578528],[-122.368771,47.578551],[-122.368756,47.578653],[-122.368791,47.578698],[-122.368888,47.578708],[-122.368885,47.578977],[-122.368849,47.57902],[-122.368884,47.579069],[-122.368881,47.579337],[-122.368845,47.57938],[-122.36888,47.579427],[-122.368875,47.579787],[-122.36861,47.579786],[-122.368611,47.579696],[-122.368708,47.579687],[-122.368744,47.579642],[-122.36874,47.57946],[-122.368698,47.57943],[-122.368614,47.579426],[-122.368632,47.577896],[-122.368898,47.577898],[-122.368891,47.578259]]]}},{"type":"Feature","properties":{"id":21,"area_m2":2400,"px":24,"rank":9},"geometry":{"type":"Polygon","coordinates":[[[-122.368868,47.580148],[-122.368835,47.580195],[-122.36887,47.580237],[-122.368867,47.580507],[-122.368831,47.580549],[-122.368866,47.580598],[-122.368858,47.581227],[-122.368748,47.581242],[-122.368724,47.581316],[-122.368591,47.581315],[-122.368595,47.581045],[-122.368631,47.581003],[-122.368596,47.580955],[-122.368598,47.580775],[-122.368695,47.580767],[-122.368731,47.580722],[-122.368719,47.58062],[-122.3686,47.580595],[-122.368603,47.580326],[-122.368639,47.580283],[-122.368604,47.580236],[-122.368608,47.579966],[-122.368717,47.57995],[-122.368742,47.579876],[-122.368874,47.579877],[-122.368868,47.580148]]]}},{"type":"Feature","properties":{"id":37,"area_m2":2200,"px":22,"rank":10},"geometry":{"type":"Polygon","coordinates":[[[-122.365295,47.578689],[-122.365262,47.578735],[-122.365297,47.578778],[-122.365294,47.579048],[-122.365258,47.579095],[-122.365293,47.579138],[-122.365291,47.579317],[-122.365025,47.579316],[-122.365033,47.578686],[-122.36513,47.578678],[-122.365166,47.578633],[-122.365154,47.578531],[-122.365035,47.578506],[-122.365039,47.578146],[-122.365305,47.578148],[-122.365295,47.578689]]]}},{"type":"Feature","properties":{"id":34,"area_m2":1900,"px":19,"rank":11},"geometry":{"type":"Polygon","coordinates":[[[-122.368365,47.577985],[-122.368345,47.579694],[-122.368212,47.579693],[-122.368232,47.577984],[-122.368365,47.577985]]]}},{"type":"Feature","properties":{"id":31,"area_m2":1600,"px":16,"rank":12},"geometry":{"type":"Polygon","coordinates":[[[-122.364761,47.579135],[-122.364752,47.579854],[-122.364487,47.579853],[-122.364489,47.579536],[-122.364449,47.579499],[-122.364358,47.579492],[-122.364359,47.579402],[-122.364435,47.5794],[-122.364483,47.579374],[-122.364494,47.579223],[-122.364604,47.579208],[-122.364628,47.579134],[-122.364761,47.579135]]]}},{"type":"Feature","properties":{"id":18,"area_m2":1500,"px":15,"rank":13},"geometry":{"type":"Polygon","coordinates":[[[-122.364741,47.580754],[-122.364732,47.581564],[-122.364622,47.581579],[-122.364598,47.581653],[-122.364465,47.581652],[-122.364469,47.581293],[-122.364567,47.581284],[-122.364603,47.581239],[-122.364604,47.580977],[-122.364564,47.580939],[-122.364473,47.580933],[-122.364476,47.580753],[-122.364741,47.580754]]]}},{"type":"Feature","properties":{"id":13,"area_m2":1300,"px":13,"rank":14},"geometry":{"type":"Polygon","coordinates":[[[-122.364193,47.582101],[-122.364191,47.582281],[-122.364081,47.582296],[-122.364057,47.58237],[-122.363658,47.582368],[-122.363661,47.582098],[-122.363771,47.582083],[-122.363795,47.582009],[-122.364061,47.58201],[-122.364084,47.582084],[-122.364193,47.582101]]]}},{"type":"Feature","properties":{"id":39,"area_m2":1300,"px":13,"rank":15},"geometry":{"type":"Polygon","coordinates":[[[-122.364767,47.578416],[-122.364734,47.578462],[-122.364769,47.578506],[-122.364763,47.578955],[-122.364497,47.578953],[-122.364505,47.578323],[-122.364771,47.578325],[-122.364767,47.578416]]]}},{"type":"Feature","properties":{"id":49,"area_m2":1300,"px":13,"rank":16},"geometry":{"type":"Polygon","coordinates":[[[-122.365348,47.574549],[-122.365334,47.575719],[-122.365201,47.575718],[-122.365216,47.574548],[-122.365348,47.574549]]]}},{"type":"Feature","properties":{"id":15,"area_m2":1200,"px":12,"rank":17},"geometry":{"type":"Polygon","coordinates":[[[-122.363007,47.581194],[-122.362999,47.581914],[-122.362866,47.581913],[-122.362843,47.581839],[-122.362734,47.581823],[-122.362736,47.581643],[-122.362834,47.581634],[-122.36287,47.58159],[-122.362857,47.581488],[-122.362738,47.581463],[-122.36274,47.581283],[-122.36285,47.581268],[-122.362874,47.581194],[-122.363007,47.581194]]]}},{"type":"Feature","properties":{"id":19,"area_m2":1200,"px":12,"rank":18},"geometry":{"type":"Polygon","coordinates":[[[-122.368458,47.581315],[-122.368457,47.581404],[-122.368373,47.581408],[-122.368327,47.581442],[-122.368322,47.581584],[-122.368189,47.581583],[-122.368201,47.580593],[-122.368334,47.580594],[-122.368326,47.581265],[-122.368368,47.581308],[-122.368458,47.581315]]]}},{"type":"Feature","properties":{"id":14,"area_m2":1100,"px":11,"rank":19},"geometry":{"type":"Polygon","coordinates":[[[-122.363535,47.581557],[-122.363528,47.582097],[-122.363419,47.582112],[-122.363394,47.582186],[-122.363261,47.582186],[-122.363264,47.582006],[-122.363361,47.581997],[-122.363397,47.581952],[-122.363385,47.58185],[-122.363266,47.581826],[-122.363269,47.581556],[-122.363535,47.581557]]]}},{"type":"Feature","properties":{"id":44,"area_m2":1100,"px":11,"rank":20},"geometry":{"type":"Polygon","coordinates":[[[-122.363059,47.576966],[-122.363057,47.577056],[-122.36296,47.577064],[-122.362924,47.577109],[-122.362925,47.577287],[-122.362971,47.577321],[-122.363054,47.577326],[-122.363053,47.577415],[-122.362943,47.577431],[-122.362919,47.577505],[-122.362786,47.577504],[-122.362791,47.577103],[-122.362749,47.57706],[-122.362659,47.577053],[-122.362661,47.576874],[-122.362927,47.576875],[-122.362949,47.576949],[-122.363059,47.576966]]]}},{"type":"Feature","properties":{"id":30,"area_m2":1000,"px":10,"rank":21},"geometry":{"type":"Polygon","coordinates":[[[-122.363558,47.579668],[-122.363553,47.580028],[-122.363444,47.580043],[-122.363419,47.580117],[-122.363286,47.580116],[-122.363293,47.579576],[-122.363426,47.579577],[-122.363448,47.579651],[-122.363558,47.579668]]]}},{"type":"Feature","properties":{"id":40,"area_m2":900,"px":9,"rank":22},"geometry":{"type":"Polygon","coordinates":[[[-122.363036,47.578587],[-122.363003,47.578633],[-122.363038,47.578675],[-122.363036,47.578855],[-122.36277,47.578854],[-122.362776,47.578314],[-122.362909,47.578315],[-122.362911,47.578456],[-122.362956,47.578491],[-122.36304,47.578495],[-122.363036,47.578587]]]}},{"type":"Feature","properties":{"id":48,"area_m2":900,"px":9,"rank":23},"geometry":{"type":"Polygon","coordinates":[[[-122.362945,47.575345],[-122.36294,47.575795],[-122.362674,47.575794],[-122.362678,47.575434],[-122.362788,47.575419],[-122.362812,47.575345],[-122.362945,47.575345]]]}},{"type":"Feature","properties":{"id":4,"area_m2":800,"px":8,"rank":24},"geometry":{"type":"Polygon","coordinates":[[[-122.368437,47.583114],[-122.368432,47.583474],[-122.368166,47.583472],[-122.368169,47.583293],[-122.368266,47.583284],[-122.368302,47.583239],[-122.36829,47.583137],[-122.368171,47.583112],[-122.368173,47.582933],[-122.368306,47.582933],[-122.368313,47.583085],[-122.36836,47.583111],[-122.368437,47.583114]]]}},{"type":"Feature","properties":{"id":9,"area_m2":700,"px":7,"rank":25},"geometry":{"type":"Polygon","coordinates":[[[-122.364724,47.582194],[-122.364716,47.582823],[-122.364584,47.582823],[-122.364591,47.582193],[-122.364724,47.582194]]]}},{"type":"Feature","properties":{"id":51,"area_m2":700,"px":7,"rank":26},"geometry":{"type":"Polygon","coordinates":[[[-122.362952,47.574806],[-122.362947,47.575165],[-122.362815,47.575165],[-122.362792,47.57509],[-122.362683,47.575074],[-122.362686,47.574804],[-122.362952,47.574806]]]}},{"type":"Feature","properties":{"id":22,"area_m2":600,"px":6,"rank":27},"geometry":{"type":"Polygon","coordinates":[[[-122.368066,47.580773],[-122.368065,47.580862],[-122.367967,47.580871],[-122.367931,47.580916],[-122.367943,47.581018],[-122.368063,47.581042],[-122.36806,47.581222],[-122.367951,47.581238],[-122.367926,47.581312],[-122.367793,47.581311],[-122.367795,47.581221],[-122.367892,47.581212],[-122.367928,47.581168],[-122.367916,47.581066],[-122.367797,47.581041],[-122.367799,47.580861],[-122.367909,47.580846],[-122.367933,47.580772],[-122.368066,47.580773]]]}},{"type":"Feature","properties":{"id":47,"area_m2":600,"px":6,"rank":28},"geometry":{"type":"Polygon","coordinates":[[[-122.363066,47.576336],[-122.363063,47.576606],[-122.362797,47.576604],[-122.3628,47.576334],[-122.363066,47.576336]]]}},{"type":"Feature","properties":{"id":27,"area_m2":500,"px":5,"rank":29},"geometry":{"type":"Polygon","coordinates":[[[-122.364749,47.580124],[-122.364747,47.580304],[-122.364637,47.580319],[-122.364613,47.580393],[-122.36448,47.580393],[-122.364483,47.580123],[-122.364749,47.580124]]]}},{"type":"Feature","properties":{"id":35,"area_m2":500,"px":5,"rank":30},"geometry":{"type":"Polygon","coordinates":[[[-122.363029,47.579395],[-122.363027,47.579575],[-122.362761,47.579573],[-122.362764,47.579304],[-122.362897,47.579304],[-122.36292,47.579379],[-122.363029,47.579395]]]}},{"type":"Feature","properties":{"id":36,"area_m2":500,"px":5,"rank":31},"geometry":{"type":"Polygon","coordinates":[[[-122.366358,47.579054],[-122.366356,47.579233],[-122.366146,47.579235],[-122.366095,47.579265],[-122.366089,47.579322],[-122.365956,47.579321],[-122.365957,47.579231],[-122.36604,47.579228],[-122.366087,47.579194],[-122.366092,47.579052],[-122.366358,47.579054]]]}},{"type":"Feature","properties":{"id":1,"area_m2":400,"px":4,"rank":32},"geometry":{"type":"Polygon","coordinates":[[[-122.36497,47.583815],[-122.364969,47.583905],[-122.36486,47.58392],[-122.364835,47.583994],[-122.364702,47.583993],[-122.364706,47.583723],[-122.364838,47.583724],[-122.364861,47.583798],[-122.36497,47.583815]]]}},{"type":"Feature","properties":{"id":3,"area_m2":400,"px":4,"rank":33},"geometry":{"type":"Polygon","coordinates":[[[-122.364711,47.583273],[-122.364707,47.583633],[-122.364574,47.583632],[-122.364578,47.583273],[-122.364711,47.583273]]]}},{"type":"Feature","properties":{"id":6,"area_m2":400,"px":4,"rank":34},"geometry":{"type":"Polygon","coordinates":[[[-122.367375,47.582928],[-122.367373,47.583108],[-122.367107,47.583107],[-122.367109,47.582927],[-122.367375,47.582928]]]}},{"type":"Feature","properties":{"id":11,"area_m2":400,"px":4,"rank":35},"geometry":{"type":"Polygon","coordinates":[[[-122.368842,47.582308],[-122.368809,47.582354],[-122.368844,47.582396],[-122.368843,47.582486],[-122.36871,47.582486],[-122.368688,47.582411],[-122.368578,47.582394],[-122.368579,47.582305],[-122.368663,47.582301],[-122.368709,47.582267],[-122.368715,47.582126],[-122.368847,47.582127],[-122.368842,47.582308]]]}},{"type":"Feature","properties":{"id":23,"area_m2":400,"px":4,"rank":36},"geometry":{"type":"Polygon","coordinates":[[[-122.363545,47.580748],[-122.363542,47.580927],[-122.363277,47.580926],[-122.363279,47.580746],[-122.363545,47.580748]]]}},{"type":"Feature","properties":{"id":29,"area_m2":400,"px":4,"rank":37},"geometry":{"type":"Polygon","coordinates":[[[-122.368344,47.579784],[-122.368339,47.580144],[-122.368206,47.580143],[-122.368211,47.579784],[-122.368344,47.579784]]]}},{"type":"Feature","properties":{"id":43,"area_m2":400,"px":4,"rank":38},"geometry":{"type":"Polygon","coordinates":[[[-122.368373,47.577355],[-122.368368,47.577715],[-122.368236,47.577714],[-122.36824,47.577354],[-122.368373,47.577355]]]}},{"type":"Feature","properties":{"id":54,"area_m2":400,"px":4,"rank":39},"geometry":{"type":"Polygon","coordinates":[[[-122.361769,47.573629],[-122.361767,47.573809],[-122.361501,47.573808],[-122.361504,47.573628],[-122.361769,47.573629]]]}},{"type":"Feature","properties":{"id":2,"area_m2":300,"px":3,"rank":40},"geometry":{"type":"Polygon","coordinates":[[[-122.368431,47.583564],[-122.36843,47.583654],[-122.368346,47.583657],[-122.3683,47.583691],[-122.368295,47.583833],[-122.368162,47.583832],[-122.368164,47.583652],[-122.368274,47.583637],[-122.368298,47.583563],[-122.368431,47.583564]]]}},{"type":"Feature","properties":{"id":5,"area_m2":300,"px":3,"rank":41},"geometry":{"type":"Polygon","coordinates":[[[-122.362983,47.583174],[-122.36298,47.583444],[-122.362847,47.583443],[-122.36285,47.583173],[-122.362983,47.583174]]]}},{"type":"Feature","properties":{"id":7,"area_m2":300,"px":3,"rank":42},"geometry":{"type":"Polygon","coordinates":[[[-122.364186,47.582731],[-122.364183,47.58291],[-122.363918,47.582909],[-122.363919,47.582819],[-122.364028,47.582804],[-122.364053,47.58273],[-122.364186,47.582731]]]}},{"type":"Feature","properties":{"id":8,"area_m2":300,"px":3,"rank":43},"geometry":{"type":"Polygon","coordinates":[[[-122.368709,47.582576],[-122.368706,47.582845],[-122.368573,47.582845],[-122.368576,47.582575],[-122.368709,47.582576]]]}},{"type":"Feature","properties":{"id":10,"area_m2":300,"px":3,"rank":44},"geometry":{"type":"Polygon","coordinates":[[[-122.368046,47.582392],[-122.368043,47.582662],[-122.36791,47.582661],[-122.367913,47.582391],[-122.368046,47.582392]]]}},{"type":"Feature","properties":{"id":12,"area_m2":300,"px":3,"rank":45},"geometry":{"type":"Polygon","coordinates":[[[-122.363526,47.582277],[-122.363524,47.582457],[-122.363391,47.582456],[-122.363369,47.582382],[-122.363259,47.582365],[-122.36326,47.582276],[-122.363526,47.582277]]]}},{"type":"Feature","properties":{"id":20,"area_m2":300,"px":3,"rank":46},"geometry":{"type":"Polygon","coordinates":[[[-122.363538,47.581287],[-122.363537,47.581377],[-122.363427,47.581393],[-122.363403,47.581466],[-122.36327,47.581466],[-122.363272,47.581286],[-122.363538,47.581287]]]}},{"type":"Feature","properties":{"id":24,"area_m2":300,"px":3,"rank":47},"geometry":{"type":"Polygon","coordinates":[[[-122.362881,47.580654],[-122.362878,47.580924],[-122.362745,47.580923],[-122.362748,47.580653],[-122.362881,47.580654]]]}},{"type":"Feature","properties":{"id":25,"area_m2":300,"px":3,"rank":48},"geometry":{"type":"Polygon","coordinates":[[[-122.367402,47.580679],[-122.3674,47.580859],[-122.367267,47.580858],[-122.367244,47.580784],[-122.367135,47.580767],[-122.367136,47.580677],[-122.367402,47.580679]]]}},{"type":"Feature","properties":{"id":26,"area_m2":300,"px":3,"rank":49},"geometry":{"type":"Polygon","coordinates":[[[-122.36594,47.580581],[-122.365938,47.580761],[-122.365672,47.580759],[-122.365673,47.580669],[-122.365783,47.580654],[-122.365808,47.58058],[-122.36594,47.580581]]]}},{"type":"Feature","properties":{"id":38,"area_m2":300,"px":3,"rank":50},"geometry":{"type":"Polygon","coordinates":[[[-122.363033,47.579035],[-122.363031,47.579215],[-122.362898,47.579214],[-122.362876,47.57914],[-122.362767,47.579123],[-122.362768,47.579034],[-122.363033,47.579035]]]}},{"type":"Feature","properties":{"id":41,"area_m2":300,"px":3,"rank":51},"geometry":{"type":"Polygon","coordinates":[[[-122.362511,47.578222],[-122.362509,47.578402],[-122.362376,47.578401],[-122.362354,47.578327],[-122.362245,47.578311],[-122.362246,47.578221],[-122.362511,47.578222]]]}},{"type":"Feature","properties":{"id":50,"area_m2":300,"px":3,"rank":52},"geometry":{"type":"Polygon","coordinates":[[[-122.362417,47.575073],[-122.362413,47.575342],[-122.362281,47.575342],[-122.362284,47.575072],[-122.362417,47.575073]]]}},{"type":"Feature","properties":{"id":52,"area_m2":300,"px":3,"rank":53},"geometry":{"type":"Polygon","coordinates":[[[-122.365619,47.574191],[-122.365617,47.57428],[-122.365219,47.574278],[-122.36522,47.574188],[-122.365619,47.574191]]]}},{"type":"Feature","properties":{"id":53,"area_m2":300,"px":3,"rank":54},"geometry":{"type":"Polygon","coordinates":[[[-122.368414,47.573936],[-122.368411,47.574206],[-122.368278,47.574205],[-122.368281,47.573935],[-122.368414,47.573936]]]}}]}