{"type":"FeatureCollection","features":[{"type":"Feature","properties":{"id":17,"area_m2":6800,"px":68,"rank":1},"geometry":{"type":"Polygon","coordinates":[[[-122.364197,47.581562],[-122.364164,47.581608],[-122.364199,47.581651],[-122.364198,47.581741],[-122.364078,47.581764],[-122.364063,47.581866],[-122.364098,47.581911],[-122.364195,47.581921],[-122.364193,47.582101],[-122.364157,47.582143],[-122.364192,47.582191],[-122.36419,47.582371],[-122.364154,47.582413],[-122.364189,47.582461],[-122.364188,47.582551],[-122.363789,47.582548],[-122.363781,47.582397],[-122.363734,47.58237],[-122.363658,47.582368],[-122.36366,47.582188],[-122.363696,47.582146],[-122.363661,47.582098],[-122.363665,47.581828],[-122.363777,47.581822],[-122.363819,47.581773],[-122.363781,47.581668],[-122.363667,47.581648],[-122.363668,47.581558],[-122.363704,47.581516],[-122.363669,47.581467],[-122.363678,47.58075],[-122.363902,47.580743],[-122.363941,47.580711],[-122.363945,47.58066],[-122.364078,47.580661],[-122.3641,47.580735],[-122.364209,47.580751],[-122.364197,47.581562]]]}},{"type":"Feature","properties":{"id":39,"area_m2":6600,"px":66,"rank":2},"geometry":{"type":"Polygon","coordinates":[[[-122.364226,47.579133],[-122.364193,47.579179],[-122.364228,47.579222],[-122.364225,47.579492],[-122.364189,47.579539],[-122.364224,47.579582],[-122.364221,47.579761],[-122.364145,47.579763],[-122.364098,47.579789],[-122.364086,47.579941],[-122.363688,47.579938],[-122.363708,47.57823],[-122.363785,47.578227],[-122.363832,47.578201],[-122.363843,47.57805],[-122.363976,47.578051],[-122.363999,47.578125],[-122.364108,47.578141],[-122.364098,47.578992],[-122.36414,47.579035],[-122.36423,47.579042],[-122.364226,47.579133]]]}},{"type":"Feature","properties":{"id":19,"area_m2":5800,"px":58,"rank":3},"geometry":{"type":"Polygon","coordinates":[[[-122.367531,47.58104],[-122.36752,47.581939],[-122.367387,47.581938],[-122.367374,47.581872],[-122.367255,47.581848],[-122.367227,47.58177],[-122.36699,47.581756],[-122.366968,47.581682],[-122.366858,47.581666],[-122.366883,47.581076],[-122.366822,47.581037],[-122.3666,47.581034],[-122.366602,47.580854],[-122.366959,47.58085],[-122.366998,47.580818],[-122.367002,47.580767],[-122.367122,47.580743],[-122.367136,47.580677],[-122.367251,47.580658],[-122.36727,47.580588],[-122.367403,47.580589],[-122.367379,47.580994],[-122.367426,47.581035],[-122.367531,47.58104]]]}},{"type":"Feature","properties":{"id":18,"area_m2":5800,"px":58,"rank":4},"geometry":{"type":"Polygon","coordinates":[[[-122.368092,47.578345],[-122.368059,47.578391],[-122.368094,47.578433],[-122.368093,47.578523],[-122.368002,47.578529],[-122.36796,47.578571],[-122.367949,47.579458],[-122.367984,47.579503],[-122.368081,47.579513],[-122.36808,47.579603],[-122.367996,47.579606],[-122.367953,47.579635],[-122.367944,47.579818],[-122.367979,47.579863],[-122.368077,47.579873],[-122.368072,47.580233],[-122.368036,47.580275],[-122.368071,47.580323],[-122.36807,47.580411],[-122.367986,47.580416],[-122.367943,47.580445],[-122.367935,47.580628],[-122.36797,47.580673],[-122.368067,47.580683],[-122.368064,47.580952],[-122.368028,47.580995],[-122.368062,47.581042],[-122.368059,47.581311],[-122.368023,47.581355],[-122.368058,47.581404],[-122.368051,47.582031],[-122.367787,47.582031],[-122.367786,47.581941],[-122.367906,47.581917],[-122.36792,47.581815],[-122.367885,47.58177],[-122.367788,47.581761],[-122.36779,47.581581],[-122.367826,47.581539],[-122.367791,47.581489],[-122.367795,47.581221],[-122.367831,47.581179],[-122.367796,47.581131],[-122.367799,47.580861],[-122.367919,47.580838],[-122.367933,47.580736],[-122.367898,47.580691],[-122.367801,47.58068],[-122.367831,47.578162],[-122.367964,47.578163],[-122.367987,47.578237],[-122.368096,47.578253],[-122.368092,47.578345]]]}},{"type":"Feature","properties":{"id":61,"area_m2":5500,"px":55,"rank":5},"geometry":{"type":"Polygon","coordinates":[[[-122.368946,47.57367],[-122.368913,47.573716],[-122.368948,47.573759],[-122.368946,47.573939],[-122.368826,47.573962],[-122.368811,47.574064],[-122.368846,47.574109],[-122.368944,47.574119],[-122.368943,47.574209],[-122.368823,47.574232],[-122.368808,47.574334],[-122.368843,47.574379],[-122.36894,47.574389],[-122.368937,47.574659],[-122.368817,47.574682],[-122.368803,47.574784],[-122.368838,47.574829],[-122.368935,47.574839],[-122.368931,47.575199],[-122.368895,47.575241],[-122.36893,47.57529],[-122.368924,47.575738],[-122.368814,47.575754],[-122.36879,47.575828],[-122.368657,47.575827],[-122.368657,47.575595],[-122.368611,47.575561],[-122.368528,47.575555],[-122.36853,47.575376],[-122.368627,47.575368],[-122.368663,47.575323],[-122.368651,47.575221],[-122.368532,47.575196],[-122.368533,47.575106],[-122.368631,47.575098],[-122.368667,47.575053],[-122.368663,47.57487],[-122.36862,47.574841],[-122.368536,47.574836],[-122.368537,47.574747],[-122.368635,47.574738],[-122.368671,47.574693],[-122.368659,47.574591],[-122.36854,47.574566],[-122.368543,47.574297],[-122.368662,47.574273],[-122.368677,47.574166],[-122.368636,47.574124],[-122.368545,47.574117],[-122.368548,47.57371],[-122.368508,47.573673],[-122.368417,47.573666],[-122.368418,47.573576],[-122.368528,47.573561],[-122.368552,47.573487],[-122.368685,47.573488],[-122.368688,47.573553],[-122.368732,47.573587],[-122.36895,47.573579],[-122.368946,47.57367]]]}},{"type":"Feature","properties":{"id":31,"area_m2":3900,"px":39,"rank":6},"geometry":{"type":"Polygon","coordinates":[[[-122.364764,47.578865],[-122.364745,47.580484],[-122.364479,47.580483],[-122.364481,47.580303],[-122.364517,47.580261],[-122.364482,47.580213],[-122.364484,47.580033],[-122.364582,47.580024],[-122.364618,47.57998],[-122.364606,47.579878],[-122.364487,47.579853],[-122.364505,47.578323],[-122.364638,47.578324],[-122.364633,47.578821],[-122.364674,47.578858],[-122.364764,47.578865]]]}},{"type":"Feature","properties":{"id":57,"area_m2":3900,"px":39,"rank":7},"geometry":{"type":"Polygon","coordinates":[[[-122.36841,47.574296],[-122.368372,47.577444],[-122.368241,47.577444],[-122.368252,47.576323],[-122.368211,47.576281],[-122.36812,47.576273],[-122.368121,47.576184],[-122.368219,47.576175],[-122.368255,47.576131],[-122.368262,47.575514],[-122.36822,47.575471],[-122.36813,47.575464],[-122.368131,47.575374],[-122.368251,47.575351],[-122.368265,47.575249],[-122.36823,47.575204],[-122.368133,47.575194],[-122.368135,47.575016],[-122.368226,47.575008],[-122.368268,47.574966],[-122.368277,47.574295],[-122.36841,47.574296]]]}},{"type":"Feature","properties":{"id":24,"area_m2":3600,"px":36,"rank":8},"geometry":{"type":"Polygon","coordinates":[[[-122.368871,47.580147],[-122.368856,47.581407],[-122.368772,47.58141],[-122.368726,47.581444],[-122.36872,47.581676],[-122.368587,47.581675],[-122.368611,47.579696],[-122.368744,47.579697],[-122.36874,47.580103],[-122.368781,47.58014],[-122.368871,47.580147]]]}},{"type":"Feature","properties":{"id":58,"area_m2":3500,"px":35,"rank":9},"geometry":{"type":"Polygon","coordinates":[[[-122.368109,47.577174],[-122.368108,47.577263],[-122.367998,47.577279],[-122.367974,47.577353],[-122.367841,47.577352],[-122.367878,47.574293],[-122.368011,47.574294],[-122.367977,47.577119],[-122.368012,47.577164],[-122.368109,47.577174]]]}},{"type":"Feature","properties":{"id":4,"area_m2":2900,"px":29,"rank":10},"geometry":{"type":"Polygon","coordinates":[[[-122.365265,47.581477],[-122.365241,47.583455],[-122.36511,47.583456],[-122.365112,47.582959],[-122.365072,47.582922],[-122.364981,47.582914],[-122.364984,47.582735],[-122.365074,47.582729],[-122.365117,47.582687],[-122.36512,47.582329],[-122.36508,47.582292],[-122.364989,47.582285],[-122.364991,47.582107],[-122.365075,47.582102],[-122.365121,47.582068],[-122.365128,47.5818],[-122.365093,47.581755],[-122.364996,47.581745],[-122.364999,47.581477],[-122.365265,47.581477]]]}},{"type":"Feature","properties":{"id":14,"area_m2":2800,"px":28,"rank":11},"geometry":{"type":"Polygon","coordinates":[[[-122.363535,47.581557],[-122.363521,47.582727],[-122.363255,47.582725],[-122.363257,47.582546],[-122.363293,47.582503],[-122.363258,47.582454],[-122.363264,47.581964],[-122.363222,47.581922],[-122.363132,47.581914],[-122.363133,47.581825],[-122.363224,47.581819],[-122.363265,47.581782],[-122.363271,47.581376],[-122.363404,47.581377],[-122.363412,47.581528],[-122.363459,47.581555],[-122.363535,47.581557]]]}},{"type":"Feature","properties":{"id":55,"area_m2":2600,"px":26,"rank":12},"geometry":{"type":"Polygon","coordinates":[[[-122.36892,47.576098],[-122.368915,47.576458],[-122.368825,47.576464],[-122.368782,47.576506],[-122.368787,47.576604],[-122.36883,47.576634],[-122.368913,47.576638],[-122.368912,47.576727],[-122.368821,47.576734],[-122.368779,47.576776],[-122.368766,47.577807],[-122.368634,47.577806],[-122.36865,47.576415],[-122.368608,47.576373],[-122.368518,47.576366],[-122.368519,47.576276],[-122.368603,47.576272],[-122.368649,47.576238],[-122.368655,47.576007],[-122.368788,47.576008],[-122.368811,47.576082],[-122.36892,47.576098]]]}},{"type":"Feature","properties":{"id":46,"area_m2":1800,"px":18,"rank":13},"geometry":{"type":"Polygon","coordinates":[[[-122.368891,47.578259],[-122.368858,47.578305],[-122.368893,47.578349],[-122.368887,47.578797],[-122.368811,47.578799],[-122.368764,47.578825],[-122.368752,47.578977],[-122.368619,47.578976],[-122.368632,47.577896],[-122.368765,47.577897],[-122.368764,47.578123],[-122.368804,47.578161],[-122.368895,47.578168],[-122.368891,47.578259]]]}},{"type":"Feature","properties":{"id":27,"area_m2":1700,"px":17,"rank":14},"geometry":{"type":"Polygon","coordinates":[[[-122.368468,47.580505],[-122.368467,47.580595],[-122.368369,47.580603],[-122.368333,47.580648],[-122.368346,47.58075],[-122.368465,47.580775],[-122.368461,47.581045],[-122.368364,47.581053],[-122.368328,47.581098],[-122.36834,47.5812],[-122.368459,47.581225],[-122.368458,47.581314],[-122.368192,47.581313],[-122.368205,47.580233],[-122.368338,47.580234],[-122.368339,47.580466],[-122.368384,47.5805],[-122.368468,47.580505]]]}},{"type":"Feature","properties":{"id":49,"area_m2":1600,"px":16,"rank":15},"geometry":{"type":"Polygon","coordinates":[[[-122.365298,47.578509],[-122.365264,47.578555],[-122.365299,47.578598],[-122.365296,47.578868],[-122.365163,47.578867],[-122.365141,47.578793],[-122.365031,47.578776],[-122.36504,47.578056],[-122.365306,47.578058],[-122.365298,47.578509]]]}},{"type":"Feature","properties":{"id":6,"area_m2":1300,"px":13,"rank":16},"geometry":{"type":"Polygon","coordinates":[[[-122.367503,47.58311],[-122.36747,47.583156],[-122.367505,47.583199],[-122.367502,47.583379],[-122.366838,47.583375],[-122.36684,47.583195],[-122.367203,47.583188],[-122.367239,47.583149],[-122.367241,47.583017],[-122.367507,47.583019],[-122.367503,47.58311]]]}},{"type":"Feature","properties":{"id":37,"area_m2":1300,"px":13,"rank":17},"geometry":{"type":"Polygon","coordinates":[[[-122.368478,47.579695],[-122.368477,47.579785],[-122.368379,47.579794],[-122.368343,47.579838],[-122.368355,47.57994],[-122.368474,47.579965],[-122.368473,47.580055],[-122.368208,47.580053],[-122.368219,47.579064],[-122.368352,47.579065],[-122.368346,47.579646],[-122.368387,47.579688],[-122.368478,47.579695]]]}},{"type":"Feature","properties":{"id":44,"area_m2":1300,"px":13,"rank":18},"geometry":{"type":"Polygon","coordinates":[[[-122.367559,47.5787],[-122.367557,47.57888],[-122.367466,47.578886],[-122.367425,47.578923],[-122.36742,47.579149],[-122.367022,47.579147],[-122.367023,47.579057],[-122.367114,47.579051],[-122.367155,47.579014],[-122.36716,47.578698],[-122.367559,47.5787]]]}},{"type":"Feature","properties":{"id":9,"area_m2":1200,"px":12,"rank":19},"geometry":{"type":"Polygon","coordinates":[[[-122.364182,47.583001],[-122.364178,47.58336],[-122.364045,47.58336],[-122.364036,47.583298],[-122.363982,47.58327],[-122.363647,47.583267],[-122.363649,47.583088],[-122.363759,47.583072],[-122.363784,47.582998],[-122.364182,47.583001]]]}},{"type":"Feature","properties":{"id":15,"area_m2":1200,"px":12,"rank":20},"geometry":{"type":"Polygon","coordinates":[[[-122.367512,47.582569],[-122.367511,47.582659],[-122.366846,47.582655],[-122.366847,47.582565],[-122.366884,47.582523],[-122.366849,47.582475],[-122.36685,47.582385],[-122.367184,47.582386],[-122.367239,47.582359],[-122.36725,47.582298],[-122.367382,47.582298],[-122.367383,47.58253],[-122.367429,47.582564],[-122.367512,47.582569]]]}},{"type":"Feature","properties":{"id":52,"area_m2":1200,"px":12,"rank":21},"geometry":{"type":"Polygon","coordinates":[[[-122.367565,47.57816],[-122.367562,47.57843],[-122.367452,47.578445],[-122.367428,47.578519],[-122.367295,47.578519],[-122.367273,47.578444],[-122.367163,47.578428],[-122.367165,47.578248],[-122.367263,47.57824],[-122.367299,47.578195],[-122.367287,47.578093],[-122.367168,47.578068],[-122.367169,47.577978],[-122.367434,47.57798],[-122.367442,47.578131],[-122.367489,47.578158],[-122.367565,47.57816]]]}},{"type":"Feature","properties":{"id":1,"area_m2":1100,"px":11,"rank":22},"geometry":{"type":"Polygon","coordinates":[[[-122.364172,47.58381],[-122.364171,47.5839],[-122.364062,47.583915],[-122.364037,47.583989],[-122.363918,47.584013],[-122.363903,47.584079],[-122.36377,47.584078],[-122.363748,47.584004],[-122.363639,47.583987],[-122.363604,47.583906],[-122.363507,47.583896],[-122.363508,47.583807],[-122.363617,47.583791],[-122.363642,47.583717],[-122.363908,47.583719],[-122.36391,47.58377],[-122.363949,47.583803],[-122.364172,47.58381]]]}},{"type":"Feature","properties":{"id":5,"area_m2":1100,"px":11,"rank":23},"geometry":{"type":"Polygon","coordinates":[[[-122.363518,47.582907],[-122.363512,47.583447],[-122.363379,47.583446],[-122.363357,47.583372],[-122.363247,47.583355],[-122.363253,47.582905],[-122.363518,47.582907]]]}},{"type":"Feature","properties":{"id":47,"area_m2":1100,"px":11,"rank":24},"geometry":{"type":"Polygon","coordinates":[[[-122.368365,47.577985],[-122.368353,47.578974],[-122.368221,47.578974],[-122.368232,47.577984],[-122.368365,47.577985]]]}},{"type":"Feature","properties":{"id":3,"area_m2":1000,"px":10,"rank":25},"geometry":{"type":"Polygon","coordinates":[[[-122.365237,47.583726],[-122.365235,47.583906],[-122.36457,47.583902],[-122.364573,47.583723],[-122.365237,47.583726]]]}},{"type":"Feature","properties":{"id":40,"area_m2":1000,"px":10,"rank":26},"geometry":{"type":"Polygon","coordinates":[[[-122.367417,47.579419],[-122.367414,47.579689],[-122.367304,47.579704],[-122.36728,47.579778],[-122.367147,47.579778],[-122.367124,47.579703],[-122.367015,47.579687],[-122.367018,47.579417],[-122.367417,47.579419]]]}},{"type":"Feature","properties":{"id":42,"area_m2":1000,"px":10,"rank":27},"geometry":{"type":"Polygon","coordinates":[[[-122.368883,47.579157],[-122.368879,47.579517],[-122.368769,47.579532],[-122.368745,47.579606],[-122.368612,47.579606],[-122.368618,47.579066],[-122.368751,47.579067],[-122.368774,47.579141],[-122.368883,47.579157]]]}},{"type":"Feature","properties":{"id":33,"area_m2":900,"px":9,"rank":28},"geometry":{"type":"Polygon","coordinates":[[[-122.367411,47.579959],[-122.367406,47.580319],[-122.367274,47.580318],[-122.367251,47.580244],[-122.367142,47.580227],[-122.367107,47.580146],[-122.36701,47.580137],[-122.367012,47.579957],[-122.367411,47.579959]]]}},{"type":"Feature","properties":{"id":23,"area_m2":700,"px":7,"rank":29},"geometry":{"type":"Polygon","coordinates":[[[-122.364734,47.581384],[-122.364729,47.581744],[-122.364597,47.581743],[-122.364574,47.581669],[-122.364465,47.581652],[-122.364468,47.581383],[-122.364734,47.581384]]]}},{"type":"Feature","properties":{"id":28,"area_m2":700,"px":7,"rank":30},"geometry":{"type":"Polygon","coordinates":[[[-122.365273,47.580757],[-122.365269,47.581117],[-122.365136,47.581116],[-122.365114,47.581042],[-122.365004,47.581025],[-122.365008,47.580756],[-122.365273,47.580757]]]}},{"type":"Feature","properties":{"id":29,"area_m2":700,"px":7,"rank":31},"geometry":{"type":"Polygon","coordinates":[[[-122.363545,47.580748],[-122.363541,47.581017],[-122.363432,47.581033],[-122.363407,47.581107],[-122.363274,47.581106],[-122.363279,47.580746],[-122.363545,47.580748]]]}},{"type":"Feature","properties":{"id":36,"area_m2":700,"px":7,"rank":32},"geometry":{"type":"Polygon","coordinates":[[[-122.363025,47.579755],[-122.36302,47.580115],[-122.362888,47.580114],[-122.362865,47.58004],[-122.362756,47.580023],[-122.362759,47.579753],[-122.363025,47.579755]]]}},{"type":"Feature","properties":{"id":11,"area_m2":600,"px":6,"rank":33},"geometry":{"type":"Polygon","coordinates":[[[-122.366316,47.582473],[-122.36631,47.583012],[-122.366177,47.583011],[-122.366184,47.582472],[-122.366316,47.582473]]]}},{"type":"Feature","properties":{"id":25,"area_m2":600,"px":6,"rank":34},"geometry":{"type":"Polygon","coordinates":[[[-122.366333,47.581123],[-122.366327,47.581573],[-122.366195,47.581572],[-122.366193,47.58143],[-122.366147,47.581396],[-122.366064,47.581391],[-122.366065,47.581301],[-122.366141,47.581299],[-122.366189,47.581273],[-122.3662,47.581122],[-122.366333,47.581123]]]}},{"type":"Feature","properties":{"id":50,"area_m2":600,"px":6,"rank":35},"geometry":{"type":"Polygon","coordinates":[[[-122.363573,47.578408],[-122.363572,47.578498],[-122.363481,47.578504],[-122.36344,47.578541],[-122.363436,47.578767],[-122.363303,47.578767],[-122.363308,47.578317],[-122.363441,47.578318],[-122.363464,47.578392],[-122.363573,47.578408]]]}},{"type":"Feature","properties":{"id":13,"area_m2":500,"px":5,"rank":36},"geometry":{"type":"Polygon","coordinates":[[[-122.36299,47.582634],[-122.362988,47.582814],[-122.362878,47.582829],[-122.362854,47.582903],[-122.362721,47.582902],[-122.362724,47.582633],[-122.36299,47.582634]]]}},{"type":"Feature","properties":{"id":21,"area_m2":500,"px":5,"rank":37},"geometry":{"type":"Polygon","coordinates":[[[-122.363001,47.581734],[-122.362999,47.581914],[-122.362733,47.581913],[-122.362736,47.581643],[-122.362869,47.581644],[-122.362891,47.581718],[-122.363001,47.581734]]]}},{"type":"Feature","properties":{"id":22,"area_m2":500,"px":5,"rank":38},"geometry":{"type":"Polygon","coordinates":[[[-122.368452,47.581586],[-122.368419,47.581632],[-122.368454,47.581674],[-122.368453,47.581764],[-122.368187,47.581763],[-122.36819,47.581493],[-122.368456,47.581495],[-122.368452,47.581586]]]}},{"type":"Feature","properties":{"id":34,"area_m2":500,"px":5,"rank":39},"geometry":{"type":"Polygon","coordinates":[[[-122.365948,47.579951],[-122.365946,47.580131],[-122.365869,47.580133],[-122.365822,47.580159],[-122.365811,47.58031],[-122.365678,47.580309],[-122.365681,47.58004],[-122.365791,47.580024],[-122.365815,47.57995],[-122.365948,47.579951]]]}},{"type":"Feature","properties":{"id":45,"area_m2":500,"px":5,"rank":40},"geometry":{"type":"Polygon","coordinates":[[[-122.366361,47.578784],[-122.366359,47.578963],[-122.366283,47.578965],[-122.366235,47.578991],[-122.366224,47.579143],[-122.366091,47.579142],[-122.366094,47.578872],[-122.366204,47.578857],[-122.366228,47.578783],[-122.366361,47.578784]]]}},{"type":"Feature","properties":{"id":51,"area_m2":500,"px":5,"rank":41},"geometry":{"type":"Polygon","coordinates":[[[-122.366366,47.578334],[-122.366363,47.578604],[-122.366097,47.578602],[-122.3661,47.578422],[-122.366209,47.578407],[-122.366234,47.578333],[-122.366366,47.578334]]]}},{"type":"Feature","properties":{"id":59,"area_m2":500,"px":5,"rank":42},"geometry":{"type":"Polygon","coordinates":[[[-122.365988,47.576622],[-122.365986,47.576802],[-122.365587,47.5768],[-122.365588,47.57671],[-122.365698,47.576695],[-122.365722,47.576621],[-122.365988,47.576622]]]}},{"type":"Feature","properties":{"id":2,"area_m2":400,"px":4,"rank":43},"geometry":{"type":"Polygon","coordinates":[[[-122.366301,47.583732],[-122.3663,47.583822],[-122.36619,47.583837],[-122.366166,47.583911],[-122.3659,47.58391],[-122.365901,47.58382],[-122.366011,47.583805],[-122.366035,47.583731],[-122.366301,47.583732]]]}},{"type":"Feature","properties":{"id":8,"area_m2":400,"px":4,"rank":44},"geometry":{"type":"Polygon","coordinates":[[[-122.364714,47.583004],[-122.36471,47.583363],[-122.364577,47.583363],[-122.364581,47.583003],[-122.364714,47.583004]]]}},{"type":"Feature","properties":{"id":16,"area_m2":400,"px":4,"rank":45},"geometry":{"type":"Polygon","coordinates":[[[-122.364721,47.582464],[-122.364719,47.582644],[-122.364586,47.582643],[-122.364578,47.582491],[-122.364531,47.582465],[-122.364455,47.582462],[-122.364457,47.582282],[-122.36459,47.582283],[-122.364598,47.582434],[-122.364644,47.582461],[-122.364721,47.582464]]]}},{"type":"Feature","properties":{"id":32,"area_m2":400,"px":4,"rank":46},"geometry":{"type":"Polygon","coordinates":[[[-122.363419,47.580117],[-122.363416,47.580387],[-122.363283,47.580386],[-122.363261,47.580312],[-122.363151,47.580295],[-122.363152,47.580206],[-122.363262,47.58019],[-122.363286,47.580116],[-122.363419,47.580117]]]}},{"type":"Feature","properties":{"id":41,"area_m2":400,"px":4,"rank":47},"geometry":{"type":"Polygon","coordinates":[[[-122.363028,47.579485],[-122.363026,47.579665],[-122.36276,47.579663],[-122.362762,47.579484],[-122.363028,47.579485]]]}},{"type":"Feature","properties":{"id":48,"area_m2":400,"px":4,"rank":48},"geometry":{"type":"Polygon","coordinates":[[[-122.363037,47.578765],[-122.363036,47.578855],[-122.362926,47.57887],[-122.362902,47.578944],[-122.362769,47.578944],[-122.362772,47.578674],[-122.362905,47.578674],[-122.362927,47.578749],[-122.363037,47.578765]]]}},{"type":"Feature","properties":{"id":54,"area_m2":400,"px":4,"rank":49},"geometry":{"type":"Polygon","coordinates":[[[-122.364774,47.578055],[-122.364772,47.578235],[-122.364506,47.578233],[-122.364508,47.578054],[-122.364774,47.578055]]]}},{"type":"Feature","properties":{"id":56,"area_m2":400,"px":4,"rank":50},"geometry":{"type":"Polygon","coordinates":[[[-122.362521,47.577413],[-122.362519,47.577592],[-122.362253,47.577591],[-122.362255,47.577411],[-122.362521,47.577413]]]}},{"type":"Feature","properties":{"id":60,"area_m2":400,"px":4,"rank":51},"geometry":{"type":"Polygon","coordinates":[[[-122.365992,47.576262],[-122.365989,47.576532],[-122.365723,47.57653],[-122.365725,47.576441],[-122.365808,47.576437],[-122.365854,47.576403],[-122.36586,47.576261],[-122.365992,47.576262]]]}},{"type":"Feature","properties":{"id":63,"area_m2":400,"px":4,"rank":52},"geometry":{"type":"Polygon","coordinates":[[[-122.368415,47.573846],[-122.368411,47.574206],[-122.368278,47.574205],[-122.368282,47.573845],[-122.368415,47.573846]]]}},{"type":"Feature","properties":{"id":7,"area_m2":300,"px":3,"rank":53},"geometry":{"type":"Polygon","coordinates":[[[-122.366309,47.583102],[-122.366306,47.583372],[-122.366173,47.583371],[-122.366176,47.583102],[-122.366309,47.583102]]]}},{"type":"Feature","properties":{"id":10,"area_m2":300,"px":3,"rank":54},"geometry":{"type":"Polygon","coordinates":[[[-122.362985,47.582994],[-122.362983,47.583174],[-122.362717,47.583172],[-122.362719,47.583082],[-122.362828,47.583067],[-122.362853,47.582993],[-122.362985,47.582994]]]}},{"type":"Feature","properties":{"id":12,"area_m2":300,"px":3,"rank":55},"geometry":{"type":"Polygon","coordinates":[[[-122.36751,47.582749],[-122.367508,47.582929],[-122.367375,47.582928],[-122.367352,47.582854],[-122.367243,47.582837],[-122.367244,47.582748],[-122.36751,47.582749]]]}},{"type":"Feature","properties":{"id":20,"area_m2":300,"px":3,"rank":56},"geometry":{"type":"Polygon","coordinates":[[[-122.366326,47.581663],[-122.366323,47.581933],[-122.36619,47.581932],[-122.366193,47.581662],[-122.366326,47.581663]]]}},{"type":"Feature","properties":{"id":26,"area_m2":300,"px":3,"rank":57},"geometry":{"type":"Polygon","coordinates":[[[-122.365268,47.581207],[-122.365266,47.581387],[-122.365133,47.581386],[-122.36511,47.581312],[-122.365001,47.581295],[-122.365002,47.581206],[-122.365268,47.581207]]]}},{"type":"Feature","properties":{"id":30,"area_m2":300,"px":3,"rank":58},"geometry":{"type":"Polygon","coordinates":[[[-122.36594,47.580581],[-122.365938,47.580761],[-122.365672,47.580759],[-122.365673,47.580669],[-122.365783,47.580654],[-122.365808,47.58058],[-122.36594,47.580581]]]}},{"type":"Feature","properties":{"id":35,"area_m2":300,"px":3,"rank":59},"geometry":{"type":"Polygon","coordinates":[[[-122.365282,47.580037],[-122.365279,47.580307],[-122.365146,47.580306],[-122.365149,47.580037],[-122.365282,47.580037]]]}},{"type":"Feature","properties":{"id":38,"area_m2":300,"px":3,"rank":60},"geometry":{"type":"Polygon","coordinates":[[[-122.365286,47.579677],[-122.365283,47.579947],[-122.36515,47.579947],[-122.365154,47.579677],[-122.365286,47.579677]]]}},{"type":"Feature","properties":{"id":43,"area_m2":300,"px":3,"rank":61},"geometry":{"type":"Polygon","coordinates":[[[-122.365295,47.578958],[-122.365292,47.579227],[-122.365159,47.579227],[-122.365162,47.578957],[-122.365295,47.578958]]]}},{"type":"Feature","properties":{"id":53,"area_m2":300,"px":3,"rank":62},"geometry":{"type":"Polygon","coordinates":[[[-122.365836,47.578241],[-122.365832,47.578511],[-122.3657,47.57851],[-122.365703,47.57824],[-122.365836,47.578241]]]}},{"type":"Feature","properties":{"id":62,"area_m2":300,"px":3,"rank":63},"geometry":{"type":"Polygon","coordinates":[[[-122.365353,47.574189],[-122.365352,47.574279],[-122.365086,47.574277],[-122.365088,47.574098],[-122.365221,47.574098],[-122.365243,47.574173],[-122.365353,47.574189]]]}},{"type":"Feature","properties":{"id":64,"area_m2":300,"px":3,"rank":64},"geometry":{"type":"Polygon","coordinates":[[[-122.36177,47.573539],[-122.361768,47.573719],[-122.361503,47.573718],[-122.361504,47.573628],[-122.361613,47.573613],[-122.361638,47.573539],[-122.36177,47.573539]]]}}]}