{"type":"FeatureCollection","features":[{"type":"Feature","properties":{"id":63,"area_m2":113700,"px":1137,"rank":1,"persistent":false},"geometry":{"type":"Polygon","coordinates":[[[-122.968939,46.118372],[-122.968939,46.118462],[-122.96885,46.118468],[-122.968811,46.118505],[-122.968809,46.118732],[-122.968618,46.118718],[-122.968554,46.118756],[-122.968559,46.118883],[-122.968605,46.118909],[-122.96868,46.118912],[-122.96868,46.11909],[-122.968605,46.119094],[-122.968559,46.11912],[-122.96855,46.119271],[-122.968443,46.119287],[-122.968421,46.119361],[-122.968185,46.119377],[-122.968162,46.119451],[-122.96808,46.119456],[-122.968038,46.119485],[-122.968032,46.119631],[-122.967515,46.119631],[-122.967497,46.119561],[-122.967385,46.119541],[-122.967368,46.119471],[-122.967256,46.119451],[-122.967238,46.119381],[-122.967126,46.119361],[-122.967113,46.119295],[-122.966997,46.119271],[-122.966991,46.119214],[-122.966949,46.119185],[-122.966778,46.119174],[-122.966741,46.119206],[-122.966738,46.119271],[-122.96635,46.119271],[-122.96635,46.119181],[-122.966568,46.119175],[-122.966605,46.119143],[-122.966609,46.119091],[-122.96669,46.119087],[-122.966735,46.119053],[-122.966733,46.118854],[-122.966691,46.118825],[-122.966609,46.118821],[-122.966606,46.118769],[-122.966568,46.118737],[-122.966091,46.118731],[-122.966086,46.118674],[-122.966036,46.118643],[-122.965703,46.118641],[-122.965686,46.11857],[-122.965574,46.118551],[-122.965556,46.11848],[-122.965445,46.118461],[-122.965427,46.11839],[-122.965315,46.118371],[-122.965306,46.118309],[-122.965245,46.118281],[-122.965074,46.1183],[-122.965056,46.11855],[-122.964843,46.118541],[-122.9648,46.118575],[-122.964797,46.11864],[-122.964668,46.11864],[-122.964662,46.118584],[-122.964613,46.118553],[-122.964409,46.11855],[-122.964386,46.118476],[-122.96428,46.11846],[-122.964262,46.11839],[-122.96415,46.11837],[-122.964116,46.118289],[-122.964021,46.11828],[-122.963993,46.118202],[-122.963892,46.11819],[-122.963903,46.118089],[-122.963979,46.118099],[-122.964033,46.118071],[-122.964014,46.118004],[-122.963952,46.117986],[-122.963881,46.118021],[-122.963633,46.11801],[-122.963633,46.11792],[-122.963735,46.117916],[-122.96378,46.11788],[-122.96374,46.117756],[-122.963504,46.11774],[-122.963443,46.117716],[-122.963374,46.11774],[-122.963245,46.11774],[-122.963222,46.117666],[-122.963115,46.11765],[-122.963098,46.11758],[-122.962986,46.11756],[-122.962952,46.117479],[-122.962857,46.11747],[-122.962828,46.117392],[-122.962727,46.11738],[-122.962699,46.117302],[-122.962598,46.11729],[-122.962598,46.1172],[-122.962686,46.117193],[-122.962726,46.117156],[-122.962705,46.116946],[-122.962598,46.11693],[-122.962592,46.116873],[-122.96255,46.116844],[-122.96234,46.11684],[-122.962334,46.116783],[-122.962292,46.116754],[-122.962081,46.116749],[-122.962063,46.116679],[-122.961951,46.116659],[-122.961934,46.116589],[-122.961822,46.116569],[-122.961809,46.116503],[-122.961693,46.116479],[-122.961689,46.116428],[-122.961652,46.116396],[-122.961305,46.116389],[-122.961282,46.116315],[-122.961175,46.116299],[-122.961175,46.116209],[-122.961282,46.116193],[-122.961305,46.116119],[-122.961488,46.116133],[-122.961547,46.116113],[-122.961598,46.115987],[-122.961564,46.115939],[-122.961564,46.115849],[-122.961777,46.115872],[-122.961929,46.115834],[-122.961952,46.11576],[-122.962176,46.11575],[-122.962211,46.11567],[-122.962529,46.115669],[-122.962586,46.115646],[-122.962593,46.115523],[-122.962551,46.115494],[-122.96247,46.11549],[-122.962435,46.115409],[-122.962082,46.115399],[-122.962082,46.11531],[-122.962188,46.115294],[-122.962211,46.11522],[-122.96247,46.11522],[-122.962479,46.115281],[-122.96254,46.115309],[-122.96281,46.115306],[-122.962852,46.115276],[-122.962858,46.11522],[-122.963115,46.11522],[-122.963123,46.115277],[-122.963172,46.115308],[-122.963505,46.11531],[-122.963509,46.115362],[-122.963546,46.115394],[-122.963764,46.1154],[-122.96377,46.115457],[-122.963819,46.115488],[-122.964023,46.11549],[-122.964023,46.115621],[-122.964057,46.115661],[-122.964213,46.115694],[-122.964282,46.11567],[-122.964411,46.11567],[-122.964424,46.115736],[-122.96454,46.11576],[-122.964575,46.115841],[-122.964928,46.115851],[-122.964934,46.115907],[-122.964983,46.115938],[-122.965317,46.115941],[-122.965393,46.115964],[-122.965547,46.115928],[-122.965576,46.115851],[-122.965705,46.115851],[-122.965728,46.115925],[-122.965834,46.115941],[-122.965852,46.116011],[-122.965964,46.116031],[-122.965998,46.116112],[-122.966093,46.116121],[-122.966121,46.116199],[-122.966222,46.116211],[-122.966251,46.116289],[-122.966352,46.116301],[-122.966352,46.116481],[-122.966263,46.116487],[-122.966224,46.116524],[-122.966225,46.116713],[-122.96627,46.116747],[-122.966351,46.116751],[-122.966386,46.116832],[-122.96661,46.116841],[-122.966633,46.116915],[-122.96674,46.116931],[-122.966757,46.117181],[-122.966869,46.117201],[-122.966875,46.117258],[-122.966917,46.117287],[-122.967128,46.117291],[-122.96715,46.117365],[-122.967257,46.117381],[-122.967291,46.117462],[-122.967386,46.117471],[-122.967387,46.117602],[-122.967415,46.117639],[-122.967645,46.117651],[-122.967645,46.117796],[-122.967678,46.117835],[-122.968033,46.117831],[-122.968022,46.118112],[-122.967809,46.11811],[-122.967774,46.118191],[-122.967693,46.118195],[-122.967651,46.118225],[-122.967645,46.118371],[-122.967538,46.118387],[-122.967515,46.118461],[-122.967319,46.118462],[-122.967266,46.11849],[-122.96726,46.118603],[-122.967304,46.118637],[-122.967386,46.118641],[-122.967386,46.118731],[-122.967291,46.11874],[-122.967256,46.118821],[-122.96714,46.118845],[-122.967107,46.118945],[-122.967129,46.118985],[-122.96733,46.118999],[-122.96738,46.118968],[-122.967386,46.118911],[-122.967594,46.118911],[-122.967648,46.118891],[-122.967645,46.118641],[-122.967751,46.118626],[-122.967774,46.118551],[-122.96797,46.11855],[-122.968027,46.118518],[-122.968044,46.11818],[-122.968292,46.118192],[-122.968305,46.118257],[-122.968421,46.118282],[-122.968427,46.118338],[-122.968476,46.118369],[-122.968627,46.118383],[-122.968674,46.118352],[-122.96868,46.118282],[-122.968808,46.118282],[-122.968832,46.118356],[-122.968939,46.118372]],[[-122.965834,46.116391],[-122.965828,46.116334],[-122.965786,46.116305],[-122.965643,46.116287],[-122.965581,46.116321],[-122.965575,46.116716],[-122.965621,46.11676],[-122.965793,46.116744],[-122.96583,46.116712],[-122.965834,46.116661],[-122.965915,46.116657],[-122.965957,46.116627],[-122.965957,46.116424],[-122.965915,46.116395],[-122.965834,46.116391]],[[-122.967127,46.118411],[-122.967059,46.118358],[-122.966897,46.118383],[-122.966868,46.11842],[-122.966885,46.118545],[-122.966951,46.118565],[-122.967098,46.118539],[-122.967125,46.118508],[-122.967127,46.118411]]]}},{"type":"Feature","properties":{"id":48,"area_m2":45400,"px":454,"rank":2,"persistent":false},"geometry":{"type":"Polygon","coordinates":[[[-122.969066,46.123142],[-122.969065,46.123232],[-122.968971,46.123241],[-122.968936,46.123322],[-122.968855,46.123326],[-122.968813,46.123355],[-122.968806,46.123592],[-122.968677,46.123592],[-122.968616,46.123568],[-122.968548,46.123592],[-122.968418,46.123592],[-122.968412,46.123535],[-122.96837,46.123506],[-122.968085,46.123504],[-122.968036,46.123535],[-122.96803,46.123591],[-122.967935,46.123594],[-122.967889,46.123621],[-122.967898,46.123771],[-122.967771,46.123771],[-122.967758,46.123705],[-122.967642,46.123681],[-122.967638,46.12363],[-122.967601,46.123598],[-122.967411,46.123604],[-122.967383,46.123681],[-122.967301,46.123685],[-122.967257,46.12372],[-122.967253,46.123951],[-122.967158,46.12396],[-122.967124,46.124041],[-122.967042,46.124045],[-122.966998,46.12408],[-122.967,46.124188],[-122.967042,46.124217],[-122.967123,46.124221],[-122.967123,46.124311],[-122.967017,46.124327],[-122.966994,46.124401],[-122.966878,46.124425],[-122.966864,46.124491],[-122.966735,46.124491],[-122.966712,46.124417],[-122.966606,46.124401],[-122.966606,46.124131],[-122.966641,46.124083],[-122.966593,46.123975],[-122.966536,46.123951],[-122.966218,46.123951],[-122.966218,46.123861],[-122.966324,46.123845],[-122.96638,46.123739],[-122.966347,46.12368],[-122.966367,46.123514],[-122.966286,46.123477],[-122.966218,46.123501],[-122.965892,46.123502],[-122.965839,46.123529],[-122.965829,46.123591],[-122.9657,46.123591],[-122.965677,46.123517],[-122.965571,46.123501],[-122.965553,46.123341],[-122.965442,46.123321],[-122.965407,46.12324],[-122.965312,46.123231],[-122.965284,46.123153],[-122.965183,46.123141],[-122.965154,46.123063],[-122.965053,46.123051],[-122.965025,46.122973],[-122.964924,46.122961],[-122.964896,46.122883],[-122.964795,46.12287],[-122.964785,46.122719],[-122.96474,46.122693],[-122.964665,46.12269],[-122.964677,46.12245],[-122.964631,46.122423],[-122.964536,46.12242],[-122.96453,46.122364],[-122.964488,46.122335],[-122.964277,46.12233],[-122.964274,46.122189],[-122.964229,46.122154],[-122.964148,46.12215],[-122.964148,46.12206],[-122.964255,46.122045],[-122.964277,46.12197],[-122.964378,46.121958],[-122.964407,46.12188],[-122.964508,46.121868],[-122.964536,46.12179],[-122.964631,46.121781],[-122.964666,46.121701],[-122.964778,46.121681],[-122.964795,46.121611],[-122.965054,46.121611],[-122.965054,46.121742],[-122.965082,46.121778],[-122.965442,46.121791],[-122.965451,46.121866],[-122.965517,46.121895],[-122.965667,46.121872],[-122.965701,46.121791],[-122.965813,46.121771],[-122.965831,46.121611],[-122.96609,46.121611],[-122.966118,46.121689],[-122.966348,46.121701],[-122.966371,46.121775],[-122.966478,46.121791],[-122.966512,46.121872],[-122.966607,46.121881],[-122.96662,46.122037],[-122.966736,46.122061],[-122.966754,46.122131],[-122.966866,46.122151],[-122.966883,46.122221],[-122.966995,46.122241],[-122.967008,46.122307],[-122.967125,46.122331],[-122.967128,46.122383],[-122.967166,46.122415],[-122.967383,46.122421],[-122.967444,46.122445],[-122.967513,46.122421],[-122.967717,46.122419],[-122.96777,46.122378],[-122.967772,46.122241],[-122.967901,46.122241],[-122.967901,46.122421],[-122.967813,46.122428],[-122.967773,46.122465],[-122.967771,46.122691],[-122.967671,46.122704],[-122.967642,46.122781],[-122.967547,46.12279],[-122.967513,46.122871],[-122.967401,46.122891],[-122.967383,46.122997],[-122.967438,46.123049],[-122.967642,46.123051],[-122.967651,46.123203],[-122.967697,46.123229],[-122.967771,46.123231],[-122.967806,46.123312],[-122.967901,46.123322],[-122.967934,46.123416],[-122.968348,46.123411],[-122.968415,46.123373],[-122.968418,46.12328],[-122.96839,46.123244],[-122.96816,46.123231],[-122.968137,46.123157],[-122.96803,46.123141],[-122.96803,46.122962],[-122.968137,46.122946],[-122.96816,46.122872],[-122.968419,46.122872],[-122.968422,46.122923],[-122.96846,46.122955],[-122.968677,46.122962],[-122.96869,46.123028],[-122.968807,46.123052],[-122.968841,46.123133],[-122.969066,46.123142]],[[-122.966995,46.122821],[-122.966935,46.122769],[-122.966771,46.12279],[-122.966738,46.122825],[-122.966728,46.122936],[-122.966786,46.122961],[-122.96696,46.122952],[-122.966993,46.122918],[-122.966995,46.122821]]]}},{"type":"Feature","properties":{"id":57,"area_m2":19100,"px":191,"rank":3,"persistent":false},"geometry":{"type":"Polygon","coordinates":[[[-122.964537,46.12026],[-122.964537,46.12035],[-122.964307,46.120363],[-122.964279,46.120399],[-122.964278,46.12053],[-122.96419,46.120537],[-122.96415,46.120574],[-122.96415,46.12068],[-122.964182,46.120714],[-122.964408,46.12071],[-122.964411,46.120852],[-122.964455,46.120886],[-122.964537,46.12089],[-122.964537,46.120979],[-122.96443,46.120996],[-122.964407,46.12107],[-122.964289,46.121081],[-122.964209,46.121046],[-122.96414,46.121079],[-122.964156,46.121148],[-122.964278,46.121162],[-122.964278,46.12134],[-122.964171,46.121356],[-122.964148,46.12143],[-122.963631,46.12143],[-122.963618,46.121364],[-122.963501,46.12134],[-122.963496,46.12127],[-122.963434,46.121237],[-122.963271,46.121262],[-122.963242,46.12134],[-122.963113,46.12134],[-122.96309,46.121266],[-122.962984,46.12125],[-122.962966,46.12118],[-122.962854,46.12116],[-122.96282,46.121079],[-122.962725,46.12107],[-122.962697,46.120992],[-122.962596,46.12098],[-122.962567,46.120902],[-122.962466,46.12089],[-122.962466,46.12062],[-122.962663,46.120619],[-122.962724,46.120576],[-122.962719,46.120383],[-122.962677,46.120354],[-122.962596,46.12035],[-122.962596,46.12008],[-122.96267,46.120077],[-122.962716,46.120051],[-122.962726,46.1199],[-122.96282,46.119897],[-122.962867,46.11987],[-122.962855,46.11972],[-122.963243,46.11972],[-122.963261,46.11979],[-122.963373,46.11981],[-122.963386,46.119876],[-122.963502,46.1199],[-122.963508,46.119957],[-122.963557,46.119988],[-122.96389,46.11999],[-122.963951,46.120014],[-122.96402,46.11999],[-122.964149,46.11999],[-122.964129,46.120114],[-122.964151,46.120154],[-122.964278,46.12017],[-122.964284,46.120227],[-122.964326,46.120256],[-122.964537,46.12026]],[[-122.963372,46.12107],[-122.963338,46.121107],[-122.963353,46.121147],[-122.963411,46.121173],[-122.963468,46.121164],[-122.9635,46.12113],[-122.963489,46.121081],[-122.963434,46.121057],[-122.963372,46.12107]]]}},{"type":"Feature","properties":{"id":29,"area_m2":18200,"px":182,"rank":4,"persistent":true},"geometry":{"type":"Polygon","coordinates":[[[-122.98149,46.126655],[-122.98149,46.127014],[-122.981408,46.127019],[-122.981364,46.127053],[-122.98136,46.127284],[-122.981231,46.127284],[-122.981225,46.127228],[-122.981176,46.127197],[-122.980972,46.127194],[-122.980966,46.127138],[-122.980917,46.127107],[-122.980768,46.127107],[-122.980715,46.127148],[-122.980726,46.12726],[-122.980842,46.127284],[-122.980877,46.127365],[-122.980972,46.127374],[-122.981,46.127452],[-122.981231,46.127465],[-122.981231,46.127644],[-122.981136,46.127654],[-122.981101,46.127734],[-122.980989,46.127754],[-122.980972,46.127914],[-122.980865,46.12793],[-122.980842,46.128004],[-122.980454,46.128004],[-122.980431,46.12793],[-122.980325,46.127914],[-122.98029,46.127833],[-122.980195,46.127824],[-122.980178,46.127664],[-122.980125,46.127645],[-122.979936,46.127644],[-122.979927,46.127493],[-122.979881,46.127467],[-122.979807,46.127464],[-122.979807,46.127284],[-122.979895,46.127278],[-122.979936,46.127236],[-122.979937,46.126114],[-122.980161,46.126105],[-122.980195,46.126066],[-122.980196,46.125934],[-122.980325,46.125934],[-122.980348,46.126008],[-122.980455,46.126024],[-122.980464,46.126176],[-122.98051,46.126202],[-122.980584,46.126204],[-122.980612,46.126282],[-122.980843,46.126294],[-122.980849,46.126351],[-122.980898,46.126382],[-122.981102,46.126385],[-122.981124,46.126459],[-122.981231,46.126475],[-122.981244,46.12654],[-122.98136,46.126565],[-122.981389,46.126642],[-122.98149,46.126655]]]}},{"type":"Feature","properties":{"id":94,"area_m2":18000,"px":180,"rank":5,"persistent":false},"geometry":{"type":"Polygon","coordinates":[[[-122.957425,46.111708],[-122.957425,46.111888],[-122.957167,46.111888],[-122.957161,46.111831],[-122.957119,46.111802],[-122.956983,46.111784],[-122.95692,46.111808],[-122.956917,46.111949],[-122.956963,46.111975],[-122.957037,46.111978],[-122.957037,46.112158],[-122.95693,46.112173],[-122.956907,46.112248],[-122.956791,46.112272],[-122.956778,46.112338],[-122.956519,46.112337],[-122.956451,46.112313],[-122.95627,46.112366],[-122.956262,46.112564],[-122.956301,46.112601],[-122.956389,46.112608],[-122.956389,46.112787],[-122.956283,46.112803],[-122.95626,46.112877],[-122.956165,46.112886],[-122.95613,46.112967],[-122.956019,46.112987],[-122.956001,46.113057],[-122.95581,46.113044],[-122.955751,46.113072],[-122.955745,46.113199],[-122.95579,46.113233],[-122.955871,46.113237],[-122.955871,46.113327],[-122.955797,46.11333],[-122.955751,46.113356],[-122.955742,46.113507],[-122.955641,46.113519],[-122.955612,46.113597],[-122.955517,46.113606],[-122.955483,46.113687],[-122.955401,46.113691],[-122.955359,46.11372],[-122.955353,46.114137],[-122.955246,46.114153],[-122.955223,46.114227],[-122.954706,46.114227],[-122.954706,46.113867],[-122.954741,46.113824],[-122.954706,46.113777],[-122.954707,46.113597],[-122.954801,46.113588],[-122.954836,46.113507],[-122.954952,46.113483],[-122.954966,46.113237],[-122.95504,46.113235],[-122.955086,46.113208],[-122.955095,46.113057],[-122.95519,46.113048],[-122.955225,46.112967],[-122.955336,46.112947],[-122.955354,46.112787],[-122.955449,46.112778],[-122.955484,46.112697],[-122.955565,46.112693],[-122.955607,46.112664],[-122.955613,46.112517],[-122.955708,46.112508],[-122.955743,46.112427],[-122.955817,46.112425],[-122.955863,46.112399],[-122.955872,46.112247],[-122.955967,46.112238],[-122.956002,46.112157],[-122.956118,46.112133],[-122.956131,46.111977],[-122.956213,46.111973],[-122.956257,46.111939],[-122.956261,46.111797],[-122.956342,46.111793],[-122.956384,46.111764],[-122.95639,46.111617],[-122.956485,46.111608],[-122.95652,46.111528],[-122.956601,46.111523],[-122.956643,46.111494],[-122.956649,46.111348],[-122.956756,46.111332],[-122.956779,46.111258],[-122.957038,46.111258],[-122.95706,46.111332],[-122.957167,46.111348],[-122.95718,46.111504],[-122.957296,46.111528],[-122.957309,46.111684],[-122.957425,46.111708]]]}},{"type":"Feature","properties":{"id":92,"area_m2":15100,"px":151,"rank":6,"persistent":false},"geometry":{"type":"Polygon","coordinates":[[[-122.963506,46.11369],[-122.963506,46.11405],[-122.963425,46.114054],[-122.96338,46.114088],[-122.963342,46.114182],[-122.963376,46.11423],[-122.963376,46.11432],[-122.963247,46.11432],[-122.963234,46.114254],[-122.963118,46.11423],[-122.963112,46.114173],[-122.96307,46.114144],[-122.96273,46.11414],[-122.962728,46.114003],[-122.962689,46.113966],[-122.962341,46.11396],[-122.962332,46.113718],[-122.962286,46.113692],[-122.962212,46.113689],[-122.962178,46.113609],[-122.962083,46.113599],[-122.96208,46.113458],[-122.962035,46.113424],[-122.961954,46.113419],[-122.961936,46.113259],[-122.961824,46.113239],[-122.96179,46.113158],[-122.961695,46.113149],[-122.961694,46.112833],[-122.961654,46.112796],[-122.961566,46.112788],[-122.961566,46.112519],[-122.961654,46.112513],[-122.961695,46.112471],[-122.961696,46.112159],[-122.961825,46.112159],[-122.961831,46.112216],[-122.96188,46.112247],[-122.962084,46.11225],[-122.96209,46.112396],[-122.962132,46.112425],[-122.962213,46.11243],[-122.962247,46.11251],[-122.962342,46.11252],[-122.96236,46.11268],[-122.962472,46.1127],[-122.962506,46.112781],[-122.962601,46.11279],[-122.962629,46.112867],[-122.96273,46.11288],[-122.962759,46.112957],[-122.96286,46.11297],[-122.962888,46.113047],[-122.962989,46.11306],[-122.963017,46.113138],[-122.963118,46.11315],[-122.963118,46.11333],[-122.96303,46.113336],[-122.96299,46.113373],[-122.962986,46.113579],[-122.963039,46.1136],[-122.963247,46.1136],[-122.963253,46.113657],[-122.963303,46.113688],[-122.963506,46.11369]]]}},{"type":"Feature","properties":{"id":53,"area_m2":12200,"px":122,"rank":7,"persistent":false},"geometry":{"type":"Polygon","coordinates":[[[-122.976184,46.122964],[-122.976184,46.123053],[-122.975937,46.123064],[-122.97592,46.122997],[-122.975878,46.122968],[-122.975734,46.12295],[-122.975672,46.122983],[-122.975689,46.123128],[-122.975925,46.123143],[-122.975925,46.123233],[-122.975891,46.123276],[-122.975925,46.123323],[-122.975925,46.123413],[-122.975708,46.12342],[-122.97567,46.123452],[-122.975666,46.123503],[-122.975278,46.123503],[-122.975256,46.123429],[-122.975149,46.123413],[-122.975116,46.123319],[-122.97489,46.123323],[-122.97489,46.123233],[-122.974925,46.123185],[-122.974856,46.123062],[-122.974631,46.123053],[-122.97457,46.123029],[-122.974502,46.123053],[-122.974243,46.123053],[-122.97422,46.122979],[-122.974114,46.122963],[-122.974114,46.122873],[-122.974148,46.122831],[-122.974114,46.122782],[-122.974125,46.122363],[-122.974064,46.122333],[-122.973596,46.122333],[-122.973573,46.122259],[-122.973467,46.122243],[-122.973467,46.122153],[-122.973596,46.122153],[-122.973609,46.122219],[-122.973674,46.122243],[-122.973821,46.122234],[-122.973855,46.122153],[-122.973984,46.122153],[-122.974019,46.122234],[-122.974173,46.122243],[-122.97424,46.122205],[-122.974244,46.122063],[-122.974373,46.122063],[-122.974379,46.12221],[-122.974421,46.122239],[-122.974502,46.122243],[-122.974525,46.122317],[-122.974815,46.122347],[-122.974882,46.122318],[-122.974891,46.122243],[-122.975096,46.122254],[-122.975144,46.122223],[-122.975149,46.122153],[-122.975279,46.122153],[-122.975282,46.122295],[-122.975327,46.122329],[-122.975408,46.122333],[-122.975426,46.122494],[-122.975537,46.122513],[-122.975543,46.12257],[-122.975585,46.122599],[-122.975796,46.122603],[-122.975819,46.122678],[-122.975926,46.122693],[-122.97596,46.122774],[-122.976055,46.122784],[-122.976073,46.122944],[-122.976184,46.122964]],[[-122.975297,46.122918],[-122.975273,46.122817],[-122.975231,46.122787],[-122.975087,46.12277],[-122.975025,46.122803],[-122.975021,46.12292],[-122.975068,46.122959],[-122.975258,46.122957],[-122.975297,46.122918]],[[-122.975068,46.122599],[-122.975211,46.122617],[-122.975266,46.122593],[-122.975275,46.122462],[-122.975224,46.122426],[-122.975075,46.122426],[-122.975023,46.122462],[-122.975023,46.122565],[-122.975068,46.122599]]]}},{"type":"Feature","properties":{"id":101,"area_m2":10500,"px":105,"rank":8,"persistent":false},"geometry":{"type":"Polygon","coordinates":[[[-122.962214,46.11081],[-122.962214,46.110899],[-122.962133,46.110904],[-122.962091,46.110933],[-122.962084,46.111079],[-122.96205,46.111122],[-122.962102,46.11124],[-122.962214,46.11126],[-122.962214,46.111349],[-122.962119,46.111359],[-122.962084,46.111439],[-122.961968,46.111463],[-122.961955,46.111619],[-122.961696,46.111619],[-122.961679,46.111446],[-122.961621,46.111425],[-122.9615,46.11144],[-122.961439,46.111483],[-122.961437,46.111619],[-122.96133,46.111635],[-122.961308,46.111709],[-122.961191,46.111733],[-122.961178,46.111799],[-122.960919,46.111799],[-122.960902,46.111639],[-122.96079,46.111619],[-122.960756,46.111538],[-122.960661,46.111529],[-122.960632,46.111451],[-122.960532,46.111439],[-122.960532,46.111259],[-122.960633,46.111247],[-122.960661,46.111169],[-122.960762,46.111157],[-122.960791,46.111079],[-122.960885,46.11107],[-122.96092,46.110989],[-122.961032,46.110969],[-122.96105,46.110809],[-122.961156,46.110793],[-122.961179,46.110719],[-122.961286,46.110703],[-122.961309,46.110629],[-122.961415,46.110613],[-122.961438,46.110539],[-122.961554,46.110515],[-122.961569,46.110449],[-122.961826,46.110449],[-122.961823,46.110699],[-122.961876,46.110719],[-122.962085,46.11072],[-122.962107,46.110794],[-122.962214,46.11081]]]}},{"type":"Feature","properties":{"id":90,"area_m2":10400,"px":104,"rank":9,"persistent":false},"geometry":{"type":"Polygon","coordinates":[[[-122.961695,46.113509],[-122.961695,46.113599],[-122.961588,46.113615],[-122.961565,46.113689],[-122.961449,46.113713],[-122.961436,46.113779],[-122.961097,46.113779],[-122.961049,46.113796],[-122.961028,46.113835],[-122.961047,46.114049],[-122.960973,46.114051],[-122.960927,46.114078],[-122.960918,46.114229],[-122.960714,46.114231],[-122.960665,46.114262],[-122.960659,46.114319],[-122.960428,46.114331],[-122.9604,46.114368],[-122.9604,46.114499],[-122.960143,46.114515],[-122.960121,46.114555],[-122.960141,46.114679],[-122.960034,46.114695],[-122.960011,46.114769],[-122.959494,46.114769],[-122.959471,46.114694],[-122.959365,46.114679],[-122.95933,46.114598],[-122.959235,46.114588],[-122.959235,46.114499],[-122.959342,46.114483],[-122.959365,46.114409],[-122.959561,46.114408],[-122.959614,46.11438],[-122.959658,46.114276],[-122.959624,46.114229],[-122.959624,46.114049],[-122.95986,46.114033],[-122.959883,46.113869],[-122.960244,46.11387],[-122.960271,46.113779],[-122.960352,46.113775],[-122.960394,46.113746],[-122.960401,46.113599],[-122.96053,46.113599],[-122.960547,46.113669],[-122.960659,46.113689],[-122.960668,46.11375],[-122.960722,46.113778],[-122.960877,46.113773],[-122.960915,46.113741],[-122.960918,46.113689],[-122.96103,46.113669],[-122.961062,46.113544],[-122.961013,46.113512],[-122.960918,46.113509],[-122.960884,46.113428],[-122.960789,46.113419],[-122.960789,46.113239],[-122.961007,46.113233],[-122.961044,46.113201],[-122.961048,46.113149],[-122.961307,46.113149],[-122.961322,46.113322],[-122.961186,46.113358],[-122.961195,46.113489],[-122.961247,46.113509],[-122.961401,46.1135],[-122.961436,46.113461],[-122.96142,46.113337],[-122.961565,46.113329],[-122.961574,46.113481],[-122.96162,46.113507],[-122.961695,46.113509]]]}},{"type":"Feature","properties":{"id":86,"area_m2":10300,"px":103,"rank":10,"persistent":false},"geometry":{"type":"Polygon","coordinates":[[[-122.957682,46.114948],[-122.957682,46.115218],[-122.957575,46.115234],[-122.957552,46.115308],[-122.957212,46.115312],[-122.95717,46.115341],[-122.957164,46.115398],[-122.956933,46.11541],[-122.956905,46.115488],[-122.956646,46.115488],[-122.956637,46.115426],[-122.956584,46.115399],[-122.956258,46.115397],[-122.956258,46.115308],[-122.95637,46.115288],[-122.956422,46.115175],[-122.956388,46.115127],[-122.956384,46.114806],[-122.95634,46.114772],[-122.956259,46.114767],[-122.956259,46.114497],[-122.956476,46.114491],[-122.956514,46.114459],[-122.956518,46.114408],[-122.956748,46.114395],[-122.956777,46.114318],[-122.957294,46.114318],[-122.957307,46.114474],[-122.957423,46.114498],[-122.957458,46.114579],[-122.957553,46.114588],[-122.957552,46.114768],[-122.957518,46.114816],[-122.957558,46.114915],[-122.9576,46.114944],[-122.957682,46.114948]]]}},{"type":"Feature","properties":{"id":71,"area_m2":8900,"px":89,"rank":11,"persistent":false},"geometry":{"type":"Polygon","coordinates":[[[-122.961174,46.117199],[-122.961174,46.117559],[-122.961079,46.117568],[-122.961045,46.117649],[-122.960928,46.117673],[-122.960915,46.117919],[-122.960808,46.117935],[-122.960786,46.118009],[-122.960656,46.118009],[-122.960643,46.117943],[-122.960527,46.117919],[-122.960521,46.117862],[-122.960479,46.117833],[-122.960209,46.117829],[-122.960148,46.117857],[-122.960138,46.117919],[-122.960027,46.117939],[-122.960009,46.118009],[-122.959791,46.118015],[-122.959754,46.118047],[-122.95975,46.118099],[-122.959491,46.118099],[-122.959492,46.117919],[-122.95958,46.117912],[-122.959621,46.11787],[-122.959621,46.117379],[-122.959857,46.117363],[-122.95988,46.117199],[-122.961174,46.117199]]]}},{"type":"Feature","properties":{"id":78,"area_m2":7900,"px":79,"rank":12,"persistent":false},"geometry":{"type":"Polygon","coordinates":[[[-122.958066,46.1163],[-122.958034,46.116346],[-122.958069,46.116388],[-122.958069,46.116658],[-122.957974,46.116667],[-122.957939,46.116748],[-122.957828,46.116768],[-122.95781,46.116928],[-122.957703,46.116944],[-122.95768,46.117018],[-122.957551,46.117018],[-122.957542,46.116957],[-122.957488,46.116929],[-122.957163,46.116928],[-122.95714,46.116854],[-122.957033,46.116838],[-122.957033,46.116436],[-122.956993,46.116394],[-122.956904,46.116388],[-122.956904,46.116208],[-122.957021,46.116184],[-122.957034,46.116028],[-122.957141,46.116012],[-122.957164,46.115938],[-122.957381,46.115932],[-122.957419,46.1159],[-122.957422,46.115848],[-122.957681,46.115848],[-122.957704,46.115922],[-122.95781,46.115938],[-122.957819,46.11618],[-122.957873,46.116207],[-122.958069,46.116208],[-122.958066,46.1163]]]}},{"type":"Feature","properties":{"id":91,"area_m2":7800,"px":78,"rank":13,"persistent":false},"geometry":{"type":"Polygon","coordinates":[[[-122.957165,46.113508],[-122.957165,46.113778],[-122.957091,46.11378],[-122.957045,46.113806],[-122.957035,46.113958],[-122.956702,46.11396],[-122.956653,46.113991],[-122.956647,46.114048],[-122.956417,46.11406],[-122.956388,46.114137],[-122.956041,46.114144],[-122.956003,46.114176],[-122.956,46.114227],[-122.955919,46.114231],[-122.955877,46.114261],[-122.95587,46.114407],[-122.955482,46.114407],[-122.955483,46.114137],[-122.955557,46.114135],[-122.955603,46.114109],[-122.955612,46.113957],[-122.955713,46.113945],[-122.955742,46.113867],[-122.955843,46.113855],[-122.955871,46.113777],[-122.955966,46.113768],[-122.956001,46.113687],[-122.956112,46.113668],[-122.95613,46.113507],[-122.956237,46.113492],[-122.95626,46.113417],[-122.956354,46.113408],[-122.956389,46.113328],[-122.956501,46.113308],[-122.956519,46.113238],[-122.956648,46.113238],[-122.956661,46.113304],[-122.956777,46.113328],[-122.956806,46.113405],[-122.957036,46.113418],[-122.957059,46.113492],[-122.957165,46.113508]]]}},{"type":"Feature","properties":{"id":105,"area_m2":7600,"px":76,"rank":14,"persistent":false},"geometry":{"type":"Polygon","coordinates":[[[-122.959238,46.110809],[-122.959238,46.110988],[-122.959131,46.111004],[-122.959108,46.111078],[-122.958992,46.111102],[-122.958979,46.111168],[-122.95872,46.111168],[-122.958711,46.111107],[-122.958658,46.111079],[-122.958332,46.111078],[-122.958323,46.111017],[-122.958262,46.110988],[-122.958108,46.110997],[-122.958073,46.111078],[-122.957944,46.111078],[-122.957927,46.110634],[-122.957861,46.110614],[-122.957708,46.110644],[-122.957685,46.110808],[-122.957426,46.110808],[-122.957423,46.110666],[-122.957378,46.110632],[-122.957297,46.110628],[-122.957297,46.110538],[-122.957392,46.110529],[-122.957427,46.110448],[-122.957543,46.110424],[-122.957556,46.110268],[-122.957663,46.110252],[-122.957686,46.110178],[-122.957815,46.110178],[-122.957828,46.110244],[-122.957944,46.110268],[-122.957947,46.110333],[-122.95799,46.110367],[-122.958332,46.110358],[-122.958338,46.110415],[-122.958387,46.110446],[-122.95872,46.110448],[-122.958743,46.110612],[-122.95885,46.110628],[-122.958863,46.110694],[-122.958979,46.110718],[-122.958982,46.11077],[-122.95902,46.110802],[-122.959238,46.110809]]]}},{"type":"Feature","properties":{"id":87,"area_m2":7300,"px":73,"rank":15,"persistent":false},"geometry":{"type":"Polygon","coordinates":[[[-122.958976,46.114769],[-122.958976,46.115128],[-122.95814,46.115128],[-122.958079,46.115157],[-122.95807,46.115218],[-122.957941,46.115218],[-122.957918,46.115144],[-122.957811,46.115128],[-122.957811,46.114679],[-122.957923,46.114658],[-122.957975,46.114535],[-122.957888,46.114474],[-122.957812,46.114498],[-122.957682,46.114498],[-122.957682,46.114318],[-122.9582,46.114318],[-122.958203,46.11437],[-122.958241,46.114402],[-122.958431,46.114404],[-122.958478,46.114363],[-122.958457,46.114272],[-122.958418,46.114235],[-122.95833,46.114228],[-122.95833,46.114048],[-122.958588,46.114048],[-122.958611,46.114122],[-122.958718,46.114138],[-122.958717,46.114408],[-122.958683,46.114456],[-122.958717,46.114498],[-122.958723,46.114735],[-122.95878,46.114767],[-122.958976,46.114769]]]}},{"type":"Feature","properties":{"id":83,"area_m2":6400,"px":64,"rank":16,"persistent":false},"geometry":{"type":"Polygon","coordinates":[[[-122.960528,46.116029],[-122.960528,46.116119],[-122.960399,46.116119],[-122.96037,46.116041],[-122.960208,46.116005],[-122.96014,46.116029],[-122.959922,46.116035],[-122.959884,46.116067],[-122.959881,46.116119],[-122.959622,46.116119],[-122.959619,46.116067],[-122.959581,46.116035],[-122.959364,46.116029],[-122.959329,46.115948],[-122.959105,46.115938],[-122.959076,46.115861],[-122.958914,46.115824],[-122.958745,46.115861],[-122.958716,46.115938],[-122.9586,46.115962],[-122.958587,46.116028],[-122.958199,46.116028],[-122.958197,46.115802],[-122.958158,46.115765],[-122.95807,46.115758],[-122.95807,46.115578],[-122.958327,46.115562],[-122.958348,46.115522],[-122.958329,46.115398],[-122.958846,46.115398],[-122.958875,46.115476],[-122.959105,46.115489],[-122.959111,46.115545],[-122.959153,46.115574],[-122.959493,46.115579],[-122.959499,46.115725],[-122.959541,46.115755],[-122.959622,46.115759],[-122.959626,46.11581],[-122.959663,46.115842],[-122.95995,46.115861],[-122.960005,46.115829],[-122.960011,46.115759],[-122.96014,46.115759],[-122.960163,46.115833],[-122.960269,46.115849],[-122.960283,46.115915],[-122.960399,46.115939],[-122.960427,46.116017],[-122.960528,46.116029]]]}},{"type":"Feature","properties":{"id":99,"area_m2":5600,"px":56,"rank":17,"persistent":false},"geometry":{"type":"Polygon","coordinates":[[[-122.960531,46.111889],[-122.960531,46.112159],[-122.960402,46.112159],[-122.960333,46.112135],[-122.960177,46.112168],[-122.960143,46.112249],[-122.960026,46.112273],[-122.960013,46.112339],[-122.959901,46.112358],[-122.959884,46.112429],[-122.959772,46.112448],[-122.959754,46.112519],[-122.959625,46.112519],[-122.959602,46.112444],[-122.959496,46.112429],[-122.959496,46.111889],[-122.959603,46.111873],[-122.959658,46.111767],[-122.959626,46.111709],[-122.959626,46.111529],[-122.960143,46.111529],[-122.960166,46.111603],[-122.960272,46.111619],[-122.960307,46.1117],[-122.960402,46.111709],[-122.960419,46.111869],[-122.960531,46.111889]]]}},{"type":"Feature","properties":{"id":45,"area_m2":5500,"px":55,"rank":18,"persistent":false},"geometry":{"type":"Polygon","coordinates":[[[-122.969712,46.124132],[-122.969712,46.124312],[-122.969638,46.124314],[-122.969592,46.12434],[-122.969583,46.124492],[-122.969488,46.124494],[-122.969442,46.124522],[-122.969453,46.124672],[-122.969379,46.124674],[-122.969333,46.1247],[-122.969323,46.124852],[-122.968847,46.124858],[-122.968807,46.124895],[-122.968806,46.125032],[-122.968547,46.125032],[-122.968524,46.124957],[-122.968418,46.124942],[-122.968414,46.1248],[-122.96837,46.124766],[-122.968288,46.124762],[-122.968288,46.124672],[-122.968418,46.124672],[-122.968427,46.124733],[-122.96848,46.124761],[-122.968621,46.124759],[-122.968676,46.124713],[-122.968671,46.124525],[-122.968629,46.124496],[-122.968547,46.124492],[-122.968547,46.124222],[-122.968936,46.124222],[-122.96897,46.124303],[-122.969148,46.124321],[-122.969191,46.124287],[-122.969195,46.124222],[-122.969276,46.124218],[-122.969321,46.124184],[-122.969324,46.123952],[-122.969453,46.123952],[-122.969476,46.124026],[-122.969583,46.124042],[-122.969617,46.124123],[-122.969712,46.124132]]]}},{"type":"Feature","properties":{"id":62,"area_m2":5000,"px":50,"rank":19,"persistent":false},"geometry":{"type":"Polygon","coordinates":[[[-122.964408,46.11945],[-122.964408,46.11963],[-122.964302,46.119646],[-122.964279,46.11972],[-122.96402,46.11972],[-122.964011,46.119659],[-122.963958,46.119631],[-122.963632,46.11963],[-122.963609,46.119556],[-122.963503,46.11954],[-122.963485,46.11938],[-122.963373,46.11936],[-122.963339,46.119279],[-122.963244,46.11927],[-122.963244,46.11909],[-122.96336,46.119066],[-122.963372,46.118953],[-122.963332,46.118916],[-122.963244,46.11891],[-122.963241,46.118858],[-122.963203,46.118826],[-122.962985,46.11882],[-122.962985,46.11855],[-122.963115,46.11855],[-122.963138,46.118624],[-122.963244,46.11864],[-122.963279,46.118721],[-122.963373,46.11873],[-122.963396,46.118894],[-122.963632,46.11891],[-122.963655,46.118984],[-122.963762,46.119],[-122.963779,46.11907],[-122.963891,46.11909],[-122.963925,46.119171],[-122.96402,46.11918],[-122.964049,46.119258],[-122.96415,46.11927],[-122.964178,46.119348],[-122.964279,46.11936],[-122.964307,46.119438],[-122.964408,46.11945]]]}},{"type":"Feature","properties":{"id":61,"area_m2":4400,"px":44,"rank":20,"persistent":false},"geometry":{"type":"Polygon","coordinates":[[[-122.962985,46.11891],[-122.962985,46.11927],[-122.962767,46.119276],[-122.962729,46.119308],[-122.962726,46.11936],[-122.962494,46.119359],[-122.962467,46.119395],[-122.962467,46.11963],[-122.96236,46.119646],[-122.962337,46.11972],[-122.962221,46.119744],[-122.962208,46.11981],[-122.962079,46.11981],[-122.962056,46.119735],[-122.961949,46.119719],[-122.961915,46.119639],[-122.96182,46.119629],[-122.96182,46.11945],[-122.961894,46.119447],[-122.96194,46.119421],[-122.96195,46.11927],[-122.962288,46.119269],[-122.962341,46.119249],[-122.962338,46.11891],[-122.962556,46.118903],[-122.962594,46.118871],[-122.962599,46.11882],[-122.962856,46.11882],[-122.962878,46.118894],[-122.962985,46.11891]]]}},{"type":"Feature","properties":{"id":76,"area_m2":4200,"px":42,"rank":21,"persistent":false},"geometry":{"type":"Polygon","coordinates":[[[-122.960657,46.116839],[-122.960657,46.117019],[-122.960324,46.117021],[-122.960275,46.117052],[-122.960268,46.117109],[-122.959751,46.117109],[-122.959728,46.116945],[-122.959492,46.116929],[-122.959493,46.116569],[-122.959705,46.116578],[-122.959748,46.116544],[-122.959751,46.116479],[-122.960269,46.116479],[-122.960292,46.116553],[-122.960398,46.11657],[-122.960398,46.116659],[-122.960317,46.116663],[-122.960272,46.116697],[-122.960286,46.116819],[-122.960339,46.116839],[-122.960657,46.116839]]]}},{"type":"Feature","properties":{"id":82,"area_m2":4200,"px":42,"rank":22,"persistent":false},"geometry":{"type":"Polygon","coordinates":[[[-122.961434,46.115579],[-122.961434,46.115759],[-122.961346,46.115766],[-122.961306,46.115803],[-122.961305,46.116029],[-122.961198,46.116045],[-122.961175,46.116119],[-122.960916,46.116119],[-122.960903,46.116053],[-122.960787,46.116029],[-122.960753,46.115948],[-122.960528,46.115939],[-122.960506,46.115865],[-122.960399,46.115849],[-122.960376,46.115775],[-122.96027,46.115759],[-122.960252,46.115689],[-122.96014,46.115669],[-122.960106,46.115588],[-122.960011,46.115579],[-122.959983,46.115501],[-122.959882,46.115489],[-122.959853,46.115411],[-122.959752,46.115399],[-122.959724,46.115321],[-122.959623,46.115309],[-122.959594,46.115231],[-122.959494,46.115219],[-122.959494,46.115129],[-122.959623,46.115129],[-122.959629,46.115185],[-122.959678,46.115216],[-122.959882,46.115219],[-122.959899,46.115289],[-122.960011,46.115309],[-122.960045,46.11539],[-122.96014,46.115399],[-122.960163,46.115473],[-122.960399,46.115489],[-122.960417,46.115559],[-122.960528,46.115579],[-122.960542,46.115645],[-122.960658,46.115669],[-122.960664,46.115726],[-122.960713,46.115757],[-122.961018,46.115747],[-122.961046,46.11571],[-122.961046,46.115579],[-122.961153,46.115563],[-122.961176,46.115489],[-122.961305,46.115489],[-122.961328,46.115563],[-122.961434,46.115579]]]}},{"type":"Feature","properties":{"id":104,"area_m2":4000,"px":40,"rank":23,"persistent":false},"geometry":{"type":"Polygon","coordinates":[[[-122.961309,46.110089],[-122.961309,46.110359],[-122.961208,46.110371],[-122.961179,46.110449],[-122.961078,46.110461],[-122.96105,46.110539],[-122.960955,46.110548],[-122.96092,46.110629],[-122.960808,46.110649],[-122.960791,46.110809],[-122.960684,46.110825],[-122.960661,46.110899],[-122.96056,46.110911],[-122.960532,46.110989],[-122.960437,46.110998],[-122.960402,46.111079],[-122.960291,46.111099],[-122.960273,46.111169],[-122.960014,46.111169],[-122.960014,46.110989],[-122.960103,46.110982],[-122.960142,46.110945],[-122.960144,46.110719],[-122.960245,46.110707],[-122.960273,46.110629],[-122.960368,46.11062],[-122.960403,46.110539],[-122.960514,46.110519],[-122.960532,46.110359],[-122.960879,46.110353],[-122.960917,46.110321],[-122.960921,46.110269],[-122.961037,46.110245],[-122.96105,46.110179],[-122.961162,46.110159],[-122.96118,46.110089],[-122.961309,46.110089]]]}},{"type":"Feature","properties":{"id":107,"area_m2":4000,"px":40,"rank":24,"persistent":false},"geometry":{"type":"Polygon","coordinates":[[[-122.959757,46.109189],[-122.959756,46.109369],[-122.959682,46.109371],[-122.959636,46.109397],[-122.959627,46.109549],[-122.959526,46.109561],[-122.959497,46.109638],[-122.959397,46.109651],[-122.959368,46.109728],[-122.959273,46.109738],[-122.959239,46.109818],[-122.959127,46.109838],[-122.959109,46.109998],[-122.959002,46.110014],[-122.95898,46.110088],[-122.958863,46.110112],[-122.95885,46.110178],[-122.958591,46.110178],[-122.958592,46.109998],[-122.958666,46.109996],[-122.958712,46.10997],[-122.958721,46.109818],[-122.958822,46.109806],[-122.958851,46.109728],[-122.958951,46.109716],[-122.95898,46.109638],[-122.959075,46.109629],[-122.959109,46.109548],[-122.959191,46.109544],[-122.959235,46.10951],[-122.95925,46.109398],[-122.959204,46.109371],[-122.95911,46.109368],[-122.959075,46.109287],[-122.95898,46.109278],[-122.95898,46.109188],[-122.959087,46.109173],[-122.95911,46.109098],[-122.959226,46.109074],[-122.959241,46.109008],[-122.959498,46.109009],[-122.959521,46.109173],[-122.959757,46.109189]]]}},{"type":"Feature","properties":{"id":95,"area_m2":3900,"px":39,"rank":25,"persistent":false},"geometry":{"type":"Polygon","coordinates":[[[-122.959883,46.112879],[-122.959883,46.113059],[-122.959809,46.113061],[-122.959763,46.113087],[-122.959754,46.113239],[-122.959647,46.113254],[-122.959624,46.113329],[-122.959415,46.113329],[-122.959362,46.113349],[-122.959365,46.113599],[-122.959129,46.113614],[-122.959106,46.113778],[-122.958589,46.113778],[-122.958589,46.113508],[-122.958696,46.113493],[-122.958718,46.113418],[-122.958835,46.113394],[-122.958848,46.113328],[-122.959084,46.113313],[-122.959107,46.113239],[-122.959188,46.113234],[-122.95923,46.113205],[-122.959236,46.113059],[-122.959461,46.113049],[-122.959495,46.112969],[-122.959611,46.112945],[-122.959625,46.112879],[-122.959883,46.112879]]]}},{"type":"Feature","properties":{"id":68,"area_m2":3500,"px":35,"rank":26,"persistent":false},"geometry":{"type":"Polygon","coordinates":[[[-122.961044,46.118189],[-122.961044,46.118279],[-122.960938,46.118295],[-122.960915,46.118369],[-122.960726,46.118369],[-122.960674,46.118389],[-122.960656,46.118549],[-122.960438,46.118555],[-122.9604,46.118587],[-122.960397,46.118639],[-122.95982,46.118639],[-122.959759,46.118667],[-122.95975,46.118729],[-122.959362,46.118729],[-122.959352,46.118577],[-122.959306,46.118551],[-122.959232,46.118549],[-122.959232,46.118459],[-122.959339,46.118443],[-122.959362,46.118369],[-122.959491,46.118369],[-122.9595,46.11843],[-122.959561,46.118458],[-122.959715,46.11845],[-122.959752,46.118369],[-122.960138,46.118369],[-122.960173,46.11845],[-122.960335,46.118458],[-122.960396,46.118416],[-122.960397,46.118279],[-122.960615,46.118273],[-122.960653,46.118241],[-122.960656,46.118189],[-122.961044,46.118189]]]}},{"type":"Feature","properties":{"id":77,"area_m2":3500,"px":35,"rank":27,"persistent":false},"geometry":{"type":"Polygon","coordinates":[[[-122.959104,46.116839],[-122.959104,46.116928],[-122.9589,46.116931],[-122.958851,46.116962],[-122.958845,46.117018],[-122.958718,46.117018],[-122.958712,46.116967],[-122.958675,46.116935],[-122.958328,46.116928],[-122.958305,46.116854],[-122.958198,46.116838],[-122.958198,46.116568],[-122.958305,46.116552],[-122.958328,46.116478],[-122.958429,46.116466],[-122.958457,46.116388],[-122.958552,46.116379],[-122.958587,46.116298],[-122.958699,46.116279],[-122.958716,46.116208],[-122.958846,46.116208],[-122.958849,46.11644],[-122.958893,46.116474],[-122.958975,46.116479],[-122.958975,46.116658],[-122.958942,46.116717],[-122.958997,46.116823],[-122.959104,46.116839]]]}},{"type":"Feature","properties":{"id":56,"area_m2":3400,"px":34,"rank":28,"persistent":false},"geometry":{"type":"Polygon","coordinates":[[[-122.967643,46.121521],[-122.967643,46.121611],[-122.967536,46.121627],[-122.967513,46.121701],[-122.967255,46.121701],[-122.967251,46.12165],[-122.967213,46.121618],[-122.966996,46.121611],[-122.966978,46.121541],[-122.966866,46.121521],[-122.966849,46.121451],[-122.966737,46.121431],[-122.966724,46.121365],[-122.966608,46.121341],[-122.966573,46.12126],[-122.966219,46.121251],[-122.966197,46.121177],[-122.96609,46.121161],[-122.96609,46.121071],[-122.966197,46.121055],[-122.96622,46.120981],[-122.966336,46.120957],[-122.966349,46.120891],[-122.966478,46.120891],[-122.966479,46.121112],[-122.966507,46.121149],[-122.966682,46.121159],[-122.966731,46.121128],[-122.966737,46.121071],[-122.966866,46.121071],[-122.966884,46.121141],[-122.966996,46.121161],[-122.96703,46.121242],[-122.967125,46.121251],[-122.967154,46.121329],[-122.967384,46.121341],[-122.967407,46.121415],[-122.967513,46.121431],[-122.967548,46.121512],[-122.967643,46.121521]]]}},{"type":"Feature","properties":{"id":106,"area_m2":3300,"px":33,"rank":29,"persistent":false},"geometry":{"type":"Polygon","coordinates":[[[-122.960791,46.109819],[-122.960791,46.109999],[-122.960696,46.110008],[-122.960662,46.110089],[-122.960545,46.110113],[-122.960532,46.110269],[-122.960431,46.110281],[-122.960403,46.110359],[-122.960302,46.110371],[-122.960273,46.110449],[-122.960172,46.110461],[-122.960144,46.110539],[-122.960049,46.110548],[-122.960014,46.110629],[-122.959903,46.110648],[-122.959885,46.110809],[-122.959626,46.110809],[-122.959626,46.110539],[-122.959721,46.11053],[-122.959756,46.110449],[-122.959872,46.110425],[-122.959885,46.110269],[-122.959967,46.110265],[-122.960011,46.11023],[-122.960015,46.110089],[-122.960245,46.110077],[-122.960274,46.109999],[-122.960369,46.10999],[-122.960403,46.109909],[-122.960515,46.109889],[-122.960533,46.109819],[-122.960791,46.109819]]]}},{"type":"Feature","properties":{"id":32,"area_m2":3100,"px":31,"rank":30,"persistent":false},"geometry":{"type":"Polygon","coordinates":[[[-122.9745,46.127013],[-122.9745,46.127103],[-122.974241,46.127103],[-122.974218,46.127029],[-122.974112,46.127013],[-122.974077,46.126932],[-122.973982,46.126923],[-122.97396,46.126759],[-122.973724,46.126743],[-122.973723,46.126612],[-122.973695,46.126575],[-122.973465,46.126563],[-122.97343,46.126482],[-122.973206,46.126473],[-122.973183,46.126399],[-122.973077,46.126383],[-122.973077,46.126023],[-122.973206,46.126023],[-122.973229,46.126097],[-122.973335,46.126113],[-122.97337,46.126194],[-122.973465,46.126203],[-122.973465,46.126334],[-122.973493,46.126371],[-122.973724,46.126383],[-122.973724,46.126514],[-122.973752,46.126551],[-122.974112,46.126563],[-122.974135,46.126637],[-122.974241,46.126653],[-122.97425,46.126805],[-122.974296,46.126831],[-122.974371,46.126833],[-122.974388,46.126993],[-122.9745,46.127013]]]}},{"type":"Feature","properties":{"id":39,"area_m2":3000,"px":30,"rank":31,"persistent":false},"geometry":{"type":"Polygon","coordinates":[[[-122.970359,46.125662],[-122.970358,46.125842],[-122.970252,46.125858],[-122.970229,46.125932],[-122.970011,46.125938],[-122.969973,46.12597],[-122.96997,46.126022],[-122.969711,46.126022],[-122.969698,46.125866],[-122.969582,46.125842],[-122.969547,46.125761],[-122.969453,46.125752],[-122.969453,46.125572],[-122.969559,46.125556],[-122.969582,46.125482],[-122.969698,46.125458],[-122.969712,46.125392],[-122.969841,46.125392],[-122.969869,46.12547],[-122.9701,46.125482],[-122.970123,46.125556],[-122.970229,46.125572],[-122.970264,46.125653],[-122.970359,46.125662]]]}},{"type":"Feature","properties":{"id":52,"area_m2":2600,"px":26,"rank":32,"persistent":false},"geometry":{"type":"Polygon","coordinates":[[[-122.97709,46.123684],[-122.977088,46.123774],[-122.976831,46.123774],[-122.976828,46.123708],[-122.976792,46.123677],[-122.976607,46.123686],[-122.976554,46.123729],[-122.976572,46.123864],[-122.976314,46.123863],[-122.976313,46.123732],[-122.976279,46.123693],[-122.975667,46.123683],[-122.975667,46.123593],[-122.975773,46.123578],[-122.975798,46.123503],[-122.975925,46.123503],[-122.975935,46.123565],[-122.975988,46.123592],[-122.976293,46.123587],[-122.976333,46.123543],[-122.976314,46.123414],[-122.976395,46.123409],[-122.97644,46.123375],[-122.976443,46.123234],[-122.976647,46.123231],[-122.976696,46.1232],[-122.976702,46.123144],[-122.976831,46.123144],[-122.976831,46.123234],[-122.97675,46.123238],[-122.976705,46.123272],[-122.976705,46.123465],[-122.97675,46.123499],[-122.976831,46.123504],[-122.976866,46.123585],[-122.976961,46.123594],[-122.976989,46.123671],[-122.97709,46.123684]]]}},{"type":"Feature","properties":{"id":85,"area_m2":2600,"px":26,"rank":33,"persistent":false},"geometry":{"type":"Polygon","coordinates":[[[-122.962211,46.11495],[-122.962211,46.11513],[-122.961981,46.115142],[-122.961953,46.115178],[-122.961952,46.115309],[-122.961846,46.115325],[-122.961823,46.115399],[-122.961706,46.115423],[-122.961693,46.115489],[-122.961564,46.115489],[-122.961564,46.115309],[-122.96168,46.1153],[-122.961711,46.115243],[-122.961632,46.115195],[-122.961553,46.11523],[-122.961305,46.115219],[-122.961306,46.114859],[-122.961631,46.114858],[-122.961685,46.114831],[-122.961694,46.114769],[-122.961953,46.11477],[-122.961933,46.114894],[-122.961954,46.114933],[-122.962211,46.11495]]]}},{"type":"Feature","properties":{"id":89,"area_m2":2500,"px":25,"rank":34,"persistent":false},"geometry":{"type":"Polygon","coordinates":[[[-122.962729,46.11432],[-122.962729,46.11459],[-122.962655,46.114592],[-122.962609,46.114618],[-122.9626,46.11477],[-122.962493,46.114785],[-122.96247,46.11486],[-122.962341,46.11486],[-122.962318,46.114785],[-122.962212,46.114769],[-122.962177,46.114689],[-122.962082,46.114679],[-122.962082,46.11441],[-122.962177,46.1144],[-122.962212,46.11432],[-122.962328,46.114296],[-122.962341,46.11414],[-122.962471,46.11414],[-122.962493,46.114214],[-122.9626,46.11423],[-122.962634,46.114311],[-122.962729,46.11432]]]}},{"type":"Feature","properties":{"id":28,"area_m2":2000,"px":20,"rank":35,"persistent":false},"geometry":{"type":"Polygon","coordinates":[[[-122.976053,46.127914],[-122.976053,46.128003],[-122.975946,46.128019],[-122.975923,46.128093],[-122.975665,46.128093],[-122.975642,46.127929],[-122.975406,46.127913],[-122.975383,46.127749],[-122.975147,46.127733],[-122.975124,46.127659],[-122.975018,46.127643],[-122.975018,46.127373],[-122.975147,46.127373],[-122.975165,46.127444],[-122.975276,46.127463],[-122.975294,46.127534],[-122.975406,46.127553],[-122.975419,46.127619],[-122.975535,46.127643],[-122.97557,46.127724],[-122.975794,46.127734],[-122.975794,46.127865],[-122.975822,46.127901],[-122.976053,46.127914]]]}},{"type":"Feature","properties":{"id":46,"area_m2":1700,"px":17,"rank":36,"persistent":false},"geometry":{"type":"Polygon","coordinates":[[[-122.970359,46.124402],[-122.970359,46.124492],[-122.970264,46.124501],[-122.97023,46.124582],[-122.970135,46.124585],[-122.970089,46.124612],[-122.9701,46.124762],[-122.969994,46.124778],[-122.969971,46.124852],[-122.969854,46.124876],[-122.969841,46.124942],[-122.969582,46.124942],[-122.96956,46.124868],[-122.969453,46.124852],[-122.969453,46.124762],[-122.969535,46.124758],[-122.969579,46.124724],[-122.969583,46.124582],[-122.9698,46.124576],[-122.969838,46.124544],[-122.969842,46.124492],[-122.970175,46.12449],[-122.970224,46.124459],[-122.97023,46.124402],[-122.970359,46.124402]]]}},{"type":"Feature","properties":{"id":75,"area_m2":1600,"px":16,"rank":37,"persistent":false},"geometry":{"type":"Polygon","coordinates":[[[-122.958198,46.117378],[-122.958197,46.117558],[-122.95798,46.117565],[-122.957942,46.117596],[-122.957939,46.117648],[-122.95755,46.117648],[-122.957551,46.117378],[-122.957657,46.117362],[-122.95768,46.117288],[-122.958068,46.117288],[-122.958091,46.117362],[-122.958198,46.117378]]]}},{"type":"Feature","properties":{"id":108,"area_m2":1500,"px":15,"rank":38,"persistent":false},"geometry":{"type":"Polygon","coordinates":[[[-122.962991,46.10991],[-122.962991,46.11],[-122.962884,46.110016],[-122.962862,46.11009],[-122.962732,46.11009],[-122.96271,46.110015],[-122.962603,46.11],[-122.962603,46.109868],[-122.962569,46.109829],[-122.962086,46.109819],[-122.962086,46.109549],[-122.962344,46.10955],[-122.962362,46.10962],[-122.962474,46.10964],[-122.962508,46.10972],[-122.962603,46.10973],[-122.962631,46.109807],[-122.962862,46.10982],[-122.962885,46.109894],[-122.962991,46.10991]]]}},{"type":"Feature","properties":{"id":103,"area_m2":1300,"px":13,"rank":39,"persistent":false},"geometry":{"type":"Polygon","coordinates":[[[-122.957555,46.110988],[-122.957555,46.111168],[-122.957449,46.111184],[-122.957426,46.111258],[-122.957297,46.111258],[-122.957274,46.111184],[-122.957167,46.111168],[-122.957133,46.111087],[-122.957038,46.111078],[-122.957038,46.110808],[-122.957297,46.110808],[-122.957319,46.110882],[-122.957426,46.110898],[-122.957461,46.110979],[-122.957555,46.110988]]]}},{"type":"Feature","properties":{"id":84,"area_m2":1100,"px":11,"rank":40,"persistent":false},"geometry":{"type":"Polygon","coordinates":[[[-122.965314,46.115492],[-122.965282,46.115538],[-122.965317,46.115581],[-122.965317,46.11567],[-122.964799,46.11567],[-122.964799,46.11558],[-122.964888,46.115574],[-122.964927,46.115537],[-122.964929,46.1154],[-122.964963,46.115358],[-122.964929,46.11531],[-122.964929,46.11522],[-122.965058,46.115221],[-122.965064,46.115277],[-122.965113,46.115308],[-122.965317,46.115311],[-122.965314,46.115492]]]}},{"type":"Feature","properties":{"id":42,"area_m2":1000,"px":10,"rank":41,"persistent":false},"geometry":{"type":"Polygon","coordinates":[[[-122.970876,46.125482],[-122.970876,46.125662],[-122.970618,46.125662],[-122.970604,46.125596],[-122.970488,46.125572],[-122.97046,46.125494],[-122.970229,46.125482],[-122.970207,46.125408],[-122.9701,46.125392],[-122.9701,46.125212],[-122.970229,46.125212],[-122.970247,46.125282],[-122.970359,46.125302],[-122.970372,46.125368],[-122.970488,46.125392],[-122.970492,46.125444],[-122.970529,46.125476],[-122.970876,46.125482]]]}},{"type":"Feature","properties":{"id":67,"area_m2":1000,"px":10,"rank":42,"persistent":false},"geometry":{"type":"Polygon","coordinates":[[[-122.970103,46.118912],[-122.970103,46.119002],[-122.969845,46.119002],[-122.969822,46.118928],[-122.969715,46.118912],[-122.969702,46.118846],[-122.969586,46.118822],[-122.969557,46.118744],[-122.969456,46.118732],[-122.969457,46.118642],[-122.96967,46.118664],[-122.969822,46.118626],[-122.969845,46.118552],[-122.969974,46.118552],[-122.969974,46.118642],[-122.969939,46.11869],[-122.969974,46.118732],[-122.969975,46.118868],[-122.970015,46.118906],[-122.970103,46.118912]]]}},{"type":"Feature","properties":{"id":4,"area_m2":900,"px":9,"rank":43,"persistent":false},"geometry":{"type":"Polygon","coordinates":[[[-122.987958,46.133407],[-122.987926,46.133453],[-122.98796,46.133496],[-122.98796,46.133585],[-122.987702,46.133585],[-122.9877,46.133359],[-122.987661,46.133322],[-122.987572,46.133315],[-122.987572,46.133225],[-122.987776,46.133223],[-122.987825,46.133192],[-122.987831,46.133136],[-122.987961,46.133136],[-122.987958,46.133407]]]}},{"type":"Feature","properties":{"id":15,"area_m2":900,"px":9,"rank":44,"persistent":true},"geometry":{"type":"Polygon","coordinates":[[[-122.989644,46.131066],[-122.989644,46.131246],[-122.989537,46.131261],[-122.989514,46.131336],[-122.989385,46.131336],[-122.989362,46.131261],[-122.989256,46.131246],[-122.989256,46.130976],[-122.989514,46.130976],[-122.989537,46.13105],[-122.989644,46.131066]]]}},{"type":"Feature","properties":{"id":26,"area_m2":900,"px":9,"rank":45,"persistent":false},"geometry":{"type":"Polygon","coordinates":[[[-122.977477,46.128184],[-122.977477,46.128274],[-122.977088,46.128274],[-122.977066,46.12811],[-122.97683,46.128094],[-122.976807,46.128019],[-122.9767,46.128004],[-122.9767,46.127824],[-122.97683,46.127824],[-122.976847,46.127894],[-122.976959,46.127914],[-122.976977,46.127984],[-122.977088,46.128004],[-122.977101,46.12807],[-122.977218,46.128094],[-122.977252,46.128175],[-122.977477,46.128184]]]}},{"type":"Feature","properties":{"id":43,"area_m2":900,"px":9,"rank":46,"persistent":false},"geometry":{"type":"Polygon","coordinates":[[[-122.969453,46.125122],[-122.969453,46.125392],[-122.969194,46.125392],[-122.969185,46.12524],[-122.969139,46.125214],[-122.969065,46.125212],[-122.969065,46.125032],[-122.969323,46.125032],[-122.969346,46.125106],[-122.969453,46.125122]]]}},{"type":"Feature","properties":{"id":24,"area_m2":800,"px":8,"rank":47,"persistent":false},"geometry":{"type":"Polygon","coordinates":[[[-122.976959,46.128904],[-122.976958,46.129084],[-122.976829,46.129084],[-122.976816,46.129018],[-122.9767,46.128994],[-122.976665,46.128913],[-122.976441,46.128904],[-122.976441,46.128724],[-122.9767,46.128724],[-122.976723,46.128798],[-122.976829,46.128814],[-122.976864,46.128895],[-122.976959,46.128904]]]}},{"type":"Feature","properties":{"id":23,"area_m2":800,"px":8,"rank":48,"persistent":false},"geometry":{"type":"Polygon","coordinates":[[[-122.979159,46.128994],[-122.979159,46.129174],[-122.97903,46.129174],[-122.979017,46.129018],[-122.9789,46.128994],[-122.978866,46.128913],[-122.978771,46.128904],[-122.978762,46.128753],[-122.978716,46.128726],[-122.978642,46.128724],[-122.978642,46.128544],[-122.978771,46.128544],[-122.978784,46.1287],[-122.9789,46.128724],[-122.978935,46.128805],[-122.97903,46.128814],[-122.979039,46.128966],[-122.979085,46.128992],[-122.979159,46.128994]]]}},{"type":"Feature","properties":{"id":72,"area_m2":800,"px":8,"rank":49,"persistent":false},"geometry":{"type":"Polygon","coordinates":[[[-122.958197,46.117828],[-122.958197,46.118008],[-122.958091,46.118024],[-122.958068,46.118098],[-122.957938,46.118098],[-122.957932,46.118041],[-122.957883,46.11801],[-122.95768,46.118008],[-122.95768,46.117918],[-122.957786,46.117902],[-122.957809,46.117828],[-122.958197,46.117828]]]}},{"type":"Feature","properties":{"id":13,"area_m2":700,"px":7,"rank":50,"persistent":false},"geometry":{"type":"Polygon","coordinates":[[[-122.993268,46.131786],[-122.993268,46.131876],[-122.993162,46.131892],[-122.993139,46.131966],[-122.99301,46.131966],[-122.992987,46.131892],[-122.99288,46.131876],[-122.99288,46.131606],[-122.993009,46.131606],[-122.993032,46.13168],[-122.993139,46.131696],[-122.993174,46.131777],[-122.993268,46.131786]]]}},{"type":"Feature","properties":{"id":25,"area_m2":700,"px":7,"rank":51,"persistent":false},"geometry":{"type":"Polygon","coordinates":[[[-122.984984,46.128365],[-122.984984,46.128545],[-122.984726,46.128545],[-122.984703,46.128471],[-122.984596,46.128455],[-122.984562,46.128374],[-122.984467,46.128365],[-122.984467,46.128275],[-122.984573,46.128259],[-122.984596,46.128185],[-122.984725,46.128185],[-122.984706,46.128309],[-122.984727,46.128349],[-122.984984,46.128365]]]}},{"type":"Feature","properties":{"id":50,"area_m2":700,"px":7,"rank":52,"persistent":false},"geometry":{"type":"Polygon","coordinates":[[[-122.975537,46.124133],[-122.975537,46.124223],[-122.97543,46.124239],[-122.975407,46.124313],[-122.975291,46.124337],[-122.975278,46.124403],[-122.97489,46.124403],[-122.97489,46.124313],[-122.975114,46.124304],[-122.975149,46.124223],[-122.975265,46.124199],[-122.975278,46.124133],[-122.975537,46.124133]]]}},{"type":"Feature","properties":{"id":55,"area_m2":700,"px":7,"rank":53,"persistent":false},"geometry":{"type":"Polygon","coordinates":[[[-122.975796,46.122243],[-122.975796,46.122423],[-122.975538,46.122423],[-122.975555,46.122283],[-122.97551,46.122248],[-122.975408,46.122243],[-122.975408,46.122063],[-122.975667,46.122063],[-122.975676,46.122215],[-122.975722,46.122241],[-122.975796,46.122243]]]}},{"type":"Feature","properties":{"id":69,"area_m2":700,"px":7,"rank":54,"persistent":false},"geometry":{"type":"Polygon","coordinates":[[[-122.958973,46.118189],[-122.958973,46.118368],[-122.958737,46.118384],[-122.958714,46.118638],[-122.958585,46.118638],[-122.958585,46.118278],[-122.958789,46.118276],[-122.958838,46.118245],[-122.958844,46.118189],[-122.958973,46.118189]]]}},{"type":"Feature","properties":{"id":96,"area_m2":700,"px":7,"rank":55,"persistent":false},"geometry":{"type":"Polygon","coordinates":[[[-122.964412,46.11324],[-122.964412,46.11342],[-122.964283,46.11342],[-122.964265,46.11335],[-122.964154,46.11333],[-122.964119,46.113249],[-122.964024,46.11324],[-122.963996,46.113162],[-122.963766,46.11315],[-122.963743,46.113076],[-122.963636,46.11306],[-122.963636,46.11297],[-122.963765,46.11297],[-122.963771,46.113027],[-122.963821,46.113058],[-122.964024,46.11306],[-122.964037,46.113126],[-122.964154,46.11315],[-122.964157,46.113202],[-122.964195,46.113234],[-122.964412,46.11324]]]}},{"type":"Feature","properties":{"id":102,"area_m2":700,"px":7,"rank":56,"persistent":false},"geometry":{"type":"Polygon","coordinates":[[[-122.959496,46.111079],[-122.959496,46.111259],[-122.95939,46.111274],[-122.959367,46.111348],[-122.959251,46.111372],[-122.959237,46.111438],[-122.959108,46.111438],[-122.959108,46.111258],[-122.959182,46.111256],[-122.959228,46.11123],[-122.959238,46.111079],[-122.959496,46.111079]]]}},{"type":"Feature","properties":{"id":109,"area_m2":700,"px":7,"rank":57,"persistent":false},"geometry":{"type":"Polygon","coordinates":[[[-122.958203,46.109638],[-122.958203,46.109818],[-122.958108,46.109827],[-122.958074,46.109908],[-122.957958,46.109932],[-122.957944,46.110088],[-122.957815,46.110088],[-122.957815,46.109818],[-122.957922,46.109802],[-122.957945,46.109728],[-122.958061,46.109704],[-122.958074,46.109638],[-122.958203,46.109638]]]}},{"type":"Feature","properties":{"id":8,"area_m2":600,"px":6,"rank":58,"persistent":false},"geometry":{"type":"Polygon","coordinates":[[[-122.990161,46.132866],[-122.990161,46.132956],[-122.989944,46.132962],[-122.989906,46.132994],[-122.989902,46.133046],[-122.989644,46.133046],[-122.989644,46.132956],[-122.98975,46.13294],[-122.989773,46.132866],[-122.989889,46.132842],[-122.989903,46.132776],[-122.990032,46.132776],[-122.990055,46.13285],[-122.990161,46.132866]]]}},{"type":"Feature","properties":{"id":9,"area_m2":600,"px":6,"rank":59,"persistent":false},"geometry":{"type":"Polygon","coordinates":[[[-122.98822,46.132686],[-122.988219,46.132865],[-122.987702,46.132865],[-122.987702,46.132776],[-122.98792,46.132769],[-122.987957,46.132737],[-122.987961,46.132686],[-122.98822,46.132686]]]}},{"type":"Feature","properties":{"id":30,"area_m2":600,"px":6,"rank":60,"persistent":false},"geometry":{"type":"Polygon","coordinates":[[[-122.982137,46.127375],[-122.982137,46.127555],[-122.98203,46.12757],[-122.982007,46.127645],[-122.981878,46.127645],[-122.981855,46.12757],[-122.981749,46.127555],[-122.981749,46.127465],[-122.981855,46.127449],[-122.981878,46.127375],[-122.982137,46.127375]]]}},{"type":"Feature","properties":{"id":38,"area_m2":600,"px":6,"rank":61,"persistent":false},"geometry":{"type":"Polygon","coordinates":[[[-122.973853,46.125933],[-122.973853,46.126113],[-122.973724,46.126113],[-122.973701,46.126039],[-122.973594,46.126023],[-122.973577,46.125863],[-122.973524,46.125843],[-122.973336,46.125843],[-122.973336,46.125753],[-122.973594,46.125753],[-122.973617,46.125827],[-122.973724,46.125843],[-122.973758,46.125924],[-122.973853,46.125933]]]}},{"type":"Feature","properties":{"id":2,"area_m2":500,"px":5,"rank":62,"persistent":false},"geometry":{"type":"Polygon","coordinates":[[[-122.988219,46.133856],[-122.988219,46.134035],[-122.98809,46.134035],[-122.988067,46.133871],[-122.987702,46.133855],[-122.987702,46.133766],[-122.98809,46.133766],[-122.988113,46.13384],[-122.988219,46.133856]]]}},{"type":"Feature","properties":{"id":7,"area_m2":500,"px":5,"rank":63,"persistent":false},"geometry":{"type":"Polygon","coordinates":[[[-122.987572,46.132865],[-122.987572,46.132955],[-122.987484,46.132962],[-122.987444,46.132999],[-122.987443,46.133225],[-122.987313,46.133225],[-122.987291,46.133151],[-122.987184,46.133135],[-122.987184,46.133045],[-122.987291,46.13303],[-122.987313,46.132955],[-122.98743,46.132931],[-122.987443,46.132865],[-122.987572,46.132865]]]}},{"type":"Feature","properties":{"id":33,"area_m2":500,"px":5,"rank":64,"persistent":false},"geometry":{"type":"Polygon","coordinates":[[[-122.973076,46.126653],[-122.973076,46.126743],[-122.972817,46.126743],[-122.972795,46.126669],[-122.972688,46.126653],[-122.972654,46.126572],[-122.972559,46.126563],[-122.972559,46.126473],[-122.972688,46.126473],[-122.972694,46.126529],[-122.972743,46.12656],[-122.972947,46.126563],[-122.97297,46.126637],[-122.973076,46.126653]]]}},{"type":"Feature","properties":{"id":58,"area_m2":500,"px":5,"rank":65,"persistent":false},"geometry":{"type":"Polygon","coordinates":[[[-122.96622,46.120711],[-122.966219,46.120891],[-122.966113,46.120907],[-122.96609,46.120981],[-122.965974,46.121005],[-122.96596,46.121071],[-122.965831,46.121071],[-122.965831,46.120981],[-122.965913,46.120977],[-122.965957,46.120943],[-122.965961,46.120801],[-122.966067,46.120785],[-122.96609,46.120711],[-122.96622,46.120711]]]}},{"type":"Feature","properties":{"id":59,"area_m2":500,"px":5,"rank":66,"persistent":false},"geometry":{"type":"Polygon","coordinates":[[[-122.97217,46.120804],[-122.972139,46.12085],[-122.972173,46.120893],[-122.972173,46.120982],[-122.971914,46.120982],[-122.971914,46.120713],[-122.972173,46.120713],[-122.97217,46.120804]]]}},{"type":"Feature","properties":{"id":98,"area_m2":500,"px":5,"rank":67,"persistent":false},"geometry":{"type":"Polygon","coordinates":[[[-122.960919,46.112609],[-122.960919,46.112699],[-122.960812,46.112715],[-122.960789,46.112789],[-122.960531,46.112789],[-122.960531,46.112609],[-122.960919,46.112609]]]}},{"type":"Feature","properties":{"id":3,"area_m2":400,"px":4,"rank":68,"persistent":false},"geometry":{"type":"Polygon","coordinates":[[[-122.99055,46.133406],[-122.99055,46.133586],[-122.990161,46.133586],[-122.990161,46.133496],[-122.990365,46.133493],[-122.990414,46.133462],[-122.99042,46.133406],[-122.99055,46.133406]]]}},{"type":"Feature","properties":{"id":5,"area_m2":400,"px":4,"rank":69,"persistent":false},"geometry":{"type":"Polygon","coordinates":[[[-122.987313,46.133315],[-122.987313,46.133405],[-122.987054,46.133405],[-122.987032,46.133331],[-122.986925,46.133315],[-122.98689,46.133234],[-122.986796,46.133225],[-122.986796,46.133135],[-122.986925,46.133135],[-122.986938,46.133201],[-122.987054,46.133225],[-122.987058,46.133277],[-122.987095,46.133309],[-122.987313,46.133315]]]}},{"type":"Feature","properties":{"id":10,"area_m2":400,"px":4,"rank":70,"persistent":false},"geometry":{"type":"Polygon","coordinates":[[[-122.99042,46.132686],[-122.99042,46.132776],[-122.990291,46.132776],[-122.990285,46.132719],[-122.990236,46.132688],[-122.989903,46.132686],[-122.989903,46.132596],[-122.990291,46.132596],[-122.990314,46.13267],[-122.99042,46.132686]]]}},{"type":"Feature","properties":{"id":11,"area_m2":400,"px":4,"rank":71,"persistent":false},"geometry":{"type":"Polygon","coordinates":[[[-122.991068,46.132506],[-122.991068,46.132596],[-122.990938,46.132596],[-122.990915,46.132522],[-122.990809,46.132506],[-122.990774,46.132425],[-122.990679,46.132416],[-122.990679,46.132326],[-122.990938,46.132326],[-122.990947,46.132477],[-122.990993,46.132503],[-122.991068,46.132506]]]}},{"type":"Feature","properties":{"id":16,"area_m2":400,"px":4,"rank":72,"persistent":false},"geometry":{"type":"Polygon","coordinates":[[[-122.98356,46.130705],[-122.98356,46.130795],[-122.983453,46.130811],[-122.98343,46.130885],[-122.983314,46.130909],[-122.983301,46.130975],[-122.983171,46.130975],[-122.983172,46.130795],[-122.983375,46.130793],[-122.983424,46.130762],[-122.98343,46.130705],[-122.98356,46.130705]]]}},{"type":"Feature","properties":{"id":21,"area_m2":400,"px":4,"rank":73,"persistent":false},"geometry":{"type":"Polygon","coordinates":[[[-122.978771,46.129264],[-122.978771,46.129354],[-122.978641,46.129354],[-122.978619,46.12928],[-122.978512,46.129264],[-122.978499,46.129198],[-122.978383,46.129174],[-122.978354,46.129096],[-122.978253,46.129084],[-122.978253,46.128994],[-122.978382,46.128994],[-122.978405,46.129068],[-122.978512,46.129084],[-122.978525,46.12915],[-122.978641,46.129174],[-122.97867,46.129252],[-122.978771,46.129264]]]}},{"type":"Feature","properties":{"id":34,"area_m2":400,"px":4,"rank":74,"persistent":false},"geometry":{"type":"Polygon","coordinates":[[[-122.981878,46.126565],[-122.981878,46.126655],[-122.981751,46.126655],[-122.981746,46.126603],[-122.981708,46.126571],[-122.98149,46.126564],[-122.98149,46.126385],[-122.981619,46.126385],[-122.981642,46.126459],[-122.981749,46.126475],[-122.981783,46.126555],[-122.981878,46.126565]]]}},{"type":"Feature","properties":{"id":36,"area_m2":400,"px":4,"rank":75,"persistent":false},"geometry":{"type":"Polygon","coordinates":[[[-122.98162,46.126115],[-122.981619,46.126204],[-122.981513,46.12622],[-122.98149,46.126294],[-122.981361,46.126294],[-122.981338,46.12622],[-122.981231,46.126204],[-122.981231,46.126115],[-122.98162,46.126115]]]}},{"type":"Feature","properties":{"id":51,"area_m2":400,"px":4,"rank":76,"persistent":false},"geometry":{"type":"Polygon","coordinates":[[[-122.969065,46.123772],[-122.969065,46.123952],[-122.968806,46.123952],[-122.968807,46.123772],[-122.969065,46.123772]]]}},{"type":"Feature","properties":{"id":54,"area_m2":400,"px":4,"rank":77,"persistent":false},"geometry":{"type":"Polygon","coordinates":[[[-122.964147,46.12278],[-122.964147,46.12287],[-122.963889,46.12287],[-122.963866,46.122796],[-122.963759,46.12278],[-122.963759,46.12269],[-122.964018,46.12269],[-122.964041,46.122764],[-122.964147,46.12278]]]}},{"type":"Feature","properties":{"id":64,"area_m2":400,"px":4,"rank":78,"persistent":false},"geometry":{"type":"Polygon","coordinates":[[[-122.970103,46.119362],[-122.970103,46.119452],[-122.969996,46.119468],[-122.969974,46.119542],[-122.969585,46.119542],[-122.969585,46.119452],[-122.969911,46.119451],[-122.969965,46.119423],[-122.969974,46.119362],[-122.970103,46.119362]]]}},{"type":"Feature","properties":{"id":66,"area_m2":400,"px":4,"rank":79,"persistent":false},"geometry":{"type":"Polygon","coordinates":[[[-122.96622,46.119181],[-122.96622,46.119271],[-122.966091,46.119271],[-122.966068,46.119197],[-122.965962,46.119181],[-122.965949,46.119115],[-122.965832,46.119091],[-122.965804,46.119013],[-122.965703,46.119001],[-122.965703,46.118911],[-122.965832,46.118911],[-122.965855,46.118985],[-122.965962,46.119001],[-122.965975,46.119067],[-122.966091,46.119091],[-122.96612,46.119169],[-122.96622,46.119181]]]}},{"type":"Feature","properties":{"id":70,"area_m2":400,"px":4,"rank":80,"persistent":false},"geometry":{"type":"Polygon","coordinates":[[[-122.957809,46.118368],[-122.957808,46.118638],[-122.957679,46.118638],[-122.957656,46.118564],[-122.95755,46.118548],[-122.95755,46.118458],[-122.957656,46.118442],[-122.957679,46.118368],[-122.957809,46.118368]]]}},{"type":"Feature","properties":{"id":74,"area_m2":400,"px":4,"rank":81,"persistent":false},"geometry":{"type":"Polygon","coordinates":[[[-122.958715,46.117468],[-122.958715,46.117648],[-122.958456,46.117648],[-122.958457,46.117468],[-122.958715,46.117468]]]}},{"type":"Feature","properties":{"id":100,"area_m2":400,"px":4,"rank":82,"persistent":false},"geometry":{"type":"Polygon","coordinates":[[[-122.958719,46.111708],[-122.958719,46.111888],[-122.958331,46.111888],[-122.958331,46.111798],[-122.958535,46.111796],[-122.958584,46.111765],[-122.95859,46.111708],[-122.958719,46.111708]]]}},{"type":"Feature","properties":{"id":1,"area_m2":300,"px":3,"rank":83,"persistent":false},"geometry":{"type":"Polygon","coordinates":[[[-122.989643,46.134396],[-122.989643,46.134576],[-122.989384,46.134576],[-122.989384,46.134486],[-122.989491,46.13447],[-122.989514,46.134396],[-122.989643,46.134396]]]}},{"type":"Feature","properties":{"id":6,"area_m2":300,"px":3,"rank":84,"persistent":false},"geometry":{"type":"Polygon","coordinates":[[[-122.982653,46.133225],[-122.982653,46.133315],[-122.982394,46.133315],[-122.982394,46.133135],[-122.982523,46.133135],[-122.982546,46.133209],[-122.982653,46.133225]]]}},{"type":"Feature","properties":{"id":12,"area_m2":300,"px":3,"rank":85,"persistent":false},"geometry":{"type":"Polygon","coordinates":[[[-122.993009,46.132326],[-122.993009,46.132416],[-122.992882,46.132416],[-122.992857,46.132342],[-122.992751,46.132326],[-122.992751,46.132146],[-122.99288,46.132146],[-122.992889,46.132297],[-122.992935,46.132324],[-122.993009,46.132326]]]}},{"type":"Feature","properties":{"id":14,"area_m2":300,"px":3,"rank":86,"persistent":false},"geometry":{"type":"Polygon","coordinates":[[[-122.990809,46.131336],[-122.990809,46.131516],[-122.99068,46.131516],[-122.990657,46.131442],[-122.99055,46.131426],[-122.99055,46.131336],[-122.990809,46.131336]]]}},{"type":"Feature","properties":{"id":17,"area_m2":300,"px":3,"rank":87,"persistent":false},"geometry":{"type":"Polygon","coordinates":[[[-122.983042,46.130705],[-122.983042,46.130795],[-122.982935,46.130811],[-122.982912,46.130885],[-122.982783,46.130885],[-122.982783,46.130705],[-122.983042,46.130705]]]}},{"type":"Feature","properties":{"id":18,"area_m2":300,"px":3,"rank":88,"persistent":false},"geometry":{"type":"Polygon","coordinates":[[[-122.987314,46.130255],[-122.987314,46.130435],[-122.987185,46.130435],[-122.987162,46.130361],[-122.987055,46.130345],[-122.987055,46.130255],[-122.987314,46.130255]]]}},{"type":"Feature","properties":{"id":19,"area_m2":300,"px":3,"rank":89,"persistent":false},"geometry":{"type":"Polygon","coordinates":[[[-122.985631,46.129625],[-122.985631,46.129805],[-122.985502,46.129805],[-122.985479,46.129731],[-122.985372,46.129715],[-122.985373,46.129625],[-122.985631,46.129625]]]}},{"type":"Feature","properties":{"id":20,"area_m2":300,"px":3,"rank":90,"persistent":false},"geometry":{"type":"Polygon","coordinates":[[[-122.985243,46.129085],[-122.985243,46.129355],[-122.985114,46.129355],[-122.985114,46.129085],[-122.985243,46.129085]]]}},{"type":"Feature","properties":{"id":22,"area_m2":300,"px":3,"rank":91,"persistent":false},"geometry":{"type":"Polygon","coordinates":[[[-122.982007,46.128905],[-122.982007,46.128995],[-122.9819,46.12901],[-122.981877,46.129085],[-122.981761,46.129109],[-122.981748,46.129175],[-122.981619,46.129175],[-122.981619,46.129085],[-122.981725,46.129069],[-122.981748,46.128995],[-122.981864,46.128971],[-122.981878,46.128905],[-122.982007,46.128905]]]}},{"type":"Feature","properties":{"id":27,"area_m2":300,"px":3,"rank":92,"persistent":false},"geometry":{"type":"Polygon","coordinates":[[[-122.984337,46.128095],[-122.984337,46.128185],[-122.98421,46.128185],[-122.984185,46.128111],[-122.984078,46.128095],[-122.984079,46.127915],[-122.984208,46.127915],[-122.984217,46.128066],[-122.984263,46.128093],[-122.984337,46.128095]]]}},{"type":"Feature","properties":{"id":31,"area_m2":300,"px":3,"rank":93,"persistent":false},"geometry":{"type":"Polygon","coordinates":[[[-122.973205,46.127373],[-122.973205,46.127553],[-122.973076,46.127553],[-122.973053,46.127479],[-122.972947,46.127463],[-122.972947,46.127373],[-122.973205,46.127373]]]}},{"type":"Feature","properties":{"id":35,"area_m2":300,"px":3,"rank":94,"persistent":false},"geometry":{"type":"Polygon","coordinates":[[[-122.9745,46.126293],[-122.9745,46.126383],[-122.974394,46.126399],[-122.974371,46.126473],[-122.974241,46.126473],[-122.974242,46.126293],[-122.9745,46.126293]]]}},{"type":"Feature","properties":{"id":37,"area_m2":300,"px":3,"rank":95,"persistent":false},"geometry":{"type":"Polygon","coordinates":[[[-122.969582,46.126112],[-122.969582,46.126202],[-122.969323,46.126202],[-122.9693,46.126128],[-122.969194,46.126112],[-122.969194,46.126022],[-122.969323,46.126022],[-122.969329,46.126079],[-122.969378,46.12611],[-122.969582,46.126112]]]}},{"type":"Feature","properties":{"id":40,"area_m2":300,"px":3,"rank":96,"persistent":false},"geometry":{"type":"Polygon","coordinates":[[[-122.980325,46.125574],[-122.980325,46.125754],[-122.980196,46.125754],[-122.980173,46.12568],[-122.980067,46.125664],[-122.980067,46.125574],[-122.980325,46.125574]]]}},{"type":"Feature","properties":{"id":41,"area_m2":300,"px":3,"rank":97,"persistent":false},"geometry":{"type":"Polygon","coordinates":[[[-122.971265,46.125572],[-122.971265,46.125752],[-122.971006,46.125752],[-122.971006,46.125662],[-122.971113,46.125647],[-122.971135,46.125572],[-122.971265,46.125572]]]}},{"type":"Feature","properties":{"id":44,"area_m2":300,"px":3,"rank":98,"persistent":false},"geometry":{"type":"Polygon","coordinates":[[[-122.97929,46.125034],[-122.97929,46.125124],[-122.979161,46.125124],[-122.979157,46.125072],[-122.97912,46.12504],[-122.978902,46.125034],[-122.978902,46.124944],[-122.979161,46.124944],[-122.979183,46.125018],[-122.97929,46.125034]]]}},{"type":"Feature","properties":{"id":47,"area_m2":300,"px":3,"rank":99,"persistent":false},"geometry":{"type":"Polygon","coordinates":[[[-122.978772,46.124674],[-122.978772,46.124764],[-122.978514,46.124764],[-122.978491,46.12469],[-122.978384,46.124674],[-122.978384,46.124584],[-122.978514,46.124584],[-122.97852,46.124641],[-122.978569,46.124672],[-122.978772,46.124674]]]}},{"type":"Feature","properties":{"id":49,"area_m2":300,"px":3,"rank":100,"persistent":false},"geometry":{"type":"Polygon","coordinates":[[[-122.978125,46.124314],[-122.978125,46.124404],[-122.977867,46.124404],[-122.977844,46.12433],[-122.977737,46.124314],[-122.977737,46.124224],[-122.977867,46.124224],[-122.977873,46.12428],[-122.977922,46.124312],[-122.978125,46.124314]]]}},{"type":"Feature","properties":{"id":60,"area_m2":300,"px":3,"rank":101,"persistent":false},"geometry":{"type":"Polygon","coordinates":[[[-122.971782,46.120714],[-122.97175,46.12076],[-122.971785,46.120802],[-122.971785,46.120892],[-122.971656,46.120892],[-122.971633,46.120818],[-122.971526,46.120802],[-122.971526,46.120712],[-122.971633,46.120697],[-122.971656,46.120622],[-122.971783,46.120622],[-122.971782,46.120714]]]}},{"type":"Feature","properties":{"id":65,"area_m2":300,"px":3,"rank":102,"persistent":false},"geometry":{"type":"Polygon","coordinates":[[[-122.969197,46.119272],[-122.969197,46.119362],[-122.969068,46.119362],[-122.969045,46.119288],[-122.968938,46.119272],[-122.968904,46.119191],[-122.968809,46.119182],[-122.968809,46.119092],[-122.968938,46.119092],[-122.968961,46.119166],[-122.969068,46.119182],[-122.969102,46.119263],[-122.969197,46.119272]]]}},{"type":"Feature","properties":{"id":73,"area_m2":300,"px":3,"rank":103,"persistent":false},"geometry":{"type":"Polygon","coordinates":[[[-122.956903,46.117738],[-122.956903,46.117918],[-122.956644,46.117918],[-122.956644,46.117828],[-122.956751,46.117812],[-122.956774,46.117738],[-122.956903,46.117738]]]}},{"type":"Feature","properties":{"id":80,"area_m2":300,"px":3,"rank":104,"persistent":false},"geometry":{"type":"Polygon","coordinates":[[[-122.961175,46.116569],[-122.961175,46.116659],[-122.960916,46.116659],[-122.960893,46.116585],[-122.960787,46.116569],[-122.960787,46.116479],[-122.960916,46.116479],[-122.960922,46.116536],[-122.960971,46.116567],[-122.961175,46.116569]]]}},{"type":"Feature","properties":{"id":79,"area_m2":300,"px":3,"rank":105,"persistent":false},"geometry":{"type":"Polygon","coordinates":[[[-122.966999,46.116571],[-122.966998,46.116661],[-122.966869,46.116661],[-122.966846,46.116587],[-122.96674,46.116571],[-122.966705,46.11649],[-122.966611,46.116481],[-122.966611,46.116391],[-122.96674,46.116391],[-122.966763,46.116465],[-122.966869,46.116481],[-122.966904,46.116562],[-122.966999,46.116571]]]}},{"type":"Feature","properties":{"id":81,"area_m2":300,"px":3,"rank":106,"persistent":false},"geometry":{"type":"Polygon","coordinates":[[[-122.960657,46.116299],[-122.960657,46.116389],[-122.960528,46.116389],[-122.960525,46.116337],[-122.960487,46.116305],[-122.960269,46.116299],[-122.960269,46.116209],[-122.960528,46.116209],[-122.960551,46.116283],[-122.960657,46.116299]]]}},{"type":"Feature","properties":{"id":88,"area_m2":300,"px":3,"rank":107,"persistent":false},"geometry":{"type":"Polygon","coordinates":[[[-122.96467,46.11468],[-122.96467,46.11486],[-122.964541,46.11486],[-122.964518,46.114786],[-122.964412,46.11477],[-122.964412,46.11468],[-122.96467,46.11468]]]}},{"type":"Feature","properties":{"id":93,"area_m2":300,"px":3,"rank":108,"persistent":false},"geometry":{"type":"Polygon","coordinates":[[[-122.963894,46.11414],[-122.963894,46.11423],[-122.963765,46.11423],[-122.963704,46.114206],[-122.963635,46.11423],[-122.963506,46.11423],[-122.963506,46.11414],[-122.963613,46.114124],[-122.963636,46.11405],[-122.963765,46.11405],[-122.963788,46.114124],[-122.963894,46.11414]]]}},{"type":"Feature","properties":{"id":97,"area_m2":300,"px":3,"rank":109,"persistent":false},"geometry":{"type":"Polygon","coordinates":[[[-122.957036,46.112788],[-122.957036,46.113058],[-122.956907,46.113058],[-122.956907,46.112788],[-122.957036,46.112788]]]}}]}