{"type":"FeatureCollection","features":[{"type":"Feature","properties":{"id":59,"area_m2":76400,"px":764,"rank":1,"persistent":false},"geometry":{"type":"Polygon","coordinates":[[[-122.968033,46.117831],[-122.968033,46.117921],[-122.967938,46.11793],[-122.967904,46.118011],[-122.967829,46.118014],[-122.967783,46.11804],[-122.967774,46.118191],[-122.967693,46.118195],[-122.967648,46.11823],[-122.967645,46.118371],[-122.967427,46.118378],[-122.967389,46.11841],[-122.967386,46.118461],[-122.967073,46.118447],[-122.96701,46.118472],[-122.966999,46.118688],[-122.967038,46.118725],[-122.967127,46.118731],[-122.967127,46.118821],[-122.966997,46.118821],[-122.966991,46.118764],[-122.966942,46.118733],[-122.966739,46.118731],[-122.96675,46.118581],[-122.966704,46.118553],[-122.966609,46.118551],[-122.9666,46.11849],[-122.966539,46.118461],[-122.966267,46.118452],[-122.966224,46.118486],[-122.966221,46.118551],[-122.966003,46.118557],[-122.965965,46.118589],[-122.965962,46.118641],[-122.965833,46.118641],[-122.96582,46.118575],[-122.965755,46.118551],[-122.9655,46.118553],[-122.96545,46.118584],[-122.965444,46.118641],[-122.965315,46.118641],[-122.965309,46.118404],[-122.965267,46.118375],[-122.965186,46.118371],[-122.965177,46.118309],[-122.965123,46.118282],[-122.964989,46.118282],[-122.964944,46.1183],[-122.964927,46.11855],[-122.964797,46.11855],[-122.964794,46.118409],[-122.964749,46.118375],[-122.964668,46.11837],[-122.964655,46.118214],[-122.964539,46.11819],[-122.964504,46.118109],[-122.964409,46.1181],[-122.964409,46.11801],[-122.964491,46.118006],[-122.964535,46.117972],[-122.964516,46.117846],[-122.96441,46.11783],[-122.964396,46.117764],[-122.964332,46.11774],[-122.964076,46.117743],[-122.964027,46.117774],[-122.964021,46.11783],[-122.963892,46.11783],[-122.963892,46.11774],[-122.963927,46.117692],[-122.963869,46.117576],[-122.963633,46.11756],[-122.96361,46.117486],[-122.963458,46.117447],[-122.963374,46.11747],[-122.963245,46.11747],[-122.963244,46.117243],[-122.963204,46.117206],[-122.963116,46.1172],[-122.963098,46.11704],[-122.962986,46.11702],[-122.962981,46.116963],[-122.962939,46.116934],[-122.962728,46.11693],[-122.962715,46.116864],[-122.962598,46.11684],[-122.962564,46.116759],[-122.96234,46.11675],[-122.962317,46.116675],[-122.96221,46.11666],[-122.962201,46.116508],[-122.962155,46.116482],[-122.962081,46.116479],[-122.962075,46.116243],[-122.962033,46.116214],[-122.961952,46.116209],[-122.961952,46.11585],[-122.962059,46.115834],[-122.962081,46.11576],[-122.962306,46.115751],[-122.96234,46.11567],[-122.962679,46.115669],[-122.962727,46.115653],[-122.962748,46.115614],[-122.962729,46.11531],[-122.962835,46.115294],[-122.962858,46.11522],[-122.963117,46.11522],[-122.963126,46.115281],[-122.963179,46.115309],[-122.963635,46.11531],[-122.963657,46.115384],[-122.963764,46.1154],[-122.963765,46.115537],[-122.963826,46.115579],[-122.964219,46.115579],[-122.964272,46.115552],[-122.964282,46.11549],[-122.964411,46.11549],[-122.964434,46.115564],[-122.96454,46.11558],[-122.964553,46.115736],[-122.96467,46.11576],[-122.964669,46.11621],[-122.964563,46.116226],[-122.96454,46.1163],[-122.964152,46.1163],[-122.964146,46.116154],[-122.964104,46.116124],[-122.964022,46.11612],[-122.963995,46.116029],[-122.963764,46.11603],[-122.963735,46.115952],[-122.963505,46.11594],[-122.963496,46.115879],[-122.963442,46.115851],[-122.963167,46.11585],[-122.963119,46.115866],[-122.963097,46.1159],[-122.963109,46.116095],[-122.963151,46.116117],[-122.963246,46.11612],[-122.963263,46.11619],[-122.963375,46.11621],[-122.963388,46.116276],[-122.963504,46.1163],[-122.963508,46.116352],[-122.963546,46.116384],[-122.963893,46.11639],[-122.96391,46.11646],[-122.964022,46.11648],[-122.964057,46.116561],[-122.964151,46.11657],[-122.96418,46.116648],[-122.96441,46.11666],[-122.964419,46.116722],[-122.964473,46.116749],[-122.964636,46.116754],[-122.964669,46.11666],[-122.965057,46.116661],[-122.965118,46.116685],[-122.965187,46.116661],[-122.965316,46.116661],[-122.965319,46.116726],[-122.965362,46.11676],[-122.965704,46.116751],[-122.965739,46.116832],[-122.965893,46.11684],[-122.96596,46.116802],[-122.965963,46.116661],[-122.966181,46.116654],[-122.966219,46.116623],[-122.966222,46.116571],[-122.96661,46.116571],[-122.966633,46.116645],[-122.96674,46.116661],[-122.966753,46.116727],[-122.966869,46.116751],[-122.966897,46.116829],[-122.966998,46.116841],[-122.967015,46.117285],[-122.967073,46.117305],[-122.967216,46.117285],[-122.967254,46.117253],[-122.967257,46.117201],[-122.967516,46.117201],[-122.967525,46.117353],[-122.967571,46.117379],[-122.967645,46.117381],[-122.96768,46.117462],[-122.967775,46.117471],[-122.967803,46.117549],[-122.967904,46.117561],[-122.967907,46.117793],[-122.967952,46.117827],[-122.968033,46.117831]],[[-122.965173,46.117087],[-122.965204,46.11697],[-122.965159,46.116935],[-122.964832,46.116926],[-122.964799,46.116965],[-122.964811,46.11719],[-122.964873,46.117214],[-122.965022,46.117191],[-122.965057,46.117111],[-122.965173,46.117087]]]}},{"type":"Feature","properties":{"id":96,"area_m2":15800,"px":158,"rank":2,"persistent":false},"geometry":{"type":"Polygon","coordinates":[[[-122.960791,46.109819],[-122.960791,46.109909],[-122.960685,46.109925],[-122.960662,46.109999],[-122.960533,46.109999],[-122.960464,46.109975],[-122.960291,46.110019],[-122.960273,46.110269],[-122.960162,46.110289],[-122.960144,46.110449],[-122.960037,46.110465],[-122.960014,46.110539],[-122.959898,46.110563],[-122.959885,46.110629],[-122.959756,46.110629],[-122.959695,46.110605],[-122.959626,46.110629],[-122.959497,46.110628],[-122.959474,46.110554],[-122.959368,46.110538],[-122.959367,46.110407],[-122.959339,46.110371],[-122.958979,46.110358],[-122.958979,46.110227],[-122.958951,46.110191],[-122.958591,46.110178],[-122.958569,46.110104],[-122.958462,46.110088],[-122.958462,46.109818],[-122.958557,46.109809],[-122.958592,46.109728],[-122.958698,46.109712],[-122.958754,46.109606],[-122.958721,46.109548],[-122.958721,46.109368],[-122.958828,46.109352],[-122.958851,46.109278],[-122.958952,46.109266],[-122.95898,46.109188],[-122.959075,46.109179],[-122.95911,46.109098],[-122.959222,46.109079],[-122.959239,46.109008],[-122.959369,46.109009],[-122.959378,46.10907],[-122.959431,46.109097],[-122.959757,46.109099],[-122.959763,46.109245],[-122.959805,46.109275],[-122.959886,46.109279],[-122.959908,46.109366],[-122.959961,46.109383],[-122.960145,46.109369],[-122.960167,46.109443],[-122.960274,46.109459],[-122.960296,46.109726],[-122.960349,46.109743],[-122.960478,46.109727],[-122.960527,46.109696],[-122.960533,46.109639],[-122.960662,46.109639],[-122.960671,46.10979],[-122.960717,46.109817],[-122.960791,46.109819]]]}},{"type":"Feature","properties":{"id":18,"area_m2":14700,"px":147,"rank":3,"persistent":true},"geometry":{"type":"Polygon","coordinates":[[[-122.981358,46.126566],[-122.981326,46.126612],[-122.98136,46.126655],[-122.98136,46.126834],[-122.981254,46.12685],[-122.981231,46.126924],[-122.980504,46.126925],[-122.980443,46.126954],[-122.980477,46.127179],[-122.980713,46.127194],[-122.980731,46.127265],[-122.980842,46.127284],[-122.980856,46.12735],[-122.980972,46.127374],[-122.980975,46.127426],[-122.981013,46.127458],[-122.981231,46.127466],[-122.981231,46.127644],[-122.981124,46.12766],[-122.981101,46.127734],[-122.981006,46.127744],[-122.980972,46.127824],[-122.98086,46.127844],[-122.980842,46.127914],[-122.980454,46.127914],[-122.980431,46.12784],[-122.980325,46.127824],[-122.98029,46.127743],[-122.980195,46.127734],[-122.980172,46.12757],[-122.979936,46.127554],[-122.979935,46.127238],[-122.979895,46.127201],[-122.979807,46.127194],[-122.979807,46.127014],[-122.979896,46.127008],[-122.979936,46.126966],[-122.979937,46.126114],[-122.980044,46.126098],[-122.980066,46.126024],[-122.980325,46.126024],[-122.980343,46.126095],[-122.980455,46.126114],[-122.980489,46.126195],[-122.980584,46.126204],[-122.980612,46.126282],[-122.980843,46.126294],[-122.980849,46.126351],[-122.980898,46.126382],[-122.981102,46.126385],[-122.981108,46.126441],[-122.98115,46.12647],[-122.981361,46.126475],[-122.981358,46.126566]]]}},{"type":"Feature","properties":{"id":62,"area_m2":13500,"px":135,"rank":4,"persistent":false},"geometry":{"type":"Polygon","coordinates":[[[-122.961303,46.117649],[-122.961303,46.117739],[-122.961197,46.117755],[-122.961174,46.117829],[-122.961058,46.117853],[-122.961044,46.117919],[-122.960786,46.117919],[-122.960725,46.117895],[-122.960656,46.117919],[-122.960527,46.117919],[-122.960524,46.117867],[-122.960486,46.117835],[-122.960268,46.117829],[-122.960207,46.117805],[-122.960038,46.117841],[-122.960009,46.117919],[-122.959492,46.117919],[-122.95943,46.117895],[-122.959362,46.117919],[-122.959233,46.117919],[-122.959172,46.117894],[-122.959103,46.117918],[-122.958974,46.117918],[-122.958951,46.117844],[-122.958845,46.117828],[-122.958835,46.117587],[-122.95879,46.117561],[-122.958715,46.117558],[-122.958716,46.117198],[-122.960267,46.117199],[-122.96033,46.117223],[-122.9604,46.117199],[-122.961045,46.117199],[-122.961054,46.117351],[-122.9611,46.117377],[-122.961174,46.117379],[-122.961174,46.117469],[-122.96114,46.117517],[-122.96118,46.117616],[-122.961222,46.117645],[-122.961303,46.117649]]]}},{"type":"Feature","properties":{"id":80,"area_m2":8800,"px":88,"rank":5,"persistent":false},"geometry":{"type":"Polygon","coordinates":[[[-122.962989,46.11315],[-122.962989,46.11342],[-122.962753,46.113436],[-122.96273,46.11351],[-122.962648,46.113514],[-122.962606,46.113543],[-122.9626,46.11369],[-122.962342,46.11369],[-122.962319,46.113615],[-122.962212,46.113599],[-122.962199,46.113444],[-122.962083,46.113419],[-122.962048,46.113339],[-122.961954,46.113329],[-122.961925,46.113252],[-122.961824,46.113239],[-122.961815,46.113088],[-122.961769,46.113062],[-122.961695,46.113059],[-122.961695,46.112969],[-122.961899,46.112967],[-122.961954,46.112915],[-122.961936,46.112809],[-122.961825,46.112789],[-122.96179,46.112708],[-122.961695,46.112699],[-122.961682,46.112543],[-122.961566,46.112519],[-122.961566,46.112249],[-122.961673,46.112234],[-122.961696,46.112159],[-122.961825,46.112159],[-122.961831,46.112216],[-122.96188,46.112247],[-122.962084,46.11225],[-122.962093,46.112401],[-122.962139,46.112427],[-122.962213,46.11243],[-122.962247,46.11251],[-122.962342,46.11252],[-122.962365,46.112684],[-122.962472,46.1127],[-122.962506,46.112781],[-122.962601,46.11279],[-122.962614,46.112946],[-122.96273,46.11297],[-122.962765,46.113051],[-122.96286,46.11306],[-122.962888,46.113137],[-122.962989,46.11315]]]}},{"type":"Feature","properties":{"id":89,"area_m2":7400,"px":74,"rank":6,"persistent":false},"geometry":{"type":"Polygon","coordinates":[[[-122.957814,46.111078],[-122.957814,46.111438],[-122.957578,46.111454],[-122.957555,46.111618],[-122.957448,46.111634],[-122.957425,46.111708],[-122.957296,46.111708],[-122.957283,46.111642],[-122.957167,46.111618],[-122.957161,46.111561],[-122.957119,46.111532],[-122.956983,46.111514],[-122.956917,46.111543],[-122.956917,46.111679],[-122.956963,46.111705],[-122.957037,46.111708],[-122.957037,46.112068],[-122.956778,46.112068],[-122.956765,46.112002],[-122.956701,46.111978],[-122.956554,46.111987],[-122.956519,46.112067],[-122.95639,46.112067],[-122.956367,46.111993],[-122.956261,46.111977],[-122.956261,46.111887],[-122.956342,46.111883],[-122.956387,46.111849],[-122.95639,46.111707],[-122.956472,46.111703],[-122.956514,46.111674],[-122.95652,46.111528],[-122.956615,46.111518],[-122.956649,46.111438],[-122.956766,46.111414],[-122.956779,46.111258],[-122.95686,46.111253],[-122.956905,46.111219],[-122.956908,46.111078],[-122.95699,46.111074],[-122.957032,46.111044],[-122.957038,46.110808],[-122.957297,46.110808],[-122.95731,46.110874],[-122.957426,46.110898],[-122.957454,46.110976],[-122.957685,46.110988],[-122.957708,46.111062],[-122.957814,46.111078]]]}},{"type":"Feature","properties":{"id":90,"area_m2":5100,"px":51,"rank":7,"persistent":false},"geometry":{"type":"Polygon","coordinates":[[[-122.962343,46.11099],[-122.962343,46.111079],[-122.962248,46.111089],[-122.962214,46.111169],[-122.96214,46.111172],[-122.962094,46.111198],[-122.962084,46.111349],[-122.961978,46.111365],[-122.961955,46.111439],[-122.961854,46.111452],[-122.961825,46.111529],[-122.961724,46.111542],[-122.961696,46.111619],[-122.961601,46.111628],[-122.961566,46.111709],[-122.961455,46.111729],[-122.961437,46.111799],[-122.961308,46.111799],[-122.961308,46.111709],[-122.961409,46.111697],[-122.961437,46.111619],[-122.961526,46.111613],[-122.961565,46.111576],[-122.961561,46.111473],[-122.961519,46.111443],[-122.961437,46.111439],[-122.961437,46.111349],[-122.961532,46.11134],[-122.961567,46.111259],[-122.961683,46.111235],[-122.961696,46.111079],[-122.961808,46.11106],[-122.961846,46.11095],[-122.961791,46.110902],[-122.961608,46.110906],[-122.96157,46.110938],[-122.961567,46.110989],[-122.961451,46.111013],[-122.961437,46.111079],[-122.961326,46.111099],[-122.961308,46.111169],[-122.961179,46.111169],[-122.961179,46.110899],[-122.961286,46.110883],[-122.961308,46.110809],[-122.961403,46.1108],[-122.961438,46.110719],[-122.96155,46.1107],[-122.961567,46.110629],[-122.961785,46.110623],[-122.961823,46.110591],[-122.961826,46.110539],[-122.962085,46.11054],[-122.962094,46.110691],[-122.96214,46.110717],[-122.962214,46.11072],[-122.96222,46.110956],[-122.962262,46.110985],[-122.962343,46.11099]]]}},{"type":"Feature","properties":{"id":46,"area_m2":4200,"px":42,"rank":8,"persistent":false},"geometry":{"type":"Polygon","coordinates":[[[-122.975408,46.122693],[-122.975406,46.122783],[-122.975279,46.122783],[-122.975269,46.122722],[-122.975216,46.122694],[-122.974802,46.1227],[-122.974762,46.122737],[-122.974762,46.12283],[-122.974802,46.122867],[-122.97489,46.122873],[-122.97489,46.122963],[-122.974631,46.122963],[-122.974628,46.122911],[-122.97459,46.12288],[-122.974373,46.122873],[-122.974359,46.122807],[-122.974243,46.122783],[-122.974209,46.122702],[-122.973984,46.122693],[-122.973984,46.122513],[-122.974059,46.122511],[-122.974105,46.122484],[-122.974114,46.122333],[-122.97489,46.122333],[-122.974913,46.122407],[-122.97502,46.122423],[-122.975037,46.122493],[-122.975149,46.122513],[-122.975184,46.122594],[-122.975279,46.122603],[-122.975307,46.122681],[-122.975408,46.122693]]]}},{"type":"Feature","properties":{"id":54,"area_m2":4100,"px":41,"rank":9,"persistent":false},"geometry":{"type":"Polygon","coordinates":[[[-122.964408,46.11981],[-122.964408,46.11999],[-122.964281,46.11999],[-122.964266,46.119924],[-122.964149,46.1199],[-122.964115,46.119819],[-122.963891,46.11981],[-122.963878,46.119654],[-122.963761,46.11963],[-122.963727,46.119549],[-122.963632,46.11954],[-122.963609,46.119376],[-122.963503,46.11936],[-122.963468,46.119279],[-122.963373,46.11927],[-122.963373,46.11909],[-122.963408,46.119048],[-122.963373,46.119],[-122.963374,46.11891],[-122.963632,46.11891],[-122.963655,46.118984],[-122.963762,46.119],[-122.963779,46.11907],[-122.963891,46.11909],[-122.963925,46.119171],[-122.96402,46.11918],[-122.964049,46.119258],[-122.96415,46.11927],[-122.964178,46.119348],[-122.964279,46.11936],[-122.96428,46.119767],[-122.96432,46.119804],[-122.964408,46.11981]]]}},{"type":"Feature","properties":{"id":52,"area_m2":3800,"px":38,"rank":10,"persistent":false},"geometry":{"type":"Polygon","coordinates":[[[-122.963631,46.12053],[-122.963631,46.12071],[-122.963502,46.12071],[-122.963489,46.120644],[-122.963424,46.12062],[-122.963277,46.120629],[-122.963243,46.12071],[-122.962984,46.12071],[-122.962961,46.120636],[-122.962855,46.12062],[-122.962832,46.120456],[-122.962725,46.12044],[-122.962719,46.120383],[-122.962677,46.120354],[-122.962467,46.12035],[-122.962467,46.12017],[-122.962573,46.120154],[-122.962596,46.12008],[-122.962712,46.120056],[-122.962726,46.11999],[-122.962984,46.11999],[-122.963007,46.120064],[-122.963114,46.12008],[-122.963131,46.12024],[-122.963184,46.12026],[-122.963372,46.12026],[-122.963395,46.120334],[-122.963502,46.12035],[-122.963515,46.120506],[-122.963631,46.12053]]]}},{"type":"Feature","properties":{"id":22,"area_m2":3700,"px":37,"rank":11,"persistent":false},"geometry":{"type":"Polygon","coordinates":[[[-122.974629,46.126833],[-122.974629,46.127013],[-122.974112,46.127013],[-122.974089,46.126849],[-122.973853,46.126833],[-122.97383,46.126669],[-122.973594,46.126653],[-122.973571,46.126579],[-122.973465,46.126563],[-122.973447,46.126493],[-122.973335,46.126473],[-122.973301,46.126392],[-122.973206,46.126383],[-122.973178,46.126305],[-122.973077,46.126293],[-122.973048,46.126215],[-122.972947,46.126203],[-122.972947,46.126023],[-122.973335,46.126023],[-122.973336,46.126154],[-122.97337,46.126194],[-122.973724,46.126203],[-122.973724,46.126293],[-122.973689,46.126341],[-122.973745,46.12647],[-122.973799,46.126487],[-122.973982,46.126473],[-122.973992,46.126625],[-122.974045,46.126652],[-122.974241,46.126653],[-122.974243,46.12679],[-122.974282,46.126827],[-122.974629,46.126833]]]}},{"type":"Feature","properties":{"id":30,"area_m2":3500,"px":35,"rank":12,"persistent":false},"geometry":{"type":"Polygon","coordinates":[[[-122.969583,46.124312],[-122.969583,46.124402],[-122.969494,46.124408],[-122.969455,46.124445],[-122.969453,46.124672],[-122.969346,46.124688],[-122.969324,46.124762],[-122.969207,46.124786],[-122.969194,46.124852],[-122.968963,46.124851],[-122.968935,46.124942],[-122.968828,46.124958],[-122.968806,46.125032],[-122.968676,46.125032],[-122.968675,46.124895],[-122.968635,46.124858],[-122.968288,46.124852],[-122.968288,46.124762],[-122.968499,46.124758],[-122.968541,46.124728],[-122.968547,46.124672],[-122.968663,46.124648],[-122.968677,46.124402],[-122.968894,46.124395],[-122.968932,46.124363],[-122.968936,46.124312],[-122.969119,46.124326],[-122.969177,46.124305],[-122.969195,46.124132],[-122.969324,46.124132],[-122.969347,46.124206],[-122.969453,46.124222],[-122.969488,46.124303],[-122.969583,46.124312]]]}},{"type":"Feature","properties":{"id":33,"area_m2":3500,"px":35,"rank":13,"persistent":false},"geometry":{"type":"Polygon","coordinates":[[[-122.967383,46.123681],[-122.967383,46.123771],[-122.967282,46.123784],[-122.967253,46.123861],[-122.967158,46.12387],[-122.967124,46.123951],[-122.967042,46.123955],[-122.967,46.123985],[-122.966994,46.124311],[-122.966887,46.124327],[-122.966864,46.124401],[-122.966735,46.124401],[-122.966718,46.124048],[-122.96666,46.124027],[-122.966347,46.124041],[-122.966324,46.123967],[-122.966218,46.123951],[-122.966183,46.12387],[-122.966088,46.123861],[-122.966089,46.123501],[-122.966347,46.123501],[-122.96637,46.123575],[-122.966477,46.123591],[-122.966478,46.123741],[-122.966537,46.123784],[-122.966946,46.123767],[-122.966988,46.123738],[-122.966994,46.123681],[-122.967111,46.123657],[-122.967124,46.123591],[-122.967253,46.123591],[-122.967276,46.123665],[-122.967383,46.123681]]]}},{"type":"Feature","properties":{"id":94,"area_m2":3500,"px":35,"rank":14,"persistent":false},"geometry":{"type":"Polygon","coordinates":[[[-122.961567,46.110269],[-122.961567,46.110359],[-122.961343,46.110368],[-122.961308,46.110449],[-122.961192,46.110473],[-122.961179,46.110539],[-122.961067,46.110559],[-122.96105,46.110629],[-122.960938,46.110649],[-122.96092,46.110809],[-122.960813,46.110825],[-122.960791,46.110899],[-122.960674,46.110923],[-122.960661,46.110989],[-122.960532,46.110989],[-122.960547,46.110754],[-122.96049,46.11072],[-122.960273,46.110719],[-122.960273,46.110539],[-122.96038,46.110523],[-122.960403,46.110449],[-122.960768,46.110433],[-122.960791,46.110359],[-122.960873,46.110355],[-122.960917,46.110321],[-122.960921,46.110089],[-122.96105,46.110089],[-122.961059,46.110151],[-122.961112,46.110178],[-122.961438,46.110179],[-122.961461,46.110253],[-122.961567,46.110269]]]}},{"type":"Feature","properties":{"id":27,"area_m2":3300,"px":33,"rank":15,"persistent":false},"geometry":{"type":"Polygon","coordinates":[[[-122.970359,46.125572],[-122.970358,46.125752],[-122.970252,46.125768],[-122.970229,46.125842],[-122.970113,46.125866],[-122.970099,46.125932],[-122.969766,46.125934],[-122.969717,46.125965],[-122.969709,46.126022],[-122.969582,46.126022],[-122.969559,46.125948],[-122.969452,46.125932],[-122.969453,46.125842],[-122.969487,46.125799],[-122.969453,46.125752],[-122.969453,46.125572],[-122.969527,46.12557],[-122.969573,46.125543],[-122.969582,46.125392],[-122.96997,46.125392],[-122.970005,46.125473],[-122.970229,46.125482],[-122.970252,46.125556],[-122.970359,46.125572]]]}},{"type":"Feature","properties":{"id":93,"area_m2":3200,"px":32,"rank":16,"persistent":false},"geometry":{"type":"Polygon","coordinates":[[[-122.958979,46.110718],[-122.958979,46.110898],[-122.958884,46.110907],[-122.958849,46.110988],[-122.958755,46.110991],[-122.958705,46.111023],[-122.95872,46.111258],[-122.958332,46.111258],[-122.958352,46.111134],[-122.95833,46.111095],[-122.958073,46.111078],[-122.958073,46.110898],[-122.95818,46.110882],[-122.958203,46.110808],[-122.958399,46.110807],[-122.95846,46.110765],[-122.958448,46.110652],[-122.958332,46.110628],[-122.958332,46.110358],[-122.958462,46.110358],[-122.958484,46.110432],[-122.958591,46.110448],[-122.958626,46.110529],[-122.95872,46.110538],[-122.958721,46.11067],[-122.958749,46.110706],[-122.958979,46.110718]]]}},{"type":"Feature","properties":{"id":21,"area_m2":3100,"px":31,"rank":17,"persistent":false},"geometry":{"type":"Polygon","coordinates":[[[-122.972688,46.127103],[-122.972688,46.127283],[-122.972558,46.127283],[-122.972541,46.127212],[-122.972429,46.127193],[-122.972416,46.127127],[-122.9723,46.127103],[-122.972265,46.127022],[-122.972111,46.127013],[-122.972054,46.127037],[-122.972054,46.127259],[-122.972111,46.127282],[-122.972299,46.127283],[-122.972308,46.127434],[-122.972354,46.12746],[-122.972429,46.127463],[-122.972429,46.127553],[-122.972299,46.127553],[-122.972296,46.127501],[-122.972258,46.127469],[-122.97204,46.127463],[-122.972027,46.127397],[-122.971911,46.127373],[-122.971877,46.127292],[-122.971652,46.127282],[-122.971629,46.127208],[-122.971523,46.127192],[-122.971523,46.127013],[-122.97163,46.126997],[-122.971652,46.126923],[-122.971769,46.126899],[-122.971782,46.126833],[-122.971911,46.126833],[-122.971972,46.126857],[-122.972041,46.126833],[-122.9723,46.126833],[-122.972303,46.126884],[-122.972341,46.126916],[-122.972558,46.126923],[-122.972568,46.127074],[-122.972613,46.1271],[-122.972688,46.127103]]]}},{"type":"Feature","properties":{"id":65,"area_m2":3100,"px":31,"rank":18,"persistent":false},"geometry":{"type":"Polygon","coordinates":[[[-122.960786,46.116839],[-122.960786,46.116929],[-122.960569,46.116935],[-122.960531,46.116967],[-122.960527,46.117019],[-122.960139,46.117019],[-122.960078,46.116995],[-122.96001,46.117019],[-122.95988,46.117019],[-122.959881,46.116389],[-122.96014,46.116389],[-122.960162,46.116463],[-122.960269,46.116479],[-122.960287,46.116549],[-122.960398,46.116569],[-122.960433,46.11665],[-122.960528,46.116659],[-122.960556,46.116737],[-122.960657,46.116749],[-122.960685,46.116827],[-122.960786,46.116839]]]}},{"type":"Feature","properties":{"id":4,"area_m2":2900,"px":29,"rank":19,"persistent":false},"geometry":{"type":"Polygon","coordinates":[[[-122.988478,46.133136],[-122.988478,46.133225],[-122.98822,46.133225],[-122.988206,46.13316],[-122.98809,46.133135],[-122.988087,46.133084],[-122.988049,46.133052],[-122.987779,46.133045],[-122.987715,46.133069],[-122.987702,46.133135],[-122.987627,46.133138],[-122.987581,46.133164],[-122.987578,46.133462],[-122.98762,46.133491],[-122.987702,46.133496],[-122.987736,46.133576],[-122.987831,46.133586],[-122.987859,46.133663],[-122.98796,46.133676],[-122.98796,46.133765],[-122.987831,46.133765],[-122.987825,46.133709],[-122.987776,46.133678],[-122.987572,46.133675],[-122.987549,46.133601],[-122.987443,46.133585],[-122.987408,46.133505],[-122.987313,46.133495],[-122.987296,46.133335],[-122.987184,46.133315],[-122.987184,46.133225],[-122.987279,46.133216],[-122.987313,46.133135],[-122.987395,46.133131],[-122.987437,46.133102],[-122.987443,46.132865],[-122.98809,46.132866],[-122.988113,46.13303],[-122.988219,46.133046],[-122.988225,46.133102],[-122.988267,46.133131],[-122.988478,46.133136]]]}},{"type":"Feature","properties":{"id":66,"area_m2":2700,"px":27,"rank":20,"persistent":false},"geometry":{"type":"Polygon","coordinates":[[[-122.959751,46.116659],[-122.959751,46.116839],[-122.959533,46.116845],[-122.959496,46.116877],[-122.959492,46.116929],[-122.959363,46.116929],[-122.959357,46.116872],[-122.959308,46.116841],[-122.959104,46.116838],[-122.959104,46.116299],[-122.959622,46.116299],[-122.959623,46.116615],[-122.959663,46.116652],[-122.959751,46.116659]]]}},{"type":"Feature","properties":{"id":53,"area_m2":2600,"px":26,"rank":21,"persistent":false},"geometry":{"type":"Polygon","coordinates":[[[-122.964278,46.12017],[-122.964278,46.12035],[-122.96389,46.12035],[-122.963887,46.120299],[-122.963849,46.120267],[-122.963631,46.12026],[-122.963614,46.1201],[-122.963561,46.12008],[-122.963373,46.12008],[-122.96335,46.120006],[-122.963243,46.11999],[-122.963226,46.11992],[-122.963114,46.1199],[-122.963079,46.119819],[-122.962985,46.11981],[-122.962956,46.119732],[-122.962855,46.11972],[-122.962855,46.11963],[-122.963114,46.11963],[-122.963132,46.1197],[-122.963243,46.11972],[-122.963261,46.11979],[-122.963373,46.11981],[-122.963386,46.119876],[-122.963502,46.1199],[-122.963508,46.119957],[-122.96355,46.119986],[-122.963713,46.119986],[-122.963755,46.119957],[-122.963761,46.1199],[-122.96389,46.1199],[-122.963913,46.119974],[-122.96402,46.11999],[-122.964033,46.120056],[-122.964149,46.12008],[-122.964178,46.120158],[-122.964278,46.12017]]]}},{"type":"Feature","properties":{"id":45,"area_m2":2500,"px":25,"rank":22,"persistent":false},"geometry":{"type":"Polygon","coordinates":[[[-122.976182,46.122785],[-122.97615,46.122831],[-122.976184,46.122874],[-122.976184,46.122963],[-122.975796,46.122963],[-122.975793,46.122898],[-122.97575,46.122864],[-122.975537,46.122873],[-122.975532,46.122637],[-122.97549,46.122607],[-122.975408,46.122603],[-122.975374,46.122522],[-122.975279,46.122513],[-122.97525,46.122436],[-122.975149,46.122423],[-122.975149,46.122243],[-122.975408,46.122243],[-122.975426,46.122314],[-122.975538,46.122333],[-122.975572,46.122414],[-122.975667,46.122423],[-122.975695,46.122501],[-122.975796,46.122513],[-122.975825,46.122591],[-122.975926,46.122603],[-122.975954,46.122681],[-122.976185,46.122694],[-122.976182,46.122785]]]}},{"type":"Feature","properties":{"id":17,"area_m2":2300,"px":23,"rank":23,"persistent":false},"geometry":{"type":"Polygon","coordinates":[[[-122.975923,46.127824],[-122.975923,46.128003],[-122.975666,46.128003],[-122.975651,46.127937],[-122.975535,46.127913],[-122.975501,46.127833],[-122.975276,46.127823],[-122.975254,46.127659],[-122.975147,46.127643],[-122.975141,46.127587],[-122.975099,46.127557],[-122.974888,46.127553],[-122.974888,46.127283],[-122.975147,46.127283],[-122.97517,46.127358],[-122.975276,46.127373],[-122.975311,46.127454],[-122.975406,46.127463],[-122.975429,46.127628],[-122.975665,46.127643],[-122.975687,46.127718],[-122.975794,46.127734],[-122.975829,46.127814],[-122.975923,46.127824]]]}},{"type":"Feature","properties":{"id":76,"area_m2":2300,"px":23,"rank":24,"persistent":false},"geometry":{"type":"Polygon","coordinates":[[[-122.955353,46.113687],[-122.955353,46.113957],[-122.955279,46.113959],[-122.955233,46.113986],[-122.955224,46.114137],[-122.955117,46.114153],[-122.955094,46.114227],[-122.954965,46.114227],[-122.954942,46.114063],[-122.954706,46.114047],[-122.954706,46.113777],[-122.954781,46.113775],[-122.954827,46.113748],[-122.954836,46.113597],[-122.954965,46.113597],[-122.955026,46.113621],[-122.955095,46.113597],[-122.955224,46.113597],[-122.955247,46.113671],[-122.955353,46.113687]]]}},{"type":"Feature","properties":{"id":48,"area_m2":2100,"px":21,"rank":25,"persistent":false},"geometry":{"type":"Polygon","coordinates":[[[-122.966478,46.121791],[-122.966478,46.122061],[-122.966371,46.122077],[-122.966348,46.122151],[-122.966112,46.122167],[-122.966089,46.122241],[-122.966008,46.122245],[-122.965966,46.122274],[-122.96596,46.122421],[-122.965853,46.122437],[-122.96583,46.122511],[-122.965729,46.122523],[-122.965701,46.122601],[-122.965606,46.12261],[-122.965571,46.122691],[-122.965459,46.12271],[-122.965442,46.122781],[-122.965238,46.122783],[-122.965189,46.122814],[-122.965183,46.122871],[-122.965053,46.122871],[-122.965054,46.122781],[-122.96516,46.122765],[-122.965183,46.122691],[-122.965284,46.122678],[-122.965313,46.122601],[-122.965413,46.122588],[-122.965442,46.122511],[-122.965543,46.122498],[-122.965571,46.122421],[-122.965672,46.122409],[-122.965701,46.122331],[-122.965802,46.122319],[-122.96583,46.122241],[-122.965925,46.122232],[-122.96596,46.122151],[-122.966072,46.122131],[-122.966089,46.121971],[-122.966196,46.121955],[-122.966219,46.121881],[-122.966335,46.121857],[-122.966348,46.121791],[-122.966478,46.121791]]]}},{"type":"Feature","properties":{"id":95,"area_m2":2100,"px":21,"rank":26,"persistent":false},"geometry":{"type":"Polygon","coordinates":[[[-122.958203,46.110448],[-122.958203,46.110538],[-122.958014,46.110538],[-122.957957,46.110562],[-122.957944,46.110718],[-122.957815,46.110718],[-122.957809,46.110648],[-122.957761,46.110617],[-122.957426,46.110628],[-122.957423,46.110486],[-122.957379,46.110452],[-122.957297,46.110448],[-122.957297,46.110358],[-122.957533,46.110342],[-122.957556,46.110268],[-122.957638,46.110264],[-122.95768,46.110235],[-122.957686,46.110088],[-122.957944,46.110088],[-122.957953,46.110239],[-122.957999,46.110266],[-122.958074,46.110268],[-122.958062,46.110418],[-122.958108,46.110446],[-122.958203,46.110448]]]}},{"type":"Feature","properties":{"id":85,"area_m2":1900,"px":19,"rank":27,"persistent":false},"geometry":{"type":"Polygon","coordinates":[[[-122.956131,46.112517],[-122.956131,46.112607],[-122.956029,46.112612],[-122.955982,46.112652],[-122.956019,46.112768],[-122.956131,46.112789],[-122.95613,46.112877],[-122.956024,46.112893],[-122.956001,46.112967],[-122.955872,46.112967],[-122.955811,46.112943],[-122.955742,46.112967],[-122.955484,46.112967],[-122.955461,46.112893],[-122.955354,46.112877],[-122.955354,46.112787],[-122.955461,46.112771],[-122.955484,46.112697],[-122.9556,46.112673],[-122.955613,46.112607],[-122.955708,46.112605],[-122.95575,46.112582],[-122.955743,46.112427],[-122.956001,46.112427],[-122.956024,46.112501],[-122.956131,46.112517]]]}},{"type":"Feature","properties":{"id":1,"area_m2":1800,"px":18,"rank":28,"persistent":false},"geometry":{"type":"Polygon","coordinates":[[[-122.990291,46.134126],[-122.990291,46.134216],[-122.990209,46.13422],[-122.990164,46.134254],[-122.990161,46.134396],[-122.99008,46.1344],[-122.990038,46.134429],[-122.990032,46.134576],[-122.989925,46.134592],[-122.989902,46.134666],[-122.989773,46.134666],[-122.989784,46.134515],[-122.989738,46.134488],[-122.989643,46.134486],[-122.989634,46.134334],[-122.989588,46.134308],[-122.989514,46.134306],[-122.989479,46.134225],[-122.989384,46.134216],[-122.989385,46.134126],[-122.989491,46.13411],[-122.989514,46.134036],[-122.989738,46.134027],[-122.989775,46.133946],[-122.990032,46.133946],[-122.990054,46.13402],[-122.990161,46.134036],[-122.990196,46.134117],[-122.990291,46.134126]],[[-122.990066,46.134173],[-122.990026,46.134069],[-122.989984,46.13404],[-122.989835,46.134037],[-122.989782,46.134064],[-122.989773,46.134361],[-122.989812,46.134403],[-122.989969,46.134395],[-122.990023,46.134367],[-122.990032,46.134216],[-122.990066,46.134173]]]}},{"type":"Feature","properties":{"id":50,"area_m2":1800,"px":18,"rank":29,"persistent":false},"geometry":{"type":"Polygon","coordinates":[[[-122.967513,46.121431],[-122.967513,46.121611],[-122.96731,46.121614],[-122.96726,46.121645],[-122.967254,46.121701],[-122.967125,46.121701],[-122.967112,46.121545],[-122.967055,46.121521],[-122.966866,46.121521],[-122.966844,46.121447],[-122.966737,46.121431],[-122.966734,46.121289],[-122.966689,46.121255],[-122.966608,46.121251],[-122.966608,46.121161],[-122.966866,46.121161],[-122.96687,46.121213],[-122.966907,46.121245],[-122.967125,46.121251],[-122.967138,46.121317],[-122.967255,46.121341],[-122.967289,46.121422],[-122.967513,46.121431]]]}},{"type":"Feature","properties":{"id":64,"area_m2":1800,"px":18,"rank":30,"persistent":false},"geometry":{"type":"Polygon","coordinates":[[[-122.961951,46.1172],[-122.961951,46.117379],[-122.961563,46.117379],[-122.96154,46.117305],[-122.961433,46.117289],[-122.961416,46.117129],[-122.961304,46.117109],[-122.961269,46.117028],[-122.961175,46.117019],[-122.961175,46.116839],[-122.961433,46.116839],[-122.961456,46.116914],[-122.961563,46.116929],[-122.96158,46.117],[-122.961692,46.117019],[-122.961727,46.1171],[-122.961821,46.11711],[-122.96185,46.117187],[-122.961951,46.1172]]]}},{"type":"Feature","properties":{"id":2,"area_m2":1700,"px":17,"rank":31,"persistent":false},"geometry":{"type":"Polygon","coordinates":[[[-122.988996,46.133856],[-122.988996,46.134306],[-122.988867,46.134306],[-122.988806,46.134281],[-122.988737,46.134306],[-122.988349,46.134305],[-122.988349,46.134036],[-122.988585,46.13402],[-122.988608,46.133856],[-122.988996,46.133856]],[[-122.988737,46.134125],[-122.988703,46.134163],[-122.988718,46.134203],[-122.988777,46.134229],[-122.988833,46.13422],[-122.988865,46.134186],[-122.988854,46.134136],[-122.988799,46.134112],[-122.988737,46.134125]]]}},{"type":"Feature","properties":{"id":63,"area_m2":1700,"px":17,"rank":32,"persistent":false},"geometry":{"type":"Polygon","coordinates":[[[-122.958068,46.117018],[-122.958068,46.117378],[-122.957962,46.117394],[-122.957939,46.117468],[-122.95768,46.117468],[-122.957699,46.117243],[-122.957653,46.117202],[-122.957551,46.117198],[-122.957551,46.116928],[-122.95781,46.116928],[-122.957813,46.11698],[-122.957851,46.117012],[-122.958068,46.117018]]]}},{"type":"Feature","properties":{"id":69,"area_m2":1700,"px":17,"rank":33,"persistent":false},"geometry":{"type":"Polygon","coordinates":[[[-122.966222,46.116211],[-122.966222,46.116301],[-122.966116,46.116317],[-122.966093,46.116391],[-122.965964,46.116391],[-122.965954,46.116329],[-122.965901,46.116302],[-122.965575,46.116301],[-122.965576,46.115941],[-122.965964,46.115941],[-122.965986,46.116015],[-122.966093,46.116031],[-122.966106,46.116187],[-122.966222,46.116211]]]}},{"type":"Feature","properties":{"id":61,"area_m2":1600,"px":16,"rank":34,"persistent":false},"geometry":{"type":"Polygon","coordinates":[[[-122.969068,46.118192],[-122.969068,46.118282],[-122.968962,46.118297],[-122.968939,46.118372],[-122.968743,46.118373],[-122.968686,46.118405],[-122.968686,46.118518],[-122.968728,46.118547],[-122.968809,46.118552],[-122.968809,46.118642],[-122.968551,46.118641],[-122.968516,46.118561],[-122.968292,46.118551],[-122.968269,46.118477],[-122.968162,46.118461],[-122.968162,46.118281],[-122.968421,46.118282],[-122.968456,46.118362],[-122.96861,46.118371],[-122.968677,46.118333],[-122.96868,46.118192],[-122.969068,46.118192]]]}},{"type":"Feature","properties":{"id":72,"area_m2":1600,"px":16,"rank":35,"persistent":false},"geometry":{"type":"Polygon","coordinates":[[[-122.958975,46.115579],[-122.958975,46.115758],[-122.958869,46.115774],[-122.958846,46.115848],[-122.958717,46.115848],[-122.958655,46.115824],[-122.958587,46.115848],[-122.958199,46.115848],[-122.958199,46.115578],[-122.958975,46.115579]]]}},{"type":"Feature","properties":{"id":5,"area_m2":1500,"px":15,"rank":36,"persistent":false},"geometry":{"type":"Polygon","coordinates":[[[-122.99055,46.133316],[-122.99055,46.133676],[-122.990032,46.133676],[-122.990009,46.133601],[-122.989902,46.133586],[-122.989902,46.133406],[-122.990115,46.133415],[-122.990158,46.133381],[-122.990161,46.133316],[-122.99055,46.133316]]]}},{"type":"Feature","properties":{"id":25,"area_m2":1500,"px":15,"rank":37,"persistent":false},"geometry":{"type":"Polygon","coordinates":[[[-122.974888,46.126473],[-122.974888,46.126653],[-122.97463,46.126653],[-122.97462,46.126592],[-122.974567,46.126564],[-122.974241,46.126563],[-122.974242,46.126203],[-122.974371,46.126203],[-122.974377,46.12626],[-122.974426,46.126291],[-122.97463,46.126293],[-122.974653,46.126367],[-122.974759,46.126383],[-122.974794,46.126464],[-122.974888,46.126473]]]}},{"type":"Feature","properties":{"id":55,"area_m2":1500,"px":15,"rank":38,"persistent":false},"geometry":{"type":"Polygon","coordinates":[[[-122.962467,46.11927],[-122.962467,46.11945],[-122.96236,46.119466],[-122.962338,46.11954],[-122.962221,46.119564],[-122.962208,46.11963],[-122.961949,46.119629],[-122.961927,46.119555],[-122.96182,46.119539],[-122.96182,46.11936],[-122.961927,46.119344],[-122.96195,46.11927],[-122.962467,46.11927]]]}},{"type":"Feature","properties":{"id":56,"area_m2":1500,"px":15,"rank":39,"persistent":false},"geometry":{"type":"Polygon","coordinates":[[[-122.962985,46.11891],[-122.962985,46.11909],[-122.962878,46.119106],[-122.962855,46.11918],[-122.962467,46.11918],[-122.962445,46.119106],[-122.962338,46.11909],[-122.962338,46.11891],[-122.962556,46.118903],[-122.962594,46.118871],[-122.962597,46.11882],[-122.962856,46.11882],[-122.962878,46.118894],[-122.962985,46.11891]]]}},{"type":"Feature","properties":{"id":67,"area_m2":1500,"px":15,"rank":40,"persistent":false},"geometry":{"type":"Polygon","coordinates":[[[-122.958845,46.116388],[-122.958845,46.116838],[-122.958716,46.116838],[-122.958693,46.116764],[-122.958586,46.116748],[-122.958552,46.116667],[-122.958457,46.116658],[-122.958457,46.116208],[-122.958587,46.116208],[-122.958609,46.116283],[-122.958716,46.116298],[-122.958751,46.116379],[-122.958845,46.116388]]]}},{"type":"Feature","properties":{"id":38,"area_m2":1400,"px":14,"rank":41,"persistent":false},"geometry":{"type":"Polygon","coordinates":[[[-122.969066,46.123052],[-122.969065,46.123322],[-122.968718,46.123328],[-122.968679,46.123365],[-122.968677,46.123502],[-122.968548,46.123502],[-122.968548,46.123052],[-122.969066,46.123052]]]}},{"type":"Feature","properties":{"id":47,"area_m2":1400,"px":14,"rank":42,"persistent":false},"geometry":{"type":"Polygon","coordinates":[[[-122.967254,46.122511],[-122.967254,46.122601],[-122.967147,46.122617],[-122.967124,46.122691],[-122.966791,46.122693],[-122.966742,46.122724],[-122.966736,46.122781],[-122.96662,46.122805],[-122.966606,46.122871],[-122.966348,46.122871],[-122.966348,46.122781],[-122.966454,46.122765],[-122.966477,46.122691],[-122.966578,46.122679],[-122.966607,46.122601],[-122.966702,46.122592],[-122.966736,46.122511],[-122.966848,46.122491],[-122.966866,46.122421],[-122.967124,46.122421],[-122.967147,46.122495],[-122.967254,46.122511]]]}},{"type":"Feature","properties":{"id":20,"area_m2":1300,"px":13,"rank":43,"persistent":false},"geometry":{"type":"Polygon","coordinates":[[[-122.973464,46.127283],[-122.973464,46.127373],[-122.973358,46.127389],[-122.973335,46.127463],[-122.973218,46.127487],[-122.973205,46.127553],[-122.972947,46.127553],[-122.972924,46.127479],[-122.972817,46.127463],[-122.972817,46.127283],[-122.973035,46.127276],[-122.973073,46.127245],[-122.973076,46.127193],[-122.973335,46.127193],[-122.973358,46.127267],[-122.973464,46.127283]]]}},{"type":"Feature","properties":{"id":41,"area_m2":1300,"px":13,"rank":44,"persistent":false},"geometry":{"type":"Polygon","coordinates":[[[-122.975667,46.122963],[-122.975667,46.123143],[-122.975578,46.12315],[-122.975539,46.123187],[-122.975537,46.123413],[-122.975408,46.123413],[-122.975406,46.123277],[-122.975345,46.123234],[-122.975197,46.123237],[-122.975155,46.123267],[-122.975149,46.123323],[-122.97502,46.123323],[-122.97502,46.123233],[-122.975054,46.123191],[-122.97502,46.123143],[-122.97502,46.122963],[-122.975149,46.122963],[-122.975162,46.123029],[-122.975227,46.123053],[-122.975482,46.123051],[-122.975531,46.12302],[-122.975537,46.122963],[-122.975667,46.122963]]]}},{"type":"Feature","properties":{"id":31,"area_m2":1200,"px":12,"rank":45,"persistent":false},"geometry":{"type":"Polygon","coordinates":[[[-122.9701,46.124492],[-122.9701,46.124672],[-122.970005,46.124681],[-122.969971,46.124762],[-122.969854,46.124786],[-122.969841,46.124942],[-122.969582,46.124942],[-122.969583,46.124672],[-122.969689,46.124656],[-122.969712,46.124582],[-122.969828,46.124558],[-122.969842,46.124492],[-122.9701,46.124492]]]}},{"type":"Feature","properties":{"id":74,"area_m2":1200,"px":12,"rank":46,"persistent":false},"geometry":{"type":"Polygon","coordinates":[[[-122.958847,46.114858],[-122.958846,46.115038],[-122.958329,46.115038],[-122.958346,46.114898],[-122.958302,46.114862],[-122.9582,46.114858],[-122.9582,46.114678],[-122.958588,46.114678],[-122.958611,46.114842],[-122.958847,46.114858]]]}},{"type":"Feature","properties":{"id":36,"area_m2":1000,"px":10,"rank":47,"persistent":false},"geometry":{"type":"Polygon","coordinates":[[[-122.976702,46.123324],[-122.976702,46.123594],[-122.976498,46.123596],[-122.976449,46.123627],[-122.976443,46.123683],[-122.976314,46.123683],[-122.976314,46.123504],[-122.976402,46.123497],[-122.976442,46.12346],[-122.976443,46.123144],[-122.976573,46.123144],[-122.976582,46.123295],[-122.976628,46.123321],[-122.976702,46.123324]]]}},{"type":"Feature","properties":{"id":40,"area_m2":1000,"px":10,"rank":48,"persistent":false},"geometry":{"type":"Polygon","coordinates":[[[-122.967253,46.123141],[-122.967253,46.123501],[-122.966865,46.123501],[-122.966842,46.123427],[-122.966736,46.123411],[-122.966736,46.123321],[-122.966954,46.123315],[-122.966991,46.123283],[-122.966995,46.123231],[-122.967111,46.123207],[-122.967124,46.123141],[-122.967253,46.123141]]]}},{"type":"Feature","properties":{"id":73,"area_m2":1000,"px":10,"rank":49,"persistent":false},"geometry":{"type":"Polygon","coordinates":[[[-122.957035,46.115128],[-122.957034,46.115308],[-122.956928,46.115324],[-122.956905,46.115398],[-122.956646,46.115398],[-122.956646,46.115218],[-122.956681,46.115175],[-122.956646,46.115128],[-122.956647,46.114948],[-122.956905,46.114948],[-122.956894,46.115098],[-122.95694,46.115125],[-122.957035,46.115128]]]}},{"type":"Feature","properties":{"id":12,"area_m2":900,"px":9,"rank":50,"persistent":false},"geometry":{"type":"Polygon","coordinates":[[[-122.976959,46.128814],[-122.976958,46.128994],[-122.976829,46.128994],[-122.976823,46.128937],[-122.976774,46.128906],[-122.97657,46.128904],[-122.976548,46.128829],[-122.976441,46.128814],[-122.976441,46.128634],[-122.9767,46.128634],[-122.976723,46.128708],[-122.976829,46.128724],[-122.976864,46.128805],[-122.976959,46.128814]]]}},{"type":"Feature","properties":{"id":44,"area_m2":900,"px":9,"rank":51,"persistent":false},"geometry":{"type":"Polygon","coordinates":[[[-122.967642,46.123051],[-122.967642,46.123141],[-122.967383,46.123141],[-122.967383,46.122996],[-122.96735,46.122957],[-122.966995,46.122961],[-122.966995,46.122781],[-122.967383,46.122781],[-122.967406,46.122855],[-122.967513,46.122871],[-122.967526,46.123027],[-122.967642,46.123051]]]}},{"type":"Feature","properties":{"id":68,"area_m2":900,"px":9,"rank":52,"persistent":false},"geometry":{"type":"Polygon","coordinates":[[[-122.957939,46.116568],[-122.957939,46.116658],[-122.957715,46.116667],[-122.95768,46.116748],[-122.957564,46.116772],[-122.957551,46.116838],[-122.957292,46.116838],[-122.957269,46.116764],[-122.957163,46.116748],[-122.957163,46.116658],[-122.957496,46.116656],[-122.957545,46.116625],[-122.957551,46.116568],[-122.957939,46.116568]]]}},{"type":"Feature","properties":{"id":81,"area_m2":900,"px":9,"rank":53,"persistent":false},"geometry":{"type":"Polygon","coordinates":[[[-122.959236,46.113239],[-122.959236,46.113418],[-122.959162,46.113421],[-122.959116,46.113447],[-122.959106,46.113598],[-122.959,46.113614],[-122.958977,46.113688],[-122.958848,46.113688],[-122.958825,46.113614],[-122.958718,46.113598],[-122.958718,46.113508],[-122.958825,46.113493],[-122.958848,46.113418],[-122.958943,46.113409],[-122.958977,46.113328],[-122.959089,46.113309],[-122.959107,46.113239],[-122.959236,46.113239]]]}},{"type":"Feature","properties":{"id":87,"area_m2":900,"px":9,"rank":54,"persistent":false},"geometry":{"type":"Polygon","coordinates":[[[-122.956649,46.112338],[-122.956648,46.112427],[-122.95626,46.112427],[-122.956238,46.112353],[-122.956131,46.112337],[-122.956097,46.112256],[-122.956002,46.112247],[-122.956002,46.112157],[-122.95639,46.112158],[-122.956413,46.112232],[-122.956519,46.112248],[-122.956554,46.112328],[-122.956649,46.112338]]]}},{"type":"Feature","properties":{"id":49,"area_m2":800,"px":8,"rank":55,"persistent":false},"geometry":{"type":"Polygon","coordinates":[[[-122.964925,46.121701],[-122.964925,46.12188],[-122.964707,46.121887],[-122.964669,46.121919],[-122.964666,46.12197],[-122.964549,46.121994],[-122.964536,46.12206],[-122.964407,46.12206],[-122.964407,46.12188],[-122.964514,46.121865],[-122.964536,46.12179],[-122.964653,46.121766],[-122.964666,46.121701],[-122.964925,46.121701]]]}},{"type":"Feature","properties":{"id":71,"area_m2":800,"px":8,"rank":56,"persistent":false},"geometry":{"type":"Polygon","coordinates":[[[-122.957681,46.115848],[-122.957681,46.116028],[-122.957355,46.116029],[-122.957302,46.116056],[-122.957293,46.116118],[-122.957034,46.116118],[-122.957034,46.116028],[-122.957141,46.116012],[-122.957164,46.115938],[-122.957381,46.115932],[-122.957419,46.1159],[-122.957422,46.115848],[-122.957681,46.115848]]]}},{"type":"Feature","properties":{"id":84,"area_m2":800,"px":8,"rank":57,"persistent":false},"geometry":{"type":"Polygon","coordinates":[[[-122.959754,46.112879],[-122.959754,46.113059],[-122.959647,46.113074],[-122.959624,46.113149],[-122.959236,46.113148],[-122.959236,46.113059],[-122.959343,46.113043],[-122.959366,46.112969],[-122.959482,46.112945],[-122.959495,46.112879],[-122.959754,46.112879]]]}},{"type":"Feature","properties":{"id":14,"area_m2":700,"px":7,"rank":58,"persistent":false},"geometry":{"type":"Polygon","coordinates":[[[-122.977477,46.128184],[-122.977477,46.128364],[-122.977347,46.128364],[-122.977324,46.12829],[-122.977218,46.128274],[-122.9772,46.128114],[-122.977148,46.128094],[-122.976959,46.128094],[-122.976936,46.12802],[-122.97683,46.128004],[-122.97683,46.127914],[-122.976959,46.127914],[-122.976965,46.12797],[-122.977014,46.128001],[-122.977218,46.128004],[-122.977241,46.128078],[-122.977347,46.128094],[-122.977382,46.128175],[-122.977477,46.128184]]]}},{"type":"Feature","properties":{"id":26,"area_m2":700,"px":7,"rank":59,"persistent":false},"geometry":{"type":"Polygon","coordinates":[[[-122.981878,46.126205],[-122.981878,46.126475],[-122.98162,46.126474],[-122.981597,46.1264],[-122.98149,46.126384],[-122.98149,46.126295],[-122.981597,46.126279],[-122.98162,46.126205],[-122.981878,46.126205]]]}},{"type":"Feature","properties":{"id":28,"area_m2":700,"px":7,"rank":60,"persistent":false},"geometry":{"type":"Polygon","coordinates":[[[-122.973594,46.125663],[-122.973594,46.125843],[-122.973206,46.125843],[-122.973206,46.125663],[-122.973313,46.125647],[-122.973336,46.125573],[-122.973465,46.125573],[-122.973488,46.125647],[-122.973594,46.125663]]]}},{"type":"Feature","properties":{"id":42,"area_m2":700,"px":7,"rank":61,"persistent":false},"geometry":{"type":"Polygon","coordinates":[[[-122.966348,46.122961],[-122.966348,46.123051],[-122.966253,46.12306],[-122.966218,46.123141],[-122.966137,46.123145],[-122.966095,46.123174],[-122.966088,46.123411],[-122.965959,46.123411],[-122.965898,46.123387],[-122.96583,46.123411],[-122.9657,46.123411],[-122.9657,46.123321],[-122.965807,46.123305],[-122.96583,46.123231],[-122.965931,46.123219],[-122.965959,46.123141],[-122.966054,46.123132],[-122.966089,46.123051],[-122.966201,46.123031],[-122.966218,46.122961],[-122.966348,46.122961]]]}},{"type":"Feature","properties":{"id":51,"area_m2":700,"px":7,"rank":62,"persistent":false},"geometry":{"type":"Polygon","coordinates":[[[-122.962854,46.12071],[-122.962854,46.12089],[-122.962596,46.12089],[-122.962573,46.120816],[-122.962466,46.1208],[-122.962466,46.12062],[-122.962725,46.12062],[-122.962748,46.120694],[-122.962854,46.12071]]]}},{"type":"Feature","properties":{"id":82,"area_m2":700,"px":7,"rank":63,"persistent":false},"geometry":{"type":"Polygon","coordinates":[[[-122.955742,46.113237],[-122.955742,46.113417],[-122.955668,46.11342],[-122.955622,46.113446],[-122.955612,46.113597],[-122.955354,46.113597],[-122.955354,46.113417],[-122.95546,46.113401],[-122.955483,46.113327],[-122.955599,46.113303],[-122.955613,46.113237],[-122.955742,46.113237]]]}},{"type":"Feature","properties":{"id":88,"area_m2":700,"px":7,"rank":64,"persistent":false},"geometry":{"type":"Polygon","coordinates":[[[-122.960531,46.111799],[-122.960531,46.112069],[-122.960402,46.112069],[-122.960379,46.111995],[-122.960272,46.111979],[-122.960259,46.111823],[-122.960143,46.111799],[-122.960143,46.111619],[-122.960272,46.111619],[-122.960273,46.11175],[-122.960307,46.11179],[-122.960531,46.111799]]]}},{"type":"Feature","properties":{"id":92,"area_m2":700,"px":7,"rank":65,"persistent":false},"geometry":{"type":"Polygon","coordinates":[[[-122.959367,46.110899],[-122.959367,46.111078],[-122.95926,46.111094],[-122.959238,46.111168],[-122.959121,46.111192],[-122.959108,46.111258],[-122.958979,46.111258],[-122.958979,46.111078],[-122.959053,46.111076],[-122.959099,46.11105],[-122.959108,46.110898],[-122.959367,46.110899]]]}},{"type":"Feature","properties":{"id":7,"area_m2":600,"px":6,"rank":66,"persistent":true},"geometry":{"type":"Polygon","coordinates":[[[-122.989644,46.131066],[-122.989644,46.131156],[-122.989537,46.131171],[-122.989514,46.131246],[-122.989385,46.131246],[-122.989362,46.131171],[-122.989256,46.131156],[-122.989256,46.130976],[-122.989514,46.130976],[-122.989537,46.13105],[-122.989644,46.131066]]]}},{"type":"Feature","properties":{"id":29,"area_m2":600,"px":6,"rank":67,"persistent":false},"geometry":{"type":"Polygon","coordinates":[[[-122.969453,46.125032],[-122.969453,46.125212],[-122.969346,46.125228],[-122.969323,46.125302],[-122.969194,46.125302],[-122.969171,46.125228],[-122.969065,46.125212],[-122.969065,46.125122],[-122.969171,46.125106],[-122.969194,46.125032],[-122.969453,46.125032]]]}},{"type":"Feature","properties":{"id":43,"area_m2":600,"px":6,"rank":68,"persistent":false},"geometry":{"type":"Polygon","coordinates":[[[-122.968418,46.122962],[-122.968418,46.123052],[-122.968312,46.123067],[-122.968289,46.123141],[-122.968173,46.123166],[-122.968159,46.123231],[-122.96803,46.123231],[-122.96803,46.123052],[-122.968105,46.123049],[-122.968151,46.123023],[-122.96816,46.122872],[-122.968289,46.122872],[-122.968312,46.122946],[-122.968418,46.122962]]]}},{"type":"Feature","properties":{"id":75,"area_m2":600,"px":6,"rank":69,"persistent":false},"geometry":{"type":"Polygon","coordinates":[[[-122.957165,46.114408],[-122.957164,46.114498],[-122.956947,46.114504],[-122.956909,46.114536],[-122.956906,46.114588],[-122.95658,46.114589],[-122.956527,46.114616],[-122.956517,46.114677],[-122.956388,46.114677],[-122.956388,46.114588],[-122.956495,46.114572],[-122.956518,46.114498],[-122.956843,46.114497],[-122.956897,46.114469],[-122.956906,46.114408],[-122.957165,46.114408]]]}},{"type":"Feature","properties":{"id":58,"area_m2":500,"px":5,"rank":70,"persistent":false},"geometry":{"type":"Polygon","coordinates":[[[-122.96195,46.11873],[-122.96195,46.118819],[-122.961868,46.118824],[-122.961824,46.118858],[-122.96182,46.118999],[-122.961562,46.118999],[-122.961562,46.118909],[-122.961643,46.118905],[-122.961688,46.118871],[-122.961691,46.11873],[-122.96195,46.11873]]]}},{"type":"Feature","properties":{"id":60,"area_m2":500,"px":5,"rank":71,"persistent":false},"geometry":{"type":"Polygon","coordinates":[[[-122.963244,46.11855],[-122.963244,46.11882],[-122.963115,46.11882],[-122.963092,46.118746],[-122.962985,46.11873],[-122.962985,46.11855],[-122.963244,46.11855]]]}},{"type":"Feature","properties":{"id":79,"area_m2":500,"px":5,"rank":72,"persistent":false},"geometry":{"type":"Polygon","coordinates":[[[-122.961436,46.113599],[-122.961436,46.113689],[-122.961329,46.113705],[-122.961306,46.113779],[-122.961048,46.113779],[-122.961048,46.113599],[-122.961436,46.113599]]]}},{"type":"Feature","properties":{"id":3,"area_m2":400,"px":4,"rank":73,"persistent":false},"geometry":{"type":"Polygon","coordinates":[[[-122.990808,46.133586],[-122.990808,46.133856],[-122.990702,46.133872],[-122.990679,46.133946],[-122.99055,46.133946],[-122.99055,46.133856],[-122.990638,46.133849],[-122.990678,46.133812],[-122.990679,46.133586],[-122.990808,46.133586]]]}},{"type":"Feature","properties":{"id":6,"area_m2":400,"px":4,"rank":74,"persistent":false},"geometry":{"type":"Polygon","coordinates":[[[-122.990161,46.132776],[-122.990161,46.132956],[-122.989903,46.132956],[-122.989903,46.132776],[-122.990161,46.132776]]]}},{"type":"Feature","properties":{"id":8,"area_m2":400,"px":4,"rank":75,"persistent":false},"geometry":{"type":"Polygon","coordinates":[[[-122.978382,46.130884],[-122.978382,46.130974],[-122.9783,46.130978],[-122.978256,46.131012],[-122.978252,46.131154],[-122.978123,46.131154],[-122.978123,46.130884],[-122.978382,46.130884]]]}},{"type":"Feature","properties":{"id":13,"area_m2":400,"px":4,"rank":76,"persistent":false},"geometry":{"type":"Polygon","coordinates":[[[-122.984855,46.128275],[-122.984855,46.128545],[-122.984726,46.128545],[-122.984722,46.128403],[-122.984678,46.128369],[-122.984596,46.128365],[-122.984596,46.128275],[-122.984855,46.128275]]]}},{"type":"Feature","properties":{"id":15,"area_m2":400,"px":4,"rank":77,"persistent":false},"geometry":{"type":"Polygon","coordinates":[[[-122.984337,46.128005],[-122.984337,46.128095],[-122.98421,46.128095],[-122.984204,46.128043],[-122.984167,46.128011],[-122.983949,46.128005],[-122.983949,46.127825],[-122.984078,46.127825],[-122.984101,46.127899],[-122.984208,46.127915],[-122.984242,46.127996],[-122.984337,46.128005]]]}},{"type":"Feature","properties":{"id":23,"area_m2":400,"px":4,"rank":78,"persistent":false},"geometry":{"type":"Polygon","coordinates":[[[-122.975277,46.126743],[-122.975277,46.126923],[-122.975147,46.126923],[-122.975125,46.126849],[-122.975018,46.126833],[-122.975018,46.126653],[-122.975147,46.126653],[-122.97517,46.126727],[-122.975277,46.126743]]]}},{"type":"Feature","properties":{"id":32,"area_m2":400,"px":4,"rank":79,"persistent":false},"geometry":{"type":"Polygon","coordinates":[[[-122.968547,46.124402],[-122.968547,46.124582],[-122.968288,46.124582],[-122.968288,46.124402],[-122.968547,46.124402]]]}},{"type":"Feature","properties":{"id":34,"area_m2":400,"px":4,"rank":80,"persistent":false},"geometry":{"type":"Polygon","coordinates":[[[-122.969971,46.123772],[-122.969971,46.123862],[-122.969865,46.123878],[-122.969842,46.123952],[-122.969725,46.123976],[-122.969712,46.124042],[-122.969583,46.124042],[-122.969583,46.123862],[-122.969787,46.12386],[-122.969836,46.123829],[-122.969842,46.123772],[-122.969971,46.123772]]]}},{"type":"Feature","properties":{"id":57,"area_m2":400,"px":4,"rank":81,"persistent":false},"geometry":{"type":"Polygon","coordinates":[[[-122.965962,46.118821],[-122.965962,46.119001],[-122.965832,46.119001],[-122.96581,46.118927],[-122.965703,46.118911],[-122.965669,46.11883],[-122.965574,46.118821],[-122.965574,46.118731],[-122.965703,46.118731],[-122.965709,46.118787],[-122.965758,46.118818],[-122.965962,46.118821]]]}},{"type":"Feature","properties":{"id":83,"area_m2":400,"px":4,"rank":82,"persistent":false},"geometry":{"type":"Polygon","coordinates":[[[-122.955224,46.113147],[-122.955224,46.113327],[-122.955118,46.113343],[-122.955095,46.113417],[-122.954966,46.113417],[-122.954966,46.113237],[-122.955072,46.113221],[-122.955095,46.113147],[-122.955224,46.113147]]]}},{"type":"Feature","properties":{"id":86,"area_m2":400,"px":4,"rank":83,"persistent":false},"geometry":{"type":"Polygon","coordinates":[[[-122.960789,46.112519],[-122.960789,46.112699],[-122.960683,46.112715],[-122.96066,46.112789],[-122.960531,46.112789],[-122.960531,46.112609],[-122.960637,46.112593],[-122.96066,46.112519],[-122.960789,46.112519]]]}},{"type":"Feature","properties":{"id":91,"area_m2":400,"px":4,"rank":84,"persistent":false},"geometry":{"type":"Polygon","coordinates":[[[-122.960014,46.111439],[-122.960014,46.111619],[-122.959755,46.111619],[-122.959755,46.111439],[-122.960014,46.111439]]]}},{"type":"Feature","properties":{"id":9,"area_m2":300,"px":3,"rank":85,"persistent":false},"geometry":{"type":"Polygon","coordinates":[[[-122.983171,46.130795],[-122.983171,46.130975],[-122.983065,46.130991],[-122.983042,46.131065],[-122.982913,46.131065],[-122.982913,46.130975],[-122.982994,46.130971],[-122.983039,46.130936],[-122.983042,46.130795],[-122.983171,46.130795]]]}},{"type":"Feature","properties":{"id":10,"area_m2":300,"px":3,"rank":86,"persistent":false},"geometry":{"type":"Polygon","coordinates":[[[-122.98822,46.129806],[-122.98822,46.130075],[-122.988091,46.130075],[-122.988091,46.129806],[-122.98822,46.129806]]]}},{"type":"Feature","properties":{"id":11,"area_m2":300,"px":3,"rank":87,"persistent":false},"geometry":{"type":"Polygon","coordinates":[[[-122.9789,46.129264],[-122.9789,46.129354],[-122.978641,46.129354],[-122.978641,46.129174],[-122.978771,46.129174],[-122.978793,46.129248],[-122.9789,46.129264]]]}},{"type":"Feature","properties":{"id":16,"area_m2":300,"px":3,"rank":88,"persistent":false},"geometry":{"type":"Polygon","coordinates":[[[-122.983561,46.127825],[-122.983561,46.128005],[-122.983431,46.128005],[-122.983408,46.127931],[-122.983302,46.127915],[-122.983302,46.127825],[-122.983561,46.127825]]]}},{"type":"Feature","properties":{"id":19,"area_m2":300,"px":3,"rank":89,"persistent":false},"geometry":{"type":"Polygon","coordinates":[[[-122.976571,46.127554],[-122.976571,46.127644],[-122.976312,46.127644],[-122.976312,46.127464],[-122.976441,46.127464],[-122.976464,46.127538],[-122.976571,46.127554]]]}},{"type":"Feature","properties":{"id":24,"area_m2":300,"px":3,"rank":90,"persistent":false},"geometry":{"type":"Polygon","coordinates":[[[-122.973206,46.126653],[-122.973206,46.126833],[-122.972947,46.126833],[-122.972947,46.126743],[-122.973054,46.126727],[-122.973076,46.126653],[-122.973206,46.126653]]]}},{"type":"Feature","properties":{"id":35,"area_m2":300,"px":3,"rank":91,"persistent":false},"geometry":{"type":"Polygon","coordinates":[[[-122.969065,46.123772],[-122.969065,46.123862],[-122.968959,46.123878],[-122.968936,46.123952],[-122.968806,46.123952],[-122.968807,46.123772],[-122.969065,46.123772]]]}},{"type":"Feature","properties":{"id":37,"area_m2":300,"px":3,"rank":92,"persistent":false},"geometry":{"type":"Polygon","coordinates":[[[-122.97023,46.123412],[-122.97023,46.123592],[-122.969972,46.123592],[-122.969972,46.123502],[-122.970078,46.123486],[-122.970101,46.123412],[-122.97023,46.123412]]]}},{"type":"Feature","properties":{"id":39,"area_m2":300,"px":3,"rank":93,"persistent":false},"geometry":{"type":"Polygon","coordinates":[[[-122.967901,46.123322],[-122.9679,46.123411],[-122.967697,46.123414],[-122.967648,46.123445],[-122.967642,46.123501],[-122.967512,46.123501],[-122.967512,46.123411],[-122.967619,46.123396],[-122.967642,46.123321],[-122.967901,46.123322]]]}},{"type":"Feature","properties":{"id":70,"area_m2":300,"px":3,"rank":94,"persistent":false},"geometry":{"type":"Polygon","coordinates":[[[-122.95781,46.116208],[-122.95781,46.116298],[-122.957422,46.116298],[-122.957422,46.116208],[-122.95781,46.116208]]]}},{"type":"Feature","properties":{"id":77,"area_m2":300,"px":3,"rank":95,"persistent":false},"geometry":{"type":"Polygon","coordinates":[[[-122.957553,46.113868],[-122.957553,46.113958],[-122.957447,46.113974],[-122.957424,46.114048],[-122.957294,46.114048],[-122.957295,46.113868],[-122.957553,46.113868]]]}},{"type":"Feature","properties":{"id":78,"area_m2":300,"px":3,"rank":96,"persistent":false},"geometry":{"type":"Polygon","coordinates":[[[-122.963118,46.11369],[-122.963118,46.11378],[-122.963011,46.113796],[-122.962988,46.11387],[-122.962859,46.11387],[-122.962859,46.11369],[-122.963118,46.11369]]]}}]}