{"type":"FeatureCollection","features":[{"type":"Feature","properties":{"id":24,"area_m2":12000,"px":120,"rank":1,"persistent":false},"geometry":{"type":"Polygon","coordinates":[[[-122.932543,46.141306],[-122.932543,46.141666],[-122.932203,46.14167],[-122.932161,46.141699],[-122.932154,46.141756],[-122.931924,46.141768],[-122.931895,46.141846],[-122.931766,46.141846],[-122.931766,46.141576],[-122.931896,46.141576],[-122.93193,46.141657],[-122.932085,46.141666],[-122.932145,46.141638],[-122.932155,46.141576],[-122.932243,46.14157],[-122.932283,46.141533],[-122.932279,46.14134],[-122.932237,46.14131],[-122.932155,46.141306],[-122.932146,46.141245],[-122.932093,46.141217],[-122.931815,46.14122],[-122.931773,46.141249],[-122.931767,46.141306],[-122.93165,46.14133],[-122.931637,46.141396],[-122.931401,46.141411],[-122.931378,46.141486],[-122.931296,46.14149],[-122.931252,46.141524],[-122.931248,46.141755],[-122.931119,46.141755],[-122.931084,46.141675],[-122.930938,46.141665],[-122.930873,46.141689],[-122.93086,46.141755],[-122.930629,46.141767],[-122.930601,46.141845],[-122.930484,46.141869],[-122.930437,46.141988],[-122.930494,46.142099],[-122.9306,46.142115],[-122.930635,46.142196],[-122.93073,46.142205],[-122.930729,46.142385],[-122.930267,46.142387],[-122.930217,46.142418],[-122.930211,46.142475],[-122.930095,46.142499],[-122.930082,46.142565],[-122.929952,46.142565],[-122.929953,46.142475],[-122.930064,46.142455],[-122.930116,46.142332],[-122.930082,46.142295],[-122.930069,46.142139],[-122.93002,46.142116],[-122.929886,46.142116],[-122.929825,46.142158],[-122.929823,46.142295],[-122.929717,46.14231],[-122.929694,46.142385],[-122.929599,46.142394],[-122.929564,46.142474],[-122.929452,46.142494],[-122.929434,46.142564],[-122.929305,46.142564],[-122.929305,46.142474],[-122.929387,46.14247],[-122.929431,46.142436],[-122.929435,46.142295],[-122.929631,46.142294],[-122.929688,46.142261],[-122.929694,46.142115],[-122.929729,46.142072],[-122.929694,46.142025],[-122.929694,46.141935],[-122.929776,46.141931],[-122.92982,46.141896],[-122.929859,46.141802],[-122.929824,46.141755],[-122.929824,46.141665],[-122.930083,46.141665],[-122.930117,46.141746],[-122.930289,46.141766],[-122.930336,46.141735],[-122.930342,46.141665],[-122.930424,46.141661],[-122.930466,46.141632],[-122.930472,46.141395],[-122.930579,46.141379],[-122.930601,46.141305],[-122.930731,46.141305],[-122.930736,46.141375],[-122.930791,46.141408],[-122.93099,46.141395],[-122.931066,46.141419],[-122.931139,46.141383],[-122.931153,46.141342],[-122.931106,46.141239],[-122.93099,46.141215],[-122.93099,46.141125],[-122.931025,46.141083],[-122.93099,46.141035],[-122.93099,46.140945],[-122.931085,46.140936],[-122.93112,46.140856],[-122.931236,46.140832],[-122.93125,46.140676],[-122.931508,46.140676],[-122.93151,46.140812],[-122.931571,46.140855],[-122.931719,46.140852],[-122.931761,46.140823],[-122.931767,46.140766],[-122.931897,46.140766],[-122.931893,46.140925],[-122.932026,46.140946],[-122.932032,46.141003],[-122.932074,46.141032],[-122.932285,46.141036],[-122.932298,46.141192],[-122.932414,46.141216],[-122.932449,46.141297],[-122.932543,46.141306]]]}},{"type":"Feature","properties":{"id":98,"area_m2":5500,"px":55,"rank":2,"persistent":false},"geometry":{"type":"Polygon","coordinates":[[[-122.935917,46.134918],[-122.935917,46.135098],[-122.935529,46.135098],[-122.935494,46.135017],[-122.93534,46.135008],[-122.935273,46.135046],[-122.93527,46.135188],[-122.93514,46.135188],[-122.935134,46.135131],[-122.935085,46.1351],[-122.934827,46.135084],[-122.934761,46.135113],[-122.934752,46.135187],[-122.934521,46.1352],[-122.934493,46.135277],[-122.934363,46.135277],[-122.934341,46.135203],[-122.934234,46.135187],[-122.934234,46.135097],[-122.934316,46.135093],[-122.93436,46.135059],[-122.934364,46.134917],[-122.934445,46.134913],[-122.934487,46.134884],[-122.934494,46.134737],[-122.934575,46.134733],[-122.934617,46.134704],[-122.934623,46.134467],[-122.934698,46.134465],[-122.934744,46.134439],[-122.934753,46.134288],[-122.934971,46.134281],[-122.935008,46.134249],[-122.935012,46.134198],[-122.935141,46.134198],[-122.935164,46.134272],[-122.935271,46.134288],[-122.93528,46.134439],[-122.935326,46.134466],[-122.9354,46.134468],[-122.935417,46.134628],[-122.935529,46.134648],[-122.935545,46.13473],[-122.935448,46.134742],[-122.935403,46.134776],[-122.935417,46.134898],[-122.935469,46.134918],[-122.935624,46.134909],[-122.935658,46.134869],[-122.935643,46.134746],[-122.935788,46.134738],[-122.935797,46.13489],[-122.935843,46.134916],[-122.935917,46.134918]],[[-122.934798,46.13503],[-122.935118,46.134992],[-122.93514,46.134954],[-122.935118,46.134844],[-122.935063,46.134828],[-122.934775,46.134843],[-122.934725,46.134986],[-122.934798,46.13503]],[[-122.935193,46.134738],[-122.935269,46.134694],[-122.935269,46.134601],[-122.935242,46.13457],[-122.935012,46.134558],[-122.935006,46.134501],[-122.934956,46.13447],[-122.934823,46.134468],[-122.93477,46.134487],[-122.934758,46.134614],[-122.9348,46.134643],[-122.934882,46.134648],[-122.93491,46.134725],[-122.935193,46.134738]]]}},{"type":"Feature","properties":{"id":51,"area_m2":4800,"px":48,"rank":3,"persistent":false},"geometry":{"type":"Polygon","coordinates":[[[-122.933194,46.138427],[-122.933194,46.138607],[-122.933099,46.138616],[-122.933065,46.138661],[-122.933068,46.138838],[-122.933112,46.138873],[-122.933194,46.138877],[-122.933194,46.138967],[-122.932935,46.138966],[-122.932912,46.138892],[-122.932805,46.138876],[-122.932806,46.138787],[-122.932922,46.138763],[-122.932935,46.138655],[-122.932894,46.138613],[-122.932806,46.138606],[-122.932777,46.138529],[-122.932495,46.138516],[-122.932435,46.138536],[-122.932417,46.138786],[-122.932329,46.138793],[-122.932288,46.138835],[-122.932287,46.139236],[-122.932199,46.139242],[-122.932159,46.13928],[-122.932157,46.139416],[-122.932123,46.139458],[-122.932157,46.139506],[-122.932157,46.139596],[-122.931898,46.139596],[-122.931899,46.139236],[-122.932011,46.139216],[-122.932063,46.139104],[-122.932011,46.138986],[-122.931899,46.138966],[-122.931899,46.138786],[-122.932123,46.138784],[-122.932178,46.13873],[-122.932149,46.138635],[-122.932088,46.138606],[-122.931934,46.138615],[-122.931888,46.138707],[-122.93177,46.138696],[-122.931771,46.138156],[-122.9319,46.138156],[-122.931906,46.138393],[-122.931948,46.138422],[-122.932029,46.138426],[-122.932035,46.138483],[-122.932084,46.138514],[-122.932218,46.138516],[-122.93227,46.138496],[-122.932288,46.138336],[-122.932418,46.138336],[-122.932427,46.138398],[-122.932488,46.138426],[-122.932806,46.138427],[-122.932867,46.138451],[-122.932935,46.138427],[-122.933194,46.138427]]]}},{"type":"Feature","properties":{"id":97,"area_m2":3900,"px":39,"rank":4,"persistent":false},"geometry":{"type":"Polygon","coordinates":[[[-122.938378,46.13429],[-122.938378,46.134379],[-122.938271,46.134395],[-122.938216,46.134501],[-122.938248,46.134649],[-122.938136,46.134669],[-122.938118,46.134829],[-122.93803,46.134836],[-122.93799,46.134873],[-122.937988,46.135369],[-122.9376,46.135369],[-122.937539,46.135345],[-122.93747,46.135369],[-122.937341,46.135369],[-122.937341,46.135279],[-122.937448,46.135263],[-122.937471,46.135189],[-122.937796,46.135188],[-122.937859,46.135135],[-122.937858,46.135053],[-122.937825,46.135018],[-122.937471,46.135009],[-122.937448,46.134935],[-122.937341,46.134919],[-122.937342,46.134739],[-122.937376,46.134697],[-122.937342,46.134649],[-122.937342,46.134469],[-122.937471,46.134469],[-122.937473,46.134606],[-122.937519,46.134645],[-122.937926,46.134648],[-122.937987,46.134606],[-122.937989,46.134469],[-122.938071,46.134465],[-122.938115,46.134431],[-122.938119,46.134199],[-122.938248,46.1342],[-122.938271,46.134274],[-122.938378,46.13429]]]}},{"type":"Feature","properties":{"id":46,"area_m2":3700,"px":37,"rank":5,"persistent":false},"geometry":{"type":"Polygon","coordinates":[[[-122.937337,46.139059],[-122.937336,46.139149],[-122.937255,46.139153],[-122.93721,46.139187],[-122.937207,46.139329],[-122.937118,46.139335],[-122.937079,46.139372],[-122.937083,46.139476],[-122.937125,46.139505],[-122.937207,46.139509],[-122.937206,46.139599],[-122.937112,46.139608],[-122.937077,46.139689],[-122.936965,46.139709],[-122.936947,46.139869],[-122.936841,46.139885],[-122.936818,46.139959],[-122.936559,46.139959],[-122.936559,46.139869],[-122.936594,46.139821],[-122.936541,46.139708],[-122.936489,46.139689],[-122.9363,46.139688],[-122.936277,46.139614],[-122.936171,46.139598],[-122.936171,46.139418],[-122.936206,46.139376],[-122.936171,46.139328],[-122.936171,46.139148],[-122.93626,46.139142],[-122.936299,46.139105],[-122.936301,46.138789],[-122.936431,46.138789],[-122.936452,46.139056],[-122.936505,46.139072],[-122.936689,46.139059],[-122.936702,46.139125],[-122.936819,46.139149],[-122.936824,46.139205],[-122.936867,46.139235],[-122.937007,46.139239],[-122.93706,46.139219],[-122.937078,46.139059],[-122.937337,46.139059]],[[-122.936819,46.139329],[-122.936805,46.139263],[-122.936689,46.139239],[-122.936655,46.139158],[-122.936513,46.139135],[-122.936452,46.139151],[-122.93643,46.139189],[-122.93643,46.139545],[-122.936452,46.139583],[-122.936763,46.139596],[-122.936812,46.139565],[-122.936818,46.139509],[-122.936925,46.139493],[-122.936942,46.139362],[-122.9369,46.139333],[-122.936819,46.139329]]]}},{"type":"Feature","properties":{"id":100,"area_m2":3700,"px":37,"rank":6,"persistent":false},"geometry":{"type":"Polygon","coordinates":[[[-122.934494,46.134107],[-122.934494,46.134377],[-122.934405,46.134384],[-122.934365,46.134426],[-122.934364,46.134737],[-122.934051,46.134723],[-122.933997,46.13474],[-122.933975,46.135007],[-122.933901,46.135009],[-122.933855,46.135036],[-122.933845,46.135187],[-122.933716,46.135187],[-122.933716,46.135007],[-122.933751,46.134964],[-122.933717,46.134917],[-122.933717,46.134827],[-122.933798,46.134823],[-122.93384,46.134794],[-122.933846,46.134557],[-122.933928,46.134553],[-122.93397,46.134524],[-122.933975,46.134331],[-122.933935,46.134293],[-122.933847,46.134287],[-122.933838,46.134226],[-122.933777,46.134197],[-122.933514,46.134199],[-122.933464,46.13423],[-122.933458,46.134287],[-122.933329,46.134287],[-122.933329,46.134017],[-122.933436,46.134001],[-122.933461,46.133927],[-122.933718,46.133927],[-122.933735,46.133997],[-122.933847,46.134017],[-122.933856,46.134078],[-122.933909,46.134106],[-122.934058,46.134103],[-122.9341,46.134074],[-122.934106,46.134017],[-122.934235,46.134017],[-122.934251,46.1341],[-122.934147,46.134114],[-122.934107,46.134151],[-122.934109,46.134262],[-122.934173,46.134301],[-122.934351,46.134263],[-122.934349,46.134115],[-122.934494,46.134107]]]}},{"type":"Feature","properties":{"id":85,"area_m2":3300,"px":33,"rank":7,"persistent":false},"geometry":{"type":"Polygon","coordinates":[[[-122.933715,46.135907],[-122.933715,46.135997],[-122.933634,46.136001],[-122.933589,46.136035],[-122.933585,46.136177],[-122.933491,46.136186],[-122.933456,46.136267],[-122.933374,46.136271],[-122.933332,46.1363],[-122.933326,46.136537],[-122.933219,46.136552],[-122.933196,46.136627],[-122.932808,46.136626],[-122.932808,46.136536],[-122.933019,46.136532],[-122.933061,46.136503],[-122.933067,46.136447],[-122.933142,46.136444],[-122.933188,46.136418],[-122.933216,46.136042],[-122.93317,46.136001],[-122.933068,46.135996],[-122.933068,46.135865],[-122.93304,46.135829],[-122.932809,46.135816],[-122.932809,46.135726],[-122.932891,46.135722],[-122.932935,46.135688],[-122.932926,46.13557],[-122.93281,46.135546],[-122.932796,46.13548],[-122.93268,46.135456],[-122.932677,46.135405],[-122.932639,46.135373],[-122.932421,46.135366],[-122.932421,46.135276],[-122.932528,46.13526],[-122.932551,46.135186],[-122.93268,46.135186],[-122.932741,46.13521],[-122.93281,46.135186],[-122.933069,46.135187],[-122.933069,46.135366],[-122.932952,46.13539],[-122.932939,46.135492],[-122.932973,46.135537],[-122.933068,46.135547],[-122.933081,46.135793],[-122.933138,46.135816],[-122.933327,46.135817],[-122.93335,46.135891],[-122.933502,46.135929],[-122.933715,46.135907]]]}},{"type":"Feature","properties":{"id":106,"area_m2":3100,"px":31,"rank":8,"persistent":false},"geometry":{"type":"Polygon","coordinates":[[[-122.934755,46.132758],[-122.934754,46.132937],[-122.93468,46.13294],[-122.934634,46.132966],[-122.934625,46.133117],[-122.934428,46.133118],[-122.934367,46.133161],[-122.934379,46.133273],[-122.934495,46.133297],[-122.934495,46.133566],[-122.934413,46.133571],[-122.934369,46.133606],[-122.934365,46.133837],[-122.934258,46.133853],[-122.934235,46.133927],[-122.933847,46.133927],[-122.933847,46.133837],[-122.934166,46.133837],[-122.934223,46.133813],[-122.934236,46.133567],[-122.934352,46.133543],[-122.934364,46.133431],[-122.934324,46.133394],[-122.934236,46.133387],[-122.93423,46.133331],[-122.934188,46.133301],[-122.933918,46.133297],[-122.933857,46.133326],[-122.933848,46.133387],[-122.933736,46.133407],[-122.933718,46.133477],[-122.933589,46.133477],[-122.933589,46.133207],[-122.933696,46.133191],[-122.933719,46.133117],[-122.933977,46.133117],[-122.934046,46.133141],[-122.934195,46.133111],[-122.934235,46.133074],[-122.934237,46.132937],[-122.934584,46.132931],[-122.934624,46.132894],[-122.934625,46.132757],[-122.934755,46.132758]]]}},{"type":"Feature","properties":{"id":111,"area_m2":2700,"px":27,"rank":9,"persistent":false},"geometry":{"type":"Polygon","coordinates":[[[-122.939286,46.1324],[-122.939286,46.13258],[-122.939197,46.132586],[-122.939158,46.132623],[-122.939156,46.13285],[-122.939049,46.132866],[-122.939026,46.13294],[-122.938838,46.13294],[-122.938785,46.132959],[-122.938767,46.1333],[-122.938693,46.133302],[-122.938647,46.133328],[-122.938637,46.13348],[-122.938531,46.133495],[-122.938508,46.13357],[-122.938379,46.133569],[-122.938379,46.13348],[-122.93846,46.133475],[-122.938505,46.133441],[-122.938508,46.1333],[-122.938597,46.133293],[-122.938636,46.133256],[-122.938638,46.13276],[-122.938727,46.132753],[-122.938766,46.132716],[-122.938768,46.1324],[-122.939027,46.1324],[-122.939088,46.132424],[-122.939157,46.1324],[-122.939286,46.1324]]]}},{"type":"Feature","properties":{"id":41,"area_m2":2500,"px":25,"rank":10,"persistent":false},"geometry":{"type":"Polygon","coordinates":[[[-122.931768,46.140136],[-122.931768,46.140496],[-122.931661,46.140512],[-122.931638,46.140586],[-122.931509,46.140586],[-122.931486,46.140511],[-122.931379,46.140496],[-122.931379,46.140406],[-122.931491,46.140386],[-122.931543,46.140279],[-122.931503,46.140169],[-122.931447,46.140137],[-122.931191,46.140136],[-122.931138,46.140155],[-122.93112,46.140495],[-122.930991,46.140495],[-122.930992,46.139955],[-122.931209,46.139949],[-122.931247,46.139917],[-122.931251,46.139866],[-122.931509,46.139866],[-122.931532,46.13994],[-122.931639,46.139956],[-122.931652,46.140112],[-122.931768,46.140136]]]}},{"type":"Feature","properties":{"id":68,"area_m2":2500,"px":25,"rank":11,"persistent":false},"geometry":{"type":"Polygon","coordinates":[[[-122.937727,46.137259],[-122.937727,46.137439],[-122.937509,46.137445],[-122.937471,46.137477],[-122.937468,46.137529],[-122.93712,46.137535],[-122.937083,46.137567],[-122.937079,46.137619],[-122.936963,46.137643],[-122.93695,46.137709],[-122.93682,46.137709],[-122.93682,46.137619],[-122.936855,46.137571],[-122.936798,46.137455],[-122.936562,46.137439],[-122.936539,46.137364],[-122.936432,46.137348],[-122.936433,46.137259],[-122.936629,46.137258],[-122.936682,46.13723],[-122.936692,46.136989],[-122.937039,46.136982],[-122.937077,46.136951],[-122.93708,46.136899],[-122.937197,46.136875],[-122.93721,46.136809],[-122.937339,46.136809],[-122.937339,46.136989],[-122.937232,46.137005],[-122.937209,46.137079],[-122.936844,46.137095],[-122.936821,46.137133],[-122.936838,46.137342],[-122.936896,46.137363],[-122.93708,46.137349],[-122.937089,46.13741],[-122.937142,46.137438],[-122.937398,46.137439],[-122.937459,46.137411],[-122.937468,46.137349],[-122.93758,46.137329],[-122.937598,46.137259],[-122.937727,46.137259]]]}},{"type":"Feature","properties":{"id":102,"area_m2":2500,"px":25,"rank":12,"persistent":false},"geometry":{"type":"Polygon","coordinates":[[[-122.933587,46.134827],[-122.933587,46.134917],[-122.933458,46.134917],[-122.933445,46.134851],[-122.933328,46.134827],[-122.933294,46.134746],[-122.933069,46.134736],[-122.93307,46.134647],[-122.933103,46.134594],[-122.933064,46.1345],[-122.933022,46.134471],[-122.932859,46.134471],[-122.932817,46.1345],[-122.932811,46.134556],[-122.932681,46.134556],[-122.932681,46.134466],[-122.932763,46.134462],[-122.932807,46.134428],[-122.932811,46.134286],[-122.932899,46.13428],[-122.932939,46.134243],[-122.932941,46.133567],[-122.933071,46.133567],[-122.933072,46.133883],[-122.933111,46.13392],[-122.9332,46.133927],[-122.9332,46.134017],[-122.933111,46.134023],[-122.933072,46.13406],[-122.933073,46.134338],[-122.933132,46.134376],[-122.933329,46.134377],[-122.933338,46.134528],[-122.933384,46.134554],[-122.933458,46.134557],[-122.933464,46.134793],[-122.933506,46.134823],[-122.933587,46.134827]]]}},{"type":"Feature","properties":{"id":54,"area_m2":2400,"px":24,"rank":13,"persistent":false},"geometry":{"type":"Polygon","coordinates":[[[-122.934488,46.139057],[-122.934488,46.139147],[-122.934282,46.139136],[-122.934235,46.139167],[-122.934229,46.139237],[-122.934102,46.139237],[-122.934096,46.139186],[-122.934059,46.139154],[-122.933711,46.139147],[-122.933689,46.139073],[-122.933582,46.139057],[-122.933583,46.138607],[-122.933684,46.138595],[-122.933712,46.138517],[-122.933801,46.138511],[-122.933841,46.138468],[-122.933829,46.138361],[-122.933712,46.138337],[-122.933713,46.138247],[-122.933842,46.138247],[-122.933865,46.138321],[-122.933971,46.138337],[-122.933971,46.138517],[-122.933883,46.138523],[-122.933842,46.138566],[-122.933854,46.138943],[-122.933911,46.138967],[-122.934359,46.138967],[-122.934382,46.139042],[-122.934488,46.139057]]]}},{"type":"Feature","properties":{"id":93,"area_m2":2300,"px":23,"rank":14,"persistent":false},"geometry":{"type":"Polygon","coordinates":[[[-122.938636,46.13519],[-122.938635,46.13555],[-122.938173,46.135552],[-122.938123,46.135583],[-122.938117,46.135639],[-122.938022,46.135648],[-122.937988,46.135693],[-122.937988,46.135861],[-122.938022,46.1359],[-122.938635,46.13591],[-122.938635,46.136],[-122.937988,46.135999],[-122.937965,46.135925],[-122.937858,46.135909],[-122.937859,46.135549],[-122.937965,46.135533],[-122.937988,46.135459],[-122.938083,46.13545],[-122.938118,46.135369],[-122.938229,46.13535],[-122.938247,46.13528],[-122.938451,46.135277],[-122.9385,46.135246],[-122.938506,46.13519],[-122.938636,46.13519]]]}},{"type":"Feature","properties":{"id":121,"area_m2":2300,"px":23,"rank":15,"persistent":false},"geometry":{"type":"Polygon","coordinates":[[[-122.933332,46.131947],[-122.933331,46.132217],[-122.933202,46.132217],[-122.933133,46.132192],[-122.932977,46.132226],[-122.932943,46.132265],[-122.932943,46.132396],[-122.932554,46.132396],[-122.932532,46.132322],[-122.932425,46.132306],[-122.932425,46.132216],[-122.932643,46.13221],[-122.932681,46.132178],[-122.932684,46.132126],[-122.932779,46.132117],[-122.932814,46.132072],[-122.932796,46.131876],[-122.932744,46.131857],[-122.932426,46.131856],[-122.932426,46.131766],[-122.932943,46.131766],[-122.932944,46.131898],[-122.932978,46.131937],[-122.933332,46.131947]]]}},{"type":"Feature","properties":{"id":33,"area_m2":2200,"px":22,"rank":16,"persistent":false},"geometry":{"type":"Polygon","coordinates":[[[-122.935911,46.140588],[-122.93591,46.141128],[-122.935815,46.141137],[-122.935781,46.141182],[-122.935784,46.14136],[-122.935828,46.141394],[-122.93591,46.141398],[-122.93591,46.141488],[-122.93578,46.141488],[-122.935777,46.141437],[-122.935739,46.141405],[-122.935521,46.141398],[-122.935522,46.140948],[-122.93561,46.140942],[-122.93565,46.140905],[-122.935652,46.140498],[-122.935781,46.140498],[-122.935804,46.140572],[-122.935911,46.140588]]]}},{"type":"Feature","properties":{"id":16,"area_m2":1800,"px":18,"rank":17,"persistent":false},"geometry":{"type":"Polygon","coordinates":[[[-122.928786,46.143194],[-122.928786,46.143374],[-122.928657,46.143374],[-122.928639,46.143304],[-122.928527,46.143284],[-122.928514,46.143218],[-122.92845,46.143194],[-122.928297,46.143206],[-122.928268,46.143284],[-122.928152,46.143308],[-122.928139,46.143374],[-122.928009,46.143374],[-122.928009,46.143284],[-122.92811,46.143271],[-122.928139,46.143194],[-122.928234,46.143185],[-122.928268,46.14314],[-122.928251,46.143033],[-122.928139,46.143014],[-122.928105,46.142933],[-122.92801,46.142924],[-122.92801,46.142744],[-122.928269,46.142744],[-122.928286,46.142904],[-122.928339,46.142924],[-122.928528,46.142924],[-122.92855,46.142998],[-122.928657,46.143014],[-122.92867,46.14317],[-122.928786,46.143194]]]}},{"type":"Feature","properties":{"id":36,"area_m2":1800,"px":18,"rank":18,"persistent":false},"geometry":{"type":"Polygon","coordinates":[[[-122.937205,46.140859],[-122.937205,46.140949],[-122.936946,46.140949],[-122.936923,46.140875],[-122.936817,46.140859],[-122.936782,46.140778],[-122.936687,46.140769],[-122.936684,46.140627],[-122.93664,46.140593],[-122.936558,46.140589],[-122.936541,46.140428],[-122.936488,46.140409],[-122.936299,46.140408],[-122.9363,46.140319],[-122.936406,46.140303],[-122.936429,46.140229],[-122.936545,46.140205],[-122.936559,46.140139],[-122.936771,46.140148],[-122.936814,46.140114],[-122.936818,46.140049],[-122.936947,46.140049],[-122.936947,46.140229],[-122.936852,46.140238],[-122.936817,46.140319],[-122.936705,46.140338],[-122.936691,46.14046],[-122.936736,46.140495],[-122.936817,46.140499],[-122.93682,46.14064],[-122.936865,46.140675],[-122.936946,46.140679],[-122.936964,46.140839],[-122.937016,46.140859],[-122.937205,46.140859]]]}},{"type":"Feature","properties":{"id":29,"area_m2":1700,"px":17,"rank":19,"persistent":false},"geometry":{"type":"Polygon","coordinates":[[[-122.939405,46.14176],[-122.939405,46.14185],[-122.939278,46.14185],[-122.93927,46.141793],[-122.939221,46.141762],[-122.938887,46.14176],[-122.938887,46.14167],[-122.938989,46.141666],[-122.939034,46.14163],[-122.938999,46.14151],[-122.938947,46.14149],[-122.938499,46.14149],[-122.938476,46.141415],[-122.93837,46.1414],[-122.93837,46.14131],[-122.938888,46.14131],[-122.938949,46.141334],[-122.939017,46.14131],[-122.939276,46.14131],[-122.939276,46.1414],[-122.939241,46.141448],[-122.939276,46.14149],[-122.939277,46.141717],[-122.939317,46.141754],[-122.939405,46.14176]]]}},{"type":"Feature","properties":{"id":86,"area_m2":1700,"px":17,"rank":20,"persistent":false},"geometry":{"type":"Polygon","coordinates":[[[-122.932938,46.135997],[-122.932938,46.136176],[-122.9326,46.136177],[-122.932535,46.136211],[-122.932553,46.136498],[-122.932597,46.136532],[-122.932679,46.136538],[-122.932679,46.136626],[-122.932549,46.136626],[-122.932527,46.136552],[-122.93242,46.136536],[-122.932411,46.136295],[-122.932365,46.136268],[-122.932291,46.136266],[-122.932273,46.136106],[-122.932162,46.136086],[-122.932162,46.135726],[-122.932291,46.135726],[-122.932291,46.135947],[-122.932332,46.13599],[-122.932619,46.136009],[-122.932674,46.135976],[-122.93268,46.135906],[-122.932807,46.135906],[-122.932832,46.135981],[-122.932938,46.135997]]]}},{"type":"Feature","properties":{"id":28,"area_m2":1600,"px":16,"rank":21,"persistent":false},"geometry":{"type":"Polygon","coordinates":[[[-122.933968,46.141397],[-122.933967,46.141487],[-122.933866,46.141499],[-122.933838,46.141577],[-122.933743,46.141586],[-122.933708,46.141667],[-122.933592,46.141691],[-122.933579,46.141847],[-122.933472,46.141863],[-122.933449,46.141937],[-122.933354,46.141946],[-122.933319,46.142027],[-122.933208,46.142046],[-122.93319,46.142117],[-122.933061,46.142117],[-122.93308,46.141987],[-122.933047,46.141946],[-122.932802,46.141936],[-122.932802,46.141847],[-122.933026,46.141838],[-122.933061,46.141757],[-122.933177,46.141733],[-122.933191,46.141667],[-122.93332,46.141667],[-122.933388,46.141691],[-122.93355,46.141655],[-122.933579,46.141618],[-122.933579,46.141487],[-122.933783,46.141485],[-122.933832,46.141454],[-122.933838,46.141397],[-122.933968,46.141397]]]}},{"type":"Feature","properties":{"id":94,"area_m2":1600,"px":16,"rank":22,"persistent":false},"geometry":{"type":"Polygon","coordinates":[[[-122.936176,46.135278],[-122.936176,46.135368],[-122.935828,46.135375],[-122.935791,46.135406],[-122.935787,46.135458],[-122.935671,46.135482],[-122.935658,46.135548],[-122.935528,46.135548],[-122.935519,46.135487],[-122.935466,46.135459],[-122.935058,46.135462],[-122.935012,46.135501],[-122.93501,46.135638],[-122.934881,46.135638],[-122.934881,46.135458],[-122.934976,46.135449],[-122.93501,46.135404],[-122.934998,46.135302],[-122.934881,46.135278],[-122.934881,46.135188],[-122.935011,46.135188],[-122.935017,46.135244],[-122.935066,46.135275],[-122.935269,46.135278],[-122.935279,46.135339],[-122.93534,46.135368],[-122.935746,46.135362],[-122.935786,46.135325],[-122.935788,46.135188],[-122.935917,46.135188],[-122.935923,46.135245],[-122.935972,46.135276],[-122.936176,46.135278]]]}},{"type":"Feature","properties":{"id":118,"area_m2":1600,"px":16,"rank":23,"persistent":false},"geometry":{"type":"Polygon","coordinates":[[[-122.936179,46.132308],[-122.936179,46.132758],[-122.935961,46.132765],[-122.935923,46.132796],[-122.93592,46.132848],[-122.935661,46.132848],[-122.935661,46.132758],[-122.935762,46.132746],[-122.935791,46.132668],[-122.935885,46.132659],[-122.93592,46.132578],[-122.935994,46.132576],[-122.93604,46.13255],[-122.936049,46.132357],[-122.936009,46.132315],[-122.93592,46.132308],[-122.93592,46.132177],[-122.935892,46.13214],[-122.93573,46.132104],[-122.935662,46.132128],[-122.935532,46.132128],[-122.935532,46.132038],[-122.935639,46.132022],[-122.935664,46.131948],[-122.935791,46.131948],[-122.935797,46.132005],[-122.935846,46.132036],[-122.93605,46.132038],[-122.936053,46.13227],[-122.936098,46.132304],[-122.936179,46.132308]]]}},{"type":"Feature","properties":{"id":26,"area_m2":1300,"px":13,"rank":24,"persistent":false},"geometry":{"type":"Polygon","coordinates":[[[-122.928914,46.142026],[-122.928883,46.142072],[-122.928917,46.142114],[-122.928917,46.142204],[-122.928699,46.14221],[-122.928661,46.142242],[-122.928658,46.142294],[-122.928542,46.142318],[-122.928528,46.142384],[-122.928399,46.142384],[-122.928396,46.142242],[-122.928351,46.142208],[-122.92827,46.142204],[-122.92827,46.142114],[-122.928377,46.142098],[-122.928399,46.142024],[-122.928759,46.142012],[-122.928787,46.141975],[-122.928788,46.141844],[-122.928917,46.141844],[-122.928914,46.142026]]]}},{"type":"Feature","properties":{"id":83,"area_m2":1300,"px":13,"rank":25,"persistent":false},"geometry":{"type":"Polygon","coordinates":[[[-122.935657,46.136358],[-122.935656,46.136448],[-122.935468,46.136448],[-122.935411,46.136472],[-122.935397,46.136628],[-122.935295,46.136632],[-122.935251,46.136668],[-122.935268,46.136808],[-122.935009,46.136808],[-122.934986,46.136733],[-122.93488,46.136718],[-122.934845,46.136637],[-122.93475,46.136627],[-122.93475,46.136538],[-122.93524,46.136526],[-122.935268,46.136489],[-122.935268,46.136358],[-122.935657,46.136358]]]}},{"type":"Feature","properties":{"id":2,"area_m2":1200,"px":12,"rank":26,"persistent":false},"geometry":{"type":"Polygon","coordinates":[[[-122.930728,46.143825],[-122.930727,46.144005],[-122.930409,46.144005],[-122.930352,46.144029],[-122.930339,46.144185],[-122.930257,46.144189],[-122.930213,46.144223],[-122.930209,46.144365],[-122.92995,46.144365],[-122.92995,46.144275],[-122.930032,46.144271],[-122.930076,46.144237],[-122.93008,46.144095],[-122.930181,46.144083],[-122.93021,46.144005],[-122.930305,46.143996],[-122.930339,46.143915],[-122.930413,46.143913],[-122.930459,46.143887],[-122.930469,46.143735],[-122.930598,46.143735],[-122.930621,46.143809],[-122.930728,46.143825]]]}},{"type":"Feature","properties":{"id":11,"area_m2":1200,"px":12,"rank":27,"persistent":false},"geometry":{"type":"Polygon","coordinates":[[[-122.93707,46.14338],[-122.937038,46.143427],[-122.937073,46.143469],[-122.937072,46.143559],[-122.936943,46.143559],[-122.936934,46.143497],[-122.936881,46.14347],[-122.936684,46.143469],[-122.936623,46.143445],[-122.936555,46.143469],[-122.936425,46.143469],[-122.936426,46.143199],[-122.936684,46.143199],[-122.936698,46.143265],[-122.936762,46.143289],[-122.936909,46.14328],[-122.936944,46.143199],[-122.937073,46.143199],[-122.93707,46.14338]]]}},{"type":"Feature","properties":{"id":18,"area_m2":1200,"px":12,"rank":28,"persistent":false},"geometry":{"type":"Polygon","coordinates":[[[-122.936167,46.142478],[-122.936167,46.142838],[-122.93606,46.142854],[-122.936005,46.14296],[-122.936037,46.143018],[-122.936037,46.143198],[-122.935908,46.143198],[-122.935885,46.143124],[-122.935778,46.143108],[-122.935779,46.142928],[-122.935867,46.142922],[-122.935907,46.142885],[-122.935908,46.142568],[-122.936015,46.142553],[-122.936038,46.142478],[-122.936167,46.142478]]]}},{"type":"Feature","properties":{"id":77,"area_m2":1200,"px":12,"rank":29,"persistent":false},"geometry":{"type":"Polygon","coordinates":[[[-122.932808,46.136896],[-122.932808,46.136986],[-122.932604,46.136989],[-122.932549,46.13704],[-122.932566,46.137147],[-122.932619,46.137166],[-122.932807,46.137166],[-122.932807,46.137256],[-122.932419,46.137256],[-122.93241,46.136925],[-122.932357,46.136897],[-122.932161,46.136896],[-122.932138,46.136822],[-122.932031,46.136806],[-122.932031,46.136716],[-122.93229,46.136716],[-122.932303,46.136782],[-122.932419,46.136806],[-122.932425,46.136863],[-122.932475,46.136894],[-122.932808,46.136896]]]}},{"type":"Feature","properties":{"id":91,"area_m2":1100,"px":11,"rank":30,"persistent":false},"geometry":{"type":"Polygon","coordinates":[[[-122.934492,46.135997],[-122.934492,46.136177],[-122.934362,46.136177],[-122.934359,46.136036],[-122.934285,46.135997],[-122.934166,46.135998],[-122.934117,46.136021],[-122.934103,46.136177],[-122.933715,46.136177],[-122.933715,46.136087],[-122.933822,46.136071],[-122.933845,46.135997],[-122.933961,46.135973],[-122.933974,46.135907],[-122.934192,46.135901],[-122.93423,46.135869],[-122.934233,46.135817],[-122.934363,46.135817],[-122.934372,46.135969],[-122.934418,46.135995],[-122.934492,46.135997]]]}},{"type":"Feature","properties":{"id":109,"area_m2":1100,"px":11,"rank":31,"persistent":false},"geometry":{"type":"Polygon","coordinates":[[[-122.936434,46.13348],[-122.936402,46.133526],[-122.936437,46.133568],[-122.936436,46.133658],[-122.936307,46.133658],[-122.93629,46.133588],[-122.936178,46.133568],[-122.936143,46.133487],[-122.936048,46.133478],[-122.93602,46.1334],[-122.93579,46.133388],[-122.935786,46.133246],[-122.935742,46.133212],[-122.93566,46.133208],[-122.935661,46.133118],[-122.935866,46.133129],[-122.935914,46.133098],[-122.93592,46.133028],[-122.936049,46.133028],[-122.936041,46.133273],[-122.936083,46.133296],[-122.936178,46.133298],[-122.936181,46.133363],[-122.936224,46.133398],[-122.936437,46.133389],[-122.936434,46.13348]]]}},{"type":"Feature","properties":{"id":44,"area_m2":1000,"px":10,"rank":32,"persistent":false},"geometry":{"type":"Polygon","coordinates":[[[-122.933322,46.139867],[-122.933322,46.140137],[-122.933247,46.140139],[-122.933201,46.140165],[-122.933192,46.140317],[-122.933063,46.140317],[-122.933061,46.14009],[-122.933022,46.140053],[-122.932934,46.140046],[-122.932934,46.139867],[-122.933322,46.139867]]]}},{"type":"Feature","properties":{"id":53,"area_m2":1000,"px":10,"rank":33,"persistent":false},"geometry":{"type":"Polygon","coordinates":[[[-122.935136,46.138788],[-122.935136,46.138968],[-122.935047,46.138974],[-122.935008,46.139011],[-122.935006,46.139238],[-122.934747,46.139238],[-122.934747,46.139148],[-122.934829,46.139144],[-122.934873,46.139109],[-122.934868,46.138983],[-122.934802,46.138954],[-122.934488,46.138967],[-122.934489,46.138877],[-122.934706,46.138871],[-122.934744,46.138839],[-122.934748,46.138788],[-122.935136,46.138788]]]}},{"type":"Feature","properties":{"id":60,"area_m2":1000,"px":10,"rank":34,"persistent":false},"geometry":{"type":"Polygon","coordinates":[[[-122.939536,46.137892],[-122.939504,46.137938],[-122.939539,46.13798],[-122.939539,46.13816],[-122.939409,46.13816],[-122.9394,46.138099],[-122.939347,46.138071],[-122.939021,46.13807],[-122.939021,46.13798],[-122.939128,46.137964],[-122.939151,46.13789],[-122.939245,46.137881],[-122.93928,46.1378],[-122.939392,46.13778],[-122.93941,46.13771],[-122.939539,46.13771],[-122.939536,46.137892]]]}},{"type":"Feature","properties":{"id":120,"area_m2":1000,"px":10,"rank":35,"persistent":false},"geometry":{"type":"Polygon","coordinates":[[[-122.934623,46.132399],[-122.934591,46.132445],[-122.934625,46.132487],[-122.934625,46.132667],[-122.934108,46.132667],[-122.934108,46.132487],[-122.934291,46.132501],[-122.934345,46.132485],[-122.934367,46.132307],[-122.934626,46.132307],[-122.934623,46.132399]]]}},{"type":"Feature","properties":{"id":10,"area_m2":900,"px":9,"rank":36,"persistent":false},"geometry":{"type":"Polygon","coordinates":[[[-122.938624,46.143381],[-122.938592,46.143427],[-122.938626,46.14347],[-122.938626,46.14356],[-122.93852,46.143576],[-122.938497,46.14365],[-122.938108,46.143649],[-122.938108,46.14356],[-122.93819,46.143555],[-122.938235,46.143521],[-122.938238,46.14338],[-122.938442,46.143377],[-122.938491,46.143346],[-122.938497,46.14329],[-122.938625,46.14329],[-122.938624,46.143381]]]}},{"type":"Feature","properties":{"id":12,"area_m2":900,"px":9,"rank":37,"persistent":false},"geometry":{"type":"Polygon","coordinates":[[[-122.936296,46.143199],[-122.936296,46.143378],[-122.936189,46.143394],[-122.936166,46.143468],[-122.93605,46.143492],[-122.936037,46.143558],[-122.935907,46.143558],[-122.935885,46.143484],[-122.935778,46.143468],[-122.935778,46.143288],[-122.936104,46.143287],[-122.936157,46.14326],[-122.936167,46.143198],[-122.936296,46.143199]]]}},{"type":"Feature","properties":{"id":15,"area_m2":900,"px":9,"rank":38,"persistent":false},"geometry":{"type":"Polygon","coordinates":[[[-122.933189,46.142657],[-122.933189,46.142837],[-122.933101,46.142843],[-122.933061,46.14288],[-122.933059,46.143197],[-122.932985,46.143199],[-122.932939,46.143225],[-122.932929,46.143377],[-122.9328,46.143376],[-122.9328,46.143107],[-122.932882,46.143102],[-122.932926,46.143068],[-122.93293,46.142837],[-122.933004,46.142834],[-122.93305,46.142808],[-122.93306,46.142657],[-122.933189,46.142657]]]}},{"type":"Feature","properties":{"id":23,"area_m2":900,"px":9,"rank":39,"persistent":false},"geometry":{"type":"Polygon","coordinates":[[[-122.937462,46.142569],[-122.93746,46.142659],[-122.937333,46.142659],[-122.937327,46.142602],[-122.937278,46.142571],[-122.937108,46.142578],[-122.937074,46.142618],[-122.937073,46.142749],[-122.936944,46.142749],[-122.936883,46.142725],[-122.936814,46.142749],[-122.936556,46.142749],[-122.936556,46.142569],[-122.936685,46.142569],[-122.936754,46.142593],[-122.936815,46.142569],[-122.937011,46.142568],[-122.937065,46.14254],[-122.937076,46.142479],[-122.937333,46.142479],[-122.937355,46.142553],[-122.937462,46.142569]]]}},{"type":"Feature","properties":{"id":52,"area_m2":900,"px":9,"rank":40,"persistent":false},"geometry":{"type":"Polygon","coordinates":[[[-122.935654,46.138968],[-122.935653,46.139148],[-122.935558,46.139157],[-122.935524,46.139202],[-122.935537,46.139304],[-122.935653,46.139328],[-122.935653,46.139418],[-122.935394,46.139418],[-122.935386,46.139163],[-122.935327,46.139135],[-122.935136,46.139148],[-122.935136,46.139058],[-122.935242,46.139042],[-122.935265,46.138968],[-122.935654,46.138968]]]}},{"type":"Feature","properties":{"id":75,"area_m2":900,"px":9,"rank":41,"persistent":false},"geometry":{"type":"Polygon","coordinates":[[[-122.940058,46.136991],[-122.940057,46.13726],[-122.93954,46.13726],[-122.93954,46.13708],[-122.939669,46.13708],[-122.939678,46.137142],[-122.939732,46.137169],[-122.939866,46.137169],[-122.939922,46.137137],[-122.939919,46.137019],[-122.939873,46.136993],[-122.939799,46.13699],[-122.939799,46.13681],[-122.939928,46.13681],[-122.939937,46.136962],[-122.939983,46.136988],[-122.940058,46.136991]]]}},{"type":"Feature","properties":{"id":99,"area_m2":900,"px":9,"rank":42,"persistent":false},"geometry":{"type":"Polygon","coordinates":[[[-122.938765,46.13501],[-122.938765,46.1351],[-122.938439,46.135101],[-122.938386,46.135128],[-122.938377,46.135189],[-122.938247,46.135189],[-122.938244,46.135048],[-122.938199,46.135014],[-122.938118,46.135009],[-122.938118,46.134919],[-122.938342,46.13491],[-122.938377,46.134871],[-122.938377,46.13474],[-122.938507,46.13474],[-122.938499,46.134985],[-122.938556,46.135009],[-122.938765,46.13501]]]}},{"type":"Feature","properties":{"id":110,"area_m2":900,"px":9,"rank":43,"persistent":false},"geometry":{"type":"Polygon","coordinates":[[[-122.935919,46.133478],[-122.935919,46.133658],[-122.935789,46.133658],[-122.935776,46.133592],[-122.935712,46.133568],[-122.935565,46.133577],[-122.93553,46.133658],[-122.935272,46.133658],[-122.935249,46.133584],[-122.935142,46.133568],[-122.935142,46.133478],[-122.935919,46.133478]]]}},{"type":"Feature","properties":{"id":39,"area_m2":800,"px":8,"rank":44,"persistent":false},"geometry":{"type":"Polygon","coordinates":[[[-122.935393,46.140498],[-122.935393,46.140678],[-122.935263,46.140678],[-122.935241,46.140514],[-122.935134,46.140498],[-122.935131,46.140446],[-122.935093,46.140414],[-122.934875,46.140408],[-122.934852,46.140333],[-122.934746,46.140318],[-122.934746,46.140138],[-122.934875,46.140138],[-122.934877,46.140274],[-122.934916,46.140311],[-122.935264,46.140318],[-122.935273,46.140469],[-122.935319,46.140496],[-122.935393,46.140498]]]}},{"type":"Feature","properties":{"id":69,"area_m2":800,"px":8,"rank":45,"persistent":false},"geometry":{"type":"Polygon","coordinates":[[[-122.936303,46.137348],[-122.936302,46.137618],[-122.936173,46.137618],[-122.936167,46.137548],[-122.936113,46.137516],[-122.935785,46.137528],[-122.935785,46.137438],[-122.935866,46.137434],[-122.935911,46.1374],[-122.935915,46.137258],[-122.936173,46.137258],[-122.936196,46.137333],[-122.936303,46.137348]]]}},{"type":"Feature","properties":{"id":76,"area_m2":800,"px":8,"rank":46,"persistent":false},"geometry":{"type":"Polygon","coordinates":[[[-122.935915,46.136718],[-122.935915,46.137168],[-122.935808,46.137184],[-122.935785,46.137258],[-122.935656,46.137258],[-122.935656,46.137078],[-122.935751,46.137069],[-122.935785,46.137024],[-122.935784,46.136762],[-122.935745,46.136724],[-122.935656,46.136718],[-122.935656,46.136628],[-122.935786,46.136628],[-122.935808,46.136702],[-122.935915,46.136718]]]}},{"type":"Feature","properties":{"id":81,"area_m2":800,"px":8,"rank":47,"persistent":false},"geometry":{"type":"Polygon","coordinates":[[[-122.938764,46.13645],[-122.938764,46.13654],[-122.938669,46.136549],[-122.938634,46.13663],[-122.938553,46.136634],[-122.93851,46.136663],[-122.938504,46.1369],[-122.938375,46.136899],[-122.938375,46.13654],[-122.93845,46.136537],[-122.938496,46.136511],[-122.938505,46.13636],[-122.938634,46.13636],[-122.938657,46.136434],[-122.938764,46.13645]]]}},{"type":"Feature","properties":{"id":9,"area_m2":700,"px":7,"rank":48,"persistent":false},"geometry":{"type":"Polygon","coordinates":[[[-122.928786,46.143464],[-122.928786,46.143644],[-122.928328,46.143631],[-122.928273,46.143664],[-122.928268,46.143734],[-122.928138,46.143734],[-122.928139,46.143554],[-122.928245,46.143538],[-122.928268,46.143464],[-122.928397,46.143464],[-122.928411,46.14353],[-122.928475,46.143554],[-122.928622,46.143545],[-122.928657,46.143464],[-122.928786,46.143464]]]}},{"type":"Feature","properties":{"id":27,"area_m2":700,"px":7,"rank":49,"persistent":false},"geometry":{"type":"Polygon","coordinates":[[[-122.931766,46.141936],[-122.931766,46.142026],[-122.931677,46.142032],[-122.931638,46.142069],[-122.931636,46.142296],[-122.931507,46.142296],[-122.931505,46.142069],[-122.931466,46.142032],[-122.931377,46.142026],[-122.931378,46.141936],[-122.931484,46.14192],[-122.931509,46.141846],[-122.931636,46.141846],[-122.931659,46.14192],[-122.931766,46.141936]]]}},{"type":"Feature","properties":{"id":65,"area_m2":700,"px":7,"rank":50,"persistent":false},"geometry":{"type":"Polygon","coordinates":[[[-122.934231,46.137617],[-122.934231,46.137797],[-122.934124,46.137813],[-122.934101,46.137887],[-122.933972,46.137887],[-122.933971,46.137571],[-122.933931,46.137533],[-122.933843,46.137527],[-122.933843,46.137437],[-122.933972,46.137437],[-122.933995,46.137511],[-122.934102,46.137527],[-122.934136,46.137608],[-122.934231,46.137617]]]}},{"type":"Feature","properties":{"id":78,"area_m2":700,"px":7,"rank":51,"persistent":false},"geometry":{"type":"Polygon","coordinates":[[[-122.938892,46.13699],[-122.938892,46.13717],[-122.938375,46.137169],[-122.938375,46.13708],[-122.938481,46.137064],[-122.938504,46.13699],[-122.938892,46.13699]]]}},{"type":"Feature","properties":{"id":87,"area_m2":700,"px":7,"rank":52,"persistent":false},"geometry":{"type":"Polygon","coordinates":[[[-122.936175,46.136268],[-122.936174,46.136448],[-122.936068,46.136464],[-122.936045,46.136538],[-122.935786,46.136538],[-122.935786,46.136448],[-122.935874,46.136442],[-122.935914,46.136405],[-122.935916,46.136178],[-122.936045,46.136178],[-122.936068,46.136252],[-122.936175,46.136268]]]}},{"type":"Feature","properties":{"id":4,"area_m2":600,"px":6,"rank":53,"persistent":false},"geometry":{"type":"Polygon","coordinates":[[[-122.937719,46.143919],[-122.937719,46.144189],[-122.937613,46.144205],[-122.93759,46.144279],[-122.93746,46.144279],[-122.937461,46.144009],[-122.937567,46.143993],[-122.93759,46.143919],[-122.937719,46.143919]]]}},{"type":"Feature","properties":{"id":13,"area_m2":600,"px":6,"rank":54,"persistent":false},"geometry":{"type":"Polygon","coordinates":[[[-122.930728,46.143195],[-122.930728,46.143285],[-122.930647,46.143289],[-122.930602,46.143324],[-122.930599,46.143465],[-122.930492,46.143481],[-122.930469,46.143555],[-122.93034,46.143555],[-122.93034,46.143465],[-122.930421,46.143461],[-122.930466,46.143427],[-122.930489,46.143251],[-122.930449,46.143202],[-122.93034,46.143195],[-122.93034,46.143105],[-122.930599,46.143105],[-122.930622,46.143179],[-122.930728,46.143195]]]}},{"type":"Feature","properties":{"id":19,"area_m2":600,"px":6,"rank":55,"persistent":false},"geometry":{"type":"Polygon","coordinates":[[[-122.935649,46.143108],[-122.935649,46.143198],[-122.93526,46.143198],[-122.935261,46.142928],[-122.93539,46.142928],[-122.935413,46.143002],[-122.935519,46.143018],[-122.935554,46.143099],[-122.935649,46.143108]]]}},{"type":"Feature","properties":{"id":32,"area_m2":600,"px":6,"rank":56,"persistent":false},"geometry":{"type":"Polygon","coordinates":[[[-122.934744,46.141578],[-122.934744,46.141668],[-122.93454,46.14167],[-122.934491,46.141701],[-122.934485,46.141757],[-122.934356,46.141757],[-122.934333,46.141683],[-122.934226,46.141667],[-122.934227,46.141487],[-122.934356,46.141487],[-122.934365,46.141549],[-122.934418,46.141576],[-122.934744,46.141578]]]}},{"type":"Feature","properties":{"id":73,"area_m2":600,"px":6,"rank":57,"persistent":false},"geometry":{"type":"Polygon","coordinates":[[[-122.93229,46.137166],[-122.932289,46.137346],[-122.93216,46.137346],[-122.932151,46.137285],[-122.932098,46.137257],[-122.931772,46.137256],[-122.931772,46.137166],[-122.931879,46.13715],[-122.931901,46.137076],[-122.932031,46.137076],[-122.932037,46.137133],[-122.932086,46.137164],[-122.93229,46.137166]]]}},{"type":"Feature","properties":{"id":84,"area_m2":600,"px":6,"rank":58,"persistent":false},"geometry":{"type":"Polygon","coordinates":[[[-122.9398,46.13627],[-122.939799,46.13636],[-122.939711,46.136367],[-122.939671,46.136404],[-122.93967,46.13672],[-122.93954,46.13672],[-122.939541,46.13627],[-122.9398,46.13627]]]}},{"type":"Feature","properties":{"id":90,"area_m2":600,"px":6,"rank":59,"persistent":false},"geometry":{"type":"Polygon","coordinates":[[[-122.935657,46.136088],[-122.935657,46.136178],[-122.93555,46.136194],[-122.935527,46.136268],[-122.935398,46.136268],[-122.935337,46.136244],[-122.935268,46.136268],[-122.935139,46.136268],[-122.935139,46.136178],[-122.935246,46.136162],[-122.935269,46.136088],[-122.935385,46.136064],[-122.935398,46.135998],[-122.935528,46.135998],[-122.93555,46.136072],[-122.935657,46.136088]]]}},{"type":"Feature","properties":{"id":8,"area_m2":500,"px":5,"rank":60,"persistent":false},"geometry":{"type":"Polygon","coordinates":[[[-122.934224,46.143647],[-122.934224,46.143737],[-122.933965,46.143737],[-122.933959,46.143681],[-122.93391,46.143649],[-122.933577,46.143647],[-122.933577,46.143557],[-122.933965,46.143557],[-122.933968,46.143609],[-122.934006,46.143641],[-122.934224,46.143647]]]}},{"type":"Feature","properties":{"id":22,"area_m2":500,"px":5,"rank":61,"persistent":false},"geometry":{"type":"Polygon","coordinates":[[[-122.934354,46.142747],[-122.934354,46.142837],[-122.934227,46.142837],[-122.934222,46.142786],[-122.934184,46.142754],[-122.933966,46.142747],[-122.933963,46.142605],[-122.933918,46.142571],[-122.933837,46.142567],[-122.933837,46.142477],[-122.933966,46.142477],[-122.933989,46.142551],[-122.934096,46.142567],[-122.934109,46.142633],[-122.934225,46.142657],[-122.934253,46.142735],[-122.934354,46.142747]]]}},{"type":"Feature","properties":{"id":25,"area_m2":500,"px":5,"rank":62,"persistent":false},"geometry":{"type":"Polygon","coordinates":[[[-122.936815,46.141939],[-122.936815,46.142389],[-122.936686,46.142389],[-122.936686,46.141939],[-122.936815,46.141939]]]}},{"type":"Feature","properties":{"id":37,"area_m2":500,"px":5,"rank":63,"persistent":false},"geometry":{"type":"Polygon","coordinates":[[[-122.937982,46.140679],[-122.937982,46.140859],[-122.937594,46.140859],[-122.937594,46.140679],[-122.937723,46.140679],[-122.937784,46.140703],[-122.937853,46.140679],[-122.937982,46.140679]]]}},{"type":"Feature","properties":{"id":43,"area_m2":500,"px":5,"rank":64,"persistent":false},"geometry":{"type":"Polygon","coordinates":[[[-122.934228,46.140407],[-122.934228,46.140497],[-122.9341,46.140497],[-122.934092,46.140441],[-122.934043,46.14041],[-122.93371,46.140407],[-122.93371,46.140227],[-122.933839,46.140227],[-122.933845,46.140284],[-122.933895,46.140315],[-122.934098,46.140317],[-122.934121,46.140391],[-122.934228,46.140407]]]}},{"type":"Feature","properties":{"id":59,"area_m2":500,"px":5,"rank":65,"persistent":false},"geometry":{"type":"Polygon","coordinates":[[[-122.932677,46.137886],[-122.932677,46.138156],[-122.93257,46.138172],[-122.932547,46.138246],[-122.932418,46.138246],[-122.932418,46.138066],[-122.932492,46.138064],[-122.932538,46.138038],[-122.932548,46.137886],[-122.932677,46.137886]]]}},{"type":"Feature","properties":{"id":62,"area_m2":500,"px":5,"rank":66,"persistent":false},"geometry":{"type":"Polygon","coordinates":[[[-122.937208,46.137979],[-122.937208,46.138069],[-122.936949,46.138069],[-122.936927,46.137995],[-122.93682,46.137979],[-122.936786,46.137898],[-122.936691,46.137889],[-122.936691,46.137799],[-122.93695,46.137799],[-122.936972,46.137963],[-122.937208,46.137979]]]}},{"type":"Feature","properties":{"id":64,"area_m2":500,"px":5,"rank":67,"persistent":false},"geometry":{"type":"Polygon","coordinates":[[[-122.934878,46.137618],[-122.934878,46.137708],[-122.934797,46.137712],[-122.934752,46.137746],[-122.934749,46.137887],[-122.934619,46.137887],[-122.934613,46.137831],[-122.934564,46.1378],[-122.93436,46.137797],[-122.934361,46.137707],[-122.934686,46.137706],[-122.93474,46.137679],[-122.934749,46.137618],[-122.934878,46.137618]]]}},{"type":"Feature","properties":{"id":82,"area_m2":500,"px":5,"rank":68,"persistent":false},"geometry":{"type":"Polygon","coordinates":[[[-122.941353,46.136631],[-122.941352,46.136811],[-122.941223,46.136811],[-122.941217,46.136754],[-122.941168,46.136723],[-122.940964,46.136721],[-122.940964,46.136631],[-122.941071,46.136615],[-122.941094,46.136541],[-122.941223,46.136541],[-122.941246,46.136615],[-122.941353,46.136631]]]}},{"type":"Feature","properties":{"id":89,"area_m2":500,"px":5,"rank":69,"persistent":false},"geometry":{"type":"Polygon","coordinates":[[[-122.939411,46.13627],[-122.939411,46.13636],[-122.939152,46.13636],[-122.939146,46.136303],[-122.939097,46.136272],[-122.938764,46.13627],[-122.938764,46.13618],[-122.939152,46.13618],[-122.939156,46.136232],[-122.939193,46.136264],[-122.939411,46.13627]]]}},{"type":"Feature","properties":{"id":103,"area_m2":500,"px":5,"rank":70,"persistent":false},"geometry":{"type":"Polygon","coordinates":[[[-122.935918,46.134468],[-122.935918,46.134558],[-122.935659,46.134558],[-122.935636,46.134484],[-122.93553,46.134468],[-122.93553,46.134288],[-122.935788,46.134288],[-122.935777,46.134438],[-122.935823,46.134466],[-122.935918,46.134468]]]}},{"type":"Feature","properties":{"id":112,"area_m2":500,"px":5,"rank":71,"persistent":false},"geometry":{"type":"Polygon","coordinates":[[[-122.932942,46.133207],[-122.932941,46.133386],[-122.932835,46.133402],[-122.932812,46.133476],[-122.932683,46.133476],[-122.932683,46.133206],[-122.932942,46.133207]]]}},{"type":"Feature","properties":{"id":117,"area_m2":500,"px":5,"rank":72,"persistent":false},"geometry":{"type":"Polygon","coordinates":[[[-122.934107,46.132847],[-122.934107,46.132937],[-122.934,46.132953],[-122.933978,46.133027],[-122.933848,46.133027],[-122.933845,46.132975],[-122.933807,46.132943],[-122.933589,46.132937],[-122.93359,46.132757],[-122.933719,46.132757],[-122.933742,46.132831],[-122.933894,46.13287],[-122.933978,46.132847],[-122.934107,46.132847]]]}},{"type":"Feature","properties":{"id":1,"area_m2":400,"px":4,"rank":73,"persistent":false},"geometry":{"type":"Polygon","coordinates":[[[-122.931374,46.144276],[-122.931374,46.144366],[-122.931116,46.144365],[-122.931116,46.144096],[-122.931245,46.144096],[-122.931254,46.144247],[-122.9313,46.144273],[-122.931374,46.144276]]]}},{"type":"Feature","properties":{"id":3,"area_m2":400,"px":4,"rank":74,"persistent":false},"geometry":{"type":"Polygon","coordinates":[[[-122.938496,46.14392],[-122.938496,46.1441],[-122.938422,46.144102],[-122.938376,46.144128],[-122.938366,46.14428],[-122.938237,46.14428],[-122.938237,46.1441],[-122.938312,46.144097],[-122.938358,46.144071],[-122.938367,46.14392],[-122.938496,46.14392]]]}},{"type":"Feature","properties":{"id":6,"area_m2":400,"px":4,"rank":75,"persistent":false},"geometry":{"type":"Polygon","coordinates":[[[-122.937202,46.143649],[-122.937202,46.143739],[-122.93712,46.143743],[-122.937076,46.143777],[-122.937072,46.143919],[-122.936943,46.143919],[-122.93692,46.143845],[-122.936813,46.143829],[-122.936813,46.143739],[-122.937017,46.143737],[-122.937066,46.143706],[-122.937073,46.143649],[-122.937202,46.143649]]]}},{"type":"Feature","properties":{"id":34,"area_m2":400,"px":4,"rank":76,"persistent":false},"geometry":{"type":"Polygon","coordinates":[[[-122.935262,46.141218],[-122.935262,46.141308],[-122.934874,46.141308],[-122.934874,46.141128],[-122.935004,46.141128],[-122.93501,46.141184],[-122.935059,46.141215],[-122.935262,46.141218]]]}},{"type":"Feature","properties":{"id":35,"area_m2":400,"px":4,"rank":77,"persistent":false},"geometry":{"type":"Polygon","coordinates":[[[-122.938111,46.14095],[-122.938111,46.141039],[-122.938004,46.141055],[-122.937982,46.141129],[-122.937723,46.141129],[-122.937723,46.141039],[-122.93783,46.141023],[-122.937852,46.140949],[-122.938111,46.14095]]]}},{"type":"Feature","properties":{"id":58,"area_m2":400,"px":4,"rank":78,"persistent":false},"geometry":{"type":"Polygon","coordinates":[[[-122.933324,46.138157],[-122.933324,46.138247],[-122.932936,46.138246],[-122.932913,46.138172],[-122.932806,46.138156],[-122.932806,46.138066],[-122.932936,46.138067],[-122.932945,46.138128],[-122.932998,46.138156],[-122.933324,46.138157]]]}},{"type":"Feature","properties":{"id":61,"area_m2":400,"px":4,"rank":79,"persistent":false},"geometry":{"type":"Polygon","coordinates":[[[-122.934101,46.137977],[-122.934101,46.138067],[-122.933883,46.138073],[-122.933845,46.138105],[-122.933842,46.138157],[-122.933583,46.138157],[-122.933583,46.138067],[-122.933801,46.138061],[-122.933839,46.138029],[-122.933842,46.137977],[-122.934101,46.137977]]]}},{"type":"Feature","properties":{"id":66,"area_m2":400,"px":4,"rank":80,"persistent":false},"geometry":{"type":"Polygon","coordinates":[[[-122.933584,46.137527],[-122.933584,46.137617],[-122.933502,46.137621],[-122.933458,46.137655],[-122.933454,46.137797],[-122.933325,46.137797],[-122.933302,46.137723],[-122.933195,46.137707],[-122.933195,46.137617],[-122.933399,46.137614],[-122.933448,46.137583],[-122.933454,46.137527],[-122.933584,46.137527]]]}},{"type":"Feature","properties":{"id":74,"area_m2":400,"px":4,"rank":81,"persistent":false},"geometry":{"type":"Polygon","coordinates":[[[-122.929571,46.136985],[-122.929571,46.137164],[-122.929497,46.137167],[-122.929451,46.137193],[-122.929441,46.137344],[-122.929312,46.137344],[-122.929312,46.137164],[-122.929386,46.137162],[-122.929432,46.137136],[-122.929442,46.136984],[-122.929571,46.136985]]]}},{"type":"Feature","properties":{"id":79,"area_m2":400,"px":4,"rank":82,"persistent":false},"geometry":{"type":"Polygon","coordinates":[[[-122.935009,46.136898],[-122.935009,46.136988],[-122.934791,46.136994],[-122.934753,46.137026],[-122.934749,46.137077],[-122.93462,46.137077],[-122.934597,46.137003],[-122.934491,46.136987],[-122.934491,46.136897],[-122.93462,46.136898],[-122.934681,46.136922],[-122.93475,46.136898],[-122.935009,46.136898]]]}},{"type":"Feature","properties":{"id":92,"area_m2":400,"px":4,"rank":83,"persistent":false},"geometry":{"type":"Polygon","coordinates":[[[-122.937081,46.135909],[-122.937081,46.135999],[-122.936974,46.136015],[-122.936952,46.136089],[-122.936822,46.136089],[-122.936799,46.136014],[-122.936693,46.135999],[-122.936693,46.135909],[-122.937081,46.135909]]]}},{"type":"Feature","properties":{"id":104,"area_m2":400,"px":4,"rank":84,"persistent":false},"geometry":{"type":"Polygon","coordinates":[[[-122.937989,46.134289],[-122.937989,46.134379],[-122.93773,46.134379],[-122.937708,46.134305],[-122.937601,46.134289],[-122.937601,46.134199],[-122.937708,46.134183],[-122.937731,46.134109],[-122.93786,46.134109],[-122.937848,46.13426],[-122.937895,46.134287],[-122.937989,46.134289]]]}},{"type":"Feature","properties":{"id":105,"area_m2":400,"px":4,"rank":85,"persistent":false},"geometry":{"type":"Polygon","coordinates":[[[-122.938249,46.13375],[-122.938249,46.133839],[-122.938167,46.133844],[-122.938123,46.133878],[-122.938119,46.134019],[-122.93799,46.134019],[-122.937967,46.133945],[-122.93786,46.133929],[-122.93786,46.133839],[-122.938064,46.133837],[-122.938113,46.133806],[-122.938119,46.133749],[-122.938249,46.13375]]]}},{"type":"Feature","properties":{"id":107,"area_m2":400,"px":4,"rank":86,"persistent":false},"geometry":{"type":"Polygon","coordinates":[[[-122.936954,46.133569],[-122.936954,46.133659],[-122.936873,46.133663],[-122.936828,46.133697],[-122.936825,46.133839],[-122.936566,46.133838],[-122.936566,46.133749],[-122.936673,46.133733],[-122.936696,46.133659],[-122.936812,46.133635],[-122.936825,46.133569],[-122.936954,46.133569]]]}},{"type":"Feature","properties":{"id":113,"area_m2":400,"px":4,"rank":87,"persistent":false},"geometry":{"type":"Polygon","coordinates":[[[-122.937991,46.132939],[-122.93799,46.133209],[-122.937884,46.133225],[-122.937861,46.133299],[-122.937732,46.133299],[-122.937732,46.133209],[-122.93782,46.133203],[-122.93786,46.133166],[-122.937861,46.132939],[-122.937991,46.132939]]]}},{"type":"Feature","properties":{"id":119,"area_m2":400,"px":4,"rank":88,"persistent":false},"geometry":{"type":"Polygon","coordinates":[[[-122.935531,46.132668],[-122.935531,46.132848],[-122.935402,46.132848],[-122.935389,46.132692],[-122.935332,46.132668],[-122.935143,46.132668],[-122.935143,46.132578],[-122.935402,46.132578],[-122.935425,46.132652],[-122.935531,46.132668]]]}},{"type":"Feature","properties":{"id":122,"area_m2":400,"px":4,"rank":89,"persistent":false},"geometry":{"type":"Polygon","coordinates":[[[-122.939027,46.13213],[-122.939027,46.13222],[-122.938639,46.13222],[-122.938639,46.13204],[-122.938768,46.13204],[-122.938774,46.132096],[-122.938824,46.132127],[-122.939027,46.13213]]]}},{"type":"Feature","properties":{"id":5,"area_m2":300,"px":3,"rank":90,"persistent":false},"geometry":{"type":"Polygon","coordinates":[[[-122.938237,46.14383],[-122.938237,46.14392],[-122.938108,46.143919],[-122.938085,46.143845],[-122.937979,46.143829],[-122.937944,46.143749],[-122.937849,46.143739],[-122.937849,46.143649],[-122.937979,46.143649],[-122.938001,46.143724],[-122.938108,46.14374],[-122.938143,46.14382],[-122.938237,46.14383]]]}},{"type":"Feature","properties":{"id":7,"area_m2":300,"px":3,"rank":91,"persistent":false},"geometry":{"type":"Polygon","coordinates":[[[-122.929303,46.143734],[-122.929303,46.143824],[-122.929176,46.143824],[-122.929151,46.14375],[-122.929045,46.143734],[-122.929045,46.143554],[-122.929174,46.143554],[-122.929183,46.143706],[-122.929229,46.143732],[-122.929303,46.143734]]]}},{"type":"Feature","properties":{"id":14,"area_m2":300,"px":3,"rank":92,"persistent":false},"geometry":{"type":"Polygon","coordinates":[[[-122.934872,46.143288],[-122.934872,46.143378],[-122.934765,46.143393],[-122.934742,46.143468],[-122.934613,46.143467],[-122.93459,46.143393],[-122.934483,46.143377],[-122.934483,46.143288],[-122.934613,46.143288],[-122.934674,46.143312],[-122.934742,46.143288],[-122.934872,46.143288]]]}},{"type":"Feature","properties":{"id":17,"area_m2":300,"px":3,"rank":93,"persistent":false},"geometry":{"type":"Polygon","coordinates":[[[-122.938497,46.14293],[-122.938497,46.1432],[-122.938368,46.1432],[-122.938368,46.14293],[-122.938497,46.14293]]]}},{"type":"Feature","properties":{"id":20,"area_m2":300,"px":3,"rank":94,"persistent":false},"geometry":{"type":"Polygon","coordinates":[[[-122.931376,46.142746],[-122.931376,46.142926],[-122.931117,46.142925],[-122.931117,46.142836],[-122.931224,46.14282],[-122.931247,46.142746],[-122.931376,46.142746]]]}},{"type":"Feature","properties":{"id":21,"area_m2":300,"px":3,"rank":95,"persistent":false},"geometry":{"type":"Polygon","coordinates":[[[-122.938627,46.14257],[-122.938627,46.14284],[-122.938498,46.14284],[-122.938498,46.14257],[-122.938627,46.14257]]]}},{"type":"Feature","properties":{"id":31,"area_m2":300,"px":3,"rank":96,"persistent":false},"geometry":{"type":"Polygon","coordinates":[[[-122.936557,46.141669],[-122.936557,46.141759],[-122.936168,46.141758],[-122.936168,46.141668],[-122.936557,46.141669]]]}},{"type":"Feature","properties":{"id":30,"area_m2":300,"px":3,"rank":97,"persistent":false},"geometry":{"type":"Polygon","coordinates":[[[-122.938499,46.14158],[-122.938499,46.14185],[-122.938369,46.14185],[-122.93837,46.14158],[-122.938499,46.14158]]]}},{"type":"Feature","properties":{"id":38,"area_m2":300,"px":3,"rank":98,"persistent":false},"geometry":{"type":"Polygon","coordinates":[[[-122.937335,46.140589],[-122.937335,46.140679],[-122.937228,46.140695],[-122.937205,46.140769],[-122.937076,46.140769],[-122.937076,46.140589],[-122.937335,46.140589]]]}},{"type":"Feature","properties":{"id":40,"area_m2":300,"px":3,"rank":99,"persistent":false},"geometry":{"type":"Polygon","coordinates":[[[-122.93358,46.140407],[-122.93358,46.140497],[-122.933474,46.140513],[-122.933451,46.140587],[-122.933321,46.140587],[-122.933322,46.140407],[-122.93358,46.140407]]]}},{"type":"Feature","properties":{"id":42,"area_m2":300,"px":3,"rank":100,"persistent":false},"geometry":{"type":"Polygon","coordinates":[[[-122.934616,46.140408],[-122.934616,46.140497],[-122.934487,46.140497],[-122.934464,46.140423],[-122.934357,46.140407],[-122.934323,46.140326],[-122.934228,46.140317],[-122.934228,46.140227],[-122.934357,46.140227],[-122.93438,46.140302],[-122.934487,46.140318],[-122.934521,46.140398],[-122.934616,46.140408]]]}},{"type":"Feature","properties":{"id":45,"area_m2":300,"px":3,"rank":101,"persistent":false},"geometry":{"type":"Polygon","coordinates":[[[-122.932545,46.140226],[-122.932545,46.140316],[-122.932286,46.140316],[-122.932286,46.140136],[-122.932415,46.140136],[-122.932438,46.14021],[-122.932545,46.140226]]]}},{"type":"Feature","properties":{"id":47,"area_m2":300,"px":3,"rank":102,"persistent":false},"geometry":{"type":"Polygon","coordinates":[[[-122.93384,46.139867],[-122.93384,46.139957],[-122.933452,46.139957],[-122.933452,46.139867],[-122.93384,46.139867]]]}},{"type":"Feature","properties":{"id":48,"area_m2":300,"px":3,"rank":103,"persistent":false},"geometry":{"type":"Polygon","coordinates":[[[-122.932416,46.139686],[-122.932416,46.139776],[-122.932028,46.139776],[-122.932028,46.139686],[-122.932416,46.139686]]]}},{"type":"Feature","properties":{"id":49,"area_m2":300,"px":3,"rank":104,"persistent":false},"geometry":{"type":"Polygon","coordinates":[[[-122.940573,46.139511],[-122.940573,46.139601],[-122.940314,46.139601],[-122.940314,46.139421],[-122.940443,46.139421],[-122.940466,46.139495],[-122.940573,46.139511]]]}},{"type":"Feature","properties":{"id":50,"area_m2":300,"px":3,"rank":105,"persistent":false},"geometry":{"type":"Polygon","coordinates":[[[-122.933582,46.139327],[-122.933581,46.139597],[-122.933452,46.139597],[-122.933452,46.139327],[-122.933582,46.139327]]]}},{"type":"Feature","properties":{"id":55,"area_m2":300,"px":3,"rank":106,"persistent":false},"geometry":{"type":"Polygon","coordinates":[[[-122.944846,46.139063],[-122.944846,46.139153],[-122.944587,46.139153],[-122.944587,46.138973],[-122.944716,46.138973],[-122.944739,46.139047],[-122.944846,46.139063]]]}},{"type":"Feature","properties":{"id":56,"area_m2":300,"px":3,"rank":107,"persistent":false},"geometry":{"type":"Polygon","coordinates":[[[-122.935395,46.138248],[-122.935395,46.138338],[-122.935289,46.138354],[-122.935266,46.138428],[-122.935007,46.138428],[-122.935007,46.138338],[-122.935211,46.138335],[-122.93526,46.138305],[-122.935266,46.138248],[-122.935395,46.138248]]]}},{"type":"Feature","properties":{"id":57,"area_m2":300,"px":3,"rank":108,"persistent":false},"geometry":{"type":"Polygon","coordinates":[[[-122.940186,46.138251],[-122.940186,46.13834],[-122.939797,46.13834],[-122.939798,46.13825],[-122.940186,46.138251]]]}},{"type":"Feature","properties":{"id":63,"area_m2":300,"px":3,"rank":109,"persistent":false},"geometry":{"type":"Polygon","coordinates":[[[-122.940186,46.137891],[-122.940186,46.13798],[-122.939927,46.13798],[-122.939905,46.137906],[-122.939798,46.13789],[-122.939798,46.1378],[-122.939927,46.1378],[-122.939933,46.137857],[-122.939982,46.137888],[-122.940186,46.137891]]]}},{"type":"Feature","properties":{"id":67,"area_m2":300,"px":3,"rank":110,"persistent":false},"geometry":{"type":"Polygon","coordinates":[[[-122.937856,46.137529],[-122.937856,46.137709],[-122.937727,46.137709],[-122.937704,46.137635],[-122.937597,46.137619],[-122.937597,46.137529],[-122.937856,46.137529]]]}},{"type":"Feature","properties":{"id":71,"area_m2":300,"px":3,"rank":111,"persistent":false},"geometry":{"type":"Polygon","coordinates":[[[-122.928923,46.137254],[-122.928923,46.137344],[-122.928817,46.13736],[-122.928794,46.137434],[-122.928664,46.137434],[-122.928665,46.137254],[-122.928923,46.137254]]]}},{"type":"Feature","properties":{"id":70,"area_m2":300,"px":3,"rank":112,"persistent":false},"geometry":{"type":"Polygon","coordinates":[[[-122.934361,46.137347],[-122.934361,46.137437],[-122.934233,46.137437],[-122.934209,46.137363],[-122.934102,46.137347],[-122.934102,46.137167],[-122.934232,46.137167],[-122.934241,46.137319],[-122.934287,46.137345],[-122.934361,46.137347]]]}},{"type":"Feature","properties":{"id":72,"area_m2":300,"px":3,"rank":113,"persistent":false},"geometry":{"type":"Polygon","coordinates":[[[-122.938245,46.13717],[-122.938245,46.137259],[-122.938041,46.137262],[-122.937992,46.137293],[-122.937986,46.137349],[-122.937857,46.137349],[-122.937857,46.137259],[-122.937963,46.137244],[-122.937986,46.137169],[-122.938245,46.13717]]]}},{"type":"Feature","properties":{"id":80,"area_m2":300,"px":3,"rank":114,"persistent":false},"geometry":{"type":"Polygon","coordinates":[[[-122.941611,46.136811],[-122.941611,46.136991],[-122.941352,46.136991],[-122.941353,46.136901],[-122.941459,46.136885],[-122.941482,46.136811],[-122.941611,46.136811]]]}},{"type":"Feature","properties":{"id":88,"area_m2":300,"px":3,"rank":115,"persistent":false},"geometry":{"type":"Polygon","coordinates":[[[-122.940188,46.136271],[-122.940188,46.13636],[-122.939929,46.13636],[-122.939929,46.13618],[-122.940059,46.136181],[-122.940081,46.136255],[-122.940188,46.136271]]]}},{"type":"Feature","properties":{"id":95,"area_m2":300,"px":3,"rank":116,"persistent":false},"geometry":{"type":"Polygon","coordinates":[[[-122.939024,46.13546],[-122.939024,46.13555],[-122.938765,46.13555],[-122.938765,46.13537],[-122.938894,46.13537],[-122.938917,46.135444],[-122.939024,46.13546]]]}},{"type":"Feature","properties":{"id":96,"area_m2":300,"px":3,"rank":117,"persistent":false},"geometry":{"type":"Polygon","coordinates":[[[-122.933716,46.135367],[-122.933716,46.135457],[-122.933328,46.135457],[-122.933328,46.135367],[-122.933716,46.135367]]]}},{"type":"Feature","properties":{"id":101,"area_m2":300,"px":3,"rank":118,"persistent":false},"geometry":{"type":"Polygon","coordinates":[[[-122.940707,46.134831],[-122.940707,46.134921],[-122.940319,46.13492],[-122.940319,46.134831],[-122.940707,46.134831]]]}},{"type":"Feature","properties":{"id":108,"area_m2":300,"px":3,"rank":119,"persistent":false},"geometry":{"type":"Polygon","coordinates":[[[-122.937731,46.133389],[-122.937731,46.133479],[-122.93765,46.133483],[-122.937605,46.133517],[-122.937602,46.133659],[-122.937472,46.133659],[-122.937473,46.133479],[-122.937579,46.133463],[-122.937602,46.133389],[-122.937731,46.133389]]]}},{"type":"Feature","properties":{"id":114,"area_m2":300,"px":3,"rank":120,"persistent":false},"geometry":{"type":"Polygon","coordinates":[[[-122.936696,46.133119],[-122.936696,46.133209],[-122.936589,46.133224],[-122.936566,46.133298],[-122.936437,46.133298],[-122.936437,46.133118],[-122.936696,46.133119]]]}},{"type":"Feature","properties":{"id":115,"area_m2":300,"px":3,"rank":121,"persistent":false},"geometry":{"type":"Polygon","coordinates":[[[-122.941486,46.133031],[-122.941486,46.133121],[-122.941379,46.133137],[-122.941356,46.133211],[-122.941227,46.133211],[-122.941227,46.133031],[-122.941486,46.133031]]]}},{"type":"Feature","properties":{"id":116,"area_m2":300,"px":3,"rank":122,"persistent":false},"geometry":{"type":"Polygon","coordinates":[[[-122.933589,46.133027],[-122.933589,46.133117],[-122.933482,46.133133],[-122.933459,46.133207],[-122.93333,46.133207],[-122.93333,46.133027],[-122.933589,46.133027]]]}},{"type":"Feature","properties":{"id":123,"area_m2":300,"px":3,"rank":123,"persistent":false},"geometry":{"type":"Polygon","coordinates":[[[-122.935403,46.131948],[-122.935403,46.132128],[-122.935144,46.132128],[-122.935144,46.132038],[-122.935251,46.132022],[-122.935274,46.131948],[-122.935403,46.131948]]]}},{"type":"Feature","properties":{"id":124,"area_m2":300,"px":3,"rank":124,"persistent":false},"geometry":{"type":"Polygon","coordinates":[[[-122.932037,46.131856],[-122.932037,46.131946],[-122.93193,46.131962],[-122.931907,46.132036],[-122.931778,46.132036],[-122.931778,46.131856],[-122.932037,46.131856]]]}}]}