{"type":"FeatureCollection","features":[{"type":"Feature","properties":{"id":2,"area_m2":2100,"px":21,"rank":1,"persistent":false},"geometry":{"type":"Polygon","coordinates":[[[-122.938494,46.143561],[-122.938462,46.143607],[-122.938497,46.14365],[-122.938496,46.14383],[-122.938156,46.143834],[-122.938114,46.143863],[-122.938108,46.143919],[-122.937992,46.143943],[-122.937978,46.144009],[-122.937849,46.144009],[-122.937849,46.143739],[-122.938203,46.14373],[-122.938237,46.143691],[-122.938238,46.14356],[-122.938319,46.143556],[-122.938364,46.143521],[-122.938354,46.143404],[-122.938238,46.14338],[-122.938238,46.143111],[-122.938313,46.143107],[-122.938359,46.143081],[-122.938368,46.14293],[-122.938497,46.14293],[-122.938494,46.143561]]]}},{"type":"Feature","properties":{"id":36,"area_m2":2100,"px":21,"rank":2,"persistent":false},"geometry":{"type":"Polygon","coordinates":[[[-122.935657,46.135908],[-122.935657,46.135998],[-122.935576,46.136002],[-122.935531,46.136036],[-122.935527,46.136178],[-122.935432,46.136187],[-122.935398,46.136232],[-122.935403,46.136505],[-122.93546,46.136537],[-122.935656,46.136538],[-122.935656,46.136628],[-122.935411,46.136637],[-122.935378,46.136678],[-122.935397,46.136808],[-122.935179,46.136814],[-122.935142,46.136846],[-122.935138,46.136898],[-122.935009,46.136898],[-122.934991,46.136827],[-122.934879,46.136808],[-122.93487,46.136746],[-122.934817,46.136719],[-122.934668,46.136722],[-122.934626,46.136751],[-122.93462,46.136807],[-122.934491,46.136807],[-122.934491,46.136717],[-122.934598,46.136702],[-122.934621,46.136628],[-122.935009,46.136628],[-122.935078,46.136652],[-122.935153,46.136619],[-122.935173,46.13658],[-122.935139,46.136538],[-122.935139,46.136448],[-122.93522,46.136444],[-122.935265,46.13641],[-122.935269,46.136178],[-122.935343,46.136176],[-122.935389,46.136149],[-122.935398,46.135998],[-122.935505,46.135982],[-122.935528,46.135908],[-122.935657,46.135908]]]}},{"type":"Feature","properties":{"id":28,"area_m2":1900,"px":19,"rank":3,"persistent":false},"geometry":{"type":"Polygon","coordinates":[[[-122.934749,46.137798],[-122.934748,46.137977],[-122.93449,46.137977],[-122.93448,46.137916],[-122.934427,46.137888],[-122.934156,46.13789],[-122.934103,46.137931],[-122.934101,46.138067],[-122.933994,46.138083],[-122.933971,46.138157],[-122.933842,46.138157],[-122.933842,46.137977],[-122.933937,46.137968],[-122.933972,46.137923],[-122.933971,46.137661],[-122.933931,46.137623],[-122.933843,46.137617],[-122.933843,46.137527],[-122.934079,46.137511],[-122.934102,46.137347],[-122.934231,46.137349],[-122.934231,46.137527],[-122.934143,46.137534],[-122.934103,46.137571],[-122.934124,46.137691],[-122.934231,46.137707],[-122.93424,46.137769],[-122.934293,46.137796],[-122.934749,46.137798]]]}},{"type":"Feature","properties":{"id":46,"area_m2":1900,"px":19,"rank":4,"persistent":false},"geometry":{"type":"Polygon","coordinates":[[[-122.935399,46.135008],[-122.935399,46.135188],[-122.935292,46.135204],[-122.935269,46.135278],[-122.93514,46.135278],[-122.935134,46.135221],[-122.935085,46.13519],[-122.934881,46.135188],[-122.934881,46.135098],[-122.934976,46.135095],[-122.935026,46.135063],[-122.935005,46.134951],[-122.934949,46.134919],[-122.934752,46.134917],[-122.934729,46.134843],[-122.934623,46.134827],[-122.934588,46.134747],[-122.934494,46.134737],[-122.934494,46.134557],[-122.934623,46.134557],[-122.934684,46.134582],[-122.934753,46.134558],[-122.935141,46.134558],[-122.93513,46.134659],[-122.934781,46.13466],[-122.934753,46.134696],[-122.934758,46.134794],[-122.934822,46.134827],[-122.935078,46.134827],[-122.935131,46.134799],[-122.935152,46.134727],[-122.93527,46.134738],[-122.93527,46.134828],[-122.935189,46.134832],[-122.935146,46.134861],[-122.935144,46.134969],[-122.935203,46.135007],[-122.935399,46.135008]]]}},{"type":"Feature","properties":{"id":6,"area_m2":1700,"px":17,"rank":5,"persistent":false},"geometry":{"type":"Polygon","coordinates":[[[-122.930471,46.141935],[-122.930471,46.142025],[-122.930376,46.142034],[-122.930341,46.142079],[-122.930354,46.142181],[-122.930471,46.142205],[-122.930471,46.142295],[-122.930396,46.142297],[-122.93035,46.142324],[-122.930341,46.142475],[-122.930259,46.142479],[-122.930215,46.142513],[-122.930211,46.142655],[-122.930007,46.142657],[-122.929958,46.142688],[-122.929952,46.142745],[-122.929823,46.142745],[-122.929823,46.142655],[-122.929924,46.142643],[-122.929952,46.142565],[-122.930041,46.142558],[-122.93008,46.142521],[-122.930083,46.142115],[-122.930194,46.142095],[-122.930232,46.141991],[-122.930192,46.141942],[-122.930083,46.141935],[-122.930083,46.141845],[-122.930342,46.141845],[-122.930364,46.141919],[-122.930471,46.141935]]]}},{"type":"Feature","properties":{"id":8,"area_m2":1600,"px":16,"rank":6,"persistent":false},"geometry":{"type":"Polygon","coordinates":[[[-122.928917,46.142204],[-122.928917,46.142294],[-122.92881,46.14231],[-122.928787,46.142384],[-122.928671,46.142408],[-122.928658,46.142474],[-122.928454,46.142476],[-122.928405,46.142507],[-122.928399,46.142564],[-122.928269,46.142564],[-122.92827,46.142294],[-122.928371,46.142282],[-122.928399,46.142204],[-122.928494,46.142195],[-122.928529,46.142114],[-122.928641,46.142094],[-122.928659,46.141934],[-122.928788,46.141934],[-122.928791,46.142166],[-122.928836,46.1422],[-122.928917,46.142204]]]}},{"type":"Feature","properties":{"id":37,"area_m2":1500,"px":15,"rank":7,"persistent":false},"geometry":{"type":"Polygon","coordinates":[[[-122.932808,46.136626],[-122.932808,46.136716],[-122.932549,46.136716],[-122.932526,46.136642],[-122.93242,46.136626],[-122.932387,46.136532],[-122.932161,46.136536],[-122.932161,46.136266],[-122.932236,46.136264],[-122.932282,46.136238],[-122.932291,46.136086],[-122.93255,46.136086],[-122.932559,46.136238],[-122.932605,46.136264],[-122.932679,46.136268],[-122.932679,46.136356],[-122.932597,46.13636],[-122.932553,46.136395],[-122.932553,46.136588],[-122.932612,46.136625],[-122.932808,46.136626]]]}},{"type":"Feature","properties":{"id":48,"area_m2":1500,"px":15,"rank":8,"persistent":false},"geometry":{"type":"Polygon","coordinates":[[[-122.933455,46.134828],[-122.933423,46.134874],[-122.933457,46.134917],[-122.933457,46.135007],[-122.933328,46.135007],[-122.933305,46.134932],[-122.933199,46.134917],[-122.933164,46.134836],[-122.933069,46.134826],[-122.933069,46.134695],[-122.933041,46.134659],[-122.932681,46.134646],[-122.932681,46.134556],[-122.932763,46.134552],[-122.932807,46.134518],[-122.932811,46.134376],[-122.93294,46.134377],[-122.932942,46.134513],[-122.933003,46.134555],[-122.933151,46.134552],[-122.933193,46.134523],[-122.933199,46.134467],[-122.933329,46.134467],[-122.93333,46.134693],[-122.933369,46.13473],[-122.933458,46.134737],[-122.933455,46.134828]]]}},{"type":"Feature","properties":{"id":22,"area_m2":1100,"px":11,"rank":9,"persistent":false},"geometry":{"type":"Polygon","coordinates":[[[-122.934488,46.139057],[-122.934488,46.139147],[-122.934292,46.139148],[-122.934238,46.139176],[-122.934194,46.13928],[-122.934229,46.139327],[-122.934229,46.139417],[-122.9341,46.139417],[-122.93409,46.139356],[-122.934037,46.139328],[-122.933711,46.139327],[-122.933702,46.139176],[-122.933656,46.139149],[-122.933582,46.139147],[-122.933582,46.139057],[-122.933711,46.139057],[-122.933724,46.139123],[-122.933789,46.139147],[-122.934167,46.139146],[-122.93422,46.139119],[-122.934229,46.139057],[-122.934488,46.139057]]]}},{"type":"Feature","properties":{"id":52,"area_m2":1100,"px":11,"rank":10,"persistent":false},"geometry":{"type":"Polygon","coordinates":[[[-122.934235,46.133927],[-122.934235,46.134107],[-122.934147,46.134114],[-122.934107,46.134151],[-122.934105,46.134287],[-122.934071,46.134329],[-122.934105,46.134377],[-122.934105,46.134467],[-122.933847,46.134467],[-122.933843,46.134415],[-122.933805,46.134383],[-122.933588,46.134377],[-122.933588,46.134287],[-122.933694,46.134271],[-122.933717,46.134197],[-122.933928,46.134193],[-122.93397,46.134164],[-122.933976,46.134107],[-122.934088,46.134087],[-122.934106,46.133927],[-122.934235,46.133927]]]}},{"type":"Feature","properties":{"id":20,"area_m2":1000,"px":10,"rank":11,"persistent":false},"geometry":{"type":"Polygon","coordinates":[[[-122.937077,46.139599],[-122.937077,46.139689],[-122.936995,46.139693],[-122.936951,46.139727],[-122.936947,46.139869],[-122.936818,46.139869],[-122.936757,46.139845],[-122.936688,46.139869],[-122.936429,46.139868],[-122.936407,46.139794],[-122.9363,46.139778],[-122.9363,46.139599],[-122.93643,46.139599],[-122.936433,46.13974],[-122.936507,46.139779],[-122.936647,46.139772],[-122.936685,46.13974],[-122.936689,46.139689],[-122.9368,46.139669],[-122.936818,46.139509],[-122.936948,46.139509],[-122.93697,46.139583],[-122.937077,46.139599]]]}},{"type":"Feature","properties":{"id":3,"area_m2":800,"px":8,"rank":12,"persistent":false},"geometry":{"type":"Polygon","coordinates":[[[-122.936684,46.143379],[-122.936684,46.143469],[-122.936099,46.143469],[-122.936046,46.143497],[-122.936037,46.143558],[-122.935907,46.143558],[-122.935904,46.143417],[-122.935859,46.143382],[-122.935778,46.143378],[-122.935778,46.143288],[-122.935907,46.143288],[-122.935917,46.14335],[-122.935978,46.143378],[-122.936684,46.143379]]]}},{"type":"Feature","properties":{"id":11,"area_m2":800,"px":8,"rank":13,"persistent":false},"geometry":{"type":"Polygon","coordinates":[[[-122.931766,46.141936],[-122.931766,46.142026],[-122.931671,46.142035],[-122.931636,46.142116],[-122.931562,46.142118],[-122.931516,46.142144],[-122.931506,46.142296],[-122.931377,46.142296],[-122.931371,46.142149],[-122.931329,46.14212],[-122.931248,46.142115],[-122.931245,46.141974],[-122.9312,46.14194],[-122.931119,46.141935],[-122.931119,46.141846],[-122.931248,46.141846],[-122.931266,46.141916],[-122.931377,46.141936],[-122.931387,46.141997],[-122.93144,46.142025],[-122.931588,46.142022],[-122.93163,46.141992],[-122.931636,46.141936],[-122.931766,46.141936]]]}},{"type":"Feature","properties":{"id":21,"area_m2":800,"px":8,"rank":14,"persistent":false},"geometry":{"type":"Polygon","coordinates":[[[-122.935653,46.139058],[-122.935653,46.139238],[-122.935579,46.13924],[-122.935533,46.139267],[-122.935524,46.139418],[-122.935394,46.139418],[-122.935385,46.139266],[-122.935339,46.13924],[-122.935265,46.139238],[-122.935265,46.139058],[-122.935653,46.139058]]]}},{"type":"Feature","properties":{"id":30,"area_m2":800,"px":8,"rank":15,"persistent":false},"geometry":{"type":"Polygon","coordinates":[[[-122.93695,46.137529],[-122.93695,46.137709],[-122.93682,46.137709],[-122.936807,46.137643],[-122.936691,46.137619],[-122.936688,46.137567],[-122.93665,46.137535],[-122.936303,46.137528],[-122.936303,46.137438],[-122.936409,46.137423],[-122.936432,46.137349],[-122.936562,46.137349],[-122.936596,46.137429],[-122.936821,46.137439],[-122.936843,46.137513],[-122.93695,46.137529]]]}},{"type":"Feature","properties":{"id":33,"area_m2":800,"px":8,"rank":16,"persistent":false},"geometry":{"type":"Polygon","coordinates":[[[-122.932548,46.137256],[-122.932548,46.137346],[-122.93233,46.137353],[-122.932293,46.137384],[-122.932289,46.137436],[-122.93203,46.137436],[-122.932008,46.137362],[-122.931901,46.137346],[-122.931901,46.137256],[-122.932234,46.137254],[-122.932284,46.137223],[-122.93229,46.137166],[-122.932419,46.137166],[-122.932442,46.13724],[-122.932548,46.137256]]]}},{"type":"Feature","properties":{"id":41,"area_m2":800,"px":8,"rank":17,"persistent":false},"geometry":{"type":"Polygon","coordinates":[[[-122.93501,46.135638],[-122.93501,46.135908],[-122.934921,46.135914],[-122.934881,46.135956],[-122.93488,46.136268],[-122.934751,46.136267],[-122.934751,46.135818],[-122.934825,46.135815],[-122.934871,46.135789],[-122.934881,46.135638],[-122.93501,46.135638]]]}},{"type":"Feature","properties":{"id":47,"area_m2":800,"px":8,"rank":18,"persistent":false},"geometry":{"type":"Polygon","coordinates":[[[-122.934752,46.135098],[-122.934752,46.135187],[-122.934548,46.13519],[-122.934499,46.135221],[-122.934493,46.135277],[-122.934363,46.135277],[-122.934364,46.135187],[-122.934398,46.13514],[-122.934354,46.135036],[-122.934301,46.135008],[-122.934105,46.135007],[-122.934105,46.134917],[-122.934493,46.134917],[-122.934516,46.134992],[-122.934622,46.135008],[-122.934657,46.135088],[-122.934752,46.135098]]]}},{"type":"Feature","properties":{"id":14,"area_m2":600,"px":6,"rank":19,"persistent":false},"geometry":{"type":"Polygon","coordinates":[[[-122.932025,46.141846],[-122.932025,46.141936],[-122.931895,46.141936],[-122.931873,46.141862],[-122.931766,46.141846],[-122.931732,46.141765],[-122.931637,46.141756],[-122.931619,46.141596],[-122.931567,46.141576],[-122.931378,46.141576],[-122.931378,46.141486],[-122.931637,46.141486],[-122.93166,46.14156],[-122.931766,46.141576],[-122.931784,46.141736],[-122.931895,46.141756],[-122.93193,46.141837],[-122.932025,46.141846]]]}},{"type":"Feature","properties":{"id":5,"area_m2":500,"px":5,"rank":20,"persistent":false},"geometry":{"type":"Polygon","coordinates":[[[-122.936167,46.142658],[-122.936167,46.142838],[-122.93606,46.142854],[-122.936037,46.142928],[-122.935908,46.142928],[-122.935908,46.142838],[-122.935943,46.142796],[-122.935908,46.142748],[-122.935908,46.142568],[-122.936038,46.142568],[-122.936061,46.142643],[-122.936167,46.142658]]]}},{"type":"Feature","properties":{"id":17,"area_m2":500,"px":5,"rank":21,"persistent":false},"geometry":{"type":"Polygon","coordinates":[[[-122.935004,46.140408],[-122.935004,46.140588],[-122.934898,46.140603],[-122.934875,46.140678],[-122.934745,46.140678],[-122.934746,46.140408],[-122.935004,46.140408]]]}},{"type":"Feature","properties":{"id":38,"area_m2":500,"px":5,"rank":22,"persistent":false},"geometry":{"type":"Polygon","coordinates":[[[-122.939799,46.13636],[-122.939799,46.13645],[-122.939718,46.136454],[-122.939673,46.136489],[-122.93967,46.13663],[-122.93954,46.13663],[-122.939541,46.13627],[-122.93967,46.13627],[-122.939693,46.136344],[-122.939799,46.13636]]]}},{"type":"Feature","properties":{"id":57,"area_m2":500,"px":5,"rank":23,"persistent":false},"geometry":{"type":"Polygon","coordinates":[[[-122.933848,46.133387],[-122.933848,46.133477],[-122.933741,46.133493],[-122.933718,46.133567],[-122.93333,46.133567],[-122.93333,46.133477],[-122.933548,46.13347],[-122.933585,46.133438],[-122.933589,46.133387],[-122.933848,46.133387]]]}},{"type":"Feature","properties":{"id":1,"area_m2":400,"px":4,"rank":24,"persistent":false},"geometry":{"type":"Polygon","coordinates":[[[-122.937719,46.144099],[-122.937719,46.144189],[-122.937638,46.144193],[-122.937593,46.144228],[-122.937589,46.144369],[-122.93746,46.144369],[-122.93746,46.144099],[-122.937719,46.144099]]]}},{"type":"Feature","properties":{"id":7,"area_m2":400,"px":4,"rank":25,"persistent":false},"geometry":{"type":"Polygon","coordinates":[[[-122.929823,46.142295],[-122.929823,46.142475],[-122.929716,46.14249],[-122.929693,46.142565],[-122.929435,46.142564],[-122.929435,46.142475],[-122.929623,46.142474],[-122.929681,46.142451],[-122.929694,46.142295],[-122.929823,46.142295]]]}},{"type":"Feature","properties":{"id":9,"area_m2":400,"px":4,"rank":26,"persistent":false},"geometry":{"type":"Polygon","coordinates":[[[-122.930859,46.142295],[-122.930859,46.142475],[-122.9306,46.142475],[-122.9306,46.142295],[-122.930859,46.142295]]]}},{"type":"Feature","properties":{"id":10,"area_m2":400,"px":4,"rank":27,"persistent":false},"geometry":{"type":"Polygon","coordinates":[[[-122.934096,46.142027],[-122.934096,46.142117],[-122.933989,46.142133],[-122.933967,46.142207],[-122.93385,46.142231],[-122.933837,46.142297],[-122.933578,46.142297],[-122.933578,46.142207],[-122.933796,46.142201],[-122.933834,46.142169],[-122.933837,46.142117],[-122.933954,46.142093],[-122.933967,46.142027],[-122.934096,46.142027]]]}},{"type":"Feature","properties":{"id":19,"area_m2":400,"px":4,"rank":28,"persistent":false},"geometry":{"type":"Polygon","coordinates":[[[-122.931638,46.140226],[-122.931638,46.140496],[-122.931509,46.140496],[-122.931506,46.140354],[-122.931461,46.14032],[-122.93138,46.140316],[-122.93138,46.140226],[-122.931638,46.140226]]]}},{"type":"Feature","properties":{"id":26,"area_m2":400,"px":4,"rank":29,"persistent":false},"geometry":{"type":"Polygon","coordinates":[[[-122.932288,46.138696],[-122.932288,46.138786],[-122.932029,46.138786],[-122.932006,46.138712],[-122.931899,46.138696],[-122.931865,46.138615],[-122.93177,46.138606],[-122.93177,46.138516],[-122.931899,46.138516],[-122.931913,46.138582],[-122.932029,46.138606],[-122.932032,46.138658],[-122.93207,46.13869],[-122.932288,46.138696]]]}},{"type":"Feature","properties":{"id":53,"area_m2":400,"px":4,"rank":30,"persistent":false},"geometry":{"type":"Polygon","coordinates":[[[-122.933588,46.134107],[-122.933588,46.134197],[-122.933506,46.134201],[-122.933462,46.134235],[-122.933458,46.134377],[-122.933329,46.134377],[-122.933329,46.134107],[-122.933588,46.134107]]]}},{"type":"Feature","properties":{"id":54,"area_m2":400,"px":4,"rank":31,"persistent":false},"geometry":{"type":"Polygon","coordinates":[[[-122.93307,46.134017],[-122.93307,46.134286],[-122.932941,46.134286],[-122.932937,46.134145],[-122.932893,46.134111],[-122.932811,46.134106],[-122.932811,46.134016],[-122.93307,46.134017]]]}},{"type":"Feature","properties":{"id":59,"area_m2":400,"px":4,"rank":32,"persistent":false},"geometry":{"type":"Polygon","coordinates":[[[-122.933589,46.133207],[-122.933589,46.133297],[-122.933482,46.133313],[-122.933459,46.133387],[-122.93333,46.133387],[-122.933327,46.133245],[-122.933282,46.133211],[-122.933201,46.133207],[-122.933201,46.133117],[-122.93333,46.133117],[-122.933336,46.133173],[-122.933385,46.133204],[-122.933589,46.133207]]]}},{"type":"Feature","properties":{"id":60,"area_m2":400,"px":4,"rank":33,"persistent":false},"geometry":{"type":"Polygon","coordinates":[[[-122.940968,46.132851],[-122.940968,46.133211],[-122.940839,46.133211],[-122.940839,46.132851],[-122.940968,46.132851]]]}},{"type":"Feature","properties":{"id":64,"area_m2":400,"px":4,"rank":34,"persistent":false},"geometry":{"type":"Polygon","coordinates":[[[-122.935788,46.132039],[-122.935756,46.132086],[-122.935791,46.132128],[-122.935791,46.132218],[-122.935532,46.132218],[-122.935532,46.132038],[-122.935639,46.132022],[-122.935662,46.131948],[-122.935789,46.131948],[-122.935788,46.132039]]]}},{"type":"Feature","properties":{"id":65,"area_m2":400,"px":4,"rank":35,"persistent":false},"geometry":{"type":"Polygon","coordinates":[[[-122.936956,46.132039],[-122.936956,46.132129],[-122.936829,46.132129],[-122.936804,46.132054],[-122.936697,46.132039],[-122.936698,46.131769],[-122.936827,46.131769],[-122.93683,46.132],[-122.936875,46.132035],[-122.936956,46.132039]]]}},{"type":"Feature","properties":{"id":4,"area_m2":300,"px":3,"rank":36,"persistent":false},"geometry":{"type":"Polygon","coordinates":[[[-122.935519,46.143198],[-122.935519,46.143288],[-122.93539,46.143288],[-122.935386,46.143236],[-122.935349,46.143204],[-122.935131,46.143198],[-122.935131,46.143108],[-122.93539,46.143108],[-122.935413,46.143182],[-122.935519,46.143198]]]}},{"type":"Feature","properties":{"id":12,"area_m2":300,"px":3,"rank":37,"persistent":false},"geometry":{"type":"Polygon","coordinates":[[[-122.933579,46.141757],[-122.933578,46.142027],[-122.933449,46.142027],[-122.933449,46.141757],[-122.933579,46.141757]]]}},{"type":"Feature","properties":{"id":13,"area_m2":300,"px":3,"rank":38,"persistent":false},"geometry":{"type":"Polygon","coordinates":[[[-122.938369,46.14167],[-122.938369,46.14194],[-122.93824,46.141939],[-122.93824,46.14167],[-122.938369,46.14167]]]}},{"type":"Feature","properties":{"id":15,"area_m2":300,"px":3,"rank":39,"persistent":false},"geometry":{"type":"Polygon","coordinates":[[[-122.931248,46.141576],[-122.931248,46.141665],[-122.931142,46.141681],[-122.931119,46.141755],[-122.930989,46.141755],[-122.93099,46.141575],[-122.931248,46.141576]]]}},{"type":"Feature","properties":{"id":16,"area_m2":300,"px":3,"rank":40,"persistent":false},"geometry":{"type":"Polygon","coordinates":[[[-122.938887,46.14158],[-122.938887,46.14167],[-122.938499,46.14167],[-122.938499,46.14158],[-122.938887,46.14158]]]}},{"type":"Feature","properties":{"id":18,"area_m2":300,"px":3,"rank":41,"persistent":false},"geometry":{"type":"Polygon","coordinates":[[[-122.932415,46.140316],[-122.932415,46.140496],[-122.932156,46.140496],[-122.932156,46.140406],[-122.932263,46.14039],[-122.932286,46.140316],[-122.932415,46.140316]]]}},{"type":"Feature","properties":{"id":23,"area_m2":300,"px":3,"rank":42,"persistent":false},"geometry":{"type":"Polygon","coordinates":[[[-122.933194,46.139057],[-122.933193,46.139147],[-122.932935,46.139146],[-122.932935,46.138967],[-122.933064,46.138967],[-122.933087,46.139041],[-122.933194,46.139057]]]}},{"type":"Feature","properties":{"id":24,"area_m2":300,"px":3,"rank":43,"persistent":false},"geometry":{"type":"Polygon","coordinates":[[[-122.935265,46.138698],[-122.935265,46.138788],[-122.935159,46.138804],[-122.935136,46.138878],[-122.935006,46.138878],[-122.935007,46.138698],[-122.935265,46.138698]]]}},{"type":"Feature","properties":{"id":25,"area_m2":300,"px":3,"rank":44,"persistent":false},"geometry":{"type":"Polygon","coordinates":[[[-122.933841,46.138697],[-122.933841,46.138877],[-122.933712,46.138877],[-122.933689,46.138803],[-122.933582,46.138787],[-122.933583,46.138697],[-122.933841,46.138697]]]}},{"type":"Feature","properties":{"id":27,"area_m2":300,"px":3,"rank":45,"persistent":false},"geometry":{"type":"Polygon","coordinates":[[[-122.933065,46.138607],[-122.933064,46.138697],[-122.932935,46.138696],[-122.932932,46.138645],[-122.932894,46.138613],[-122.932676,46.138606],[-122.932676,46.138516],[-122.932935,46.138517],[-122.932958,46.138591],[-122.933065,46.138607]]]}},{"type":"Feature","properties":{"id":29,"area_m2":300,"px":3,"rank":46,"persistent":false},"geometry":{"type":"Polygon","coordinates":[[[-122.933454,46.137797],[-122.933454,46.137887],[-122.933347,46.137903],[-122.933324,46.137977],[-122.933195,46.137977],[-122.933195,46.137887],[-122.93323,46.137844],[-122.933195,46.137797],[-122.933195,46.137707],[-122.933325,46.137707],[-122.933347,46.137781],[-122.933454,46.137797]]]}},{"type":"Feature","properties":{"id":31,"area_m2":300,"px":3,"rank":47,"persistent":false},"geometry":{"type":"Polygon","coordinates":[[[-122.932807,46.137346],[-122.932807,46.137616],[-122.932678,46.137616],[-122.932678,46.137346],[-122.932807,46.137346]]]}},{"type":"Feature","properties":{"id":32,"area_m2":300,"px":3,"rank":48,"persistent":false},"geometry":{"type":"Polygon","coordinates":[[[-122.934749,46.137438],[-122.934749,46.137527],[-122.93462,46.137527],[-122.934616,46.137476],[-122.934579,46.137444],[-122.934361,46.137437],[-122.934361,46.137347],[-122.93462,46.137348],[-122.934642,46.137422],[-122.934749,46.137438]]]}},{"type":"Feature","properties":{"id":34,"area_m2":300,"px":3,"rank":49,"persistent":false},"geometry":{"type":"Polygon","coordinates":[[[-122.934361,46.137077],[-122.934361,46.137257],[-122.934232,46.137257],[-122.934228,46.137116],[-122.934184,46.137081],[-122.934102,46.137077],[-122.934102,46.136987],[-122.934232,46.136987],[-122.934254,46.137061],[-122.934361,46.137077]]]}},{"type":"Feature","properties":{"id":35,"area_m2":300,"px":3,"rank":50,"persistent":false},"geometry":{"type":"Polygon","coordinates":[[[-122.938504,46.1369],[-122.938504,46.13717],[-122.938375,46.137169],[-122.938375,46.1369],[-122.938504,46.1369]]]}},{"type":"Feature","properties":{"id":39,"area_m2":300,"px":3,"rank":51,"persistent":false},"geometry":{"type":"Polygon","coordinates":[[[-122.933326,46.136447],[-122.933326,46.136537],[-122.933219,46.136552],[-122.933196,46.136627],[-122.933067,46.136627],[-122.933067,46.136447],[-122.933326,46.136447]]]}},{"type":"Feature","properties":{"id":40,"area_m2":300,"px":3,"rank":52,"persistent":false},"geometry":{"type":"Polygon","coordinates":[[[-122.936045,46.136268],[-122.936045,46.136358],[-122.935657,46.136358],[-122.935657,46.136268],[-122.936045,46.136268]]]}},{"type":"Feature","properties":{"id":42,"area_m2":300,"px":3,"rank":53,"persistent":false},"geometry":{"type":"Polygon","coordinates":[[[-122.933327,46.136087],[-122.933326,46.136267],[-122.933197,46.136267],[-122.933194,46.136125],[-122.933149,46.136091],[-122.933068,46.136086],[-122.933068,46.135997],[-122.933197,46.135997],[-122.93322,46.136071],[-122.933327,46.136087]]]}},{"type":"Feature","properties":{"id":43,"area_m2":300,"px":3,"rank":54,"persistent":false},"geometry":{"type":"Polygon","coordinates":[[[-122.938117,46.135999],[-122.938117,46.136089],[-122.937989,46.136089],[-122.937965,46.136015],[-122.937858,46.135999],[-122.937858,46.135819],[-122.937988,46.135819],[-122.937997,46.135971],[-122.938043,46.135997],[-122.938117,46.135999]]]}},{"type":"Feature","properties":{"id":44,"area_m2":300,"px":3,"rank":55,"persistent":false},"geometry":{"type":"Polygon","coordinates":[[[-122.93281,46.135366],[-122.932809,46.135456],[-122.932703,46.135472],[-122.93268,46.135546],[-122.932551,46.135546],[-122.932551,46.135366],[-122.93281,46.135366]]]}},{"type":"Feature","properties":{"id":45,"area_m2":300,"px":3,"rank":56,"persistent":false},"geometry":{"type":"Polygon","coordinates":[[[-122.9376,46.135369],[-122.9376,46.135459],[-122.937211,46.135459],[-122.937211,46.135369],[-122.9376,46.135369]]]}},{"type":"Feature","properties":{"id":49,"area_m2":300,"px":3,"rank":57,"persistent":false},"geometry":{"type":"Polygon","coordinates":[[[-122.9376,46.134739],[-122.9376,46.134829],[-122.937212,46.134829],[-122.937212,46.134739],[-122.9376,46.134739]]]}},{"type":"Feature","properties":{"id":50,"area_m2":300,"px":3,"rank":58,"persistent":false},"geometry":{"type":"Polygon","coordinates":[[[-122.934105,46.134557],[-122.934105,46.134647],[-122.933998,46.134663],[-122.933975,46.134737],[-122.933846,46.134737],[-122.933846,46.134557],[-122.934105,46.134557]]]}},{"type":"Feature","properties":{"id":51,"area_m2":300,"px":3,"rank":59,"persistent":false},"geometry":{"type":"Polygon","coordinates":[[[-122.93786,46.134379],[-122.93786,46.134469],[-122.937471,46.134469],[-122.937471,46.134379],[-122.93786,46.134379]]]}},{"type":"Feature","properties":{"id":55,"area_m2":300,"px":3,"rank":60,"persistent":false},"geometry":{"type":"Polygon","coordinates":[[[-122.933976,46.133927],[-122.933976,46.134017],[-122.933588,46.134017],[-122.933588,46.133927],[-122.933976,46.133927]]]}},{"type":"Feature","properties":{"id":58,"area_m2":300,"px":3,"rank":61,"persistent":false},"geometry":{"type":"Polygon","coordinates":[[[-122.934365,46.133387],[-122.934365,46.133477],[-122.933977,46.133477],[-122.933977,46.133387],[-122.934365,46.133387]]]}},{"type":"Feature","properties":{"id":56,"area_m2":300,"px":3,"rank":62,"persistent":false},"geometry":{"type":"Polygon","coordinates":[[[-122.936566,46.133299],[-122.936566,46.133388],[-122.936485,46.133393],[-122.93644,46.133427],[-122.936437,46.133568],[-122.936307,46.133568],[-122.936307,46.133388],[-122.936414,46.133373],[-122.936437,46.133299],[-122.936566,46.133299]]]}},{"type":"Feature","properties":{"id":61,"area_m2":300,"px":3,"rank":63,"persistent":true},"geometry":{"type":"Polygon","coordinates":[[[-122.939027,46.13258],[-122.939027,46.13267],[-122.93892,46.132686],[-122.938897,46.13276],[-122.938768,46.13276],[-122.938768,46.13258],[-122.939027,46.13258]]]}},{"type":"Feature","properties":{"id":62,"area_m2":300,"px":3,"rank":64,"persistent":false},"geometry":{"type":"Polygon","coordinates":[[[-122.93605,46.132218],[-122.936049,46.132488],[-122.93592,46.132488],[-122.93592,46.132218],[-122.93605,46.132218]]]}},{"type":"Feature","properties":{"id":63,"area_m2":300,"px":3,"rank":65,"persistent":false},"geometry":{"type":"Polygon","coordinates":[[[-122.932813,46.132216],[-122.932813,46.132396],[-122.932707,46.132412],[-122.932684,46.132486],[-122.932554,46.132486],[-122.932554,46.132396],[-122.932636,46.132392],[-122.932681,46.132358],[-122.932684,46.132216],[-122.932813,46.132216]]]}},{"type":"Feature","properties":{"id":66,"area_m2":300,"px":3,"rank":66,"persistent":false},"geometry":{"type":"Polygon","coordinates":[[[-122.932814,46.132036],[-122.932814,46.132126],[-122.932684,46.132126],[-122.932681,46.132075],[-122.932643,46.132043],[-122.932425,46.132036],[-122.932426,46.131946],[-122.932684,46.131946],[-122.932707,46.13202],[-122.932814,46.132036]]]}}]}