{"type":"FeatureCollection","features":[{"type":"Feature","properties":{"id":43,"area_m2":52700,"px":527,"rank":1,"persistent":false},"geometry":{"type":"Polygon","coordinates":[[[-122.968163,46.117921],[-122.968162,46.118011],[-122.967937,46.118007],[-122.967904,46.118101],[-122.967803,46.118114],[-122.967774,46.118191],[-122.967679,46.1182],[-122.967645,46.118281],[-122.967533,46.118301],[-122.967515,46.118461],[-122.967127,46.118461],[-122.967114,46.118395],[-122.966998,46.118371],[-122.966963,46.11829],[-122.966821,46.118267],[-122.966761,46.118284],[-122.966739,46.118321],[-122.966744,46.118608],[-122.966801,46.11864],[-122.966997,46.118641],[-122.966997,46.118731],[-122.966609,46.118731],[-122.966592,46.118661],[-122.96648,46.118641],[-122.966467,46.118575],[-122.966402,46.118551],[-122.966255,46.11856],[-122.966221,46.118641],[-122.966003,46.118647],[-122.965965,46.118679],[-122.965962,46.118731],[-122.965444,46.118731],[-122.965441,46.118679],[-122.965403,46.118647],[-122.965186,46.118641],[-122.965176,46.118489],[-122.96513,46.118463],[-122.965056,46.11846],[-122.965056,46.118281],[-122.965145,46.118274],[-122.965184,46.118237],[-122.965163,46.118116],[-122.964798,46.1181],[-122.964775,46.118026],[-122.964668,46.11801],[-122.964655,46.117944],[-122.964539,46.11792],[-122.964511,46.117843],[-122.96441,46.11783],[-122.964406,46.117689],[-122.964362,46.117654],[-122.96428,46.11765],[-122.964258,46.117486],[-122.964022,46.11747],[-122.964016,46.117414],[-122.963966,46.117382],[-122.963763,46.11738],[-122.96374,46.117306],[-122.963633,46.11729],[-122.963616,46.11722],[-122.963504,46.1172],[-122.96347,46.117119],[-122.963375,46.11711],[-122.963346,46.117032],[-122.963245,46.11702],[-122.963217,46.116942],[-122.963116,46.11693],[-122.963088,46.116852],[-122.962987,46.11684],[-122.962958,46.116762],[-122.962857,46.11675],[-122.962856,46.116433],[-122.962816,46.116396],[-122.962728,46.11639],[-122.962728,46.11621],[-122.963313,46.116209],[-122.963366,46.116181],[-122.963377,46.11612],[-122.963505,46.11612],[-122.963511,46.116177],[-122.96356,46.116208],[-122.963763,46.11621],[-122.963776,46.116276],[-122.963893,46.1163],[-122.963927,46.116381],[-122.964151,46.11639],[-122.964169,46.11655],[-122.964281,46.11657],[-122.964315,46.116651],[-122.96441,46.11666],[-122.964439,46.116738],[-122.96454,46.11675],[-122.964568,46.116828],[-122.964669,46.11684],[-122.964666,46.117],[-122.964798,46.11702],[-122.964816,46.117091],[-122.964928,46.117111],[-122.964945,46.117181],[-122.965057,46.117201],[-122.965075,46.117271],[-122.965186,46.117291],[-122.965195,46.117352],[-122.965249,46.11738],[-122.965383,46.11738],[-122.965436,46.117352],[-122.965445,46.117111],[-122.96552,46.117108],[-122.965566,46.117082],[-122.965575,46.116841],[-122.965682,46.116825],[-122.965704,46.116751],[-122.966481,46.116751],[-122.966484,46.116803],[-122.966522,46.116835],[-122.96674,46.116841],[-122.966743,46.116906],[-122.966786,46.11694],[-122.966998,46.116931],[-122.967002,46.117073],[-122.967046,46.117107],[-122.967128,46.117111],[-122.967129,46.117248],[-122.967169,46.117285],[-122.967461,46.117289],[-122.96751,46.117258],[-122.967516,46.117201],[-122.967645,46.117201],[-122.967654,46.117353],[-122.9677,46.117379],[-122.967775,46.117381],[-122.967809,46.117462],[-122.967904,46.117471],[-122.96791,46.117708],[-122.967952,46.117737],[-122.968033,46.117741],[-122.968051,46.117902],[-122.968163,46.117921]],[[-122.967001,46.117292],[-122.966944,46.117277],[-122.966886,46.117298],[-122.966869,46.117346],[-122.966896,46.117382],[-122.966959,46.117394],[-122.967018,46.117368],[-122.967032,46.117328],[-122.967001,46.117292]]]}},{"type":"Feature","properties":{"id":73,"area_m2":51100,"px":511,"rank":2,"persistent":false},"geometry":{"type":"Polygon","coordinates":[[[-122.962473,46.11081],[-122.962473,46.11108],[-122.962398,46.111082],[-122.962353,46.111108],[-122.962343,46.111259],[-122.962242,46.111272],[-122.962214,46.111349],[-122.962119,46.111359],[-122.962084,46.111439],[-122.961968,46.111463],[-122.961955,46.111619],[-122.961848,46.111635],[-122.961825,46.111709],[-122.961709,46.111733],[-122.961696,46.111799],[-122.96137,46.1118],[-122.961317,46.111828],[-122.961307,46.111889],[-122.961049,46.111889],[-122.961026,46.111815],[-122.960919,46.111799],[-122.960897,46.111635],[-122.960661,46.111619],[-122.960638,46.111545],[-122.960531,46.111529],[-122.960514,46.111459],[-122.960402,46.111439],[-122.960368,46.111358],[-122.960273,46.111349],[-122.960244,46.111271],[-122.960143,46.111259],[-122.960142,46.111032],[-122.960103,46.110995],[-122.960014,46.110989],[-122.959992,46.110825],[-122.959626,46.110809],[-122.959592,46.110728],[-122.959367,46.110718],[-122.959354,46.110653],[-122.959238,46.110628],[-122.95921,46.110551],[-122.958979,46.110538],[-122.958957,46.110464],[-122.95885,46.110448],[-122.958847,46.110307],[-122.958802,46.110272],[-122.958721,46.110268],[-122.958704,46.110095],[-122.958646,46.110074],[-122.958462,46.110088],[-122.958453,46.109937],[-122.958407,46.10991],[-122.958333,46.109908],[-122.958333,46.109728],[-122.958428,46.109719],[-122.958462,46.109638],[-122.958574,46.109618],[-122.958592,46.109458],[-122.958699,46.109442],[-122.958721,46.109368],[-122.958822,46.109356],[-122.958851,46.109278],[-122.958946,46.109269],[-122.95898,46.109188],[-122.959092,46.109169],[-122.95911,46.109098],[-122.959298,46.109098],[-122.959351,46.109079],[-122.959369,46.108919],[-122.959475,46.108903],[-122.959498,46.108829],[-122.959627,46.108829],[-122.959631,46.10897],[-122.959675,46.109004],[-122.959757,46.109009],[-122.959738,46.109144],[-122.959799,46.109188],[-122.959953,46.109188],[-122.960006,46.10916],[-122.960016,46.108919],[-122.960274,46.108919],[-122.960297,46.108993],[-122.960404,46.109009],[-122.960438,46.10909],[-122.960533,46.109099],[-122.960533,46.109188],[-122.960303,46.109201],[-122.960259,46.109334],[-122.960309,46.109366],[-122.960403,46.109369],[-122.960409,46.109426],[-122.960451,46.109455],[-122.960662,46.109459],[-122.960675,46.109615],[-122.960791,46.109639],[-122.960826,46.10972],[-122.960921,46.109729],[-122.960938,46.109979],[-122.960991,46.109999],[-122.961309,46.109999],[-122.961326,46.110069],[-122.961438,46.110089],[-122.961473,46.11017],[-122.961567,46.110179],[-122.961596,46.110257],[-122.961697,46.110269],[-122.961725,46.110347],[-122.961826,46.110359],[-122.961855,46.110437],[-122.962085,46.11045],[-122.962103,46.11061],[-122.962214,46.11063],[-122.962249,46.11071],[-122.962344,46.11072],[-122.962372,46.110797],[-122.962473,46.11081]]]}},{"type":"Feature","properties":{"id":68,"area_m2":34200,"px":342,"rank":3,"persistent":false},"geometry":{"type":"Polygon","coordinates":[[[-122.959496,46.110989],[-122.959496,46.111259],[-122.95939,46.111274],[-122.959367,46.111348],[-122.959136,46.111361],[-122.959108,46.111438],[-122.958992,46.111462],[-122.958978,46.111528],[-122.95859,46.111528],[-122.958587,46.111477],[-122.958549,46.111445],[-122.958202,46.111438],[-122.958196,46.111381],[-122.958147,46.11135],[-122.957849,46.111357],[-122.957814,46.111397],[-122.957814,46.111528],[-122.957719,46.111537],[-122.957684,46.111618],[-122.957603,46.111622],[-122.957561,46.111651],[-122.957555,46.111888],[-122.957448,46.111904],[-122.957425,46.111978],[-122.957309,46.112002],[-122.957296,46.112068],[-122.95706,46.112084],[-122.957037,46.112248],[-122.956671,46.112263],[-122.956648,46.112517],[-122.956542,46.112533],[-122.956519,46.112607],[-122.95639,46.112607],[-122.956377,46.112541],[-122.95626,46.112517],[-122.956254,46.112461],[-122.956212,46.112431],[-122.956072,46.112428],[-122.956015,46.112451],[-122.956014,46.112583],[-122.956131,46.112607],[-122.956165,46.112688],[-122.95626,46.112697],[-122.95626,46.112876],[-122.956144,46.112901],[-122.95613,46.113057],[-122.956024,46.113073],[-122.956001,46.113147],[-122.955742,46.113147],[-122.955733,46.113086],[-122.95568,46.113058],[-122.955295,46.113057],[-122.955228,46.113095],[-122.955224,46.113237],[-122.955095,46.113237],[-122.955095,46.113057],[-122.955169,46.113055],[-122.955215,46.113028],[-122.955225,46.112877],[-122.955413,46.112877],[-122.955466,46.112857],[-122.955484,46.112697],[-122.955565,46.112693],[-122.95561,46.112659],[-122.955613,46.112517],[-122.955708,46.112508],[-122.955743,46.112427],[-122.955859,46.112403],[-122.955872,46.112247],[-122.955954,46.112243],[-122.955998,46.112209],[-122.956002,46.112067],[-122.956076,46.112065],[-122.956122,46.112039],[-122.956131,46.111887],[-122.956232,46.111875],[-122.956261,46.111797],[-122.956356,46.111788],[-122.95639,46.111707],[-122.956465,46.111705],[-122.956511,46.111679],[-122.95652,46.111528],[-122.956608,46.111521],[-122.956648,46.111484],[-122.95665,46.111258],[-122.956744,46.111248],[-122.956779,46.111168],[-122.956853,46.111165],[-122.956899,46.111139],[-122.956909,46.110898],[-122.956997,46.110891],[-122.957036,46.110854],[-122.957038,46.110628],[-122.957133,46.110619],[-122.957168,46.110538],[-122.957284,46.110514],[-122.957297,46.110358],[-122.957379,46.110354],[-122.957423,46.110319],[-122.957427,46.110178],[-122.957644,46.110171],[-122.957682,46.11014],[-122.957686,46.110088],[-122.957944,46.110088],[-122.957957,46.110154],[-122.958074,46.110178],[-122.958102,46.110256],[-122.958332,46.110268],[-122.958355,46.110342],[-122.958462,46.110358],[-122.958468,46.110505],[-122.95851,46.110534],[-122.958591,46.110538],[-122.958618,46.110629],[-122.95885,46.110628],[-122.958867,46.110699],[-122.958979,46.110718],[-122.959014,46.110799],[-122.959108,46.110808],[-122.959137,46.110886],[-122.959367,46.110899],[-122.95939,46.110973],[-122.959496,46.110989]]]}},{"type":"Feature","properties":{"id":7,"area_m2":20100,"px":201,"rank":4,"persistent":true},"geometry":{"type":"Polygon","coordinates":[[[-122.981619,46.127285],[-122.981619,46.127374],[-122.98149,46.127374],[-122.981481,46.127313],[-122.981427,46.127286],[-122.981286,46.127287],[-122.981232,46.127328],[-122.981216,46.12752],[-122.981273,46.127553],[-122.98149,46.127555],[-122.98149,46.127734],[-122.98136,46.127734],[-122.981292,46.12771],[-122.981142,46.127741],[-122.981105,46.127773],[-122.981101,46.127824],[-122.980985,46.127848],[-122.980972,46.127914],[-122.980754,46.127921],[-122.980716,46.127953],[-122.980713,46.128004],[-122.980584,46.128004],[-122.980578,46.127948],[-122.980528,46.127917],[-122.980325,46.127914],[-122.980302,46.12784],[-122.980195,46.127824],[-122.980186,46.127673],[-122.98014,46.127647],[-122.980066,46.127644],[-122.980031,46.127563],[-122.979936,46.127554],[-122.979933,46.127323],[-122.979889,46.127288],[-122.979807,46.127284],[-122.979807,46.127194],[-122.979889,46.12719],[-122.979933,46.127156],[-122.979931,46.126958],[-122.979874,46.126925],[-122.979678,46.126923],[-122.979678,46.126834],[-122.979759,46.12683],[-122.979804,46.126796],[-122.979807,46.126654],[-122.979896,46.126648],[-122.979935,46.126611],[-122.979937,46.126114],[-122.980173,46.126098],[-122.980196,46.125934],[-122.980325,46.125934],[-122.980326,46.126066],[-122.980354,46.126102],[-122.980584,46.126114],[-122.980597,46.12618],[-122.980713,46.126204],[-122.980742,46.126282],[-122.980972,46.126294],[-122.980995,46.126369],[-122.981102,46.126385],[-122.981115,46.12645],[-122.981231,46.126475],[-122.98126,46.126552],[-122.98136,46.126565],[-122.98137,46.126716],[-122.981416,46.126742],[-122.98149,46.126745],[-122.98149,46.127104],[-122.981457,46.127163],[-122.981513,46.127269],[-122.981619,46.127285]]]}},{"type":"Feature","properties":{"id":46,"area_m2":14700,"px":147,"rank":5,"persistent":false},"geometry":{"type":"Polygon","coordinates":[[[-122.961304,46.117469],[-122.961303,46.117739],[-122.961115,46.11774],[-122.961058,46.117763],[-122.961044,46.118009],[-122.960786,46.118009],[-122.960757,46.117931],[-122.960527,46.117919],[-122.960521,46.117862],[-122.960472,46.117831],[-122.960079,46.117829],[-122.960013,46.117867],[-122.960009,46.118009],[-122.959683,46.11801],[-122.95963,46.118037],[-122.959621,46.118099],[-122.959491,46.118099],[-122.95949,46.117962],[-122.95945,46.117925],[-122.958715,46.117918],[-122.958693,46.117741],[-122.95864,46.117725],[-122.958456,46.117738],[-122.958457,46.117468],[-122.958645,46.117468],[-122.958702,46.117444],[-122.958716,46.117198],[-122.959362,46.117199],[-122.959391,46.117276],[-122.959553,46.117313],[-122.959722,46.117276],[-122.959751,46.117199],[-122.95988,46.117199],[-122.959893,46.117265],[-122.959958,46.117289],[-122.960105,46.11728],[-122.960139,46.117199],[-122.960916,46.117199],[-122.960919,46.117251],[-122.960957,46.117283],[-122.961174,46.117289],[-122.961183,46.117441],[-122.961229,46.117467],[-122.961304,46.117469]],[[-122.959621,46.117419],[-122.959561,46.117366],[-122.959397,46.117388],[-122.959363,46.117427],[-122.959375,46.117535],[-122.959531,46.117572],[-122.959588,46.117563],[-122.95962,46.117529],[-122.959621,46.117419]]]}},{"type":"Feature","properties":{"id":30,"area_m2":14500,"px":145,"rank":6,"persistent":false},"geometry":{"type":"Polygon","coordinates":[[[-122.966736,46.122241],[-122.966736,46.122421],[-122.96663,46.122437],[-122.966607,46.122511],[-122.966418,46.122511],[-122.966366,46.122531],[-122.966348,46.122691],[-122.966247,46.122703],[-122.966218,46.122781],[-122.966117,46.122793],[-122.966089,46.122871],[-122.965988,46.122883],[-122.965959,46.122961],[-122.965864,46.12297],[-122.96583,46.123051],[-122.965714,46.123075],[-122.9657,46.123231],[-122.965571,46.123231],[-122.965562,46.123169],[-122.965508,46.123142],[-122.965053,46.123141],[-122.96504,46.122985],[-122.964924,46.122961],[-122.964889,46.12288],[-122.964795,46.12287],[-122.964785,46.122719],[-122.96474,46.122693],[-122.964665,46.12269],[-122.964665,46.122511],[-122.964772,46.122495],[-122.964795,46.122421],[-122.964896,46.122408],[-122.964924,46.122331],[-122.965025,46.122318],[-122.965054,46.122241],[-122.965155,46.122228],[-122.965183,46.122151],[-122.965284,46.122138],[-122.965313,46.122061],[-122.965408,46.122052],[-122.965442,46.121971],[-122.965554,46.121951],[-122.965572,46.121881],[-122.965905,46.121879],[-122.965954,46.121848],[-122.96596,46.121791],[-122.966219,46.121791],[-122.966242,46.121865],[-122.966348,46.121881],[-122.966361,46.121947],[-122.966478,46.121971],[-122.966506,46.122049],[-122.966607,46.122061],[-122.966625,46.122221],[-122.966736,46.122241]]]}},{"type":"Feature","properties":{"id":36,"area_m2":13700,"px":137,"rank":7,"persistent":false},"geometry":{"type":"Polygon","coordinates":[[[-122.964666,46.120801],[-122.964666,46.12089],[-122.96456,46.120906],[-122.964537,46.12098],[-122.964348,46.120981],[-122.964291,46.121004],[-122.964278,46.12116],[-122.964162,46.121184],[-122.964148,46.12134],[-122.964042,46.121356],[-122.964019,46.12143],[-122.963693,46.121431],[-122.96364,46.121459],[-122.96363,46.12152],[-122.963501,46.12152],[-122.963492,46.121369],[-122.963446,46.121342],[-122.963372,46.12134],[-122.963372,46.12107],[-122.963479,46.121054],[-122.963502,46.12098],[-122.96369,46.12098],[-122.963743,46.12096],[-122.963768,46.120735],[-122.963711,46.12071],[-122.963372,46.12071],[-122.963363,46.120649],[-122.96331,46.120621],[-122.962984,46.12062],[-122.962984,46.12044],[-122.963073,46.120434],[-122.963112,46.120396],[-122.963112,46.120303],[-122.963073,46.120266],[-122.962896,46.120266],[-122.962858,46.120298],[-122.962855,46.12035],[-122.962738,46.120374],[-122.962725,46.12044],[-122.962598,46.12044],[-122.962573,46.120366],[-122.962467,46.12035],[-122.962467,46.12026],[-122.962561,46.120251],[-122.962596,46.12017],[-122.962712,46.120146],[-122.962726,46.11999],[-122.962807,46.119986],[-122.962852,46.119952],[-122.962855,46.11981],[-122.963073,46.119804],[-122.963111,46.119772],[-122.963114,46.11972],[-122.963243,46.11972],[-122.963261,46.11979],[-122.963373,46.11981],[-122.963386,46.119876],[-122.963502,46.1199],[-122.963508,46.119957],[-122.963557,46.119988],[-122.963726,46.119981],[-122.963761,46.1199],[-122.96402,46.1199],[-122.964033,46.120056],[-122.964149,46.12008],[-122.964184,46.120161],[-122.964279,46.120172],[-122.964278,46.12035],[-122.964184,46.120359],[-122.964149,46.12044],[-122.964033,46.120464],[-122.964029,46.120592],[-122.964089,46.12062],[-122.964408,46.12062],[-122.96443,46.120695],[-122.964537,46.12071],[-122.964572,46.120791],[-122.964666,46.120801]]]}},{"type":"Feature","properties":{"id":61,"area_m2":13300,"px":133,"rank":8,"persistent":false},"geometry":{"type":"Polygon","coordinates":[[[-122.956906,46.113688],[-122.956906,46.113958],[-122.956688,46.113964],[-122.956651,46.113996],[-122.956647,46.114048],[-122.956164,46.114056],[-122.956129,46.114137],[-122.956055,46.11414],[-122.956009,46.114166],[-122.956,46.114317],[-122.955893,46.114333],[-122.95587,46.114407],[-122.955612,46.114407],[-122.955589,46.114333],[-122.955482,46.114317],[-122.955479,46.114162],[-122.955407,46.114123],[-122.955237,46.114161],[-122.955223,46.114317],[-122.95502,46.114319],[-122.954971,46.11435],[-122.954965,46.114407],[-122.954835,46.114407],[-122.954822,46.114251],[-122.954706,46.114227],[-122.954671,46.114146],[-122.954577,46.114137],[-122.954577,46.113957],[-122.954611,46.113914],[-122.954577,46.113867],[-122.954577,46.113687],[-122.954684,46.113671],[-122.954707,46.113597],[-122.955066,46.113585],[-122.955095,46.113507],[-122.955196,46.113495],[-122.955224,46.113417],[-122.955319,46.113408],[-122.955354,46.113327],[-122.95547,46.113303],[-122.955483,46.113147],[-122.955613,46.113147],[-122.955622,46.113209],[-122.955675,46.113236],[-122.956001,46.113237],[-122.956001,46.113472],[-122.95604,46.113514],[-122.956518,46.113508],[-122.956553,46.113588],[-122.956777,46.113598],[-122.9568,46.113672],[-122.956906,46.113688]]]}},{"type":"Feature","properties":{"id":22,"area_m2":12800,"px":128,"rank":9,"persistent":false},"geometry":{"type":"Polygon","coordinates":[[[-122.970359,46.123862],[-122.970359,46.123952],[-122.970271,46.123958],[-122.97023,46.124001],[-122.970231,46.124269],[-122.970271,46.124306],[-122.970359,46.124312],[-122.970359,46.124491],[-122.970285,46.124494],[-122.970239,46.124521],[-122.97023,46.124672],[-122.970005,46.124681],[-122.969971,46.124721],[-122.969971,46.124852],[-122.969864,46.124868],[-122.969841,46.124942],[-122.96963,46.124946],[-122.969588,46.124975],[-122.969582,46.125032],[-122.96945,46.125052],[-122.969453,46.125302],[-122.968935,46.125302],[-122.968912,46.125138],[-122.968676,46.125122],[-122.968654,46.125048],[-122.968547,46.125032],[-122.968512,46.124951],[-122.968418,46.124942],[-122.968408,46.12479],[-122.968362,46.124764],[-122.968288,46.124762],[-122.968288,46.124492],[-122.968418,46.124492],[-122.968421,46.124647],[-122.968508,46.124685],[-122.968635,46.124665],[-122.968676,46.124623],[-122.968673,46.12444],[-122.968629,46.124406],[-122.968547,46.124402],[-122.968547,46.124312],[-122.968677,46.124312],[-122.968738,46.124336],[-122.968806,46.124312],[-122.969065,46.124312],[-122.969068,46.124363],[-122.969106,46.124395],[-122.969241,46.124416],[-122.969302,46.124399],[-122.969324,46.124222],[-122.969359,46.124179],[-122.969324,46.124131],[-122.969324,46.124042],[-122.969359,46.123999],[-122.969324,46.123952],[-122.969324,46.123682],[-122.969431,46.123666],[-122.969454,46.123592],[-122.96957,46.123568],[-122.969583,46.123502],[-122.969713,46.123502],[-122.969735,46.123576],[-122.969842,46.123592],[-122.969876,46.123673],[-122.969971,46.123682],[-122.969972,46.123827],[-122.970004,46.123866],[-122.970359,46.123862]],[[-122.969393,46.124839],[-122.969087,46.124868],[-122.969065,46.124906],[-122.969087,46.125016],[-122.96937,46.125046],[-122.969431,46.125029],[-122.969447,46.124872],[-122.969393,46.124839]],[[-122.96958,46.12476],[-122.969529,46.124738],[-122.969471,46.124748],[-122.969434,46.124791],[-122.96945,46.124831],[-122.969503,46.124852],[-122.969575,46.124839],[-122.969602,46.124802],[-122.96958,46.12476]],[[-122.969842,46.124402],[-122.969923,46.124398],[-122.969965,46.124369],[-122.96997,46.124175],[-122.969916,46.124134],[-122.969775,46.124133],[-122.969714,46.124175],[-122.969712,46.124312],[-122.969617,46.124321],[-122.969583,46.124402],[-122.969508,46.124404],[-122.969462,46.12443],[-122.969466,46.124571],[-122.969528,46.124596],[-122.969678,46.124573],[-122.969712,46.124492],[-122.969828,46.124468],[-122.969842,46.124402]]]}},{"type":"Feature","properties":{"id":65,"area_m2":12200,"px":122,"rank":10,"persistent":false},"geometry":{"type":"Polygon","coordinates":[[[-122.963118,46.11324],[-122.963118,46.11342],[-122.963017,46.113432],[-122.962989,46.11351],[-122.962894,46.113519],[-122.962859,46.1136],[-122.962778,46.113604],[-122.962736,46.113633],[-122.962695,46.113732],[-122.96273,46.11378],[-122.96273,46.11396],[-122.962341,46.11396],[-122.962319,46.113885],[-122.962212,46.113869],[-122.962199,46.113714],[-122.962083,46.113689],[-122.96207,46.113443],[-122.961954,46.113419],[-122.961919,46.113339],[-122.961824,46.113329],[-122.961818,46.113183],[-122.961776,46.113153],[-122.961695,46.113149],[-122.96166,46.113068],[-122.961566,46.113059],[-122.961548,46.112899],[-122.961436,46.112879],[-122.961402,46.112798],[-122.961307,46.112789],[-122.961307,46.112609],[-122.961667,46.112597],[-122.96173,46.112477],[-122.961695,46.112429],[-122.961696,46.112249],[-122.961954,46.112249],[-122.961977,46.112324],[-122.962084,46.11234],[-122.962118,46.11242],[-122.962213,46.11243],[-122.962231,46.11259],[-122.962342,46.11261],[-122.962377,46.11269],[-122.962472,46.1127],[-122.9625,46.112777],[-122.962601,46.11279],[-122.962629,46.112867],[-122.96273,46.11288],[-122.962759,46.112957],[-122.96286,46.11297],[-122.962873,46.113126],[-122.962989,46.11315],[-122.963023,46.113231],[-122.963118,46.11324]]]}},{"type":"Feature","properties":{"id":51,"area_m2":11100,"px":111,"rank":11,"persistent":false},"geometry":{"type":"Polygon","coordinates":[[[-122.960528,46.116659],[-122.960528,46.116839],[-122.960421,46.116855],[-122.960398,46.116929],[-122.960303,46.116938],[-122.960269,46.117019],[-122.960157,46.117039],[-122.960139,46.117109],[-122.959751,46.117109],[-122.959723,46.117031],[-122.959568,46.116995],[-122.959492,46.117019],[-122.959104,46.117018],[-122.959095,46.116957],[-122.959041,46.11693],[-122.958457,46.116928],[-122.958434,46.116854],[-122.958328,46.116838],[-122.958328,46.116568],[-122.958524,46.116567],[-122.958583,46.11653],[-122.958587,46.116208],[-122.958846,46.116208],[-122.958855,46.11627],[-122.958908,46.116297],[-122.959751,46.116299],[-122.959757,46.116355],[-122.959807,46.116386],[-122.959942,46.116413],[-122.96001,46.116389],[-122.96014,46.116389],[-122.960162,46.116463],[-122.960269,46.116479],[-122.960282,46.116545],[-122.960398,46.116569],[-122.960427,46.116647],[-122.960528,46.116659]]]}},{"type":"Feature","properties":{"id":70,"area_m2":10900,"px":109,"rank":12,"persistent":false},"geometry":{"type":"Polygon","coordinates":[[[-122.960919,46.112609],[-122.960919,46.112789],[-122.960812,46.112805],[-122.960789,46.112879],[-122.960694,46.112888],[-122.96066,46.112969],[-122.960548,46.112989],[-122.96053,46.113059],[-122.960142,46.113059],[-122.960136,46.112912],[-122.960094,46.112883],[-122.960013,46.112879],[-122.96001,46.112737],[-122.959965,46.112703],[-122.959884,46.112699],[-122.959871,46.112543],[-122.959814,46.112519],[-122.959625,46.112519],[-122.959616,46.112367],[-122.95957,46.112341],[-122.959496,46.112339],[-122.959496,46.112159],[-122.95957,46.112156],[-122.959616,46.11213],[-122.959625,46.111979],[-122.959659,46.111941],[-122.959625,46.111889],[-122.959626,46.111529],[-122.960014,46.111529],[-122.960042,46.111607],[-122.960272,46.111619],[-122.960295,46.111693],[-122.960402,46.111709],[-122.960436,46.11179],[-122.960531,46.111799],[-122.96054,46.11195],[-122.960586,46.111977],[-122.96066,46.11198],[-122.96066,46.112249],[-122.960566,46.112251],[-122.960523,46.112274],[-122.960534,46.112391],[-122.960579,46.112425],[-122.96066,46.112429],[-122.960695,46.11251],[-122.960789,46.112519],[-122.960818,46.112597],[-122.960919,46.112609]]]}},{"type":"Feature","properties":{"id":57,"area_m2":10400,"px":104,"rank":13,"persistent":false},"geometry":{"type":"Polygon","coordinates":[[[-122.957682,46.115128],[-122.957682,46.115218],[-122.957464,46.115224],[-122.957426,46.115256],[-122.957423,46.115308],[-122.957219,46.11531],[-122.95717,46.115341],[-122.957164,46.115398],[-122.95694,46.115407],[-122.956905,46.115488],[-122.956517,46.115487],[-122.956514,46.115422],[-122.956471,46.115388],[-122.956258,46.115397],[-122.956258,46.115308],[-122.95637,46.115288],[-122.956422,46.115175],[-122.956354,46.115033],[-122.956129,46.115037],[-122.956129,46.114947],[-122.956217,46.114941],[-122.956257,46.114904],[-122.956259,46.114497],[-122.95647,46.114493],[-122.956512,46.114464],[-122.956518,46.114408],[-122.956728,46.114403],[-122.95677,46.114374],[-122.956777,46.114318],[-122.95698,46.114315],[-122.957029,46.114284],[-122.957035,46.114228],[-122.957165,46.114228],[-122.957187,46.114302],[-122.957294,46.114318],[-122.957307,46.114384],[-122.957423,46.114408],[-122.957452,46.114486],[-122.957553,46.114498],[-122.957553,46.114588],[-122.957441,46.114608],[-122.957404,46.114723],[-122.957451,46.114764],[-122.957552,46.114768],[-122.957554,46.115084],[-122.957593,46.115122],[-122.957682,46.115128]]]}},{"type":"Feature","properties":{"id":2,"area_m2":6300,"px":63,"rank":14,"persistent":false},"geometry":{"type":"Polygon","coordinates":[[[-122.988478,46.133046],[-122.988478,46.133675],[-122.988349,46.133675],[-122.98828,46.133651],[-122.988124,46.133685],[-122.98809,46.133724],[-122.98809,46.133855],[-122.987831,46.133855],[-122.987828,46.133804],[-122.98779,46.133772],[-122.987572,46.133765],[-122.987549,46.133691],[-122.987443,46.133675],[-122.987425,46.133605],[-122.987313,46.133585],[-122.987279,46.133505],[-122.987184,46.133495],[-122.987155,46.133418],[-122.987054,46.133405],[-122.987026,46.133328],[-122.986925,46.133315],[-122.986925,46.133225],[-122.987054,46.133225],[-122.98706,46.133282],[-122.987109,46.133313],[-122.987291,46.1333],[-122.98731,46.133174],[-122.987265,46.13314],[-122.987184,46.133135],[-122.987184,46.133045],[-122.987291,46.13303],[-122.987313,46.132955],[-122.987539,46.13296],[-122.987572,46.132865],[-122.987679,46.13285],[-122.987702,46.132776],[-122.98809,46.132776],[-122.988113,46.13294],[-122.988349,46.132956],[-122.988372,46.13303],[-122.988478,46.133046]],[[-122.988222,46.133317],[-122.988218,46.133179],[-122.988178,46.133142],[-122.987757,46.133138],[-122.987703,46.133179],[-122.987702,46.133315],[-122.98762,46.13332],[-122.987578,46.133349],[-122.987576,46.133457],[-122.98762,46.133491],[-122.987702,46.133496],[-122.987708,46.133552],[-122.98775,46.133581],[-122.988037,46.133597],[-122.988084,46.133566],[-122.98809,46.133496],[-122.988171,46.133491],[-122.988214,46.133462],[-122.988254,46.133363],[-122.988222,46.133317]]]}},{"type":"Feature","properties":{"id":56,"area_m2":5000,"px":50,"rank":15,"persistent":false},"geometry":{"type":"Polygon","coordinates":[[[-122.959493,46.115669],[-122.959493,46.115849],[-122.959386,46.115864],[-122.959363,46.115939],[-122.958975,46.115938],[-122.958941,46.115858],[-122.958777,46.115836],[-122.958718,46.115878],[-122.958716,46.116028],[-122.958328,46.116028],[-122.958305,46.115954],[-122.958199,46.115938],[-122.958186,46.115782],[-122.95807,46.115758],[-122.95807,46.115668],[-122.958151,46.115664],[-122.958196,46.11563],[-122.958199,46.115488],[-122.958306,46.115472],[-122.958329,46.115398],[-122.958846,46.115398],[-122.958881,46.115479],[-122.959105,46.115489],[-122.959139,46.115569],[-122.959364,46.115579],[-122.959386,46.115653],[-122.959493,46.115669]]]}},{"type":"Feature","properties":{"id":28,"area_m2":4600,"px":46,"rank":16,"persistent":false},"geometry":{"type":"Polygon","coordinates":[[[-122.969066,46.123142],[-122.969065,46.123322],[-122.968959,46.123338],[-122.968936,46.123412],[-122.96882,46.123436],[-122.968806,46.123502],[-122.968677,46.123502],[-122.968609,46.123478],[-122.968548,46.123502],[-122.9681,46.123502],[-122.968039,46.12353],[-122.96803,46.123591],[-122.967901,46.123591],[-122.967878,46.123517],[-122.967771,46.123501],[-122.967762,46.12335],[-122.967716,46.123324],[-122.967642,46.123321],[-122.967613,46.123244],[-122.967324,46.123232],[-122.967254,46.12328],[-122.967253,46.123591],[-122.966736,46.123591],[-122.966736,46.123501],[-122.966837,46.123489],[-122.966865,46.123411],[-122.966966,46.123399],[-122.966995,46.123321],[-122.96709,46.123312],[-122.967124,46.123231],[-122.96724,46.123207],[-122.967254,46.123051],[-122.967466,46.123061],[-122.967509,46.123027],[-122.967513,46.122961],[-122.967642,46.122961],[-122.967645,46.123103],[-122.96769,46.123137],[-122.967771,46.123141],[-122.967789,46.123302],[-122.967841,46.123321],[-122.96803,46.123322],[-122.968039,46.123383],[-122.968093,46.12341],[-122.968348,46.123411],[-122.968405,46.123388],[-122.968415,46.12327],[-122.96837,46.123236],[-122.968289,46.123231],[-122.968289,46.123143],[-122.968396,46.123126],[-122.968419,46.123052],[-122.968807,46.123052],[-122.96881,46.123103],[-122.968848,46.123135],[-122.969066,46.123142]]]}},{"type":"Feature","properties":{"id":14,"area_m2":4000,"px":40,"rank":17,"persistent":false},"geometry":{"type":"Polygon","coordinates":[[[-122.974629,46.126833],[-122.974629,46.126923],[-122.974541,46.12693],[-122.974502,46.126967],[-122.9745,46.127193],[-122.974371,46.127193],[-122.974353,46.127123],[-122.974241,46.127103],[-122.974207,46.127022],[-122.974112,46.127013],[-122.974083,46.126935],[-122.973853,46.126923],[-122.97385,46.126781],[-122.973805,46.126747],[-122.973724,46.126743],[-122.973723,46.126612],[-122.973695,46.126575],[-122.973335,46.126563],[-122.973313,46.126399],[-122.973077,46.126383],[-122.973073,46.126241],[-122.973029,46.126207],[-122.972947,46.126203],[-122.972947,46.126113],[-122.973054,46.126097],[-122.973077,46.126023],[-122.973206,46.126023],[-122.973229,46.126097],[-122.973335,46.126113],[-122.973369,46.126207],[-122.973594,46.126203],[-122.973598,46.126345],[-122.973642,46.126379],[-122.973724,46.126383],[-122.973724,46.126514],[-122.973752,46.126551],[-122.973914,46.126587],[-122.973983,46.126563],[-122.974112,46.126563],[-122.974118,46.126633],[-122.974172,46.126666],[-122.9745,46.126653],[-122.974489,46.126803],[-122.974535,46.126831],[-122.974629,46.126833]]]}},{"type":"Feature","properties":{"id":50,"area_m2":4000,"px":40,"rank":18,"persistent":false},"geometry":{"type":"Polygon","coordinates":[[[-122.958069,46.116748],[-122.958068,46.117288],[-122.95768,46.117288],[-122.957657,46.117214],[-122.957551,46.117198],[-122.957516,46.117117],[-122.957421,46.117108],[-122.957425,46.116948],[-122.957292,46.116928],[-122.957269,46.116854],[-122.957163,46.116838],[-122.957128,46.116757],[-122.957033,46.116748],[-122.957034,46.116568],[-122.957251,46.116561],[-122.957289,46.11653],[-122.957293,46.116478],[-122.957939,46.116478],[-122.957939,46.116568],[-122.95758,46.11658],[-122.957536,46.116713],[-122.957601,46.116748],[-122.958069,46.116748]]]}},{"type":"Feature","properties":{"id":66,"area_m2":4000,"px":40,"rank":19,"persistent":false},"geometry":{"type":"Polygon","coordinates":[[[-122.959754,46.112879],[-122.959754,46.113239],[-122.959653,46.113251],[-122.959624,46.113329],[-122.959529,46.113338],[-122.959495,46.113419],[-122.959383,46.113438],[-122.959365,46.113599],[-122.959259,46.113614],[-122.959236,46.113688],[-122.959119,46.113712],[-122.959106,46.113778],[-122.958903,46.113781],[-122.958853,46.113812],[-122.958847,46.113868],[-122.958718,46.113868],[-122.958695,46.113794],[-122.958589,46.113778],[-122.958589,46.113598],[-122.958684,46.113589],[-122.958718,46.113508],[-122.958835,46.113484],[-122.958848,46.113328],[-122.959084,46.113313],[-122.959107,46.113239],[-122.959188,46.113234],[-122.95923,46.113205],[-122.959236,46.113059],[-122.959425,46.113058],[-122.959482,46.113035],[-122.959495,46.112879],[-122.959754,46.112879]]]}},{"type":"Feature","properties":{"id":32,"area_m2":3600,"px":36,"rank":20,"persistent":false},"geometry":{"type":"Polygon","coordinates":[[[-122.975149,46.122603],[-122.975149,46.122693],[-122.974943,46.122682],[-122.974896,46.122713],[-122.97489,46.122783],[-122.974654,46.122799],[-122.974631,46.122963],[-122.974502,46.122963],[-122.974493,46.122902],[-122.974439,46.122874],[-122.974114,46.122873],[-122.974091,46.122799],[-122.973984,46.122783],[-122.973984,46.122513],[-122.974066,46.122509],[-122.97411,46.122475],[-122.974114,46.122243],[-122.974243,46.122243],[-122.974256,46.122309],[-122.974373,46.122333],[-122.974379,46.12239],[-122.974428,46.122421],[-122.97489,46.122423],[-122.974913,46.122497],[-122.97502,46.122513],[-122.975054,46.122594],[-122.975149,46.122603]]]}},{"type":"Feature","properties":{"id":58,"area_m2":3600,"px":36,"rank":21,"persistent":false},"geometry":{"type":"Polygon","coordinates":[[[-122.958847,46.114768],[-122.958846,46.115128],[-122.957941,46.115128],[-122.957941,46.114678],[-122.958159,46.114672],[-122.958196,46.11464],[-122.9582,46.114588],[-122.958588,46.114588],[-122.958611,46.114752],[-122.958847,46.114768]]]}},{"type":"Feature","properties":{"id":45,"area_m2":3400,"px":34,"rank":22,"persistent":false},"geometry":{"type":"Polygon","coordinates":[[[-122.962468,46.11801],[-122.962468,46.11819],[-122.962361,46.118205],[-122.962338,46.11828],[-122.962222,46.118304],[-122.962209,46.11837],[-122.96195,46.118369],[-122.961927,46.118295],[-122.961821,46.118279],[-122.961786,46.118199],[-122.961692,46.118189],[-122.961692,46.11774],[-122.96191,46.117733],[-122.961947,46.117701],[-122.961951,46.11765],[-122.962209,46.11765],[-122.962219,46.117801],[-122.962264,46.117827],[-122.962339,46.11783],[-122.962356,46.11799],[-122.962468,46.11801]]]}},{"type":"Feature","properties":{"id":60,"area_m2":2900,"px":29,"rank":23,"persistent":false},"geometry":{"type":"Polygon","coordinates":[[[-122.962729,46.11432],[-122.962729,46.11441],[-122.962623,46.114426],[-122.9626,46.1145],[-122.962484,46.114524],[-122.96247,46.11459],[-122.962082,46.114589],[-122.962059,46.114515],[-122.961953,46.114499],[-122.96194,46.114343],[-122.961824,46.114319],[-122.961824,46.114139],[-122.96193,46.114124],[-122.961953,46.11405],[-122.962069,46.114026],[-122.962083,46.11396],[-122.962212,46.11396],[-122.962235,46.114034],[-122.962341,46.11405],[-122.962359,46.11412],[-122.962471,46.11414],[-122.962505,46.114221],[-122.9626,46.11423],[-122.962628,46.114307],[-122.962729,46.11432]]]}},{"type":"Feature","properties":{"id":49,"area_m2":2800,"px":28,"rank":24,"persistent":false},"geometry":{"type":"Polygon","coordinates":[[[-122.96221,46.11738],[-122.96221,46.11747],[-122.962103,46.117485],[-122.96208,46.11756],[-122.961692,46.117559],[-122.961669,46.117485],[-122.961563,46.117469],[-122.961528,46.117388],[-122.961433,46.117379],[-122.961416,46.117219],[-122.961304,46.117199],[-122.961304,46.116929],[-122.961563,46.116929],[-122.961576,46.116995],[-122.961692,46.117019],[-122.961727,46.1171],[-122.961951,46.11711],[-122.961974,46.117184],[-122.96208,46.1172],[-122.962093,46.117356],[-122.96221,46.11738]]]}},{"type":"Feature","properties":{"id":19,"area_m2":2600,"px":26,"rank":25,"persistent":false},"geometry":{"type":"Polygon","coordinates":[[[-122.970229,46.125572],[-122.970229,46.125932],[-122.969711,46.125932],[-122.969689,46.125858],[-122.969582,46.125842],[-122.969547,46.125761],[-122.969453,46.125752],[-122.969453,46.125572],[-122.969559,46.125556],[-122.969582,46.125482],[-122.969698,46.125458],[-122.969712,46.125392],[-122.969841,46.125392],[-122.969847,46.125449],[-122.969896,46.12548],[-122.9701,46.125482],[-122.970123,46.125556],[-122.970229,46.125572]]]}},{"type":"Feature","properties":{"id":35,"area_m2":2400,"px":24,"rank":26,"persistent":false},"geometry":{"type":"Polygon","coordinates":[[[-122.967513,46.121431],[-122.967513,46.121701],[-122.966996,46.121701],[-122.966978,46.121541],[-122.966866,46.121521],[-122.966832,46.12144],[-122.966737,46.121431],[-122.966709,46.121353],[-122.966608,46.121341],[-122.966608,46.121161],[-122.966714,46.121145],[-122.966737,46.121071],[-122.966866,46.121071],[-122.966889,46.121145],[-122.966996,46.121161],[-122.966996,46.121292],[-122.967024,46.121329],[-122.967255,46.121341],[-122.967261,46.121398],[-122.96731,46.121429],[-122.967513,46.121431]]]}},{"type":"Feature","properties":{"id":44,"area_m2":2400,"px":24,"rank":27,"persistent":false},"geometry":{"type":"Polygon","coordinates":[[[-122.960785,46.118189],[-122.960785,46.118369],[-122.960691,46.118372],[-122.960644,46.118399],[-122.960656,46.118549],[-122.960581,46.118551],[-122.960536,46.118578],[-122.960526,46.118729],[-122.960267,46.118729],[-122.960254,46.118663],[-122.96019,46.118639],[-122.959683,46.11864],[-122.95963,46.118667],[-122.95962,46.118729],[-122.959491,46.118729],[-122.959491,46.118459],[-122.960136,46.118459],[-122.960207,46.118483],[-122.960342,46.118457],[-122.960391,46.118426],[-122.960397,46.118369],[-122.960471,46.118367],[-122.960517,46.118341],[-122.960527,46.118189],[-122.960785,46.118189]]]}},{"type":"Feature","properties":{"id":53,"area_m2":2400,"px":24,"rank":28,"persistent":false},"geometry":{"type":"Polygon","coordinates":[[[-122.95794,46.116118],[-122.95794,46.116208],[-122.957722,46.116214],[-122.957684,46.116246],[-122.957681,46.116298],[-122.957341,46.116302],[-122.957298,46.116331],[-122.957292,46.116388],[-122.957034,46.116388],[-122.957025,46.116236],[-122.956979,46.11621],[-122.956904,46.116208],[-122.956905,46.116118],[-122.957011,46.116102],[-122.957034,46.116028],[-122.957367,46.116026],[-122.957416,46.115995],[-122.957422,46.115938],[-122.95781,46.115938],[-122.95782,46.11609],[-122.957865,46.116116],[-122.95794,46.116118]]]}},{"type":"Feature","properties":{"id":52,"area_m2":1900,"px":19,"rank":29,"persistent":false},"geometry":{"type":"Polygon","coordinates":[[[-122.953022,46.116386],[-122.953022,46.116566],[-122.952245,46.116566],[-122.952245,46.116296],[-122.952352,46.11628],[-122.952375,46.116206],[-122.952763,46.116206],[-122.952786,46.11637],[-122.953022,46.116386]]]}},{"type":"Feature","properties":{"id":59,"area_m2":1800,"px":18,"rank":30,"persistent":false},"geometry":{"type":"Polygon","coordinates":[[[-122.960141,46.114589],[-122.960141,46.114679],[-122.960034,46.114695],[-122.960011,46.114769],[-122.959494,46.114769],[-122.959471,46.114694],[-122.959365,46.114679],[-122.95933,46.114598],[-122.959235,46.114588],[-122.959235,46.114499],[-122.959448,46.114508],[-122.959491,46.114474],[-122.959494,46.114409],[-122.95961,46.114385],[-122.959624,46.114319],[-122.959753,46.114319],[-122.959776,46.114393],[-122.959882,46.114409],[-122.959905,46.114573],[-122.960141,46.114589]]]}},{"type":"Feature","properties":{"id":25,"area_m2":1600,"px":16,"rank":31,"persistent":false},"geometry":{"type":"Polygon","coordinates":[[[-122.966991,46.124403],[-122.966959,46.124449],[-122.966994,46.124491],[-122.966994,46.124581],[-122.966866,46.124581],[-122.966851,46.124515],[-122.966735,46.124491],[-122.966712,46.124417],[-122.966606,46.124401],[-122.966606,46.124131],[-122.966722,46.124107],[-122.966735,46.123951],[-122.966842,46.123935],[-122.966865,46.123861],[-122.966994,46.123861],[-122.966991,46.124403]]]}},{"type":"Feature","properties":{"id":37,"area_m2":1500,"px":15,"rank":32,"persistent":false},"geometry":{"type":"Polygon","coordinates":[[[-122.966478,46.120891],[-122.966478,46.121341],[-122.966219,46.121341],[-122.966197,46.121267],[-122.96609,46.121251],[-122.966088,46.121024],[-122.966049,46.120987],[-122.965961,46.120981],[-122.965961,46.120891],[-122.966478,46.120891]]]}},{"type":"Feature","properties":{"id":16,"area_m2":1400,"px":14,"rank":33,"persistent":false},"geometry":{"type":"Polygon","coordinates":[[[-122.975018,46.126653],[-122.975018,46.126833],[-122.974889,46.126833],[-122.974866,46.126759],[-122.974759,46.126743],[-122.974759,46.126612],[-122.974725,46.126572],[-122.974241,46.126563],[-122.974242,46.126203],[-122.974371,46.126203],[-122.974394,46.126277],[-122.9745,46.126293],[-122.974518,46.126363],[-122.97463,46.126383],[-122.974664,46.126464],[-122.974759,46.126473],[-122.974788,46.126551],[-122.974888,46.126563],[-122.974917,46.126641],[-122.975018,46.126653]]]}},{"type":"Feature","properties":{"id":27,"area_m2":1400,"px":14,"rank":34,"persistent":false},"geometry":{"type":"Polygon","coordinates":[[[-122.976961,46.123414],[-122.976961,46.123504],[-122.976854,46.123519],[-122.976831,46.123594],[-122.976702,46.123594],[-122.976679,46.123519],[-122.976573,46.123503],[-122.976563,46.123352],[-122.976518,46.123326],[-122.976443,46.123322],[-122.976443,46.123144],[-122.976518,46.123141],[-122.976564,46.123115],[-122.976573,46.122964],[-122.976702,46.122964],[-122.976711,46.123115],[-122.976757,46.123141],[-122.976831,46.123144],[-122.976837,46.12338],[-122.976879,46.12341],[-122.976961,46.123414]]]}},{"type":"Feature","properties":{"id":8,"area_m2":1300,"px":13,"rank":35,"persistent":false},"geometry":{"type":"Polygon","coordinates":[[[-122.976053,46.127914],[-122.976053,46.128003],[-122.975666,46.128003],[-122.975661,46.127952],[-122.975624,46.12792],[-122.975406,46.127913],[-122.975383,46.127839],[-122.975276,46.127823],[-122.975276,46.127643],[-122.975406,46.127643],[-122.975467,46.127667],[-122.975535,46.127643],[-122.975665,46.127643],[-122.975687,46.127718],[-122.975794,46.127734],[-122.975807,46.127799],[-122.975923,46.127824],[-122.975952,46.127901],[-122.976053,46.127914]]]}},{"type":"Feature","properties":{"id":39,"area_m2":1300,"px":13,"rank":36,"persistent":false},"geometry":{"type":"Polygon","coordinates":[[[-122.96415,46.11927],[-122.96415,46.11936],[-122.964043,46.119376],[-122.96402,46.11945],[-122.963891,46.11945],[-122.96383,46.119426],[-122.963761,46.11945],[-122.963632,46.11945],[-122.963632,46.11936],[-122.963666,46.119307],[-122.963614,46.1192],[-122.963503,46.11918],[-122.963503,46.119],[-122.963762,46.119],[-122.963784,46.119074],[-122.963891,46.11909],[-122.963904,46.119156],[-122.96402,46.11918],[-122.964049,46.119258],[-122.96415,46.11927]]]}},{"type":"Feature","properties":{"id":64,"area_m2":1300,"px":13,"rank":37,"persistent":false},"geometry":{"type":"Polygon","coordinates":[[[-122.963506,46.11387],[-122.963506,46.11405],[-122.962988,46.11405],[-122.962989,46.11369],[-122.963247,46.11369],[-122.96327,46.113764],[-122.963377,46.11378],[-122.963411,46.113861],[-122.963506,46.11387]]]}},{"type":"Feature","properties":{"id":29,"area_m2":1200,"px":12,"rank":38,"persistent":false},"geometry":{"type":"Polygon","coordinates":[[[-122.975667,46.122963],[-122.975667,46.123053],[-122.975572,46.123062],[-122.975537,46.123107],[-122.97555,46.123209],[-122.975667,46.123233],[-122.975667,46.123323],[-122.975278,46.123323],[-122.975256,46.123249],[-122.975149,46.123233],[-122.975114,46.123152],[-122.97502,46.123143],[-122.97502,46.122963],[-122.975149,46.122963],[-122.975162,46.123029],[-122.975227,46.123053],[-122.975482,46.123051],[-122.975531,46.12302],[-122.975537,46.122963],[-122.975667,46.122963]]]}},{"type":"Feature","properties":{"id":33,"area_m2":1200,"px":12,"rank":39,"persistent":false},"geometry":{"type":"Polygon","coordinates":[[[-122.967901,46.122241],[-122.967901,46.122421],[-122.967794,46.122437],[-122.967772,46.122511],[-122.967642,46.122511],[-122.96762,46.122437],[-122.967513,46.122421],[-122.967495,46.122351],[-122.967384,46.122331],[-122.967349,46.12225],[-122.967254,46.122241],[-122.967226,46.122163],[-122.967125,46.122151],[-122.967125,46.121971],[-122.967254,46.121971],[-122.967272,46.122042],[-122.967384,46.122061],[-122.967397,46.122127],[-122.967513,46.122151],[-122.967516,46.122203],[-122.967554,46.122235],[-122.967703,46.122265],[-122.967772,46.122241],[-122.967901,46.122241]]]}},{"type":"Feature","properties":{"id":42,"area_m2":1200,"px":12,"rank":40,"persistent":false},"geometry":{"type":"Polygon","coordinates":[[[-122.968809,46.118642],[-122.968809,46.118732],[-122.96868,46.118732],[-122.968677,46.11868],[-122.968639,46.118648],[-122.968421,46.118641],[-122.968415,46.118585],[-122.968366,46.118554],[-122.968162,46.118551],[-122.96814,46.118477],[-122.968033,46.118461],[-122.968033,46.118371],[-122.96814,46.118356],[-122.968164,46.118281],[-122.968292,46.118282],[-122.968298,46.118338],[-122.968347,46.118369],[-122.968551,46.118372],[-122.968573,46.118446],[-122.96868,46.118462],[-122.968693,46.118618],[-122.968809,46.118642]]]}},{"type":"Feature","properties":{"id":72,"area_m2":1200,"px":12,"rank":41,"persistent":false},"geometry":{"type":"Polygon","coordinates":[[[-122.95859,46.111798],[-122.95859,46.111978],[-122.958257,46.11198],[-122.958208,46.112011],[-122.958202,46.112068],[-122.957943,46.112068],[-122.95792,46.111994],[-122.957814,46.111978],[-122.957814,46.111888],[-122.958161,46.111882],[-122.958199,46.11185],[-122.958202,46.111798],[-122.958318,46.111774],[-122.958331,46.111708],[-122.958461,46.111708],[-122.958483,46.111782],[-122.95859,46.111798]]]}},{"type":"Feature","properties":{"id":11,"area_m2":1100,"px":11,"rank":42,"persistent":false},"geometry":{"type":"Polygon","coordinates":[[[-122.973335,46.127283],[-122.973335,46.127373],[-122.97324,46.127382],[-122.973205,46.127427],[-122.973218,46.127529],[-122.973335,46.127553],[-122.973335,46.127733],[-122.973205,46.127733],[-122.973192,46.127667],[-122.973076,46.127643],[-122.973041,46.127562],[-122.972817,46.127553],[-122.972817,46.127373],[-122.973035,46.127366],[-122.973073,46.127335],[-122.973076,46.127283],[-122.973335,46.127283]]]}},{"type":"Feature","properties":{"id":13,"area_m2":1100,"px":11,"rank":43,"persistent":false},"geometry":{"type":"Polygon","coordinates":[[[-122.972817,46.127103],[-122.972817,46.127283],[-122.972299,46.127283],[-122.9723,46.127013],[-122.972688,46.127013],[-122.972711,46.127087],[-122.972817,46.127103]]]}},{"type":"Feature","properties":{"id":3,"area_m2":1000,"px":10,"rank":44,"persistent":false},"geometry":{"type":"Polygon","coordinates":[[[-122.989644,46.131066],[-122.989644,46.131246],[-122.989537,46.131261],[-122.989514,46.131336],[-122.989385,46.131336],[-122.989362,46.131261],[-122.989256,46.131246],[-122.989221,46.131165],[-122.989126,46.131156],[-122.989126,46.131066],[-122.989233,46.13105],[-122.989256,46.130976],[-122.989514,46.130976],[-122.989537,46.13105],[-122.989644,46.131066]]]}},{"type":"Feature","properties":{"id":10,"area_m2":900,"px":9,"rank":45,"persistent":false},"geometry":{"type":"Polygon","coordinates":[[[-122.976571,46.127644],[-122.976571,46.127734],[-122.976183,46.127733],[-122.976173,46.127582],[-122.976127,46.127556],[-122.976053,46.127553],[-122.976053,46.127374],[-122.976183,46.127374],[-122.976188,46.12743],[-122.976238,46.127461],[-122.976441,46.127464],[-122.976451,46.127615],[-122.976496,46.127641],[-122.976571,46.127644]]]}},{"type":"Feature","properties":{"id":31,"area_m2":900,"px":9,"rank":46,"persistent":false},"geometry":{"type":"Polygon","coordinates":[[[-122.976055,46.122784],[-122.976055,46.123053],[-122.975926,46.123053],[-122.975913,46.122987],[-122.975796,46.122963],[-122.975762,46.122882],[-122.975537,46.122873],[-122.975538,46.122693],[-122.975796,46.122693],[-122.9758,46.122745],[-122.975837,46.122777],[-122.976055,46.122784]]]}},{"type":"Feature","properties":{"id":48,"area_m2":900,"px":9,"rank":47,"persistent":false},"geometry":{"type":"Polygon","coordinates":[[[-122.957939,46.117378],[-122.957939,46.117558],[-122.957864,46.11756],[-122.957818,46.117587],[-122.957809,46.117738],[-122.95755,46.117738],[-122.957551,46.117468],[-122.957657,46.117452],[-122.95768,46.117378],[-122.957939,46.117378]]]}},{"type":"Feature","properties":{"id":54,"area_m2":900,"px":9,"rank":48,"persistent":false},"geometry":{"type":"Polygon","coordinates":[[[-122.966093,46.116121],[-122.966093,46.116301],[-122.965705,46.116301],[-122.965701,46.116159],[-122.965657,46.116125],[-122.965575,46.116121],[-122.965575,46.116031],[-122.965964,46.116031],[-122.965986,46.116105],[-122.966093,46.116121]]]}},{"type":"Feature","properties":{"id":62,"area_m2":900,"px":9,"rank":49,"persistent":false},"geometry":{"type":"Polygon","coordinates":[[[-122.958718,46.114138],[-122.958718,46.114228],[-122.958611,46.114244],[-122.958588,46.114318],[-122.958329,46.114318],[-122.95832,46.114167],[-122.958274,46.114141],[-122.9582,46.114138],[-122.9582,46.113958],[-122.95833,46.113958],[-122.958336,46.114015],[-122.958385,46.114046],[-122.958588,46.114048],[-122.958611,46.114122],[-122.958718,46.114138]]]}},{"type":"Feature","properties":{"id":69,"area_m2":900,"px":9,"rank":50,"persistent":false},"geometry":{"type":"Polygon","coordinates":[[[-122.95846,46.112878],[-122.95846,46.113148],[-122.958072,46.113148],[-122.958072,46.112878],[-122.95846,46.112878]]]}},{"type":"Feature","properties":{"id":71,"area_m2":900,"px":9,"rank":51,"persistent":false},"geometry":{"type":"Polygon","coordinates":[[[-122.958978,46.111978],[-122.958978,46.112248],[-122.95846,46.112248],[-122.958461,46.112158],[-122.958567,46.112142],[-122.95859,46.112068],[-122.958706,46.112044],[-122.958719,46.111978],[-122.958978,46.111978]]]}},{"type":"Feature","properties":{"id":34,"area_m2":800,"px":8,"rank":52,"persistent":false},"geometry":{"type":"Polygon","coordinates":[[[-122.964536,46.12188],[-122.964536,46.12206],[-122.964462,46.122063],[-122.964416,46.122089],[-122.964407,46.12224],[-122.964277,46.12224],[-122.964255,46.122166],[-122.964148,46.12215],[-122.964148,46.12197],[-122.964255,46.121955],[-122.964278,46.12188],[-122.964536,46.12188]]]}},{"type":"Feature","properties":{"id":41,"area_m2":800,"px":8,"rank":53,"persistent":false},"geometry":{"type":"Polygon","coordinates":[[[-122.963244,46.11864],[-122.963244,46.11882],[-122.963137,46.118836],[-122.963114,46.11891],[-122.962856,46.11891],[-122.962856,46.11864],[-122.963244,46.11864]]]}},{"type":"Feature","properties":{"id":17,"area_m2":700,"px":7,"rank":54,"persistent":false},"geometry":{"type":"Polygon","coordinates":[[[-122.973076,46.126653],[-122.973076,46.126833],[-122.972817,46.126833],[-122.972808,46.126681],[-122.972762,46.126655],[-122.972688,46.126653],[-122.972688,46.126473],[-122.972817,46.126473],[-122.97284,46.126547],[-122.972947,46.126563],[-122.972981,46.126644],[-122.973076,46.126653]]]}},{"type":"Feature","properties":{"id":40,"area_m2":600,"px":6,"rank":55,"persistent":false},"geometry":{"type":"Polygon","coordinates":[[[-122.96635,46.119001],[-122.96635,46.119181],[-122.966243,46.119197],[-122.96622,46.119271],[-122.966091,46.119271],[-122.966068,46.119197],[-122.965962,46.119181],[-122.965962,46.119091],[-122.966068,46.119075],[-122.966091,46.119001],[-122.96635,46.119001]]]}},{"type":"Feature","properties":{"id":4,"area_m2":500,"px":5,"rank":56,"persistent":false},"geometry":{"type":"Polygon","coordinates":[[[-122.9789,46.129264],[-122.9789,46.129354],[-122.978793,46.12937],[-122.978771,46.129444],[-122.978641,46.129444],[-122.978632,46.129293],[-122.978586,46.129266],[-122.978512,46.129264],[-122.978477,46.129183],[-122.978383,46.129174],[-122.978383,46.129084],[-122.978512,46.129084],[-122.978525,46.12915],[-122.978641,46.129174],[-122.978645,46.129226],[-122.978682,46.129258],[-122.9789,46.129264]]]}},{"type":"Feature","properties":{"id":18,"area_m2":500,"px":5,"rank":57,"persistent":false},"geometry":{"type":"Polygon","coordinates":[[[-122.974112,46.126113],[-122.974112,46.126203],[-122.973985,46.126203],[-122.973979,46.126151],[-122.973942,46.126119],[-122.973724,46.126113],[-122.973724,46.125933],[-122.973983,46.125933],[-122.973992,46.126084],[-122.974038,46.126111],[-122.974112,46.126113]]]}},{"type":"Feature","properties":{"id":26,"area_m2":500,"px":5,"rank":58,"persistent":false},"geometry":{"type":"Polygon","coordinates":[[[-122.969195,46.123862],[-122.969195,46.123952],[-122.969088,46.123968],[-122.969065,46.124042],[-122.968806,46.124042],[-122.968806,46.123862],[-122.969195,46.123862]]]}},{"type":"Feature","properties":{"id":1,"area_m2":400,"px":4,"rank":59,"persistent":false},"geometry":{"type":"Polygon","coordinates":[[[-122.990291,46.134306],[-122.99029,46.134396],[-122.990184,46.134412],[-122.990161,46.134486],[-122.990045,46.13451],[-122.990032,46.134576],[-122.989902,46.134576],[-122.989902,46.134486],[-122.989937,46.134443],[-122.989902,46.134396],[-122.989902,46.134306],[-122.990032,46.134306],[-122.990093,46.13433],[-122.990161,46.134306],[-122.990291,46.134306]]]}},{"type":"Feature","properties":{"id":5,"area_m2":400,"px":4,"rank":60,"persistent":false},"geometry":{"type":"Polygon","coordinates":[[[-122.97903,46.128814],[-122.97903,46.128904],[-122.9789,46.128904],[-122.978887,46.128838],[-122.978771,46.128814],[-122.978736,46.128733],[-122.978512,46.128724],[-122.978512,46.128634],[-122.978771,46.128634],[-122.978794,46.128708],[-122.9789,46.128724],[-122.978935,46.128805],[-122.97903,46.128814]]]}},{"type":"Feature","properties":{"id":6,"area_m2":400,"px":4,"rank":61,"persistent":false},"geometry":{"type":"Polygon","coordinates":[[[-122.977347,46.128634],[-122.977347,46.128724],[-122.977218,46.128724],[-122.977195,46.12865],[-122.977088,46.128634],[-122.977054,46.128553],[-122.976959,46.128544],[-122.976959,46.128454],[-122.977218,46.128454],[-122.977227,46.128605],[-122.977273,46.128631],[-122.977347,46.128634]]]}},{"type":"Feature","properties":{"id":9,"area_m2":400,"px":4,"rank":62,"persistent":false},"geometry":{"type":"Polygon","coordinates":[[[-122.972817,46.127643],[-122.972817,46.127823],[-122.972558,46.127823],[-122.972558,46.127643],[-122.972817,46.127643]]]}},{"type":"Feature","properties":{"id":15,"area_m2":400,"px":4,"rank":63,"persistent":false},"geometry":{"type":"Polygon","coordinates":[[[-122.971782,46.127013],[-122.971782,46.127192],[-122.971523,46.127192],[-122.971523,46.127013],[-122.971782,46.127013]]]}},{"type":"Feature","properties":{"id":23,"area_m2":400,"px":4,"rank":64,"persistent":false},"geometry":{"type":"Polygon","coordinates":[[[-122.9701,46.125122],[-122.9701,46.125212],[-122.969712,46.125212],[-122.969712,46.125032],[-122.969841,46.125032],[-122.969847,46.125089],[-122.969896,46.12512],[-122.9701,46.125122]]]}},{"type":"Feature","properties":{"id":38,"area_m2":400,"px":4,"rank":65,"persistent":false},"geometry":{"type":"Polygon","coordinates":[[[-122.970491,46.120172],[-122.970491,46.120262],[-122.970363,46.120262],[-122.970358,46.12021],[-122.970321,46.120178],[-122.970103,46.120172],[-122.97008,46.120098],[-122.969973,46.120082],[-122.969973,46.119992],[-122.970103,46.119992],[-122.970109,46.120049],[-122.970158,46.12008],[-122.970362,46.120082],[-122.970384,46.120156],[-122.970491,46.120172]]]}},{"type":"Feature","properties":{"id":55,"area_m2":400,"px":4,"rank":66,"persistent":false},"geometry":{"type":"Polygon","coordinates":[[[-122.959881,46.116029],[-122.959881,46.116119],[-122.959622,46.116119],[-122.959622,46.115849],[-122.959752,46.115849],[-122.959761,46.116],[-122.959807,46.116026],[-122.959881,46.116029]]]}},{"type":"Feature","properties":{"id":63,"area_m2":400,"px":4,"rank":67,"persistent":false},"geometry":{"type":"Polygon","coordinates":[[[-122.960271,46.113959],[-122.960271,46.114049],[-122.960082,46.114049],[-122.960025,46.114073],[-122.960012,46.114229],[-122.959882,46.114229],[-122.959883,46.114049],[-122.959989,46.114033],[-122.960012,46.113959],[-122.960271,46.113959]]]}},{"type":"Feature","properties":{"id":67,"area_m2":400,"px":4,"rank":68,"persistent":false},"geometry":{"type":"Polygon","coordinates":[[[-122.961307,46.113239],[-122.961306,46.113329],[-122.9612,46.113345],[-122.961177,46.113419],[-122.960918,46.113419],[-122.960918,46.113329],[-122.961013,46.113327],[-122.961062,46.113295],[-122.961048,46.113149],[-122.961177,46.113149],[-122.9612,46.113223],[-122.961307,46.113239]]]}},{"type":"Feature","properties":{"id":12,"area_m2":300,"px":3,"rank":69,"persistent":false},"geometry":{"type":"Polygon","coordinates":[[[-122.97217,46.127283],[-122.97217,46.127373],[-122.971782,46.127372],[-122.971782,46.127283],[-122.97217,46.127283]]]}},{"type":"Feature","properties":{"id":20,"area_m2":300,"px":3,"rank":70,"persistent":false},"geometry":{"type":"Polygon","coordinates":[[[-122.970876,46.125572],[-122.970876,46.125662],[-122.970488,46.125662],[-122.970488,46.125572],[-122.970876,46.125572]]]}},{"type":"Feature","properties":{"id":21,"area_m2":300,"px":3,"rank":71,"persistent":false},"geometry":{"type":"Polygon","coordinates":[[[-122.980066,46.125394],[-122.980066,46.125484],[-122.979808,46.125484],[-122.979785,46.12541],[-122.979678,46.125394],[-122.979678,46.125304],[-122.979808,46.125304],[-122.979814,46.125361],[-122.979863,46.125392],[-122.980066,46.125394]]]}},{"type":"Feature","properties":{"id":24,"area_m2":300,"px":3,"rank":72,"persistent":false},"geometry":{"type":"Polygon","coordinates":[[[-122.97929,46.125034],[-122.97929,46.125124],[-122.979161,46.125124],[-122.979157,46.125072],[-122.97912,46.12504],[-122.978902,46.125034],[-122.978902,46.124944],[-122.979161,46.124944],[-122.979183,46.125018],[-122.97929,46.125034]]]}},{"type":"Feature","properties":{"id":47,"area_m2":300,"px":3,"rank":73,"persistent":false},"geometry":{"type":"Polygon","coordinates":[[[-122.958068,46.117918],[-122.958068,46.118098],[-122.957938,46.118098],[-122.957916,46.118024],[-122.957809,46.118008],[-122.957809,46.117918],[-122.958068,46.117918]]]}}]}