{"type":"FeatureCollection","features":[{"type":"Feature","properties":{"id":56,"area_m2":62400,"px":624,"rank":1,"persistent":false},"geometry":{"type":"Polygon","coordinates":[[[-122.968809,46.118552],[-122.968809,46.118732],[-122.968618,46.118718],[-122.968554,46.118756],[-122.968559,46.118883],[-122.968605,46.118909],[-122.96868,46.118912],[-122.96868,46.11909],[-122.968605,46.119094],[-122.968559,46.11912],[-122.96855,46.119271],[-122.96819,46.119284],[-122.968162,46.11932],[-122.968162,46.119451],[-122.968055,46.119467],[-122.968032,46.119541],[-122.967385,46.119541],[-122.967362,46.119467],[-122.967256,46.119451],[-122.967221,46.11937],[-122.967126,46.119361],[-122.967109,46.119201],[-122.966951,46.119159],[-122.966868,46.119181],[-122.966738,46.119181],[-122.96667,46.119157],[-122.966609,46.119181],[-122.966412,46.119182],[-122.966359,46.119209],[-122.96635,46.119271],[-122.966091,46.119271],[-122.966068,46.119197],[-122.965962,46.119181],[-122.965949,46.119115],[-122.965832,46.119091],[-122.965804,46.119013],[-122.965703,46.119001],[-122.965703,46.118911],[-122.96635,46.118911],[-122.966356,46.118968],[-122.966398,46.118997],[-122.966676,46.119],[-122.966729,46.118972],[-122.966738,46.118911],[-122.966813,46.118909],[-122.966859,46.118883],[-122.966859,46.11876],[-122.966813,46.118733],[-122.966739,46.118731],[-122.966721,46.118661],[-122.966609,46.118641],[-122.9666,46.11858],[-122.966547,46.118552],[-122.966154,46.118552],[-122.966101,46.118579],[-122.966091,46.118641],[-122.965833,46.118641],[-122.96581,46.118567],[-122.965703,46.118551],[-122.96569,46.118485],[-122.965574,46.118461],[-122.965546,46.118383],[-122.965445,46.118371],[-122.965441,46.118229],[-122.965397,46.118195],[-122.965315,46.118191],[-122.965315,46.118046],[-122.965288,46.11801],[-122.964798,46.11801],[-122.964769,46.117933],[-122.964539,46.11792],[-122.964516,46.117846],[-122.96441,46.11783],[-122.964375,46.117749],[-122.96428,46.11774],[-122.964263,46.11749],[-122.96421,46.117471],[-122.964022,46.11747],[-122.963999,46.117396],[-122.963892,46.11738],[-122.963869,46.117216],[-122.963633,46.1172],[-122.963611,46.117126],[-122.963504,46.11711],[-122.963504,46.11684],[-122.963616,46.11682],[-122.963634,46.11666],[-122.963722,46.116654],[-122.963762,46.116617],[-122.963763,46.1163],[-122.964022,46.1163],[-122.964045,46.116374],[-122.964151,46.11639],[-122.964165,46.116546],[-122.964281,46.11657],[-122.964294,46.116636],[-122.96441,46.11666],[-122.964414,46.116712],[-122.964451,46.116744],[-122.964798,46.11675],[-122.964859,46.116775],[-122.964928,46.116751],[-122.965057,46.116751],[-122.965057,46.11693],[-122.964948,46.116937],[-122.964908,46.116986],[-122.964941,46.117086],[-122.965057,46.117111],[-122.965063,46.117167],[-122.965105,46.117196],[-122.965375,46.1172],[-122.965423,46.117185],[-122.965445,46.117021],[-122.965534,46.117014],[-122.965573,46.116977],[-122.965575,46.116751],[-122.965682,46.116735],[-122.965705,46.116661],[-122.965908,46.116658],[-122.965957,46.116627],[-122.965963,46.116571],[-122.966093,46.116571],[-122.966096,46.116622],[-122.966134,46.116654],[-122.966351,46.116661],[-122.966352,46.116792],[-122.96638,46.116829],[-122.96661,46.116841],[-122.966633,46.116915],[-122.96674,46.116931],[-122.966774,46.117012],[-122.966869,46.117021],[-122.966869,46.117332],[-122.966903,46.117372],[-122.967202,46.117379],[-122.967251,46.117348],[-122.967257,46.117291],[-122.967775,46.117291],[-122.967792,46.117362],[-122.967904,46.117381],[-122.967939,46.117462],[-122.968033,46.117471],[-122.968062,46.117549],[-122.968163,46.117561],[-122.968191,46.117639],[-122.968422,46.117652],[-122.968411,46.117752],[-122.968233,46.117742],[-122.968176,46.117765],[-122.968172,46.117893],[-122.968225,46.11792],[-122.968359,46.11792],[-122.968412,46.117893],[-122.968432,46.117821],[-122.968551,46.117832],[-122.968574,46.117906],[-122.96868,46.117922],[-122.96868,46.118012],[-122.968551,46.118011],[-122.968482,46.117987],[-122.968421,46.118011],[-122.968174,46.118022],[-122.968122,46.117928],[-122.967932,46.117934],[-122.967904,46.11797],[-122.967919,46.118094],[-122.967707,46.118102],[-122.967651,46.118135],[-122.967645,46.118371],[-122.967544,46.118384],[-122.967515,46.118461],[-122.96742,46.11847],[-122.967386,46.118551],[-122.967311,46.118554],[-122.967265,46.11858],[-122.967257,46.118772],[-122.967291,46.118812],[-122.967699,46.118835],[-122.967757,46.118815],[-122.967774,46.118641],[-122.96789,46.118617],[-122.967904,46.118461],[-122.96801,46.118446],[-122.968065,46.118339],[-122.968033,46.118281],[-122.968033,46.118101],[-122.968152,46.11809],[-122.968185,46.118266],[-122.968421,46.118282],[-122.968444,46.118356],[-122.968551,46.118372],[-122.968564,46.118438],[-122.96868,46.118462],[-122.968708,46.118539],[-122.968809,46.118552]],[[-122.967049,46.118551],[-122.967124,46.118513],[-122.967118,46.1184],[-122.967064,46.118372],[-122.966908,46.118364],[-122.966868,46.118406],[-122.966877,46.118523],[-122.966931,46.11855],[-122.967049,46.118551]]]}},{"type":"Feature","properties":{"id":96,"area_m2":46900,"px":469,"rank":2,"persistent":false},"geometry":{"type":"Polygon","coordinates":[[[-122.962473,46.11081],[-122.962473,46.11117],[-122.962366,46.111185],[-122.962343,46.111259],[-122.962242,46.111272],[-122.962214,46.111349],[-122.962119,46.111359],[-122.962084,46.111439],[-122.961973,46.111459],[-122.961955,46.111529],[-122.961825,46.111529],[-122.961757,46.111505],[-122.961615,46.111533],[-122.961573,46.111563],[-122.961566,46.111619],[-122.96145,46.111643],[-122.961437,46.111709],[-122.961325,46.111729],[-122.961308,46.111799],[-122.961049,46.111799],[-122.96102,46.111721],[-122.96079,46.111709],[-122.960767,46.111635],[-122.960661,46.111619],[-122.960626,46.111538],[-122.960531,46.111529],[-122.960531,46.111384],[-122.960504,46.111348],[-122.960273,46.111349],[-122.960264,46.111197],[-122.960218,46.111171],[-122.960144,46.111169],[-122.960144,46.110759],[-122.960122,46.110721],[-122.960061,46.110705],[-122.959926,46.110725],[-122.959888,46.110757],[-122.959885,46.110809],[-122.959626,46.110809],[-122.959603,46.110734],[-122.959497,46.110718],[-122.959462,46.110638],[-122.959367,46.110628],[-122.959367,46.110483],[-122.95934,46.110448],[-122.958979,46.110448],[-122.958957,46.110374],[-122.95885,46.110358],[-122.958837,46.110292],[-122.958721,46.110268],[-122.958692,46.110191],[-122.958591,46.110178],[-122.958582,46.110027],[-122.958536,46.110001],[-122.958462,46.109998],[-122.958462,46.109548],[-122.958557,46.109539],[-122.958592,46.109458],[-122.958708,46.109434],[-122.958721,46.109278],[-122.958828,46.109262],[-122.958851,46.109188],[-122.958952,46.109176],[-122.95898,46.109098],[-122.959075,46.109089],[-122.95911,46.109008],[-122.959222,46.108989],[-122.959239,46.108918],[-122.959369,46.108919],[-122.959372,46.10897],[-122.95941,46.109002],[-122.959627,46.109009],[-122.959645,46.109079],[-122.959757,46.109099],[-122.95977,46.109165],[-122.959886,46.109189],[-122.959921,46.10927],[-122.960145,46.109279],[-122.960167,46.109353],[-122.960274,46.109369],[-122.960297,46.109533],[-122.960533,46.109549],[-122.960555,46.109623],[-122.960662,46.109639],[-122.960675,46.109705],[-122.960791,46.109729],[-122.96082,46.109807],[-122.960921,46.109819],[-122.960921,46.109909],[-122.960839,46.109913],[-122.960795,46.109947],[-122.960772,46.110039],[-122.960799,46.110076],[-122.961117,46.110088],[-122.96117,46.110061],[-122.96118,46.109999],[-122.961309,46.109999],[-122.961326,46.110069],[-122.961438,46.110089],[-122.961473,46.11017],[-122.961567,46.110179],[-122.961596,46.110257],[-122.961826,46.110269],[-122.961849,46.110344],[-122.961956,46.110359],[-122.961973,46.11043],[-122.962085,46.11045],[-122.962119,46.11053],[-122.962214,46.11054],[-122.962243,46.110617],[-122.962344,46.11063],[-122.962361,46.11079],[-122.962473,46.11081]]]}},{"type":"Feature","properties":{"id":42,"area_m2":32400,"px":324,"rank":3,"persistent":false},"geometry":{"type":"Polygon","coordinates":[[[-122.967772,46.122601],[-122.967771,46.122691],[-122.967671,46.122704],[-122.967642,46.122781],[-122.967547,46.12279],[-122.967513,46.122835],[-122.96753,46.123032],[-122.967583,46.123051],[-122.967771,46.123051],[-122.967771,46.123231],[-122.967535,46.123247],[-122.967512,46.123321],[-122.967438,46.123324],[-122.967392,46.12335],[-122.967383,46.123501],[-122.967276,46.123517],[-122.967253,46.123591],[-122.966736,46.123591],[-122.966727,46.12344],[-122.966681,46.123413],[-122.966606,46.123411],[-122.966606,46.123321],[-122.966641,46.123279],[-122.966606,46.123231],[-122.966607,46.123141],[-122.966736,46.123141],[-122.966805,46.123165],[-122.966865,46.123141],[-122.967082,46.12314],[-122.967139,46.123107],[-122.967118,46.122815],[-122.967076,46.122785],[-122.966942,46.122758],[-122.966759,46.122797],[-122.966736,46.122871],[-122.966635,46.122883],[-122.966606,46.122961],[-122.966505,46.122973],[-122.966477,46.123051],[-122.966376,46.123063],[-122.966347,46.123141],[-122.966247,46.123153],[-122.966218,46.123231],[-122.966123,46.12324],[-122.966088,46.123321],[-122.965977,46.123341],[-122.965959,46.123411],[-122.9657,46.123411],[-122.965687,46.123345],[-122.965571,46.123321],[-122.965536,46.12324],[-122.965312,46.123231],[-122.965312,46.123099],[-122.965284,46.123063],[-122.965053,46.123051],[-122.965031,46.122976],[-122.964924,46.122961],[-122.964889,46.12288],[-122.964795,46.12287],[-122.964785,46.122719],[-122.96474,46.122693],[-122.964665,46.12269],[-122.964673,46.122445],[-122.964615,46.122421],[-122.964407,46.12242],[-122.964394,46.122264],[-122.964277,46.12224],[-122.964243,46.122159],[-122.964148,46.12215],[-122.964148,46.12188],[-122.964366,46.121874],[-122.964404,46.121842],[-122.964407,46.12179],[-122.964666,46.121791],[-122.964666,46.121935],[-122.964699,46.121975],[-122.965006,46.121966],[-122.965048,46.121937],[-122.965054,46.121881],[-122.965136,46.121877],[-122.965178,46.121847],[-122.965184,46.121701],[-122.965572,46.121701],[-122.965641,46.121725],[-122.965808,46.121685],[-122.965827,46.121559],[-122.965783,46.121525],[-122.965701,46.121521],[-122.965702,46.121431],[-122.965808,46.121415],[-122.965831,46.121341],[-122.96596,46.121341],[-122.965964,46.121483],[-122.966008,46.121517],[-122.96609,46.121521],[-122.966107,46.121681],[-122.96616,46.121701],[-122.966348,46.121701],[-122.966371,46.121775],[-122.966478,46.121791],[-122.966495,46.121861],[-122.966607,46.121881],[-122.966642,46.121962],[-122.966736,46.121971],[-122.966765,46.122049],[-122.966866,46.122061],[-122.966894,46.122139],[-122.966995,46.122151],[-122.966997,46.122378],[-122.967036,46.122415],[-122.967124,46.122421],[-122.967147,46.122585],[-122.967315,46.122625],[-122.967383,46.122601],[-122.967772,46.122601]]]}},{"type":"Feature","properties":{"id":87,"area_m2":29900,"px":299,"rank":4,"persistent":false},"geometry":{"type":"Polygon","coordinates":[[[-122.957555,46.111078],[-122.957555,46.111168],[-122.957467,46.111174],[-122.957427,46.111211],[-122.957426,46.111618],[-122.957351,46.11162],[-122.957305,46.111646],[-122.957296,46.111798],[-122.957189,46.111814],[-122.957166,46.111888],[-122.957037,46.111888],[-122.956961,46.111864],[-122.956908,46.111888],[-122.956704,46.11189],[-122.956652,46.111926],[-122.956666,46.112048],[-122.956778,46.112068],[-122.956813,46.112148],[-122.956907,46.112158],[-122.956907,46.112338],[-122.956801,46.112353],[-122.956778,46.112428],[-122.956662,46.112452],[-122.956648,46.112517],[-122.956412,46.112533],[-122.956389,46.112697],[-122.956288,46.11271],[-122.95626,46.112787],[-122.956165,46.112796],[-122.95613,46.112877],[-122.956056,46.11288],[-122.95601,46.112906],[-122.956001,46.113057],[-122.955797,46.11306],[-122.955743,46.113106],[-122.955755,46.113213],[-122.955871,46.113237],[-122.955873,46.113374],[-122.955919,46.113413],[-122.95613,46.113417],[-122.956206,46.113441],[-122.956361,46.113405],[-122.956389,46.113328],[-122.956777,46.113328],[-122.95679,46.113394],[-122.956906,46.113418],[-122.956941,46.113499],[-122.957165,46.113508],[-122.957165,46.113868],[-122.957058,46.113884],[-122.957035,46.113958],[-122.95658,46.113959],[-122.956527,46.113986],[-122.956518,46.114047],[-122.956171,46.114054],[-122.956133,46.114086],[-122.956129,46.114137],[-122.956048,46.114141],[-122.956006,46.114171],[-122.956,46.114317],[-122.955796,46.11432],[-122.955747,46.114351],[-122.955741,46.114407],[-122.955612,46.114407],[-122.955608,46.114266],[-122.955564,46.114231],[-122.955482,46.114227],[-122.955483,46.114137],[-122.955599,46.114113],[-122.955612,46.113957],[-122.955724,46.113937],[-122.955776,46.113819],[-122.955742,46.113777],[-122.955733,46.113536],[-122.955687,46.11351],[-122.955543,46.113495],[-122.955484,46.113537],[-122.955483,46.113777],[-122.955388,46.113786],[-122.955353,46.113867],[-122.955272,46.113871],[-122.955227,46.113905],[-122.955223,46.114317],[-122.954835,46.114317],[-122.954813,46.114243],[-122.954706,46.114227],[-122.954671,46.114146],[-122.954577,46.114137],[-122.954577,46.113957],[-122.954658,46.113953],[-122.954703,46.113918],[-122.954707,46.113507],[-122.954801,46.113498],[-122.954836,46.113417],[-122.95491,46.113415],[-122.954956,46.113388],[-122.954966,46.113147],[-122.955072,46.113131],[-122.955095,46.113057],[-122.955211,46.113033],[-122.955225,46.112967],[-122.955319,46.112965],[-122.955362,46.112942],[-122.955354,46.112787],[-122.955428,46.112785],[-122.955474,46.112759],[-122.955484,46.112607],[-122.955579,46.112598],[-122.955613,46.112517],[-122.955695,46.112513],[-122.955737,46.112484],[-122.955743,46.112247],[-122.955973,46.112235],[-122.956001,46.112199],[-122.956002,46.112067],[-122.956097,46.112058],[-122.956131,46.111977],[-122.956248,46.111953],[-122.956261,46.111797],[-122.956373,46.111778],[-122.95639,46.111617],[-122.956472,46.111613],[-122.956516,46.111579],[-122.95652,46.111348],[-122.956709,46.111347],[-122.956761,46.111328],[-122.956779,46.111168],[-122.95686,46.111163],[-122.956905,46.111129],[-122.956909,46.110988],[-122.957015,46.110972],[-122.957038,46.110898],[-122.957297,46.110898],[-122.957319,46.110972],[-122.957426,46.110988],[-122.957461,46.111069],[-122.957555,46.111078]]]}},{"type":"Feature","properties":{"id":18,"area_m2":19500,"px":195,"rank":5,"persistent":true},"geometry":{"type":"Polygon","coordinates":[[[-122.98149,46.126655],[-122.98149,46.127014],[-122.981395,46.127024],[-122.98136,46.127104],[-122.981244,46.127128],[-122.981196,46.127237],[-122.981231,46.127285],[-122.981231,46.127374],[-122.981142,46.127381],[-122.981102,46.127423],[-122.981119,46.127535],[-122.981231,46.127555],[-122.981265,46.127635],[-122.98136,46.127645],[-122.98136,46.127824],[-122.981231,46.127824],[-122.981162,46.1278],[-122.981027,46.127827],[-122.980978,46.127858],[-122.980972,46.127914],[-122.980325,46.127914],[-122.980302,46.12784],[-122.980195,46.127824],[-122.980161,46.127743],[-122.980066,46.127734],[-122.980062,46.127593],[-122.980018,46.127558],[-122.979936,46.127554],[-122.979923,46.127398],[-122.979807,46.127374],[-122.979807,46.127284],[-122.979895,46.127278],[-122.979936,46.127236],[-122.979937,46.126114],[-122.980044,46.126098],[-122.980066,46.126024],[-122.980183,46.126],[-122.980196,46.125934],[-122.980325,46.125934],[-122.980331,46.125991],[-122.98038,46.126022],[-122.980584,46.126024],[-122.980607,46.126189],[-122.980843,46.126204],[-122.980849,46.126261],[-122.980898,46.126292],[-122.981102,46.126295],[-122.981119,46.126455],[-122.981172,46.126474],[-122.981361,46.126475],[-122.98137,46.126626],[-122.981416,46.126652],[-122.98149,46.126655]]]}},{"type":"Feature","properties":{"id":49,"area_m2":16900,"px":169,"rank":6,"persistent":false},"geometry":{"type":"Polygon","coordinates":[[[-122.964666,46.120801],[-122.964666,46.12089],[-122.964565,46.120903],[-122.964537,46.12098],[-122.964436,46.120993],[-122.964407,46.12107],[-122.964312,46.121079],[-122.964278,46.12116],[-122.964162,46.121184],[-122.964148,46.12134],[-122.963931,46.121347],[-122.963893,46.121379],[-122.963889,46.12143],[-122.963501,46.12143],[-122.963478,46.121356],[-122.963372,46.12134],[-122.963349,46.121176],[-122.963113,46.12116],[-122.963113,46.12098],[-122.963208,46.120971],[-122.963243,46.12089],[-122.963359,46.120866],[-122.963363,46.120739],[-122.963302,46.12071],[-122.962984,46.12071],[-122.962966,46.12055],[-122.962855,46.12053],[-122.96282,46.120449],[-122.962725,46.12044],[-122.962697,46.120362],[-122.962596,46.12035],[-122.962596,46.12017],[-122.962684,46.120163],[-122.962724,46.120126],[-122.962726,46.1199],[-122.962832,46.119884],[-122.962855,46.11981],[-122.963059,46.119808],[-122.963108,46.119777],[-122.963114,46.11972],[-122.963243,46.11972],[-122.963256,46.119786],[-122.963373,46.11981],[-122.963376,46.119862],[-122.963414,46.119894],[-122.963632,46.1199],[-122.963654,46.119974],[-122.963807,46.120013],[-122.96389,46.11999],[-122.96402,46.11999],[-122.964043,46.120064],[-122.964149,46.12008],[-122.964184,46.120161],[-122.964278,46.12017],[-122.964288,46.120322],[-122.964334,46.120348],[-122.964408,46.12035],[-122.964414,46.120587],[-122.964456,46.120616],[-122.964537,46.12062],[-122.964555,46.120781],[-122.964666,46.120801]]]}},{"type":"Feature","properties":{"id":80,"area_m2":11400,"px":114,"rank":7,"persistent":false},"geometry":{"type":"Polygon","coordinates":[[[-122.957682,46.115038],[-122.957682,46.115218],[-122.957464,46.115224],[-122.957426,46.115256],[-122.957423,46.115308],[-122.957219,46.11531],[-122.95717,46.115341],[-122.957164,46.115398],[-122.95694,46.115407],[-122.956905,46.115488],[-122.956646,46.115488],[-122.956641,46.115418],[-122.956586,46.115385],[-122.956258,46.115397],[-122.956258,46.115308],[-122.95637,46.115288],[-122.956422,46.115175],[-122.956388,46.115127],[-122.956379,46.114976],[-122.956333,46.11495],[-122.956258,46.114947],[-122.956259,46.114497],[-122.956365,46.114482],[-122.956388,46.114408],[-122.956599,46.114403],[-122.956641,46.114374],[-122.956647,46.114318],[-122.956775,46.114301],[-122.956796,46.114262],[-122.956777,46.114138],[-122.957294,46.114138],[-122.957303,46.114289],[-122.957349,46.114316],[-122.957423,46.114318],[-122.957441,46.114478],[-122.957553,46.114498],[-122.957552,46.114768],[-122.957518,46.114816],[-122.957552,46.114858],[-122.957556,46.115],[-122.9576,46.115034],[-122.957682,46.115038]]]}},{"type":"Feature","properties":{"id":44,"area_m2":11100,"px":111,"rank":8,"persistent":false},"geometry":{"type":"Polygon","coordinates":[[[-122.976184,46.122784],[-122.976184,46.123143],[-122.976055,46.123143],[-122.976055,46.123012],[-122.976021,46.122973],[-122.97581,46.122973],[-122.975776,46.123014],[-122.975796,46.123233],[-122.975722,46.123236],[-122.975676,46.123262],[-122.975666,46.123413],[-122.975537,46.123413],[-122.975528,46.123352],[-122.975475,46.123324],[-122.975278,46.123323],[-122.975217,46.123299],[-122.975149,46.123323],[-122.97502,46.123323],[-122.975037,46.123183],[-122.974992,46.123148],[-122.97489,46.123143],[-122.97489,46.123012],[-122.974862,46.122975],[-122.974502,46.122963],[-122.974489,46.122897],[-122.974373,46.122873],[-122.974344,46.122795],[-122.974114,46.122783],[-122.974091,46.122709],[-122.973984,46.122693],[-122.973983,46.122286],[-122.973943,46.122249],[-122.973855,46.122243],[-122.973855,46.122153],[-122.973984,46.122153],[-122.97399,46.12221],[-122.974032,46.122239],[-122.974181,46.122242],[-122.974242,46.1222],[-122.974244,46.122063],[-122.974373,46.122063],[-122.974396,46.122137],[-122.974502,46.122153],[-122.974503,46.122284],[-122.974531,46.122321],[-122.974761,46.122333],[-122.974779,46.122403],[-122.97489,46.122423],[-122.974925,46.122504],[-122.97502,46.122513],[-122.975048,46.122591],[-122.975236,46.122602],[-122.975282,46.122583],[-122.975298,46.122542],[-122.975261,46.122443],[-122.975149,46.122423],[-122.97515,46.121973],[-122.975538,46.121973],[-122.975538,46.122153],[-122.975347,46.12214],[-122.975285,46.122173],[-122.975288,46.122395],[-122.975334,46.122421],[-122.975408,46.122423],[-122.975414,46.12248],[-122.975456,46.122509],[-122.975667,46.122513],[-122.97568,46.122579],[-122.975796,46.122603],[-122.975831,46.122684],[-122.976055,46.122693],[-122.976078,46.122768],[-122.976184,46.122784]]]}},{"type":"Feature","properties":{"id":97,"area_m2":11000,"px":110,"rank":9,"persistent":false},"geometry":{"type":"Polygon","coordinates":[[[-122.959496,46.110989],[-122.959496,46.111259],[-122.95939,46.111274],[-122.959367,46.111348],[-122.959266,46.111361],[-122.959237,46.111438],[-122.959142,46.111448],[-122.959108,46.111528],[-122.958996,46.111548],[-122.958978,46.111618],[-122.958849,46.111618],[-122.958826,46.111544],[-122.95872,46.111528],[-122.958685,46.111447],[-122.95859,46.111438],[-122.95859,46.111217],[-122.95855,46.111175],[-122.958373,46.111175],[-122.958335,46.111206],[-122.958332,46.111258],[-122.957944,46.111258],[-122.957942,46.110941],[-122.957903,46.110904],[-122.957814,46.110897],[-122.957815,46.110628],[-122.957903,46.110622],[-122.957944,46.110579],[-122.957944,46.110268],[-122.958051,46.110252],[-122.958074,46.110178],[-122.958203,46.110178],[-122.958221,46.110248],[-122.958332,46.110268],[-122.958367,46.110349],[-122.958462,46.110358],[-122.95849,46.110436],[-122.958591,46.110448],[-122.958619,46.110526],[-122.95885,46.110538],[-122.958873,46.110613],[-122.958979,46.110628],[-122.958997,46.110699],[-122.959108,46.110718],[-122.959143,46.110799],[-122.959238,46.110809],[-122.959266,46.110886],[-122.959367,46.110899],[-122.959396,46.110976],[-122.959496,46.110989]]]}},{"type":"Feature","properties":{"id":94,"area_m2":10400,"px":104,"rank":10,"persistent":false},"geometry":{"type":"Polygon","coordinates":[[[-122.960919,46.112609],[-122.960919,46.112789],[-122.960812,46.112805],[-122.960789,46.112879],[-122.960694,46.112888],[-122.96066,46.112969],[-122.960548,46.112989],[-122.96053,46.113059],[-122.960272,46.113059],[-122.960249,46.112985],[-122.960142,46.112969],[-122.960125,46.112809],[-122.960013,46.112789],[-122.959978,46.112708],[-122.959884,46.112699],[-122.959866,46.112448],[-122.959814,46.112429],[-122.959496,46.112429],[-122.959496,46.111889],[-122.95957,46.111886],[-122.959616,46.11186],[-122.959626,46.111619],[-122.959732,46.111603],[-122.959755,46.111529],[-122.960014,46.111529],[-122.960027,46.111595],[-122.960143,46.111619],[-122.960171,46.111697],[-122.960402,46.111709],[-122.960425,46.111783],[-122.960531,46.111799],[-122.960531,46.112159],[-122.960415,46.112183],[-122.960405,46.112301],[-122.960449,46.112335],[-122.960531,46.112339],[-122.960565,46.11242],[-122.96066,46.112429],[-122.960688,46.112507],[-122.960789,46.112519],[-122.960818,46.112597],[-122.960919,46.112609]]]}},{"type":"Feature","properties":{"id":74,"area_m2":9800,"px":98,"rank":11,"persistent":false},"geometry":{"type":"Polygon","coordinates":[[[-122.960786,46.116839],[-122.960786,46.117019],[-122.959751,46.117019],[-122.959723,46.116941],[-122.959492,46.116929],[-122.959483,46.116867],[-122.959422,46.116839],[-122.959296,46.11684],[-122.959246,46.116863],[-122.959233,46.117019],[-122.959104,46.117018],[-122.959095,46.116957],[-122.959041,46.11693],[-122.958457,46.116928],[-122.958457,46.116478],[-122.958539,46.116474],[-122.958583,46.11644],[-122.958587,46.116208],[-122.959234,46.116209],[-122.959257,46.116283],[-122.959363,46.116299],[-122.959385,46.116386],[-122.959438,46.116402],[-122.959622,46.116389],[-122.959635,46.116455],[-122.959751,46.116479],[-122.959755,46.116544],[-122.959797,46.116578],[-122.960528,46.116569],[-122.960541,46.116815],[-122.960598,46.116839],[-122.960786,46.116839]]]}},{"type":"Feature","properties":{"id":73,"area_m2":9300,"px":93,"rank":12,"persistent":false},"geometry":{"type":"Polygon","coordinates":[[[-122.958069,46.116388],[-122.958068,46.117018],[-122.957962,46.117034],[-122.957939,46.117108],[-122.957551,46.117108],[-122.957528,46.117034],[-122.957422,46.117018],[-122.957404,46.116948],[-122.957292,46.116928],[-122.957258,46.116847],[-122.957163,46.116838],[-122.957134,46.11676],[-122.957033,46.116748],[-122.957033,46.116346],[-122.956993,46.116304],[-122.956904,46.116298],[-122.956905,46.115938],[-122.957011,46.115922],[-122.957034,46.115848],[-122.95715,46.115824],[-122.957164,46.115758],[-122.957362,46.11577],[-122.957417,46.115738],[-122.957423,46.115668],[-122.957681,46.115668],[-122.957681,46.115758],[-122.9576,46.115762],[-122.957555,46.115796],[-122.957558,46.115995],[-122.957614,46.116027],[-122.95781,46.116028],[-122.957833,46.116102],[-122.95794,46.116118],[-122.957925,46.116353],[-122.957974,46.116386],[-122.958069,46.116388]]]}},{"type":"Feature","properties":{"id":34,"area_m2":8000,"px":80,"rank":13,"persistent":false},"geometry":{"type":"Polygon","coordinates":[[[-122.970101,46.124042],[-122.9701,46.124222],[-122.969842,46.124222],[-122.96984,46.124085],[-122.969794,46.124046],[-122.969653,46.124042],[-122.969596,46.124066],[-122.969583,46.124222],[-122.969548,46.124264],[-122.969583,46.124312],[-122.969583,46.124402],[-122.969501,46.124406],[-122.969459,46.124435],[-122.969418,46.124534],[-122.969453,46.124582],[-122.969453,46.124672],[-122.969379,46.124674],[-122.969333,46.1247],[-122.969323,46.124852],[-122.96899,46.124854],[-122.968941,46.124885],[-122.968935,46.124942],[-122.968819,46.124966],[-122.968806,46.125032],[-122.968547,46.125032],[-122.968547,46.124762],[-122.968656,46.124755],[-122.968696,46.124706],[-122.968675,46.124445],[-122.968636,46.124408],[-122.968547,46.124402],[-122.968547,46.124222],[-122.96901,46.124219],[-122.969059,46.124188],[-122.969084,46.124103],[-122.969045,46.124048],[-122.968936,46.124042],[-122.968932,46.12399],[-122.968895,46.123958],[-122.968677,46.123952],[-122.968677,46.123862],[-122.968758,46.123858],[-122.968803,46.123823],[-122.968807,46.123682],[-122.968936,46.123682],[-122.96897,46.123763],[-122.969195,46.123772],[-122.969223,46.12385],[-122.969371,46.123876],[-122.969445,46.123847],[-122.969454,46.123772],[-122.969583,46.123772],[-122.969596,46.123838],[-122.969661,46.123862],[-122.969807,46.123853],[-122.969842,46.123772],[-122.969971,46.123772],[-122.969975,46.124004],[-122.970019,46.124038],[-122.970101,46.124042]]]}},{"type":"Feature","properties":{"id":92,"area_m2":7400,"px":74,"rank":14,"persistent":false},"geometry":{"type":"Polygon","coordinates":[[[-122.963118,46.11324],[-122.963118,46.11333],[-122.963037,46.113334],[-122.962992,46.113368],[-122.962989,46.11351],[-122.962882,46.113526],[-122.962859,46.1136],[-122.962743,46.113624],[-122.96273,46.11369],[-122.962471,46.11369],[-122.962448,46.113615],[-122.962342,46.1136],[-122.962342,46.11342],[-122.962416,46.113417],[-122.962462,46.113391],[-122.962462,46.113268],[-122.962416,46.113242],[-122.962342,46.11324],[-122.962307,46.113159],[-122.962213,46.113149],[-122.962184,46.113072],[-122.962083,46.113059],[-122.96208,46.112918],[-122.962035,46.112884],[-122.961954,46.112879],[-122.961936,46.112719],[-122.961825,46.112699],[-122.96179,46.112618],[-122.961695,46.112609],[-122.961667,46.112532],[-122.961566,46.112519],[-122.961566,46.112339],[-122.961673,46.112324],[-122.961696,46.112249],[-122.961812,46.112225],[-122.961825,46.112159],[-122.961954,46.112159],[-122.961977,46.112234],[-122.962084,46.11225],[-122.962118,46.11233],[-122.962213,46.11234],[-122.962219,46.112486],[-122.962261,46.112515],[-122.962342,46.11252],[-122.962377,46.1126],[-122.962472,46.11261],[-122.962485,46.112766],[-122.962601,46.11279],[-122.962635,46.112871],[-122.96273,46.11288],[-122.962759,46.112957],[-122.96286,46.11297],[-122.962873,46.113126],[-122.962989,46.11315],[-122.963023,46.113231],[-122.963118,46.11324]]]}},{"type":"Feature","properties":{"id":59,"area_m2":6200,"px":62,"rank":15,"persistent":false},"geometry":{"type":"Polygon","coordinates":[[[-122.961432,46.118279],[-122.961432,46.118549],[-122.961326,46.118565],[-122.961303,46.118639],[-122.960704,46.118643],[-122.960657,46.118683],[-122.960656,46.118819],[-122.960267,46.118819],[-122.960264,46.118754],[-122.960228,46.118722],[-122.959879,46.118729],[-122.95987,46.118667],[-122.959809,46.118639],[-122.959655,46.118648],[-122.95962,46.118729],[-122.959491,46.118729],[-122.959468,46.118655],[-122.959362,46.118639],[-122.959362,46.118369],[-122.95962,46.118369],[-122.959655,46.11845],[-122.959809,46.118459],[-122.95987,46.11843],[-122.959879,46.118369],[-122.959991,46.118349],[-122.960009,46.118279],[-122.960268,46.118279],[-122.960283,46.118361],[-122.960234,46.118422],[-122.960259,46.118454],[-122.960322,46.118473],[-122.960388,46.118444],[-122.960397,46.118369],[-122.960586,46.118369],[-122.960638,46.118349],[-122.960656,46.118189],[-122.961044,46.118189],[-122.96105,46.118246],[-122.961099,46.118277],[-122.961432,46.118279]]]}},{"type":"Feature","properties":{"id":48,"area_m2":6000,"px":60,"rank":16,"persistent":false},"geometry":{"type":"Polygon","coordinates":[[[-122.967643,46.121431],[-122.967643,46.121521],[-122.967536,46.121537],[-122.967513,46.121611],[-122.967397,46.121635],[-122.967384,46.121701],[-122.967125,46.121701],[-122.967122,46.12165],[-122.967084,46.121618],[-122.966866,46.121611],[-122.966849,46.121541],[-122.966737,46.121521],[-122.966724,46.121455],[-122.966608,46.121431],[-122.966604,46.121379],[-122.966566,46.121347],[-122.966219,46.121341],[-122.966216,46.121289],[-122.966178,46.121257],[-122.965961,46.121251],[-122.965961,46.121161],[-122.966055,46.121152],[-122.96609,46.121107],[-122.966077,46.121005],[-122.965961,46.120981],[-122.965961,46.120801],[-122.966067,46.120785],[-122.96609,46.120711],[-122.966349,46.120711],[-122.966372,46.120785],[-122.966478,46.120801],[-122.966513,46.120882],[-122.966608,46.120891],[-122.966608,46.121022],[-122.966636,46.121059],[-122.966996,46.121071],[-122.967014,46.121141],[-122.967125,46.121161],[-122.96716,46.121242],[-122.967255,46.121251],[-122.967283,46.121329],[-122.967513,46.121341],[-122.967536,46.121415],[-122.967643,46.121431]]]}},{"type":"Feature","properties":{"id":67,"area_m2":6000,"px":60,"rank":17,"persistent":false},"geometry":{"type":"Polygon","coordinates":[[[-122.960139,46.117739],[-122.960138,46.117919],[-122.960032,46.117935],[-122.960009,46.118009],[-122.959491,46.118009],[-122.959482,46.117947],[-122.959429,46.11792],[-122.958974,46.117918],[-122.958965,46.117767],[-122.958919,46.117741],[-122.958844,46.117737],[-122.958845,46.117648],[-122.958879,46.117606],[-122.958845,46.117558],[-122.958845,46.117379],[-122.958919,46.117376],[-122.958965,46.11735],[-122.958974,46.117199],[-122.959178,46.117196],[-122.959227,46.117165],[-122.959233,46.117109],[-122.959363,46.117109],[-122.959385,46.117183],[-122.959492,46.117199],[-122.959508,46.117371],[-122.959459,46.117411],[-122.959477,46.11746],[-122.959531,46.117482],[-122.959594,46.11747],[-122.959621,46.117379],[-122.95988,46.117379],[-122.959889,46.11762],[-122.959935,46.117647],[-122.960009,46.117649],[-122.960044,46.11773],[-122.960139,46.117739]]]}},{"type":"Feature","properties":{"id":63,"area_m2":4500,"px":45,"rank":18,"persistent":false},"geometry":{"type":"Polygon","coordinates":[[[-122.962727,46.11828],[-122.962727,46.11846],[-122.96262,46.118476],[-122.962597,46.11855],[-122.96234,46.11855],[-122.96231,46.118472],[-122.96208,46.11846],[-122.962057,46.118385],[-122.96195,46.118369],[-122.961916,46.118289],[-122.961821,46.118279],[-122.961819,46.118053],[-122.96178,46.118016],[-122.961692,46.118009],[-122.961692,46.11792],[-122.961808,46.117895],[-122.961821,46.11774],[-122.961928,46.117724],[-122.961951,46.11765],[-122.962209,46.11765],[-122.962232,46.117724],[-122.962339,46.11774],[-122.962348,46.117891],[-122.962394,46.117917],[-122.962468,46.11792],[-122.962477,46.118161],[-122.962523,46.118187],[-122.962597,46.11819],[-122.962632,46.118271],[-122.962727,46.11828]]]}},{"type":"Feature","properties":{"id":54,"area_m2":4100,"px":41,"rank":19,"persistent":false},"geometry":{"type":"Polygon","coordinates":[[[-122.964408,46.11963],[-122.964408,46.1199],[-122.964279,46.1199],[-122.964261,46.11983],[-122.964149,46.11981],[-122.964132,46.11974],[-122.96402,46.11972],[-122.964002,46.11965],[-122.963891,46.11963],[-122.963878,46.119564],[-122.963761,46.11954],[-122.963727,46.119459],[-122.963373,46.11945],[-122.963373,46.11936],[-122.963485,46.11934],[-122.963537,46.119228],[-122.963485,46.11911],[-122.963373,46.11909],[-122.963374,46.11882],[-122.963503,46.11882],[-122.963509,46.118877],[-122.963558,46.118908],[-122.963762,46.11891],[-122.963784,46.118984],[-122.963891,46.119],[-122.963904,46.119066],[-122.96402,46.11909],[-122.964049,46.119168],[-122.96415,46.11918],[-122.964159,46.119332],[-122.964205,46.119358],[-122.964279,46.11936],[-122.964285,46.119597],[-122.964327,46.119626],[-122.964408,46.11963]]]}},{"type":"Feature","properties":{"id":91,"area_m2":3700,"px":37,"rank":20,"persistent":false},"geometry":{"type":"Polygon","coordinates":[[[-122.959883,46.112969],[-122.959883,46.113149],[-122.959665,46.113155],[-122.959628,46.113187],[-122.959624,46.113239],[-122.959508,46.113263],[-122.959495,46.113329],[-122.959383,46.113348],[-122.959365,46.113508],[-122.95927,46.113518],[-122.959236,46.113598],[-122.959154,46.113603],[-122.959112,46.113632],[-122.959106,46.113778],[-122.958718,46.113778],[-122.958718,46.113418],[-122.958825,46.113403],[-122.958848,46.113328],[-122.958964,46.113304],[-122.958977,46.113238],[-122.959213,46.113223],[-122.959236,46.113059],[-122.959343,46.113043],[-122.959366,46.112969],[-122.959482,46.112945],[-122.959495,46.112879],[-122.959754,46.112879],[-122.959777,46.112953],[-122.959883,46.112969]]]}},{"type":"Feature","properties":{"id":29,"area_m2":3300,"px":33,"rank":21,"persistent":false},"geometry":{"type":"Polygon","coordinates":[[[-122.970359,46.125572],[-122.970358,46.125842],[-122.970252,46.125858],[-122.970229,46.125932],[-122.970113,46.125956],[-122.970099,46.126022],[-122.969841,46.126022],[-122.969818,46.125858],[-122.969582,46.125842],[-122.969582,46.125392],[-122.969689,46.125376],[-122.969712,46.125302],[-122.969841,46.125302],[-122.969847,46.125359],[-122.969896,46.12539],[-122.9701,46.125392],[-122.970123,46.125466],[-122.970229,46.125482],[-122.970264,46.125563],[-122.970359,46.125572]]]}},{"type":"Feature","properties":{"id":82,"area_m2":3200,"px":32,"rank":22,"persistent":false},"geometry":{"type":"Polygon","coordinates":[[[-122.958847,46.114858],[-122.958846,46.115038],[-122.958521,46.115039],[-122.958467,46.115067],[-122.958458,46.115128],[-122.958199,46.115128],[-122.958196,46.115076],[-122.958158,46.115045],[-122.957941,46.115038],[-122.957941,46.114588],[-122.958588,46.114588],[-122.958601,46.114744],[-122.958717,46.114768],[-122.958752,46.114849],[-122.958847,46.114858]]]}},{"type":"Feature","properties":{"id":39,"area_m2":2800,"px":28,"rank":23,"persistent":false},"geometry":{"type":"Polygon","coordinates":[[[-122.967123,46.124221],[-122.967123,46.124311],[-122.967017,46.124327],[-122.966994,46.124401],[-122.966606,46.124401],[-122.966593,46.124155],[-122.966476,46.124131],[-122.966442,46.12405],[-122.966347,46.124041],[-122.966319,46.123963],[-122.966218,46.123951],[-122.966189,46.123873],[-122.966088,46.123861],[-122.966089,46.123591],[-122.966347,46.123591],[-122.96637,46.123665],[-122.966477,46.123681],[-122.966494,46.123841],[-122.966606,46.123861],[-122.966612,46.123918],[-122.966654,46.123947],[-122.966865,46.123951],[-122.966878,46.124107],[-122.966994,46.124131],[-122.967029,46.124212],[-122.967123,46.124221]]]}},{"type":"Feature","properties":{"id":25,"area_m2":2500,"px":25,"rank":24,"persistent":false},"geometry":{"type":"Polygon","coordinates":[[[-122.974629,46.126833],[-122.974629,46.127103],[-122.974241,46.127103],[-122.974218,46.126939],[-122.974112,46.126923],[-122.974108,46.126871],[-122.974071,46.126839],[-122.973853,46.126833],[-122.97383,46.126759],[-122.973724,46.126743],[-122.973724,46.126563],[-122.97383,46.126547],[-122.973853,46.126473],[-122.973982,46.126473],[-122.974011,46.126551],[-122.974241,46.126563],[-122.974264,46.126637],[-122.974371,46.126653],[-122.974384,46.126719],[-122.9745,46.126743],[-122.974528,46.126821],[-122.974629,46.126833]]]}},{"type":"Feature","properties":{"id":66,"area_m2":2500,"px":25,"rank":25,"persistent":false},"geometry":{"type":"Polygon","coordinates":[[[-122.960786,46.117739],[-122.960786,46.118009],[-122.960658,46.118009],[-122.960643,46.117943],[-122.960527,46.117919],[-122.960504,46.117845],[-122.960398,46.117829],[-122.960375,46.117755],[-122.960268,46.117739],[-122.960269,46.117199],[-122.960375,46.117183],[-122.960398,46.117109],[-122.960527,46.117109],[-122.96055,46.117183],[-122.960657,46.117199],[-122.960658,46.117696],[-122.960697,46.117733],[-122.960786,46.117739]]]}},{"type":"Feature","properties":{"id":65,"area_m2":2400,"px":24,"rank":26,"persistent":false},"geometry":{"type":"Polygon","coordinates":[[[-122.964021,46.11783],[-122.964021,46.11792],[-122.963914,46.117936],[-122.963892,46.11801],[-122.963762,46.11801],[-122.963762,46.11792],[-122.963797,46.117872],[-122.96374,46.117756],[-122.963504,46.11774],[-122.963494,46.117679],[-122.963441,46.117651],[-122.963115,46.11765],[-122.963093,46.117576],[-122.962986,46.11756],[-122.962968,46.11749],[-122.962857,46.11747],[-122.962822,46.117389],[-122.962727,46.11738],[-122.962699,46.117302],[-122.962598,46.11729],[-122.962598,46.1172],[-122.962727,46.1172],[-122.962788,46.117224],[-122.962857,46.1172],[-122.962986,46.1172],[-122.963047,46.117224],[-122.963116,46.1172],[-122.963245,46.1172],[-122.963263,46.11736],[-122.963374,46.11738],[-122.963409,46.117461],[-122.963504,46.11747],[-122.963532,46.117548],[-122.963633,46.11756],[-122.963661,46.117638],[-122.963762,46.11765],[-122.963791,46.117728],[-122.963892,46.11774],[-122.96392,46.117818],[-122.964021,46.11783]]]}},{"type":"Feature","properties":{"id":77,"area_m2":2400,"px":24,"rank":27,"persistent":false},"geometry":{"type":"Polygon","coordinates":[[[-122.959752,46.115849],[-122.959752,46.116029],[-122.959493,46.116029],[-122.959475,46.115958],[-122.959364,46.115939],[-122.95935,46.115873],[-122.959286,46.115849],[-122.959167,46.11585],[-122.959118,46.115873],[-122.959105,46.116028],[-122.958846,46.116028],[-122.958846,46.115758],[-122.958934,46.115752],[-122.958975,46.11571],[-122.958976,46.115399],[-122.959105,46.115399],[-122.959106,46.115535],[-122.959146,46.115572],[-122.959493,46.115579],[-122.959493,46.1158],[-122.959521,46.115836],[-122.959752,46.115849]]]}},{"type":"Feature","properties":{"id":85,"area_m2":2400,"px":24,"rank":28,"persistent":false},"geometry":{"type":"Polygon","coordinates":[[[-122.962729,46.11423],[-122.962729,46.11441],[-122.962655,46.114412],[-122.962609,46.114438],[-122.9626,46.11459],[-122.962212,46.114589],[-122.962189,46.114515],[-122.962082,46.114499],[-122.962048,46.114419],[-122.961953,46.114409],[-122.961953,46.11414],[-122.9626,46.11414],[-122.962623,46.114214],[-122.962729,46.11423]]]}},{"type":"Feature","properties":{"id":35,"area_m2":2300,"px":23,"rank":29,"persistent":false},"geometry":{"type":"Polygon","coordinates":[[[-122.970489,46.124312],[-122.970489,46.124402],[-122.970388,46.124414],[-122.970359,46.124492],[-122.970264,46.124501],[-122.97023,46.124582],[-122.970113,46.124606],[-122.9701,46.124762],[-122.969911,46.124762],[-122.969854,46.124786],[-122.969841,46.124942],[-122.969582,46.124942],[-122.969583,46.124582],[-122.969657,46.12458],[-122.969703,46.124553],[-122.969712,46.124402],[-122.970033,46.124415],[-122.970095,46.124382],[-122.970101,46.124312],[-122.970489,46.124312]]]}},{"type":"Feature","properties":{"id":4,"area_m2":2200,"px":22,"rank":30,"persistent":false},"geometry":{"type":"Polygon","coordinates":[[[-122.988349,46.132686],[-122.988349,46.132775],[-122.988254,46.132778],[-122.988205,46.13281],[-122.988219,46.132955],[-122.988125,46.132965],[-122.98809,46.133045],[-122.988016,46.133048],[-122.98797,46.133074],[-122.98796,46.133225],[-122.987831,46.133225],[-122.98783,46.133075],[-122.987785,46.133036],[-122.987607,46.133055],[-122.98757,46.133135],[-122.987443,46.133135],[-122.98742,46.133061],[-122.987313,46.133045],[-122.987313,46.132955],[-122.98742,46.13294],[-122.987443,46.132865],[-122.987632,46.132865],[-122.987684,46.132846],[-122.987702,46.132686],[-122.988349,46.132686]]]}},{"type":"Feature","properties":{"id":40,"area_m2":2200,"px":22,"rank":31,"persistent":false},"geometry":{"type":"Polygon","coordinates":[[[-122.976958,46.123505],[-122.976926,46.123551],[-122.976961,46.123594],[-122.976961,46.123684],[-122.976702,46.123684],[-122.976679,46.123609],[-122.976573,46.123593],[-122.976538,46.123513],[-122.976443,46.123503],[-122.976426,46.123343],[-122.976314,46.123323],[-122.976314,46.123234],[-122.976395,46.123229],[-122.97644,46.123195],[-122.976443,46.123054],[-122.97655,46.123038],[-122.976573,46.122964],[-122.976702,46.122964],[-122.976711,46.123115],[-122.976757,46.123141],[-122.976831,46.123144],[-122.976849,46.123304],[-122.976961,46.123324],[-122.976958,46.123505]]]}},{"type":"Feature","properties":{"id":78,"area_m2":2200,"px":22,"rank":32,"persistent":false},"geometry":{"type":"Polygon","coordinates":[[[-122.958846,46.115308],[-122.958846,46.115578],[-122.958657,46.115579],[-122.958605,46.115598],[-122.958587,46.115758],[-122.958506,46.115762],[-122.958461,46.115797],[-122.958457,46.115938],[-122.958199,46.115938],[-122.958197,46.115712],[-122.958158,46.115675],[-122.95807,46.115668],[-122.95807,46.115578],[-122.958176,46.115562],[-122.958199,46.115488],[-122.958315,46.115464],[-122.958329,46.115398],[-122.958546,46.115392],[-122.958584,46.11536],[-122.958588,46.115308],[-122.958846,46.115308]]]}},{"type":"Feature","properties":{"id":21,"area_m2":2100,"px":21,"rank":33,"persistent":false},"geometry":{"type":"Polygon","coordinates":[[[-122.972299,46.127283],[-122.972299,46.127553],[-122.97217,46.127553],[-122.972141,46.127475],[-122.971911,46.127463],[-122.971888,46.127388],[-122.971782,46.127372],[-122.971769,46.127307],[-122.971652,46.127282],[-122.971624,46.127205],[-122.971523,46.127192],[-122.971523,46.127013],[-122.97163,46.126997],[-122.971652,46.126923],[-122.971911,46.126923],[-122.971929,46.127083],[-122.97204,46.127103],[-122.972075,46.127184],[-122.97217,46.127193],[-122.972198,46.12727],[-122.972299,46.127283]]]}},{"type":"Feature","properties":{"id":93,"area_m2":1900,"px":19,"rank":34,"persistent":false},"geometry":{"type":"Polygon","coordinates":[[[-122.961695,46.113419],[-122.961695,46.113599],[-122.961588,46.113615],[-122.961565,46.113689],[-122.961306,46.113689],[-122.961284,46.113615],[-122.961177,46.113599],[-122.961154,46.113435],[-122.960918,46.113419],[-122.960918,46.113239],[-122.961122,46.113237],[-122.961171,46.113206],[-122.961177,46.113149],[-122.961307,46.113149],[-122.961329,46.113313],[-122.961565,46.113329],[-122.961588,46.113404],[-122.961695,46.113419]]]}},{"type":"Feature","properties":{"id":98,"area_m2":1900,"px":19,"rank":35,"persistent":false},"geometry":{"type":"Polygon","coordinates":[[[-122.957944,46.110088],[-122.957944,46.110178],[-122.957863,46.110182],[-122.957818,46.110216],[-122.957815,46.110358],[-122.957733,46.110362],[-122.957691,46.110391],[-122.957685,46.110538],[-122.957579,46.110554],[-122.957556,46.110628],[-122.957168,46.110628],[-122.957168,46.110538],[-122.957263,46.110529],[-122.957297,46.110484],[-122.957284,46.110382],[-122.957168,46.110358],[-122.957168,46.110268],[-122.957528,46.110256],[-122.957556,46.110178],[-122.957638,46.110174],[-122.95768,46.110145],[-122.957686,46.109998],[-122.957815,46.109998],[-122.957838,46.110072],[-122.957944,46.110088]]]}},{"type":"Feature","properties":{"id":45,"area_m2":1700,"px":17,"rank":36,"persistent":false},"geometry":{"type":"Polygon","coordinates":[[[-122.969066,46.123052],[-122.969065,46.123322],[-122.968732,46.123324],[-122.968683,46.123355],[-122.968675,46.123412],[-122.968548,46.123412],[-122.968525,46.123337],[-122.968418,46.123322],[-122.968419,46.123052],[-122.968525,46.123036],[-122.968548,46.122962],[-122.968677,46.122962],[-122.968687,46.123023],[-122.96874,46.123051],[-122.969066,46.123052]]]}},{"type":"Feature","properties":{"id":28,"area_m2":1500,"px":15,"rank":37,"persistent":false},"geometry":{"type":"Polygon","coordinates":[[[-122.973594,46.126293],[-122.973594,46.126563],[-122.973335,46.126563],[-122.973318,46.126403],[-122.973206,46.126383],[-122.973171,46.126302],[-122.973077,46.126293],[-122.973048,46.126215],[-122.972947,46.126203],[-122.972947,46.126023],[-122.973206,46.126023],[-122.973229,46.126097],[-122.973335,46.126113],[-122.973349,46.126179],[-122.973465,46.126203],[-122.973493,46.126281],[-122.973594,46.126293]]]}},{"type":"Feature","properties":{"id":50,"area_m2":1500,"px":15,"rank":38,"persistent":false},"geometry":{"type":"Polygon","coordinates":[[[-122.962984,46.12089],[-122.962984,46.12098],[-122.962877,46.120996],[-122.962854,46.12107],[-122.962725,46.12107],[-122.962702,46.120996],[-122.962596,46.12098],[-122.962561,46.120899],[-122.962466,46.12089],[-122.962457,46.120738],[-122.962411,46.120712],[-122.962337,46.12071],[-122.962337,46.12053],[-122.962596,46.12053],[-122.962618,46.120604],[-122.962725,46.12062],[-122.96276,46.120701],[-122.962854,46.12071],[-122.962872,46.12087],[-122.962984,46.12089]]]}},{"type":"Feature","properties":{"id":83,"area_m2":1400,"px":14,"rank":39,"persistent":false},"geometry":{"type":"Polygon","coordinates":[[[-122.960011,46.114589],[-122.960011,46.114679],[-122.959794,46.114685],[-122.959756,46.114717],[-122.959753,46.114769],[-122.959494,46.114769],[-122.959491,46.114627],[-122.959446,46.114593],[-122.959365,46.114589],[-122.959365,46.114499],[-122.959459,46.11449],[-122.959494,46.114409],[-122.95961,46.114385],[-122.959624,46.114229],[-122.959753,46.114229],[-122.959762,46.11447],[-122.959808,46.114496],[-122.959882,46.114499],[-122.959917,46.11458],[-122.960011,46.114589]]]}},{"type":"Feature","properties":{"id":95,"area_m2":1300,"px":13,"rank":40,"persistent":false},"geometry":{"type":"Polygon","coordinates":[[[-122.958461,46.111798],[-122.95846,46.111978],[-122.958354,46.111994],[-122.958331,46.112068],[-122.958072,46.112068],[-122.958069,46.112016],[-122.958031,46.111984],[-122.957814,46.111978],[-122.957814,46.111888],[-122.95792,46.111872],[-122.957943,46.111798],[-122.958059,46.111774],[-122.958073,46.111708],[-122.958331,46.111708],[-122.958354,46.111782],[-122.958461,46.111798]]]}},{"type":"Feature","properties":{"id":17,"area_m2":1200,"px":12,"rank":41,"persistent":false},"geometry":{"type":"Polygon","coordinates":[[[-122.976053,46.127914],[-122.976053,46.128003],[-122.975796,46.128003],[-122.975791,46.127952],[-122.975753,46.12792],[-122.975535,46.127913],[-122.975518,46.127753],[-122.975465,46.127734],[-122.975276,46.127733],[-122.975254,46.127659],[-122.975147,46.127643],[-122.975112,46.127562],[-122.975018,46.127553],[-122.975018,46.127463],[-122.975147,46.127463],[-122.97516,46.127529],[-122.975276,46.127553],[-122.975282,46.12761],[-122.975324,46.127639],[-122.975665,46.127643],[-122.975687,46.127718],[-122.975794,46.127734],[-122.975807,46.127799],[-122.975923,46.127824],[-122.975952,46.127901],[-122.976053,46.127914]]]}},{"type":"Feature","properties":{"id":62,"area_m2":1200,"px":12,"rank":42,"persistent":false},"geometry":{"type":"Polygon","coordinates":[[[-122.964797,46.118281],[-122.964797,46.11855],[-122.964539,46.11855],[-122.964516,46.118476],[-122.964409,46.11846],[-122.964375,46.118379],[-122.96428,46.11837],[-122.96428,46.11828],[-122.964314,46.118238],[-122.96428,46.11819],[-122.96428,46.1181],[-122.964539,46.1181],[-122.964561,46.118265],[-122.964797,46.118281]]]}},{"type":"Feature","properties":{"id":89,"area_m2":1200,"px":12,"rank":43,"persistent":false},"geometry":{"type":"Polygon","coordinates":[[[-122.963506,46.11387],[-122.963506,46.11405],[-122.963118,46.11405],[-122.963109,46.113898],[-122.963063,46.113872],[-122.962989,46.11387],[-122.962989,46.1136],[-122.963118,46.1136],[-122.963141,46.113674],[-122.963247,46.11369],[-122.963261,46.113756],[-122.963377,46.11378],[-122.963405,46.113858],[-122.963506,46.11387]]]}},{"type":"Feature","properties":{"id":8,"area_m2":1100,"px":11,"rank":44,"persistent":false},"geometry":{"type":"Polygon","coordinates":[[[-122.989644,46.131066],[-122.989644,46.131246],[-122.989537,46.131261],[-122.989514,46.131336],[-122.989385,46.131336],[-122.989362,46.131261],[-122.989256,46.131246],[-122.989221,46.131165],[-122.989126,46.131156],[-122.989126,46.130976],[-122.989514,46.130976],[-122.989537,46.13105],[-122.989644,46.131066]]]}},{"type":"Feature","properties":{"id":69,"area_m2":1100,"px":11,"rank":45,"persistent":false},"geometry":{"type":"Polygon","coordinates":[[[-122.957939,46.117288],[-122.957939,46.117468],[-122.957844,46.117477],[-122.957809,46.117522],[-122.957822,46.117624],[-122.957939,46.117648],[-122.957938,46.117738],[-122.957809,46.117738],[-122.957806,46.117686],[-122.957768,46.117654],[-122.95755,46.117648],[-122.957551,46.117288],[-122.957939,46.117288]]]}},{"type":"Feature","properties":{"id":79,"area_m2":1100,"px":11,"rank":46,"persistent":false},"geometry":{"type":"Polygon","coordinates":[[[-122.965576,46.115401],[-122.965576,46.115491],[-122.965457,46.115502],[-122.965378,46.115466],[-122.965301,46.115509],[-122.965331,46.115571],[-122.965446,46.115581],[-122.965446,46.115671],[-122.965187,46.11567],[-122.965165,46.115596],[-122.965058,46.11558],[-122.965058,46.115131],[-122.965188,46.115131],[-122.965188,46.115262],[-122.965216,46.115298],[-122.965446,46.115311],[-122.965469,46.115385],[-122.965576,46.115401]]]}},{"type":"Feature","properties":{"id":24,"area_m2":1000,"px":10,"rank":47,"persistent":false},"geometry":{"type":"Polygon","coordinates":[[[-122.975406,46.126833],[-122.975406,46.127103],[-122.975277,46.127103],[-122.975276,46.126972],[-122.975242,46.126932],[-122.975086,46.126899],[-122.975018,46.126923],[-122.974888,46.126923],[-122.974889,46.126653],[-122.975147,46.126653],[-122.97517,46.126727],[-122.975277,46.126743],[-122.975311,46.126824],[-122.975406,46.126833]]]}},{"type":"Feature","properties":{"id":27,"area_m2":1000,"px":10,"rank":48,"persistent":false},"geometry":{"type":"Polygon","coordinates":[[[-122.974759,46.126383],[-122.974759,46.126473],[-122.974652,46.126489],[-122.97463,46.126563],[-122.974371,46.126563],[-122.974348,46.126489],[-122.974241,46.126473],[-122.974242,46.126203],[-122.9745,46.126203],[-122.974523,46.126367],[-122.974759,46.126383]]]}},{"type":"Feature","properties":{"id":41,"area_m2":1000,"px":10,"rank":49,"persistent":false},"geometry":{"type":"Polygon","coordinates":[[[-122.97023,46.123322],[-122.97023,46.123682],[-122.969971,46.123682],[-122.969962,46.123531],[-122.969916,46.123504],[-122.969842,46.123502],[-122.969842,46.123322],[-122.97023,46.123322]]]}},{"type":"Feature","properties":{"id":88,"area_m2":1000,"px":10,"rank":50,"persistent":false},"geometry":{"type":"Polygon","coordinates":[[[-122.958718,46.114048],[-122.958718,46.114228],[-122.958611,46.114244],[-122.958588,46.114318],[-122.958459,46.114318],[-122.958436,46.114244],[-122.95833,46.114228],[-122.958295,46.114147],[-122.9582,46.114138],[-122.9582,46.113958],[-122.958459,46.113958],[-122.958462,46.11401],[-122.9585,46.114042],[-122.958718,46.114048]]]}},{"type":"Feature","properties":{"id":71,"area_m2":900,"px":9,"rank":51,"persistent":false},"geometry":{"type":"Polygon","coordinates":[[[-122.961951,46.11747],[-122.961951,46.117559],[-122.961563,46.117559],[-122.961559,46.117418],[-122.961515,46.117383],[-122.961433,46.117379],[-122.961433,46.117289],[-122.96154,46.117274],[-122.961563,46.117199],[-122.961692,46.117199],[-122.961715,46.117274],[-122.961821,46.11729],[-122.961834,46.117445],[-122.961951,46.11747]]]}},{"type":"Feature","properties":{"id":90,"area_m2":900,"px":9,"rank":52,"persistent":false},"geometry":{"type":"Polygon","coordinates":[[[-122.961306,46.113779],[-122.961306,46.113869],[-122.961102,46.113871],[-122.961053,46.113902],[-122.961047,46.113959],[-122.960918,46.113959],[-122.960918,46.113869],[-122.960953,46.113821],[-122.960918,46.113779],[-122.960915,46.113637],[-122.96087,46.113603],[-122.960789,46.113599],[-122.960754,46.113518],[-122.960659,46.113509],[-122.96066,46.113329],[-122.960789,46.113329],[-122.960806,46.113489],[-122.960918,46.113509],[-122.960953,46.11359],[-122.961047,46.113599],[-122.961076,46.113677],[-122.961177,46.113689],[-122.961205,46.113767],[-122.961306,46.113779]]]}},{"type":"Feature","properties":{"id":3,"area_m2":800,"px":8,"rank":53,"persistent":false},"geometry":{"type":"Polygon","coordinates":[[[-122.987443,46.133225],[-122.987443,46.133495],[-122.987184,46.133495],[-122.987161,46.133421],[-122.987054,46.133405],[-122.98702,46.133324],[-122.986925,46.133315],[-122.986925,46.133225],[-122.987184,46.133225],[-122.987245,46.13325],[-122.987313,46.133225],[-122.987443,46.133225]]]}},{"type":"Feature","properties":{"id":15,"area_m2":800,"px":8,"rank":54,"persistent":false},"geometry":{"type":"Polygon","coordinates":[[[-122.984855,46.128365],[-122.984855,46.128545],[-122.984726,46.128545],[-122.984703,46.128471],[-122.984596,46.128455],[-122.984578,46.128385],[-122.984467,46.128365],[-122.984432,46.128284],[-122.984337,46.128275],[-122.984309,46.128197],[-122.984208,46.128185],[-122.984179,46.128107],[-122.984078,46.128095],[-122.984078,46.128005],[-122.984208,46.128005],[-122.984214,46.128062],[-122.984263,46.128093],[-122.984467,46.128095],[-122.984473,46.128242],[-122.984515,46.128271],[-122.984596,46.128275],[-122.984631,46.128356],[-122.984855,46.128365]]]}},{"type":"Feature","properties":{"id":26,"area_m2":800,"px":8,"rank":55,"persistent":false},"geometry":{"type":"Polygon","coordinates":[[[-122.973335,46.126833],[-122.973335,46.126923],[-122.973206,46.126923],[-122.973188,46.126853],[-122.973076,46.126833],[-122.973042,46.126752],[-122.972947,46.126743],[-122.972918,46.126665],[-122.972688,46.126653],[-122.972688,46.126473],[-122.972947,46.126473],[-122.972965,46.126633],[-122.973017,46.126653],[-122.973206,46.126653],[-122.973215,46.126804],[-122.973261,46.126831],[-122.973335,46.126833]]]}},{"type":"Feature","properties":{"id":31,"area_m2":800,"px":8,"rank":56,"persistent":false},"geometry":{"type":"Polygon","coordinates":[[[-122.970876,46.125482],[-122.970876,46.125662],[-122.970488,46.125662],[-122.970488,46.125482],[-122.970523,46.12544],[-122.970488,46.125392],[-122.970488,46.125302],[-122.970618,46.125302],[-122.97064,46.125376],[-122.970747,46.125392],[-122.970782,46.125473],[-122.970876,46.125482]]]}},{"type":"Feature","properties":{"id":19,"area_m2":600,"px":6,"rank":57,"persistent":false},"geometry":{"type":"Polygon","coordinates":[[[-122.976571,46.127554],[-122.976571,46.127644],[-122.976464,46.127659],[-122.976441,46.127734],[-122.976312,46.127734],[-122.976303,46.127582],[-122.976257,46.127556],[-122.976183,46.127553],[-122.976148,46.127473],[-122.976053,46.127463],[-122.976053,46.127374],[-122.976312,46.127374],[-122.976335,46.127538],[-122.976571,46.127554]]]}},{"type":"Feature","properties":{"id":64,"area_m2":600,"px":6,"rank":58,"persistent":false},"geometry":{"type":"Polygon","coordinates":[[[-122.968939,46.118282],[-122.968939,46.118372],[-122.96868,46.118372],[-122.968657,46.118297],[-122.968551,46.118281],[-122.968551,46.118102],[-122.96881,46.118102],[-122.968819,46.118253],[-122.968865,46.118279],[-122.968939,46.118282]]]}},{"type":"Feature","properties":{"id":2,"area_m2":500,"px":5,"rank":59,"persistent":false},"geometry":{"type":"Polygon","coordinates":[[[-122.98809,46.133676],[-122.98809,46.133855],[-122.987831,46.133855],[-122.987808,46.133781],[-122.987702,46.133765],[-122.987702,46.133676],[-122.98809,46.133676]]]}},{"type":"Feature","properties":{"id":6,"area_m2":500,"px":5,"rank":60,"persistent":false},"geometry":{"type":"Polygon","coordinates":[[[-122.993268,46.131786],[-122.993268,46.131966],[-122.993139,46.131966],[-122.993136,46.131901],[-122.993093,46.131867],[-122.99288,46.131876],[-122.99288,46.131696],[-122.993139,46.131696],[-122.993162,46.13177],[-122.993268,46.131786]]]}},{"type":"Feature","properties":{"id":9,"area_m2":500,"px":5,"rank":61,"persistent":false},"geometry":{"type":"Polygon","coordinates":[[[-122.988867,46.130886],[-122.988867,46.131155],[-122.988738,46.131155],[-122.988715,46.131081],[-122.988608,46.131065],[-122.988608,46.130886],[-122.988867,46.130886]]]}},{"type":"Feature","properties":{"id":11,"area_m2":500,"px":5,"rank":62,"persistent":false},"geometry":{"type":"Polygon","coordinates":[[[-122.987443,46.130435],[-122.987443,46.130615],[-122.987314,46.130615],[-122.987305,46.130464],[-122.987259,46.130438],[-122.987185,46.130435],[-122.98715,46.130354],[-122.987055,46.130345],[-122.987055,46.130255],[-122.987314,46.130255],[-122.987323,46.130407],[-122.987369,46.130433],[-122.987443,46.130435]]]}},{"type":"Feature","properties":{"id":32,"area_m2":500,"px":5,"rank":63,"persistent":false},"geometry":{"type":"Polygon","coordinates":[[[-122.980066,46.125394],[-122.980066,46.125484],[-122.979808,46.125484],[-122.979785,46.12541],[-122.979678,46.125394],[-122.979644,46.125313],[-122.979549,46.125304],[-122.979549,46.125214],[-122.979678,46.125214],[-122.979684,46.125271],[-122.979733,46.125302],[-122.979937,46.125304],[-122.97996,46.125378],[-122.980066,46.125394]]]}},{"type":"Feature","properties":{"id":60,"area_m2":500,"px":5,"rank":64,"persistent":false},"geometry":{"type":"Polygon","coordinates":[[[-122.96363,46.118461],[-122.963598,46.118508],[-122.963632,46.11855],[-122.963632,46.11864],[-122.963503,46.11864],[-122.96348,46.118566],[-122.963374,46.118549],[-122.963374,46.11837],[-122.96348,46.118354],[-122.963503,46.11828],[-122.963633,46.11828],[-122.96363,46.118461]]]}},{"type":"Feature","properties":{"id":68,"area_m2":500,"px":5,"rank":65,"persistent":false},"geometry":{"type":"Polygon","coordinates":[[[-122.958197,46.117828],[-122.958197,46.118008],[-122.957809,46.118008],[-122.957809,46.117918],[-122.957916,46.117902],[-122.957939,46.117828],[-122.958197,46.117828]]]}},{"type":"Feature","properties":{"id":76,"area_m2":500,"px":5,"rank":66,"persistent":false},"geometry":{"type":"Polygon","coordinates":[[[-122.965964,46.115941],[-122.965963,46.116121],[-122.965857,46.116137],[-122.965834,46.116211],[-122.965705,46.116211],[-122.965682,46.116136],[-122.965575,46.116121],[-122.965575,46.116031],[-122.965779,46.116028],[-122.965828,46.115997],[-122.965834,46.115941],[-122.965964,46.115941]]]}},{"type":"Feature","properties":{"id":81,"area_m2":500,"px":5,"rank":67,"persistent":false},"geometry":{"type":"Polygon","coordinates":[[[-122.961823,46.114859],[-122.961823,46.114949],[-122.961716,46.114965],[-122.961694,46.115039],[-122.96149,46.115042],[-122.961441,46.115073],[-122.961435,46.115129],[-122.961305,46.115129],[-122.961306,46.114949],[-122.961631,46.114948],[-122.961685,46.114921],[-122.961694,46.114859],[-122.961823,46.114859]]]}},{"type":"Feature","properties":{"id":99,"area_m2":500,"px":5,"rank":68,"persistent":false},"geometry":{"type":"Polygon","coordinates":[[[-122.96118,46.108919],[-122.96118,46.109009],[-122.961053,46.109009],[-122.961047,46.108957],[-122.96101,46.108925],[-122.960792,46.108919],[-122.960769,46.108845],[-122.960663,46.108829],[-122.960663,46.108739],[-122.960921,46.108739],[-122.960944,46.108813],[-122.961051,46.108829],[-122.961085,46.10891],[-122.96118,46.108919]]]}},{"type":"Feature","properties":{"id":5,"area_m2":400,"px":4,"rank":69,"persistent":false},"geometry":{"type":"Polygon","coordinates":[[[-122.993009,46.132236],[-122.993009,46.132326],[-122.992804,46.132315],[-122.992756,46.132346],[-122.99275,46.132416],[-122.992621,46.132416],[-122.992621,46.132236],[-122.992728,46.13222],[-122.992751,46.132146],[-122.99288,46.132146],[-122.992903,46.13222],[-122.993009,46.132236]]]}},{"type":"Feature","properties":{"id":7,"area_m2":400,"px":4,"rank":70,"persistent":false},"geometry":{"type":"Polygon","coordinates":[[[-122.990032,46.131696],[-122.990032,46.131786],[-122.989925,46.131801],[-122.989903,46.131876],[-122.989514,46.131876],[-122.989514,46.131786],[-122.98984,46.131785],[-122.989894,46.131757],[-122.989903,46.131696],[-122.990032,46.131696]]]}},{"type":"Feature","properties":{"id":13,"area_m2":400,"px":4,"rank":71,"persistent":false},"geometry":{"type":"Polygon","coordinates":[[[-122.986408,46.129265],[-122.986408,46.129445],[-122.986301,46.129461],[-122.986278,46.129535],[-122.986149,46.129535],[-122.986126,46.129461],[-122.98602,46.129445],[-122.98602,46.129355],[-122.986225,46.129366],[-122.986273,46.129335],[-122.986279,46.129265],[-122.986408,46.129265]]]}},{"type":"Feature","properties":{"id":20,"area_m2":400,"px":4,"rank":72,"persistent":false},"geometry":{"type":"Polygon","coordinates":[[[-122.973205,46.127373],[-122.973205,46.127553],[-122.972947,46.127553],[-122.972947,46.127373],[-122.973205,46.127373]]]}},{"type":"Feature","properties":{"id":30,"area_m2":400,"px":4,"rank":73,"persistent":false},"geometry":{"type":"Polygon","coordinates":[[[-122.980455,46.125574],[-122.980455,46.125664],[-122.980348,46.12568],[-122.980325,46.125754],[-122.980196,46.125754],[-122.980173,46.12568],[-122.980067,46.125664],[-122.980067,46.125574],[-122.980455,46.125574]]]}},{"type":"Feature","properties":{"id":33,"area_m2":400,"px":4,"rank":74,"persistent":false},"geometry":{"type":"Polygon","coordinates":[[[-122.969971,46.125032],[-122.96997,46.125212],[-122.969712,46.125212],[-122.969712,46.125032],[-122.969971,46.125032]]]}},{"type":"Feature","properties":{"id":37,"area_m2":400,"px":4,"rank":75,"persistent":false},"geometry":{"type":"Polygon","coordinates":[[[-122.971006,46.124492],[-122.971006,46.124582],[-122.970748,46.124582],[-122.970725,46.124508],[-122.970618,46.124492],[-122.970618,46.124402],[-122.970877,46.124402],[-122.9709,46.124476],[-122.971006,46.124492]]]}},{"type":"Feature","properties":{"id":38,"area_m2":400,"px":4,"rank":76,"persistent":false},"geometry":{"type":"Polygon","coordinates":[[[-122.978514,46.124404],[-122.978514,46.124494],[-122.978384,46.124494],[-122.978378,46.124437],[-122.978329,46.124406],[-122.978194,46.12438],[-122.978125,46.124404],[-122.977996,46.124404],[-122.977996,46.124314],[-122.978103,46.124298],[-122.978126,46.124224],[-122.978255,46.124224],[-122.978278,46.124298],[-122.978384,46.124314],[-122.978419,46.124395],[-122.978514,46.124404]]]}},{"type":"Feature","properties":{"id":46,"area_m2":400,"px":4,"rank":77,"persistent":false},"geometry":{"type":"Polygon","coordinates":[[[-122.968031,46.122242],[-122.968031,46.122331],[-122.967924,46.122347],[-122.967901,46.122421],[-122.967642,46.122421],[-122.967642,46.122331],[-122.967749,46.122316],[-122.967772,46.122241],[-122.968031,46.122242]]]}},{"type":"Feature","properties":{"id":51,"area_m2":400,"px":4,"rank":78,"persistent":false},"geometry":{"type":"Polygon","coordinates":[[[-122.972173,46.120713],[-122.972173,46.120802],[-122.972067,46.120818],[-122.972044,46.120892],[-122.971914,46.120892],[-122.971911,46.120751],[-122.971866,46.120717],[-122.971785,46.120712],[-122.971785,46.120622],[-122.971914,46.120623],[-122.97192,46.120679],[-122.97197,46.12071],[-122.972173,46.120713]]]}},{"type":"Feature","properties":{"id":55,"area_m2":400,"px":4,"rank":79,"persistent":false},"geometry":{"type":"Polygon","coordinates":[[[-122.970103,46.119362],[-122.970103,46.119452],[-122.969996,46.119468],[-122.969974,46.119542],[-122.969585,46.119542],[-122.969585,46.119452],[-122.969911,46.119451],[-122.969965,46.119423],[-122.969974,46.119362],[-122.970103,46.119362]]]}},{"type":"Feature","properties":{"id":61,"area_m2":400,"px":4,"rank":80,"persistent":false},"geometry":{"type":"Polygon","coordinates":[[[-122.969454,46.118373],[-122.969422,46.118419],[-122.969456,46.118462],[-122.969456,46.118552],[-122.969198,46.118552],[-122.969198,46.118372],[-122.969304,46.118356],[-122.969327,46.118282],[-122.969455,46.118282],[-122.969454,46.118373]]]}},{"type":"Feature","properties":{"id":70,"area_m2":400,"px":4,"rank":81,"persistent":false},"geometry":{"type":"Polygon","coordinates":[[[-122.958715,46.117468],[-122.958715,46.117648],[-122.958456,46.117648],[-122.958457,46.117468],[-122.958715,46.117468]]]}},{"type":"Feature","properties":{"id":75,"area_m2":400,"px":4,"rank":82,"persistent":false},"geometry":{"type":"Polygon","coordinates":[[[-122.967128,46.116661],[-122.967128,46.116841],[-122.966999,46.116841],[-122.966989,46.11669],[-122.966943,46.116663],[-122.966869,46.116661],[-122.966835,46.11658],[-122.96674,46.116571],[-122.96674,46.116481],[-122.966869,46.116481],[-122.966892,46.116555],[-122.966999,46.116571],[-122.967033,46.116652],[-122.967128,46.116661]]]}},{"type":"Feature","properties":{"id":84,"area_m2":400,"px":4,"rank":83,"persistent":false},"geometry":{"type":"Polygon","coordinates":[[[-122.964412,46.1145],[-122.964411,46.11459],[-122.964282,46.11459],[-122.964259,46.114516],[-122.964153,46.1145],[-122.96414,46.114434],[-122.964024,46.11441],[-122.963995,46.114332],[-122.963894,46.11432],[-122.963894,46.11423],[-122.964023,46.11423],[-122.964046,46.114304],[-122.964153,46.11432],[-122.964166,46.114386],[-122.964282,46.11441],[-122.964311,46.114488],[-122.964412,46.1145]]]}},{"type":"Feature","properties":{"id":1,"area_m2":300,"px":3,"rank":84,"persistent":false},"geometry":{"type":"Polygon","coordinates":[[[-122.989643,46.134486],[-122.989643,46.134666],[-122.989384,46.134666],[-122.989384,46.134576],[-122.989491,46.13456],[-122.989514,46.134486],[-122.989643,46.134486]]]}},{"type":"Feature","properties":{"id":10,"area_m2":300,"px":3,"rank":85,"persistent":false},"geometry":{"type":"Polygon","coordinates":[[[-122.98343,46.130705],[-122.98343,46.130795],[-122.983324,46.130811],[-122.983301,46.130885],[-122.983042,46.130885],[-122.983042,46.130795],[-122.983246,46.130793],[-122.983295,46.130762],[-122.983301,46.130705],[-122.98343,46.130705]]]}},{"type":"Feature","properties":{"id":12,"area_m2":300,"px":3,"rank":86,"persistent":false},"geometry":{"type":"Polygon","coordinates":[[[-122.988479,46.129716],[-122.988479,46.129805],[-122.988372,46.129821],[-122.98835,46.129895],[-122.98822,46.129895],[-122.98822,46.129716],[-122.988479,46.129716]]]}},{"type":"Feature","properties":{"id":14,"area_m2":300,"px":3,"rank":87,"persistent":false},"geometry":{"type":"Polygon","coordinates":[[[-122.989644,46.129176],[-122.989644,46.129446],[-122.989515,46.129446],[-122.989515,46.129176],[-122.989644,46.129176]]]}},{"type":"Feature","properties":{"id":16,"area_m2":300,"px":3,"rank":88,"persistent":false},"geometry":{"type":"Polygon","coordinates":[[[-122.980454,46.128004],[-122.980454,46.128094],[-122.980347,46.12811],[-122.980324,46.128184],[-122.980195,46.128184],[-122.980195,46.128004],[-122.980454,46.128004]]]}},{"type":"Feature","properties":{"id":22,"area_m2":300,"px":3,"rank":89,"persistent":false},"geometry":{"type":"Polygon","coordinates":[[[-122.982137,46.127195],[-122.982137,46.127465],[-122.982008,46.127465],[-122.982008,46.127195],[-122.982137,46.127195]]]}},{"type":"Feature","properties":{"id":23,"area_m2":300,"px":3,"rank":90,"persistent":false},"geometry":{"type":"Polygon","coordinates":[[[-122.972558,46.127013],[-122.972558,46.127103],[-122.972452,46.127119],[-122.972429,46.127193],[-122.9723,46.127193],[-122.9723,46.127013],[-122.972558,46.127013]]]}},{"type":"Feature","properties":{"id":36,"area_m2":300,"px":3,"rank":91,"persistent":false},"geometry":{"type":"Polygon","coordinates":[[[-122.978902,46.124764],[-122.978902,46.124854],[-122.978774,46.124854],[-122.97875,46.12478],[-122.978643,46.124764],[-122.978643,46.124584],[-122.978772,46.124584],[-122.978782,46.124735],[-122.978828,46.124762],[-122.978902,46.124764]]]}},{"type":"Feature","properties":{"id":43,"area_m2":300,"px":3,"rank":92,"persistent":false},"geometry":{"type":"Polygon","coordinates":[[[-122.96803,46.123412],[-122.96803,46.123501],[-122.967901,46.123501],[-122.967897,46.12345],[-122.96786,46.123418],[-122.967642,46.123411],[-122.967642,46.123321],[-122.967901,46.123322],[-122.967923,46.123396],[-122.96803,46.123412]]]}},{"type":"Feature","properties":{"id":47,"area_m2":300,"px":3,"rank":93,"persistent":false},"geometry":{"type":"Polygon","coordinates":[[[-122.974244,46.121703],[-122.974243,46.121793],[-122.974116,46.121793],[-122.974091,46.121719],[-122.973985,46.121703],[-122.973985,46.121523],[-122.974114,46.121523],[-122.974123,46.121674],[-122.974169,46.121701],[-122.974244,46.121703]]]}},{"type":"Feature","properties":{"id":52,"area_m2":300,"px":3,"rank":94,"persistent":false},"geometry":{"type":"Polygon","coordinates":[[[-122.965961,46.120621],[-122.965961,46.120711],[-122.965879,46.120715],[-122.965835,46.120749],[-122.965831,46.120891],[-122.965702,46.120891],[-122.965702,46.120711],[-122.965809,46.120695],[-122.965831,46.120621],[-122.965961,46.120621]]]}},{"type":"Feature","properties":{"id":53,"area_m2":300,"px":3,"rank":95,"persistent":false},"geometry":{"type":"Polygon","coordinates":[[[-122.971656,46.120532],[-122.971655,46.120802],[-122.971526,46.120802],[-122.971526,46.120532],[-122.971656,46.120532]]]}},{"type":"Feature","properties":{"id":57,"area_m2":300,"px":3,"rank":96,"persistent":false},"geometry":{"type":"Polygon","coordinates":[[[-122.970103,46.118912],[-122.970103,46.119002],[-122.969974,46.119002],[-122.969971,46.11895],[-122.969933,46.118918],[-122.969715,46.118912],[-122.969715,46.118822],[-122.969974,46.118822],[-122.969997,46.118896],[-122.970103,46.118912]]]}},{"type":"Feature","properties":{"id":58,"area_m2":300,"px":3,"rank":97,"persistent":false},"geometry":{"type":"Polygon","coordinates":[[[-122.965574,46.118731],[-122.965574,46.118821],[-122.965444,46.118821],[-122.965422,46.118746],[-122.965315,46.118731],[-122.96528,46.11865],[-122.965186,46.118641],[-122.965186,46.118551],[-122.965315,46.118551],[-122.965338,46.118625],[-122.965444,46.118641],[-122.965479,46.118722],[-122.965574,46.118731]]]}},{"type":"Feature","properties":{"id":72,"area_m2":300,"px":3,"rank":98,"persistent":false},"geometry":{"type":"Polygon","coordinates":[[[-122.96208,46.11711],[-122.96208,46.117199],[-122.961822,46.117199],[-122.961799,46.117125],[-122.961692,46.117109],[-122.961692,46.117019],[-122.961822,46.11702],[-122.961828,46.117076],[-122.961877,46.117107],[-122.96208,46.11711]]]}},{"type":"Feature","properties":{"id":86,"area_m2":300,"px":3,"rank":99,"persistent":false},"geometry":{"type":"Polygon","coordinates":[[[-122.96027,46.114319],[-122.96027,46.114499],[-122.960141,46.114499],[-122.960118,46.114425],[-122.960012,46.114409],[-122.960012,46.114319],[-122.96027,46.114319]]]}}]}