{"type":"FeatureCollection","features":[{"type":"Feature","properties":{"id":30,"area_m2":7000,"px":70,"rank":1,"persistent":false},"geometry":{"type":"Polygon","coordinates":[[[-122.932543,46.141396],[-122.932543,46.141666],[-122.932414,46.141666],[-122.932391,46.141592],[-122.932284,46.141576],[-122.932271,46.14142],[-122.932155,46.141396],[-122.932137,46.141326],[-122.932026,46.141306],[-122.932017,46.141245],[-122.931963,46.141217],[-122.931801,46.141225],[-122.931767,46.141306],[-122.931678,46.141312],[-122.931637,46.141354],[-122.931646,46.141457],[-122.931692,46.141483],[-122.931766,46.141486],[-122.931801,46.141567],[-122.931896,46.141576],[-122.931896,46.141666],[-122.931637,46.141666],[-122.931635,46.141529],[-122.931589,46.14149],[-122.931439,46.141462],[-122.931277,46.141498],[-122.931214,46.141618],[-122.931248,46.141666],[-122.931254,46.141812],[-122.931311,46.141845],[-122.931507,46.141846],[-122.931507,46.141936],[-122.9314,46.141951],[-122.931377,46.142026],[-122.931248,46.142025],[-122.931242,46.141879],[-122.9312,46.14185],[-122.931119,46.141845],[-122.931117,46.141709],[-122.931064,46.141668],[-122.930908,46.141669],[-122.930866,46.141699],[-122.93086,46.141755],[-122.930656,46.141758],[-122.930607,46.141789],[-122.930601,46.141845],[-122.930471,46.141845],[-122.93047,46.141529],[-122.930431,46.141491],[-122.930342,46.141485],[-122.930342,46.141395],[-122.930449,46.141379],[-122.930474,46.141305],[-122.930601,46.141305],[-122.930614,46.141371],[-122.930731,46.141395],[-122.930737,46.141452],[-122.930786,46.141483],[-122.931069,46.141485],[-122.931127,46.141461],[-122.931113,46.141339],[-122.931071,46.14131],[-122.93099,46.141305],[-122.93099,46.141215],[-122.931123,46.141195],[-122.93112,46.141036],[-122.931229,46.141029],[-122.931269,46.14098],[-122.931246,46.140804],[-122.931201,46.14077],[-122.93112,46.140765],[-122.93112,46.140676],[-122.931508,46.140676],[-122.931517,46.140827],[-122.931563,46.140853],[-122.931638,46.140856],[-122.931638,46.140946],[-122.931556,46.14095],[-122.931511,46.140984],[-122.931509,46.141082],[-122.931542,46.141117],[-122.931726,46.141119],[-122.931764,46.141088],[-122.931767,46.141036],[-122.932026,46.141036],[-122.932029,46.141088],[-122.932067,46.14112],[-122.932285,46.141126],[-122.932307,46.1412],[-122.932414,46.141216],[-122.932427,46.141372],[-122.932543,46.141396]]]}},{"type":"Feature","properties":{"id":93,"area_m2":5300,"px":53,"rank":2,"persistent":false},"geometry":{"type":"Polygon","coordinates":[[[-122.934237,46.132937],[-122.934236,46.133117],[-122.93413,46.133133],[-122.934107,46.133207],[-122.93399,46.133231],[-122.933977,46.133297],[-122.933774,46.133299],[-122.933718,46.133351],[-122.933727,46.133718],[-122.933773,46.133745],[-122.933847,46.133747],[-122.933882,46.133828],[-122.933977,46.133837],[-122.93398,46.133889],[-122.934018,46.133921],[-122.934235,46.133927],[-122.934235,46.134017],[-122.934017,46.134023],[-122.93398,46.134055],[-122.933976,46.134107],[-122.933622,46.134116],[-122.933588,46.134197],[-122.933493,46.134206],[-122.933458,46.134287],[-122.933377,46.134291],[-122.933335,46.13432],[-122.933294,46.134419],[-122.933329,46.134467],[-122.933328,46.134557],[-122.933222,46.134572],[-122.933199,46.134647],[-122.933083,46.134671],[-122.933069,46.134736],[-122.932811,46.134736],[-122.932822,46.134586],[-122.932776,46.134559],[-122.932681,46.134556],[-122.932682,46.134376],[-122.932716,46.134334],[-122.932682,46.134286],[-122.932682,46.134106],[-122.932811,46.134106],[-122.932817,46.134253],[-122.932859,46.134282],[-122.93294,46.134287],[-122.932969,46.134364],[-122.933165,46.134367],[-122.933199,46.134287],[-122.933294,46.134278],[-122.933329,46.134197],[-122.93341,46.134193],[-122.933453,46.134163],[-122.933473,46.134051],[-122.933424,46.134019],[-122.933329,46.134017],[-122.933329,46.133927],[-122.933441,46.133907],[-122.933459,46.133747],[-122.933547,46.13374],[-122.933588,46.133698],[-122.933571,46.133497],[-122.933519,46.133477],[-122.9332,46.133477],[-122.933178,46.133402],[-122.933071,46.133386],[-122.933071,46.133297],[-122.9332,46.133297],[-122.933206,46.133353],[-122.933248,46.133383],[-122.933411,46.133383],[-122.933458,46.133343],[-122.933458,46.13325],[-122.933419,46.133213],[-122.93333,46.133207],[-122.93333,46.133027],[-122.93346,46.133027],[-122.93346,46.133158],[-122.933488,46.133195],[-122.933648,46.133207],[-122.933709,46.133178],[-122.933719,46.133117],[-122.934072,46.133108],[-122.934107,46.133068],[-122.934107,46.132937],[-122.934237,46.132937]]]}},{"type":"Feature","properties":{"id":24,"area_m2":4400,"px":44,"rank":3,"persistent":true},"geometry":{"type":"Polygon","coordinates":[[[-122.9306,46.142205],[-122.9306,46.142295],[-122.930493,46.142311],[-122.930469,46.142385],[-122.930082,46.142385],[-122.930065,46.142225],[-122.930012,46.142205],[-122.929879,46.142207],[-122.929825,46.142248],[-122.929823,46.142385],[-122.929619,46.142387],[-122.92957,46.142418],[-122.929564,46.142474],[-122.929435,46.142474],[-122.929435,46.142385],[-122.92953,46.142375],[-122.929564,46.142331],[-122.929551,46.142229],[-122.929435,46.142204],[-122.929435,46.142115],[-122.92953,46.142105],[-122.929565,46.142025],[-122.929671,46.142009],[-122.929713,46.141906],[-122.929674,46.141851],[-122.929565,46.141843],[-122.929565,46.141755],[-122.929647,46.14175],[-122.929691,46.141716],[-122.929695,46.141485],[-122.929824,46.141485],[-122.929825,46.141616],[-122.929859,46.141656],[-122.930083,46.141665],[-122.930083,46.141796],[-122.930111,46.141833],[-122.930342,46.141845],[-122.930351,46.142086],[-122.930397,46.142113],[-122.930471,46.142115],[-122.930505,46.142196],[-122.9306,46.142205]]]}},{"type":"Feature","properties":{"id":89,"area_m2":3200,"px":32,"rank":4,"persistent":false},"geometry":{"type":"Polygon","coordinates":[[[-122.938248,46.13438],[-122.938248,46.134739],[-122.938173,46.134742],[-122.938127,46.134768],[-122.938118,46.135009],[-122.93803,46.135016],[-122.937989,46.135058],[-122.938001,46.135165],[-122.938118,46.135189],[-122.938118,46.135279],[-122.937988,46.135279],[-122.937985,46.135228],[-122.937947,46.135196],[-122.937729,46.135189],[-122.937728,46.135039],[-122.93769,46.135002],[-122.937341,46.135009],[-122.937342,46.134829],[-122.937376,46.134787],[-122.937342,46.134739],[-122.937342,46.134559],[-122.937471,46.134559],[-122.937477,46.134616],[-122.937526,46.134647],[-122.937804,46.134647],[-122.937854,46.134616],[-122.93786,46.134559],[-122.938091,46.13456],[-122.938118,46.134524],[-122.938119,46.134379],[-122.938248,46.13438]]]}},{"type":"Feature","properties":{"id":46,"area_m2":2700,"px":27,"rank":5,"persistent":false},"geometry":{"type":"Polygon","coordinates":[[[-122.937336,46.139239],[-122.937336,46.139329],[-122.937147,46.139329],[-122.93709,46.139353],[-122.937077,46.139599],[-122.93697,46.139615],[-122.936947,46.139689],[-122.936818,46.139689],[-122.93675,46.139665],[-122.936614,46.139691],[-122.936565,46.139722],[-122.936557,46.139779],[-122.93643,46.139778],[-122.936407,46.139704],[-122.9363,46.139688],[-122.936301,46.139149],[-122.936408,46.139133],[-122.93643,46.139059],[-122.93656,46.139059],[-122.936573,46.139125],[-122.936689,46.139149],[-122.936695,46.139205],[-122.936744,46.139236],[-122.937022,46.139237],[-122.937072,46.139206],[-122.937078,46.139149],[-122.937205,46.139149],[-122.93723,46.139223],[-122.937336,46.139239]],[[-122.936689,46.139509],[-122.936763,46.139506],[-122.936809,46.13948],[-122.936801,46.139348],[-122.936748,46.139329],[-122.936457,46.139328],[-122.93643,46.139369],[-122.936447,46.139579],[-122.9365,46.139598],[-122.936641,46.139595],[-122.936683,46.139565],[-122.936689,46.139509]]]}},{"type":"Feature","properties":{"id":106,"area_m2":2700,"px":27,"rank":6,"persistent":false},"geometry":{"type":"Polygon","coordinates":[[[-122.939415,46.1324],[-122.939415,46.13249],[-122.939206,46.13249],[-122.939149,46.132515],[-122.939156,46.13276],[-122.939049,46.132776],[-122.939027,46.13285],[-122.93891,46.132874],[-122.938897,46.13294],[-122.938768,46.13294],[-122.938707,46.132916],[-122.938638,46.13294],[-122.938509,46.13294],[-122.938503,46.132883],[-122.938454,46.132852],[-122.93812,46.132849],[-122.938121,46.132669],[-122.93825,46.132669],[-122.938284,46.13275],[-122.938439,46.132759],[-122.9385,46.132731],[-122.938509,46.13267],[-122.938604,46.132667],[-122.938646,46.132645],[-122.938658,46.132608],[-122.93861,46.132502],[-122.93838,46.132488],[-122.93838,46.1324],[-122.938589,46.132399],[-122.938646,46.132375],[-122.938639,46.13222],[-122.938768,46.13222],[-122.938774,46.132276],[-122.938823,46.132307],[-122.939157,46.13231],[-122.93916,46.132362],[-122.939198,46.132394],[-122.939415,46.1324]],[[-122.938768,46.132579],[-122.938734,46.132617],[-122.938748,46.132657],[-122.938807,46.132683],[-122.938864,46.132674],[-122.938896,46.13264],[-122.938885,46.13259],[-122.93883,46.132566],[-122.938768,46.132579]]]}},{"type":"Feature","properties":{"id":31,"area_m2":2600,"px":26,"rank":7,"persistent":false},"geometry":{"type":"Polygon","coordinates":[[[-122.939144,46.141401],[-122.939112,46.141448],[-122.939146,46.14149],[-122.939146,46.14167],[-122.93904,46.141686],[-122.939017,46.14176],[-122.938922,46.141762],[-122.93888,46.141785],[-122.938887,46.14194],[-122.938758,46.14194],[-122.938752,46.141883],[-122.938703,46.141852],[-122.938499,46.14185],[-122.938476,46.141775],[-122.938369,46.14176],[-122.938352,46.141599],[-122.93824,46.141579],[-122.938206,46.141499],[-122.938111,46.141489],[-122.938111,46.1414],[-122.9383,46.141399],[-122.938357,46.141376],[-122.93837,46.14122],[-122.938499,46.14122],[-122.938509,46.141281],[-122.938562,46.141309],[-122.939147,46.14131],[-122.939144,46.141401]],[[-122.938569,46.141759],[-122.938827,46.141772],[-122.938878,46.141745],[-122.938874,46.141604],[-122.938758,46.14158],[-122.938752,46.141523],[-122.93871,46.141494],[-122.938513,46.141499],[-122.938479,46.141546],[-122.938512,46.141736],[-122.938569,46.141759]]]}},{"type":"Feature","properties":{"id":35,"area_m2":2300,"px":23,"rank":8,"persistent":false},"geometry":{"type":"Polygon","coordinates":[[[-122.937205,46.140859],[-122.937205,46.141039],[-122.937098,46.141055],[-122.937075,46.141129],[-122.936946,46.141129],[-122.936923,46.141055],[-122.936817,46.141039],[-122.936804,46.140883],[-122.936687,46.140859],[-122.936674,46.140703],[-122.936558,46.140679],[-122.936524,46.140598],[-122.936429,46.140588],[-122.93642,46.140437],[-122.936374,46.140411],[-122.936299,46.140408],[-122.9363,46.140319],[-122.936406,46.140303],[-122.936429,46.140229],[-122.936653,46.14022],[-122.936688,46.140139],[-122.936804,46.140115],[-122.936818,46.140049],[-122.937076,46.140049],[-122.937076,46.140139],[-122.93697,46.140155],[-122.936947,46.140229],[-122.93683,46.140253],[-122.936817,46.140319],[-122.936587,46.140331],[-122.936559,46.140367],[-122.936562,46.14046],[-122.936606,46.140495],[-122.936688,46.140499],[-122.936722,46.14058],[-122.936817,46.140589],[-122.936817,46.14081],[-122.936845,46.140847],[-122.937205,46.140859]]]}},{"type":"Feature","properties":{"id":112,"area_m2":2300,"px":23,"rank":9,"persistent":false},"geometry":{"type":"Polygon","coordinates":[[[-122.933202,46.131947],[-122.933202,46.132037],[-122.933121,46.132041],[-122.933076,46.132075],[-122.933072,46.132216],[-122.932943,46.132216],[-122.932874,46.132192],[-122.932739,46.132219],[-122.93269,46.13225],[-122.932684,46.132306],[-122.932296,46.132306],[-122.932296,46.132216],[-122.932507,46.132212],[-122.932549,46.132183],[-122.932555,46.132126],[-122.932671,46.132102],[-122.932684,46.131995],[-122.932656,46.131959],[-122.932359,46.131947],[-122.932305,46.131975],[-122.932296,46.132036],[-122.932167,46.132036],[-122.932167,46.131946],[-122.932273,46.13193],[-122.932296,46.131856],[-122.932413,46.131832],[-122.932426,46.131766],[-122.932943,46.131766],[-122.932966,46.131931],[-122.933202,46.131947]]]}},{"type":"Feature","properties":{"id":12,"area_m2":2100,"px":21,"rank":10,"persistent":false},"geometry":{"type":"Polygon","coordinates":[[[-122.928657,46.143194],[-122.928656,46.143374],[-122.92855,46.14339],[-122.928527,46.143464],[-122.928398,46.143464],[-122.928398,46.143374],[-122.928486,46.143368],[-122.928526,46.14333],[-122.928524,46.143232],[-122.928465,46.143195],[-122.928309,46.1432],[-122.928272,46.143232],[-122.928268,46.143284],[-122.928152,46.143308],[-122.928139,46.143374],[-122.928009,46.143374],[-122.928009,46.143284],[-122.928104,46.143275],[-122.928139,46.14323],[-122.928136,46.142962],[-122.928091,46.142928],[-122.92801,46.142924],[-122.92801,46.142654],[-122.92814,46.142654],[-122.928201,46.142678],[-122.928269,46.142654],[-122.928528,46.142654],[-122.928528,46.142834],[-122.928411,46.142858],[-122.9284,46.14297],[-122.928439,46.143007],[-122.928527,46.143014],[-122.928545,46.143174],[-122.928657,46.143194]]]}},{"type":"Feature","properties":{"id":90,"area_m2":2100,"px":21,"rank":11,"persistent":false},"geometry":{"type":"Polygon","coordinates":[[[-122.935917,46.134918],[-122.935917,46.135098],[-122.935704,46.135089],[-122.935661,46.135123],[-122.935658,46.135188],[-122.93527,46.135188],[-122.935247,46.135114],[-122.93514,46.135098],[-122.93514,46.135008],[-122.935229,46.135001],[-122.93527,46.134959],[-122.935267,46.134776],[-122.935222,46.134742],[-122.935141,46.134738],[-122.935141,46.134649],[-122.935215,46.134645],[-122.935261,46.134619],[-122.935271,46.134468],[-122.935529,46.134468],[-122.935533,46.13452],[-122.93557,46.134552],[-122.935788,46.134558],[-122.935788,46.134648],[-122.93547,46.134648],[-122.935413,46.134672],[-122.935399,46.134864],[-122.935422,46.134902],[-122.935603,46.134916],[-122.935652,46.134885],[-122.935659,46.134828],[-122.935786,46.134828],[-122.935811,46.134902],[-122.935917,46.134918]]]}},{"type":"Feature","properties":{"id":75,"area_m2":2000,"px":20,"rank":12,"persistent":false},"geometry":{"type":"Polygon","coordinates":[[[-122.936434,46.136089],[-122.936434,46.136178],[-122.936115,46.136179],[-122.936063,46.136198],[-122.936045,46.136358],[-122.93595,46.136367],[-122.935915,46.136448],[-122.935834,46.136452],[-122.935792,46.136481],[-122.935786,46.136628],[-122.935656,46.136628],[-122.935656,46.136497],[-122.935628,46.13646],[-122.93546,46.136449],[-122.935399,46.136491],[-122.935397,46.136628],[-122.935291,46.136644],[-122.935268,46.136718],[-122.935138,46.136718],[-122.935139,46.136628],[-122.93522,46.136624],[-122.935265,46.13659],[-122.935268,46.136448],[-122.935375,46.136432],[-122.935398,46.136358],[-122.935646,46.136347],[-122.935725,46.136382],[-122.935802,46.13634],[-122.935772,46.136278],[-122.935668,46.136279],[-122.935628,46.13619],[-122.935528,46.136178],[-122.935528,46.135998],[-122.935731,46.135996],[-122.935781,46.135965],[-122.935787,46.135908],[-122.935916,46.135908],[-122.935917,46.136058],[-122.935962,46.136097],[-122.936434,46.136089]]]}},{"type":"Feature","properties":{"id":91,"area_m2":1800,"px":18,"rank":13,"persistent":false},"geometry":{"type":"Polygon","coordinates":[[[-122.935141,46.134828],[-122.935139,46.134918],[-122.935011,46.134918],[-122.935005,46.134861],[-122.934956,46.13483],[-122.934678,46.13483],[-122.934624,46.134871],[-122.934622,46.135007],[-122.934364,46.135007],[-122.934364,46.134917],[-122.934452,46.134911],[-122.934492,46.134874],[-122.934494,46.134557],[-122.934575,46.134553],[-122.93462,46.134519],[-122.934624,46.134287],[-122.93473,46.134272],[-122.934753,46.134198],[-122.934882,46.134198],[-122.934882,46.134378],[-122.934848,46.13442],[-122.934882,46.134468],[-122.934882,46.134558],[-122.934847,46.134605],[-122.934888,46.134704],[-122.93493,46.134734],[-122.935011,46.134738],[-122.935046,46.134819],[-122.935141,46.134828]]]}},{"type":"Feature","properties":{"id":38,"area_m2":1600,"px":16,"rank":14,"persistent":false},"geometry":{"type":"Polygon","coordinates":[[[-122.93371,46.140407],[-122.93371,46.140497],[-122.933603,46.140513],[-122.933548,46.140619],[-122.93358,46.140677],[-122.93358,46.140857],[-122.93345,46.140857],[-122.933428,46.140783],[-122.933321,46.140767],[-122.933308,46.140611],[-122.933192,46.140587],[-122.933179,46.140431],[-122.933063,46.140407],[-122.933054,46.140255],[-122.933008,46.140229],[-122.932933,46.140226],[-122.932924,46.140075],[-122.932878,46.140049],[-122.932804,46.140046],[-122.93277,46.139966],[-122.932675,46.139956],[-122.932675,46.139866],[-122.932804,46.139867],[-122.932827,46.139941],[-122.932933,46.139957],[-122.932968,46.140037],[-122.933063,46.140047],[-122.933066,46.140188],[-122.933111,46.140223],[-122.933192,46.140227],[-122.933192,46.140358],[-122.93322,46.140394],[-122.933382,46.140431],[-122.933451,46.140407],[-122.93371,46.140407]]]}},{"type":"Feature","properties":{"id":71,"area_m2":1500,"px":15,"rank":15,"persistent":false},"geometry":{"type":"Polygon","coordinates":[[[-122.938764,46.13645],[-122.938764,46.13654],[-122.938567,46.136541],[-122.938511,46.136573],[-122.93847,46.136672],[-122.938504,46.13672],[-122.938504,46.1369],[-122.938245,46.136899],[-122.938223,46.136825],[-122.93807,46.136787],[-122.937986,46.136809],[-122.937857,46.136809],[-122.937857,46.136629],[-122.938205,46.136623],[-122.938242,46.136591],[-122.938246,46.13654],[-122.938362,46.136516],[-122.938375,46.13645],[-122.938764,46.13645]]]}},{"type":"Feature","properties":{"id":79,"area_m2":1500,"px":15,"rank":16,"persistent":false},"geometry":{"type":"Polygon","coordinates":[[[-122.934233,46.135997],[-122.934233,46.136087],[-122.934144,46.136094],[-122.934105,46.136131],[-122.934103,46.136537],[-122.933844,46.136537],[-122.933835,46.136386],[-122.933789,46.136359],[-122.933715,46.136357],[-122.933715,46.136177],[-122.933816,46.136165],[-122.933845,46.136087],[-122.933954,46.13608],[-122.933994,46.136031],[-122.933957,46.135927],[-122.933845,46.135907],[-122.933845,46.135817],[-122.933974,46.135817],[-122.933997,46.135891],[-122.934104,46.135907],[-122.934138,46.135988],[-122.934233,46.135997]]]}},{"type":"Feature","properties":{"id":28,"area_m2":1400,"px":14,"rank":17,"persistent":false},"geometry":{"type":"Polygon","coordinates":[[[-122.933968,46.141307],[-122.933967,46.141487],[-122.933861,46.141503],[-122.933838,46.141577],[-122.933722,46.141601],[-122.933708,46.141667],[-122.933512,46.141668],[-122.933459,46.141695],[-122.933449,46.141937],[-122.933342,46.141953],[-122.933319,46.142027],[-122.933116,46.142029],[-122.933066,46.14206],[-122.93306,46.142117],[-122.932931,46.142116],[-122.932931,46.142027],[-122.933026,46.142018],[-122.933061,46.141937],[-122.933135,46.141934],[-122.933181,46.141908],[-122.93319,46.141757],[-122.933297,46.141741],[-122.93332,46.141667],[-122.933415,46.141658],[-122.93345,46.141577],[-122.933561,46.141557],[-122.933579,46.141487],[-122.93381,46.141475],[-122.933838,46.141438],[-122.933838,46.141307],[-122.933968,46.141307]]]}},{"type":"Feature","properties":{"id":47,"area_m2":1400,"px":14,"rank":18,"persistent":false},"geometry":{"type":"Polygon","coordinates":[[[-122.932287,46.138876],[-122.932287,46.139236],[-122.931899,46.139236],[-122.931899,46.139146],[-122.93198,46.139142],[-122.932022,46.139113],[-122.932027,46.139009],[-122.931966,46.138967],[-122.93177,46.138966],[-122.93177,46.138786],[-122.932158,46.138786],[-122.932181,46.13886],[-122.932287,46.138876]]]}},{"type":"Feature","properties":{"id":80,"area_m2":1400,"px":14,"rank":19,"persistent":false},"geometry":{"type":"Polygon","coordinates":[[[-122.933456,46.135907],[-122.933456,46.136087],[-122.933355,46.136099],[-122.933326,46.136177],[-122.933238,46.136183],[-122.933199,46.13622],[-122.933203,46.136323],[-122.933245,46.136353],[-122.933326,46.136357],[-122.933326,46.136447],[-122.933067,46.136447],[-122.933068,46.136177],[-122.933156,46.13617],[-122.933197,46.136128],[-122.933196,46.13604],[-122.933156,46.136003],[-122.932973,46.136006],[-122.932938,46.136086],[-122.932822,46.13611],[-122.932809,46.136176],[-122.93255,46.136176],[-122.93255,46.136086],[-122.932774,46.136077],[-122.932809,46.135996],[-122.932925,46.135972],[-122.932939,46.135907],[-122.933456,46.135907]]]}},{"type":"Feature","properties":{"id":83,"area_m2":1400,"px":14,"rank":20,"persistent":false},"geometry":{"type":"Polygon","coordinates":[[[-122.938506,46.13546],[-122.938506,46.13564],[-122.938376,46.135639],[-122.938367,46.135578],[-122.938314,46.135551],[-122.938016,46.135562],[-122.937988,46.135598],[-122.937987,46.135909],[-122.937782,46.135898],[-122.937734,46.135929],[-122.937728,46.135999],[-122.937599,46.135999],[-122.937599,46.135819],[-122.937674,46.135817],[-122.93772,46.135791],[-122.937729,46.135639],[-122.937824,46.13563],[-122.937859,46.135549],[-122.937975,46.135525],[-122.937988,46.135369],[-122.938117,46.135369],[-122.938127,46.135431],[-122.93818,46.135458],[-122.938506,46.13546]]]}},{"type":"Feature","properties":{"id":3,"area_m2":1300,"px":13,"rank":21,"persistent":false},"geometry":{"type":"Polygon","coordinates":[[[-122.930986,46.143915],[-122.930986,46.144095],[-122.930727,46.144095],[-122.930718,46.144034],[-122.930665,46.144006],[-122.930394,46.144007],[-122.93034,46.144049],[-122.930339,46.144185],[-122.930232,46.144201],[-122.930209,46.144275],[-122.93008,46.144275],[-122.93008,46.144185],[-122.930161,46.144181],[-122.930206,46.144147],[-122.93021,46.144005],[-122.930316,46.143989],[-122.930339,46.143915],[-122.930456,46.143891],[-122.930469,46.143825],[-122.930857,46.143825],[-122.93088,46.1439],[-122.930986,46.143915]]]}},{"type":"Feature","properties":{"id":68,"area_m2":1300,"px":13,"rank":22,"persistent":false},"geometry":{"type":"Polygon","coordinates":[[[-122.9398,46.13627],[-122.939799,46.13636],[-122.939711,46.136367],[-122.939671,46.136404],[-122.93967,46.13663],[-122.939588,46.136634],[-122.939544,46.136668],[-122.93954,46.1369],[-122.939452,46.136907],[-122.939412,46.136944],[-122.939416,46.137047],[-122.939458,46.137076],[-122.93954,46.13708],[-122.93954,46.13717],[-122.939281,46.13717],[-122.939281,46.1369],[-122.939355,46.136898],[-122.939401,46.136872],[-122.939411,46.13663],[-122.939499,46.136624],[-122.93954,46.136581],[-122.939537,46.136398],[-122.939493,46.136364],[-122.939411,46.13636],[-122.939411,46.13627],[-122.9398,46.13627]]]}},{"type":"Feature","properties":{"id":8,"area_m2":1200,"px":12,"rank":23,"persistent":false},"geometry":{"type":"Polygon","coordinates":[[[-122.938497,46.1432],[-122.938497,46.14347],[-122.938261,46.143485],[-122.938238,46.14365],[-122.937979,46.143649],[-122.937979,46.143559],[-122.93806,46.143555],[-122.938105,46.143521],[-122.938109,46.14338],[-122.938211,46.143375],[-122.938255,46.14334],[-122.938239,46.14293],[-122.938368,46.14293],[-122.938371,46.143161],[-122.938416,46.143196],[-122.938497,46.1432]]]}},{"type":"Feature","properties":{"id":49,"area_m2":1200,"px":12,"rank":24,"persistent":false},"geometry":{"type":"Polygon","coordinates":[[[-122.932935,46.138607],[-122.932935,46.138966],[-122.93286,46.138969],[-122.932814,46.138995],[-122.932805,46.139146],[-122.932546,46.139146],[-122.932546,46.139056],[-122.932641,46.139047],[-122.932676,46.139002],[-122.932673,46.138825],[-122.932628,46.13879],[-122.932547,46.138786],[-122.932547,46.138696],[-122.932653,46.138681],[-122.932676,46.138606],[-122.932935,46.138607]]]}},{"type":"Feature","properties":{"id":34,"area_m2":1100,"px":11,"rank":25,"persistent":false},"geometry":{"type":"Polygon","coordinates":[[[-122.935781,46.140768],[-122.935781,46.140858],[-122.935692,46.140865],[-122.935653,46.140902],[-122.935651,46.141038],[-122.935616,46.14108],[-122.935651,46.141128],[-122.935651,46.141308],[-122.935577,46.14131],[-122.935531,46.141337],[-122.935521,46.141488],[-122.935392,46.141488],[-122.935392,46.141038],[-122.935474,46.141034],[-122.935518,46.141],[-122.935522,46.140768],[-122.935781,46.140768]]]}},{"type":"Feature","properties":{"id":63,"area_m2":1100,"px":11,"rank":26,"persistent":false},"geometry":{"type":"Polygon","coordinates":[[[-122.932548,46.137166],[-122.932548,46.137256],[-122.932235,46.137242],[-122.932182,46.137259],[-122.93216,46.137436],[-122.93203,46.137436],[-122.932027,46.137294],[-122.931953,46.137256],[-122.9318,46.137268],[-122.931772,46.137305],[-122.931771,46.137436],[-122.931642,46.137436],[-122.931642,46.137256],[-122.931749,46.13724],[-122.931772,46.137166],[-122.931996,46.137157],[-122.932031,46.137076],[-122.93229,46.137076],[-122.932293,46.137128],[-122.932331,46.13716],[-122.932548,46.137166]]]}},{"type":"Feature","properties":{"id":92,"area_m2":1100,"px":11,"rank":27,"persistent":false},"geometry":{"type":"Polygon","coordinates":[[[-122.934364,46.134467],[-122.934364,46.134557],[-122.934276,46.134564],[-122.934236,46.134601],[-122.934234,46.134917],[-122.934105,46.134917],[-122.934096,46.134842],[-122.93403,46.134813],[-122.933772,46.134829],[-122.933722,46.13486],[-122.933716,46.134917],[-122.933587,46.134917],[-122.933587,46.134827],[-122.933669,46.134823],[-122.933713,46.134789],[-122.933717,46.134647],[-122.934057,46.134643],[-122.934099,46.134614],[-122.934105,46.134557],[-122.934222,46.134533],[-122.934235,46.134467],[-122.934364,46.134467]]]}},{"type":"Feature","properties":{"id":16,"area_m2":1000,"px":10,"rank":28,"persistent":false},"geometry":{"type":"Polygon","coordinates":[[[-122.935649,46.143018],[-122.935649,46.143198],[-122.93526,46.143198],[-122.935238,46.143124],[-122.935131,46.143108],[-122.935131,46.143018],[-122.935219,46.143012],[-122.935259,46.142974],[-122.935261,46.142748],[-122.93539,46.142748],[-122.935413,46.143002],[-122.935649,46.143018]]]}},{"type":"Feature","properties":{"id":43,"area_m2":1000,"px":10,"rank":29,"persistent":false},"geometry":{"type":"Polygon","coordinates":[[[-122.931639,46.140136],[-122.931638,46.140316],[-122.931509,46.140316],[-122.931503,46.140259],[-122.931454,46.140228],[-122.93125,46.140225],[-122.931227,46.140151],[-122.931121,46.140135],[-122.931121,46.139956],[-122.931509,46.139956],[-122.931518,46.140107],[-122.931564,46.140133],[-122.931639,46.140136]]]}},{"type":"Feature","properties":{"id":33,"area_m2":900,"px":9,"rank":30,"persistent":false},"geometry":{"type":"Polygon","coordinates":[[[-122.934874,46.141578],[-122.934874,46.141668],[-122.934661,46.141658],[-122.934618,46.141692],[-122.934614,46.141757],[-122.934411,46.14176],[-122.934361,46.141791],[-122.934355,46.141847],[-122.934226,46.141847],[-122.934226,46.141757],[-122.934261,46.141715],[-122.934226,46.141667],[-122.934227,46.141487],[-122.934356,46.141487],[-122.934417,46.141512],[-122.934485,46.141488],[-122.934744,46.141488],[-122.934767,46.141562],[-122.934874,46.141578]]]}},{"type":"Feature","properties":{"id":61,"area_m2":900,"px":9,"rank":31,"persistent":false},"geometry":{"type":"Polygon","coordinates":[[[-122.936303,46.137348],[-122.936303,46.137438],[-122.936221,46.137442],[-122.936177,46.137477],[-122.936173,46.137618],[-122.935914,46.137618],[-122.935911,46.137567],[-122.935873,46.137535],[-122.935655,46.137528],[-122.935656,46.137438],[-122.935864,46.137438],[-122.935922,46.137413],[-122.935915,46.137258],[-122.936044,46.137258],[-122.93605,46.137315],[-122.936099,46.137346],[-122.936303,46.137348]]]}},{"type":"Feature","properties":{"id":72,"area_m2":900,"px":9,"rank":32,"persistent":false},"geometry":{"type":"Polygon","coordinates":[[[-122.936951,46.136449],[-122.936951,46.136719],[-122.936726,46.136728],[-122.936692,46.136767],[-122.936692,46.136899],[-122.936562,46.136899],[-122.936563,46.136539],[-122.936767,46.136536],[-122.936816,46.136505],[-122.936822,46.136449],[-122.936951,46.136449]]]}},{"type":"Feature","properties":{"id":69,"area_m2":900,"px":9,"rank":33,"persistent":false},"geometry":{"type":"Polygon","coordinates":[[[-122.937469,46.136359],[-122.937469,46.136719],[-122.937387,46.136723],[-122.937343,46.136757],[-122.937339,46.136989],[-122.93721,46.136989],[-122.937206,46.136847],[-122.937162,46.136813],[-122.93708,46.136809],[-122.93708,46.136719],[-122.937175,46.13671],[-122.93721,46.136629],[-122.937284,46.136627],[-122.93733,46.1366],[-122.93734,46.136359],[-122.937469,46.136359]]]}},{"type":"Feature","properties":{"id":99,"area_m2":900,"px":9,"rank":34,"persistent":false},"geometry":{"type":"Polygon","coordinates":[[[-122.938897,46.13303],[-122.938897,46.13312],[-122.938815,46.133124],[-122.938771,46.133158],[-122.938767,46.1333],[-122.938686,46.133304],[-122.938644,46.133333],[-122.938637,46.13348],[-122.938531,46.133495],[-122.938508,46.13357],[-122.938379,46.133569],[-122.938379,46.13348],[-122.938467,46.133473],[-122.938507,46.133436],[-122.938509,46.13312],[-122.938615,46.133104],[-122.938638,46.13303],[-122.938897,46.13303]]]}},{"type":"Feature","properties":{"id":21,"area_m2":800,"px":8,"rank":35,"persistent":false},"geometry":{"type":"Polygon","coordinates":[[[-122.934225,46.142657],[-122.934225,46.142837],[-122.933966,46.142837],[-122.933943,46.142763],[-122.933837,46.142747],[-122.933833,46.142605],[-122.933789,46.142571],[-122.933707,46.142567],[-122.933707,46.142477],[-122.933966,46.142477],[-122.933989,46.142641],[-122.934225,46.142657]]]}},{"type":"Feature","properties":{"id":26,"area_m2":800,"px":8,"rank":36,"persistent":false},"geometry":{"type":"Polygon","coordinates":[[[-122.928917,46.142024],[-122.928917,46.142114],[-122.92881,46.14213],[-122.928787,46.142204],[-122.92857,46.14221],[-122.928532,46.142242],[-122.928528,46.142294],[-122.928412,46.142318],[-122.928399,46.142384],[-122.92827,46.142384],[-122.92827,46.142294],[-122.928304,46.142251],[-122.92827,46.142204],[-122.92827,46.142114],[-122.928488,46.142107],[-122.928525,46.142076],[-122.928529,46.142024],[-122.928658,46.142024],[-122.928719,46.142048],[-122.928788,46.142024],[-122.928917,46.142024]]]}},{"type":"Feature","properties":{"id":23,"area_m2":800,"px":8,"rank":37,"persistent":false},"geometry":{"type":"Polygon","coordinates":[[[-122.935262,46.141938],[-122.935262,46.142028],[-122.935173,46.142034],[-122.935134,46.142071],[-122.935132,46.142478],[-122.935002,46.142478],[-122.934999,46.142246],[-122.934955,46.142212],[-122.934873,46.142208],[-122.934873,46.142118],[-122.934908,46.142075],[-122.934873,46.142028],[-122.934873,46.141938],[-122.935003,46.141938],[-122.935064,46.141962],[-122.935132,46.141938],[-122.935262,46.141938]]]}},{"type":"Feature","properties":{"id":84,"area_m2":800,"px":8,"rank":38,"persistent":false},"geometry":{"type":"Polygon","coordinates":[[[-122.936822,46.135909],[-122.936822,46.135999],[-122.936175,46.135998],[-122.936175,46.135728],[-122.936282,46.135713],[-122.936305,46.135638],[-122.936434,46.135639],[-122.936434,46.135728],[-122.936353,46.135733],[-122.936308,46.135767],[-122.936327,46.135893],[-122.936382,46.135908],[-122.936822,46.135909]]]}},{"type":"Feature","properties":{"id":82,"area_m2":800,"px":8,"rank":39,"persistent":false},"geometry":{"type":"Polygon","coordinates":[[[-122.93242,46.135996],[-122.93242,46.136086],[-122.932162,46.136086],[-122.932162,46.135456],[-122.932292,46.135456],[-122.932293,46.135953],[-122.932332,46.13599],[-122.93242,46.135996]]]}},{"type":"Feature","properties":{"id":7,"area_m2":700,"px":7,"rank":40,"persistent":false},"geometry":{"type":"Polygon","coordinates":[[[-122.929045,46.143554],[-122.929045,46.143644],[-122.928827,46.14365],[-122.928789,46.143682],[-122.928786,46.143734],[-122.928656,46.143734],[-122.928595,46.14371],[-122.928527,46.143734],[-122.928397,46.143734],[-122.928397,46.143644],[-122.928504,46.143628],[-122.928527,46.143554],[-122.928643,46.14353],[-122.928657,46.143464],[-122.928786,46.143464],[-122.928792,46.143521],[-122.928841,46.143552],[-122.929045,46.143554]]]}},{"type":"Feature","properties":{"id":40,"area_m2":700,"px":7,"rank":41,"persistent":false},"geometry":{"type":"Polygon","coordinates":[[[-122.93617,46.140408],[-122.93617,46.140498],[-122.935966,46.140501],[-122.935917,46.140532],[-122.935911,46.140588],[-122.935781,46.140588],[-122.935782,46.140228],[-122.935911,46.140228],[-122.935934,46.140302],[-122.93604,46.140318],[-122.936075,46.140399],[-122.93617,46.140408]]]}},{"type":"Feature","properties":{"id":42,"area_m2":700,"px":7,"rank":42,"persistent":false},"geometry":{"type":"Polygon","coordinates":[[[-122.932415,46.140136],[-122.932415,46.140316],[-122.932191,46.140325],[-122.932157,46.140365],[-122.932156,46.140496],[-122.932027,46.140496],[-122.932027,46.140226],[-122.932122,46.140224],[-122.932168,46.140196],[-122.932157,46.140046],[-122.932286,46.140046],[-122.932309,46.14012],[-122.932415,46.140136]]]}},{"type":"Feature","properties":{"id":48,"area_m2":700,"px":7,"rank":43,"persistent":false},"geometry":{"type":"Polygon","coordinates":[[[-122.934229,46.138967],[-122.934229,46.139057],[-122.933903,46.139058],[-122.93385,46.139086],[-122.933841,46.139147],[-122.933711,46.139147],[-122.933702,46.138996],[-122.933656,46.138969],[-122.933582,46.138967],[-122.933548,46.138886],[-122.933453,46.138877],[-122.933453,46.138787],[-122.933582,46.138787],[-122.933595,46.138853],[-122.933712,46.138877],[-122.933718,46.138934],[-122.933767,46.138965],[-122.934229,46.138967]]]}},{"type":"Feature","properties":{"id":51,"area_m2":700,"px":7,"rank":44,"persistent":false},"geometry":{"type":"Polygon","coordinates":[[[-122.932417,46.138606],[-122.932417,46.138696],[-122.932288,46.138696],[-122.932275,46.13863],[-122.93221,46.138606],[-122.931955,46.138608],[-122.931905,46.138639],[-122.931899,46.138696],[-122.93177,46.138696],[-122.93177,46.138426],[-122.9319,46.138426],[-122.931909,46.138487],[-122.931962,46.138515],[-122.932288,46.138516],[-122.932311,46.13859],[-122.932417,46.138606]]]}},{"type":"Feature","properties":{"id":60,"area_m2":700,"px":7,"rank":45,"persistent":false},"geometry":{"type":"Polygon","coordinates":[[[-122.93695,46.137349],[-122.93695,46.137619],[-122.936843,46.137635],[-122.93682,46.137709],[-122.936691,46.137709],[-122.936691,46.137619],[-122.936772,46.137615],[-122.936817,46.13758],[-122.936811,46.137467],[-122.936751,46.137439],[-122.936432,46.137438],[-122.936432,46.137349],[-122.93695,46.137349]]]}},{"type":"Feature","properties":{"id":64,"area_m2":700,"px":7,"rank":46,"persistent":false},"geometry":{"type":"Polygon","coordinates":[[[-122.939928,46.13699],[-122.939928,46.13735],[-122.939799,46.13735],[-122.939776,46.137276],[-122.939669,46.13726],[-122.939669,46.13717],[-122.939764,46.137161],[-122.939799,46.137116],[-122.939786,46.137014],[-122.939669,46.13699],[-122.93967,46.13681],[-122.939799,46.13681],[-122.939808,46.136962],[-122.939854,46.136988],[-122.939928,46.13699]]]}},{"type":"Feature","properties":{"id":1,"area_m2":600,"px":6,"rank":47,"persistent":false},"geometry":{"type":"Polygon","coordinates":[[[-122.937719,46.143919],[-122.937719,46.144009],[-122.937617,46.144014],[-122.937573,46.144049],[-122.93759,46.144279],[-122.93746,46.144279],[-122.937438,46.144205],[-122.937331,46.144189],[-122.937331,46.144009],[-122.937438,46.143993],[-122.937461,46.143919],[-122.937719,46.143919]]]}},{"type":"Feature","properties":{"id":15,"area_m2":600,"px":6,"rank":48,"persistent":false},"geometry":{"type":"Polygon","coordinates":[[[-122.936038,46.142658],[-122.936037,46.142928],[-122.935956,46.142932],[-122.935911,46.142967],[-122.935908,46.143198],[-122.935778,46.143198],[-122.935779,46.142928],[-122.93586,46.142924],[-122.935905,46.14289],[-122.935908,46.142658],[-122.936038,46.142658]]]}},{"type":"Feature","properties":{"id":44,"area_m2":600,"px":6,"rank":49,"persistent":false},"geometry":{"type":"Polygon","coordinates":[[[-122.934743,46.139959],[-122.934711,46.140005],[-122.934746,46.140048],[-122.934746,46.140138],[-122.934617,46.140137],[-122.934611,46.140081],[-122.934569,46.140052],[-122.93442,46.140048],[-122.934359,46.140091],[-122.934357,46.140227],[-122.934228,46.140227],[-122.934228,46.140047],[-122.934335,46.140032],[-122.934358,46.139957],[-122.934562,46.139955],[-122.934611,46.139924],[-122.934617,46.139868],[-122.934744,46.139868],[-122.934743,46.139959]]]}},{"type":"Feature","properties":{"id":59,"area_m2":600,"px":6,"rank":50,"persistent":false},"geometry":{"type":"Polygon","coordinates":[[[-122.937727,46.137439],[-122.937727,46.137529],[-122.937645,46.137533],[-122.937601,46.137567],[-122.937597,46.137709],[-122.937468,46.137709],[-122.937459,46.137558],[-122.937413,46.137531],[-122.937338,46.137529],[-122.937339,46.137349],[-122.937468,46.137349],[-122.937474,46.137406],[-122.937523,46.137437],[-122.937727,46.137439]]]}},{"type":"Feature","properties":{"id":62,"area_m2":600,"px":6,"rank":51,"persistent":false},"geometry":{"type":"Polygon","coordinates":[[[-122.933972,46.137527],[-122.933972,46.137617],[-122.933845,46.137617],[-122.933837,46.13756],[-122.933788,46.137529],[-122.933652,46.137503],[-122.933584,46.137527],[-122.933454,46.137527],[-122.933451,46.137385],[-122.933407,46.137351],[-122.933325,46.137347],[-122.933325,46.137257],[-122.933455,46.137257],[-122.933461,46.137313],[-122.93351,46.137345],[-122.933713,46.137347],[-122.933736,46.137421],[-122.933843,46.137437],[-122.933877,46.137518],[-122.933972,46.137527]]]}},{"type":"Feature","properties":{"id":74,"area_m2":600,"px":6,"rank":52,"persistent":false},"geometry":{"type":"Polygon","coordinates":[[[-122.935009,46.136628],[-122.935009,46.136808],[-122.934879,46.136808],[-122.934857,46.136733],[-122.93475,46.136717],[-122.934749,46.136491],[-122.934709,46.136454],[-122.934621,46.136447],[-122.934621,46.136358],[-122.93475,46.136358],[-122.934773,46.136432],[-122.93488,46.136448],[-122.934889,46.136599],[-122.934935,46.136625],[-122.935009,46.136628]]]}},{"type":"Feature","properties":{"id":94,"area_m2":600,"px":6,"rank":53,"persistent":false},"geometry":{"type":"Polygon","coordinates":[[[-122.934106,46.134197],[-122.934105,46.134377],[-122.934031,46.134379],[-122.933985,46.134406],[-122.933976,46.134557],[-122.933846,46.134557],[-122.933845,46.13433],[-122.933806,46.134293],[-122.933717,46.134287],[-122.933717,46.134197],[-122.933847,46.134197],[-122.933908,46.134221],[-122.933976,46.134197],[-122.934106,46.134197]]]}},{"type":"Feature","properties":{"id":100,"area_m2":600,"px":6,"rank":54,"persistent":false},"geometry":{"type":"Polygon","coordinates":[[[-122.934495,46.133297],[-122.934495,46.133477],[-122.934388,46.133493],[-122.934365,46.133567],[-122.934236,46.133567],[-122.934233,46.133426],[-122.934188,46.133391],[-122.934107,46.133387],[-122.934107,46.133297],[-122.934495,46.133297]]]}},{"type":"Feature","properties":{"id":105,"area_m2":600,"px":6,"rank":55,"persistent":false},"geometry":{"type":"Polygon","coordinates":[[[-122.933978,46.132847],[-122.933978,46.133027],[-122.933719,46.133027],[-122.933715,46.132975],[-122.933678,46.132943],[-122.93346,46.132937],[-122.93346,46.132847],[-122.933978,46.132847]]]}},{"type":"Feature","properties":{"id":110,"area_m2":600,"px":6,"rank":56,"persistent":false},"geometry":{"type":"Polygon","coordinates":[[[-122.936956,46.132039],[-122.936956,46.132399],[-122.936849,46.132414],[-122.936826,46.132489],[-122.936697,46.132489],[-122.936697,46.132399],[-122.936732,46.132356],[-122.936697,46.132309],[-122.936697,46.132219],[-122.936771,46.132216],[-122.936817,46.13219],[-122.936827,46.132039],[-122.936956,46.132039]]]}},{"type":"Feature","properties":{"id":111,"area_m2":600,"px":6,"rank":57,"persistent":false},"geometry":{"type":"Polygon","coordinates":[[[-122.936179,46.132218],[-122.936179,46.132398],[-122.93605,46.132398],[-122.936027,46.132324],[-122.93592,46.132308],[-122.935886,46.132227],[-122.935791,46.132218],[-122.935791,46.131948],[-122.935921,46.131948],[-122.935943,46.132202],[-122.936179,46.132218]]]}},{"type":"Feature","properties":{"id":5,"area_m2":500,"px":5,"rank":58,"persistent":false},"geometry":{"type":"Polygon","coordinates":[[[-122.928397,46.143824],[-122.928397,46.144094],[-122.928267,46.144094],[-122.928258,46.143942],[-122.928212,46.143916],[-122.928138,46.143914],[-122.928104,46.143833],[-122.928009,46.143824],[-122.928009,46.143734],[-122.928138,46.143734],[-122.928144,46.14379],[-122.928193,46.143821],[-122.928397,46.143824]]]}},{"type":"Feature","properties":{"id":6,"area_m2":500,"px":5,"rank":59,"persistent":false},"geometry":{"type":"Polygon","coordinates":[[[-122.931116,46.143646],[-122.931116,46.143735],[-122.930598,46.143735],[-122.930599,46.143645],[-122.930705,46.143629],[-122.930728,46.143555],[-122.930857,46.143555],[-122.930863,46.143612],[-122.930913,46.143643],[-122.931116,46.143646]]]}},{"type":"Feature","properties":{"id":13,"area_m2":500,"px":5,"rank":60,"persistent":false},"geometry":{"type":"Polygon","coordinates":[[[-122.936684,46.143199],[-122.936684,46.143289],[-122.936037,46.143288],[-122.936037,46.143198],[-122.936684,46.143199]]]}},{"type":"Feature","properties":{"id":20,"area_m2":500,"px":5,"rank":61,"persistent":false},"geometry":{"type":"Polygon","coordinates":[[[-122.931117,46.142746],[-122.931117,46.142835],[-122.931011,46.142851],[-122.930988,46.142925],[-122.930858,46.142925],[-122.930852,46.142869],[-122.930803,46.142838],[-122.9306,46.142835],[-122.9306,46.142745],[-122.931117,46.142746]]]}},{"type":"Feature","properties":{"id":22,"area_m2":500,"px":5,"rank":62,"persistent":false},"geometry":{"type":"Polygon","coordinates":[[[-122.937333,46.142479],[-122.937333,46.142569],[-122.937115,46.142575],[-122.937077,46.142607],[-122.937074,46.142659],[-122.936815,46.142659],[-122.936815,46.142569],[-122.936921,46.142553],[-122.936944,46.142479],[-122.937333,46.142479]]]}},{"type":"Feature","properties":{"id":25,"area_m2":500,"px":5,"rank":63,"persistent":false},"geometry":{"type":"Polygon","coordinates":[[[-122.931118,46.142026],[-122.931118,46.142115],[-122.931012,46.142131],[-122.930956,46.142237],[-122.930988,46.142385],[-122.930859,46.142385],[-122.930836,46.142311],[-122.93073,46.142295],[-122.93073,46.142115],[-122.930934,46.142113],[-122.930983,46.142082],[-122.930989,46.142025],[-122.931118,46.142026]]]}},{"type":"Feature","properties":{"id":58,"area_m2":500,"px":5,"rank":64,"persistent":false},"geometry":{"type":"Polygon","coordinates":[[[-122.938374,46.13771],[-122.938374,46.1378],[-122.938246,46.137799],[-122.938241,46.137748],[-122.938203,46.137716],[-122.937986,46.137709],[-122.937963,46.137635],[-122.937856,46.137619],[-122.937856,46.137529],[-122.938115,46.137529],[-122.938138,46.137604],[-122.938244,46.13762],[-122.938279,46.1377],[-122.938374,46.13771]]]}},{"type":"Feature","properties":{"id":67,"area_m2":500,"px":5,"rank":65,"persistent":false},"geometry":{"type":"Polygon","coordinates":[[[-122.933714,46.137077],[-122.933714,46.137257],[-122.933584,46.137257],[-122.933562,46.137183],[-122.933455,46.137167],[-122.93342,46.137086],[-122.933326,46.137077],[-122.933326,46.136987],[-122.933584,46.136987],[-122.933607,46.137061],[-122.933714,46.137077]]]}},{"type":"Feature","properties":{"id":107,"area_m2":500,"px":5,"rank":66,"persistent":false},"geometry":{"type":"Polygon","coordinates":[[[-122.935402,46.132578],[-122.935402,46.132668],[-122.935143,46.132668],[-122.93514,46.132616],[-122.935102,46.132584],[-122.934884,46.132577],[-122.934885,46.132488],[-122.935273,46.132488],[-122.935295,46.132562],[-122.935402,46.132578]]]}},{"type":"Feature","properties":{"id":108,"area_m2":500,"px":5,"rank":67,"persistent":false},"geometry":{"type":"Polygon","coordinates":[[[-122.934626,46.132307],[-122.934626,46.132397],[-122.934544,46.132401],[-122.934499,46.132436],[-122.934496,46.132577],[-122.934389,46.132593],[-122.934366,46.132667],[-122.934108,46.132667],[-122.934108,46.132577],[-122.934296,46.132577],[-122.934349,46.132558],[-122.934367,46.132397],[-122.934473,46.132382],[-122.934496,46.132307],[-122.934626,46.132307]]]}},{"type":"Feature","properties":{"id":109,"area_m2":500,"px":5,"rank":68,"persistent":false},"geometry":{"type":"Polygon","coordinates":[[[-122.937474,46.132129],[-122.937474,46.132399],[-122.937399,46.132401],[-122.937353,46.132427],[-122.937344,46.132579],[-122.937215,46.132579],[-122.937215,46.132399],[-122.937303,46.132393],[-122.937343,46.132355],[-122.937345,46.132129],[-122.937474,46.132129]]]}},{"type":"Feature","properties":{"id":113,"area_m2":500,"px":5,"rank":69,"persistent":false},"geometry":{"type":"Polygon","coordinates":[[[-122.935662,46.131948],[-122.935662,46.132128],[-122.935403,46.132128],[-122.935342,46.132104],[-122.935273,46.132128],[-122.935144,46.132128],[-122.935144,46.132038],[-122.935251,46.132022],[-122.935274,46.131948],[-122.935403,46.131948],[-122.935464,46.131972],[-122.935532,46.131948],[-122.935662,46.131948]]]}},{"type":"Feature","properties":{"id":2,"area_m2":400,"px":4,"rank":70,"persistent":false},"geometry":{"type":"Polygon","coordinates":[[[-122.936683,46.144189],[-122.936683,46.144279],[-122.936424,46.144279],[-122.936402,46.144204],[-122.936295,46.144188],[-122.936295,46.144099],[-122.936554,46.144099],[-122.936577,46.144173],[-122.936683,46.144189]]]}},{"type":"Feature","properties":{"id":9,"area_m2":400,"px":4,"rank":71,"persistent":false},"geometry":{"type":"Polygon","coordinates":[[[-122.93772,46.143559],[-122.93772,46.143649],[-122.937461,46.143649],[-122.937438,46.143575],[-122.937332,46.143559],[-122.937332,46.143379],[-122.937461,46.143379],[-122.937461,46.14351],[-122.937496,46.14355],[-122.93772,46.143559]]]}},{"type":"Feature","properties":{"id":18,"area_m2":400,"px":4,"rank":72,"persistent":false},"geometry":{"type":"Polygon","coordinates":[[[-122.93047,46.143015],[-122.93047,46.143105],[-122.930363,46.143121],[-122.93034,46.143195],[-122.930211,46.143195],[-122.930188,46.143121],[-122.930081,46.143105],[-122.930081,46.143015],[-122.93047,46.143015]]]}},{"type":"Feature","properties":{"id":17,"area_m2":400,"px":4,"rank":73,"persistent":false},"geometry":{"type":"Polygon","coordinates":[[[-122.933059,46.142927],[-122.933059,46.143197],[-122.93293,46.143197],[-122.932907,46.143122],[-122.9328,46.143106],[-122.9328,46.143017],[-122.932907,46.143001],[-122.93293,46.142927],[-122.933059,46.142927]]]}},{"type":"Feature","properties":{"id":29,"area_m2":400,"px":4,"rank":74,"persistent":false},"geometry":{"type":"Polygon","coordinates":[[[-122.939405,46.14185],[-122.939405,46.14194],[-122.939201,46.141942],[-122.939152,46.141973],[-122.939146,46.14203],[-122.939017,46.14203],[-122.939017,46.14194],[-122.939098,46.141936],[-122.939143,46.141902],[-122.939146,46.14176],[-122.939276,46.14176],[-122.939298,46.141834],[-122.939405,46.14185]]]}},{"type":"Feature","properties":{"id":53,"area_m2":400,"px":4,"rank":75,"persistent":false},"geometry":{"type":"Polygon","coordinates":[[[-122.939539,46.13789],[-122.939539,46.13807],[-122.93928,46.13807],[-122.93928,46.13789],[-122.939539,46.13789]]]}},{"type":"Feature","properties":{"id":55,"area_m2":400,"px":4,"rank":76,"persistent":false},"geometry":{"type":"Polygon","coordinates":[[[-122.937467,46.137799],[-122.937467,46.137889],[-122.937338,46.137889],[-122.937277,46.137865],[-122.937208,46.137889],[-122.937079,46.137889],[-122.937079,46.137709],[-122.937338,46.137709],[-122.937361,46.137783],[-122.937467,46.137799]]]}},{"type":"Feature","properties":{"id":77,"area_m2":400,"px":4,"rank":77,"persistent":false},"geometry":{"type":"Polygon","coordinates":[[[-122.93255,46.136266],[-122.932549,46.136626],[-122.93242,46.136626],[-122.93242,46.136266],[-122.93255,46.136266]]]}},{"type":"Feature","properties":{"id":81,"area_m2":400,"px":4,"rank":78,"persistent":false},"geometry":{"type":"Polygon","coordinates":[[[-122.938505,46.13591],[-122.938505,46.13609],[-122.938376,46.136089],[-122.93837,46.136033],[-122.938321,46.136002],[-122.938117,46.135999],[-122.938117,46.135909],[-122.938505,46.13591]]]}},{"type":"Feature","properties":{"id":85,"area_m2":400,"px":4,"rank":79,"persistent":false},"geometry":{"type":"Polygon","coordinates":[[[-122.940318,46.135641],[-122.940318,46.135731],[-122.93993,46.13573],[-122.939907,46.135656],[-122.9398,46.13564],[-122.9398,46.13555],[-122.93993,46.13555],[-122.939939,46.135612],[-122.939992,46.135639],[-122.940318,46.135641]]]}},{"type":"Feature","properties":{"id":87,"area_m2":400,"px":4,"rank":80,"persistent":false},"geometry":{"type":"Polygon","coordinates":[[[-122.935269,46.135278],[-122.935269,46.135458],[-122.935011,46.135458],[-122.935011,46.135278],[-122.935269,46.135278]]]}},{"type":"Feature","properties":{"id":97,"area_m2":400,"px":4,"rank":81,"persistent":false},"geometry":{"type":"Polygon","coordinates":[[[-122.934753,46.133838],[-122.934753,46.133927],[-122.934647,46.133943],[-122.934624,46.134017],[-122.934494,46.134017],[-122.934495,46.133747],[-122.934624,46.133747],[-122.934647,46.133822],[-122.934753,46.133838]]]}},{"type":"Feature","properties":{"id":98,"area_m2":400,"px":4,"rank":82,"persistent":false},"geometry":{"type":"Polygon","coordinates":[[[-122.93566,46.133478],[-122.93566,46.133568],[-122.935334,46.133569],[-122.935281,46.133596],[-122.935271,46.133658],[-122.935142,46.133658],[-122.935142,46.133568],[-122.935249,46.133552],[-122.935272,46.133478],[-122.93566,46.133478]]]}},{"type":"Feature","properties":{"id":101,"area_m2":400,"px":4,"rank":83,"persistent":false},"geometry":{"type":"Polygon","coordinates":[[[-122.936437,46.133118],[-122.936437,46.133478],[-122.936307,46.133478],[-122.936308,46.133118],[-122.936437,46.133118]]]}},{"type":"Feature","properties":{"id":4,"area_m2":300,"px":3,"rank":84,"persistent":false},"geometry":{"type":"Polygon","coordinates":[[[-122.938626,46.14401],[-122.938626,46.1441],[-122.938367,46.1441],[-122.938344,46.144025],[-122.938237,46.14401],[-122.938238,46.14392],[-122.938367,46.14392],[-122.938373,46.143976],[-122.938422,46.144007],[-122.938626,46.14401]]]}},{"type":"Feature","properties":{"id":10,"area_m2":300,"px":3,"rank":85,"persistent":false},"geometry":{"type":"Polygon","coordinates":[[[-122.933965,46.143557],[-122.933965,46.143647],[-122.933577,46.143647],[-122.933577,46.143557],[-122.933965,46.143557]]]}},{"type":"Feature","properties":{"id":11,"area_m2":300,"px":3,"rank":86,"persistent":false},"geometry":{"type":"Polygon","coordinates":[[[-122.929563,46.143285],[-122.929563,46.143464],[-122.929304,46.143464],[-122.929304,46.143374],[-122.929411,46.143359],[-122.929434,46.143285],[-122.929563,46.143285]]]}},{"type":"Feature","properties":{"id":14,"area_m2":300,"px":3,"rank":87,"persistent":false},"geometry":{"type":"Polygon","coordinates":[[[-122.941087,46.143111],[-122.941087,46.143201],[-122.940698,46.143201],[-122.940699,46.143111],[-122.941087,46.143111]]]}},{"type":"Feature","properties":{"id":19,"area_m2":300,"px":3,"rank":88,"persistent":false},"geometry":{"type":"Polygon","coordinates":[[[-122.937073,46.142839],[-122.937073,46.142929],[-122.936869,46.142931],[-122.93682,46.142962],[-122.936814,46.143019],[-122.936685,46.143019],[-122.936685,46.142929],[-122.936792,46.142913],[-122.936815,46.142839],[-122.937073,46.142839]]]}},{"type":"Feature","properties":{"id":27,"area_m2":300,"px":3,"rank":89,"persistent":false},"geometry":{"type":"Polygon","coordinates":[[[-122.932543,46.141936],[-122.932542,46.142206],[-122.932413,46.142206],[-122.932413,46.141936],[-122.932543,46.141936]]]}},{"type":"Feature","properties":{"id":32,"area_m2":300,"px":3,"rank":90,"persistent":false},"geometry":{"type":"Polygon","coordinates":[[[-122.932931,46.141757],[-122.932931,46.141936],[-122.932672,46.141936],[-122.932672,46.141846],[-122.932779,46.141831],[-122.932802,46.141757],[-122.932931,46.141757]]]}},{"type":"Feature","properties":{"id":36,"area_m2":300,"px":3,"rank":91,"persistent":false},"geometry":{"type":"Polygon","coordinates":[[[-122.93526,46.140949],[-122.935228,46.140996],[-122.935263,46.141038],[-122.935263,46.141128],[-122.935133,46.141128],[-122.935111,46.141054],[-122.935004,46.141038],[-122.935004,46.140948],[-122.935111,46.140932],[-122.935134,46.140858],[-122.935261,46.140858],[-122.93526,46.140949]]]}},{"type":"Feature","properties":{"id":37,"area_m2":300,"px":3,"rank":92,"persistent":false},"geometry":{"type":"Polygon","coordinates":[[[-122.937853,46.140679],[-122.937852,46.140859],[-122.937723,46.140859],[-122.9377,46.140785],[-122.937594,46.140769],[-122.937594,46.140679],[-122.937853,46.140679]]]}},{"type":"Feature","properties":{"id":39,"area_m2":300,"px":3,"rank":93,"persistent":false},"geometry":{"type":"Polygon","coordinates":[[[-122.932803,46.140587],[-122.932803,46.140676],[-122.932676,46.140676],[-122.932651,46.140602],[-122.932544,46.140586],[-122.932545,46.140406],[-122.932674,46.140406],[-122.932683,46.140558],[-122.932729,46.140584],[-122.932803,46.140587]]]}},{"type":"Feature","properties":{"id":41,"area_m2":300,"px":3,"rank":94,"persistent":false},"geometry":{"type":"Polygon","coordinates":[[[-122.934875,46.140318],[-122.934875,46.140498],[-122.934746,46.140498],[-122.934742,46.140356],[-122.934698,46.140322],[-122.934616,46.140317],[-122.934616,46.140228],[-122.934746,46.140228],[-122.934769,46.140302],[-122.934875,46.140318]]]}},{"type":"Feature","properties":{"id":45,"area_m2":300,"px":3,"rank":95,"persistent":false},"geometry":{"type":"Polygon","coordinates":[[[-122.930862,46.139955],[-122.930862,46.140225],[-122.930732,46.140225],[-122.930733,46.139955],[-122.930862,46.139955]]]}},{"type":"Feature","properties":{"id":50,"area_m2":300,"px":3,"rank":96,"persistent":false},"geometry":{"type":"Polygon","coordinates":[[[-122.933841,46.138607],[-122.933841,46.138787],[-122.933712,46.138787],[-122.933709,46.138645],[-122.933664,46.138611],[-122.933583,46.138607],[-122.933583,46.138517],[-122.933712,46.138517],[-122.933735,46.138591],[-122.933841,46.138607]]]}},{"type":"Feature","properties":{"id":52,"area_m2":300,"px":3,"rank":97,"persistent":false},"geometry":{"type":"Polygon","coordinates":[[[-122.933971,46.138247],[-122.933971,46.138427],[-122.933712,46.138427],[-122.933712,46.138337],[-122.933819,46.138321],[-122.933842,46.138247],[-122.933971,46.138247]]]}},{"type":"Feature","properties":{"id":54,"area_m2":300,"px":3,"rank":98,"persistent":false},"geometry":{"type":"Polygon","coordinates":[[[-122.940057,46.137891],[-122.940057,46.13798],[-122.939798,46.13798],[-122.939798,46.1378],[-122.939927,46.1378],[-122.93995,46.137875],[-122.940057,46.137891]]]}},{"type":"Feature","properties":{"id":56,"area_m2":300,"px":3,"rank":99,"persistent":false},"geometry":{"type":"Polygon","coordinates":[[[-122.936432,46.137799],[-122.936432,46.137888],[-122.936302,46.137888],[-122.936241,46.137864],[-122.936173,46.137888],[-122.936043,46.137888],[-122.936043,46.137798],[-122.93615,46.137783],[-122.936173,46.137708],[-122.936302,46.137708],[-122.936325,46.137783],[-122.936432,46.137799]]]}},{"type":"Feature","properties":{"id":57,"area_m2":300,"px":3,"rank":100,"persistent":false},"geometry":{"type":"Polygon","coordinates":[[[-122.93449,46.137797],[-122.93449,46.137887],[-122.934362,46.137887],[-122.934338,46.137813],[-122.934231,46.137797],[-122.934231,46.137617],[-122.93436,46.137617],[-122.93437,46.137769],[-122.934415,46.137795],[-122.93449,46.137797]]]}},{"type":"Feature","properties":{"id":66,"area_m2":300,"px":3,"rank":101,"persistent":false},"geometry":{"type":"Polygon","coordinates":[[[-122.928794,46.137164],[-122.928794,46.137344],[-122.928535,46.137344],[-122.928535,46.137254],[-122.928642,46.137238],[-122.928665,46.137164],[-122.928794,46.137164]]]}},{"type":"Feature","properties":{"id":65,"area_m2":300,"px":3,"rank":102,"persistent":false},"geometry":{"type":"Polygon","coordinates":[[[-122.938245,46.13717],[-122.938245,46.137259],[-122.938041,46.137262],[-122.937992,46.137293],[-122.937986,46.137349],[-122.937857,46.137349],[-122.937857,46.137259],[-122.937963,46.137244],[-122.937986,46.137169],[-122.938245,46.13717]]]}},{"type":"Feature","properties":{"id":70,"area_m2":300,"px":3,"rank":103,"persistent":false},"geometry":{"type":"Polygon","coordinates":[[[-122.934879,46.136898],[-122.934879,46.136988],[-122.934491,46.136987],[-122.934491,46.136897],[-122.934879,46.136898]]]}},{"type":"Feature","properties":{"id":73,"area_m2":300,"px":3,"rank":104,"persistent":false},"geometry":{"type":"Polygon","coordinates":[[[-122.941353,46.136721],[-122.941352,46.136811],[-122.941094,46.136811],[-122.941094,46.136631],[-122.941223,46.136631],[-122.941246,46.136705],[-122.941353,46.136721]]]}},{"type":"Feature","properties":{"id":78,"area_m2":300,"px":3,"rank":105,"persistent":false},"geometry":{"type":"Polygon","coordinates":[[[-122.931514,46.136536],[-122.931513,46.136626],[-122.931125,46.136625],[-122.931125,46.136535],[-122.931514,46.136536]]]}},{"type":"Feature","properties":{"id":76,"area_m2":300,"px":3,"rank":106,"persistent":false},"geometry":{"type":"Polygon","coordinates":[[[-122.936433,46.136539],[-122.936433,46.136628],[-122.936304,46.136628],[-122.9363,46.136577],[-122.936263,46.136545],[-122.936045,46.136538],[-122.936045,46.136448],[-122.936304,46.136448],[-122.936327,46.136523],[-122.936433,46.136539]]]}},{"type":"Feature","properties":{"id":86,"area_m2":300,"px":3,"rank":107,"persistent":false},"geometry":{"type":"Polygon","coordinates":[[[-122.935658,46.135368],[-122.935658,46.135458],[-122.935551,46.135474],[-122.935528,46.135548],[-122.935399,46.135548],[-122.935399,46.135368],[-122.935658,46.135368]]]}},{"type":"Feature","properties":{"id":88,"area_m2":300,"px":3,"rank":108,"persistent":false},"geometry":{"type":"Polygon","coordinates":[[[-122.9376,46.135189],[-122.9376,46.135369],[-122.93747,46.135369],[-122.937448,46.135295],[-122.937341,46.135279],[-122.937341,46.135189],[-122.9376,46.135189]]]}},{"type":"Feature","properties":{"id":95,"area_m2":300,"px":3,"rank":109,"persistent":false},"geometry":{"type":"Polygon","coordinates":[[[-122.932293,46.134466],[-122.932293,46.134556],[-122.931905,46.134556],[-122.931905,46.134466],[-122.932293,46.134466]]]}},{"type":"Feature","properties":{"id":96,"area_m2":300,"px":3,"rank":110,"persistent":false},"geometry":{"type":"Polygon","coordinates":[[[-122.934494,46.134107],[-122.934494,46.134287],[-122.934365,46.134287],[-122.934342,46.134213],[-122.934235,46.134197],[-122.934235,46.134107],[-122.934494,46.134107]]]}},{"type":"Feature","properties":{"id":103,"area_m2":300,"px":3,"rank":111,"persistent":false},"geometry":{"type":"Polygon","coordinates":[[[-122.932812,46.133206],[-122.932812,46.133296],[-122.932683,46.133296],[-122.932679,46.133245],[-122.932642,46.133213],[-122.932424,46.133206],[-122.932424,46.133116],[-122.932683,46.133116],[-122.932706,46.13319],[-122.932812,46.133206]]]}},{"type":"Feature","properties":{"id":102,"area_m2":300,"px":3,"rank":112,"persistent":false},"geometry":{"type":"Polygon","coordinates":[[[-122.937991,46.133029],[-122.93799,46.133299],[-122.937861,46.133299],[-122.937861,46.133029],[-122.937991,46.133029]]]}},{"type":"Feature","properties":{"id":104,"area_m2":300,"px":3,"rank":113,"persistent":false},"geometry":{"type":"Polygon","coordinates":[[[-122.941098,46.132761],[-122.941098,46.132851],[-122.941016,46.132855],[-122.940972,46.132889],[-122.940968,46.133031],[-122.940839,46.133031],[-122.940839,46.132851],[-122.940946,46.132835],[-122.940969,46.132761],[-122.941098,46.132761]]]}},{"type":"Feature","properties":{"id":114,"area_m2":300,"px":3,"rank":114,"persistent":false},"geometry":{"type":"Polygon","coordinates":[[[-122.931908,46.131856],[-122.931907,46.132126],[-122.931778,46.132126],[-122.931778,46.131856],[-122.931908,46.131856]]]}}]}