{"type":"FeatureCollection","features":[{"type":"Feature","properties":{"id":6,"area_m2":300800,"px":3008,"rank":1,"persistent":false},"geometry":{"type":"Polygon","coordinates":[[[-122.940575,46.137171],[-122.940575,46.137261],[-122.940091,46.137256],[-122.940058,46.137295],[-122.940057,46.13744],[-122.939539,46.13744],[-122.939534,46.137384],[-122.939484,46.137352],[-122.939281,46.13735],[-122.93922,46.137326],[-122.939151,46.13735],[-122.939022,46.13735],[-122.939016,46.137293],[-122.938974,46.137264],[-122.938681,46.137264],[-122.938639,46.137293],[-122.938633,46.13735],[-122.938538,46.137359],[-122.938504,46.137404],[-122.938521,46.13751],[-122.938633,46.13753],[-122.938667,46.137611],[-122.938762,46.13762],[-122.938762,46.13771],[-122.938674,46.137716],[-122.938634,46.137753],[-122.938632,46.13798],[-122.938503,46.13798],[-122.9385,46.137914],[-122.938464,46.137883],[-122.938244,46.137889],[-122.938241,46.137824],[-122.938205,46.137793],[-122.937985,46.137799],[-122.937957,46.137722],[-122.937772,46.137687],[-122.93761,46.137733],[-122.937562,46.137842],[-122.937597,46.137889],[-122.937597,46.137979],[-122.937488,46.137986],[-122.937448,46.13804],[-122.937521,46.138093],[-122.937608,46.138058],[-122.937726,46.138069],[-122.937729,46.138211],[-122.937774,46.138245],[-122.937855,46.138249],[-122.937855,46.138339],[-122.937467,46.138339],[-122.937461,46.138282],[-122.937419,46.138253],[-122.937079,46.138249],[-122.937044,46.138168],[-122.936897,46.138159],[-122.936823,46.138197],[-122.936819,46.138339],[-122.936738,46.138343],[-122.936696,46.138372],[-122.936693,46.13857],[-122.936738,46.138605],[-122.936819,46.138609],[-122.936819,46.138699],[-122.936707,46.138718],[-122.936689,46.138879],[-122.936608,46.138883],[-122.936566,46.138912],[-122.936561,46.139105],[-122.936601,46.139142],[-122.936689,46.139149],[-122.936698,46.13921],[-122.936752,46.139238],[-122.937022,46.139237],[-122.937072,46.139206],[-122.937078,46.139149],[-122.937205,46.139149],[-122.93723,46.139223],[-122.937336,46.139239],[-122.937336,46.139329],[-122.937255,46.139333],[-122.93721,46.139367],[-122.937207,46.139509],[-122.937125,46.139513],[-122.937083,46.139542],[-122.937077,46.139689],[-122.936995,46.139693],[-122.936951,46.139727],[-122.936947,46.139995],[-122.936982,46.14004],[-122.937076,46.140049],[-122.93708,46.140101],[-122.937118,46.140133],[-122.937335,46.140139],[-122.937335,46.140228],[-122.937131,46.140231],[-122.937082,46.140262],[-122.937076,46.140319],[-122.93684,46.140335],[-122.936817,46.140409],[-122.936736,46.140413],[-122.936691,46.140447],[-122.936653,46.140541],[-122.936691,46.14064],[-122.936735,46.140675],[-122.936817,46.140679],[-122.93682,46.14082],[-122.936887,46.140859],[-122.937013,46.140858],[-122.937063,46.140835],[-122.937076,46.140679],[-122.937205,46.140679],[-122.937214,46.14074],[-122.937275,46.140769],[-122.937464,46.140769],[-122.937525,46.140793],[-122.937594,46.140769],[-122.937982,46.140769],[-122.937982,46.140859],[-122.937887,46.140868],[-122.937852,46.140913],[-122.937865,46.141015],[-122.937982,46.141039],[-122.937981,46.141309],[-122.937593,46.141309],[-122.937565,46.141231],[-122.937403,46.141195],[-122.937233,46.141231],[-122.937205,46.141309],[-122.937075,46.141309],[-122.937072,46.141257],[-122.937034,46.141225],[-122.936816,46.141219],[-122.936811,46.140982],[-122.936769,46.140953],[-122.936687,46.140949],[-122.936653,46.140868],[-122.936558,46.140859],[-122.93654,46.140698],[-122.936429,46.140678],[-122.936423,46.140622],[-122.936373,46.140591],[-122.93623,46.140564],[-122.936088,46.140592],[-122.936046,46.140622],[-122.93604,46.140678],[-122.935959,46.140682],[-122.935916,46.140712],[-122.93591,46.140858],[-122.935829,46.140862],[-122.935787,46.140892],[-122.93578,46.141308],[-122.935685,46.141317],[-122.935651,46.141398],[-122.935576,46.1414],[-122.93553,46.141427],[-122.935521,46.141668],[-122.935392,46.141668],[-122.935391,46.141433],[-122.935359,46.141394],[-122.935071,46.141384],[-122.935007,46.141423],[-122.935003,46.141578],[-122.934968,46.14162],[-122.935003,46.141668],[-122.934984,46.141835],[-122.935087,46.14187],[-122.935239,46.141832],[-122.935262,46.141758],[-122.935391,46.141758],[-122.935391,46.141938],[-122.935303,46.141944],[-122.935262,46.141987],[-122.935261,46.142388],[-122.935187,46.14239],[-122.935141,46.142416],[-122.935131,46.142568],[-122.935002,46.142568],[-122.934996,46.142421],[-122.934954,46.142392],[-122.934873,46.142388],[-122.934844,46.14231],[-122.934648,46.142307],[-122.934614,46.142346],[-122.934614,46.142477],[-122.934507,46.142493],[-122.934484,46.142567],[-122.934293,46.142554],[-122.934228,46.142592],[-122.934228,46.142799],[-122.934273,46.142833],[-122.934354,46.142837],[-122.934354,46.142927],[-122.934095,46.142927],[-122.934092,46.142876],[-122.934054,46.142844],[-122.933837,46.142837],[-122.933831,46.142767],[-122.933769,46.142734],[-122.933252,46.142748],[-122.933198,46.142775],[-122.933189,46.142837],[-122.93306,46.142837],[-122.933079,46.142702],[-122.93301,46.142657],[-122.932849,46.142661],[-122.932807,46.14269],[-122.932801,46.142746],[-122.932597,46.142749],[-122.932548,46.14278],[-122.932542,46.142836],[-122.932412,46.142836],[-122.932412,46.142746],[-122.932494,46.142742],[-122.932538,46.142708],[-122.932542,46.142566],[-122.932738,46.142565],[-122.932795,46.142533],[-122.932801,46.142345],[-122.932746,46.142299],[-122.932577,46.142305],[-122.932542,46.142386],[-122.932209,46.142388],[-122.93216,46.142419],[-122.932154,46.142476],[-122.931965,46.142476],[-122.931912,46.142496],[-122.931904,46.142627],[-122.93195,46.142654],[-122.932024,46.142656],[-122.932058,46.142737],[-122.932153,46.142746],[-122.932182,46.142824],[-122.932298,46.142844],[-122.932282,46.142926],[-122.932153,46.142926],[-122.932092,46.142902],[-122.932024,46.142926],[-122.931825,46.142913],[-122.93177,46.142946],[-122.931763,46.143016],[-122.931635,46.143016],[-122.931629,46.142959],[-122.93158,46.142928],[-122.931397,46.142932],[-122.931356,46.142976],[-122.931381,46.143266],[-122.931443,46.143299],[-122.931702,46.143285],[-122.931755,46.143257],[-122.931764,46.143196],[-122.932023,46.143196],[-122.932027,46.143248],[-122.932064,46.14328],[-122.932282,46.143286],[-122.932305,46.14336],[-122.932411,46.143376],[-122.932411,46.143466],[-122.931712,46.143466],[-122.931652,46.143486],[-122.9316,46.143598],[-122.931634,46.143646],[-122.931634,46.143736],[-122.931533,46.143748],[-122.931504,46.143826],[-122.931416,46.143832],[-122.931377,46.143869],[-122.931388,46.143982],[-122.931504,46.144006],[-122.931504,46.144184],[-122.93143,46.144188],[-122.931384,46.144214],[-122.931374,46.144366],[-122.931116,46.144365],[-122.931115,46.144234],[-122.931087,46.144198],[-122.930727,46.144185],[-122.930714,46.144119],[-122.93065,46.144095],[-122.930367,46.144107],[-122.930339,46.144144],[-122.930339,46.144275],[-122.930232,46.144291],[-122.930209,46.144365],[-122.929821,46.144365],[-122.929821,46.144275],[-122.929928,46.144259],[-122.92995,46.144185],[-122.930142,46.144198],[-122.930208,46.144155],[-122.930217,46.14403],[-122.930175,46.144007],[-122.93008,46.144004],[-122.93008,46.143915],[-122.930175,46.143913],[-122.930224,46.14388],[-122.930206,46.143773],[-122.930169,46.143741],[-122.930027,46.143711],[-122.929951,46.143735],[-122.929767,46.143721],[-122.929709,46.143741],[-122.929692,46.143915],[-122.929575,46.143939],[-122.929562,46.144094],[-122.929455,46.14411],[-122.929432,46.144184],[-122.929303,46.144184],[-122.929286,46.144024],[-122.929174,46.144004],[-122.929139,46.143923],[-122.928997,46.1439],[-122.928924,46.143929],[-122.928915,46.144004],[-122.928684,46.144016],[-122.928656,46.144094],[-122.928539,46.144118],[-122.928526,46.144184],[-122.928267,46.144184],[-122.928264,46.144132],[-122.928226,46.1441],[-122.928008,46.144094],[-122.928009,46.143824],[-122.928043,46.143781],[-122.928009,46.143734],[-122.928009,46.143644],[-122.92822,46.14364],[-122.928262,46.14361],[-122.928268,46.143554],[-122.928466,46.143566],[-122.928527,46.143514],[-122.928509,46.143394],[-122.928398,46.143374],[-122.928363,46.143293],[-122.928268,46.143284],[-122.928251,46.143123],[-122.928198,46.143104],[-122.92801,46.143104],[-122.92801,46.142744],[-122.92848,46.14274],[-122.928522,46.142711],[-122.928528,46.142654],[-122.928644,46.14263],[-122.928658,46.142564],[-122.928769,46.142544],[-122.928787,46.142474],[-122.928899,46.142454],[-122.928917,46.142384],[-122.929283,46.142369],[-122.929305,46.142294],[-122.92938,46.142292],[-122.929426,46.142266],[-122.929435,46.142163],[-122.929394,46.142121],[-122.929306,46.142114],[-122.929288,46.141954],[-122.929176,46.141934],[-122.929177,46.141754],[-122.929435,46.141755],[-122.929504,46.141779],[-122.92966,46.141745],[-122.929694,46.141706],[-122.929695,46.141575],[-122.929801,46.141559],[-122.929824,46.141485],[-122.92997,46.141492],[-122.929957,46.141716],[-122.930001,46.141751],[-122.930083,46.141755],[-122.930086,46.141807],[-122.930124,46.141839],[-122.930294,46.141841],[-122.930336,46.141812],[-122.930342,46.141755],[-122.930458,46.141731],[-122.930472,46.141539],[-122.930449,46.141501],[-122.930281,46.141461],[-122.930213,46.141485],[-122.930067,46.141477],[-122.930083,46.141395],[-122.930165,46.141391],[-122.930207,46.141362],[-122.930213,46.141215],[-122.930315,46.141211],[-122.93036,46.141175],[-122.930343,46.140855],[-122.930661,46.140855],[-122.930728,46.140817],[-122.930719,46.140699],[-122.930602,46.140675],[-122.930602,46.140585],[-122.930711,46.140579],[-122.930752,46.140529],[-122.930714,46.140425],[-122.930603,46.140405],[-122.930603,46.140136],[-122.930691,46.140129],[-122.930731,46.140092],[-122.930733,46.139775],[-122.931121,46.139776],[-122.931149,46.139853],[-122.931305,46.139879],[-122.931371,46.13985],[-122.93138,46.139776],[-122.93151,46.139776],[-122.931515,46.140012],[-122.931557,46.140042],[-122.931686,46.14006],[-122.931765,46.140021],[-122.931769,46.139866],[-122.93185,46.139862],[-122.931892,46.139833],[-122.931898,46.139596],[-122.931933,46.139548],[-122.931889,46.139444],[-122.931843,46.139418],[-122.931769,46.139416],[-122.931763,46.139359],[-122.931721,46.13933],[-122.93151,46.139326],[-122.93151,46.139236],[-122.931769,46.139236],[-122.931845,46.139259],[-122.931933,46.139199],[-122.931881,46.139076],[-122.93177,46.139056],[-122.931757,46.1389],[-122.93164,46.138876],[-122.931641,46.138606],[-122.931747,46.13859],[-122.931772,46.138516],[-122.931899,46.138516],[-122.931922,46.13859],[-122.932075,46.138629],[-122.932253,46.138597],[-122.932288,46.138557],[-122.932288,46.138336],[-122.932547,46.138336],[-122.932548,46.138473],[-122.932602,46.138514],[-122.933065,46.138517],[-122.933064,46.138787],[-122.93297,46.138796],[-122.932935,46.138841],[-122.932948,46.138943],[-122.933064,46.138967],[-122.933064,46.139147],[-122.932969,46.139156],[-122.932934,46.139236],[-122.932828,46.139252],[-122.932794,46.139337],[-122.932546,46.139326],[-122.932546,46.138966],[-122.932621,46.138964],[-122.932667,46.138938],[-122.932658,46.138806],[-122.932463,46.138777],[-122.93242,46.138811],[-122.932417,46.138876],[-122.932335,46.13888],[-122.932293,46.138909],[-122.932287,46.139236],[-122.932252,46.139279],[-122.932287,46.139326],[-122.932287,46.139506],[-122.932175,46.139526],[-122.932122,46.139644],[-122.93217,46.139752],[-122.932286,46.139776],[-122.932321,46.139857],[-122.93249,46.139864],[-122.932539,46.139833],[-122.932545,46.139776],[-122.932673,46.139776],[-122.932698,46.139851],[-122.93285,46.139889],[-122.932934,46.139867],[-122.933153,46.139874],[-122.933192,46.139832],[-122.933204,46.139626],[-122.933158,46.139599],[-122.933064,46.139597],[-122.933058,46.13954],[-122.933016,46.139511],[-122.932805,46.139506],[-122.932805,46.139416],[-122.933064,46.139417],[-122.933132,46.139441],[-122.933193,46.139417],[-122.933392,46.139429],[-122.933449,46.139392],[-122.933452,46.139237],[-122.933487,46.139194],[-122.933453,46.139147],[-122.933453,46.138967],[-122.933534,46.138963],[-122.933579,46.138929],[-122.933583,46.138697],[-122.933664,46.138693],[-122.933706,46.138664],[-122.933709,46.138465],[-122.93365,46.138428],[-122.933453,46.138427],[-122.933448,46.138357],[-122.9334,46.138326],[-122.933065,46.138335],[-122.933065,46.138247],[-122.933167,46.138242],[-122.933213,46.138202],[-122.933195,46.137887],[-122.933283,46.13788],[-122.933324,46.137838],[-122.933323,46.13775],[-122.93329,46.137716],[-122.933066,46.137705],[-122.933066,46.137617],[-122.933154,46.13761],[-122.933194,46.137573],[-122.933196,46.137257],[-122.933284,46.13725],[-122.933324,46.137213],[-122.933313,46.136921],[-122.933256,46.136897],[-122.933,46.136898],[-122.932946,46.136925],[-122.932937,46.136986],[-122.932808,46.136986],[-122.932828,46.136857],[-122.932794,46.136816],[-122.932461,46.136813],[-122.932421,46.13685],[-122.932421,46.136943],[-122.93246,46.13698],[-122.932549,46.136986],[-122.932562,46.137232],[-122.932739,46.13728],[-122.932807,46.137256],[-122.932937,46.137257],[-122.932937,46.137346],[-122.93283,46.137362],[-122.932805,46.137436],[-122.932678,46.137436],[-122.932669,46.137375],[-122.932608,46.137347],[-122.932337,46.13735],[-122.932295,46.137379],[-122.932287,46.137436],[-122.93216,46.137436],[-122.932154,46.137379],[-122.932105,46.137348],[-122.931834,46.137347],[-122.931781,46.137374],[-122.931771,46.137436],[-122.93166,46.137455],[-122.931642,46.137526],[-122.931512,46.137526],[-122.931513,46.137436],[-122.931614,46.137423],[-122.931642,46.137346],[-122.931737,46.137337],[-122.931772,46.137256],[-122.931846,46.137254],[-122.931892,46.137227],[-122.931936,46.137123],[-122.931901,46.137076],[-122.931902,46.136986],[-122.932132,46.136974],[-122.93216,46.136937],[-122.932161,46.136806],[-122.932263,46.136802],[-122.932309,46.136761],[-122.932284,46.136659],[-122.93222,46.136626],[-122.931957,46.136628],[-122.931908,46.136659],[-122.931902,46.136716],[-122.931772,46.136716],[-122.931773,46.136446],[-122.932161,46.136446],[-122.932195,46.136527],[-122.932357,46.136535],[-122.932418,46.136493],[-122.93242,46.136356],[-122.932502,46.136352],[-122.932546,46.136318],[-122.932548,46.13622],[-122.932509,46.136183],[-122.932161,46.136176],[-122.932162,46.135996],[-122.932196,46.135954],[-122.932162,46.135906],[-122.932162,46.135546],[-122.932236,46.135544],[-122.932282,46.135518],[-122.932292,46.135366],[-122.932373,46.135362],[-122.932418,46.135328],[-122.932422,46.135186],[-122.932551,46.135186],[-122.93256,46.135248],[-122.932613,46.135275],[-122.932991,46.135277],[-122.933065,46.135238],[-122.933069,46.135097],[-122.933328,46.135097],[-122.933333,46.135167],[-122.933388,46.135199],[-122.933668,46.135183],[-122.933715,46.135143],[-122.933715,46.13505],[-122.933675,46.135013],[-122.933587,46.135007],[-122.933587,46.134917],[-122.933688,46.134905],[-122.933717,46.134827],[-122.933805,46.134821],[-122.933845,46.134784],[-122.933846,46.134557],[-122.93388,46.134504],[-122.933837,46.134406],[-122.933784,46.134378],[-122.933588,46.134377],[-122.933519,46.134353],[-122.933338,46.134405],[-122.93333,46.134693],[-122.933369,46.13473],[-122.933458,46.134737],[-122.933458,46.134827],[-122.933328,46.134827],[-122.933315,46.134761],[-122.933251,46.134737],[-122.933104,46.134746],[-122.933069,46.134826],[-122.93281,46.134826],[-122.93283,46.134702],[-122.932809,46.134663],[-122.932552,46.134646],[-122.932552,46.134556],[-122.932658,46.13454],[-122.932681,46.134466],[-122.933121,46.134467],[-122.933176,46.134451],[-122.933199,46.134377],[-122.933281,46.134373],[-122.933325,46.134338],[-122.933329,46.134107],[-122.93343,46.134094],[-122.933459,46.134017],[-122.933554,46.134008],[-122.933588,46.133963],[-122.933589,46.133607],[-122.933567,46.133569],[-122.933513,46.133553],[-122.933119,46.133571],[-122.933072,46.13361],[-122.93307,46.133746],[-122.932941,46.133746],[-122.932953,46.133506],[-122.932907,46.133479],[-122.932812,46.133476],[-122.932789,46.133402],[-122.932683,46.133386],[-122.932648,46.133305],[-122.932553,46.133296],[-122.932553,46.133206],[-122.932683,46.133206],[-122.932696,46.133272],[-122.932812,46.133296],[-122.932815,46.133348],[-122.932853,46.13338],[-122.933036,46.133377],[-122.933071,46.133338],[-122.933071,46.133207],[-122.933153,46.133202],[-122.933197,46.133168],[-122.933201,46.133027],[-122.933308,46.133011],[-122.933331,46.132937],[-122.933425,46.132928],[-122.93346,46.132847],[-122.933572,46.132827],[-122.93359,46.132757],[-122.933719,46.132757],[-122.933725,46.132814],[-122.933767,46.132843],[-122.933915,46.132846],[-122.933976,46.132804],[-122.933978,46.132577],[-122.934108,46.132577],[-122.934113,46.132634],[-122.934163,46.132665],[-122.934344,46.132651],[-122.934366,46.132613],[-122.934367,46.132307],[-122.934496,46.132307],[-122.934519,46.132382],[-122.934626,46.132397],[-122.934631,46.132724],[-122.934673,46.132753],[-122.934755,46.132758],[-122.934754,46.132847],[-122.934666,46.132854],[-122.934627,46.132891],[-122.934625,46.133117],[-122.934516,46.133124],[-122.934476,46.133168],[-122.934513,46.133368],[-122.934565,46.133387],[-122.934754,46.133388],[-122.934754,46.133477],[-122.934672,46.133482],[-122.93463,46.133511],[-122.934616,46.133632],[-122.934666,46.133656],[-122.934828,46.133655],[-122.934877,46.133624],[-122.934883,46.133568],[-122.935399,46.133568],[-122.935435,46.133649],[-122.935605,46.133656],[-122.935659,46.133609],[-122.93566,46.133388],[-122.935762,46.133384],[-122.935807,46.133348],[-122.935781,46.133223],[-122.935715,46.133194],[-122.93532,46.133212],[-122.935273,46.133251],[-122.935272,46.133388],[-122.935142,46.133388],[-122.935143,46.133208],[-122.935249,46.133192],[-122.935283,46.133107],[-122.935523,46.133105],[-122.935551,46.133068],[-122.93553,46.132981],[-122.935476,46.13294],[-122.935342,46.132938],[-122.935281,46.132966],[-122.935261,46.133039],[-122.935013,46.133028],[-122.935014,46.132848],[-122.935047,46.132795],[-122.934996,46.132687],[-122.934884,46.132667],[-122.934884,46.132578],[-122.935143,46.132578],[-122.935161,46.132648],[-122.935273,46.132668],[-122.935307,46.132749],[-122.935402,46.132758],[-122.93543,46.132836],[-122.935583,46.132848],[-122.935648,46.132824],[-122.935661,46.132758],[-122.935891,46.132746],[-122.93592,46.132668],[-122.93615,46.132656],[-122.936179,46.132537],[-122.936124,46.132491],[-122.93592,46.132488],[-122.935914,46.132341],[-122.935872,46.132312],[-122.935791,46.132308],[-122.935788,46.132256],[-122.93575,46.132224],[-122.935273,46.132218],[-122.935274,46.131948],[-122.935308,46.131905],[-122.935274,46.131858],[-122.935274,46.131768],[-122.935403,46.131768],[-122.935416,46.131834],[-122.935532,46.131858],[-122.935538,46.131928],[-122.935585,46.131959],[-122.935757,46.131939],[-122.935793,46.131858],[-122.935921,46.131858],[-122.935943,46.131932],[-122.93605,46.131948],[-122.936053,46.13218],[-122.936098,46.132214],[-122.936179,46.132218],[-122.936182,46.13245],[-122.936227,46.132484],[-122.936308,46.132488],[-122.936311,46.132644],[-122.936383,46.132682],[-122.936526,46.132662],[-122.936567,46.132615],[-122.936586,46.132264],[-122.93654,46.132223],[-122.936438,46.132218],[-122.936439,46.132038],[-122.936473,46.131996],[-122.936439,46.131948],[-122.936439,46.131858],[-122.936644,46.13187],[-122.936692,46.131839],[-122.936698,46.131769],[-122.936827,46.131769],[-122.936827,46.1319],[-122.936855,46.131936],[-122.937148,46.131962],[-122.937214,46.131919],[-122.937216,46.131769],[-122.937992,46.131769],[-122.937992,46.131949],[-122.937863,46.131949],[-122.937857,46.131893],[-122.937815,46.131863],[-122.937652,46.131863],[-122.93761,46.131892],[-122.937604,46.131949],[-122.937487,46.131973],[-122.937474,46.132039],[-122.937362,46.132059],[-122.937334,46.13214],[-122.937134,46.132133],[-122.937091,46.132162],[-122.937085,46.132219],[-122.936969,46.132243],[-122.936956,46.132579],[-122.936839,46.132603],[-122.936826,46.13271],[-122.936867,46.132752],[-122.937016,46.132783],[-122.937166,46.132755],[-122.937208,46.132726],[-122.937215,46.132489],[-122.937296,46.132485],[-122.937341,46.132451],[-122.937355,46.132208],[-122.93755,46.13223],[-122.937598,46.132199],[-122.937603,46.132129],[-122.937733,46.132129],[-122.937738,46.132366],[-122.93778,46.132395],[-122.937878,46.132407],[-122.937874,46.132479],[-122.937959,46.132501],[-122.938025,46.132452],[-122.937976,46.132392],[-122.937992,46.132309],[-122.93831,46.132309],[-122.938371,46.132281],[-122.938381,46.13186],[-122.938487,46.131844],[-122.93851,46.13177],[-122.938769,46.13177],[-122.93883,46.131794],[-122.9389,46.13177],[-122.939675,46.13177],[-122.939675,46.13186],[-122.93964,46.131903],[-122.939675,46.13195],[-122.939674,46.13222],[-122.93945,46.132229],[-122.939396,46.132339],[-122.939436,46.132393],[-122.939545,46.1324],[-122.939545,46.13258],[-122.939334,46.132584],[-122.939292,46.132613],[-122.939286,46.13267],[-122.939169,46.132694],[-122.939156,46.13294],[-122.939061,46.132949],[-122.939026,46.13303],[-122.938952,46.133032],[-122.938906,46.133058],[-122.938897,46.1333],[-122.938808,46.133306],[-122.938769,46.133343],[-122.938767,46.13357],[-122.938678,46.133576],[-122.938639,46.133613],[-122.93865,46.133726],[-122.938767,46.133751],[-122.938766,46.13384],[-122.938678,46.133846],[-122.938639,46.133883],[-122.938637,46.13411],[-122.938602,46.134157],[-122.938643,46.134256],[-122.938707,46.134289],[-122.939025,46.13429],[-122.939025,46.13438],[-122.938936,46.134386],[-122.938896,46.134429],[-122.938895,46.13474],[-122.93886,46.134782],[-122.938895,46.13483],[-122.938895,46.13501],[-122.938793,46.135014],[-122.938748,46.135049],[-122.938765,46.13528],[-122.938677,46.135286],[-122.938637,46.135323],[-122.938635,46.13564],[-122.938528,46.135655],[-122.938504,46.13573],[-122.938376,46.135729],[-122.93837,46.135673],[-122.938321,46.135642],[-122.938152,46.135649],[-122.938117,46.135729],[-122.938036,46.135733],[-122.937994,46.135763],[-122.937988,46.135951],[-122.938057,46.135999],[-122.938505,46.136],[-122.93854,46.136081],[-122.938764,46.13609],[-122.938787,46.136164],[-122.938893,46.13618],[-122.938893,46.13636],[-122.938798,46.136369],[-122.938764,46.13645],[-122.938652,46.136469],[-122.938634,46.13663],[-122.938546,46.136636],[-122.938506,46.136673],[-122.938506,46.137036],[-122.938545,46.137073],[-122.938633,46.13708],[-122.938668,46.137161],[-122.939281,46.13717],[-122.93929,46.137232],[-122.939351,46.13726],[-122.939669,46.13726],[-122.939738,46.137284],[-122.93988,46.137256],[-122.939927,46.137217],[-122.939919,46.137109],[-122.939866,46.137081],[-122.939669,46.13708],[-122.939669,46.13699],[-122.939744,46.136988],[-122.93979,46.136962],[-122.939799,46.13681],[-122.939927,46.13681],[-122.939929,46.137032],[-122.939957,46.137068],[-122.940187,46.137081],[-122.940196,46.137142],[-122.94025,46.13717],[-122.940575,46.137171]],[[-122.930614,46.142801],[-122.930614,46.1426],[-122.930557,46.142566],[-122.930341,46.142565],[-122.930272,46.142541],[-122.930116,46.142574],[-122.930082,46.142655],[-122.93,46.142659],[-122.929956,46.142693],[-122.929952,46.142925],[-122.929564,46.142924],[-122.929495,46.1429],[-122.929322,46.142944],[-122.929293,46.143205],[-122.929175,46.143194],[-122.929146,46.143117],[-122.928999,46.14309],[-122.928925,46.143119],[-122.928916,46.143194],[-122.928771,46.143186],[-122.928814,46.142856],[-122.928726,46.14281],[-122.928562,46.142843],[-122.928528,46.142883],[-122.928529,46.14315],[-122.928568,46.143188],[-122.928673,46.143202],[-122.928663,46.143341],[-122.928705,46.14337],[-122.928786,46.143374],[-122.928778,46.143529],[-122.928836,46.143554],[-122.929004,46.143548],[-122.929043,46.143511],[-122.929045,46.143374],[-122.929263,46.143368],[-122.929315,46.143273],[-122.929651,46.143278],[-122.929689,46.143246],[-122.929693,46.143195],[-122.929809,46.143171],[-122.929822,46.143105],[-122.930058,46.143089],[-122.930081,46.143015],[-122.930198,46.142991],[-122.930211,46.142925],[-122.930435,46.142916],[-122.93047,46.142835],[-122.930565,46.142833],[-122.930614,46.142801]],[[-122.929226,46.143824],[-122.9293,46.143786],[-122.929294,46.143673],[-122.929241,46.143645],[-122.929086,46.143651],[-122.929046,46.143688],[-122.929054,46.143796],[-122.929107,46.143823],[-122.929226,46.143824]],[[-122.930034,46.142299],[-122.929891,46.142281],[-122.92984,46.142301],[-122.929823,46.142475],[-122.929742,46.142479],[-122.929699,46.142508],[-122.929674,46.142604],[-122.929721,46.14265],[-122.929911,46.142648],[-122.929949,46.142616],[-122.929952,46.142565],[-122.930034,46.142561],[-122.930076,46.142532],[-122.930076,46.142328],[-122.930034,46.142299]],[[-122.930081,46.143645],[-122.930099,46.1436],[-122.930067,46.143564],[-122.930001,46.143555],[-122.929948,46.143575],[-122.929932,46.143616],[-122.929969,46.143658],[-122.930027,46.143668],[-122.930081,46.143645]],[[-122.930343,46.143464],[-122.930374,46.143412],[-122.930317,46.143301],[-122.930262,46.143285],[-122.930104,46.143301],[-122.930062,46.143404],[-122.930083,46.143448],[-122.930271,46.143489],[-122.930343,46.143464]],[[-122.93034,46.143825],[-122.930305,46.143862],[-122.93032,46.143902],[-122.930379,46.143928],[-122.930435,46.143919],[-122.930467,46.143885],[-122.930456,46.143836],[-122.930401,46.143812],[-122.93034,46.143825]],[[-122.931774,46.141911],[-122.931743,46.141772],[-122.931637,46.141756],[-122.931636,46.141624],[-122.931608,46.141588],[-122.931304,46.141578],[-122.931254,46.141609],[-122.931248,46.141665],[-122.931132,46.141689],[-122.931119,46.141755],[-122.930915,46.141758],[-122.930866,46.141789],[-122.93086,46.141845],[-122.930629,46.141857],[-122.9306,46.141935],[-122.930506,46.141944],[-122.930471,46.142025],[-122.930355,46.142049],[-122.930345,46.142167],[-122.930389,46.142201],[-122.930471,46.142205],[-122.930477,46.142262],[-122.930519,46.142291],[-122.930859,46.142295],[-122.930865,46.142352],[-122.930907,46.142381],[-122.931194,46.142397],[-122.931242,46.142366],[-122.931248,46.142296],[-122.931336,46.142289],[-122.931377,46.142247],[-122.931364,46.14214],[-122.931248,46.142115],[-122.931248,46.142026],[-122.931595,46.142019],[-122.931633,46.141987],[-122.931636,46.141936],[-122.931731,46.141933],[-122.931774,46.141911]],[[-122.931505,46.143416],[-122.931445,46.143363],[-122.931246,46.143376],[-122.931224,46.143301],[-122.931117,46.143285],[-122.931111,46.143139],[-122.931069,46.14311],[-122.930988,46.143105],[-122.930982,46.143049],[-122.93094,46.143019],[-122.93077,46.143022],[-122.930732,46.143054],[-122.930729,46.143105],[-122.930647,46.143109],[-122.930605,46.143139],[-122.930564,46.143238],[-122.930605,46.143342],[-122.930647,46.143371],[-122.930728,46.143375],[-122.930728,46.143465],[-122.93064,46.143472],[-122.9306,46.143509],[-122.9306,46.143602],[-122.930646,46.143641],[-122.930857,46.143645],[-122.930918,46.143669],[-122.930987,46.143645],[-122.931116,46.143646],[-122.931185,46.14367],[-122.931327,46.143642],[-122.931369,46.143612],[-122.931376,46.143556],[-122.93145,46.143553],[-122.931496,46.143527],[-122.931505,46.143416]],[[-122.930888,46.141481],[-122.931051,46.141499],[-122.931107,46.141475],[-122.931118,46.141349],[-122.931071,46.14131],[-122.930921,46.141293],[-122.930866,46.141325],[-122.930843,46.141446],[-122.930888,46.141481]],[[-122.931042,46.141035],[-122.931116,46.140997],[-122.931111,46.140884],[-122.931057,46.140856],[-122.930902,46.140862],[-122.930862,46.140899],[-122.93087,46.141007],[-122.930923,46.141034],[-122.931042,46.141035]],[[-122.931431,46.140496],[-122.931503,46.140462],[-122.931507,46.140359],[-122.931468,46.140322],[-122.93138,46.140316],[-122.931376,46.140264],[-122.931338,46.140232],[-122.931162,46.140232],[-122.931124,46.140264],[-122.93112,46.140315],[-122.931046,46.140318],[-122.931,46.140344],[-122.930992,46.140452],[-122.931032,46.140489],[-122.931431,46.140496]],[[-122.931895,46.142066],[-122.931835,46.142013],[-122.931671,46.142035],[-122.931637,46.142075],[-122.931649,46.142182],[-122.931805,46.142219],[-122.931862,46.14221],[-122.931894,46.142176],[-122.931895,46.142066]],[[-122.932155,46.141486],[-122.932142,46.14133],[-122.932093,46.141307],[-122.931966,46.141306],[-122.931905,46.141334],[-122.931896,46.141396],[-122.93166,46.141412],[-122.931637,46.141527],[-122.931678,46.141569],[-122.931766,46.141576],[-122.931767,46.141707],[-122.931801,46.141747],[-122.932084,46.141756],[-122.932145,46.141728],[-122.932155,46.141666],[-122.932243,46.14166],[-122.932283,46.141623],[-122.932271,46.14151],[-122.932155,46.141486]],[[-122.93448,46.141274],[-122.934506,46.141178],[-122.934478,46.14114],[-122.934303,46.141104],[-122.934227,46.141127],[-122.933979,46.141138],[-122.933907,46.141103],[-122.933827,46.141138],[-122.933709,46.141127],[-122.933691,46.141057],[-122.93358,46.141037],[-122.933562,46.140967],[-122.93345,46.140947],[-122.933441,46.140885],[-122.933388,46.140858],[-122.933239,46.140861],[-122.933197,46.14089],[-122.933191,46.140947],[-122.932987,46.140949],[-122.932938,46.14098],[-122.932932,46.141036],[-122.932805,46.141036],[-122.932802,46.140886],[-122.932757,46.140847],[-122.932285,46.140856],[-122.932263,46.140692],[-122.932026,46.140676],[-122.932027,46.140406],[-122.932143,46.140382],[-122.932156,46.14028],[-122.932122,46.140235],[-122.932027,46.140226],[-122.932018,46.140061],[-122.931945,46.140032],[-122.93176,46.140071],[-122.931768,46.140316],[-122.931686,46.14032],[-122.931642,46.140354],[-122.931638,46.140627],[-122.931679,46.140669],[-122.931767,46.140676],[-122.931769,46.140902],[-122.931808,46.14094],[-122.931896,46.140946],[-122.931909,46.141102],[-122.931966,46.141126],[-122.932285,46.141126],[-122.932297,46.141205],[-122.932375,46.141229],[-122.932448,46.141179],[-122.932398,46.141119],[-122.932414,46.141036],[-122.932544,46.141036],[-122.932566,46.141111],[-122.932673,46.141126],[-122.932708,46.141207],[-122.932802,46.141217],[-122.932802,46.141396],[-122.932707,46.141406],[-122.932673,46.141486],[-122.932591,46.14149],[-122.932547,46.141525],[-122.932543,46.141798],[-122.932577,46.141837],[-122.932998,46.141846],[-122.933052,46.141818],[-122.933061,46.141757],[-122.933285,46.141748],[-122.93332,46.141667],[-122.933436,46.141643],[-122.93345,46.141577],[-122.933561,46.141557],[-122.933579,46.141487],[-122.933768,46.141487],[-122.933825,46.141463],[-122.933849,46.141206],[-122.933957,46.141206],[-122.933981,46.141283],[-122.934045,46.141307],[-122.93443,46.141305],[-122.93448,46.141274]],[[-122.932158,46.138736],[-122.932098,46.138684],[-122.931934,46.138705],[-122.931867,46.138818],[-122.931876,46.138859],[-122.93196,46.1389],[-122.932124,46.138867],[-122.932157,46.138833],[-122.932158,46.138736]],[[-122.93268,46.135906],[-122.932768,46.1359],[-122.932808,46.135863],[-122.932796,46.13557],[-122.932732,46.135546],[-122.932326,46.135555],[-122.932292,46.135595],[-122.932291,46.135906],[-122.932256,46.135948],[-122.932304,46.136062],[-122.932361,46.136086],[-122.93264,46.136093],[-122.932678,46.136056],[-122.93268,46.135906]],[[-122.932933,46.140136],[-122.932964,46.139983],[-122.932879,46.139943],[-122.932813,46.139972],[-122.932804,46.140046],[-122.932486,46.140047],[-122.932429,46.14007],[-122.932431,46.140489],[-122.932313,46.1405],[-122.932271,46.140531],[-122.932289,46.140638],[-122.93232,46.140667],[-122.932462,46.14069],[-122.932522,46.140674],[-122.932545,46.140496],[-122.932863,46.140496],[-122.93292,46.140473],[-122.932933,46.140317],[-122.933028,46.140307],[-122.933063,46.140263],[-122.93305,46.140161],[-122.932933,46.140136]],[[-122.933067,46.136447],[-122.933149,46.136443],[-122.933193,46.136408],[-122.933197,46.136135],[-122.933149,46.136091],[-122.933008,46.136087],[-122.932942,46.136125],[-122.932938,46.136266],[-122.932727,46.13627],[-122.932685,46.1363],[-122.932679,46.136356],[-122.932563,46.13638],[-122.932555,46.136593],[-122.932604,46.136624],[-122.932808,46.136626],[-122.932869,46.136651],[-122.933019,46.136622],[-122.933066,46.136583],[-122.933067,46.136447]],[[-122.932935,46.140765],[-122.932967,46.140729],[-122.932952,46.140689],[-122.932893,46.140663],[-122.932831,46.140676],[-122.932804,46.140711],[-122.93282,46.14076],[-122.932878,46.14078],[-122.932935,46.140765]],[[-122.935531,46.135727],[-122.935562,46.135675],[-122.935494,46.135557],[-122.935168,46.13556],[-122.93514,46.135638],[-122.935038,46.135642],[-122.934993,46.135677],[-122.93501,46.135998],[-122.934935,46.136],[-122.934889,46.136026],[-122.93488,46.136178],[-122.934751,46.136177],[-122.934751,46.135998],[-122.934846,46.135988],[-122.93488,46.135944],[-122.934877,46.135766],[-122.934833,46.135732],[-122.934751,46.135727],[-122.934751,46.135638],[-122.934826,46.135635],[-122.934872,46.135609],[-122.934875,46.135491],[-122.934818,46.135459],[-122.934622,46.135457],[-122.934616,46.135401],[-122.934567,46.13537],[-122.934234,46.135367],[-122.934234,46.135187],[-122.934346,46.135168],[-122.934348,46.135015],[-122.934452,46.135001],[-122.934492,46.134964],[-122.934492,46.134767],[-122.934426,46.134724],[-122.934282,46.134741],[-122.93424,46.134771],[-122.93425,46.135],[-122.933916,46.135007],[-122.933863,46.135027],[-122.933849,46.135149],[-122.933894,46.135183],[-122.933975,46.135187],[-122.933975,46.135277],[-122.933744,46.135289],[-122.933716,46.135367],[-122.933621,46.135376],[-122.933586,46.135457],[-122.933474,46.135477],[-122.933446,46.135558],[-122.933198,46.135547],[-122.933182,46.135464],[-122.9333,46.135452],[-122.933346,46.135412],[-122.933322,46.13531],[-122.933265,46.135278],[-122.933091,46.135292],[-122.933069,46.135331],[-122.933084,46.135449],[-122.93298,46.135463],[-122.932939,46.135505],[-122.932942,46.135688],[-122.932987,46.135722],[-122.933068,46.135727],[-122.933068,46.135817],[-122.933034,46.13587],[-122.933077,46.135968],[-122.933123,46.135994],[-122.933257,46.135996],[-122.933309,46.135977],[-122.933327,46.135727],[-122.933434,46.135711],[-122.933468,46.135626],[-122.933586,46.135637],[-122.933586,46.135907],[-122.933497,46.135913],[-122.933458,46.13595],[-122.933456,46.136447],[-122.933374,46.136451],[-122.93333,46.136485],[-122.933335,46.136688],[-122.933381,46.136714],[-122.933455,46.136717],[-122.933461,46.136773],[-122.933503,46.136803],[-122.933844,46.136807],[-122.933847,46.136859],[-122.933885,46.136891],[-122.934102,46.136897],[-122.934112,46.136959],[-122.934172,46.136987],[-122.93432,46.136981],[-122.934358,46.136949],[-122.934361,46.136897],[-122.934436,46.136895],[-122.934482,46.136869],[-122.934491,46.136627],[-122.93458,46.136621],[-122.934619,46.136584],[-122.934621,46.136358],[-122.93475,46.136358],[-122.934751,46.136579],[-122.934805,46.136625],[-122.935213,46.136625],[-122.935262,46.136594],[-122.935268,46.136538],[-122.93538,46.136518],[-122.935415,46.136398],[-122.93537,46.136362],[-122.935268,46.136358],[-122.935269,46.136178],[-122.93538,46.136158],[-122.935398,46.135998],[-122.93548,46.135994],[-122.935522,46.135965],[-122.935531,46.135727]],[[-122.933448,46.142567],[-122.93353,46.142563],[-122.933574,46.142529],[-122.933575,46.142425],[-122.933523,46.142389],[-122.933342,46.142403],[-122.933319,46.142477],[-122.933245,46.142479],[-122.933199,46.142505],[-122.933172,46.142617],[-122.933232,46.142656],[-122.933393,46.142655],[-122.933442,46.142624],[-122.933448,46.142567]],[[-122.934097,46.141667],[-122.934062,46.141586],[-122.933893,46.141579],[-122.933844,46.14161],[-122.933838,46.141667],[-122.933721,46.141691],[-122.933708,46.141757],[-122.933601,46.141773],[-122.933578,46.142027],[-122.933367,46.142031],[-122.933325,46.14206],[-122.933319,46.142117],[-122.933213,46.142133],[-122.93319,46.142171],[-122.933212,46.142294],[-122.933265,46.142311],[-122.933516,46.142296],[-122.933569,46.142268],[-122.933578,46.142207],[-122.933796,46.142201],[-122.933834,46.142169],[-122.933837,46.142117],[-122.933954,46.142093],[-122.933967,46.142027],[-122.934079,46.142007],[-122.934097,46.141937],[-122.934203,46.141921],[-122.934223,46.141706],[-122.934178,46.141671],[-122.934097,46.141667]],[[-122.934747,46.139548],[-122.934686,46.139495],[-122.934543,46.13951],[-122.934494,46.139541],[-122.934488,46.139597],[-122.934371,46.139621],[-122.934358,46.139687],[-122.934099,46.139687],[-122.9341,46.139381],[-122.934077,46.139343],[-122.934022,46.139327],[-122.93361,46.139339],[-122.933582,46.139376],[-122.933581,46.139507],[-122.933547,46.139549],[-122.93359,46.139658],[-122.933651,46.139687],[-122.93397,46.139687],[-122.933969,46.139777],[-122.933392,46.139777],[-122.933335,46.139801],[-122.933331,46.139928],[-122.933377,46.139954],[-122.933451,46.139958],[-122.933451,46.140047],[-122.933363,46.140053],[-122.933323,46.14009],[-122.933322,46.140227],[-122.933287,46.140274],[-122.933339,46.140387],[-122.933399,46.140407],[-122.933914,46.140405],[-122.933967,46.140364],[-122.933969,46.140227],[-122.934098,46.140227],[-122.934104,46.140284],[-122.934146,46.140313],[-122.934346,46.140306],[-122.93437,46.140383],[-122.934487,46.140408],[-122.934521,46.140488],[-122.934663,46.140511],[-122.934718,46.140499],[-122.934746,46.140457],[-122.934723,46.140333],[-122.934616,46.140317],[-122.93461,46.140261],[-122.934568,46.140232],[-122.934358,46.140227],[-122.934358,46.140049],[-122.934453,46.140038],[-122.934487,46.139957],[-122.934562,46.139955],[-122.934608,46.139929],[-122.934617,46.139688],[-122.934733,46.139664],[-122.934747,46.139548]],[[-122.935561,46.137396],[-122.935517,46.137287],[-122.935456,46.137258],[-122.934553,46.137258],[-122.934492,46.137301],[-122.934506,46.13743],[-122.934383,46.137453],[-122.934361,46.137527],[-122.934242,46.137538],[-122.934222,46.137376],[-122.934176,46.13735],[-122.934102,46.137346],[-122.934102,46.137257],[-122.934184,46.137253],[-122.934228,46.137219],[-122.934214,46.137097],[-122.934102,46.137077],[-122.934096,46.137021],[-122.934047,46.136989],[-122.933626,46.136993],[-122.933586,46.13703],[-122.933586,46.137123],[-122.933625,46.137161],[-122.933714,46.137167],[-122.933713,46.137347],[-122.933632,46.137351],[-122.933587,46.137385],[-122.933584,46.137617],[-122.933502,46.137621],[-122.933458,46.137655],[-122.933454,46.137887],[-122.933366,46.137893],[-122.933326,46.13793],[-122.933333,46.138128],[-122.933402,46.138157],[-122.933772,46.138157],[-122.933819,46.138141],[-122.933842,46.137977],[-122.933931,46.137971],[-122.93397,46.137934],[-122.933972,46.137707],[-122.934079,46.137691],[-122.934102,46.137617],[-122.93422,46.137606],[-122.934244,46.137683],[-122.93436,46.137707],[-122.934364,46.137759],[-122.934401,46.137791],[-122.934585,46.137788],[-122.934619,46.137743],[-122.934604,46.137445],[-122.934749,46.137438],[-122.934771,46.137615],[-122.934824,46.137631],[-122.935137,46.137618],[-122.935137,46.137708],[-122.935043,46.13771],[-122.935,46.137733],[-122.935007,46.137978],[-122.934919,46.137984],[-122.934879,46.138021],[-122.934884,46.138124],[-122.934926,46.138154],[-122.935007,46.138158],[-122.935007,46.138248],[-122.934878,46.138248],[-122.934809,46.138223],[-122.93466,46.138254],[-122.93462,46.138291],[-122.93462,46.138384],[-122.934689,46.138427],[-122.935095,46.138421],[-122.935133,46.138389],[-122.935137,46.138338],[-122.935231,46.138329],[-122.935266,46.138248],[-122.935348,46.138244],[-122.935392,46.13821],[-122.935396,46.137888],[-122.935484,46.137882],[-122.935525,46.137839],[-122.935526,46.137438],[-122.935561,46.137396]],[[-122.933736,46.133167],[-122.93371,46.133055],[-122.933656,46.133028],[-122.933393,46.133028],[-122.933332,46.13307],[-122.933334,46.133168],[-122.933393,46.133206],[-122.933691,46.133203],[-122.933736,46.133167]],[[-122.93436,46.140676],[-122.934392,46.14063],[-122.934357,46.140587],[-122.934348,46.140436],[-122.934295,46.140408],[-122.934168,46.140408],[-122.934107,46.140436],[-122.934098,46.140497],[-122.933868,46.140509],[-122.933839,46.140587],[-122.933609,46.140599],[-122.93358,46.140636],[-122.93358,46.140732],[-122.933648,46.14078],[-122.933906,46.140766],[-122.933959,46.140739],[-122.933969,46.140677],[-122.934098,46.140677],[-122.934098,46.140767],[-122.934003,46.140776],[-122.933968,46.140857],[-122.933866,46.140861],[-122.933822,46.140897],[-122.933844,46.141017],[-122.933921,46.141051],[-122.934063,46.141028],[-122.934098,46.140947],[-122.934214,46.140923],[-122.934227,46.140857],[-122.934339,46.140838],[-122.93436,46.140676]],[[-122.933899,46.134197],[-122.933975,46.134154],[-122.933975,46.134061],[-122.933948,46.134029],[-122.933666,46.134017],[-122.933606,46.134037],[-122.933588,46.134148],[-122.933616,46.134185],[-122.933899,46.134197]],[[-122.934877,46.138608],[-122.934864,46.138542],[-122.9348,46.138518],[-122.934653,46.138527],[-122.934618,46.138607],[-122.934359,46.138607],[-122.93436,46.138517],[-122.934441,46.138513],[-122.934486,46.138479],[-122.934477,46.138348],[-122.934414,46.138324],[-122.934135,46.138346],[-122.934101,46.138386],[-122.9341,46.138517],[-122.934006,46.138526],[-122.933971,46.138607],[-122.933889,46.138611],[-122.933847,46.13864],[-122.933841,46.138967],[-122.933767,46.138969],[-122.933721,46.138996],[-122.933724,46.139123],[-122.933789,46.139147],[-122.934201,46.139135],[-122.934229,46.139099],[-122.93423,46.138967],[-122.934311,46.138963],[-122.934356,46.138929],[-122.934359,46.138787],[-122.934489,46.138787],[-122.934498,46.138849],[-122.934551,46.138876],[-122.934972,46.138869],[-122.935006,46.138829],[-122.935003,46.138646],[-122.934959,46.138612],[-122.934877,46.138608]],[[-122.934107,46.133477],[-122.934072,46.133396],[-122.933918,46.133387],[-122.933857,46.133416],[-122.933848,46.133477],[-122.933773,46.133479],[-122.933727,46.133505],[-122.933718,46.133878],[-122.933759,46.133921],[-122.934051,46.133925],[-122.9341,46.133894],[-122.934106,46.133837],[-122.93418,46.133835],[-122.934226,46.133809],[-122.934233,46.133516],[-122.934188,46.133481],[-122.934107,46.133477]],[[-122.934038,46.13304],[-122.934473,46.133012],[-122.934496,46.132973],[-122.934473,46.132773],[-122.934163,46.132759],[-122.934113,46.13279],[-122.934107,46.132847],[-122.934001,46.132863],[-122.933983,46.133007],[-122.934038,46.13304]],[[-122.934488,46.138218],[-122.934507,46.138017],[-122.934455,46.13798],[-122.934291,46.137953],[-122.934142,46.137984],[-122.934101,46.138026],[-122.93411,46.138219],[-122.934163,46.138246],[-122.93445,46.138254],[-122.934488,46.138218]],[[-122.934624,46.133698],[-122.934556,46.133644],[-122.934394,46.13367],[-122.934366,46.133706],[-122.934382,46.133831],[-122.934448,46.133851],[-122.934596,46.133825],[-122.934623,46.133794],[-122.934624,46.133698]],[[-122.934616,46.139145],[-122.934564,46.139124],[-122.934506,46.139134],[-122.934469,46.139176],[-122.934485,46.139217],[-122.934538,46.139237],[-122.93461,46.139225],[-122.934637,46.139187],[-122.934616,46.139145]],[[-122.934745,46.141038],[-122.934861,46.141014],[-122.934873,46.140901],[-122.934834,46.140864],[-122.934729,46.14085],[-122.934733,46.140778],[-122.934648,46.140755],[-122.934582,46.140805],[-122.934631,46.140865],[-122.934615,46.140947],[-122.934534,46.140952],[-122.934489,46.140986],[-122.934492,46.141108],[-122.934554,46.141141],[-122.934697,46.141123],[-122.934739,46.141094],[-122.934745,46.141038]],[[-122.935656,46.136848],[-122.935588,46.136795],[-122.935208,46.136808],[-122.935147,46.136836],[-122.935138,46.136898],[-122.935009,46.136898],[-122.934996,46.136832],[-122.934879,46.136808],[-122.934851,46.13673],[-122.934691,46.136718],[-122.934622,46.136761],[-122.934621,46.136939],[-122.934661,46.136981],[-122.93475,46.136988],[-122.934756,46.137044],[-122.934805,46.137075],[-122.935267,46.137078],[-122.935273,46.137135],[-122.935315,46.137164],[-122.935586,46.137168],[-122.935654,46.137125],[-122.935656,46.136848]],[[-122.934663,46.141573],[-122.934806,46.141591],[-122.934861,46.141567],[-122.934871,46.141436],[-122.934819,46.1414],[-122.93467,46.1414],[-122.934618,46.141436],[-122.934618,46.141539],[-122.934663,46.141573]],[[-122.934925,46.142118],[-122.935001,46.142074],[-122.935001,46.141981],[-122.934974,46.14195],[-122.934805,46.141914],[-122.934632,46.141957],[-122.934615,46.142069],[-122.934643,46.142105],[-122.934925,46.142118]],[[-122.935028,46.135058],[-122.935008,46.134956],[-122.93497,46.134924],[-122.9348,46.134922],[-122.934754,46.134961],[-122.934758,46.135078],[-122.93482,46.135111],[-122.934983,46.135093],[-122.935028,46.135058]],[[-122.935287,46.134788],[-122.935261,46.134676],[-122.9352,46.134648],[-122.934815,46.134649],[-122.934753,46.134696],[-122.934758,46.134794],[-122.934822,46.134827],[-122.935235,46.134825],[-122.935287,46.134788]],[[-122.938509,46.13303],[-122.938474,46.132949],[-122.938312,46.132941],[-122.938259,46.132968],[-122.93825,46.133029],[-122.938138,46.133049],[-122.93812,46.133119],[-122.937991,46.133119],[-122.937975,46.132947],[-122.938107,46.132915],[-122.93812,46.132808],[-122.938079,46.132766],[-122.937952,46.132746],[-122.937865,46.132784],[-122.937861,46.132939],[-122.937732,46.132939],[-122.937726,46.132882],[-122.937677,46.132851],[-122.937502,46.132861],[-122.937473,46.132898],[-122.937473,46.133029],[-122.937344,46.133029],[-122.937343,46.132884],[-122.93731,46.132845],[-122.937126,46.132855],[-122.937085,46.132898],[-122.937084,46.133209],[-122.93701,46.133211],[-122.936964,46.133237],[-122.936955,46.133389],[-122.936848,46.133404],[-122.936825,46.133479],[-122.936696,46.133479],[-122.936627,46.133454],[-122.936566,46.133478],[-122.93633,46.133494],[-122.936307,46.133532],[-122.936307,46.133838],[-122.936178,46.133838],[-122.936155,46.133764],[-122.936032,46.133741],[-122.936048,46.133617],[-122.93602,46.13358],[-122.935867,46.133568],[-122.935799,46.133597],[-122.935769,46.133698],[-122.93581,46.133741],[-122.935934,46.133756],[-122.935918,46.133928],[-122.935812,46.133944],[-122.935789,46.134018],[-122.93567,46.134029],[-122.935654,46.133961],[-122.935604,46.13393],[-122.935469,46.133904],[-122.935401,46.133928],[-122.935271,46.133928],[-122.935268,46.133876],[-122.93523,46.133844],[-122.935095,46.133824],[-122.935034,46.13384],[-122.935014,46.134064],[-122.935053,46.134101],[-122.935141,46.134108],[-122.935157,46.13419],[-122.934945,46.134199],[-122.934892,46.134226],[-122.934874,46.134533],[-122.934932,46.134557],[-122.935113,46.134545],[-122.935141,46.134468],[-122.935243,46.134463],[-122.935288,46.134428],[-122.935255,46.134205],[-122.935482,46.134194],[-122.935524,46.134165],[-122.93553,46.134108],[-122.935648,46.134097],[-122.935682,46.134182],[-122.935789,46.134198],[-122.935788,46.134288],[-122.935694,46.134297],[-122.935659,46.134378],[-122.935585,46.13438],[-122.935539,46.134406],[-122.935542,46.134624],[-122.935592,46.134647],[-122.935788,46.134648],[-122.935849,46.134672],[-122.935918,46.134648],[-122.936047,46.134648],[-122.936047,46.135063],[-122.93608,46.135102],[-122.936305,46.135098],[-122.936374,46.135123],[-122.936523,46.135092],[-122.936563,46.135055],[-122.936565,46.134919],[-122.936653,46.134912],[-122.936693,46.134875],[-122.936695,46.134559],[-122.936824,46.134559],[-122.936885,46.134583],[-122.936953,46.134559],[-122.937083,46.134559],[-122.937092,46.13462],[-122.937145,46.134648],[-122.937279,46.134648],[-122.937329,46.134625],[-122.937342,46.134469],[-122.93743,46.134463],[-122.93747,46.134426],[-122.937472,46.134289],[-122.937506,46.134247],[-122.937472,46.134199],[-122.937472,46.134109],[-122.937661,46.134109],[-122.937718,46.134085],[-122.937731,46.133839],[-122.937805,46.133837],[-122.937851,46.133811],[-122.937861,46.133659],[-122.93799,46.133659],[-122.937999,46.133721],[-122.938052,46.133748],[-122.938308,46.133749],[-122.938365,46.133726],[-122.938379,46.13348],[-122.93849,46.13346],[-122.938508,46.1333],[-122.938597,46.133293],[-122.938637,46.133251],[-122.938632,46.133063],[-122.93859,46.133034],[-122.938509,46.13303]],[[-122.935912,46.139958],[-122.936,46.139952],[-122.936039,46.139915],[-122.936041,46.139737],[-122.935993,46.139692],[-122.93583,46.139692],[-122.935788,46.139722],[-122.935782,46.139778],[-122.935653,46.139778],[-122.935651,46.139628],[-122.935593,46.139586],[-122.935394,46.139598],[-122.935325,46.139574],[-122.935264,46.139598],[-122.935137,46.139598],[-122.935066,46.139574],[-122.934924,46.139602],[-122.934882,46.139631],[-122.934889,46.139934],[-122.934946,46.139957],[-122.935134,46.139958],[-122.935157,46.140032],[-122.935264,46.140048],[-122.935264,46.140138],[-122.935229,46.14018],[-122.935264,46.140228],[-122.935263,46.140408],[-122.935147,46.140432],[-122.935137,46.140549],[-122.935182,46.140584],[-122.935263,46.140588],[-122.935298,46.140669],[-122.935393,46.140678],[-122.935396,46.140743],[-122.935439,46.140777],[-122.935596,46.140766],[-122.935646,46.140735],[-122.935686,46.140636],[-122.935652,46.140588],[-122.935652,46.140498],[-122.935764,46.140478],[-122.935816,46.140366],[-122.935764,46.140248],[-122.935652,46.140228],[-122.935652,46.140138],[-122.935888,46.140122],[-122.935912,46.139958]],[[-122.934923,46.140764],[-122.935066,46.140781],[-122.935121,46.140757],[-122.93513,46.140626],[-122.935079,46.14059],[-122.93493,46.14059],[-122.934878,46.140626],[-122.934878,46.140729],[-122.934923,46.140764]],[[-122.936448,46.138839],[-122.936431,46.138567],[-122.93639,46.138525],[-122.935654,46.138518],[-122.935648,46.138461],[-122.935606,46.138432],[-122.935334,46.138415],[-122.935269,46.138453],[-122.935266,46.138559],[-122.935307,46.138602],[-122.935395,46.138608],[-122.935395,46.138788],[-122.935164,46.1388],[-122.935137,46.138831],[-122.935137,46.138924],[-122.935177,46.138961],[-122.935265,46.138968],[-122.935271,46.139038],[-122.935318,46.139069],[-122.935653,46.139058],[-122.935653,46.139328],[-122.935618,46.139376],[-122.935662,46.139493],[-122.935728,46.139522],[-122.935979,46.139507],[-122.936032,46.13948],[-122.936042,46.139418],[-122.936151,46.139412],[-122.936191,46.139368],[-122.93617,46.139012],[-122.93613,46.138975],[-122.936042,46.138968],[-122.936042,46.138878],[-122.936172,46.138878],[-122.93624,46.138903],[-122.936396,46.138876],[-122.936448,46.138839]],[[-122.935547,46.135413],[-122.935523,46.135311],[-122.935473,46.13528],[-122.935325,46.13528],[-122.935273,46.135316],[-122.935273,46.135419],[-122.935324,46.135456],[-122.935514,46.135448],[-122.935547,46.135413]],[[-122.935775,46.134894],[-122.935805,46.134778],[-122.935753,46.134741],[-122.93542,46.134745],[-122.93538,46.134788],[-122.935409,46.134979],[-122.935462,46.135007],[-122.935617,46.135002],[-122.935655,46.13497],[-122.935658,46.134918],[-122.935775,46.134894]],[[-122.935893,46.136374],[-122.935573,46.136335],[-122.9355,46.13638],[-122.93555,46.136522],[-122.935605,46.136538],[-122.935893,46.136522],[-122.935915,46.136484],[-122.935893,46.136374]],[[-122.936325,46.135588],[-122.936282,46.135474],[-122.936176,46.135458],[-122.936141,46.135377],[-122.936046,46.135368],[-122.936046,46.135223],[-122.936019,46.135187],[-122.935964,46.135174],[-122.935798,46.135199],[-122.935778,46.135127],[-122.935725,46.135099],[-122.935579,46.135098],[-122.935525,46.135119],[-122.935509,46.135159],[-122.935557,46.135266],[-122.935787,46.135278],[-122.935767,46.135762],[-122.935794,46.135805],[-122.936142,46.135822],[-122.936175,46.135783],[-122.936175,46.135638],[-122.936303,46.135622],[-122.936325,46.135588]],[[-122.936691,46.137619],[-122.936685,46.137562],[-122.936643,46.137533],[-122.93638,46.137528],[-122.936316,46.137552],[-122.936302,46.137618],[-122.936191,46.137638],[-122.936173,46.137708],[-122.935914,46.137708],[-122.935911,46.137657],[-122.935873,46.137625],[-122.935684,46.13763],[-122.935655,46.137672],[-122.935655,46.138068],[-122.935573,46.138072],[-122.935531,46.138101],[-122.935522,46.138317],[-122.935654,46.138338],[-122.935663,46.1384],[-122.935724,46.138428],[-122.935879,46.138419],[-122.935915,46.138338],[-122.936043,46.138338],[-122.936052,46.1384],[-122.936105,46.138427],[-122.936532,46.138416],[-122.93656,46.13838],[-122.936561,46.138249],[-122.936656,46.13824],[-122.93669,46.138195],[-122.936677,46.138093],[-122.936561,46.138069],[-122.936561,46.137979],[-122.936662,46.137966],[-122.936691,46.137889],[-122.936779,46.137882],[-122.93682,46.13784],[-122.936814,46.137652],[-122.936772,46.137623],[-122.936691,46.137619]],[[-122.936047,46.13708],[-122.93599,46.137064],[-122.935932,46.137085],[-122.935915,46.137133],[-122.935942,46.137169],[-122.936005,46.137181],[-122.936064,46.137155],[-122.936078,46.137115],[-122.936047,46.13708]],[[-122.936175,46.136038],[-122.936115,46.135986],[-122.935951,46.136007],[-122.935916,46.136047],[-122.935929,46.136154],[-122.935986,46.136178],[-122.93614,46.136169],[-122.936173,46.136135],[-122.936175,46.136038]],[[-122.936567,46.133119],[-122.936648,46.133114],[-122.936693,46.13308],[-122.936683,46.132873],[-122.936626,46.132849],[-122.936438,46.132848],[-122.936432,46.132778],[-122.936384,46.132747],[-122.936213,46.132767],[-122.936179,46.132807],[-122.936178,46.133028],[-122.93598,46.133016],[-122.93592,46.133063],[-122.935932,46.133184],[-122.936049,46.133208],[-122.936071,46.133462],[-122.936126,46.133478],[-122.936285,46.133463],[-122.936307,46.133388],[-122.936382,46.133386],[-122.936428,46.13336],[-122.936437,46.133209],[-122.936544,46.133193],[-122.936567,46.133119]],[[-122.936485,46.136899],[-122.93654,46.136883],[-122.936562,46.13685],[-122.936561,46.136762],[-122.936521,46.136725],[-122.93612,46.136705],[-122.936053,46.136733],[-122.936045,46.13685],[-122.936086,46.136892],[-122.936485,46.136899]],[[-122.936558,46.140139],[-122.9363,46.140138],[-122.936231,46.140114],[-122.936075,46.140147],[-122.936041,46.140187],[-122.936053,46.140384],[-122.936246,46.140432],[-122.9364,46.140396],[-122.936429,46.140319],[-122.936795,46.140303],[-122.936817,46.140265],[-122.936795,46.140065],[-122.936607,46.140053],[-122.936565,46.140082],[-122.936558,46.140139]],[[-122.936435,46.135229],[-122.936374,46.135176],[-122.93621,46.135197],[-122.936176,46.135237],[-122.936189,46.135344],[-122.936345,46.135382],[-122.936401,46.135373],[-122.936433,46.135339],[-122.936435,46.135229]],[[-122.936481,46.140049],[-122.936555,46.14001],[-122.936546,46.139893],[-122.936489,46.139869],[-122.936314,46.139878],[-122.93628,46.139924],[-122.936313,46.140024],[-122.936362,46.140047],[-122.936481,46.140049]],[[-122.93677,46.139423],[-122.936605,46.139396],[-122.936471,46.139425],[-122.936436,46.139452],[-122.93643,46.13973],[-122.936477,46.139774],[-122.936647,46.139772],[-122.936685,46.13974],[-122.936689,46.139689],[-122.93677,46.139685],[-122.936812,46.139655],[-122.936812,46.139452],[-122.93677,46.139423]],[[-122.937582,46.135799],[-122.937634,46.135681],[-122.937578,46.135552],[-122.937524,46.135535],[-122.937341,46.135549],[-122.937318,46.135475],[-122.937211,46.135459],[-122.937177,46.135378],[-122.937082,46.135369],[-122.937059,46.135205],[-122.936858,46.135191],[-122.936804,46.135234],[-122.936823,46.135369],[-122.936728,46.135378],[-122.936693,46.135459],[-122.936587,46.135474],[-122.936529,46.135591],[-122.936586,46.135713],[-122.936822,46.135729],[-122.936838,46.135811],[-122.936475,46.135825],[-122.936436,46.135862],[-122.936437,46.13596],[-122.936504,46.135998],[-122.936897,46.135996],[-122.93695,46.135955],[-122.936936,46.135826],[-122.937081,46.135819],[-122.937099,46.135979],[-122.937151,46.135999],[-122.937285,46.135997],[-122.937334,46.135966],[-122.93734,46.135909],[-122.937457,46.135885],[-122.93747,46.135819],[-122.937582,46.135799]],[[-122.936951,46.136899],[-122.936947,46.136847],[-122.93691,46.136815],[-122.936726,46.136818],[-122.936692,46.136899],[-122.93661,46.136903],[-122.936568,46.136932],[-122.936575,46.137068],[-122.936637,46.137092],[-122.937045,46.13707],[-122.93708,46.13703],[-122.937074,46.136932],[-122.937032,46.136903],[-122.936951,46.136899]],[[-122.936872,46.137349],[-122.936947,46.13731],[-122.936941,46.137197],[-122.936888,46.13717],[-122.936733,46.137175],[-122.936693,46.137212],[-122.9367,46.13732],[-122.936754,46.137348],[-122.936872,46.137349]],[[-122.937339,46.137439],[-122.937357,46.137394],[-122.937325,46.137358],[-122.937251,46.13735],[-122.937201,46.137374],[-122.937191,46.137415],[-122.937227,46.137453],[-122.937285,46.137463],[-122.937339,46.137439]],[[-122.937763,46.135242],[-122.93772,46.135128],[-122.937659,46.135099],[-122.937254,46.1351],[-122.937192,46.135149],[-122.937225,46.135255],[-122.937341,46.135279],[-122.93735,46.13534],[-122.937411,46.135369],[-122.937701,46.135357],[-122.937763,46.135242]],[[-122.937612,46.141084],[-122.93758,46.140973],[-122.937464,46.140949],[-122.937461,46.140897],[-122.937423,46.140865],[-122.937268,46.14086],[-122.937214,46.140888],[-122.937211,46.141006],[-122.937253,46.141035],[-122.937334,46.141039],[-122.937338,46.141104],[-122.937374,46.141136],[-122.937579,46.14112],[-122.937612,46.141084]],[[-122.937603,46.132619],[-122.937535,46.132566],[-122.937372,46.132591],[-122.937344,46.132628],[-122.937361,46.132752],[-122.937426,46.132773],[-122.937574,46.132747],[-122.937601,46.132716],[-122.937603,46.132619]],[[-122.937989,46.134469],[-122.938063,46.134467],[-122.938109,46.134441],[-122.938101,46.134309],[-122.938049,46.13429],[-122.937871,46.1343],[-122.937806,46.134266],[-122.937749,46.134276],[-122.937713,46.134313],[-122.937719,46.134349],[-122.937773,46.134378],[-122.937849,46.134368],[-122.937875,46.134462],[-122.937494,46.134485],[-122.937471,46.134523],[-122.937484,46.134715],[-122.9376,46.134739],[-122.937606,46.134796],[-122.937648,46.134825],[-122.937825,46.13482],[-122.937859,46.134739],[-122.937941,46.134735],[-122.937986,46.134701],[-122.937989,46.134469]],[[-122.938243,46.137077],[-122.938176,46.137055],[-122.938105,46.13709],[-122.937986,46.137079],[-122.937983,46.137028],[-122.937945,46.136996],[-122.937768,46.136996],[-122.937729,46.137033],[-122.937727,46.137169],[-122.937611,46.137193],[-122.937586,46.137319],[-122.93764,46.137348],[-122.937794,46.137348],[-122.937847,46.137321],[-122.937857,46.137259],[-122.938074,46.137253],[-122.938127,46.137158],[-122.938203,46.137168],[-122.938253,46.137145],[-122.938243,46.137077]],[[-122.938245,46.13753],[-122.938319,46.137527],[-122.938365,46.137501],[-122.938357,46.137369],[-122.938304,46.13735],[-122.938048,46.13735],[-122.937995,46.137378],[-122.937986,46.137439],[-122.937869,46.137463],[-122.937837,46.137574],[-122.937884,46.137615],[-122.938062,46.137643],[-122.938216,46.137607],[-122.938245,46.13753]],[[-122.93811,46.136596],[-122.938135,46.136494],[-122.938103,46.136459],[-122.937913,46.136452],[-122.937861,46.136488],[-122.937861,46.136591],[-122.937912,46.136627],[-122.938061,46.136627],[-122.93811,46.136596]],[[-122.938655,46.135055],[-122.93863,46.13494],[-122.938576,46.134907],[-122.938412,46.134922],[-122.93836,46.134959],[-122.938383,46.135066],[-122.938432,46.135097],[-122.938622,46.13509],[-122.938655,46.135055]],[[-122.938427,46.132755],[-122.938571,46.132773],[-122.938626,46.132749],[-122.938635,46.132618],[-122.938583,46.132582],[-122.938435,46.132582],[-122.938383,46.132618],[-122.938383,46.132721],[-122.938427,46.132755]],[[-122.938787,46.132085],[-122.938763,46.13197],[-122.938716,46.131939],[-122.938565,46.131952],[-122.938513,46.131988],[-122.938513,46.132091],[-122.938565,46.132127],[-122.938755,46.13212],[-122.938787,46.132085]]]}},{"type":"Feature","properties":{"id":12,"area_m2":10300,"px":103,"rank":2,"persistent":false},"geometry":{"type":"Polygon","coordinates":[[[-122.937202,46.143559],[-122.937202,46.143739],[-122.9371,46.143743],[-122.937053,46.143784],[-122.937072,46.144009],[-122.936965,46.144025],[-122.936942,46.144099],[-122.936813,46.144099],[-122.936796,46.143939],[-122.936684,46.143919],[-122.936678,46.143862],[-122.936636,46.143833],[-122.936425,46.143829],[-122.936416,46.143754],[-122.93635,46.143725],[-122.936058,46.143741],[-122.936036,46.143828],[-122.935955,46.143832],[-122.93591,46.143867],[-122.935907,46.144098],[-122.935777,46.144098],[-122.935778,46.143738],[-122.935859,46.143734],[-122.935904,46.1437],[-122.935894,46.143492],[-122.935778,46.143468],[-122.935765,46.143402],[-122.935649,46.143378],[-122.935645,46.143326],[-122.935608,46.143294],[-122.93526,46.143288],[-122.935257,46.143236],[-122.935219,46.143204],[-122.935001,46.143198],[-122.935001,46.143108],[-122.935442,46.143108],[-122.935497,46.143092],[-122.93552,46.142928],[-122.935716,46.142927],[-122.935777,46.142885],[-122.935773,46.142782],[-122.935731,46.142752],[-122.935649,46.142748],[-122.935649,46.142658],[-122.935756,46.142642],[-122.935779,46.142568],[-122.936015,46.142553],[-122.936038,46.142478],[-122.936119,46.142474],[-122.936162,46.142445],[-122.936168,46.142298],[-122.936357,46.142298],[-122.936414,46.142275],[-122.936427,46.141669],[-122.936557,46.141669],[-122.93656,46.1419],[-122.936604,46.141935],[-122.936686,46.141939],[-122.936685,46.142299],[-122.936468,46.142305],[-122.93643,46.142337],[-122.936426,46.142389],[-122.936332,46.142398],[-122.936297,46.142478],[-122.936223,46.142481],[-122.936177,46.142507],[-122.936167,46.142838],[-122.936086,46.142842],[-122.936043,46.142872],[-122.936037,46.143108],[-122.935921,46.143132],[-122.935911,46.14325],[-122.935949,46.143282],[-122.936098,46.143312],[-122.936167,46.143288],[-122.936296,46.143289],[-122.936357,46.143313],[-122.936426,46.143289],[-122.936555,46.143289],[-122.936568,46.143355],[-122.936633,46.143379],[-122.936888,46.143377],[-122.936937,46.143346],[-122.936943,46.143289],[-122.937073,46.143289],[-122.937073,46.143379],[-122.936991,46.143383],[-122.936949,46.143412],[-122.936946,46.143521],[-122.937006,46.143558],[-122.937202,46.143559]]]}},{"type":"Feature","properties":{"id":60,"area_m2":5400,"px":54,"rank":3,"persistent":false},"geometry":{"type":"Polygon","coordinates":[[[-122.934492,46.135547],[-122.934492,46.135907],[-122.934288,46.13591],[-122.934233,46.135956],[-122.934236,46.136229],[-122.934281,46.136263],[-122.934362,46.136267],[-122.934362,46.136537],[-122.934255,46.136553],[-122.934232,46.136627],[-122.934028,46.136629],[-122.933979,46.13666],[-122.933973,46.136717],[-122.933844,46.136717],[-122.933831,46.136561],[-122.933715,46.136537],[-122.93368,46.136456],[-122.933585,46.136446],[-122.933585,46.136267],[-122.933674,46.136261],[-122.933713,46.136223],[-122.933715,46.135997],[-122.933797,46.135993],[-122.933841,46.135959],[-122.933845,46.135727],[-122.933919,46.135725],[-122.933965,46.135699],[-122.933975,46.135547],[-122.934492,46.135547]]]}},{"type":"Feature","properties":{"id":78,"area_m2":3700,"px":37,"rank":4,"persistent":false},"geometry":{"type":"Polygon","coordinates":[[[-122.933331,46.132037],[-122.933331,46.132127],[-122.933243,46.132133],[-122.933203,46.13217],[-122.933202,46.132397],[-122.933095,46.132412],[-122.933072,46.132486],[-122.932846,46.132482],[-122.932813,46.132576],[-122.932684,46.132576],[-122.932675,46.132515],[-122.932621,46.132487],[-122.932295,46.132486],[-122.932273,46.132412],[-122.932166,46.132396],[-122.932166,46.132126],[-122.932296,46.132126],[-122.932297,46.132353],[-122.932366,46.132396],[-122.932649,46.132387],[-122.932684,46.132348],[-122.932684,46.132216],[-122.932766,46.132212],[-122.932808,46.132183],[-122.932812,46.13208],[-122.932766,46.13204],[-122.932296,46.132036],[-122.932296,46.131946],[-122.932403,46.13193],[-122.932426,46.131856],[-122.932542,46.131832],[-122.932555,46.131766],[-122.932814,46.131766],[-122.932827,46.131832],[-122.932943,46.131856],[-122.932972,46.131934],[-122.933202,46.131947],[-122.933225,46.132021],[-122.933331,46.132037]]]}},{"type":"Feature","properties":{"id":14,"area_m2":3400,"px":34,"rank":5,"persistent":false},"geometry":{"type":"Polygon","coordinates":[[[-122.935001,46.143378],[-122.935001,46.143468],[-122.934894,46.143484],[-122.934839,46.14359],[-122.934871,46.143648],[-122.934871,46.143828],[-122.934647,46.143837],[-122.934612,46.143917],[-122.934496,46.143941],[-122.934482,46.144007],[-122.934353,46.144007],[-122.934352,46.143871],[-122.934291,46.143828],[-122.933317,46.143827],[-122.933308,46.143765],[-122.933255,46.143738],[-122.933059,46.143737],[-122.932997,46.143713],[-122.932929,46.143737],[-122.9328,46.143736],[-122.9328,46.143647],[-122.932906,46.143631],[-122.932931,46.143557],[-122.933318,46.143557],[-122.933321,46.143608],[-122.933359,46.14364],[-122.933706,46.143647],[-122.933715,46.143708],[-122.933768,46.143736],[-122.934353,46.143737],[-122.934422,46.143762],[-122.934564,46.143733],[-122.934612,46.143689],[-122.934613,46.143378],[-122.934701,46.143371],[-122.934741,46.143334],[-122.934743,46.143108],[-122.934872,46.143108],[-122.934875,46.143339],[-122.93492,46.143374],[-122.935001,46.143378]]]}},{"type":"Feature","properties":{"id":16,"area_m2":3100,"px":31,"rank":6,"persistent":false},"geometry":{"type":"Polygon","coordinates":[[[-122.941346,46.143291],[-122.941346,46.143381],[-122.941264,46.143385],[-122.941219,46.143419],[-122.941216,46.143561],[-122.941109,46.143577],[-122.941086,46.143651],[-122.940827,46.143651],[-122.940811,46.143477],[-122.940752,46.143457],[-122.940569,46.143471],[-122.940563,46.143414],[-122.940521,46.143385],[-122.940358,46.143385],[-122.940316,46.143414],[-122.94031,46.143471],[-122.94018,46.143471],[-122.94018,46.143291],[-122.940215,46.143248],[-122.940181,46.143201],[-122.940181,46.143021],[-122.940287,46.143005],[-122.94031,46.142931],[-122.940569,46.142931],[-122.940592,46.143005],[-122.940699,46.143021],[-122.940708,46.143172],[-122.940754,46.143199],[-122.940828,46.143201],[-122.940862,46.143282],[-122.941346,46.143291]]]}},{"type":"Feature","properties":{"id":56,"area_m2":3100,"px":31,"rank":7,"persistent":false},"geometry":{"type":"Polygon","coordinates":[[[-122.941611,46.136811],[-122.941611,46.136991],[-122.941523,46.136998],[-122.941483,46.137035],[-122.941481,46.137261],[-122.941223,46.137261],[-122.941214,46.1372],[-122.94116,46.137172],[-122.940705,46.137171],[-122.940705,46.136991],[-122.940824,46.13698],[-122.940844,46.137052],[-122.940897,46.13708],[-122.94129,46.13708],[-122.941349,46.137043],[-122.941356,46.136922],[-122.941302,46.136901],[-122.941094,46.136901],[-122.941033,46.136877],[-122.940846,46.136912],[-122.940794,46.136817],[-122.940576,46.136811],[-122.940576,46.136721],[-122.940765,46.136721],[-122.940817,46.136701],[-122.940835,46.136451],[-122.940909,46.136449],[-122.940955,46.136422],[-122.940965,46.136271],[-122.941094,46.136271],[-122.941094,46.136451],[-122.941059,46.136499],[-122.941107,46.136607],[-122.941164,46.136631],[-122.941353,46.136631],[-122.941375,46.136705],[-122.941482,46.136721],[-122.941517,46.136802],[-122.941611,46.136811]]]}},{"type":"Feature","properties":{"id":45,"area_m2":2800,"px":28,"rank":8,"persistent":false},"geometry":{"type":"Polygon","coordinates":[[[-122.940316,46.137981],[-122.940315,46.138071],[-122.939573,46.138079],[-122.939539,46.138119],[-122.939538,46.13834],[-122.93928,46.13834],[-122.939299,46.13821],[-122.939252,46.138164],[-122.938891,46.13816],[-122.938891,46.13807],[-122.939102,46.138066],[-122.939144,46.138037],[-122.93915,46.13798],[-122.939267,46.137956],[-122.93928,46.13771],[-122.939387,46.137694],[-122.93941,46.13762],[-122.939539,46.13762],[-122.939562,46.137694],[-122.939668,46.13771],[-122.939649,46.13784],[-122.939689,46.137884],[-122.940057,46.137891],[-122.94006,46.137942],[-122.940098,46.137974],[-122.940316,46.137981]]]}},{"type":"Feature","properties":{"id":13,"area_m2":2700,"px":27,"rank":9,"persistent":false},"geometry":{"type":"Polygon","coordinates":[[[-122.938756,46.14347],[-122.938756,46.14365],[-122.938681,46.143652],[-122.938635,46.143678],[-122.938626,46.14383],[-122.938149,46.143836],[-122.93811,46.143873],[-122.938108,46.144009],[-122.937979,46.144009],[-122.937956,46.143935],[-122.937849,46.143919],[-122.937849,46.143739],[-122.93808,46.143727],[-122.938108,46.143691],[-122.938108,46.14356],[-122.938203,46.14355],[-122.938238,46.14347],[-122.93832,46.143466],[-122.938364,46.143431],[-122.938355,46.143314],[-122.938238,46.14329],[-122.938238,46.14311],[-122.938368,46.14311],[-122.938385,46.14327],[-122.938497,46.14329],[-122.938532,46.143371],[-122.938626,46.14338],[-122.938655,46.143458],[-122.938756,46.14347]]]}},{"type":"Feature","properties":{"id":69,"area_m2":2200,"px":22,"rank":10,"persistent":false},"geometry":{"type":"Polygon","coordinates":[[[-122.937083,46.133929],[-122.937083,46.134109],[-122.936977,46.134125],[-122.936954,46.134199],[-122.936824,46.134199],[-122.936807,46.133948],[-122.936636,46.133929],[-122.936575,46.133957],[-122.936566,46.134018],[-122.936449,46.134042],[-122.936436,46.134198],[-122.936329,46.134214],[-122.936306,46.134288],[-122.935918,46.134288],[-122.935918,46.134198],[-122.936114,46.134197],[-122.936176,46.134155],[-122.936171,46.134052],[-122.936129,46.134022],[-122.936048,46.134018],[-122.936048,46.133928],[-122.936177,46.133928],[-122.936246,46.133952],[-122.936402,46.133919],[-122.936436,46.133839],[-122.936553,46.133815],[-122.936566,46.133749],[-122.936678,46.133729],[-122.936696,46.133659],[-122.936807,46.133639],[-122.936825,46.133569],[-122.936954,46.13357],[-122.936954,46.133659],[-122.936873,46.133663],[-122.936828,46.133697],[-122.936834,46.1339],[-122.936887,46.133928],[-122.937083,46.133929]]]}},{"type":"Feature","properties":{"id":5,"area_m2":1700,"px":17,"rank":11,"persistent":false},"geometry":{"type":"Polygon","coordinates":[[[-122.932799,46.144277],[-122.932799,46.144366],[-122.932669,46.144366],[-122.932666,46.144315],[-122.932628,46.144283],[-122.93241,46.144276],[-122.932376,46.144195],[-122.932222,46.144186],[-122.932161,46.144215],[-122.932151,46.144276],[-122.93204,46.144296],[-122.932022,46.144366],[-122.931763,46.144366],[-122.931763,46.144276],[-122.931872,46.144269],[-122.931912,46.14422],[-122.931875,46.144116],[-122.931763,46.144096],[-122.931763,46.144006],[-122.931798,46.143963],[-122.931764,46.143916],[-122.931764,46.143826],[-122.931893,46.143826],[-122.931906,46.143892],[-122.932022,46.143916],[-122.932045,46.14399],[-122.932205,46.14403],[-122.932382,46.143994],[-122.932411,46.143916],[-122.93254,46.143916],[-122.93254,46.144006],[-122.932459,46.14401],[-122.932414,46.144045],[-122.93242,46.144158],[-122.932473,46.144185],[-122.932669,46.144186],[-122.932692,46.144261],[-122.932799,46.144277]]]}},{"type":"Feature","properties":{"id":79,"area_m2":1600,"px":16,"rank":12,"persistent":false},"geometry":{"type":"Polygon","coordinates":[[[-122.932164,46.131857],[-122.932132,46.131904],[-122.932166,46.131946],[-122.932166,46.132036],[-122.932078,46.132042],[-122.932038,46.132079],[-122.932037,46.132306],[-122.931648,46.132306],[-122.931649,46.131946],[-122.931755,46.13193],[-122.931778,46.131856],[-122.932003,46.131847],[-122.932037,46.131766],[-122.932167,46.131766],[-122.932164,46.131857]]]}},{"type":"Feature","properties":{"id":23,"area_m2":1500,"px":15,"rank":13,"persistent":false},"geometry":{"type":"Polygon","coordinates":[[[-122.928917,46.142114],[-122.928917,46.142294],[-122.928692,46.142303],[-122.928658,46.142384],[-122.928541,46.142408],[-122.928528,46.142474],[-122.928269,46.142474],[-122.92827,46.142294],[-122.928344,46.142291],[-122.92839,46.142265],[-122.928399,46.142114],[-122.928635,46.142098],[-122.928659,46.141934],[-122.928788,46.141934],[-122.928797,46.142086],[-122.928843,46.142112],[-122.928917,46.142114]]]}},{"type":"Feature","properties":{"id":11,"area_m2":1200,"px":12,"rank":14,"persistent":false},"geometry":{"type":"Polygon","coordinates":[[[-122.940439,46.143651],[-122.940439,46.143741],[-122.940242,46.143742],[-122.940181,46.143784],[-122.940193,46.143897],[-122.940309,46.143921],[-122.940309,46.144101],[-122.94005,46.1441],[-122.940041,46.143949],[-122.939995,46.143923],[-122.939921,46.143919],[-122.939921,46.143831],[-122.940002,46.143826],[-122.940047,46.143792],[-122.940051,46.143561],[-122.940309,46.143561],[-122.940332,46.143635],[-122.940439,46.143651]]]}},{"type":"Feature","properties":{"id":59,"area_m2":1200,"px":12,"rank":15,"persistent":false},"geometry":{"type":"Polygon","coordinates":[[[-122.939929,46.13636],[-122.939929,46.13645],[-122.939732,46.136451],[-122.939679,46.136479],[-122.93967,46.13672],[-122.93954,46.13672],[-122.93954,46.136409],[-122.939506,46.136369],[-122.939323,46.136366],[-122.939285,46.136398],[-122.939281,46.13645],[-122.939023,46.13645],[-122.939023,46.13636],[-122.939129,46.136344],[-122.939152,46.13627],[-122.93967,46.13627],[-122.939673,46.136322],[-122.939711,46.136354],[-122.939929,46.13636]]]}},{"type":"Feature","properties":{"id":19,"area_m2":1100,"px":11,"rank":16,"persistent":false},"geometry":{"type":"Polygon","coordinates":[[[-122.938757,46.14257],[-122.938757,46.14275],[-122.938668,46.142756],[-122.938629,46.142793],[-122.938627,46.14302],[-122.938368,46.14302],[-122.938401,46.142871],[-122.938345,46.142765],[-122.938239,46.142749],[-122.938239,46.14266],[-122.938457,46.142653],[-122.938495,46.142621],[-122.938498,46.14257],[-122.938757,46.14257]]]}},{"type":"Feature","properties":{"id":33,"area_m2":1100,"px":11,"rank":17,"persistent":false},"geometry":{"type":"Polygon","coordinates":[[[-122.938626,46.140951],[-122.938595,46.140997],[-122.938629,46.14104],[-122.938629,46.14122],[-122.9385,46.14122],[-122.938494,46.141163],[-122.938444,46.141132],[-122.938241,46.141129],[-122.938241,46.14104],[-122.938322,46.141035],[-122.938367,46.141001],[-122.938369,46.140813],[-122.938329,46.140776],[-122.938241,46.140769],[-122.938213,46.140692],[-122.938112,46.140679],[-122.938112,46.14059],[-122.938241,46.14059],[-122.938247,46.140646],[-122.938296,46.140677],[-122.9385,46.14068],[-122.938503,46.140821],[-122.938548,46.140856],[-122.938629,46.14086],[-122.938626,46.140951]]]}},{"type":"Feature","properties":{"id":41,"area_m2":1100,"px":11,"rank":18,"persistent":false},"geometry":{"type":"Polygon","coordinates":[[[-122.940962,46.138611],[-122.940962,46.138701],[-122.940874,46.138707],[-122.940834,46.138744],[-122.940832,46.139061],[-122.940573,46.139061],[-122.940564,46.138909],[-122.940518,46.138883],[-122.940444,46.138881],[-122.940444,46.138701],[-122.94077,46.1387],[-122.940824,46.138672],[-122.940833,46.138611],[-122.940962,46.138611]]]}},{"type":"Feature","properties":{"id":52,"area_m2":1100,"px":11,"rank":19,"persistent":false},"geometry":{"type":"Polygon","coordinates":[[[-122.942387,46.137532],[-122.942387,46.137622],[-122.942281,46.137637],[-122.942258,46.137712],[-122.941999,46.137711],[-122.941996,46.13766],[-122.941958,46.137628],[-122.94174,46.137621],[-122.94174,46.137441],[-122.942258,46.137442],[-122.942281,46.137516],[-122.942387,46.137532]]]}},{"type":"Feature","properties":{"id":15,"area_m2":1000,"px":10,"rank":20,"persistent":false},"geometry":{"type":"Polygon","coordinates":[[[-122.939274,46.14365],[-122.939273,46.14383],[-122.939056,46.143836],[-122.939018,46.143868],[-122.939014,46.14392],[-122.938755,46.14392],[-122.938756,46.14374],[-122.93883,46.143738],[-122.938876,46.143711],[-122.938885,46.14356],[-122.939015,46.14356],[-122.939021,46.143617],[-122.93907,46.143648],[-122.939274,46.14365]]]}},{"type":"Feature","properties":{"id":30,"area_m2":1000,"px":10,"rank":21,"persistent":false},"geometry":{"type":"Polygon","coordinates":[[[-122.939017,46.1414],[-122.939017,46.14149],[-122.938684,46.141492],[-122.938635,46.141523],[-122.938628,46.14158],[-122.93824,46.141579],[-122.93824,46.14149],[-122.938322,46.141485],[-122.938366,46.141451],[-122.93837,46.14131],[-122.938629,46.14131],[-122.938638,46.141371],[-122.938691,46.141399],[-122.939017,46.1414]]]}},{"type":"Feature","properties":{"id":76,"area_m2":1000,"px":10,"rank":22,"persistent":false},"geometry":{"type":"Polygon","coordinates":[[[-122.941098,46.132761],[-122.941098,46.133031],[-122.941023,46.133033],[-122.940977,46.133059],[-122.940968,46.133211],[-122.940839,46.133211],[-122.940833,46.133154],[-122.940784,46.133123],[-122.94058,46.133121],[-122.94058,46.133031],[-122.940675,46.133028],[-122.940724,46.132996],[-122.94071,46.132851],[-122.940913,46.132849],[-122.940963,46.132818],[-122.940969,46.132761],[-122.941098,46.132761]]]}},{"type":"Feature","properties":{"id":3,"area_m2":900,"px":9,"rank":23,"persistent":false},"geometry":{"type":"Polygon","coordinates":[[[-122.935256,46.144009],[-122.935225,46.144056],[-122.935259,46.144098],[-122.935259,46.144188],[-122.935041,46.144194],[-122.935003,46.144226],[-122.935,46.144278],[-122.934884,46.144302],[-122.93487,46.144368],[-122.934741,46.144368],[-122.934741,46.144278],[-122.934829,46.144271],[-122.934869,46.144234],[-122.934871,46.144008],[-122.934978,46.143992],[-122.935001,46.143918],[-122.935258,46.143918],[-122.935256,46.144009]]]}},{"type":"Feature","properties":{"id":46,"area_m2":900,"px":9,"rank":24,"persistent":false},"geometry":{"type":"Polygon","coordinates":[[[-122.936429,46.13798],[-122.936397,46.138026],[-122.936431,46.138069],[-122.936431,46.138158],[-122.936106,46.138159],[-122.936052,46.138187],[-122.936043,46.138248],[-122.935913,46.138248],[-122.935914,46.138158],[-122.936008,46.138149],[-122.936043,46.138104],[-122.93603,46.138002],[-122.935914,46.137978],[-122.935914,46.137888],[-122.936118,46.137886],[-122.936167,46.137855],[-122.936173,46.137798],[-122.936302,46.137798],[-122.936325,46.137873],[-122.936432,46.137889],[-122.936429,46.13798]]]}},{"type":"Feature","properties":{"id":61,"area_m2":900,"px":9,"rank":25,"persistent":false},"geometry":{"type":"Polygon","coordinates":[[[-122.940188,46.136091],[-122.940188,46.13618],[-122.9398,46.13618],[-122.939791,46.136029],[-122.939745,46.136003],[-122.939671,46.136],[-122.939671,46.13591],[-122.939759,46.135904],[-122.939799,46.135867],[-122.9398,46.13555],[-122.93993,46.13555],[-122.939929,46.13591],[-122.939895,46.135958],[-122.939938,46.136062],[-122.939992,46.136089],[-122.940188,46.136091]]]}},{"type":"Feature","properties":{"id":20,"area_m2":800,"px":8,"rank":26,"persistent":false},"geometry":{"type":"Polygon","coordinates":[[[-122.937074,46.142659],[-122.937073,46.142749],[-122.936971,46.142753],[-122.936927,46.142789],[-122.936944,46.143019],[-122.936814,46.143019],[-122.936813,46.142882],[-122.936752,46.14284],[-122.936603,46.142843],[-122.936561,46.142872],[-122.936555,46.142929],[-122.936426,46.142929],[-122.936426,46.142839],[-122.936533,46.142823],[-122.936556,46.142749],[-122.936672,46.142725],[-122.936685,46.142659],[-122.937074,46.142659]]]}},{"type":"Feature","properties":{"id":43,"area_m2":800,"px":8,"rank":27,"persistent":false},"geometry":{"type":"Polygon","coordinates":[[[-122.928274,46.138514],[-122.928274,46.138964],[-122.928015,46.138963],[-122.928015,46.138874],[-122.92805,46.138831],[-122.928015,46.138783],[-122.928015,46.138604],[-122.928122,46.138588],[-122.928145,46.138514],[-122.928274,46.138514]]]}},{"type":"Feature","properties":{"id":49,"area_m2":800,"px":8,"rank":28,"persistent":false},"geometry":{"type":"Polygon","coordinates":[[[-122.931642,46.137706],[-122.931641,46.137796],[-122.931453,46.137796],[-122.9314,46.137815],[-122.931382,46.137976],[-122.931276,46.137991],[-122.931253,46.138065],[-122.931136,46.138089],[-122.931123,46.138155],[-122.930994,46.138155],[-122.930994,46.138065],[-122.931089,46.138056],[-122.931124,46.137975],[-122.931205,46.137971],[-122.93125,46.137937],[-122.931253,46.137796],[-122.931288,46.137753],[-122.931253,46.137705],[-122.931253,46.137616],[-122.931512,46.137616],[-122.931535,46.13769],[-122.931642,46.137706]]]}},{"type":"Feature","properties":{"id":68,"area_m2":800,"px":8,"rank":29,"persistent":false},"geometry":{"type":"Polygon","coordinates":[[[-122.933067,46.134108],[-122.933035,46.134154],[-122.93307,46.134197],[-122.93307,46.134376],[-122.93294,46.134376],[-122.932918,46.134302],[-122.932811,46.134286],[-122.932812,46.133836],[-122.932941,46.133837],[-122.932944,46.133978],[-122.932989,46.134012],[-122.93307,46.134017],[-122.933067,46.134108]]]}},{"type":"Feature","properties":{"id":10,"area_m2":700,"px":7,"rank":30,"persistent":false},"geometry":{"type":"Polygon","coordinates":[[[-122.938626,46.1441],[-122.938626,46.14419],[-122.938519,46.144206],[-122.938496,46.14428],[-122.938237,46.14428],[-122.938238,46.14392],[-122.938367,46.14392],[-122.938367,46.144051],[-122.938401,46.144091],[-122.938626,46.1441]]]}},{"type":"Feature","properties":{"id":35,"area_m2":700,"px":7,"rank":31,"persistent":false},"geometry":{"type":"Polygon","coordinates":[[[-122.933969,46.139957],[-122.933969,46.140137],[-122.933581,46.140137],[-122.933581,46.139957],[-122.933688,46.139941],[-122.933711,46.139867],[-122.93384,46.139867],[-122.933863,46.139941],[-122.933969,46.139957]]]}},{"type":"Feature","properties":{"id":40,"area_m2":700,"px":7,"rank":32,"persistent":false},"geometry":{"type":"Polygon","coordinates":[[[-122.940703,46.139241],[-122.940702,46.139421],[-122.940314,46.139421],[-122.940291,46.139346],[-122.940185,46.13933],[-122.940185,46.139241],[-122.940703,46.139241]]]}},{"type":"Feature","properties":{"id":47,"area_m2":700,"px":7,"rank":33,"persistent":false},"geometry":{"type":"Polygon","coordinates":[[[-122.932677,46.137976],[-122.932677,46.138246],[-122.932418,46.138246],[-122.932418,46.137886],[-122.932548,46.137886],[-122.93257,46.13796],[-122.932677,46.137976]]]}},{"type":"Feature","properties":{"id":48,"area_m2":700,"px":7,"rank":34,"persistent":false},"geometry":{"type":"Polygon","coordinates":[[[-122.943811,46.137622],[-122.943811,46.137892],[-122.943699,46.137912],[-122.943662,46.138016],[-122.943702,46.138066],[-122.943811,46.138072],[-122.943811,46.138162],[-122.943552,46.138162],[-122.943529,46.138088],[-122.943423,46.138072],[-122.943423,46.137982],[-122.943518,46.137973],[-122.943552,46.137892],[-122.943627,46.13789],[-122.943673,46.137864],[-122.943682,46.137622],[-122.943811,46.137622]]]}},{"type":"Feature","properties":{"id":53,"area_m2":700,"px":7,"rank":35,"persistent":false},"geometry":{"type":"Polygon","coordinates":[[[-122.944197,46.137354],[-122.944166,46.1374],[-122.9442,46.137443],[-122.9442,46.137532],[-122.944093,46.137548],[-122.94407,46.137622],[-122.943941,46.137622],[-122.943918,46.137548],[-122.943812,46.137532],[-122.943812,46.137352],[-122.944016,46.13735],[-122.944065,46.137319],[-122.944071,46.137263],[-122.944198,46.137263],[-122.944197,46.137354]]]}},{"type":"Feature","properties":{"id":58,"area_m2":700,"px":7,"rank":36,"persistent":false},"geometry":{"type":"Polygon","coordinates":[[[-122.931513,46.136716],[-122.931513,46.136896],[-122.931125,46.136895],[-122.931125,46.136805],[-122.93116,46.136763],[-122.931125,46.136715],[-122.931125,46.136625],[-122.931384,46.136626],[-122.931407,46.1367],[-122.931513,46.136716]]]}},{"type":"Feature","properties":{"id":65,"area_m2":700,"px":7,"rank":37,"persistent":false},"geometry":{"type":"Polygon","coordinates":[[[-122.932422,46.134556],[-122.932422,46.134646],[-122.932341,46.13465],[-122.932296,46.134684],[-122.932292,46.134826],[-122.932034,46.134826],[-122.932011,46.134752],[-122.931904,46.134736],[-122.931904,46.134646],[-122.932122,46.13464],[-122.93216,46.134608],[-122.932163,46.134556],[-122.932422,46.134556]]]}},{"type":"Feature","properties":{"id":66,"area_m2":700,"px":7,"rank":38,"persistent":false},"geometry":{"type":"Polygon","coordinates":[[[-122.936565,46.134469],[-122.936565,46.134648],[-122.936177,46.134648],[-122.936177,46.134378],[-122.936306,46.134378],[-122.936312,46.134435],[-122.936361,46.134466],[-122.936565,46.134469]]]}},{"type":"Feature","properties":{"id":18,"area_m2":600,"px":6,"rank":39,"persistent":false},"geometry":{"type":"Polygon","coordinates":[[[-122.933059,46.143017],[-122.933059,46.143197],[-122.9328,46.143196],[-122.932801,46.142837],[-122.93293,46.142837],[-122.932939,46.142988],[-122.932985,46.143014],[-122.933059,46.143017]]]}},{"type":"Feature","properties":{"id":22,"area_m2":600,"px":6,"rank":40,"persistent":false},"geometry":{"type":"Polygon","coordinates":[[[-122.938368,46.14248],[-122.938368,46.14257],[-122.937913,46.14257],[-122.93786,46.142598],[-122.93785,46.142659],[-122.937721,46.142659],[-122.937721,46.142479],[-122.938368,46.14248]]]}},{"type":"Feature","properties":{"id":25,"area_m2":600,"px":6,"rank":41,"persistent":false},"geometry":{"type":"Polygon","coordinates":[[[-122.939276,46.14185],[-122.939275,46.14203],[-122.939169,46.142046],[-122.939146,46.14212],[-122.939016,46.14212],[-122.939049,46.141972],[-122.938994,46.141866],[-122.938887,46.14185],[-122.938887,46.14176],[-122.939146,46.14176],[-122.939169,46.141834],[-122.939276,46.14185]]]}},{"type":"Feature","properties":{"id":31,"area_m2":600,"px":6,"rank":42,"persistent":false},"geometry":{"type":"Polygon","coordinates":[[[-122.943808,46.141222],[-122.943808,46.141402],[-122.943678,46.141402],[-122.943617,46.141378],[-122.943549,46.141402],[-122.94329,46.141402],[-122.94329,46.141312],[-122.943397,46.141296],[-122.94342,46.141222],[-122.943536,46.141198],[-122.943549,46.141132],[-122.943678,46.141132],[-122.943701,46.141207],[-122.943808,46.141222]]]}},{"type":"Feature","properties":{"id":36,"area_m2":600,"px":6,"rank":43,"persistent":false},"geometry":{"type":"Polygon","coordinates":[[[-122.943421,46.139692],[-122.943421,46.140052],[-122.943032,46.140052],[-122.943032,46.139962],[-122.943229,46.139961],[-122.943282,46.139934],[-122.943292,46.139692],[-122.943421,46.139692]]]}},{"type":"Feature","properties":{"id":9,"area_m2":500,"px":5,"rank":44,"persistent":false},"geometry":{"type":"Polygon","coordinates":[[[-122.940956,46.144101],[-122.940956,46.144191],[-122.94085,46.144207],[-122.940827,46.144281],[-122.940697,46.144281],[-122.940691,46.144224],[-122.940642,46.144193],[-122.940438,46.144191],[-122.940439,46.144101],[-122.940956,46.144101]]]}},{"type":"Feature","properties":{"id":17,"area_m2":500,"px":5,"rank":45,"persistent":false},"geometry":{"type":"Polygon","coordinates":[[[-122.932929,46.143287],[-122.932929,46.143467],[-122.932725,46.143469],[-122.932676,46.1435],[-122.93267,46.143556],[-122.932541,46.143556],[-122.932541,46.143466],[-122.932622,46.143462],[-122.932667,46.143428],[-122.932671,46.143286],[-122.932929,46.143287]]]}},{"type":"Feature","properties":{"id":26,"area_m2":500,"px":5,"rank":46,"persistent":false},"geometry":{"type":"Polygon","coordinates":[[[-122.938496,46.141761],[-122.938464,46.141807],[-122.938499,46.14185],[-122.938499,46.14194],[-122.93824,46.141939],[-122.93824,46.14167],[-122.938499,46.14167],[-122.938496,46.141761]]]}},{"type":"Feature","properties":{"id":34,"area_m2":500,"px":5,"rank":47,"persistent":false},"geometry":{"type":"Polygon","coordinates":[[[-122.945621,46.140503],[-122.945621,46.140593],[-122.94554,46.140597],[-122.945495,46.140632],[-122.945491,46.140773],[-122.945362,46.140773],[-122.945361,46.140547],[-122.945321,46.14051],[-122.945233,46.140503],[-122.945233,46.140413],[-122.945362,46.140413],[-122.945368,46.14047],[-122.945417,46.140501],[-122.945621,46.140503]]]}},{"type":"Feature","properties":{"id":50,"area_m2":500,"px":5,"rank":48,"persistent":false},"geometry":{"type":"Polygon","coordinates":[[[-122.930864,46.137975],[-122.930864,46.138155],[-122.930735,46.138155],[-122.930674,46.138131],[-122.930605,46.138155],[-122.930476,46.138155],[-122.930476,46.137975],[-122.930864,46.137975]]]}},{"type":"Feature","properties":{"id":54,"area_m2":500,"px":5,"rank":49,"persistent":false},"geometry":{"type":"Polygon","coordinates":[[[-122.928923,46.137254],[-122.928923,46.137344],[-122.928842,46.137348],[-122.928797,46.137382],[-122.928794,46.137524],[-122.928664,46.137524],[-122.928641,46.13745],[-122.928535,46.137434],[-122.928535,46.137344],[-122.928642,46.137328],[-122.928665,46.137254],[-122.928923,46.137254]]]}},{"type":"Feature","properties":{"id":63,"area_m2":500,"px":5,"rank":50,"persistent":false},"geometry":{"type":"Polygon","coordinates":[[[-122.940578,46.134921],[-122.940578,46.135011],[-122.94023,46.135017],[-122.940191,46.135054],[-122.940189,46.13519],[-122.94006,46.13519],[-122.94006,46.13501],[-122.940167,46.134995],[-122.94019,46.134921],[-122.940578,46.134921]]]}},{"type":"Feature","properties":{"id":67,"area_m2":500,"px":5,"rank":51,"persistent":false},"geometry":{"type":"Polygon","coordinates":[[[-122.932552,46.134196],[-122.932552,46.134466],[-122.932293,46.134466],[-122.932293,46.134286],[-122.9324,46.13427],[-122.932423,46.134196],[-122.932552,46.134196]]]}},{"type":"Feature","properties":{"id":1,"area_m2":400,"px":4,"rank":52,"persistent":false},"geometry":{"type":"Polygon","coordinates":[[[-122.939273,46.14428],[-122.939273,46.14437],[-122.939143,46.14437],[-122.939138,46.144313],[-122.939088,46.144282],[-122.938755,46.14428],[-122.938755,46.14419],[-122.939143,46.14419],[-122.939166,46.144264],[-122.939273,46.14428]]]}},{"type":"Feature","properties":{"id":7,"area_m2":400,"px":4,"rank":53,"persistent":false},"geometry":{"type":"Polygon","coordinates":[[[-122.929173,46.144184],[-122.929173,46.144274],[-122.929067,46.14429],[-122.929044,46.144364],[-122.928914,46.144364],[-122.928915,46.144094],[-122.929044,46.144094],[-122.929067,46.144168],[-122.929173,46.144184]]]}},{"type":"Feature","properties":{"id":28,"area_m2":400,"px":4,"rank":54,"persistent":false},"geometry":{"type":"Polygon","coordinates":[[[-122.937592,46.141759],[-122.937592,46.141849],[-122.937486,46.141865],[-122.937463,46.141939],[-122.937074,46.141939],[-122.937075,46.141849],[-122.9374,46.141848],[-122.937454,46.141821],[-122.937463,46.141759],[-122.937592,46.141759]]]}},{"type":"Feature","properties":{"id":32,"area_m2":400,"px":4,"rank":55,"persistent":false},"geometry":{"type":"Polygon","coordinates":[[[-122.940441,46.141221],[-122.940441,46.141311],[-122.940183,46.141311],[-122.94016,46.141236],[-122.940053,46.14122],[-122.940053,46.141131],[-122.940312,46.141131],[-122.940335,46.141205],[-122.940441,46.141221]]]}},{"type":"Feature","properties":{"id":37,"area_m2":400,"px":4,"rank":56,"persistent":false},"geometry":{"type":"Polygon","coordinates":[[[-122.940184,46.139781],[-122.940184,46.13996],[-122.939925,46.13996],[-122.939925,46.13978],[-122.940184,46.139781]]]}},{"type":"Feature","properties":{"id":39,"area_m2":400,"px":4,"rank":57,"persistent":false},"geometry":{"type":"Polygon","coordinates":[[[-122.931251,46.139506],[-122.931251,46.139595],[-122.930992,46.139595],[-122.930931,46.139571],[-122.930862,46.139595],[-122.930733,46.139595],[-122.930733,46.139505],[-122.93084,46.139489],[-122.930863,46.139415],[-122.930992,46.139415],[-122.930998,46.139472],[-122.931047,46.139503],[-122.931251,46.139506]]]}},{"type":"Feature","properties":{"id":55,"area_m2":400,"px":4,"rank":58,"persistent":false},"geometry":{"type":"Polygon","coordinates":[[[-122.942,46.136902],[-122.941999,46.137261],[-122.94187,46.137261],[-122.94187,46.136901],[-122.942,46.136902]]]}},{"type":"Feature","properties":{"id":64,"area_m2":400,"px":4,"rank":59,"persistent":false},"geometry":{"type":"Polygon","coordinates":[[[-122.932939,46.135007],[-122.932939,46.135096],[-122.932551,46.135096],[-122.932528,46.135022],[-122.932422,46.135006],[-122.932422,46.134916],[-122.932551,46.134916],[-122.93256,46.134978],[-122.932614,46.135005],[-122.932939,46.135007]]]}},{"type":"Feature","properties":{"id":70,"area_m2":400,"px":4,"rank":60,"persistent":false},"geometry":{"type":"Polygon","coordinates":[[[-122.932682,46.133746],[-122.932682,46.133836],[-122.932478,46.133839],[-122.932429,46.133869],[-122.932423,46.133926],[-122.932294,46.133926],[-122.932294,46.133746],[-122.932682,46.133746]]]}},{"type":"Feature","properties":{"id":73,"area_m2":400,"px":4,"rank":61,"persistent":false},"geometry":{"type":"Polygon","coordinates":[[[-122.939285,46.13321],[-122.939285,46.1333],[-122.939203,46.133304],[-122.939159,46.133338],[-122.939155,46.13348],[-122.939026,46.13348],[-122.939026,46.13321],[-122.939285,46.13321]]]}},{"type":"Feature","properties":{"id":74,"area_m2":400,"px":4,"rank":62,"persistent":false},"geometry":{"type":"Polygon","coordinates":[[[-122.938249,46.133389],[-122.938249,46.133479],[-122.93799,46.133479],[-122.937968,46.133405],[-122.937861,46.133389],[-122.937861,46.133209],[-122.93799,46.133209],[-122.937991,46.133341],[-122.938025,46.13338],[-122.938249,46.133389]]]}},{"type":"Feature","properties":{"id":8,"area_m2":300,"px":3,"rank":63,"persistent":false},"geometry":{"type":"Polygon","coordinates":[[[-122.928785,46.144274],[-122.928785,46.144364],[-122.928396,46.144364],[-122.928397,46.144274],[-122.928785,46.144274]]]}},{"type":"Feature","properties":{"id":2,"area_m2":300,"px":3,"rank":64,"persistent":false},"geometry":{"type":"Polygon","coordinates":[[[-122.93759,46.144099],[-122.937589,46.144369],[-122.93746,46.144369],[-122.93746,46.144099],[-122.93759,46.144099]]]}},{"type":"Feature","properties":{"id":4,"area_m2":300,"px":3,"rank":65,"persistent":false},"geometry":{"type":"Polygon","coordinates":[[[-122.934482,46.144098],[-122.934482,46.144367],[-122.934353,46.144367],[-122.934353,46.144097],[-122.934482,46.144098]]]}},{"type":"Feature","properties":{"id":21,"area_m2":300,"px":3,"rank":66,"persistent":false},"geometry":{"type":"Polygon","coordinates":[[[-122.93552,46.142568],[-122.93552,46.142838],[-122.93539,46.142838],[-122.935391,46.142568],[-122.93552,46.142568]]]}},{"type":"Feature","properties":{"id":24,"area_m2":300,"px":3,"rank":67,"persistent":false},"geometry":{"type":"Polygon","coordinates":[[[-122.936038,46.142208],[-122.936038,46.142298],[-122.935779,46.142298],[-122.935757,46.142224],[-122.93565,46.142208],[-122.93565,46.142118],[-122.935779,46.142118],[-122.935785,46.142175],[-122.935834,46.142206],[-122.936038,46.142208]]]}},{"type":"Feature","properties":{"id":27,"area_m2":300,"px":3,"rank":68,"persistent":false},"geometry":{"type":"Polygon","coordinates":[[[-122.937981,46.141759],[-122.937981,46.141939],[-122.937851,46.141939],[-122.937829,46.141865],[-122.937722,46.141849],[-122.937722,46.141759],[-122.937981,46.141759]]]}},{"type":"Feature","properties":{"id":29,"area_m2":300,"px":3,"rank":69,"persistent":false},"geometry":{"type":"Polygon","coordinates":[[[-122.937204,46.141399],[-122.937204,46.141489],[-122.937123,46.141493],[-122.937078,46.141527],[-122.937075,46.141669],[-122.936945,46.141669],[-122.936946,46.141489],[-122.937052,46.141473],[-122.937075,46.141399],[-122.937204,46.141399]]]}},{"type":"Feature","properties":{"id":38,"area_m2":300,"px":3,"rank":70,"persistent":false},"geometry":{"type":"Polygon","coordinates":[[[-122.940702,46.139511],[-122.940702,46.139781],[-122.940573,46.139781],[-122.940573,46.139511],[-122.940702,46.139511]]]}},{"type":"Feature","properties":{"id":42,"area_m2":300,"px":3,"rank":71,"persistent":false},"geometry":{"type":"Polygon","coordinates":[[[-122.940056,46.138701],[-122.940056,46.13897],[-122.939926,46.13897],[-122.939927,46.1387],[-122.940056,46.138701]]]}},{"type":"Feature","properties":{"id":44,"area_m2":300,"px":3,"rank":72,"persistent":false},"geometry":{"type":"Polygon","coordinates":[[[-122.937467,46.138609],[-122.937466,46.138699],[-122.937263,46.138701],[-122.937213,46.138732],[-122.937207,46.138789],[-122.937078,46.138789],[-122.937078,46.138699],[-122.937185,46.138683],[-122.937208,46.138609],[-122.937467,46.138609]]]}},{"type":"Feature","properties":{"id":51,"area_m2":300,"px":3,"rank":73,"persistent":false},"geometry":{"type":"Polygon","coordinates":[[[-122.9442,46.137713],[-122.9442,46.137802],[-122.944118,46.137807],[-122.944074,46.137841],[-122.94407,46.137982],[-122.943941,46.137982],[-122.943941,46.137802],[-122.944048,46.137787],[-122.944071,46.137713],[-122.9442,46.137713]]]}},{"type":"Feature","properties":{"id":57,"area_m2":300,"px":3,"rank":74,"persistent":false},"geometry":{"type":"Polygon","coordinates":[[[-122.942517,46.137082],[-122.942517,46.137172],[-122.942259,46.137172],[-122.942236,46.137097],[-122.942129,46.137081],[-122.942129,46.136992],[-122.942259,46.136992],[-122.942264,46.137048],[-122.942314,46.137079],[-122.942517,46.137082]]]}},{"type":"Feature","properties":{"id":62,"area_m2":300,"px":3,"rank":75,"persistent":false},"geometry":{"type":"Polygon","coordinates":[[[-122.93022,46.135725],[-122.93022,46.135815],[-122.930138,46.135819],[-122.930094,46.135853],[-122.93009,46.135995],[-122.929961,46.135995],[-122.929961,46.135815],[-122.930068,46.135799],[-122.930091,46.135725],[-122.93022,46.135725]]]}},{"type":"Feature","properties":{"id":72,"area_m2":300,"px":3,"rank":76,"persistent":false},"geometry":{"type":"Polygon","coordinates":[[[-122.931258,46.133566],[-122.931258,46.133655],[-122.93087,46.133655],[-122.93087,46.133565],[-122.931258,46.133566]]]}},{"type":"Feature","properties":{"id":71,"area_m2":300,"px":3,"rank":77,"persistent":false},"geometry":{"type":"Polygon","coordinates":[[[-122.932812,46.133566],[-122.932812,46.133656],[-122.932553,46.133656],[-122.932553,46.133476],[-122.932682,46.133476],[-122.932705,46.13355],[-122.932812,46.133566]]]}},{"type":"Feature","properties":{"id":75,"area_m2":300,"px":3,"rank":78,"persistent":false},"geometry":{"type":"Polygon","coordinates":[[[-122.941486,46.133121],[-122.941486,46.133211],[-122.941379,46.133227],[-122.941356,46.133301],[-122.941227,46.133301],[-122.941227,46.133121],[-122.941486,46.133121]]]}},{"type":"Feature","properties":{"id":77,"area_m2":300,"px":3,"rank":79,"persistent":false},"geometry":{"type":"Polygon","coordinates":[[[-122.939674,46.13294],[-122.939673,46.13312],[-122.939415,46.13312],[-122.939415,46.13303],[-122.939521,46.133014],[-122.939544,46.13294],[-122.939674,46.13294]]]}}]}