{"type":"FeatureCollection","features":[{"type":"Feature","properties":{"id":40,"area_m2":62400,"px":624,"rank":1,"persistent":false},"geometry":{"type":"Polygon","coordinates":[[[-122.969327,46.118372],[-122.969327,46.118462],[-122.969198,46.118462],[-122.969129,46.118438],[-122.969068,46.118462],[-122.968877,46.118448],[-122.968822,46.118472],[-122.968809,46.118732],[-122.968707,46.118736],[-122.968663,46.118771],[-122.96868,46.119092],[-122.968598,46.119096],[-122.968554,46.11913],[-122.96855,46.119361],[-122.968462,46.119368],[-122.968422,46.119405],[-122.96842,46.119631],[-122.968314,46.119647],[-122.968291,46.119721],[-122.968175,46.119745],[-122.968161,46.119811],[-122.967903,46.119811],[-122.96789,46.119745],[-122.967773,46.119721],[-122.967739,46.11964],[-122.967515,46.119631],[-122.967497,46.119561],[-122.967385,46.119541],[-122.967368,46.119471],[-122.967256,46.119451],[-122.967243,46.119385],[-122.967126,46.119361],[-122.967123,46.119309],[-122.967085,46.119278],[-122.966936,46.119247],[-122.966868,46.119271],[-122.966738,46.119271],[-122.96671,46.119193],[-122.966555,46.119157],[-122.966479,46.119181],[-122.966091,46.119181],[-122.966068,46.119107],[-122.965962,46.119091],[-122.965944,46.119021],[-122.965832,46.119001],[-122.965798,46.11892],[-122.965703,46.118911],[-122.965675,46.118833],[-122.965574,46.118821],[-122.965545,46.118743],[-122.965444,46.118731],[-122.965416,46.118653],[-122.965315,46.118641],[-122.965287,46.118563],[-122.965186,46.118551],[-122.965186,46.118461],[-122.96522,46.118408],[-122.965168,46.1183],[-122.965056,46.11828],[-122.965047,46.118039],[-122.964994,46.118012],[-122.964798,46.11801],[-122.964775,46.117936],[-122.964668,46.11792],[-122.964651,46.11785],[-122.964539,46.11783],[-122.964504,46.117749],[-122.96441,46.11774],[-122.964381,46.117663],[-122.96428,46.11765],[-122.96428,46.11747],[-122.964375,46.117461],[-122.96441,46.11738],[-122.964526,46.117356],[-122.964539,46.1172],[-122.96488,46.117196],[-122.964926,46.117157],[-122.964928,46.117021],[-122.965126,46.117033],[-122.965181,46.117001],[-122.965187,46.116931],[-122.96537,46.116944],[-122.965424,46.116928],[-122.965446,46.116751],[-122.965562,46.116727],[-122.965575,46.116571],[-122.965682,46.116555],[-122.965705,46.116481],[-122.966093,46.116481],[-122.966121,46.116559],[-122.966351,46.116571],[-122.966374,46.116645],[-122.966481,46.116661],[-122.966499,46.116731],[-122.96661,46.116751],[-122.966645,46.116832],[-122.96674,46.116841],[-122.966768,46.116919],[-122.966869,46.116931],[-122.966875,46.117078],[-122.966917,46.117107],[-122.966998,46.117111],[-122.967027,46.117189],[-122.967257,46.117201],[-122.967263,46.117271],[-122.96731,46.117302],[-122.967516,46.117291],[-122.967533,46.117361],[-122.967645,46.117381],[-122.96768,46.117462],[-122.967775,46.117471],[-122.967803,46.117549],[-122.967904,46.117561],[-122.967932,46.117639],[-122.968033,46.117651],[-122.968062,46.117729],[-122.968163,46.117741],[-122.968191,46.117819],[-122.968353,46.117856],[-122.968422,46.117832],[-122.968551,46.117832],[-122.968574,46.117906],[-122.96868,46.117922],[-122.968703,46.118086],[-122.96881,46.118102],[-122.968815,46.118158],[-122.968865,46.118189],[-122.969,46.118216],[-122.969068,46.118192],[-122.969198,46.118192],[-122.969207,46.118343],[-122.969253,46.118369],[-122.969327,46.118372]],[[-122.96648,46.118641],[-122.966476,46.118589],[-122.966439,46.118557],[-122.966262,46.118557],[-122.966224,46.118589],[-122.966221,46.118641],[-122.966105,46.118665],[-122.966091,46.118731],[-122.965903,46.118731],[-122.96585,46.118751],[-122.965842,46.118882],[-122.965895,46.11891],[-122.966091,46.118911],[-122.966152,46.118935],[-122.966221,46.118911],[-122.966439,46.118905],[-122.966476,46.118873],[-122.96648,46.118821],[-122.966568,46.118815],[-122.966609,46.118772],[-122.966596,46.118665],[-122.96648,46.118641]],[[-122.968438,46.118242],[-122.968415,46.118045],[-122.968373,46.118016],[-122.968292,46.118011],[-122.968258,46.117931],[-122.967815,46.117928],[-122.967778,46.11796],[-122.967774,46.118011],[-122.967693,46.118015],[-122.967648,46.11805],[-122.967645,46.118281],[-122.96755,46.11829],[-122.967515,46.118371],[-122.967399,46.118395],[-122.967375,46.118562],[-122.967209,46.118537],[-122.967144,46.118558],[-122.967115,46.118701],[-122.967169,46.11873],[-122.967323,46.11873],[-122.967376,46.118703],[-122.967397,46.11863],[-122.967576,46.118665],[-122.967733,46.118635],[-122.967771,46.118603],[-122.967774,46.118551],[-122.967869,46.118542],[-122.967904,46.118461],[-122.967978,46.118459],[-122.968024,46.118433],[-122.968033,46.118281],[-122.968387,46.118279],[-122.968438,46.118242]]]}},{"type":"Feature","properties":{"id":11,"area_m2":20700,"px":207,"rank":2,"persistent":true},"geometry":{"type":"Polygon","coordinates":[[[-122.981619,46.126475],[-122.981619,46.126564],[-122.981531,46.126571],[-122.98149,46.126613],[-122.98149,46.127194],[-122.981265,46.127204],[-122.981196,46.127327],[-122.981231,46.127375],[-122.981253,46.127552],[-122.981306,46.127568],[-122.981619,46.127555],[-122.981619,46.127644],[-122.981383,46.12766],[-122.98136,46.127824],[-122.981231,46.127824],[-122.981225,46.127768],[-122.981176,46.127737],[-122.981006,46.127744],[-122.980972,46.127783],[-122.980972,46.127914],[-122.980325,46.127914],[-122.980302,46.12784],[-122.980195,46.127824],[-122.980182,46.127668],[-122.980066,46.127644],[-122.980031,46.127563],[-122.979936,46.127554],[-122.979927,46.127403],[-122.979881,46.127377],[-122.979807,46.127374],[-122.979807,46.127194],[-122.979895,46.127188],[-122.979936,46.127146],[-122.979923,46.127038],[-122.979807,46.127014],[-122.979807,46.126836],[-122.979896,46.126828],[-122.979936,46.126786],[-122.979937,46.126114],[-122.980044,46.126098],[-122.980066,46.126024],[-122.980584,46.126024],[-122.980602,46.126095],[-122.980713,46.126114],[-122.980748,46.126195],[-122.980843,46.126204],[-122.980866,46.126279],[-122.981102,46.126295],[-122.981115,46.12636],[-122.981231,46.126385],[-122.981266,46.126465],[-122.981619,46.126475]]]}},{"type":"Feature","properties":{"id":33,"area_m2":7300,"px":73,"rank":3,"persistent":false},"geometry":{"type":"Polygon","coordinates":[[[-122.976184,46.122784],[-122.976184,46.122963],[-122.975796,46.122963],[-122.975779,46.122893],[-122.975667,46.122873],[-122.975658,46.122812],[-122.975597,46.122784],[-122.975442,46.122792],[-122.975408,46.122873],[-122.975279,46.122873],[-122.97527,46.122798],[-122.975203,46.122769],[-122.974898,46.122796],[-122.974871,46.122834],[-122.97489,46.122963],[-122.974631,46.122963],[-122.974609,46.122889],[-122.974502,46.122873],[-122.974502,46.122742],[-122.974474,46.122705],[-122.973984,46.122693],[-122.973962,46.122619],[-122.973855,46.122603],[-122.973855,46.122513],[-122.973971,46.122489],[-122.973985,46.122333],[-122.974091,46.122317],[-122.974114,46.122243],[-122.974502,46.122243],[-122.974506,46.122295],[-122.974543,46.122327],[-122.97489,46.122333],[-122.974919,46.122411],[-122.975074,46.122437],[-122.97514,46.122408],[-122.975149,46.122333],[-122.97538,46.122321],[-122.975408,46.122243],[-122.975667,46.122243],[-122.975667,46.122333],[-122.975632,46.122381],[-122.975667,46.122423],[-122.97568,46.122579],[-122.975796,46.122603],[-122.9758,46.122655],[-122.975837,46.122687],[-122.976055,46.122693],[-122.976078,46.122768],[-122.976184,46.122784]]]}},{"type":"Feature","properties":{"id":30,"area_m2":5000,"px":50,"rank":4,"persistent":false},"geometry":{"type":"Polygon","coordinates":[[[-122.967513,46.122691],[-122.967513,46.122781],[-122.967431,46.122785],[-122.967387,46.12282],[-122.967383,46.122961],[-122.967288,46.12297],[-122.967254,46.123015],[-122.967271,46.123122],[-122.967383,46.123141],[-122.967417,46.123222],[-122.967512,46.123231],[-122.967512,46.123321],[-122.967406,46.123337],[-122.967383,46.123411],[-122.967266,46.123435],[-122.967253,46.123501],[-122.966995,46.123501],[-122.966933,46.123477],[-122.966865,46.123501],[-122.966606,46.123501],[-122.966584,46.123337],[-122.966348,46.123321],[-122.966348,46.123231],[-122.966442,46.123222],[-122.966477,46.123141],[-122.966551,46.123139],[-122.966597,46.123113],[-122.966607,46.122961],[-122.966713,46.122945],[-122.966736,46.122871],[-122.966972,46.122855],[-122.966995,46.122691],[-122.967102,46.122675],[-122.967125,46.122601],[-122.967383,46.122601],[-122.967406,46.122675],[-122.967513,46.122691]]]}},{"type":"Feature","properties":{"id":51,"area_m2":4300,"px":43,"rank":5,"persistent":false},"geometry":{"type":"Polygon","coordinates":[[[-122.959234,46.116209],[-122.959233,46.116659],[-122.959159,46.116661],[-122.959113,46.116687],[-122.959104,46.116838],[-122.958716,46.116838],[-122.958681,46.116757],[-122.958457,46.116748],[-122.958434,46.116674],[-122.958328,46.116658],[-122.958328,46.116208],[-122.959234,46.116209]]]}},{"type":"Feature","properties":{"id":18,"area_m2":4000,"px":40,"rank":6,"persistent":false},"geometry":{"type":"Polygon","coordinates":[[[-122.974759,46.126743],[-122.974759,46.126833],[-122.974657,46.126837],[-122.974612,46.126873],[-122.974629,46.127103],[-122.974371,46.127103],[-122.974353,46.127033],[-122.974241,46.127013],[-122.974207,46.126932],[-122.974112,46.126923],[-122.974083,46.126845],[-122.973982,46.126833],[-122.973954,46.126755],[-122.973853,46.126743],[-122.973825,46.126665],[-122.973724,46.126653],[-122.973695,46.126575],[-122.973594,46.126563],[-122.973566,46.126485],[-122.973335,46.126473],[-122.973313,46.126399],[-122.973206,46.126383],[-122.973171,46.126302],[-122.973077,46.126293],[-122.973077,46.126023],[-122.973206,46.126023],[-122.973212,46.12608],[-122.973261,46.126111],[-122.973465,46.126113],[-122.973488,46.126187],[-122.973594,46.126203],[-122.973612,46.126363],[-122.973664,46.126383],[-122.973853,46.126383],[-122.973866,46.126449],[-122.973982,46.126473],[-122.974017,46.126554],[-122.974173,46.126587],[-122.974241,46.126563],[-122.9745,46.126563],[-122.97448,46.126687],[-122.974502,46.126727],[-122.974759,46.126743]]]}},{"type":"Feature","properties":{"id":46,"area_m2":3000,"px":30,"rank":7,"persistent":false},"geometry":{"type":"Polygon","coordinates":[[[-122.959363,46.117109],[-122.959362,46.117829],[-122.959233,46.117829],[-122.959172,46.117804],[-122.959103,46.117828],[-122.958974,46.117828],[-122.958913,46.117804],[-122.958844,46.117828],[-122.958715,46.117828],[-122.958715,46.117738],[-122.958803,46.117732],[-122.958844,46.11769],[-122.958832,46.117582],[-122.958715,46.117558],[-122.958715,46.11738],[-122.95879,46.117376],[-122.958836,46.11735],[-122.958845,46.117199],[-122.959171,46.117198],[-122.959224,46.11717],[-122.959233,46.117109],[-122.959363,46.117109]]]}},{"type":"Feature","properties":{"id":54,"area_m2":3000,"px":30,"rank":8,"persistent":false},"geometry":{"type":"Polygon","coordinates":[[[-122.957552,46.114948],[-122.957552,46.115038],[-122.957471,46.115042],[-122.957426,46.115076],[-122.957423,46.115218],[-122.957205,46.115224],[-122.957167,46.115256],[-122.957164,46.115308],[-122.956933,46.11532],[-122.956905,46.115398],[-122.956776,46.115398],[-122.956763,46.115242],[-122.956646,46.115218],[-122.956612,46.115137],[-122.956517,46.115127],[-122.956517,46.115038],[-122.956624,46.115022],[-122.956647,46.114948],[-122.956864,46.114941],[-122.956902,46.114909],[-122.956906,46.114858],[-122.957136,46.114846],[-122.957164,46.114768],[-122.957423,46.114768],[-122.957432,46.114919],[-122.957478,46.114946],[-122.957552,46.114948]]]}},{"type":"Feature","properties":{"id":10,"area_m2":2500,"px":25,"rank":9,"persistent":false},"geometry":{"type":"Polygon","coordinates":[[[-122.976182,46.127914],[-122.976182,46.128003],[-122.975665,46.128003],[-122.975647,46.127843],[-122.975595,46.127824],[-122.975406,46.127823],[-122.975383,46.127749],[-122.975276,46.127733],[-122.975259,46.127573],[-122.975206,46.127554],[-122.975018,46.127553],[-122.974995,46.127479],[-122.974888,46.127463],[-122.974888,46.127373],[-122.975092,46.127371],[-122.975141,46.12734],[-122.975147,46.127283],[-122.975276,46.127283],[-122.975299,46.127358],[-122.975406,46.127373],[-122.975428,46.127551],[-122.975481,46.127567],[-122.975665,46.127553],[-122.975668,46.127605],[-122.975706,46.127637],[-122.975924,46.127644],[-122.975937,46.127889],[-122.975994,46.127913],[-122.976182,46.127914]]]}},{"type":"Feature","properties":{"id":61,"area_m2":2500,"px":25,"rank":10,"persistent":false},"geometry":{"type":"Polygon","coordinates":[[[-122.960144,46.109909],[-122.960144,46.109999],[-122.960038,46.110015],[-122.960015,46.110089],[-122.959826,46.110089],[-122.959769,46.110113],[-122.959756,46.110359],[-122.959368,46.110358],[-122.959345,46.110284],[-122.959238,46.110268],[-122.959238,46.110089],[-122.959339,46.110076],[-122.959368,46.109999],[-122.959463,46.109989],[-122.959497,46.109909],[-122.959609,46.109889],[-122.959627,46.109729],[-122.959756,46.109729],[-122.959762,46.109785],[-122.959811,46.109816],[-122.960015,46.109819],[-122.960038,46.109893],[-122.960144,46.109909]]]}},{"type":"Feature","properties":{"id":57,"area_m2":2400,"px":24,"rank":11,"persistent":false},"geometry":{"type":"Polygon","coordinates":[[[-122.961567,46.110269],[-122.961567,46.110449],[-122.961438,46.110449],[-122.961432,46.110393],[-122.961383,46.110362],[-122.961091,46.110365],[-122.961053,46.110397],[-122.96105,46.110449],[-122.960955,46.110458],[-122.96092,46.110539],[-122.960846,46.110541],[-122.9608,46.110568],[-122.960791,46.110719],[-122.960684,46.110735],[-122.960661,46.110809],[-122.960566,46.110818],[-122.960532,46.110899],[-122.96042,46.110919],[-122.960402,46.110989],[-122.960144,46.110989],[-122.960144,46.110899],[-122.960239,46.11089],[-122.960273,46.110809],[-122.960347,46.110807],[-122.960393,46.11078],[-122.960403,46.110629],[-122.960509,46.110613],[-122.960532,46.110539],[-122.960633,46.110527],[-122.960662,46.110449],[-122.960763,46.110437],[-122.960791,46.110359],[-122.960886,46.11035],[-122.960921,46.110269],[-122.961032,46.110249],[-122.96105,46.110179],[-122.961438,46.110179],[-122.961461,46.110253],[-122.961567,46.110269]]]}},{"type":"Feature","properties":{"id":22,"area_m2":2200,"px":22,"rank":12,"persistent":false},"geometry":{"type":"Polygon","coordinates":[[[-122.970359,46.125662],[-122.970358,46.125842],[-122.970229,46.125842],[-122.970168,46.125818],[-122.9701,46.125842],[-122.969841,46.125842],[-122.969818,46.125768],[-122.969711,46.125752],[-122.969677,46.125671],[-122.969582,46.125662],[-122.969582,46.125392],[-122.969689,46.125376],[-122.969714,46.125302],[-122.969841,46.125302],[-122.969847,46.125359],[-122.969896,46.12539],[-122.9701,46.125392],[-122.970113,46.125548],[-122.970229,46.125572],[-122.970264,46.125653],[-122.970359,46.125662]]]}},{"type":"Feature","properties":{"id":16,"area_m2":2000,"px":20,"rank":13,"persistent":false},"geometry":{"type":"Polygon","coordinates":[[[-122.972817,46.127013],[-122.972817,46.127283],[-122.972558,46.127283],[-122.972541,46.127212],[-122.972429,46.127193],[-122.972394,46.127112],[-122.9723,46.127103],[-122.972271,46.127025],[-122.972041,46.127013],[-122.972041,46.126743],[-122.972429,46.126743],[-122.972452,46.126817],[-122.972558,46.126833],[-122.972581,46.126997],[-122.972817,46.127013]]]}},{"type":"Feature","properties":{"id":25,"area_m2":1800,"px":18,"rank":14,"persistent":false},"geometry":{"type":"Polygon","coordinates":[[[-122.969194,46.125032],[-122.969194,46.125122],[-122.968806,46.125122],[-122.968802,46.12507],[-122.968765,46.125038],[-122.968547,46.125032],[-122.968534,46.124876],[-122.968477,46.124852],[-122.968288,46.124852],[-122.968288,46.124762],[-122.968395,46.124746],[-122.968418,46.124672],[-122.968806,46.124672],[-122.968823,46.124832],[-122.968876,46.124851],[-122.969065,46.124852],[-122.969074,46.125003],[-122.96912,46.125029],[-122.969194,46.125032]]]}},{"type":"Feature","properties":{"id":53,"area_m2":1800,"px":18,"rank":15,"persistent":false},"geometry":{"type":"Polygon","coordinates":[[[-122.959234,46.115669],[-122.959234,46.115758],[-122.959128,46.115774],[-122.959105,46.115848],[-122.958975,46.115848],[-122.958972,46.115707],[-122.958898,46.115668],[-122.958745,46.115681],[-122.958716,46.115758],[-122.9586,46.115782],[-122.958587,46.115848],[-122.958199,46.115848],[-122.958199,46.115578],[-122.958306,46.115562],[-122.958329,46.115488],[-122.958458,46.115488],[-122.958467,46.11555],[-122.95852,46.115577],[-122.959105,46.115579],[-122.959128,46.115653],[-122.959234,46.115669]]]}},{"type":"Feature","properties":{"id":29,"area_m2":1700,"px":17,"rank":16,"persistent":false},"geometry":{"type":"Polygon","coordinates":[[[-122.976702,46.123054],[-122.976702,46.123504],[-122.976184,46.123503],[-122.976184,46.123414],[-122.976266,46.123409],[-122.976308,46.12338],[-122.976312,46.123277],[-122.976273,46.12324],[-122.976184,46.123233],[-122.976156,46.123156],[-122.976055,46.123143],[-122.976055,46.123054],[-122.976184,46.123054],[-122.976198,46.123119],[-122.976262,46.123143],[-122.976409,46.123134],[-122.976443,46.123054],[-122.976702,46.123054]]]}},{"type":"Feature","properties":{"id":49,"area_m2":1600,"px":16,"rank":17,"persistent":false},"geometry":{"type":"Polygon","coordinates":[[[-122.965187,46.116751],[-122.965187,46.11684],[-122.96508,46.116856],[-122.965057,46.11693],[-122.964839,46.116937],[-122.964802,46.116969],[-122.964798,46.11702],[-122.96441,46.11702],[-122.96441,46.11684],[-122.964484,46.116838],[-122.96453,46.116812],[-122.96454,46.11666],[-122.964669,46.11666],[-122.96473,46.116685],[-122.964799,46.11666],[-122.965057,46.116661],[-122.96508,46.116735],[-122.965187,46.116751]]]}},{"type":"Feature","properties":{"id":3,"area_m2":1100,"px":11,"rank":18,"persistent":false},"geometry":{"type":"Polygon","coordinates":[[[-122.99055,46.133496],[-122.99055,46.133676],[-122.99042,46.133676],[-122.990359,46.133652],[-122.990291,46.133676],[-122.990161,46.133676],[-122.9901,46.133652],[-122.990032,46.133676],[-122.989902,46.133676],[-122.989902,46.133586],[-122.989984,46.133582],[-122.990028,46.133547],[-122.990032,46.133406],[-122.99025,46.133399],[-122.990287,46.133367],[-122.990291,46.133316],[-122.99042,46.133316],[-122.990429,46.133467],[-122.990475,46.133493],[-122.99055,46.133496]]]}},{"type":"Feature","properties":{"id":6,"area_m2":1100,"px":11,"rank":19,"persistent":false},"geometry":{"type":"Polygon","coordinates":[[[-122.979159,46.128904],[-122.979159,46.129084],[-122.9789,46.129084],[-122.978891,46.128843],[-122.978845,46.128816],[-122.978771,46.128814],[-122.978736,46.128733],[-122.978642,46.128724],[-122.978613,46.128646],[-122.978512,46.128634],[-122.978512,46.128544],[-122.978771,46.128544],[-122.978794,46.128618],[-122.9789,46.128634],[-122.978935,46.128715],[-122.97903,46.128724],[-122.979047,46.128884],[-122.979159,46.128904]]]}},{"type":"Feature","properties":{"id":28,"area_m2":1100,"px":11,"rank":20,"persistent":false},"geometry":{"type":"Polygon","coordinates":[[[-122.969712,46.124042],[-122.969712,46.124222],[-122.969638,46.124224],[-122.969592,46.12425],[-122.969583,46.124402],[-122.969453,46.124402],[-122.969447,46.124345],[-122.969398,46.124314],[-122.969195,46.124312],[-122.969195,46.124132],[-122.969431,46.124116],[-122.969454,46.123952],[-122.969583,46.123952],[-122.969606,46.124026],[-122.969712,46.124042]]]}},{"type":"Feature","properties":{"id":58,"area_m2":1100,"px":11,"rank":21,"persistent":false},"geometry":{"type":"Polygon","coordinates":[[[-122.962214,46.11063],[-122.962214,46.110719],[-122.962108,46.110735],[-122.962085,46.110809],[-122.961968,46.110833],[-122.961955,46.110899],[-122.961697,46.110899],[-122.961697,46.110629],[-122.961803,46.110614],[-122.961826,46.110539],[-122.962085,46.11054],[-122.962108,46.110614],[-122.962214,46.11063]]]}},{"type":"Feature","properties":{"id":50,"area_m2":1000,"px":10,"rank":22,"persistent":false},"geometry":{"type":"Polygon","coordinates":[[[-122.959881,46.116389],[-122.959881,46.116479],[-122.959786,46.116488],[-122.959751,46.116533],[-122.959764,46.116635],[-122.959881,46.116659],[-122.95988,46.116749],[-122.959774,46.116765],[-122.959751,46.116839],[-122.959622,46.116839],[-122.959599,46.116765],[-122.959492,46.116749],[-122.959493,46.116479],[-122.959599,46.116463],[-122.959622,46.116389],[-122.959881,46.116389]]]}},{"type":"Feature","properties":{"id":5,"area_m2":900,"px":9,"rank":23,"persistent":false},"geometry":{"type":"Polygon","coordinates":[[[-122.98835,46.129806],[-122.98835,46.129895],[-122.988268,46.1299],[-122.988224,46.129934],[-122.98822,46.130075],[-122.988091,46.130075],[-122.988069,46.129898],[-122.988016,46.129882],[-122.987832,46.129895],[-122.987832,46.129715],[-122.987867,46.129673],[-122.987832,46.129625],[-122.987832,46.129535],[-122.987961,46.129535],[-122.987984,46.12961],[-122.988091,46.129625],[-122.988104,46.129691],[-122.98822,46.129716],[-122.988249,46.129793],[-122.98835,46.129806]]]}},{"type":"Feature","properties":{"id":17,"area_m2":900,"px":9,"rank":24,"persistent":false},"geometry":{"type":"Polygon","coordinates":[[[-122.97217,46.127193],[-122.97217,46.127283],[-122.971782,46.127282],[-122.971759,46.127208],[-122.971652,46.127192],[-122.971652,46.126923],[-122.971782,46.126923],[-122.971804,46.126997],[-122.971911,46.127013],[-122.971924,46.127079],[-122.97204,46.127103],[-122.972069,46.12718],[-122.97217,46.127193]]]}},{"type":"Feature","properties":{"id":4,"area_m2":800,"px":8,"rank":25,"persistent":true},"geometry":{"type":"Polygon","coordinates":[[[-122.989644,46.130976],[-122.989644,46.131156],[-122.989537,46.131171],[-122.989514,46.131246],[-122.989385,46.131246],[-122.989362,46.131171],[-122.989256,46.131156],[-122.989256,46.130886],[-122.989385,46.130886],[-122.989391,46.130942],[-122.98944,46.130973],[-122.989644,46.130976]]]}},{"type":"Feature","properties":{"id":19,"area_m2":800,"px":8,"rank":26,"persistent":false},"geometry":{"type":"Polygon","coordinates":[[[-122.975536,46.126833],[-122.975535,46.127013],[-122.975406,46.127013],[-122.975393,46.126947],[-122.975277,46.126923],[-122.975273,46.126872],[-122.975236,46.12684],[-122.974889,46.126833],[-122.974889,46.126743],[-122.974995,46.126727],[-122.975018,46.126653],[-122.975147,46.126653],[-122.975182,46.126734],[-122.975406,46.126743],[-122.975429,46.126818],[-122.975536,46.126833]]]}},{"type":"Feature","properties":{"id":38,"area_m2":800,"px":8,"rank":27,"persistent":false},"geometry":{"type":"Polygon","coordinates":[[[-122.967513,46.121431],[-122.967513,46.121521],[-122.967255,46.121521],[-122.967249,46.121465],[-122.967199,46.121434],[-122.966866,46.121431],[-122.966866,46.121341],[-122.966973,46.121325],[-122.966996,46.121251],[-122.967255,46.121251],[-122.967277,46.121325],[-122.967384,46.121341],[-122.967419,46.121422],[-122.967513,46.121431]]]}},{"type":"Feature","properties":{"id":32,"area_m2":700,"px":7,"rank":28,"persistent":false},"geometry":{"type":"Polygon","coordinates":[[[-122.969195,46.123142],[-122.969195,46.123232],[-122.968936,46.123232],[-122.968913,46.123158],[-122.968807,46.123142],[-122.968794,46.123076],[-122.968677,46.123052],[-122.968649,46.122974],[-122.968548,46.122962],[-122.968548,46.122872],[-122.968677,46.122872],[-122.968683,46.122928],[-122.968733,46.122959],[-122.968936,46.122962],[-122.968959,46.123036],[-122.969066,46.123052],[-122.9691,46.123133],[-122.969195,46.123142]]]}},{"type":"Feature","properties":{"id":52,"area_m2":700,"px":7,"rank":29,"persistent":false},"geometry":{"type":"Polygon","coordinates":[[[-122.966093,46.115941],[-122.966093,46.116211],[-122.965964,46.116211],[-122.965941,46.116137],[-122.965834,46.116121],[-122.9658,46.11604],[-122.965705,46.116031],[-122.965705,46.115851],[-122.965834,46.115851],[-122.96584,46.115907],[-122.965889,46.115938],[-122.966093,46.115941]]]}},{"type":"Feature","properties":{"id":60,"area_m2":700,"px":7,"rank":30,"persistent":false},"geometry":{"type":"Polygon","coordinates":[[[-122.960403,46.110089],[-122.960403,46.110179],[-122.960308,46.110188],[-122.960273,46.110269],[-122.960199,46.110271],[-122.960153,46.110297],[-122.960144,46.110449],[-122.960037,46.110465],[-122.960014,46.110539],[-122.959898,46.110563],[-122.959885,46.110629],[-122.959756,46.110629],[-122.959756,46.110539],[-122.959837,46.110535],[-122.959882,46.1105],[-122.959885,46.110359],[-122.959992,46.110343],[-122.960015,46.110269],[-122.96011,46.11026],[-122.960144,46.110179],[-122.960256,46.110159],[-122.960274,46.110089],[-122.960403,46.110089]]]}},{"type":"Feature","properties":{"id":15,"area_m2":600,"px":6,"rank":31,"persistent":false},"geometry":{"type":"Polygon","coordinates":[[[-122.974112,46.127193],[-122.974111,46.127283],[-122.973853,46.127283],[-122.97384,46.127127],[-122.973783,46.127103],[-122.973594,46.127103],[-122.973594,46.127013],[-122.973982,46.127013],[-122.973991,46.127165],[-122.974037,46.127191],[-122.974112,46.127193]]]}},{"type":"Feature","properties":{"id":21,"area_m2":600,"px":6,"rank":32,"persistent":false},"geometry":{"type":"Polygon","coordinates":[[[-122.973983,46.125843],[-122.973983,46.125933],[-122.973595,46.125933],[-122.973595,46.125663],[-122.973724,46.125663],[-122.973747,46.125737],[-122.973853,46.125753],[-122.973888,46.125834],[-122.973983,46.125843]]]}},{"type":"Feature","properties":{"id":47,"area_m2":600,"px":6,"rank":33,"persistent":false},"geometry":{"type":"Polygon","coordinates":[[[-122.960915,46.117289],[-122.960915,46.117379],[-122.960834,46.117383],[-122.960789,46.117417],[-122.960786,46.117559],[-122.960657,46.117559],[-122.960655,46.117333],[-122.960616,46.117295],[-122.960527,46.117289],[-122.960527,46.117199],[-122.960786,46.117199],[-122.960809,46.117273],[-122.960915,46.117289]]]}},{"type":"Feature","properties":{"id":1,"area_m2":500,"px":5,"rank":34,"persistent":false},"geometry":{"type":"Polygon","coordinates":[[[-122.989902,46.134576],[-122.989902,46.134666],[-122.989775,46.134666],[-122.989769,46.134614],[-122.989732,46.134582],[-122.989514,46.134576],[-122.989514,46.134486],[-122.989595,46.134482],[-122.98964,46.134447],[-122.989643,46.134306],[-122.989773,46.134306],[-122.989776,46.134537],[-122.989821,46.134572],[-122.989902,46.134576]]]}},{"type":"Feature","properties":{"id":31,"area_m2":500,"px":5,"rank":35,"persistent":false},"geometry":{"type":"Polygon","coordinates":[[[-122.975667,46.123053],[-122.975667,46.123143],[-122.975585,46.123147],[-122.975541,46.123182],[-122.975537,46.123323],[-122.975408,46.123323],[-122.975385,46.123249],[-122.975278,46.123233],[-122.975278,46.123143],[-122.975385,46.123127],[-122.975408,46.123053],[-122.975667,46.123053]]]}},{"type":"Feature","properties":{"id":35,"area_m2":500,"px":5,"rank":36,"persistent":false},"geometry":{"type":"Polygon","coordinates":[[[-122.964666,46.122061],[-122.964665,46.12215],[-122.964559,46.122166],[-122.964536,46.12224],[-122.964407,46.12224],[-122.964384,46.122166],[-122.964277,46.12215],[-122.964277,46.12206],[-122.964384,46.122045],[-122.964407,46.12197],[-122.964536,46.12197],[-122.964559,46.122045],[-122.964666,46.122061]]]}},{"type":"Feature","properties":{"id":43,"area_m2":500,"px":5,"rank":37,"persistent":false},"geometry":{"type":"Polygon","coordinates":[[[-122.960914,46.118909],[-122.960914,46.118999],[-122.960267,46.118999],[-122.960267,46.118909],[-122.960914,46.118909]]]}},{"type":"Feature","properties":{"id":55,"area_m2":500,"px":5,"rank":38,"persistent":false},"geometry":{"type":"Polygon","coordinates":[[[-122.958717,46.114768],[-122.958717,46.114858],[-122.9582,46.114858],[-122.9582,46.114768],[-122.958417,46.114762],[-122.958455,46.11473],[-122.958459,46.114678],[-122.958588,46.114678],[-122.958611,46.114752],[-122.958717,46.114768]]]}},{"type":"Feature","properties":{"id":7,"area_m2":400,"px":4,"rank":39,"persistent":false},"geometry":{"type":"Polygon","coordinates":[[[-122.976829,46.128724],[-122.976829,46.128904],[-122.9767,46.128904],[-122.976677,46.128829],[-122.97657,46.128814],[-122.976536,46.128733],[-122.976441,46.128724],[-122.976441,46.128634],[-122.97657,46.128634],[-122.976576,46.12869],[-122.976625,46.128721],[-122.976829,46.128724]]]}},{"type":"Feature","properties":{"id":8,"area_m2":400,"px":4,"rank":40,"persistent":false},"geometry":{"type":"Polygon","coordinates":[[[-122.977476,46.128634],[-122.977476,46.128814],[-122.977347,46.128814],[-122.977338,46.128662],[-122.977292,46.128636],[-122.977218,46.128634],[-122.977183,46.128553],[-122.977088,46.128544],[-122.977088,46.128454],[-122.977218,46.128454],[-122.97724,46.128528],[-122.977347,46.128544],[-122.977382,46.128625],[-122.977476,46.128634]]]}},{"type":"Feature","properties":{"id":14,"area_m2":400,"px":4,"rank":41,"persistent":false},"geometry":{"type":"Polygon","coordinates":[[[-122.973205,46.127373],[-122.973205,46.127553],[-122.973076,46.127553],[-122.97307,46.127496],[-122.973021,46.127465],[-122.972817,46.127463],[-122.972817,46.127373],[-122.973205,46.127373]]]}},{"type":"Feature","properties":{"id":20,"area_m2":400,"px":4,"rank":42,"persistent":false},"geometry":{"type":"Polygon","coordinates":[[[-122.974371,46.126113],[-122.974371,46.126383],[-122.974242,46.126383],[-122.974238,46.126241],[-122.974194,46.126207],[-122.974112,46.126203],[-122.974112,46.126113],[-122.974371,46.126113]]]}},{"type":"Feature","properties":{"id":24,"area_m2":400,"px":4,"rank":43,"persistent":false},"geometry":{"type":"Polygon","coordinates":[[[-122.969971,46.125032],[-122.96997,46.125122],[-122.969864,46.125138],[-122.969841,46.125212],[-122.969712,46.125212],[-122.969712,46.124942],[-122.969841,46.124942],[-122.969864,46.125016],[-122.969971,46.125032]]]}},{"type":"Feature","properties":{"id":27,"area_m2":400,"px":4,"rank":44,"persistent":true},"geometry":{"type":"Polygon","coordinates":[[[-122.969324,46.124582],[-122.969324,46.124762],[-122.969065,46.124762],[-122.969065,46.124582],[-122.969324,46.124582]]]}},{"type":"Feature","properties":{"id":37,"area_m2":400,"px":4,"rank":45,"persistent":false},"geometry":{"type":"Polygon","coordinates":[[[-122.962724,46.12161],[-122.962724,46.12179],[-122.962336,46.12179],[-122.962336,46.1217],[-122.96254,46.121697],[-122.962589,46.121666],[-122.962595,46.12161],[-122.962724,46.12161]]]}},{"type":"Feature","properties":{"id":42,"area_m2":400,"px":4,"rank":46,"persistent":false},"geometry":{"type":"Polygon","coordinates":[[[-122.963891,46.119],[-122.963891,46.11909],[-122.963632,46.11909],[-122.963609,46.119016],[-122.963503,46.119],[-122.963503,46.11891],[-122.963762,46.11891],[-122.963784,46.118984],[-122.963891,46.119]]]}},{"type":"Feature","properties":{"id":48,"area_m2":400,"px":4,"rank":47,"persistent":false},"geometry":{"type":"Polygon","coordinates":[[[-122.95988,46.117289],[-122.95988,46.117469],[-122.959751,46.117469],[-122.959728,46.117395],[-122.959621,46.117379],[-122.959621,46.117199],[-122.959751,46.117199],[-122.959774,46.117273],[-122.95988,46.117289]]]}},{"type":"Feature","properties":{"id":2,"area_m2":300,"px":3,"rank":48,"persistent":false},"geometry":{"type":"Polygon","coordinates":[[[-122.988866,46.134216],[-122.988866,46.134306],[-122.988478,46.134305],[-122.988478,46.134216],[-122.988866,46.134216]]]}},{"type":"Feature","properties":{"id":9,"area_m2":300,"px":3,"rank":49,"persistent":false},"geometry":{"type":"Polygon","coordinates":[[[-122.973205,46.128183],[-122.973205,46.128273],[-122.973098,46.128289],[-122.973075,46.128363],[-122.972946,46.128363],[-122.972946,46.128183],[-122.973205,46.128183]]]}},{"type":"Feature","properties":{"id":13,"area_m2":300,"px":3,"rank":50,"persistent":false},"geometry":{"type":"Polygon","coordinates":[[[-122.972687,46.127643],[-122.972687,46.127733],[-122.972429,46.127733],[-122.972429,46.127553],[-122.972558,46.127553],[-122.972581,46.127627],[-122.972687,46.127643]]]}},{"type":"Feature","properties":{"id":12,"area_m2":300,"px":3,"rank":51,"persistent":false},"geometry":{"type":"Polygon","coordinates":[[[-122.976571,46.127464],[-122.976571,46.127734],[-122.976441,46.127734],[-122.976442,46.127464],[-122.976571,46.127464]]]}},{"type":"Feature","properties":{"id":23,"area_m2":300,"px":3,"rank":52,"persistent":false},"geometry":{"type":"Polygon","coordinates":[[[-122.970747,46.125482],[-122.970747,46.125572],[-122.97064,46.125588],[-122.970617,46.125662],[-122.970488,46.125662],[-122.970488,46.125482],[-122.970747,46.125482]]]}},{"type":"Feature","properties":{"id":26,"area_m2":300,"px":3,"rank":53,"persistent":false},"geometry":{"type":"Polygon","coordinates":[[[-122.969971,46.124672],[-122.969971,46.124762],[-122.969767,46.124764],[-122.969718,46.124795],[-122.969712,46.124852],[-122.969583,46.124852],[-122.969583,46.124762],[-122.969689,46.124746],[-122.969712,46.124672],[-122.969971,46.124672]]]}},{"type":"Feature","properties":{"id":34,"area_m2":300,"px":3,"rank":54,"persistent":false},"geometry":{"type":"Polygon","coordinates":[[[-122.966866,46.122511],[-122.966866,46.122601],[-122.966759,46.122617],[-122.966736,46.122691],[-122.96662,46.122715],[-122.966607,46.122781],[-122.966477,46.122781],[-122.966477,46.122691],[-122.966584,46.122675],[-122.966607,46.122601],[-122.966723,46.122577],[-122.966736,46.122511],[-122.966866,46.122511]]]}},{"type":"Feature","properties":{"id":36,"area_m2":300,"px":3,"rank":55,"persistent":false},"geometry":{"type":"Polygon","coordinates":[[[-122.966478,46.121971],[-122.966477,46.122151],[-122.966219,46.122151],[-122.966219,46.122061],[-122.966325,46.122045],[-122.966348,46.121971],[-122.966478,46.121971]]]}},{"type":"Feature","properties":{"id":39,"area_m2":300,"px":3,"rank":56,"persistent":false},"geometry":{"type":"Polygon","coordinates":[[[-122.967644,46.120081],[-122.967644,46.120171],[-122.967516,46.120171],[-122.967491,46.120097],[-122.967385,46.120081],[-122.967385,46.119901],[-122.967514,46.119901],[-122.967523,46.120053],[-122.967569,46.120079],[-122.967644,46.120081]]]}},{"type":"Feature","properties":{"id":41,"area_m2":300,"px":3,"rank":57,"persistent":false},"geometry":{"type":"Polygon","coordinates":[[[-122.962467,46.11909],[-122.962467,46.11927],[-122.962338,46.11927],[-122.962315,46.119195],[-122.962209,46.11918],[-122.962209,46.11909],[-122.962467,46.11909]]]}},{"type":"Feature","properties":{"id":44,"area_m2":300,"px":3,"rank":58,"persistent":false},"geometry":{"type":"Polygon","coordinates":[[[-122.96195,46.11846],[-122.96195,46.118639],[-122.961691,46.118639],[-122.961691,46.11855],[-122.961798,46.118534],[-122.961821,46.11846],[-122.96195,46.11846]]]}},{"type":"Feature","properties":{"id":45,"area_m2":300,"px":3,"rank":59,"persistent":false},"geometry":{"type":"Polygon","coordinates":[[[-122.961045,46.117649],[-122.961045,46.117739],[-122.960841,46.117741],[-122.960792,46.117772],[-122.960786,46.117829],[-122.960656,46.117829],[-122.960656,46.117739],[-122.960763,46.117723],[-122.960786,46.117649],[-122.961045,46.117649]]]}},{"type":"Feature","properties":{"id":56,"area_m2":300,"px":3,"rank":60,"persistent":false},"geometry":{"type":"Polygon","coordinates":[[[-122.957553,46.113868],[-122.957553,46.114048],[-122.957294,46.114048],[-122.957294,46.113958],[-122.957401,46.113942],[-122.957424,46.113868],[-122.957553,46.113868]]]}},{"type":"Feature","properties":{"id":59,"area_m2":300,"px":3,"rank":61,"persistent":false},"geometry":{"type":"Polygon","coordinates":[[[-122.959108,46.110718],[-122.959108,46.110808],[-122.95885,46.110808],[-122.95885,46.110628],[-122.958979,46.110628],[-122.959002,46.110703],[-122.959108,46.110718]]]}},{"type":"Feature","properties":{"id":62,"area_m2":300,"px":3,"rank":62,"persistent":false},"geometry":{"type":"Polygon","coordinates":[[[-122.961309,46.109369],[-122.961309,46.109459],[-122.961051,46.109459],[-122.961051,46.109279],[-122.96118,46.109279],[-122.961203,46.109353],[-122.961309,46.109369]]]}}]}