{"type":"FeatureCollection","features":[{"type":"Feature","properties":{"id":49,"area_m2":61900,"px":619,"rank":1,"persistent":false},"geometry":{"type":"Polygon","coordinates":[[[-122.969457,46.118282],[-122.969456,46.118372],[-122.96935,46.118388],[-122.969327,46.118462],[-122.969198,46.118462],[-122.969169,46.118384],[-122.969015,46.118348],[-122.968939,46.118372],[-122.968722,46.118373],[-122.968672,46.118397],[-122.968683,46.118603],[-122.968728,46.118637],[-122.968809,46.118642],[-122.968809,46.118732],[-122.968728,46.118736],[-122.968686,46.118765],[-122.96868,46.119092],[-122.968605,46.119094],[-122.968559,46.11912],[-122.96855,46.119361],[-122.968443,46.119377],[-122.96842,46.119451],[-122.968203,46.119458],[-122.968165,46.11949],[-122.968162,46.119541],[-122.967385,46.119541],[-122.967382,46.11949],[-122.967344,46.119458],[-122.967126,46.119451],[-122.967113,46.119385],[-122.966997,46.119361],[-122.966994,46.119296],[-122.966951,46.119262],[-122.966738,46.119271],[-122.96671,46.119193],[-122.966555,46.119157],[-122.966479,46.119181],[-122.966091,46.119181],[-122.966078,46.119115],[-122.965962,46.119091],[-122.965927,46.11901],[-122.965703,46.119001],[-122.965687,46.118828],[-122.965733,46.118794],[-122.965727,46.118748],[-122.965627,46.11872],[-122.965577,46.118755],[-122.965589,46.118813],[-122.965444,46.118821],[-122.965422,46.118656],[-122.965186,46.118641],[-122.965163,46.118566],[-122.965056,46.11855],[-122.965056,46.118461],[-122.965173,46.118437],[-122.965186,46.118335],[-122.965151,46.11829],[-122.965056,46.11828],[-122.965047,46.118039],[-122.964994,46.118012],[-122.964798,46.11801],[-122.96478,46.11794],[-122.964668,46.11792],[-122.964655,46.117854],[-122.964539,46.11783],[-122.964536,46.117779],[-122.964498,46.117747],[-122.96428,46.11774],[-122.96428,46.11747],[-122.964387,46.117454],[-122.96441,46.11738],[-122.964505,46.117371],[-122.964539,46.11729],[-122.964651,46.117271],[-122.964669,46.1172],[-122.964899,46.117188],[-122.964928,46.117111],[-122.965417,46.117098],[-122.965445,46.117062],[-122.965446,46.116841],[-122.965552,46.116825],[-122.965575,46.116751],[-122.96567,46.116742],[-122.965705,46.116661],[-122.965816,46.116641],[-122.965834,46.116571],[-122.966352,46.116571],[-122.966413,46.116595],[-122.966481,46.116571],[-122.96661,46.116571],[-122.966633,46.116645],[-122.96674,46.116661],[-122.966753,46.116817],[-122.966869,46.116841],[-122.966904,46.116922],[-122.966998,46.116931],[-122.967008,46.117083],[-122.967053,46.117109],[-122.967128,46.117111],[-122.967162,46.117192],[-122.967257,46.117201],[-122.967285,46.117279],[-122.967645,46.117291],[-122.967668,46.117365],[-122.967775,46.117381],[-122.967797,46.117546],[-122.967904,46.117561],[-122.967917,46.117627],[-122.968033,46.117651],[-122.968039,46.117708],[-122.968081,46.117737],[-122.968224,46.117766],[-122.968292,46.117742],[-122.968421,46.117742],[-122.968444,46.117816],[-122.968551,46.117832],[-122.968585,46.117912],[-122.96868,46.117922],[-122.968686,46.118068],[-122.968728,46.118097],[-122.96881,46.118102],[-122.968844,46.118183],[-122.969327,46.118192],[-122.96935,46.118266],[-122.969457,46.118282]],[[-122.966606,46.118783],[-122.966626,46.118681],[-122.966582,46.118645],[-122.966289,46.118628],[-122.966227,46.118661],[-122.966221,46.118731],[-122.965875,46.118732],[-122.965829,46.118751],[-122.965813,46.118792],[-122.965855,46.118895],[-122.966038,46.118934],[-122.966091,46.118911],[-122.966309,46.118905],[-122.966347,46.118873],[-122.96635,46.118821],[-122.966568,46.118815],[-122.966606,46.118783]],[[-122.967049,46.118461],[-122.967124,46.118423],[-122.967118,46.11831],[-122.967065,46.118282],[-122.966908,46.118274],[-122.966869,46.118316],[-122.966877,46.118433],[-122.966931,46.11846],[-122.967049,46.118461]],[[-122.968438,46.118242],[-122.968404,46.118121],[-122.968292,46.118101],[-122.968257,46.118021],[-122.968163,46.118011],[-122.968134,46.117934],[-122.967945,46.117928],[-122.967905,46.117965],[-122.967904,46.118101],[-122.967803,46.118114],[-122.967774,46.118191],[-122.967673,46.118204],[-122.967645,46.118281],[-122.96755,46.11829],[-122.967515,46.118371],[-122.967399,46.118395],[-122.967386,46.118551],[-122.967202,46.118537],[-122.967144,46.118558],[-122.967136,46.118703],[-122.967189,46.11873],[-122.967386,46.118731],[-122.967391,46.118788],[-122.967441,46.118819],[-122.967733,46.118815],[-122.967773,46.118773],[-122.967774,46.118551],[-122.967869,46.118542],[-122.967904,46.118461],[-122.96802,46.118437],[-122.968033,46.118281],[-122.968387,46.118279],[-122.968438,46.118242]]]}},{"type":"Feature","properties":{"id":16,"area_m2":20800,"px":208,"rank":2,"persistent":true},"geometry":{"type":"Polygon","coordinates":[[[-122.981617,46.126566],[-122.981585,46.126612],[-122.981619,46.126655],[-122.981619,46.126744],[-122.981531,46.126751],[-122.98149,46.126793],[-122.98149,46.127014],[-122.981455,46.127057],[-122.98149,46.127105],[-122.98149,46.127194],[-122.981389,46.127207],[-122.98136,46.127284],[-122.981272,46.127291],[-122.981232,46.127328],[-122.981231,46.127734],[-122.981006,46.127744],[-122.980972,46.127783],[-122.980972,46.127914],[-122.980768,46.127917],[-122.980719,46.127948],[-122.980713,46.128004],[-122.980584,46.128004],[-122.980566,46.127934],[-122.980454,46.127914],[-122.98042,46.127833],[-122.980325,46.127824],[-122.980296,46.127747],[-122.980195,46.127734],[-122.980167,46.127657],[-122.980066,46.127644],[-122.980037,46.127567],[-122.979807,46.127554],[-122.979807,46.127464],[-122.979895,46.127458],[-122.979936,46.127416],[-122.979923,46.127308],[-122.979807,46.127284],[-122.979807,46.127194],[-122.979923,46.12717],[-122.979937,46.127068],[-122.979902,46.127023],[-122.979807,46.127014],[-122.979807,46.126836],[-122.979896,46.126828],[-122.979936,46.126786],[-122.979937,46.126114],[-122.980044,46.126098],[-122.980066,46.126024],[-122.980183,46.126],[-122.980196,46.125934],[-122.980455,46.125934],[-122.980472,46.126005],[-122.980584,46.126024],[-122.980602,46.126095],[-122.980713,46.126114],[-122.980727,46.12618],[-122.980843,46.126204],[-122.980846,46.126256],[-122.980884,46.126288],[-122.981102,46.126295],[-122.981111,46.126356],[-122.981164,46.126383],[-122.981361,46.126385],[-122.981422,46.126409],[-122.98149,46.126385],[-122.981619,46.126385],[-122.981617,46.126566]]]}},{"type":"Feature","properties":{"id":86,"area_m2":12100,"px":121,"rank":3,"persistent":false},"geometry":{"type":"Polygon","coordinates":[[[-122.962214,46.11081],[-122.962214,46.110899],[-122.96199,46.110909],[-122.961955,46.110989],[-122.961839,46.111013],[-122.961826,46.111079],[-122.961714,46.111099],[-122.961696,46.111169],[-122.961584,46.111189],[-122.961567,46.111349],[-122.96146,46.111365],[-122.961437,46.111439],[-122.961179,46.111439],[-122.961117,46.111415],[-122.961049,46.111439],[-122.96092,46.111439],[-122.960907,46.111283],[-122.960737,46.111235],[-122.96056,46.111271],[-122.960531,46.111349],[-122.960402,46.111349],[-122.960402,46.111169],[-122.960437,46.111121],[-122.960393,46.111017],[-122.96034,46.11099],[-122.960144,46.110989],[-122.960144,46.110899],[-122.960239,46.11089],[-122.960273,46.110809],[-122.960347,46.110807],[-122.960393,46.11078],[-122.960403,46.110629],[-122.960509,46.110613],[-122.960532,46.110539],[-122.960633,46.110527],[-122.960662,46.110449],[-122.960763,46.110437],[-122.960791,46.110359],[-122.960886,46.11035],[-122.960921,46.110269],[-122.961032,46.110249],[-122.96105,46.110179],[-122.961438,46.110179],[-122.961441,46.110231],[-122.961479,46.110263],[-122.961697,46.110269],[-122.96172,46.110343],[-122.961826,46.110359],[-122.961849,46.110524],[-122.962085,46.11054],[-122.962088,46.110771],[-122.962133,46.110805],[-122.962214,46.11081]],[[-122.961179,46.111169],[-122.961198,46.111124],[-122.961165,46.111089],[-122.961099,46.111079],[-122.961046,46.1111],[-122.96103,46.11114],[-122.961068,46.111183],[-122.961125,46.111193],[-122.961179,46.111169]]]}},{"type":"Feature","properties":{"id":87,"area_m2":9000,"px":90,"rank":4,"persistent":false},"geometry":{"type":"Polygon","coordinates":[[[-122.959496,46.110989],[-122.959496,46.111169],[-122.95939,46.111184],[-122.959367,46.111258],[-122.959251,46.111282],[-122.959237,46.111348],[-122.959108,46.111348],[-122.959047,46.111324],[-122.958979,46.111348],[-122.95872,46.111348],[-122.958717,46.111117],[-122.958672,46.111082],[-122.958591,46.111078],[-122.958575,46.110906],[-122.958623,46.110866],[-122.958605,46.110817],[-122.958501,46.110801],[-122.958463,46.110838],[-122.958477,46.110891],[-122.958355,46.110914],[-122.958332,46.110988],[-122.958204,46.110988],[-122.958222,46.110769],[-122.958175,46.110722],[-122.957877,46.110719],[-122.957824,46.110746],[-122.957814,46.110808],[-122.957556,46.110808],[-122.957533,46.110734],[-122.957426,46.110718],[-122.957413,46.110562],[-122.957297,46.110538],[-122.957297,46.110358],[-122.957501,46.110355],[-122.95755,46.110325],[-122.957556,46.110268],[-122.957774,46.110262],[-122.957812,46.11023],[-122.957815,46.110178],[-122.957931,46.110154],[-122.957944,46.110088],[-122.958074,46.110088],[-122.958091,46.110158],[-122.958203,46.110178],[-122.958238,46.110259],[-122.958332,46.110268],[-122.958361,46.110346],[-122.958462,46.110358],[-122.95849,46.110436],[-122.958591,46.110448],[-122.958619,46.110526],[-122.95885,46.110538],[-122.958867,46.110609],[-122.958979,46.110628],[-122.958992,46.110694],[-122.959108,46.110718],[-122.959112,46.11077],[-122.95915,46.110802],[-122.959367,46.110809],[-122.959376,46.11096],[-122.959422,46.110986],[-122.959496,46.110989]]]}},{"type":"Feature","properties":{"id":35,"area_m2":8900,"px":89,"rank":5,"persistent":false},"geometry":{"type":"Polygon","coordinates":[[[-122.976314,46.122694],[-122.976314,46.122783],[-122.976226,46.12279],[-122.976186,46.122827],[-122.976184,46.123053],[-122.976055,46.123053],[-122.976049,46.122997],[-122.976,46.122966],[-122.975824,46.122968],[-122.975776,46.123014],[-122.975796,46.123143],[-122.975715,46.123147],[-122.97567,46.123182],[-122.975667,46.123323],[-122.975278,46.123323],[-122.975278,46.123192],[-122.975244,46.123152],[-122.97502,46.123143],[-122.975014,46.123087],[-122.974964,46.123056],[-122.974761,46.123053],[-122.974743,46.122983],[-122.974631,46.122963],[-122.974618,46.122897],[-122.974502,46.122873],[-122.974496,46.122816],[-122.974454,46.122787],[-122.974312,46.122759],[-122.974243,46.122783],[-122.974114,46.122783],[-122.974091,46.122709],[-122.973984,46.122693],[-122.973984,46.122423],[-122.974059,46.122421],[-122.974105,46.122394],[-122.974114,46.122243],[-122.974502,46.122243],[-122.974531,46.122321],[-122.974761,46.122333],[-122.974774,46.122399],[-122.974839,46.122423],[-122.974991,46.122411],[-122.97502,46.122333],[-122.975136,46.122309],[-122.975149,46.122243],[-122.975279,46.122243],[-122.975296,46.122314],[-122.975408,46.122333],[-122.975426,46.122404],[-122.975537,46.122423],[-122.975551,46.122489],[-122.975667,46.122513],[-122.975701,46.122594],[-122.976055,46.122603],[-122.976058,46.122669],[-122.976101,46.122703],[-122.976314,46.122694]],[[-122.975537,46.122963],[-122.975743,46.122974],[-122.975793,46.122939],[-122.975795,46.122827],[-122.975741,46.122786],[-122.975149,46.122783],[-122.97508,46.122759],[-122.974918,46.122787],[-122.974873,46.122823],[-122.974903,46.122939],[-122.97502,46.122963],[-122.975025,46.12302],[-122.975075,46.123051],[-122.975475,46.123052],[-122.975528,46.123025],[-122.975537,46.122963]]]}},{"type":"Feature","properties":{"id":89,"area_m2":8600,"px":86,"rank":6,"persistent":false},"geometry":{"type":"Polygon","coordinates":[[[-122.960144,46.109909],[-122.960144,46.109999],[-122.960063,46.110003],[-122.960018,46.110037],[-122.960015,46.110179],[-122.959908,46.110195],[-122.959885,46.110269],[-122.95979,46.110278],[-122.959756,46.110359],[-122.959644,46.110378],[-122.959626,46.110449],[-122.959238,46.110448],[-122.959204,46.110368],[-122.958979,46.110358],[-122.958957,46.110284],[-122.95885,46.110268],[-122.958847,46.110037],[-122.958802,46.110002],[-122.958721,46.109998],[-122.958721,46.109908],[-122.958828,46.109892],[-122.95885,46.109818],[-122.95898,46.109818],[-122.959048,46.109842],[-122.959129,46.109806],[-122.959143,46.109765],[-122.959092,46.109645],[-122.959034,46.109625],[-122.958756,46.109647],[-122.958721,46.109728],[-122.958605,46.109752],[-122.958591,46.109818],[-122.95848,46.109838],[-122.958462,46.109908],[-122.958333,46.109908],[-122.958333,46.109728],[-122.958414,46.109724],[-122.958459,46.10969],[-122.958463,46.109458],[-122.95868,46.109452],[-122.958718,46.10942],[-122.958721,46.109368],[-122.959109,46.109368],[-122.959113,46.10942],[-122.959151,46.109452],[-122.959368,46.109459],[-122.959381,46.109524],[-122.959498,46.109549],[-122.959532,46.109629],[-122.959756,46.109639],[-122.959779,46.109713],[-122.959886,46.109729],[-122.959899,46.109795],[-122.960015,46.109819],[-122.960043,46.109896],[-122.960144,46.109909]]]}},{"type":"Feature","properties":{"id":34,"area_m2":5700,"px":57,"rank":7,"persistent":false},"geometry":{"type":"Polygon","coordinates":[[[-122.967642,46.122601],[-122.967642,46.122781],[-122.967547,46.12279],[-122.967513,46.122835],[-122.967518,46.123018],[-122.96756,46.123047],[-122.967642,46.123051],[-122.967642,46.123231],[-122.967568,46.123234],[-122.967522,46.12326],[-122.967512,46.123411],[-122.967294,46.123418],[-122.967257,46.12345],[-122.967253,46.123501],[-122.966736,46.123501],[-122.966723,46.123435],[-122.966606,46.123411],[-122.966572,46.12333],[-122.966348,46.123321],[-122.966348,46.123231],[-122.966454,46.123215],[-122.966477,46.123141],[-122.966578,46.123129],[-122.966607,46.123051],[-122.966708,46.123039],[-122.966736,46.122961],[-122.966837,46.122949],[-122.966866,46.122871],[-122.96696,46.122862],[-122.966995,46.122781],[-122.967107,46.122761],[-122.967125,46.122691],[-122.96745,46.12269],[-122.967504,46.122663],[-122.967513,46.122601],[-122.967642,46.122601]]]}},{"type":"Feature","properties":{"id":67,"area_m2":5400,"px":54,"rank":8,"persistent":false},"geometry":{"type":"Polygon","coordinates":[[[-122.959363,46.116479],[-122.959363,46.116659],[-122.959275,46.116665],[-122.959235,46.116702],[-122.959233,46.116929],[-122.958716,46.116928],[-122.95871,46.116872],[-122.958661,46.116841],[-122.958328,46.116838],[-122.958318,46.116687],[-122.958273,46.116661],[-122.958198,46.116658],[-122.958198,46.116568],[-122.958233,46.116526],[-122.958198,46.116478],[-122.958199,46.116208],[-122.958457,46.116208],[-122.958466,46.116283],[-122.958532,46.116312],[-122.958688,46.116286],[-122.958716,46.116208],[-122.959234,46.116209],[-122.959237,46.11644],[-122.959282,46.116474],[-122.959363,46.116479]]]}},{"type":"Feature","properties":{"id":25,"area_m2":4400,"px":44,"rank":9,"persistent":false},"geometry":{"type":"Polygon","coordinates":[[[-122.974629,46.126743],[-122.974629,46.127013],[-122.974523,46.127029],[-122.9745,46.127103],[-122.974371,46.127103],[-122.974365,46.127046],[-122.974315,46.127015],[-122.974112,46.127013],[-122.974089,46.126939],[-122.973982,46.126923],[-122.973969,46.126857],[-122.973853,46.126833],[-122.973825,46.126755],[-122.973724,46.126743],[-122.973701,46.126579],[-122.973465,46.126563],[-122.973442,46.126489],[-122.973335,46.126473],[-122.973318,46.126403],[-122.973206,46.126383],[-122.973171,46.126302],[-122.973077,46.126293],[-122.973048,46.126215],[-122.972947,46.126203],[-122.972947,46.126023],[-122.973206,46.126023],[-122.973209,46.126075],[-122.973247,46.126106],[-122.973465,46.126113],[-122.973478,46.126269],[-122.973594,46.126293],[-122.973629,46.126374],[-122.973724,46.126383],[-122.973752,46.126461],[-122.973853,46.126473],[-122.973881,46.126551],[-122.974241,46.126563],[-122.974276,46.126644],[-122.9745,46.126653],[-122.974523,46.126727],[-122.974629,46.126743]]]}},{"type":"Feature","properties":{"id":62,"area_m2":4200,"px":42,"rank":10,"persistent":false},"geometry":{"type":"Polygon","coordinates":[[[-122.959362,46.117199],[-122.959362,46.117919],[-122.958715,46.117918],[-122.958715,46.117738],[-122.95875,46.117696],[-122.958715,46.117648],[-122.958714,46.117318],[-122.958648,46.117275],[-122.958457,46.117288],[-122.958457,46.117108],[-122.958715,46.117108],[-122.958725,46.11717],[-122.958786,46.117198],[-122.959362,46.117199]]]}},{"type":"Feature","properties":{"id":66,"area_m2":3900,"px":39,"rank":11,"persistent":false},"geometry":{"type":"Polygon","coordinates":[[[-122.960786,46.116839],[-122.960786,46.116929],[-122.96068,46.116945],[-122.960657,46.117019],[-122.95988,46.117019],[-122.959877,46.116877],[-122.95981,46.116839],[-122.959656,46.116848],[-122.959622,46.116929],[-122.959492,46.116929],[-122.959493,46.116299],[-122.959751,46.116299],[-122.959774,46.116373],[-122.959881,46.116389],[-122.959882,46.116539],[-122.95992,46.116576],[-122.960139,46.116569],[-122.960143,46.116621],[-122.960181,46.116653],[-122.960398,46.116659],[-122.960378,46.116789],[-122.960419,46.116832],[-122.960786,46.116839]]]}},{"type":"Feature","properties":{"id":72,"area_m2":3800,"px":38,"rank":12,"persistent":false},"geometry":{"type":"Polygon","coordinates":[[[-122.957552,46.114858],[-122.957552,46.115218],[-122.957334,46.115224],[-122.957297,46.115256],[-122.957293,46.115308],[-122.957063,46.11532],[-122.957034,46.115398],[-122.956646,46.115398],[-122.956637,46.115246],[-122.956591,46.11522],[-122.956517,46.115216],[-122.956517,46.114948],[-122.956624,46.114932],[-122.956647,46.114858],[-122.957035,46.114858],[-122.957096,46.114882],[-122.957164,46.114858],[-122.957552,46.114858]]]}},{"type":"Feature","properties":{"id":5,"area_m2":2800,"px":28,"rank":13,"persistent":false},"geometry":{"type":"Polygon","coordinates":[[[-122.988219,46.133046],[-122.988219,46.133585],[-122.988145,46.133588],[-122.988099,46.133614],[-122.98809,46.133765],[-122.987961,46.133765],[-122.987938,46.133601],[-122.987702,46.133585],[-122.987679,46.133511],[-122.987572,46.133495],[-122.987572,46.133135],[-122.987679,46.13312],[-122.987702,46.133046],[-122.987818,46.133021],[-122.987831,46.132956],[-122.98809,46.132956],[-122.988113,46.13303],[-122.988219,46.133046]]]}},{"type":"Feature","properties":{"id":54,"area_m2":2800,"px":28,"rank":14,"persistent":false},"geometry":{"type":"Polygon","coordinates":[[[-122.961173,46.118729],[-122.961173,46.118819],[-122.961092,46.118823],[-122.961047,46.118858],[-122.961044,46.118999],[-122.960937,46.119015],[-122.960914,46.119089],[-122.960696,46.119096],[-122.960659,46.119127],[-122.960653,46.119179],[-122.960397,46.119179],[-122.960374,46.119105],[-122.960267,46.119089],[-122.960267,46.118819],[-122.960362,46.11881],[-122.960397,46.118729],[-122.960513,46.118705],[-122.960526,46.118549],[-122.960656,46.118549],[-122.960669,46.118615],[-122.960785,46.118639],[-122.960791,46.118696],[-122.960833,46.118725],[-122.961173,46.118729]]]}},{"type":"Feature","properties":{"id":83,"area_m2":2500,"px":25,"rank":15,"persistent":false},"geometry":{"type":"Polygon","coordinates":[[[-122.960272,46.111619],[-122.960272,46.111799],[-122.960171,46.111811],[-122.960143,46.111889],[-122.960048,46.111898],[-122.960013,46.111979],[-122.959902,46.111998],[-122.959884,46.112159],[-122.959625,46.112159],[-122.959625,46.111979],[-122.959742,46.111955],[-122.959754,46.111847],[-122.959714,46.111805],[-122.959625,46.111799],[-122.959597,46.111721],[-122.959496,46.111709],[-122.959496,46.111529],[-122.959603,46.111513],[-122.959626,46.111439],[-122.959755,46.111439],[-122.959758,46.111504],[-122.959801,46.111538],[-122.960143,46.111529],[-122.960166,46.111603],[-122.960272,46.111619]]]}},{"type":"Feature","properties":{"id":73,"area_m2":2300,"px":23,"rank":16,"persistent":false},"geometry":{"type":"Polygon","coordinates":[[[-122.958717,46.114768],[-122.958717,46.114948],[-122.957811,46.114948],[-122.957811,46.114768],[-122.957846,46.114726],[-122.957812,46.114678],[-122.957812,46.114588],[-122.958459,46.114588],[-122.958481,46.114662],[-122.958588,46.114678],[-122.958622,46.114759],[-122.958717,46.114768]]]}},{"type":"Feature","properties":{"id":23,"area_m2":2200,"px":22,"rank":17,"persistent":false},"geometry":{"type":"Polygon","coordinates":[[[-122.974112,46.127103],[-122.974111,46.127283],[-122.973853,46.127283],[-122.97384,46.127217],[-122.973723,46.127193],[-122.973689,46.127112],[-122.973465,46.127103],[-122.973451,46.127037],[-122.973335,46.127013],[-122.973329,46.126956],[-122.973287,46.126927],[-122.973076,46.126923],[-122.973053,46.126849],[-122.972947,46.126833],[-122.972934,46.126767],[-122.972817,46.126743],[-122.972789,46.126665],[-122.972688,46.126653],[-122.972688,46.126473],[-122.972817,46.126473],[-122.972823,46.126529],[-122.972873,46.12656],[-122.973076,46.126563],[-122.973094,46.126723],[-122.973146,46.126743],[-122.973335,46.126743],[-122.973353,46.126813],[-122.973464,46.126833],[-122.973478,46.126899],[-122.973594,46.126923],[-122.973628,46.127004],[-122.973853,46.127013],[-122.973859,46.12707],[-122.973908,46.127101],[-122.974112,46.127103]]]}},{"type":"Feature","properties":{"id":61,"area_m2":2100,"px":21,"rank":18,"persistent":false},"geometry":{"type":"Polygon","coordinates":[[[-122.961045,46.117289],[-122.961045,46.117379],[-122.960841,46.117381],[-122.960786,46.117433],[-122.960795,46.117621],[-122.960841,46.117647],[-122.960915,46.117649],[-122.96095,46.11773],[-122.961045,46.117739],[-122.961044,46.117919],[-122.960656,46.117919],[-122.960647,46.117768],[-122.960601,46.117741],[-122.960527,46.117739],[-122.960527,46.117559],[-122.960562,46.117517],[-122.960527,46.117469],[-122.960527,46.117199],[-122.960634,46.117183],[-122.960657,46.117109],[-122.960786,46.117109],[-122.960809,46.117273],[-122.961045,46.117289]]]}},{"type":"Feature","properties":{"id":75,"area_m2":2100,"px":21,"rank":19,"persistent":false},"geometry":{"type":"Polygon","coordinates":[[[-122.955871,46.113327],[-122.955871,46.113507],[-122.95577,46.113519],[-122.955742,46.113597],[-122.955647,46.113606],[-122.955612,46.113687],[-122.955496,46.113711],[-122.955483,46.113867],[-122.955401,46.113871],[-122.955357,46.113905],[-122.955353,46.114047],[-122.955272,46.114051],[-122.95523,46.11408],[-122.955223,46.114227],[-122.954965,46.114227],[-122.954965,46.114047],[-122.955039,46.114045],[-122.955085,46.114018],[-122.955095,46.113867],[-122.955176,46.113863],[-122.955221,46.113829],[-122.955224,46.113687],[-122.955319,46.113678],[-122.955354,46.113597],[-122.955428,46.113595],[-122.955474,46.113569],[-122.955483,46.113417],[-122.95559,46.113401],[-122.955613,46.113327],[-122.955871,46.113327]]]}},{"type":"Feature","properties":{"id":88,"area_m2":2100,"px":21,"rank":20,"persistent":false},"geometry":{"type":"Polygon","coordinates":[[[-122.960662,46.110089],[-122.960662,46.110269],[-122.960555,46.110285],[-122.960532,46.110359],[-122.960431,46.110371],[-122.960403,46.110449],[-122.960308,46.110458],[-122.960273,46.110539],[-122.960161,46.110559],[-122.960144,46.110629],[-122.959756,46.110629],[-122.959756,46.110449],[-122.959862,46.110433],[-122.959885,46.110359],[-122.959986,46.110346],[-122.960015,46.110269],[-122.96011,46.11026],[-122.960144,46.110179],[-122.960256,46.110159],[-122.960274,46.110089],[-122.960403,46.110089],[-122.960464,46.110113],[-122.960532,46.110089],[-122.960662,46.110089]]]}},{"type":"Feature","properties":{"id":55,"area_m2":1900,"px":19,"rank":21,"persistent":false},"geometry":{"type":"Polygon","coordinates":[[[-122.962079,46.11882],[-122.962079,46.11891],[-122.961861,46.118916],[-122.961824,46.118948],[-122.96182,46.118999],[-122.961432,46.118999],[-122.961432,46.118819],[-122.961521,46.118813],[-122.96156,46.118776],[-122.961562,46.118549],[-122.961668,46.118534],[-122.961691,46.11846],[-122.96195,46.11846],[-122.961951,46.118776],[-122.961991,46.118813],[-122.962079,46.11882]]]}},{"type":"Feature","properties":{"id":22,"area_m2":1800,"px":18,"rank":22,"persistent":false},"geometry":{"type":"Polygon","coordinates":[[[-122.972299,46.127283],[-122.972299,46.127553],[-122.97217,46.127553],[-122.972152,46.127482],[-122.97204,46.127463],[-122.972006,46.127382],[-122.971911,46.127373],[-122.971883,46.127295],[-122.971652,46.127282],[-122.971629,46.127208],[-122.971523,46.127192],[-122.971523,46.127013],[-122.97163,46.126997],[-122.971652,46.126923],[-122.971782,46.126923],[-122.971804,46.126997],[-122.971911,46.127013],[-122.971929,46.127083],[-122.97204,46.127103],[-122.972075,46.127184],[-122.97217,46.127193],[-122.972198,46.12727],[-122.972299,46.127283]]]}},{"type":"Feature","properties":{"id":38,"area_m2":1800,"px":18,"rank":23,"persistent":false},"geometry":{"type":"Polygon","coordinates":[[[-122.966866,46.122331],[-122.966866,46.122421],[-122.9665,46.122437],[-122.966477,46.122601],[-122.966371,46.122617],[-122.966348,46.122691],[-122.966149,46.122678],[-122.966095,46.122711],[-122.966089,46.122781],[-122.96583,46.122781],[-122.96583,46.122691],[-122.965912,46.122687],[-122.965956,46.122653],[-122.96596,46.122511],[-122.966066,46.122495],[-122.966089,46.122421],[-122.966278,46.122421],[-122.966335,46.122397],[-122.966348,46.122241],[-122.966736,46.122241],[-122.966759,46.122315],[-122.966866,46.122331]]]}},{"type":"Feature","properties":{"id":50,"area_m2":1800,"px":18,"rank":24,"persistent":false},"geometry":{"type":"Polygon","coordinates":[[[-122.964279,46.11927],[-122.964279,46.11936],[-122.964184,46.119363],[-122.964135,46.119395],[-122.964149,46.11954],[-122.963891,46.11954],[-122.963868,46.119466],[-122.963761,46.11945],[-122.963748,46.119114],[-122.963692,46.11909],[-122.963503,46.11909],[-122.963503,46.11882],[-122.963632,46.11882],[-122.963655,46.118894],[-122.963762,46.11891],[-122.963762,46.119041],[-122.96379,46.119078],[-122.96402,46.11909],[-122.964043,46.119164],[-122.96415,46.11918],[-122.964184,46.119261],[-122.964279,46.11927]]]}},{"type":"Feature","properties":{"id":60,"area_m2":1800,"px":18,"rank":25,"persistent":false},"geometry":{"type":"Polygon","coordinates":[[[-122.960139,46.117829],[-122.960138,46.117919],[-122.959921,46.117925],[-122.959883,46.117957],[-122.95988,46.118009],[-122.95975,46.118009],[-122.959728,46.117935],[-122.959621,46.117919],[-122.959621,46.117829],[-122.959656,46.117786],[-122.959621,46.117737],[-122.959621,46.117199],[-122.95988,46.117199],[-122.959883,46.11779],[-122.959942,46.117828],[-122.960139,46.117829]]]}},{"type":"Feature","properties":{"id":63,"area_m2":1700,"px":17,"rank":26,"persistent":false},"geometry":{"type":"Polygon","coordinates":[[[-122.96208,46.11738],[-122.96208,46.11747],[-122.961876,46.117472],[-122.961827,46.117503],[-122.961821,46.117559],[-122.961692,46.117559],[-122.961669,46.117485],[-122.961563,46.117469],[-122.961528,46.117388],[-122.961433,46.117379],[-122.961432,46.117153],[-122.961392,46.117116],[-122.961304,46.117109],[-122.961304,46.117019],[-122.961692,46.117019],[-122.96171,46.11718],[-122.961821,46.1172],[-122.961856,46.11728],[-122.961951,46.11729],[-122.961979,46.117367],[-122.96208,46.11738]]]}},{"type":"Feature","properties":{"id":65,"area_m2":1600,"px":16,"rank":27,"persistent":false},"geometry":{"type":"Polygon","coordinates":[[[-122.965187,46.116751],[-122.965186,46.11693],[-122.964969,46.116937],[-122.964931,46.116969],[-122.964928,46.11702],[-122.964798,46.11702],[-122.964737,46.116996],[-122.964669,46.11702],[-122.96441,46.11702],[-122.96441,46.11675],[-122.964865,46.116749],[-122.964919,46.116722],[-122.96493,46.11666],[-122.965057,46.116661],[-122.96508,46.116735],[-122.965187,46.116751]]]}},{"type":"Feature","properties":{"id":85,"area_m2":1500,"px":15,"rank":28,"persistent":false},"geometry":{"type":"Polygon","coordinates":[[[-122.957555,46.111528],[-122.957555,46.111708],[-122.957296,46.111708],[-122.957283,46.111642],[-122.957167,46.111618],[-122.957163,46.111566],[-122.957126,46.111534],[-122.956779,46.111528],[-122.956779,46.111348],[-122.956885,46.111332],[-122.956908,46.111258],[-122.957038,46.111258],[-122.957066,46.111335],[-122.957296,46.111348],[-122.957319,46.111422],[-122.957426,46.111438],[-122.95746,46.111519],[-122.957555,46.111528]]]}},{"type":"Feature","properties":{"id":17,"area_m2":1400,"px":14,"rank":29,"persistent":false},"geometry":{"type":"Polygon","coordinates":[[[-122.976182,46.127914],[-122.976182,46.128003],[-122.975796,46.128003],[-122.975791,46.127952],[-122.975753,46.12792],[-122.975535,46.127913],[-122.975512,46.127839],[-122.975406,46.127823],[-122.975406,46.127643],[-122.975513,46.127628],[-122.975535,46.127553],[-122.975665,46.127553],[-122.975687,46.127628],[-122.975794,46.127644],[-122.975829,46.127724],[-122.975923,46.127734],[-122.975946,46.127898],[-122.976182,46.127914]]]}},{"type":"Feature","properties":{"id":70,"area_m2":1400,"px":14,"rank":30,"persistent":false},"geometry":{"type":"Polygon","coordinates":[[[-122.958587,46.115578],[-122.958587,46.115938],[-122.958199,46.115938],[-122.95819,46.115787],[-122.958144,46.11576],[-122.95807,46.115758],[-122.95807,46.115578],[-122.958587,46.115578]]]}},{"type":"Feature","properties":{"id":24,"area_m2":1300,"px":13,"rank":31,"persistent":false},"geometry":{"type":"Polygon","coordinates":[[[-122.972817,46.127103],[-122.972817,46.127193],[-122.972558,46.127193],[-122.972555,46.127141],[-122.972517,46.127109],[-122.9723,46.127103],[-122.972294,46.127046],[-122.972244,46.127015],[-122.972041,46.127013],[-122.972041,46.126833],[-122.972147,46.126817],[-122.97217,46.126743],[-122.972429,46.126743],[-122.972432,46.126884],[-122.972477,46.126919],[-122.972558,46.126923],[-122.972576,46.127083],[-122.972628,46.127102],[-122.972817,46.127103]]]}},{"type":"Feature","properties":{"id":41,"area_m2":1200,"px":12,"rank":32,"persistent":false},"geometry":{"type":"Polygon","coordinates":[[[-122.965054,46.121971],[-122.965054,46.122061],[-122.964947,46.122076],[-122.964924,46.12215],[-122.96483,46.12216],[-122.964795,46.12224],[-122.964683,46.12226],[-122.964665,46.12233],[-122.964536,46.12233],[-122.96453,46.122274],[-122.964481,46.122243],[-122.964277,46.12224],[-122.964277,46.12197],[-122.964536,46.12197],[-122.964565,46.122048],[-122.964727,46.122085],[-122.964896,46.122048],[-122.964925,46.121971],[-122.965054,46.121971]]]}},{"type":"Feature","properties":{"id":43,"area_m2":1200,"px":12,"rank":33,"persistent":false},"geometry":{"type":"Polygon","coordinates":[[[-122.967255,46.121251],[-122.967254,46.121521],[-122.967125,46.121521],[-122.967064,46.121497],[-122.966996,46.121521],[-122.966866,46.121521],[-122.966878,46.121371],[-122.966832,46.121344],[-122.966737,46.121341],[-122.966702,46.12126],[-122.966608,46.121251],[-122.966608,46.121161],[-122.966714,46.121145],[-122.966737,46.121071],[-122.966866,46.121071],[-122.96688,46.121137],[-122.966996,46.121161],[-122.96703,46.121242],[-122.967255,46.121251]]]}},{"type":"Feature","properties":{"id":69,"area_m2":1200,"px":12,"rank":34,"persistent":false},"geometry":{"type":"Polygon","coordinates":[[[-122.95781,46.115848],[-122.95781,46.116028],[-122.957341,46.116032],[-122.957299,46.116061],[-122.957293,46.116118],[-122.957176,46.116142],[-122.957163,46.116208],[-122.957034,46.116208],[-122.957011,46.116134],[-122.956905,46.116118],[-122.956905,46.116028],[-122.957122,46.116021],[-122.95716,46.115989],[-122.957164,46.115938],[-122.957394,46.115926],[-122.957422,46.115848],[-122.95781,46.115848]]]}},{"type":"Feature","properties":{"id":4,"area_m2":1100,"px":11,"rank":35,"persistent":false},"geometry":{"type":"Polygon","coordinates":[[[-122.99055,46.133406],[-122.99055,46.133766],[-122.990291,46.133766],[-122.990268,46.133692],[-122.990161,46.133676],[-122.990161,46.133316],[-122.990291,46.133316],[-122.990296,46.133386],[-122.990344,46.133417],[-122.99055,46.133406]]]}},{"type":"Feature","properties":{"id":74,"area_m2":1100,"px":11,"rank":36,"persistent":false},"geometry":{"type":"Polygon","coordinates":[[[-122.957035,46.114318],[-122.957035,46.114408],[-122.956824,46.114412],[-122.956782,46.114441],[-122.956776,46.114498],[-122.956665,46.114517],[-122.956647,46.114678],[-122.956388,46.114677],[-122.956365,46.114603],[-122.956259,46.114587],[-122.956259,46.114497],[-122.956365,46.114482],[-122.956388,46.114408],[-122.956606,46.114401],[-122.956644,46.114369],[-122.956647,46.114318],[-122.957035,46.114318]]]}},{"type":"Feature","properties":{"id":36,"area_m2":1000,"px":10,"rank":37,"persistent":false},"geometry":{"type":"Polygon","coordinates":[[[-122.969195,46.123142],[-122.969195,46.123232],[-122.968807,46.123232],[-122.968784,46.123158],[-122.968677,46.123142],[-122.968643,46.123061],[-122.968548,46.123052],[-122.968548,46.122872],[-122.968677,46.122872],[-122.968683,46.122928],[-122.968733,46.122959],[-122.968936,46.122962],[-122.968959,46.123036],[-122.969066,46.123052],[-122.9691,46.123133],[-122.969195,46.123142]]]}},{"type":"Feature","properties":{"id":58,"area_m2":1000,"px":10,"rank":38,"persistent":false},"geometry":{"type":"Polygon","coordinates":[[[-122.962468,46.11801],[-122.962468,46.11828],[-122.96195,46.118279],[-122.96195,46.1181],[-122.962168,46.118093],[-122.962206,46.118061],[-122.962209,46.11801],[-122.962468,46.11801]]]}},{"type":"Feature","properties":{"id":64,"area_m2":1000,"px":10,"rank":39,"persistent":false},"geometry":{"type":"Polygon","coordinates":[[[-122.958069,46.116928],[-122.958068,46.117108],[-122.957962,46.117124],[-122.957939,46.117198],[-122.95768,46.117198],[-122.957657,46.117124],[-122.957551,46.117108],[-122.957551,46.116928],[-122.958069,46.116928]]]}},{"type":"Feature","properties":{"id":45,"area_m2":900,"px":9,"rank":40,"persistent":false},"geometry":{"type":"Polygon","coordinates":[[[-122.964666,46.120711],[-122.964666,46.1208],[-122.96456,46.120816],[-122.964537,46.12089],[-122.964408,46.12089],[-122.964385,46.120816],[-122.964278,46.1208],[-122.964244,46.120719],[-122.964149,46.12071],[-122.964149,46.12053],[-122.964408,46.12053],[-122.96443,46.120605],[-122.964537,46.12062],[-122.964572,46.120701],[-122.964666,46.120711]]]}},{"type":"Feature","properties":{"id":8,"area_m2":800,"px":8,"rank":41,"persistent":true},"geometry":{"type":"Polygon","coordinates":[[[-122.989644,46.131066],[-122.989644,46.131246],[-122.989537,46.131261],[-122.989514,46.131336],[-122.989385,46.131336],[-122.989376,46.131184],[-122.98933,46.131158],[-122.989256,46.131156],[-122.989256,46.130976],[-122.989514,46.130976],[-122.989537,46.13105],[-122.989644,46.131066]]]}},{"type":"Feature","properties":{"id":12,"area_m2":800,"px":8,"rank":42,"persistent":false},"geometry":{"type":"Polygon","coordinates":[[[-122.97903,46.128814],[-122.97903,46.128904],[-122.9789,46.128904],[-122.978887,46.128838],[-122.978771,46.128814],[-122.978736,46.128733],[-122.978512,46.128724],[-122.978509,46.128582],[-122.978464,46.128548],[-122.978383,46.128544],[-122.978383,46.128454],[-122.978512,46.128454],[-122.978518,46.128511],[-122.978567,46.128542],[-122.978771,46.128544],[-122.978794,46.128618],[-122.9789,46.128634],[-122.978913,46.12879],[-122.97903,46.128814]]]}},{"type":"Feature","properties":{"id":47,"area_m2":800,"px":8,"rank":43,"persistent":false},"geometry":{"type":"Polygon","coordinates":[[[-122.962596,46.12044],[-122.962596,46.1208],[-122.962466,46.1208],[-122.962443,46.120726],[-122.962337,46.12071],[-122.962302,46.120629],[-122.962208,46.12062],[-122.962208,46.12053],[-122.962314,46.120514],[-122.962337,46.12044],[-122.962596,46.12044]]]}},{"type":"Feature","properties":{"id":68,"area_m2":800,"px":8,"rank":44,"persistent":false},"geometry":{"type":"Polygon","coordinates":[[[-122.966093,46.116031],[-122.966093,46.116211],[-122.965705,46.116211],[-122.965705,46.115941],[-122.965964,46.115941],[-122.965986,46.116015],[-122.966093,46.116031]]]}},{"type":"Feature","properties":{"id":71,"area_m2":800,"px":8,"rank":45,"persistent":false},"geometry":{"type":"Polygon","coordinates":[[[-122.959364,46.115759],[-122.959363,46.115849],[-122.959105,46.115848],[-122.959101,46.115797],[-122.959064,46.115765],[-122.958846,46.115758],[-122.958823,46.115684],[-122.958717,46.115668],[-122.958717,46.115578],[-122.959105,46.115579],[-122.959128,46.115653],[-122.959234,46.115669],[-122.959269,46.115749],[-122.959364,46.115759]]]}},{"type":"Feature","properties":{"id":77,"area_m2":800,"px":8,"rank":46,"persistent":false},"geometry":{"type":"Polygon","coordinates":[[[-122.963118,46.1136],[-122.963118,46.11387],[-122.963011,46.113886],[-122.962988,46.11396],[-122.962872,46.113984],[-122.962859,46.11405],[-122.96273,46.11405],[-122.96273,46.11387],[-122.962804,46.113867],[-122.96285,46.113841],[-122.962859,46.11369],[-122.962966,46.113674],[-122.962989,46.1136],[-122.963118,46.1136]]]}},{"type":"Feature","properties":{"id":78,"area_m2":800,"px":8,"rank":47,"persistent":false},"geometry":{"type":"Polygon","coordinates":[[[-122.956518,46.113688],[-122.956518,46.113867],[-122.956411,46.113883],[-122.956388,46.113957],[-122.95613,46.113957],[-122.95613,46.113867],[-122.956164,46.113825],[-122.95613,46.113777],[-122.95613,46.113597],[-122.956259,46.113597],[-122.956265,46.113654],[-122.956314,46.113685],[-122.956518,46.113688]]]}},{"type":"Feature","properties":{"id":80,"area_m2":800,"px":8,"rank":48,"persistent":false},"geometry":{"type":"Polygon","coordinates":[[[-122.96273,46.11288],[-122.96273,46.11306],[-122.962601,46.11306],[-122.962588,46.112994],[-122.962523,46.11297],[-122.962377,46.112979],[-122.962342,46.11306],[-122.962213,46.113059],[-122.962213,46.11288],[-122.962287,46.112877],[-122.962333,46.112851],[-122.962342,46.1127],[-122.962472,46.1127],[-122.962472,46.112831],[-122.962506,46.112871],[-122.96273,46.11288]]]}},{"type":"Feature","properties":{"id":81,"area_m2":800,"px":8,"rank":49,"persistent":false},"geometry":{"type":"Polygon","coordinates":[[[-122.960531,46.111979],[-122.960531,46.112249],[-122.960143,46.112249],[-122.960143,46.112069],[-122.960249,46.112053],[-122.960272,46.111979],[-122.960531,46.111979]]]}},{"type":"Feature","properties":{"id":7,"area_m2":700,"px":7,"rank":50,"persistent":false},"geometry":{"type":"Polygon","coordinates":[[[-122.990291,46.132776],[-122.990291,46.132956],[-122.990073,46.132962],[-122.990035,46.132994],[-122.990032,46.133046],[-122.989903,46.133046],[-122.98988,46.132971],[-122.989773,46.132956],[-122.989773,46.132776],[-122.989902,46.132776],[-122.989964,46.1328],[-122.990032,46.132776],[-122.990291,46.132776]]]}},{"type":"Feature","properties":{"id":11,"area_m2":700,"px":7,"rank":51,"persistent":false},"geometry":{"type":"Polygon","coordinates":[[[-122.9789,46.129174],[-122.9789,46.129444],[-122.978771,46.129444],[-122.978748,46.12937],[-122.978641,46.129354],[-122.978624,46.129194],[-122.978571,46.129174],[-122.978383,46.129174],[-122.978383,46.129084],[-122.978641,46.129084],[-122.978645,46.129136],[-122.978682,46.129168],[-122.9789,46.129174]]]}},{"type":"Feature","properties":{"id":28,"area_m2":700,"px":7,"rank":52,"persistent":false},"geometry":{"type":"Polygon","coordinates":[[[-122.968935,46.124942],[-122.968935,46.125122],[-122.968806,46.125122],[-122.968783,46.124958],[-122.968615,46.124918],[-122.968547,46.124942],[-122.968418,46.124942],[-122.968418,46.124852],[-122.968524,46.124836],[-122.968547,46.124762],[-122.968663,46.124738],[-122.968677,46.124672],[-122.968806,46.124672],[-122.968809,46.124903],[-122.968854,46.124938],[-122.968935,46.124942]]]}},{"type":"Feature","properties":{"id":33,"area_m2":700,"px":7,"rank":53,"persistent":false},"geometry":{"type":"Polygon","coordinates":[[[-122.976702,46.123144],[-122.976702,46.123504],[-122.976573,46.123503],[-122.97655,46.123429],[-122.976443,46.123413],[-122.976443,46.123144],[-122.976702,46.123144]]]}},{"type":"Feature","properties":{"id":57,"area_m2":700,"px":7,"rank":54,"persistent":false},"geometry":{"type":"Polygon","coordinates":[[[-122.961303,46.118279],[-122.961303,46.118459],[-122.961044,46.118459],[-122.961041,46.118408],[-122.961003,46.118376],[-122.960785,46.118369],[-122.960785,46.118279],[-122.960892,46.118263],[-122.960915,46.118189],[-122.961044,46.118189],[-122.96105,46.118246],[-122.961099,46.118277],[-122.961303,46.118279]]]}},{"type":"Feature","properties":{"id":19,"area_m2":600,"px":6,"rank":55,"persistent":false},"geometry":{"type":"Polygon","coordinates":[[[-122.975406,46.127373],[-122.975406,46.127463],[-122.975324,46.127467],[-122.97528,46.127502],[-122.975276,46.127643],[-122.975147,46.127643],[-122.975124,46.127569],[-122.975018,46.127553],[-122.975018,46.127373],[-122.975406,46.127373]]]}},{"type":"Feature","properties":{"id":21,"area_m2":600,"px":6,"rank":56,"persistent":false},"geometry":{"type":"Polygon","coordinates":[[[-122.973335,46.127463],[-122.973335,46.127553],[-122.972947,46.127553],[-122.972947,46.127283],[-122.973076,46.127283],[-122.973099,46.127357],[-122.973205,46.127373],[-122.97324,46.127454],[-122.973335,46.127463]]]}},{"type":"Feature","properties":{"id":37,"area_m2":600,"px":6,"rank":57,"persistent":false},"geometry":{"type":"Polygon","coordinates":[[[-122.966866,46.122511],[-122.966865,46.122691],[-122.966759,46.122707],[-122.966736,46.122781],[-122.96662,46.122805],[-122.966606,46.122871],[-122.966477,46.122871],[-122.966477,46.122691],[-122.966584,46.122675],[-122.966607,46.122601],[-122.966723,46.122577],[-122.966736,46.122511],[-122.966866,46.122511]]]}},{"type":"Feature","properties":{"id":40,"area_m2":600,"px":6,"rank":58,"persistent":false},"geometry":{"type":"Polygon","coordinates":[[[-122.965701,46.121881],[-122.965701,46.121971],[-122.965594,46.121987],[-122.965572,46.122061],[-122.965471,46.122073],[-122.965442,46.122151],[-122.965341,46.122163],[-122.965313,46.122241],[-122.965218,46.12225],[-122.965183,46.122331],[-122.965071,46.12235],[-122.965054,46.122421],[-122.964924,46.12242],[-122.964924,46.122331],[-122.965031,46.122315],[-122.965054,46.122241],[-122.965155,46.122228],[-122.965183,46.122151],[-122.965284,46.122138],[-122.965313,46.122061],[-122.965408,46.122052],[-122.965442,46.121971],[-122.965554,46.121951],[-122.965572,46.121881],[-122.965701,46.121881]]]}},{"type":"Feature","properties":{"id":59,"area_m2":600,"px":6,"rank":59,"persistent":false},"geometry":{"type":"Polygon","coordinates":[[[-122.964539,46.1181],[-122.964539,46.11819],[-122.964409,46.11819],[-122.964387,46.118116],[-122.96428,46.1181],[-122.964262,46.11803],[-122.964151,46.11801],[-122.964116,46.117929],[-122.964021,46.11792],[-122.963993,46.117842],[-122.963892,46.11783],[-122.963863,46.117752],[-122.963763,46.11774],[-122.963763,46.11765],[-122.963892,46.11765],[-122.963915,46.117724],[-122.964021,46.11774],[-122.964039,46.11781],[-122.964151,46.11783],[-122.964185,46.117911],[-122.96428,46.11792],[-122.964308,46.117998],[-122.964409,46.11801],[-122.964438,46.118088],[-122.964539,46.1181]]]}},{"type":"Feature","properties":{"id":79,"area_m2":600,"px":6,"rank":60,"persistent":false},"geometry":{"type":"Polygon","coordinates":[[[-122.955354,46.113057],[-122.955354,46.113237],[-122.955247,46.113253],[-122.955224,46.113327],[-122.955108,46.113351],[-122.955095,46.113417],[-122.954966,46.113417],[-122.954966,46.113237],[-122.955072,46.113221],[-122.955095,46.113147],[-122.955211,46.113123],[-122.955225,46.113057],[-122.955354,46.113057]]]}},{"type":"Feature","properties":{"id":84,"area_m2":600,"px":6,"rank":61,"persistent":false},"geometry":{"type":"Polygon","coordinates":[[[-122.95859,46.111708],[-122.95859,46.111798],[-122.958483,46.111814],[-122.958461,46.111888],[-122.958202,46.111888],[-122.958179,46.111814],[-122.958073,46.111798],[-122.958073,46.111708],[-122.95859,46.111708]]]}},{"type":"Feature","properties":{"id":3,"area_m2":500,"px":5,"rank":62,"persistent":false},"geometry":{"type":"Polygon","coordinates":[[[-122.988737,46.134126],[-122.988737,46.134216],[-122.98863,46.134231],[-122.988608,46.134305],[-122.988478,46.134305],[-122.988455,46.134231],[-122.988349,46.134215],[-122.988349,46.134036],[-122.988478,46.134036],[-122.988484,46.134092],[-122.988533,46.134123],[-122.988737,46.134126]]]}},{"type":"Feature","properties":{"id":82,"area_m2":500,"px":5,"rank":63,"persistent":false},"geometry":{"type":"Polygon","coordinates":[[[-122.956519,46.111978],[-122.956519,46.112247],[-122.956261,46.112247],[-122.956261,46.112067],[-122.956367,46.112052],[-122.95639,46.111977],[-122.956519,46.111978]]]}},{"type":"Feature","properties":{"id":10,"area_m2":400,"px":4,"rank":64,"persistent":false},"geometry":{"type":"Polygon","coordinates":[[[-122.983171,46.130795],[-122.983171,46.130975],[-122.983097,46.130977],[-122.983051,46.131003],[-122.983042,46.131155],[-122.982913,46.131155],[-122.982913,46.130975],[-122.982987,46.130972],[-122.983033,46.130946],[-122.983042,46.130795],[-122.983171,46.130795]]]}},{"type":"Feature","properties":{"id":15,"area_m2":400,"px":4,"rank":65,"persistent":false},"geometry":{"type":"Polygon","coordinates":[[[-122.982007,46.127825],[-122.982007,46.127915],[-122.981901,46.12793],[-122.981878,46.128005],[-122.981761,46.128029],[-122.981748,46.128095],[-122.981619,46.128094],[-122.981619,46.127915],[-122.981823,46.127912],[-122.981872,46.127881],[-122.981878,46.127825],[-122.982007,46.127825]]]}},{"type":"Feature","properties":{"id":20,"area_m2":400,"px":4,"rank":66,"persistent":false},"geometry":{"type":"Polygon","coordinates":[[[-122.982007,46.127375],[-122.982007,46.127555],[-122.981749,46.127555],[-122.981749,46.127375],[-122.982007,46.127375]]]}},{"type":"Feature","properties":{"id":27,"area_m2":400,"px":4,"rank":67,"persistent":false},"geometry":{"type":"Polygon","coordinates":[[[-122.970876,46.125482],[-122.970876,46.125662],[-122.970618,46.125662],[-122.970618,46.125482],[-122.970876,46.125482]]]}},{"type":"Feature","properties":{"id":29,"area_m2":400,"px":4,"rank":68,"persistent":false},"geometry":{"type":"Polygon","coordinates":[[[-122.967123,46.124221],[-122.967123,46.124311],[-122.966994,46.124311],[-122.966991,46.12426],[-122.966953,46.124228],[-122.966735,46.124221],[-122.966735,46.124131],[-122.966842,46.124115],[-122.966865,46.124041],[-122.966994,46.124041],[-122.967003,46.124193],[-122.967049,46.124219],[-122.967123,46.124221]]]}},{"type":"Feature","properties":{"id":30,"area_m2":400,"px":4,"rank":69,"persistent":false},"geometry":{"type":"Polygon","coordinates":[[[-122.966865,46.123771],[-122.966865,46.123951],[-122.966606,46.123951],[-122.966606,46.123771],[-122.966865,46.123771]]]}},{"type":"Feature","properties":{"id":31,"area_m2":400,"px":4,"rank":70,"persistent":false},"geometry":{"type":"Polygon","coordinates":[[[-122.969065,46.123682],[-122.969065,46.123862],[-122.968806,46.123862],[-122.968807,46.123682],[-122.969065,46.123682]]]}},{"type":"Feature","properties":{"id":32,"area_m2":400,"px":4,"rank":71,"persistent":false},"geometry":{"type":"Polygon","coordinates":[[[-122.967901,46.123322],[-122.9679,46.123411],[-122.967794,46.123427],[-122.967771,46.123501],[-122.967655,46.123525],[-122.967642,46.123591],[-122.967512,46.123591],[-122.967512,46.123501],[-122.967594,46.123497],[-122.967638,46.123463],[-122.967642,46.123321],[-122.967901,46.123322]]]}},{"type":"Feature","properties":{"id":39,"area_m2":400,"px":4,"rank":72,"persistent":false},"geometry":{"type":"Polygon","coordinates":[[[-122.965701,46.122151],[-122.965701,46.122241],[-122.965594,46.122257],[-122.965571,46.122331],[-122.965477,46.12234],[-122.965442,46.122421],[-122.96533,46.12244],[-122.965312,46.122511],[-122.965183,46.122511],[-122.965183,46.122421],[-122.96529,46.122405],[-122.965313,46.122331],[-122.965408,46.122322],[-122.965442,46.122241],[-122.965554,46.122221],[-122.965572,46.122151],[-122.965701,46.122151]]]}},{"type":"Feature","properties":{"id":44,"area_m2":400,"px":4,"rank":73,"persistent":false},"geometry":{"type":"Polygon","coordinates":[[[-122.966478,46.120891],[-122.966478,46.121071],[-122.966219,46.121071],[-122.96622,46.120891],[-122.966478,46.120891]]]}},{"type":"Feature","properties":{"id":46,"area_m2":400,"px":4,"rank":74,"persistent":false},"geometry":{"type":"Polygon","coordinates":[[[-122.963113,46.12062],[-122.963113,46.12089],[-122.962984,46.12089],[-122.962961,46.120816],[-122.962855,46.1208],[-122.962855,46.12071],[-122.962961,46.120694],[-122.962984,46.12062],[-122.963113,46.12062]]]}},{"type":"Feature","properties":{"id":51,"area_m2":400,"px":4,"rank":75,"persistent":false},"geometry":{"type":"Polygon","coordinates":[[[-122.962208,46.11927],[-122.962208,46.11945],[-122.961949,46.119449],[-122.96195,46.11927],[-122.962208,46.11927]]]}},{"type":"Feature","properties":{"id":53,"area_m2":400,"px":4,"rank":76,"persistent":false},"geometry":{"type":"Polygon","coordinates":[[[-122.962597,46.11918],[-122.962597,46.11927],[-122.962338,46.11927],[-122.962315,46.119195],[-122.962209,46.11918],[-122.962209,46.11909],[-122.962467,46.11909],[-122.96249,46.119164],[-122.962597,46.11918]]]}},{"type":"Feature","properties":{"id":76,"area_m2":400,"px":4,"rank":77,"persistent":false},"geometry":{"type":"Polygon","coordinates":[[[-122.957553,46.113868],[-122.957553,46.113958],[-122.957472,46.113962],[-122.957427,46.113996],[-122.957424,46.114138],[-122.957294,46.114138],[-122.957295,46.113868],[-122.957553,46.113868]]]}},{"type":"Feature","properties":{"id":1,"area_m2":300,"px":3,"rank":78,"persistent":false},"geometry":{"type":"Polygon","coordinates":[[[-122.989773,46.134576],[-122.989773,46.134666],[-122.989384,46.134666],[-122.989384,46.134576],[-122.989773,46.134576]]]}},{"type":"Feature","properties":{"id":2,"area_m2":300,"px":3,"rank":79,"persistent":false},"geometry":{"type":"Polygon","coordinates":[[[-122.989773,46.134306],[-122.989773,46.134486],[-122.989514,46.134486],[-122.989514,46.134396],[-122.989621,46.13438],[-122.989643,46.134306],[-122.989773,46.134306]]]}},{"type":"Feature","properties":{"id":6,"area_m2":300,"px":3,"rank":80,"persistent":false},"geometry":{"type":"Polygon","coordinates":[[[-122.990808,46.133406],[-122.990808,46.133676],[-122.990679,46.133676],[-122.990679,46.133406],[-122.990808,46.133406]]]}},{"type":"Feature","properties":{"id":9,"area_m2":300,"px":3,"rank":81,"persistent":false},"geometry":{"type":"Polygon","coordinates":[[[-122.978252,46.130974],[-122.978252,46.131244],[-122.978123,46.131244],[-122.978123,46.130974],[-122.978252,46.130974]]]}},{"type":"Feature","properties":{"id":13,"area_m2":300,"px":3,"rank":82,"persistent":false},"geometry":{"type":"Polygon","coordinates":[[[-122.984855,46.128275],[-122.984855,46.128545],[-122.984726,46.128545],[-122.984726,46.128275],[-122.984855,46.128275]]]}},{"type":"Feature","properties":{"id":14,"area_m2":300,"px":3,"rank":83,"persistent":false},"geometry":{"type":"Polygon","coordinates":[[[-122.976959,46.128364],[-122.976959,46.128454],[-122.9767,46.128454],[-122.9767,46.128274],[-122.976829,46.128274],[-122.976852,46.128348],[-122.976959,46.128364]]]}},{"type":"Feature","properties":{"id":18,"area_m2":300,"px":3,"rank":84,"persistent":false},"geometry":{"type":"Polygon","coordinates":[[[-122.975276,46.127913],[-122.975276,46.128003],[-122.975147,46.128003],[-122.975124,46.127929],[-122.975017,46.127913],[-122.974983,46.127832],[-122.974888,46.127823],[-122.974888,46.127733],[-122.975017,46.127733],[-122.97504,46.127807],[-122.975147,46.127823],[-122.975181,46.127904],[-122.975276,46.127913]]]}},{"type":"Feature","properties":{"id":26,"area_m2":300,"px":3,"rank":85,"persistent":false},"geometry":{"type":"Polygon","coordinates":[[[-122.970229,46.125482],[-122.970229,46.125752],[-122.9701,46.125752],[-122.9701,46.125482],[-122.970229,46.125482]]]}},{"type":"Feature","properties":{"id":42,"area_m2":300,"px":3,"rank":86,"persistent":false},"geometry":{"type":"Polygon","coordinates":[[[-122.965572,46.121611],[-122.965572,46.121701],[-122.965465,46.121717],[-122.965442,46.121791],[-122.965326,46.121815],[-122.965313,46.121881],[-122.965184,46.121881],[-122.965184,46.121791],[-122.96529,46.121775],[-122.965313,46.121701],[-122.965429,46.121677],[-122.965443,46.121611],[-122.965572,46.121611]]]}},{"type":"Feature","properties":{"id":48,"area_m2":300,"px":3,"rank":87,"persistent":false},"geometry":{"type":"Polygon","coordinates":[[[-122.969456,46.119452],[-122.969456,46.119542],[-122.969327,46.119542],[-122.969323,46.11949],[-122.969285,46.119458],[-122.969068,46.119452],[-122.969068,46.119362],[-122.969327,46.119362],[-122.969349,46.119436],[-122.969456,46.119452]]]}},{"type":"Feature","properties":{"id":52,"area_m2":300,"px":3,"rank":88,"persistent":false},"geometry":{"type":"Polygon","coordinates":[[[-122.960785,46.119269],[-122.960784,46.119449],[-122.960526,46.119449],[-122.960526,46.119359],[-122.960632,46.119343],[-122.960655,46.119269],[-122.960785,46.119269]]]}},{"type":"Feature","properties":{"id":56,"area_m2":300,"px":3,"rank":89,"persistent":false},"geometry":{"type":"Polygon","coordinates":[[[-122.959879,46.118639],[-122.959879,46.118909],[-122.95975,46.118909],[-122.95975,46.118639],[-122.959879,46.118639]]]}},{"type":"Feature","properties":{"id":90,"area_m2":300,"px":3,"rank":90,"persistent":false},"geometry":{"type":"Polygon","coordinates":[[[-122.96105,46.109639],[-122.96105,46.109819],[-122.960791,46.109819],[-122.960792,46.109729],[-122.960898,46.109713],[-122.960921,46.109639],[-122.96105,46.109639]]]}}]}