{"type":"FeatureCollection","features":[{"type":"Feature","properties":{"id":6,"area_m2":19500,"px":195,"rank":1,"persistent":true},"geometry":{"type":"Polygon","coordinates":[[[-122.981619,46.126655],[-122.981619,46.126924],[-122.981545,46.126927],[-122.981499,46.126953],[-122.98149,46.127104],[-122.981389,46.127117],[-122.98136,46.127194],[-122.981265,46.127204],[-122.981231,46.127284],[-122.981149,46.127289],[-122.981105,46.127323],[-122.981101,46.127734],[-122.980995,46.12775],[-122.980972,46.127824],[-122.980855,46.127848],[-122.980842,46.127914],[-122.980454,46.127914],[-122.980436,46.127754],[-122.980325,46.127734],[-122.98029,46.127653],[-122.980195,46.127644],[-122.980167,46.127567],[-122.980066,46.127554],[-122.980037,46.127477],[-122.979936,46.127464],[-122.979935,46.127058],[-122.979896,46.127021],[-122.979807,46.127013],[-122.979807,46.126834],[-122.979896,46.126828],[-122.979936,46.126786],[-122.979937,46.126114],[-122.980044,46.126098],[-122.980066,46.126024],[-122.98027,46.126022],[-122.980319,46.125991],[-122.980325,46.125934],[-122.980455,46.125934],[-122.980472,46.126005],[-122.980584,46.126024],[-122.980597,46.12609],[-122.980713,46.126114],[-122.980748,46.126195],[-122.980972,46.126204],[-122.980985,46.12627],[-122.981102,46.126295],[-122.981108,46.126351],[-122.98115,46.12638],[-122.981361,46.126385],[-122.981383,46.126459],[-122.98149,46.126475],[-122.981503,46.126631],[-122.981619,46.126655]]]}},{"type":"Feature","properties":{"id":38,"area_m2":10400,"px":104,"rank":2,"persistent":true},"geometry":{"type":"Polygon","coordinates":[[[-122.966609,46.118101],[-122.966609,46.118371],[-122.966503,46.118387],[-122.96648,46.118461],[-122.966092,46.118461],[-122.966074,46.118391],[-122.965962,46.118371],[-122.965928,46.11829],[-122.965833,46.118281],[-122.965804,46.118203],[-122.965574,46.118191],[-122.965574,46.118046],[-122.965547,46.11801],[-122.965186,46.118011],[-122.965163,46.117936],[-122.965057,46.11792],[-122.965039,46.11785],[-122.964927,46.11783],[-122.964893,46.11775],[-122.964798,46.11774],[-122.964769,46.117663],[-122.964669,46.11765],[-122.964669,46.11747],[-122.964743,46.117468],[-122.964789,46.117442],[-122.964798,46.11729],[-122.965016,46.117284],[-122.965054,46.117252],[-122.965059,46.117201],[-122.965445,46.117201],[-122.965451,46.117257],[-122.9655,46.117288],[-122.965833,46.117291],[-122.965856,46.117365],[-122.965963,46.117381],[-122.965963,46.117471],[-122.965731,46.11747],[-122.965704,46.117506],[-122.965717,46.117627],[-122.965774,46.11765],[-122.966221,46.117651],[-122.966234,46.117807],[-122.966351,46.117831],[-122.966385,46.117912],[-122.96648,46.117921],[-122.966489,46.118072],[-122.966535,46.118099],[-122.966609,46.118101]]]}},{"type":"Feature","properties":{"id":32,"area_m2":10300,"px":103,"rank":3,"persistent":false},"geometry":{"type":"Polygon","coordinates":[[[-122.96868,46.118462],[-122.96868,46.118732],[-122.968585,46.118741],[-122.96855,46.118786],[-122.968563,46.118888],[-122.96868,46.118912],[-122.96868,46.119002],[-122.968598,46.119006],[-122.968554,46.11904],[-122.96855,46.119271],[-122.968443,46.119287],[-122.968421,46.119361],[-122.968326,46.119371],[-122.968291,46.119451],[-122.968179,46.119471],[-122.968162,46.119541],[-122.967773,46.119541],[-122.967712,46.119517],[-122.967644,46.119541],[-122.967515,46.119541],[-122.96748,46.11946],[-122.967256,46.119451],[-122.967233,46.119377],[-122.967126,46.119361],[-122.967127,46.119001],[-122.967233,46.118985],[-122.967256,46.118911],[-122.96748,46.118902],[-122.967515,46.118821],[-122.967699,46.118835],[-122.967757,46.118815],[-122.967774,46.118551],[-122.967991,46.11855],[-122.968048,46.118517],[-122.968033,46.118281],[-122.968421,46.118282],[-122.968444,46.118356],[-122.968551,46.118372],[-122.968585,46.118452],[-122.96868,46.118462]]]}},{"type":"Feature","properties":{"id":4,"area_m2":9400,"px":94,"rank":4,"persistent":false},"geometry":{"type":"Polygon","coordinates":[[[-122.976053,46.127824],[-122.976053,46.128003],[-122.975836,46.128005],[-122.975775,46.128049],[-122.975807,46.128249],[-122.975923,46.128274],[-122.975958,46.128354],[-122.976053,46.128364],[-122.976053,46.128453],[-122.975923,46.128453],[-122.97591,46.128387],[-122.975794,46.128363],[-122.975759,46.128283],[-122.975535,46.128273],[-122.975535,46.128142],[-122.975507,46.128106],[-122.975276,46.128093],[-122.975276,46.128003],[-122.975642,46.127988],[-122.975665,46.127949],[-122.975647,46.127843],[-122.975595,46.127824],[-122.975406,46.127823],[-122.975383,46.127749],[-122.975276,46.127733],[-122.97528,46.127574],[-122.975226,46.127554],[-122.975018,46.127553],[-122.975008,46.127492],[-122.974955,46.127464],[-122.9748,46.12747],[-122.974762,46.127502],[-122.974759,46.127553],[-122.974642,46.127577],[-122.974629,46.127643],[-122.9745,46.127643],[-122.9745,46.127463],[-122.974696,46.127462],[-122.974757,46.12742],[-122.974746,46.127307],[-122.974629,46.127283],[-122.974616,46.127127],[-122.974559,46.127103],[-122.974241,46.127103],[-122.974218,46.127029],[-122.974112,46.127013],[-122.974077,46.126932],[-122.973982,46.126923],[-122.97396,46.126759],[-122.973724,46.126743],[-122.973701,46.126669],[-122.973594,46.126653],[-122.973571,46.126489],[-122.973335,46.126473],[-122.973313,46.126399],[-122.973206,46.126383],[-122.973193,46.126317],[-122.973077,46.126293],[-122.973048,46.126215],[-122.972947,46.126203],[-122.972947,46.126023],[-122.973335,46.126023],[-122.973358,46.126097],[-122.973465,46.126113],[-122.973478,46.126179],[-122.973594,46.126203],[-122.973623,46.126281],[-122.973724,46.126293],[-122.973724,46.126424],[-122.973752,46.126461],[-122.974112,46.126473],[-122.974135,46.126637],[-122.974371,46.126653],[-122.974393,46.126727],[-122.9745,46.126743],[-122.974535,46.126824],[-122.974629,46.126833],[-122.974652,46.126997],[-122.974888,46.127013],[-122.974911,46.127177],[-122.975147,46.127193],[-122.97517,46.127358],[-122.975406,46.127373],[-122.975429,46.127538],[-122.975665,46.127553],[-122.975687,46.127628],[-122.975794,46.127644],[-122.975807,46.127709],[-122.975923,46.127734],[-122.975952,46.127811],[-122.976053,46.127824]]]}},{"type":"Feature","properties":{"id":44,"area_m2":8200,"px":82,"rank":5,"persistent":false},"geometry":{"type":"Polygon","coordinates":[[[-122.960786,46.116839],[-122.960786,46.116929],[-122.960339,46.116929],[-122.960278,46.116957],[-122.960269,46.117019],[-122.959882,46.117019],[-122.959879,46.116869],[-122.95982,46.116826],[-122.959622,46.116839],[-122.959553,46.116815],[-122.95949,46.116839],[-122.958586,46.116838],[-122.95858,46.116782],[-122.958531,46.116751],[-122.958198,46.116748],[-122.958198,46.116478],[-122.958387,46.116478],[-122.958444,46.116454],[-122.958457,46.116208],[-122.959104,46.116209],[-122.959114,46.11627],[-122.959167,46.116298],[-122.959622,46.116299],[-122.959628,46.116445],[-122.95967,46.116475],[-122.959751,46.116479],[-122.959755,46.11653],[-122.959792,46.116562],[-122.959942,46.116593],[-122.96001,46.116569],[-122.960139,46.116569],[-122.960139,46.116659],[-122.960051,46.116665],[-122.960012,46.116702],[-122.960011,46.116795],[-122.960051,46.116832],[-122.960786,46.116839]]]}},{"type":"Feature","properties":{"id":21,"area_m2":5700,"px":57,"rank":6,"persistent":false},"geometry":{"type":"Polygon","coordinates":[[[-122.967771,46.122961],[-122.967771,46.123051],[-122.96769,46.123055],[-122.967645,46.12309],[-122.967642,46.123231],[-122.96756,46.123235],[-122.967518,46.123265],[-122.967512,46.123411],[-122.967179,46.123414],[-122.96713,46.123445],[-122.967124,46.123501],[-122.966606,46.123501],[-122.966603,46.123359],[-122.966558,46.123325],[-122.966477,46.123321],[-122.966477,46.123231],[-122.966551,46.123229],[-122.966597,46.123203],[-122.966607,46.123051],[-122.966708,46.123039],[-122.966736,46.122961],[-122.966831,46.122952],[-122.966866,46.122871],[-122.966982,46.122847],[-122.966995,46.122691],[-122.967102,46.122675],[-122.967125,46.122601],[-122.967254,46.122601],[-122.967263,46.122663],[-122.967316,46.12269],[-122.967642,46.122691],[-122.967642,46.122781],[-122.967561,46.122785],[-122.967516,46.12282],[-122.967516,46.122937],[-122.96758,46.122975],[-122.967771,46.122961]]]}},{"type":"Feature","properties":{"id":40,"area_m2":5300,"px":53,"rank":7,"persistent":false},"geometry":{"type":"Polygon","coordinates":[[[-122.960783,46.117381],[-122.960751,46.117427],[-122.960786,46.117469],[-122.960786,46.117649],[-122.960712,46.117651],[-122.960666,46.117678],[-122.960656,46.117829],[-122.960398,46.117829],[-122.960321,46.117805],[-122.960167,46.117841],[-122.960138,46.117919],[-122.95988,46.117919],[-122.959871,46.117677],[-122.959825,46.117651],[-122.959751,46.117649],[-122.959716,46.117568],[-122.959621,46.117559],[-122.959621,46.117199],[-122.960139,46.117199],[-122.9602,46.117223],[-122.960269,46.117199],[-122.960786,46.117199],[-122.960783,46.117381]]]}},{"type":"Feature","properties":{"id":54,"area_m2":5200,"px":52,"rank":8,"persistent":false},"geometry":{"type":"Polygon","coordinates":[[[-122.962989,46.11315],[-122.962989,46.11333],[-122.962882,46.113346],[-122.962859,46.11342],[-122.962743,46.113444],[-122.96273,46.11351],[-122.962471,46.11351],[-122.962448,46.113435],[-122.962342,46.11342],[-122.962342,46.11324],[-122.962376,46.113187],[-122.962324,46.113079],[-122.962213,46.113059],[-122.962204,46.112908],[-122.962158,46.112882],[-122.962083,46.112879],[-122.962049,46.112799],[-122.961954,46.112789],[-122.961931,46.112625],[-122.961825,46.112609],[-122.961812,46.112543],[-122.961695,46.112519],[-122.961667,46.112442],[-122.961566,46.112429],[-122.961566,46.112249],[-122.96177,46.112247],[-122.961819,46.112216],[-122.961825,46.112159],[-122.961954,46.112159],[-122.961956,46.112386],[-122.961995,46.112423],[-122.962084,46.11243],[-122.962097,46.112585],[-122.962154,46.112609],[-122.962472,46.11261],[-122.962485,46.112766],[-122.962601,46.11279],[-122.962635,46.112871],[-122.96273,46.11288],[-122.962759,46.112957],[-122.96286,46.11297],[-122.962869,46.113121],[-122.962915,46.113147],[-122.962989,46.11315]]]}},{"type":"Feature","properties":{"id":41,"area_m2":4500,"px":45,"rank":9,"persistent":false},"geometry":{"type":"Polygon","coordinates":[[[-122.959492,46.117379],[-122.959492,46.117469],[-122.959403,46.117475],[-122.959364,46.117512],[-122.959362,46.117919],[-122.958974,46.117918],[-122.95897,46.117867],[-122.958933,46.117835],[-122.958715,46.117828],[-122.958709,46.117772],[-122.95866,46.117741],[-122.958456,46.117738],[-122.958456,46.117648],[-122.958551,46.117639],[-122.958586,46.117594],[-122.95858,46.117412],[-122.958538,46.117382],[-122.958457,46.117378],[-122.958457,46.117198],[-122.958974,46.117199],[-122.959051,46.117222],[-122.959205,46.117186],[-122.959233,46.117109],[-122.959363,46.117109],[-122.959366,46.11734],[-122.95941,46.117375],[-122.959492,46.117379]]]}},{"type":"Feature","properties":{"id":24,"area_m2":3900,"px":39,"rank":10,"persistent":false},"geometry":{"type":"Polygon","coordinates":[[[-122.975279,46.122603],[-122.975279,46.122693],[-122.975149,46.122693],[-122.975088,46.122669],[-122.97502,46.122693],[-122.974794,46.122689],[-122.974761,46.122728],[-122.974761,46.122873],[-122.974243,46.122873],[-122.97422,46.122709],[-122.973984,46.122693],[-122.973984,46.122423],[-122.974091,46.122407],[-122.974114,46.122333],[-122.97423,46.122309],[-122.974243,46.122243],[-122.974373,46.122243],[-122.974386,46.122309],[-122.97445,46.122333],[-122.974597,46.122324],[-122.974632,46.122243],[-122.974761,46.122243],[-122.974784,46.122407],[-122.97489,46.122423],[-122.974894,46.122475],[-122.974931,46.122507],[-122.975149,46.122513],[-122.975172,46.122587],[-122.975279,46.122603]]]}},{"type":"Feature","properties":{"id":58,"area_m2":3700,"px":37,"rank":11,"persistent":false},"geometry":{"type":"Polygon","coordinates":[[[-122.956519,46.112248],[-122.956519,46.112427],[-122.95631,46.112428],[-122.956257,46.112448],[-122.95626,46.112697],[-122.956153,46.112713],[-122.956131,46.112787],[-122.956014,46.112811],[-122.956001,46.112877],[-122.955546,46.112878],[-122.955493,46.112906],[-122.955483,46.112967],[-122.955354,46.112967],[-122.955354,46.112787],[-122.955455,46.112775],[-122.955484,46.112697],[-122.955579,46.112688],[-122.955613,46.112607],[-122.955695,46.112603],[-122.955737,46.112574],[-122.955743,46.112337],[-122.955939,46.112336],[-122.955992,46.112309],[-122.956002,46.112067],[-122.95639,46.112068],[-122.956399,46.112219],[-122.956445,46.112245],[-122.956519,46.112248]]]}},{"type":"Feature","properties":{"id":9,"area_m2":3500,"px":35,"rank":12,"persistent":false},"geometry":{"type":"Polygon","coordinates":[[[-122.973464,46.127193],[-122.973464,46.127373],[-122.97339,46.127375],[-122.973344,46.127401],[-122.973335,46.127553],[-122.973076,46.127553],[-122.973073,46.127501],[-122.973035,46.127469],[-122.972817,46.127463],[-122.9728,46.127303],[-122.972688,46.127283],[-122.972682,46.127226],[-122.97264,46.127197],[-122.972429,46.127193],[-122.972416,46.127037],[-122.9723,46.127013],[-122.972265,46.126932],[-122.97217,46.126923],[-122.97217,46.126743],[-122.972558,46.126743],[-122.972581,46.126817],[-122.972688,46.126833],[-122.972722,46.126914],[-122.972817,46.126923],[-122.972823,46.127069],[-122.972865,46.127099],[-122.972947,46.127103],[-122.97295,46.127154],[-122.972988,46.127186],[-122.973464,46.127193]]]}},{"type":"Feature","properties":{"id":10,"area_m2":3100,"px":31,"rank":13,"persistent":false},"geometry":{"type":"Polygon","coordinates":[[[-122.973982,46.127103],[-122.973982,46.127193],[-122.973723,46.127193],[-122.97372,46.127141],[-122.973682,46.127109],[-122.973465,46.127103],[-122.973451,46.127037],[-122.973335,46.127013],[-122.973332,46.126961],[-122.973294,46.126929],[-122.972947,46.126923],[-122.972946,46.126792],[-122.972918,46.126755],[-122.972688,46.126743],[-122.972682,46.126686],[-122.972633,46.126655],[-122.972429,46.126653],[-122.972429,46.126473],[-122.972536,46.126457],[-122.972559,46.126383],[-122.972817,46.126383],[-122.97284,46.126457],[-122.972947,46.126473],[-122.972947,46.126604],[-122.972975,46.126641],[-122.973206,46.126653],[-122.973219,46.126719],[-122.973335,46.126743],[-122.973364,46.126821],[-122.973594,46.126833],[-122.9736,46.12689],[-122.973642,46.126919],[-122.973853,46.126923],[-122.973862,46.127074],[-122.973908,46.127101],[-122.973982,46.127103]]]}},{"type":"Feature","properties":{"id":45,"area_m2":2700,"px":27,"rank":14,"persistent":false},"geometry":{"type":"Polygon","coordinates":[[[-122.958069,46.116568],[-122.958069,46.116748],[-122.957962,46.116764],[-122.957939,46.116838],[-122.957292,46.116838],[-122.957269,46.116764],[-122.957163,46.116748],[-122.957178,46.116602],[-122.957128,46.11657],[-122.957034,46.116568],[-122.957034,46.116478],[-122.957481,46.116478],[-122.957542,46.116449],[-122.957551,46.116388],[-122.957939,46.116388],[-122.957928,46.116538],[-122.957974,46.116566],[-122.958069,46.116568]]]}},{"type":"Feature","properties":{"id":18,"area_m2":2500,"px":25,"rank":15,"persistent":false},"geometry":{"type":"Polygon","coordinates":[[[-122.969453,46.124492],[-122.969453,46.124582],[-122.969372,46.124586],[-122.969327,46.12462],[-122.969324,46.124762],[-122.969217,46.124778],[-122.969194,46.124852],[-122.969065,46.124852],[-122.969042,46.124778],[-122.968935,46.124762],[-122.968922,46.124696],[-122.968806,46.124672],[-122.968778,46.124594],[-122.968677,46.124582],[-122.968675,46.124355],[-122.968636,46.124318],[-122.968547,46.124312],[-122.968547,46.124222],[-122.968654,46.124206],[-122.968677,46.124132],[-122.968806,46.124132],[-122.96881,46.124183],[-122.968847,46.124215],[-122.969065,46.124222],[-122.969065,46.124443],[-122.969093,46.12448],[-122.969453,46.124492]]]}},{"type":"Feature","properties":{"id":12,"area_m2":2400,"px":24,"rank":16,"persistent":false},"geometry":{"type":"Polygon","coordinates":[[[-122.975277,46.126653],[-122.975277,46.126833],[-122.975018,46.126833],[-122.975005,46.126767],[-122.974889,46.126743],[-122.974854,46.126662],[-122.97463,46.126653],[-122.974624,46.126597],[-122.974575,46.126566],[-122.974371,46.126563],[-122.974348,46.126489],[-122.974241,46.126473],[-122.974207,46.126392],[-122.974112,46.126383],[-122.974112,46.126113],[-122.974371,46.126113],[-122.974394,46.126187],[-122.9745,46.126203],[-122.974513,46.126269],[-122.97463,46.126293],[-122.974658,46.126371],[-122.974759,46.126383],[-122.974759,46.126515],[-122.974794,46.126554],[-122.975018,46.126563],[-122.975024,46.12662],[-122.975073,46.126651],[-122.975277,46.126653]]]}},{"type":"Feature","properties":{"id":64,"area_m2":2300,"px":23,"rank":17,"persistent":false},"geometry":{"type":"Polygon","coordinates":[[[-122.958461,46.111168],[-122.958461,46.111348],[-122.958202,46.111348],[-122.958141,46.111324],[-122.958073,46.111348],[-122.957944,46.111348],[-122.95794,46.111296],[-122.957902,46.111264],[-122.957685,46.111258],[-122.957672,46.111192],[-122.957555,46.111168],[-122.957549,46.111111],[-122.9575,46.11108],[-122.957345,46.111082],[-122.957302,46.111111],[-122.957296,46.111168],[-122.957167,46.111168],[-122.957144,46.111094],[-122.957038,46.111078],[-122.957038,46.110898],[-122.957145,46.110882],[-122.957167,46.110808],[-122.957297,46.110808],[-122.957331,46.110889],[-122.957555,46.110898],[-122.957569,46.110964],[-122.957685,46.110988],[-122.957713,46.111066],[-122.957944,46.111078],[-122.957949,46.111135],[-122.957991,46.111164],[-122.958461,46.111168]]]}},{"type":"Feature","properties":{"id":46,"area_m2":1900,"px":19,"rank":18,"persistent":false},"geometry":{"type":"Polygon","coordinates":[[[-122.953022,46.116296],[-122.953022,46.116566],[-122.952375,46.116566],[-122.952375,46.116206],[-122.952892,46.116206],[-122.952915,46.11628],[-122.953022,46.116296]]]}},{"type":"Feature","properties":{"id":47,"area_m2":1800,"px":18,"rank":19,"persistent":false},"geometry":{"type":"Polygon","coordinates":[[[-122.95794,46.116208],[-122.95794,46.116298],[-122.957163,46.116298],[-122.95716,46.116156],[-122.957115,46.116122],[-122.957034,46.116118],[-122.957034,46.116028],[-122.957141,46.116012],[-122.957164,46.115938],[-122.957681,46.115938],[-122.957704,46.116012],[-122.95781,46.116028],[-122.957803,46.116183],[-122.957845,46.116206],[-122.95794,46.116208]]]}},{"type":"Feature","properties":{"id":14,"area_m2":1700,"px":17,"rank":20,"persistent":true},"geometry":{"type":"Polygon","coordinates":[[[-122.970229,46.125572],[-122.970229,46.125842],[-122.969711,46.125842],[-122.969689,46.125768],[-122.969582,46.125752],[-122.969582,46.125482],[-122.969841,46.125482],[-122.969902,46.125506],[-122.96997,46.125482],[-122.9701,46.125482],[-122.970123,46.125556],[-122.970229,46.125572]]]}},{"type":"Feature","properties":{"id":16,"area_m2":1600,"px":16,"rank":21,"persistent":false},"geometry":{"type":"Polygon","coordinates":[[[-122.969323,46.124942],[-122.969323,46.125122],[-122.969217,46.125138],[-122.969194,46.125212],[-122.968935,46.125212],[-122.968912,46.125138],[-122.968806,46.125122],[-122.968783,46.124958],[-122.968547,46.124942],[-122.968524,46.124867],[-122.968418,46.124852],[-122.968418,46.124672],[-122.968676,46.124672],[-122.968699,46.124746],[-122.968806,46.124762],[-122.968807,46.124898],[-122.968854,46.124938],[-122.968996,46.124966],[-122.969065,46.124942],[-122.969323,46.124942]]]}},{"type":"Feature","properties":{"id":26,"area_m2":1600,"px":16,"rank":22,"persistent":false},"geometry":{"type":"Polygon","coordinates":[[[-122.962854,46.12071],[-122.962854,46.12098],[-122.962725,46.12098],[-122.962702,46.120906],[-122.962596,46.12089],[-122.962578,46.12082],[-122.962466,46.1208],[-122.962432,46.120719],[-122.962337,46.12071],[-122.962308,46.120632],[-122.962208,46.12062],[-122.962204,46.120478],[-122.96216,46.120444],[-122.962078,46.12044],[-122.962078,46.12035],[-122.962337,46.12035],[-122.96236,46.120424],[-122.962466,46.12044],[-122.962484,46.12051],[-122.962596,46.12053],[-122.96263,46.120611],[-122.962725,46.12062],[-122.962753,46.120698],[-122.962854,46.12071]]]}},{"type":"Feature","properties":{"id":33,"area_m2":1600,"px":16,"rank":23,"persistent":false},"geometry":{"type":"Polygon","coordinates":[[[-122.96402,46.11909],[-122.96402,46.11936],[-122.963891,46.11936],[-122.963868,46.119286],[-122.963762,46.11927],[-122.96376,46.119134],[-122.963699,46.119091],[-122.963531,46.119102],[-122.963503,46.119139],[-122.963503,46.11927],[-122.963373,46.11927],[-122.96335,46.119196],[-122.963244,46.11918],[-122.963244,46.119],[-122.963351,46.118984],[-122.963374,46.11891],[-122.963762,46.11891],[-122.963784,46.118984],[-122.963891,46.119],[-122.963926,46.119081],[-122.96402,46.11909]]]}},{"type":"Feature","properties":{"id":35,"area_m2":1600,"px":16,"rank":24,"persistent":false},"geometry":{"type":"Polygon","coordinates":[[[-122.961044,46.118909],[-122.961044,46.118999],[-122.960459,46.119],[-122.960406,46.119028],[-122.960396,46.119089],[-122.960267,46.119089],[-122.960267,46.118819],[-122.960374,46.118803],[-122.960397,46.118729],[-122.960513,46.118705],[-122.960526,46.118639],[-122.960656,46.118639],[-122.960678,46.118713],[-122.960785,46.118729],[-122.960798,46.118795],[-122.960914,46.118819],[-122.960943,46.118897],[-122.961044,46.118909]]]}},{"type":"Feature","properties":{"id":2,"area_m2":1300,"px":13,"rank":25,"persistent":false},"geometry":{"type":"Polygon","coordinates":[[[-122.977217,46.128904],[-122.977217,46.128994],[-122.977111,46.12901],[-122.977088,46.129084],[-122.976959,46.129084],[-122.976941,46.129013],[-122.976829,46.128994],[-122.976795,46.128913],[-122.9767,46.128904],[-122.976671,46.128826],[-122.976441,46.128814],[-122.976441,46.128634],[-122.9767,46.128634],[-122.976703,46.128685],[-122.976741,46.128717],[-122.976959,46.128724],[-122.976981,46.128798],[-122.977088,46.128814],[-122.977123,46.128895],[-122.977217,46.128904]]]}},{"type":"Feature","properties":{"id":23,"area_m2":1300,"px":13,"rank":26,"persistent":false},"geometry":{"type":"Polygon","coordinates":[[[-122.976185,46.122694],[-122.976184,46.122783],[-122.976103,46.122788],[-122.976058,46.122822],[-122.976055,46.122963],[-122.975926,46.122963],[-122.975913,46.122897],[-122.975796,46.122873],[-122.975768,46.122796],[-122.975538,46.122783],[-122.975515,46.122709],[-122.975408,46.122693],[-122.975408,46.122603],[-122.975443,46.122561],[-122.975408,46.122513],[-122.975408,46.122423],[-122.975537,46.122423],[-122.975555,46.122494],[-122.975667,46.122513],[-122.97568,46.122579],[-122.975796,46.122603],[-122.9758,46.122655],[-122.975837,46.122687],[-122.976185,46.122694]]]}},{"type":"Feature","properties":{"id":50,"area_m2":1300,"px":13,"rank":27,"persistent":false},"geometry":{"type":"Polygon","coordinates":[[[-122.958717,46.114768],[-122.958717,46.114858],[-122.958505,46.114849],[-122.958462,46.114883],[-122.958458,46.114948],[-122.9582,46.114948],[-122.958177,46.114874],[-122.95807,46.114858],[-122.958036,46.114777],[-122.957941,46.114768],[-122.957941,46.114678],[-122.958159,46.114672],[-122.958196,46.11464],[-122.9582,46.114588],[-122.958459,46.114588],[-122.958481,46.114662],[-122.958588,46.114678],[-122.958622,46.114759],[-122.958717,46.114768]]]}},{"type":"Feature","properties":{"id":25,"area_m2":1200,"px":12,"rank":28,"persistent":false},"geometry":{"type":"Polygon","coordinates":[[[-122.967384,46.121431],[-122.967384,46.121521],[-122.966996,46.121521],[-122.966983,46.121455],[-122.966866,46.121431],[-122.966832,46.12135],[-122.966608,46.121341],[-122.966608,46.121161],[-122.966866,46.121161],[-122.96687,46.121213],[-122.966907,46.121245],[-122.967125,46.121251],[-122.967148,46.121325],[-122.967255,46.121341],[-122.967289,46.121422],[-122.967384,46.121431]]]}},{"type":"Feature","properties":{"id":27,"area_m2":1200,"px":12,"rank":29,"persistent":false},"geometry":{"type":"Polygon","coordinates":[[[-122.963761,46.12044],[-122.963761,46.12053],[-122.963654,46.120546],[-122.963631,46.12062],[-122.963372,46.12062],[-122.96335,46.120546],[-122.963243,46.12053],[-122.963208,46.120449],[-122.963114,46.12044],[-122.96311,46.120298],[-122.963066,46.120264],[-122.962984,46.12026],[-122.962984,46.12017],[-122.963114,46.12017],[-122.963175,46.120194],[-122.963243,46.12017],[-122.963372,46.12017],[-122.963353,46.120294],[-122.963374,46.120334],[-122.963502,46.12035],[-122.963508,46.120407],[-122.96355,46.120436],[-122.963761,46.12044]]]}},{"type":"Feature","properties":{"id":65,"area_m2":1200,"px":12,"rank":30,"persistent":false},"geometry":{"type":"Polygon","coordinates":[[[-122.958979,46.110628],[-122.958979,46.110718],[-122.95872,46.110718],[-122.958659,46.110694],[-122.958591,46.110718],[-122.958332,46.110718],[-122.958323,46.110567],[-122.958277,46.11054],[-122.958203,46.110538],[-122.958203,46.110268],[-122.958462,46.110268],[-122.958442,46.110488],[-122.958475,46.110529],[-122.95872,46.110538],[-122.958724,46.11059],[-122.958761,46.110622],[-122.958979,46.110628]]]}},{"type":"Feature","properties":{"id":48,"area_m2":1100,"px":11,"rank":31,"persistent":false},"geometry":{"type":"Polygon","coordinates":[[[-122.958717,46.115578],[-122.958716,46.115758],[-122.95861,46.115774],[-122.958587,46.115848],[-122.958199,46.115848],[-122.958199,46.115578],[-122.958717,46.115578]]]}},{"type":"Feature","properties":{"id":5,"area_m2":1000,"px":10,"rank":32,"persistent":false},"geometry":{"type":"Polygon","coordinates":[[[-122.977218,46.127914],[-122.977218,46.128094],[-122.976959,46.128094],[-122.976946,46.128028],[-122.97683,46.128004],[-122.976795,46.127923],[-122.976571,46.127914],[-122.976571,46.127824],[-122.976677,46.127808],[-122.9767,46.127734],[-122.97683,46.127734],[-122.976864,46.127815],[-122.977088,46.127824],[-122.977111,46.127898],[-122.977218,46.127914]]]}},{"type":"Feature","properties":{"id":8,"area_m2":1000,"px":10,"rank":33,"persistent":false},"geometry":{"type":"Polygon","coordinates":[[[-122.976571,46.127554],[-122.976571,46.127644],[-122.976053,46.127643],[-122.976053,46.127284],[-122.976183,46.127284],[-122.976205,46.127358],[-122.976312,46.127374],[-122.976325,46.12744],[-122.976441,46.127464],[-122.97647,46.127541],[-122.976571,46.127554]]]}},{"type":"Feature","properties":{"id":34,"area_m2":1000,"px":10,"rank":34,"persistent":false},"geometry":{"type":"Polygon","coordinates":[[[-122.962597,46.11918],[-122.962597,46.11927],[-122.96249,46.119286],[-122.962467,46.11936],[-122.962208,46.11936],[-122.962186,46.119285],[-122.962079,46.11927],[-122.962079,46.11909],[-122.962186,46.119074],[-122.962209,46.119],[-122.962338,46.119],[-122.962361,46.119074],[-122.962467,46.11909],[-122.962502,46.119171],[-122.962597,46.11918]]]}},{"type":"Feature","properties":{"id":37,"area_m2":1000,"px":10,"rank":35,"persistent":false},"geometry":{"type":"Polygon","coordinates":[[[-122.961947,46.118641],[-122.961915,46.118687],[-122.96195,46.11873],[-122.96195,46.118819],[-122.961843,46.118835],[-122.96182,46.118909],[-122.961432,46.118909],[-122.961432,46.118729],[-122.961539,46.118714],[-122.961562,46.118639],[-122.961765,46.118637],[-122.961815,46.118606],[-122.961821,46.11855],[-122.961948,46.11855],[-122.961947,46.118641]]]}},{"type":"Feature","properties":{"id":63,"area_m2":1000,"px":10,"rank":36,"persistent":false},"geometry":{"type":"Polygon","coordinates":[[[-122.957684,46.111528],[-122.957684,46.111618],[-122.957296,46.111618],[-122.957279,46.111548],[-122.957167,46.111528],[-122.957132,46.111447],[-122.957038,46.111438],[-122.957009,46.11136],[-122.956779,46.111348],[-122.956779,46.111258],[-122.957038,46.111258],[-122.957072,46.111339],[-122.957296,46.111348],[-122.957331,46.111429],[-122.957555,46.111438],[-122.957578,46.111512],[-122.957684,46.111528]]]}},{"type":"Feature","properties":{"id":60,"area_m2":900,"px":9,"rank":37,"persistent":false},"geometry":{"type":"Polygon","coordinates":[[[-122.956908,46.111978],[-122.956907,46.112158],[-122.956778,46.112158],[-122.956775,46.112106],[-122.956737,46.112074],[-122.956519,46.112067],[-122.956497,46.111993],[-122.95639,46.111977],[-122.956356,46.111897],[-122.956261,46.111887],[-122.956261,46.111797],[-122.956649,46.111798],[-122.956672,46.111962],[-122.956908,46.111978]]]}},{"type":"Feature","properties":{"id":39,"area_m2":800,"px":8,"rank":38,"persistent":true},"geometry":{"type":"Polygon","coordinates":[[[-122.967127,46.118011],[-122.967127,46.118101],[-122.966739,46.118101],[-122.966716,46.118027],[-122.96661,46.118011],[-122.96661,46.117921],[-122.966834,46.117912],[-122.966868,46.117872],[-122.966869,46.117741],[-122.966998,46.117741],[-122.967001,46.117973],[-122.967046,46.118007],[-122.967127,46.118011]]]}},{"type":"Feature","properties":{"id":61,"area_m2":800,"px":8,"rank":39,"persistent":false},"geometry":{"type":"Polygon","coordinates":[[[-122.957167,46.111618],[-122.957167,46.111798],[-122.957037,46.111798],[-122.957034,46.111746],[-122.956996,46.111714],[-122.956779,46.111708],[-122.956773,46.111651],[-122.956723,46.11162],[-122.95652,46.111617],[-122.95652,46.111528],[-122.956626,46.111512],[-122.956649,46.111438],[-122.956779,46.111438],[-122.956792,46.111504],[-122.956908,46.111528],[-122.956942,46.111609],[-122.957167,46.111618]]]}},{"type":"Feature","properties":{"id":66,"area_m2":800,"px":8,"rank":40,"persistent":false},"geometry":{"type":"Polygon","coordinates":[[[-122.960273,46.110179],[-122.960273,46.110359],[-122.960056,46.110365],[-122.960018,46.110397],[-122.960014,46.110449],[-122.959885,46.110449],[-122.959862,46.110374],[-122.959756,46.110359],[-122.959756,46.110269],[-122.959863,46.110253],[-122.959885,46.110179],[-122.960273,46.110179]]]}},{"type":"Feature","properties":{"id":7,"area_m2":700,"px":7,"rank":41,"persistent":false},"geometry":{"type":"Polygon","coordinates":[[[-122.972817,46.127643],[-122.972817,46.127823],[-122.972688,46.127823],[-122.97267,46.127753],[-122.972558,46.127733],[-122.972524,46.127652],[-122.972429,46.127643],[-122.9724,46.127565],[-122.97217,46.127553],[-122.97217,46.127463],[-122.972429,46.127463],[-122.972463,46.127544],[-122.972687,46.127553],[-122.97271,46.127627],[-122.972817,46.127643]]]}},{"type":"Feature","properties":{"id":43,"area_m2":700,"px":7,"rank":42,"persistent":false},"geometry":{"type":"Polygon","coordinates":[[[-122.958069,46.116928],[-122.958068,46.117018],[-122.957962,46.117034],[-122.957939,46.117108],[-122.95768,46.117108],[-122.957677,46.117056],[-122.957639,46.117024],[-122.957422,46.117018],[-122.957422,46.116928],[-122.958069,46.116928]]]}},{"type":"Feature","properties":{"id":3,"area_m2":600,"px":6,"rank":43,"persistent":false},"geometry":{"type":"Polygon","coordinates":[[[-122.977088,46.128274],[-122.977088,46.128454],[-122.976829,46.128454],[-122.976826,46.128402],[-122.976788,46.12837],[-122.976571,46.128364],[-122.976571,46.128274],[-122.977088,46.128274]]]}},{"type":"Feature","properties":{"id":13,"area_m2":600,"px":6,"rank":44,"persistent":false},"geometry":{"type":"Polygon","coordinates":[[[-122.973853,46.125843],[-122.973853,46.125933],[-122.973595,46.125933],[-122.973572,46.125859],[-122.973465,46.125843],[-122.973465,46.125663],[-122.973724,46.125663],[-122.973733,46.125814],[-122.973779,46.125841],[-122.973853,46.125843]]]}},{"type":"Feature","properties":{"id":30,"area_m2":600,"px":6,"rank":45,"persistent":false},"geometry":{"type":"Polygon","coordinates":[[[-122.962208,46.11954],[-122.962208,46.11963],[-122.961949,46.119629],[-122.961927,46.119555],[-122.96182,46.119539],[-122.96182,46.11936],[-122.962079,46.11936],[-122.962088,46.119511],[-122.962134,46.119537],[-122.962208,46.11954]]]}},{"type":"Feature","properties":{"id":51,"area_m2":600,"px":6,"rank":46,"persistent":false},"geometry":{"type":"Polygon","coordinates":[[[-122.957553,46.114588],[-122.957552,46.114858],[-122.957423,46.114858],[-122.957417,46.114801],[-122.957368,46.11477],[-122.957164,46.114768],[-122.957164,46.114678],[-122.957271,46.114662],[-122.957294,46.114588],[-122.957553,46.114588]]]}},{"type":"Feature","properties":{"id":52,"area_m2":600,"px":6,"rank":47,"persistent":false},"geometry":{"type":"Polygon","coordinates":[[[-122.957294,46.114318],[-122.957294,46.114498],[-122.957035,46.114498],[-122.957032,46.114446],[-122.956994,46.114414],[-122.956776,46.114408],[-122.956777,46.114318],[-122.957294,46.114318]]]}},{"type":"Feature","properties":{"id":62,"area_m2":600,"px":6,"rank":48,"persistent":false},"geometry":{"type":"Polygon","coordinates":[[[-122.960014,46.111439],[-122.960014,46.111529],[-122.959667,46.111535],[-122.959629,46.111567],[-122.959625,46.111619],[-122.959509,46.111643],[-122.959496,46.111709],[-122.959237,46.111708],[-122.959237,46.111619],[-122.959462,46.111609],[-122.959496,46.111529],[-122.959612,46.111505],[-122.959626,46.111439],[-122.960014,46.111439]]]}},{"type":"Feature","properties":{"id":49,"area_m2":500,"px":5,"rank":49,"persistent":false},"geometry":{"type":"Polygon","coordinates":[[[-122.957552,46.114948],[-122.957552,46.115128],[-122.957164,46.115128],[-122.957164,46.115038],[-122.957271,46.115022],[-122.957294,46.114948],[-122.957552,46.114948]]]}},{"type":"Feature","properties":{"id":57,"area_m2":500,"px":5,"rank":50,"persistent":false},"geometry":{"type":"Polygon","coordinates":[[[-122.958589,46.112788],[-122.958589,46.112878],[-122.958264,46.112879],[-122.95821,46.112907],[-122.958201,46.112968],[-122.958072,46.112968],[-122.958072,46.112788],[-122.958589,46.112788]]]}},{"type":"Feature","properties":{"id":68,"area_m2":500,"px":5,"rank":51,"persistent":false},"geometry":{"type":"Polygon","coordinates":[[[-122.958074,46.109728],[-122.958074,46.109818],[-122.957986,46.109824],[-122.957946,46.109861],[-122.957944,46.110088],[-122.957686,46.110088],[-122.957686,46.109998],[-122.957767,46.109994],[-122.957812,46.10996],[-122.957815,46.109818],[-122.957922,46.109802],[-122.957945,46.109728],[-122.958074,46.109728]]]}},{"type":"Feature","properties":{"id":69,"area_m2":500,"px":5,"rank":52,"persistent":false},"geometry":{"type":"Polygon","coordinates":[[[-122.959109,46.109728],[-122.959109,46.109908],[-122.959002,46.109924],[-122.95898,46.109998],[-122.958721,46.109998],[-122.958721,46.109908],[-122.958828,46.109892],[-122.95885,46.109818],[-122.958967,46.109794],[-122.95898,46.109728],[-122.959109,46.109728]]]}},{"type":"Feature","properties":{"id":70,"area_m2":500,"px":5,"rank":53,"persistent":false},"geometry":{"type":"Polygon","coordinates":[[[-122.960274,46.109459],[-122.960274,46.109639],[-122.960167,46.109655],[-122.960144,46.109729],[-122.960015,46.109729],[-122.960015,46.109459],[-122.960274,46.109459]]]}},{"type":"Feature","properties":{"id":1,"area_m2":400,"px":4,"rank":54,"persistent":false},"geometry":{"type":"Polygon","coordinates":[[[-122.983301,46.130885],[-122.983301,46.130975],[-122.983097,46.130977],[-122.983048,46.131008],[-122.983042,46.131065],[-122.982913,46.131065],[-122.982913,46.130975],[-122.982994,46.130971],[-122.983039,46.130936],[-122.983042,46.130795],[-122.983171,46.130795],[-122.983194,46.130869],[-122.983301,46.130885]]]}},{"type":"Feature","properties":{"id":19,"area_m2":400,"px":4,"rank":55,"persistent":false},"geometry":{"type":"Polygon","coordinates":[[[-122.971006,46.124402],[-122.971006,46.124672],[-122.970877,46.124672],[-122.970854,46.124598],[-122.970748,46.124582],[-122.970748,46.124492],[-122.970854,46.124476],[-122.970877,46.124402],[-122.971006,46.124402]]]}},{"type":"Feature","properties":{"id":29,"area_m2":400,"px":4,"rank":56,"persistent":false},"geometry":{"type":"Polygon","coordinates":[[[-122.962726,46.11972],[-122.962726,46.1199],[-122.962619,46.119916],[-122.962596,46.11999],[-122.962467,46.11999],[-122.962467,46.11981],[-122.962574,46.119794],[-122.962596,46.11972],[-122.962726,46.11972]]]}},{"type":"Feature","properties":{"id":36,"area_m2":400,"px":4,"rank":57,"persistent":false},"geometry":{"type":"Polygon","coordinates":[[[-122.962856,46.11873],[-122.962856,46.11891],[-122.962597,46.11891],[-122.962597,46.11873],[-122.962856,46.11873]]]}},{"type":"Feature","properties":{"id":53,"area_m2":400,"px":4,"rank":58,"persistent":false},"geometry":{"type":"Polygon","coordinates":[[[-122.960012,46.114049],[-122.960012,46.114229],[-122.959753,46.114229],[-122.959753,46.114049],[-122.960012,46.114049]]]}},{"type":"Feature","properties":{"id":55,"area_m2":400,"px":4,"rank":59,"persistent":false},"geometry":{"type":"Polygon","coordinates":[[[-122.955871,46.113237],[-122.955871,46.113327],[-122.955668,46.11333],[-122.955618,46.113361],[-122.955612,46.113417],[-122.955483,46.113417],[-122.955483,46.113237],[-122.955871,46.113237]]]}},{"type":"Feature","properties":{"id":59,"area_m2":400,"px":4,"rank":60,"persistent":false},"geometry":{"type":"Polygon","coordinates":[[[-122.960531,46.112429],[-122.960531,46.112609],[-122.960272,46.112609],[-122.960272,46.112519],[-122.960307,46.112476],[-122.960272,46.112429],[-122.960272,46.112339],[-122.960401,46.112339],[-122.960424,46.112413],[-122.960531,46.112429]]]}},{"type":"Feature","properties":{"id":11,"area_m2":300,"px":3,"rank":61,"persistent":false},"geometry":{"type":"Polygon","coordinates":[[[-122.975665,46.126923],[-122.975665,46.127103],[-122.975536,46.127103],[-122.975513,46.127029],[-122.975406,46.127013],[-122.975406,46.126923],[-122.975665,46.126923]]]}},{"type":"Feature","properties":{"id":15,"area_m2":300,"px":3,"rank":62,"persistent":false},"geometry":{"type":"Polygon","coordinates":[[[-122.970876,46.125482],[-122.970876,46.125572],[-122.970488,46.125572],[-122.970488,46.125482],[-122.970876,46.125482]]]}},{"type":"Feature","properties":{"id":17,"area_m2":300,"px":3,"rank":63,"persistent":false},"geometry":{"type":"Polygon","coordinates":[[[-122.969841,46.124762],[-122.969841,46.124852],[-122.969583,46.124852],[-122.969583,46.124672],[-122.969712,46.124672],[-122.969735,46.124746],[-122.969841,46.124762]]]}},{"type":"Feature","properties":{"id":20,"area_m2":300,"px":3,"rank":64,"persistent":false},"geometry":{"type":"Polygon","coordinates":[[[-122.969453,46.124222],[-122.969453,46.124312],[-122.969195,46.124312],[-122.969195,46.124132],[-122.969324,46.124132],[-122.969347,46.124206],[-122.969453,46.124222]]]}},{"type":"Feature","properties":{"id":22,"area_m2":300,"px":3,"rank":65,"persistent":false},"geometry":{"type":"Polygon","coordinates":[[[-122.975537,46.123053],[-122.975537,46.123233],[-122.975278,46.123233],[-122.975278,46.123143],[-122.975385,46.123127],[-122.975408,46.123053],[-122.975537,46.123053]]]}},{"type":"Feature","properties":{"id":28,"area_m2":300,"px":3,"rank":66,"persistent":false},"geometry":{"type":"Polygon","coordinates":[[[-122.964149,46.12008],[-122.964149,46.12017],[-122.96389,46.12017],[-122.96389,46.11999],[-122.96402,46.11999],[-122.964043,46.120064],[-122.964149,46.12008]]]}},{"type":"Feature","properties":{"id":31,"area_m2":300,"px":3,"rank":67,"persistent":false},"geometry":{"type":"Polygon","coordinates":[[[-122.961302,46.119449],[-122.961302,46.119629],[-122.961043,46.119629],[-122.961043,46.119539],[-122.96115,46.119523],[-122.961173,46.119449],[-122.961302,46.119449]]]}},{"type":"Feature","properties":{"id":42,"area_m2":300,"px":3,"rank":68,"persistent":false},"geometry":{"type":"Polygon","coordinates":[[[-122.957939,46.117288],[-122.957939,46.117468],[-122.957809,46.117468],[-122.957787,46.117394],[-122.95768,46.117378],[-122.95768,46.117288],[-122.957939,46.117288]]]}},{"type":"Feature","properties":{"id":56,"area_m2":300,"px":3,"rank":69,"persistent":false},"geometry":{"type":"Polygon","coordinates":[[[-122.955354,46.113147],[-122.955354,46.113237],[-122.955247,46.113253],[-122.955224,46.113327],[-122.955095,46.113327],[-122.955095,46.113147],[-122.955354,46.113147]]]}},{"type":"Feature","properties":{"id":67,"area_m2":300,"px":3,"rank":70,"persistent":false},"geometry":{"type":"Polygon","coordinates":[[[-122.960662,46.109999],[-122.960662,46.110179],[-122.960403,46.110179],[-122.960403,46.110089],[-122.96051,46.110073],[-122.960533,46.109999],[-122.960662,46.109999]]]}},{"type":"Feature","properties":{"id":71,"area_m2":300,"px":3,"rank":71,"persistent":false},"geometry":{"type":"Polygon","coordinates":[[[-122.959369,46.109009],[-122.959368,46.109098],[-122.959262,46.109114],[-122.959239,46.109188],[-122.959123,46.109212],[-122.95911,46.109278],[-122.95898,46.109278],[-122.95898,46.109188],[-122.959087,46.109173],[-122.95911,46.109098],[-122.959226,46.109074],[-122.959239,46.109008],[-122.959369,46.109009]]]}}]}