{"type":"FeatureCollection","features":[{"type":"Feature","properties":{"id":5,"area_m2":343900,"px":3439,"rank":1,"persistent":false},"geometry":{"type":"Polygon","coordinates":[[[-122.940059,46.13609],[-122.940059,46.13618],[-122.939842,46.136181],[-122.939788,46.13621],[-122.939813,46.136336],[-122.939929,46.13636],[-122.939929,46.13645],[-122.939693,46.136466],[-122.93967,46.13663],[-122.93954,46.13663],[-122.93954,46.136409],[-122.939485,46.136362],[-122.938712,46.13636],[-122.938643,46.136388],[-122.938634,46.13663],[-122.938546,46.136636],[-122.938505,46.136678],[-122.938506,46.137126],[-122.938566,46.137169],[-122.938892,46.13717],[-122.938892,46.137259],[-122.938674,46.137266],[-122.938637,46.137298],[-122.938633,46.13735],[-122.938552,46.137354],[-122.938507,46.137388],[-122.938517,46.137506],[-122.938633,46.13753],[-122.938633,46.13789],[-122.938503,46.13789],[-122.938498,46.13782],[-122.93845,46.137789],[-122.938244,46.137799],[-122.938245,46.13762],[-122.938333,46.137613],[-122.938374,46.137571],[-122.938373,46.137393],[-122.938304,46.13735],[-122.938034,46.137353],[-122.937992,46.137383],[-122.937986,46.137439],[-122.937911,46.137442],[-122.937865,46.137468],[-122.937824,46.137588],[-122.937879,46.137693],[-122.937985,46.137709],[-122.937985,46.137799],[-122.93766,46.1378],[-122.937597,46.137848],[-122.937614,46.137959],[-122.937772,46.138002],[-122.937856,46.137979],[-122.937985,46.137979],[-122.938046,46.138003],[-122.938115,46.137979],[-122.938244,46.13798],[-122.938244,46.138339],[-122.938114,46.138339],[-122.938101,46.138183],[-122.937924,46.138135],[-122.937754,46.138171],[-122.937726,46.138249],[-122.93761,46.138273],[-122.937596,46.138339],[-122.937338,46.138339],[-122.937334,46.138287],[-122.937296,46.138255],[-122.937079,46.138249],[-122.937018,46.138225],[-122.936949,46.138249],[-122.936745,46.138251],[-122.936696,46.138282],[-122.93669,46.138789],[-122.936608,46.138793],[-122.936563,46.138827],[-122.936566,46.139115],[-122.936608,46.139145],[-122.936689,46.139149],[-122.936698,46.13921],[-122.936752,46.139238],[-122.937336,46.139239],[-122.937336,46.139329],[-122.937241,46.139338],[-122.937207,46.139419],[-122.937125,46.139423],[-122.937083,46.139452],[-122.937077,46.139689],[-122.936995,46.139693],[-122.936953,46.139722],[-122.936953,46.139925],[-122.936995,46.139955],[-122.937077,46.139959],[-122.937085,46.140034],[-122.937159,46.140063],[-122.937313,46.140033],[-122.937336,46.139959],[-122.937452,46.139935],[-122.937465,46.139869],[-122.937724,46.139869],[-122.937724,46.140049],[-122.937499,46.140058],[-122.937465,46.140139],[-122.937348,46.140163],[-122.937335,46.140229],[-122.937099,46.140245],[-122.937076,46.140319],[-122.93696,46.140343],[-122.936947,46.140409],[-122.93634,46.140415],[-122.936303,46.140447],[-122.936299,46.140498],[-122.936183,46.140522],[-122.93617,46.140588],[-122.936058,46.140608],[-122.93604,46.140678],[-122.935829,46.140682],[-122.935787,46.140712],[-122.935781,46.140768],[-122.935669,46.140788],[-122.935651,46.140948],[-122.93557,46.140952],[-122.935525,46.140986],[-122.935521,46.141308],[-122.935447,46.14131],[-122.935401,46.141337],[-122.935392,46.141488],[-122.935262,46.141488],[-122.935253,46.141426],[-122.9352,46.141399],[-122.935059,46.1414],[-122.935007,46.141436],[-122.935021,46.141558],[-122.935133,46.141578],[-122.935167,46.141659],[-122.935262,46.141668],[-122.935262,46.142027],[-122.93518,46.142032],[-122.935138,46.142061],[-122.935132,46.142298],[-122.935057,46.1423],[-122.935012,46.142326],[-122.935002,46.142478],[-122.934873,46.142478],[-122.93486,46.142322],[-122.934697,46.142284],[-122.934617,46.142322],[-122.934614,46.142477],[-122.934484,46.142477],[-122.934475,46.142416],[-122.934414,46.142388],[-122.934158,46.142388],[-122.934099,46.142426],[-122.934113,46.142548],[-122.934166,46.142567],[-122.934355,46.142567],[-122.934347,46.142722],[-122.934404,46.142747],[-122.934613,46.142748],[-122.934613,46.142837],[-122.934395,46.142844],[-122.934358,46.142876],[-122.934354,46.142927],[-122.934095,46.142927],[-122.934092,46.142876],[-122.934054,46.142844],[-122.933837,46.142837],[-122.933836,46.142706],[-122.933808,46.142669],[-122.933655,46.142657],[-122.933591,46.142681],[-122.933577,46.142747],[-122.933237,46.142751],[-122.933195,46.14278],[-122.933189,46.142837],[-122.933108,46.142841],[-122.933063,46.142875],[-122.933059,46.143197],[-122.932971,46.143203],[-122.93293,46.143245],[-122.93293,46.143508],[-122.932952,46.143541],[-122.933188,46.143557],[-122.933197,46.143618],[-122.933251,46.143646],[-122.933576,46.143647],[-122.933586,46.143708],[-122.933639,46.143736],[-122.934291,46.143736],[-122.934344,46.143709],[-122.934353,46.143647],[-122.934435,46.143643],[-122.93448,46.143609],[-122.934483,46.143378],[-122.934572,46.143371],[-122.934611,46.143334],[-122.934613,46.143108],[-122.934742,46.143108],[-122.934748,46.143178],[-122.934803,46.14321],[-122.934946,46.143195],[-122.934992,46.143169],[-122.935002,46.142748],[-122.935076,46.142745],[-122.935122,46.142719],[-122.935132,46.142568],[-122.935261,46.142568],[-122.935261,46.142748],[-122.935144,46.142772],[-122.935131,46.142874],[-122.935166,46.142919],[-122.93526,46.142928],[-122.935283,46.143002],[-122.935471,46.143014],[-122.935514,46.142985],[-122.93552,46.142928],[-122.935594,46.142926],[-122.93564,46.1429],[-122.935646,46.142606],[-122.935601,46.142572],[-122.93552,46.142568],[-122.935486,46.142487],[-122.935391,46.142478],[-122.935391,46.142389],[-122.935507,46.142364],[-122.93552,46.142208],[-122.935627,46.142192],[-122.93565,46.142118],[-122.935779,46.142118],[-122.935802,46.142192],[-122.935955,46.142231],[-122.936038,46.142208],[-122.936168,46.142208],[-122.936177,46.14227],[-122.93623,46.142297],[-122.936556,46.142299],[-122.936617,46.142323],[-122.936686,46.142299],[-122.936815,46.142299],[-122.936815,46.142389],[-122.936708,46.142405],[-122.936685,46.142479],[-122.936238,46.142479],[-122.936181,46.142502],[-122.936167,46.142838],[-122.936055,46.142858],[-122.936037,46.143018],[-122.935956,46.143022],[-122.935914,46.143052],[-122.935908,46.14333],[-122.935978,46.143378],[-122.937073,46.143379],[-122.937095,46.143453],[-122.937202,46.143469],[-122.937237,46.14355],[-122.937331,46.143559],[-122.937331,46.143649],[-122.937135,46.14365],[-122.937082,46.143677],[-122.937072,46.144009],[-122.936965,46.144025],[-122.936942,46.144099],[-122.936813,46.144099],[-122.93679,46.144025],[-122.936684,46.144009],[-122.936682,46.143872],[-122.936621,46.14383],[-122.936453,46.143841],[-122.936425,46.143877],[-122.936425,46.144009],[-122.936295,46.144008],[-122.936292,46.143687],[-122.936248,46.143653],[-122.936112,46.143635],[-122.936038,46.143678],[-122.936036,46.143918],[-122.935955,46.143922],[-122.93591,46.143957],[-122.935907,46.144098],[-122.935648,46.144098],[-122.935648,46.144008],[-122.935736,46.144002],[-122.935776,46.143965],[-122.935778,46.143738],[-122.935859,46.143734],[-122.935904,46.1437],[-122.935906,46.143512],[-122.935866,46.143475],[-122.935778,46.143468],[-122.93575,46.14339],[-122.935649,46.143378],[-122.93562,46.1433],[-122.935519,46.143288],[-122.935491,46.14321],[-122.935329,46.143174],[-122.93526,46.143198],[-122.935064,46.143199],[-122.93501,46.143226],[-122.935001,46.143378],[-122.934913,46.143384],[-122.934873,46.143421],[-122.934871,46.143558],[-122.934837,46.1436],[-122.934871,46.143648],[-122.934871,46.143828],[-122.934764,46.143843],[-122.934741,46.143918],[-122.934612,46.143917],[-122.934603,46.143843],[-122.934537,46.143814],[-122.934382,46.14384],[-122.934353,46.143917],[-122.934129,46.143926],[-122.934094,46.144007],[-122.933965,46.144007],[-122.933963,46.143871],[-122.933902,46.143828],[-122.933631,46.143829],[-122.933582,46.14386],[-122.933576,46.143917],[-122.933447,46.143917],[-122.933434,46.143851],[-122.933317,46.143827],[-122.933289,46.143749],[-122.933059,46.143737],[-122.933036,46.143662],[-122.932929,46.143647],[-122.932895,46.143566],[-122.9328,46.143556],[-122.932791,46.143405],[-122.932745,46.143379],[-122.932671,46.143376],[-122.932671,46.143286],[-122.932705,46.143239],[-122.932648,46.143122],[-122.932282,46.143106],[-122.932265,46.143036],[-122.932153,46.143016],[-122.93214,46.14295],[-122.932075,46.142926],[-122.931929,46.142935],[-122.931894,46.143016],[-122.931403,46.143015],[-122.931376,46.143051],[-122.931376,46.143376],[-122.931246,46.143376],[-122.931233,46.14331],[-122.931117,46.143285],[-122.931094,46.143211],[-122.930972,46.143188],[-122.930987,46.143064],[-122.930953,46.143024],[-122.93079,46.142991],[-122.930698,46.143042],[-122.930746,46.143176],[-122.930874,46.143203],[-122.930858,46.143465],[-122.930627,46.143477],[-122.930599,46.143514],[-122.9306,46.143615],[-122.930666,46.143659],[-122.930857,46.143645],[-122.930863,46.143702],[-122.930912,46.143733],[-122.931298,46.143736],[-122.931352,46.14372],[-122.931375,46.143646],[-122.931457,46.143642],[-122.931502,46.143607],[-122.931489,46.143383],[-122.931612,46.14336],[-122.931635,46.143286],[-122.931751,46.143262],[-122.931764,46.143196],[-122.931894,46.143196],[-122.931894,46.143327],[-122.931928,46.143367],[-122.932152,46.143376],[-122.932152,46.143466],[-122.93171,46.143452],[-122.931651,46.143472],[-122.931634,46.143826],[-122.931505,46.143826],[-122.931428,46.143802],[-122.931255,46.143854],[-122.931242,46.144075],[-122.931295,46.144095],[-122.931504,46.144096],[-122.931504,46.144276],[-122.931397,46.144291],[-122.931374,46.144366],[-122.931116,46.144365],[-122.931098,46.144205],[-122.931046,46.144186],[-122.930857,46.144185],[-122.930844,46.144119],[-122.930779,46.144095],[-122.930387,46.144099],[-122.93034,46.144139],[-122.930339,46.144275],[-122.930232,46.144291],[-122.930209,46.144365],[-122.92995,46.144365],[-122.92995,46.144185],[-122.930057,46.144169],[-122.930091,46.144084],[-122.930269,46.144095],[-122.930333,46.144062],[-122.930358,46.14387],[-122.930289,46.143825],[-122.93013,46.143825],[-122.930077,46.143845],[-122.930069,46.144016],[-122.929821,46.144005],[-122.929815,46.143948],[-122.929766,46.143917],[-122.929576,46.143924],[-122.929542,46.143965],[-122.929562,46.144185],[-122.929303,46.144184],[-122.929302,46.144048],[-122.929248,46.144007],[-122.929044,46.144004],[-122.928976,46.14398],[-122.928915,46.144004],[-122.928567,46.14401],[-122.92853,46.144042],[-122.928507,46.144139],[-122.928553,46.14418],[-122.928655,46.144184],[-122.928655,46.144364],[-122.928396,46.144364],[-122.928374,46.1442],[-122.928267,46.144184],[-122.928261,46.144127],[-122.928219,46.144098],[-122.928008,46.144094],[-122.928009,46.143734],[-122.928115,46.143718],[-122.928138,46.143644],[-122.928363,46.143635],[-122.928397,46.143554],[-122.928492,46.143545],[-122.928527,46.1435],[-122.928509,46.143394],[-122.928398,46.143374],[-122.928363,46.143293],[-122.928268,46.143284],[-122.928255,46.143038],[-122.928199,46.143014],[-122.92801,46.143014],[-122.92801,46.142744],[-122.928045,46.142701],[-122.92801,46.142654],[-122.92801,46.142474],[-122.928045,46.142431],[-122.928011,46.142384],[-122.928011,46.142294],[-122.928117,46.142278],[-122.92814,46.142204],[-122.928365,46.142195],[-122.928399,46.142114],[-122.928516,46.14209],[-122.928529,46.142024],[-122.928641,46.142004],[-122.928659,46.141934],[-122.928788,46.141934],[-122.928797,46.142086],[-122.928843,46.142112],[-122.928917,46.142114],[-122.928914,46.142364],[-122.928975,46.142384],[-122.929271,46.142375],[-122.929305,46.142294],[-122.92938,46.142292],[-122.929426,46.142266],[-122.929435,46.142163],[-122.92938,46.142117],[-122.929176,46.142114],[-122.929177,46.141664],[-122.929306,46.141664],[-122.929312,46.141721],[-122.929361,46.141752],[-122.929647,46.14175],[-122.929693,46.141711],[-122.929695,46.141575],[-122.929801,46.141559],[-122.929824,46.141485],[-122.92997,46.141492],[-122.929953,46.141791],[-122.929982,46.141833],[-122.930394,46.141845],[-122.930454,46.141825],[-122.930462,46.141604],[-122.930416,46.141577],[-122.930342,46.141575],[-122.930336,46.141518],[-122.930294,46.141489],[-122.930067,46.141477],[-122.930084,46.141305],[-122.93019,46.141289],[-122.930213,46.141215],[-122.930342,46.141215],[-122.930352,46.141276],[-122.930405,46.141304],[-122.930539,46.141304],[-122.930592,46.141277],[-122.930589,46.141059],[-122.930532,46.141035],[-122.930343,46.141035],[-122.930343,46.140765],[-122.930425,46.140761],[-122.930469,46.140727],[-122.930473,46.140495],[-122.930602,46.140495],[-122.930608,46.140552],[-122.930657,46.140583],[-122.930799,46.140584],[-122.930848,46.140561],[-122.930852,46.140434],[-122.930806,46.140408],[-122.930732,46.140405],[-122.930732,46.140135],[-122.930833,46.140123],[-122.930862,46.140045],[-122.930957,46.140036],[-122.930992,46.139955],[-122.931101,46.139949],[-122.931141,46.139905],[-122.931121,46.139644],[-122.93108,46.139602],[-122.93091,46.139599],[-122.930868,46.139629],[-122.930862,46.139685],[-122.930756,46.139701],[-122.930733,46.139865],[-122.930603,46.139865],[-122.930604,46.139685],[-122.93072,46.139661],[-122.930733,46.139505],[-122.93084,46.139489],[-122.930863,46.139415],[-122.930992,46.139415],[-122.931001,46.139477],[-122.931055,46.139504],[-122.931305,46.139519],[-122.931368,46.139495],[-122.931381,46.13938],[-122.931358,46.139341],[-122.931122,46.139325],[-122.931099,46.139251],[-122.930992,46.139235],[-122.930993,46.139145],[-122.931176,46.139159],[-122.931239,46.139135],[-122.931252,46.138966],[-122.931511,46.138966],[-122.931514,46.139197],[-122.931558,46.139232],[-122.93164,46.139236],[-122.931674,46.139317],[-122.93195,46.139326],[-122.932005,46.13931],[-122.932019,46.139175],[-122.931973,46.139148],[-122.931899,46.139146],[-122.931864,46.139065],[-122.93177,46.139056],[-122.93177,46.138966],[-122.932088,46.138966],[-122.93214,46.138946],[-122.932158,46.138696],[-122.932247,46.13869],[-122.932286,46.138653],[-122.932288,46.138426],[-122.93237,46.138422],[-122.932414,46.138388],[-122.932418,46.137886],[-122.93253,46.137867],[-122.932548,46.137706],[-122.932629,46.137702],[-122.932674,46.137668],[-122.932674,46.137385],[-122.932608,46.137347],[-122.931772,46.137346],[-122.931772,46.137256],[-122.93186,46.137249],[-122.9319,46.137212],[-122.931901,46.137076],[-122.931936,46.137033],[-122.931902,46.136986],[-122.931902,46.136896],[-122.932008,46.13688],[-122.932031,46.136806],[-122.932262,46.136794],[-122.93229,46.136675],[-122.932228,46.136627],[-122.931972,46.136626],[-122.931911,46.136654],[-122.931902,46.136716],[-122.931772,46.136716],[-122.93175,46.136642],[-122.931643,46.136626],[-122.931643,46.136536],[-122.93175,46.13652],[-122.931773,46.136446],[-122.931991,46.13644],[-122.932028,46.136408],[-122.932032,46.136356],[-122.932144,46.136336],[-122.932196,46.136224],[-122.932161,46.136176],[-122.932162,46.136086],[-122.932291,46.136086],[-122.93236,46.13611],[-122.93242,46.136086],[-122.932624,46.136084],[-122.932673,46.136053],[-122.93268,46.135996],[-122.932761,46.135992],[-122.932806,46.135958],[-122.932809,46.1356],[-122.932787,46.135562],[-122.932732,46.135546],[-122.932162,46.135546],[-122.932162,46.135456],[-122.932244,46.135452],[-122.932288,46.135418],[-122.932292,46.135276],[-122.932509,46.135275],[-122.932568,46.135236],[-122.932548,46.135045],[-122.932503,46.13501],[-122.932422,46.135006],[-122.932422,46.134916],[-122.932681,46.134916],[-122.93269,46.134978],[-122.932751,46.135006],[-122.933156,46.135006],[-122.933218,46.134951],[-122.933176,46.134842],[-122.93294,46.134826],[-122.932934,46.13477],[-122.932892,46.134741],[-122.932552,46.134736],[-122.932552,46.134466],[-122.932654,46.134462],[-122.932699,46.134427],[-122.932682,46.134196],[-122.932763,46.134192],[-122.932808,46.134158],[-122.932794,46.133946],[-122.932741,46.133927],[-122.932471,46.13393],[-122.932429,46.133959],[-122.932423,46.134016],[-122.932307,46.13404],[-122.932293,46.134106],[-122.932164,46.134106],[-122.932164,46.134016],[-122.932199,46.133974],[-122.932164,46.133926],[-122.932164,46.133746],[-122.932539,46.133737],[-122.932573,46.133696],[-122.932553,46.133476],[-122.93266,46.13346],[-122.932694,46.133375],[-122.932899,46.133385],[-122.93296,46.133341],[-122.932936,46.13324],[-122.932879,46.133207],[-122.932717,46.133215],[-122.932672,46.133307],[-122.932553,46.133296],[-122.932531,46.133222],[-122.932424,46.133206],[-122.932424,46.133116],[-122.932553,46.133116],[-122.932615,46.13314],[-122.932685,46.133116],[-122.933155,46.133126],[-122.933198,46.133092],[-122.933201,46.133027],[-122.933385,46.133041],[-122.933443,46.13302],[-122.93346,46.132847],[-122.933567,46.132831],[-122.93359,46.132757],[-122.933719,46.132757],[-122.933725,46.132814],[-122.933774,46.132845],[-122.933955,46.132831],[-122.933978,46.132577],[-122.934108,46.132577],[-122.934113,46.132634],[-122.934163,46.132665],[-122.934344,46.132651],[-122.934366,46.132613],[-122.934367,46.132307],[-122.934496,46.132307],[-122.934509,46.132373],[-122.934574,46.132397],[-122.934721,46.132388],[-122.934755,46.132308],[-122.934885,46.132308],[-122.93489,46.132724],[-122.934932,46.132753],[-122.935013,46.132758],[-122.935019,46.132814],[-122.935069,46.132845],[-122.935402,46.132848],[-122.935401,46.133208],[-122.935295,46.133224],[-122.935272,46.133298],[-122.935142,46.133298],[-122.935143,46.133208],[-122.935224,46.133204],[-122.935269,46.133169],[-122.935272,46.133076],[-122.935244,46.13304],[-122.934685,46.133015],[-122.934631,46.133047],[-122.934625,46.133117],[-122.934543,46.133121],[-122.934501,46.133151],[-122.934465,46.133361],[-122.934548,46.133411],[-122.934625,46.133387],[-122.934754,46.133388],[-122.934777,46.133462],[-122.934929,46.1335],[-122.935013,46.133478],[-122.935142,46.133478],[-122.935155,46.133544],[-122.935271,46.133568],[-122.935277,46.133624],[-122.935319,46.133654],[-122.935625,46.133656],[-122.93568,46.133608],[-122.93566,46.133298],[-122.935735,46.133296],[-122.935781,46.13327],[-122.93579,46.133118],[-122.935981,46.133132],[-122.936047,46.133088],[-122.936047,46.132982],[-122.936008,46.132945],[-122.935661,46.132938],[-122.935661,46.132848],[-122.935756,46.132839],[-122.93579,46.132758],[-122.935872,46.132754],[-122.935916,46.13272],[-122.93592,46.132578],[-122.935955,46.13253],[-122.93592,46.132488],[-122.935905,46.132226],[-122.935954,46.132165],[-122.935915,46.132125],[-122.935859,46.132115],[-122.935797,46.132148],[-122.935791,46.132218],[-122.935532,46.132218],[-122.935471,46.132194],[-122.935403,46.132218],[-122.935144,46.132218],[-122.935144,46.132038],[-122.935239,46.132029],[-122.935273,46.131984],[-122.93526,46.131882],[-122.935144,46.131858],[-122.935144,46.131768],[-122.935532,46.131768],[-122.935542,46.131829],[-122.935603,46.131858],[-122.935791,46.131858],[-122.935852,46.131882],[-122.935921,46.131858],[-122.93605,46.131858],[-122.936079,46.131936],[-122.936234,46.131962],[-122.9363,46.131933],[-122.936311,46.131858],[-122.936439,46.131858],[-122.936473,46.131939],[-122.936651,46.131958],[-122.936696,46.131919],[-122.936698,46.131769],[-122.936827,46.131769],[-122.936828,46.131995],[-122.936904,46.132039],[-122.937043,46.132038],[-122.937089,46.132018],[-122.937086,46.131859],[-122.937193,46.131843],[-122.937216,46.131769],[-122.937992,46.131769],[-122.937995,46.131911],[-122.93807,46.131949],[-122.938216,46.13194],[-122.938251,46.131859],[-122.938469,46.131853],[-122.938507,46.131821],[-122.93851,46.13177],[-122.938769,46.13177],[-122.93883,46.131794],[-122.9389,46.13177],[-122.939544,46.13177],[-122.939607,46.131794],[-122.939675,46.13177],[-122.939804,46.13177],[-122.939804,46.13186],[-122.939716,46.131867],[-122.939676,46.131904],[-122.939675,46.13213],[-122.93958,46.132139],[-122.939545,46.132184],[-122.939551,46.132457],[-122.939607,46.132489],[-122.939804,46.13249],[-122.939803,46.13267],[-122.939674,46.13267],[-122.939668,46.132614],[-122.939619,46.132582],[-122.939363,46.13258],[-122.939299,46.132604],[-122.939286,46.13267],[-122.939174,46.13269],[-122.939156,46.13294],[-122.939055,46.132952],[-122.939026,46.13303],[-122.938931,46.133039],[-122.938897,46.133084],[-122.938898,46.133166],[-122.938931,46.133201],[-122.939156,46.13321],[-122.939155,46.13339],[-122.939046,46.133397],[-122.939006,46.133446],[-122.939043,46.13355],[-122.939155,46.13357],[-122.939155,46.13366],[-122.939026,46.13366],[-122.938957,46.133636],[-122.938896,46.13366],[-122.938692,46.133662],[-122.938646,46.133688],[-122.938603,46.133787],[-122.938655,46.13391],[-122.938766,46.13393],[-122.938766,46.13402],[-122.938685,46.134024],[-122.93864,46.134058],[-122.938646,46.134261],[-122.938707,46.134289],[-122.939025,46.13429],[-122.939025,46.13447],[-122.938936,46.134476],[-122.938896,46.134519],[-122.938895,46.13501],[-122.938806,46.135016],[-122.938766,46.135058],[-122.938746,46.135325],[-122.938792,46.135365],[-122.938894,46.13537],[-122.938894,46.13564],[-122.938765,46.13564],[-122.938696,46.135616],[-122.938561,46.135642],[-122.938512,46.135673],[-122.938504,46.13573],[-122.938376,46.135729],[-122.938367,46.135668],[-122.938314,46.135641],[-122.938011,46.135655],[-122.937988,46.135688],[-122.937989,46.135956],[-122.938028,46.135993],[-122.938117,46.135999],[-122.938133,46.136082],[-122.938015,46.136094],[-122.937973,46.136124],[-122.937989,46.136316],[-122.938028,46.136353],[-122.938116,46.136359],[-122.938122,46.136416],[-122.938164,46.136445],[-122.938325,46.136449],[-122.938379,46.136429],[-122.938372,46.136218],[-122.938328,46.136184],[-122.938246,46.136179],[-122.938246,46.13609],[-122.938635,46.13609],[-122.938638,46.136155],[-122.938681,46.136189],[-122.938893,46.13618],[-122.938899,46.136236],[-122.938941,46.136266],[-122.939204,46.13627],[-122.939269,46.136246],[-122.939282,46.13618],[-122.939629,46.136174],[-122.939667,46.136142],[-122.93967,46.13609],[-122.940059,46.13609]],[[-122.928468,46.142551],[-122.928162,46.142579],[-122.92812,46.142682],[-122.928141,46.142727],[-122.928197,46.142744],[-122.928505,46.142728],[-122.928522,46.142584],[-122.928468,46.142551]],[[-122.928709,46.143104],[-122.928783,46.143066],[-122.928777,46.142953],[-122.928724,46.142925],[-122.928569,46.14293],[-122.928529,46.142967],[-122.928537,46.143075],[-122.92859,46.143103],[-122.928709,46.143104]],[[-122.929822,46.142965],[-122.929755,46.142911],[-122.929346,46.142931],[-122.929308,46.142963],[-122.929304,46.143014],[-122.929188,46.143038],[-122.929175,46.143104],[-122.929063,46.143124],[-122.929045,46.143194],[-122.928809,46.14321],[-122.928775,46.143344],[-122.928814,46.14337],[-122.928977,46.143398],[-122.929045,46.143374],[-122.929263,46.143368],[-122.929301,46.143336],[-122.929304,46.143284],[-122.929421,46.14326],[-122.929434,46.143195],[-122.929617,46.143208],[-122.929671,46.143192],[-122.929693,46.143105],[-122.929774,46.143101],[-122.929816,46.143071],[-122.929822,46.142965]],[[-122.929045,46.143504],[-122.929018,46.143463],[-122.928962,46.14345],[-122.928901,46.143473],[-122.928881,46.143512],[-122.928906,46.143549],[-122.92897,46.143568],[-122.929028,46.143548],[-122.929045,46.143504]],[[-122.930041,46.142301],[-122.929877,46.142271],[-122.9298,46.142312],[-122.929823,46.142475],[-122.929716,46.14249],[-122.929682,46.142576],[-122.929505,46.142565],[-122.929452,46.142584],[-122.929414,46.142689],[-122.929442,46.142732],[-122.929652,46.142738],[-122.929704,46.142644],[-122.930004,46.142655],[-122.930064,46.142635],[-122.930081,46.142338],[-122.930041,46.142301]],[[-122.930262,46.143555],[-122.930338,46.143512],[-122.930337,46.143323],[-122.930285,46.143287],[-122.930136,46.143287],[-122.930082,46.143328],[-122.930064,46.143515],[-122.930115,46.143552],[-122.930262,46.143555]],[[-122.9306,46.142695],[-122.930539,46.142643],[-122.930355,46.142665],[-122.930321,46.142711],[-122.930354,46.142811],[-122.930411,46.142835],[-122.930565,46.142826],[-122.930598,46.142792],[-122.9306,46.142695]],[[-122.932155,46.141486],[-122.932142,46.14142],[-122.932026,46.141396],[-122.931991,46.141315],[-122.931808,46.141312],[-122.93177,46.141344],[-122.931766,46.141396],[-122.93165,46.14142],[-122.931637,46.141486],[-122.931401,46.141501],[-122.931378,46.141576],[-122.931283,46.141585],[-122.931248,46.141665],[-122.931136,46.141685],[-122.931119,46.141755],[-122.930915,46.141758],[-122.930866,46.141789],[-122.93086,46.141845],[-122.930629,46.141857],[-122.9306,46.141935],[-122.930506,46.141944],[-122.930471,46.142025],[-122.930355,46.142049],[-122.930351,46.142176],[-122.930396,46.142203],[-122.930471,46.142205],[-122.930476,46.142275],[-122.930524,46.142306],[-122.930859,46.142295],[-122.930865,46.142365],[-122.930927,46.142399],[-122.931206,46.142379],[-122.931244,46.142347],[-122.931248,46.142296],[-122.931336,46.142289],[-122.931377,46.142247],[-122.931364,46.14214],[-122.931248,46.142115],[-122.931248,46.142026],[-122.931588,46.142022],[-122.93163,46.141992],[-122.931636,46.141936],[-122.931718,46.141932],[-122.93176,46.141903],[-122.931766,46.141756],[-122.931896,46.141756],[-122.931964,46.14178],[-122.932126,46.141744],[-122.932155,46.141666],[-122.932243,46.14166],[-122.932284,46.141617],[-122.932271,46.14151],[-122.932155,46.141486]],[[-122.931119,46.141346],[-122.931059,46.141293],[-122.930895,46.141314],[-122.930861,46.141354],[-122.930873,46.141461],[-122.93093,46.141485],[-122.931085,46.141476],[-122.931118,46.141442],[-122.931119,46.141346]],[[-122.931122,46.141127],[-122.931065,46.141112],[-122.931007,46.141132],[-122.93099,46.14118],[-122.931017,46.141216],[-122.93108,46.141229],[-122.931139,46.141203],[-122.931153,46.141163],[-122.931122,46.141127]],[[-122.931431,46.140586],[-122.931507,46.140542],[-122.931491,46.140335],[-122.93138,46.140316],[-122.931374,46.140259],[-122.931324,46.140228],[-122.93102,46.140238],[-122.930991,46.140279],[-122.931008,46.140476],[-122.931061,46.140495],[-122.93125,46.140496],[-122.931284,46.140576],[-122.931431,46.140586]],[[-122.931769,46.139506],[-122.931734,46.139425],[-122.931573,46.139417],[-122.931519,46.139444],[-122.931477,46.139538],[-122.93151,46.139597],[-122.93151,46.139686],[-122.931475,46.139728],[-122.93151,46.139777],[-122.93149,46.139995],[-122.931544,46.140043],[-122.931698,46.140046],[-122.931751,46.140026],[-122.931769,46.139776],[-122.93185,46.139772],[-122.931895,46.139738],[-122.931892,46.139539],[-122.93185,46.13951],[-122.931769,46.139506]],[[-122.932109,46.13996],[-122.931931,46.139952],[-122.931898,46.140046],[-122.931816,46.14005],[-122.931774,46.140079],[-122.931784,46.140308],[-122.931679,46.140322],[-122.931639,46.140364],[-122.93164,46.140542],[-122.931686,46.140582],[-122.931827,46.140586],[-122.931879,46.140566],[-122.931932,46.140454],[-122.931882,46.140324],[-122.931992,46.140307],[-122.932027,46.140226],[-122.932108,46.140222],[-122.932151,46.140193],[-122.932151,46.139989],[-122.932109,46.13996]],[[-122.932012,46.142092],[-122.932044,46.141981],[-122.932004,46.141943],[-122.931807,46.141942],[-122.931769,46.141974],[-122.931766,46.142026],[-122.931691,46.142028],[-122.931645,46.142054],[-122.931645,46.142177],[-122.931699,46.142205],[-122.931854,46.1422],[-122.931892,46.142168],[-122.931895,46.142116],[-122.932012,46.142092]],[[-122.932158,46.136984],[-122.932107,46.136962],[-122.932049,46.136973],[-122.932012,46.137015],[-122.932028,46.137055],[-122.932081,46.137076],[-122.932153,46.137063],[-122.93218,46.137026],[-122.932158,46.136984]],[[-122.932553,46.142465],[-122.932748,46.142488],[-122.932798,46.142452],[-122.9328,46.14234],[-122.932746,46.142299],[-122.932577,46.142305],[-122.932531,46.142397],[-122.932324,46.142393],[-122.932287,46.142425],[-122.932283,46.142476],[-122.932065,46.142482],[-122.932024,46.142525],[-122.932033,46.142717],[-122.932214,46.14277],[-122.932371,46.14274],[-122.932409,46.142708],[-122.932412,46.142656],[-122.932494,46.142652],[-122.932536,46.142623],[-122.932553,46.142465]],[[-122.932801,46.139482],[-122.932822,46.139366],[-122.93277,46.139329],[-122.932401,46.139319],[-122.932401,46.139244],[-122.932498,46.139232],[-122.93254,46.139203],[-122.932546,46.138966],[-122.932663,46.138942],[-122.932676,46.138835],[-122.932635,46.138793],[-122.932493,46.138763],[-122.932329,46.138793],[-122.932288,46.13884],[-122.932303,46.139229],[-122.932252,46.139279],[-122.932303,46.139334],[-122.932287,46.139506],[-122.932192,46.139515],[-122.932157,46.139596],[-122.932041,46.13962],[-122.932041,46.139752],[-122.932157,46.139776],[-122.932163,46.139833],[-122.932212,46.139864],[-122.932416,46.139866],[-122.932484,46.13989],[-122.93264,46.139857],[-122.932674,46.139818],[-122.932674,46.13964],[-122.932634,46.139603],[-122.932546,46.139596],[-122.932546,46.139506],[-122.932758,46.139516],[-122.932801,46.139482]],[[-122.932466,46.141306],[-122.932538,46.141273],[-122.932543,46.141175],[-122.932503,46.141133],[-122.932398,46.141119],[-122.932405,46.140975],[-122.932352,46.140947],[-122.932195,46.140939],[-122.932157,46.140976],[-122.932157,46.141083],[-122.932196,46.14112],[-122.932301,46.141134],[-122.932294,46.141278],[-122.932347,46.141305],[-122.932466,46.141306]],[[-122.932933,46.140136],[-122.932924,46.140075],[-122.932871,46.140048],[-122.932675,46.140046],[-122.932606,46.140022],[-122.932429,46.14007],[-122.932415,46.140316],[-122.932283,46.140337],[-122.932285,46.140496],[-122.932197,46.140502],[-122.932156,46.140545],[-122.932165,46.140648],[-122.932211,46.140674],[-122.932285,46.140676],[-122.93232,46.140757],[-122.932483,46.14079],[-122.932661,46.140742],[-122.932674,46.140586],[-122.932769,46.140577],[-122.932804,46.140497],[-122.932915,46.140477],[-122.932933,46.140317],[-122.933015,46.140312],[-122.933059,46.140278],[-122.93305,46.140161],[-122.932933,46.140136]],[[-122.933583,46.138697],[-122.933664,46.138693],[-122.933709,46.138659],[-122.933689,46.138443],[-122.933324,46.138427],[-122.933321,46.138375],[-122.933283,46.138343],[-122.933065,46.138337],[-122.933065,46.138247],[-122.933167,46.138242],[-122.933213,46.138202],[-122.933177,46.138086],[-122.933065,46.138067],[-122.933066,46.137707],[-122.93314,46.137704],[-122.933186,46.137678],[-122.933196,46.137437],[-122.933277,46.137433],[-122.933322,46.137398],[-122.93332,46.13702],[-122.933278,46.136991],[-122.933196,46.136987],[-122.93319,46.13693],[-122.933148,46.136901],[-122.932937,46.136896],[-122.932931,46.13684],[-122.932882,46.136809],[-122.932467,46.13681],[-122.93242,46.136855],[-122.932421,46.137033],[-122.93246,46.13707],[-122.932549,46.137076],[-122.932562,46.137232],[-122.932619,46.137256],[-122.932937,46.137258],[-122.932937,46.137346],[-122.932848,46.137353],[-122.932809,46.13739],[-122.932807,46.137706],[-122.932718,46.137713],[-122.932679,46.13775],[-122.932677,46.138246],[-122.932595,46.13825],[-122.932553,46.13828],[-122.932548,46.138473],[-122.932609,46.138515],[-122.932806,46.138517],[-122.932812,46.138573],[-122.932854,46.138602],[-122.933065,46.138607],[-122.933064,46.138697],[-122.932983,46.138701],[-122.932938,46.138735],[-122.932935,46.138913],[-122.932969,46.138957],[-122.933064,46.138967],[-122.933064,46.139188],[-122.933098,46.139228],[-122.933302,46.13923],[-122.933343,46.139186],[-122.933323,46.139057],[-122.933512,46.139057],[-122.933569,46.139033],[-122.933583,46.138697]],[[-122.933968,46.141167],[-122.933908,46.141115],[-122.933709,46.141127],[-122.933691,46.141057],[-122.93358,46.141037],[-122.933567,46.140971],[-122.93345,46.140947],[-122.933447,46.140895],[-122.933409,46.140863],[-122.933252,46.140833],[-122.93309,46.140869],[-122.933027,46.140989],[-122.933062,46.141037],[-122.933061,46.141217],[-122.932955,46.141232],[-122.932932,46.141306],[-122.932803,46.141306],[-122.932726,46.141283],[-122.932585,46.141313],[-122.932547,46.141345],[-122.932543,46.141576],[-122.932508,46.141624],[-122.932543,46.141666],[-122.93256,46.141917],[-122.932613,46.141936],[-122.932885,46.141946],[-122.932928,46.141912],[-122.932931,46.141847],[-122.933013,46.141842],[-122.933055,46.141813],[-122.933061,46.141667],[-122.933387,46.141666],[-122.93344,46.141638],[-122.93345,46.141577],[-122.93368,46.141565],[-122.933709,46.141487],[-122.933804,46.141478],[-122.933838,46.141397],[-122.933912,46.141395],[-122.933958,46.141369],[-122.933968,46.141167]],[[-122.933067,46.136447],[-122.933156,46.13644],[-122.933195,46.136403],[-122.933197,46.136135],[-122.933149,46.136091],[-122.932979,46.136093],[-122.932942,46.136125],[-122.932938,46.136176],[-122.932822,46.1362],[-122.932808,46.136266],[-122.932612,46.136267],[-122.932556,46.1363],[-122.932553,46.136588],[-122.932597,46.136622],[-122.932679,46.136626],[-122.932685,46.136683],[-122.932727,46.136712],[-122.932997,46.136716],[-122.933049,46.136697],[-122.933067,46.136447]],[[-122.932956,46.135237],[-122.932905,46.135106],[-122.932736,46.135099],[-122.932686,46.13513],[-122.932663,46.135237],[-122.932723,46.135275],[-122.932905,46.135274],[-122.932956,46.135237]],[[-122.934107,46.133477],[-122.934101,46.13342],[-122.934059,46.133391],[-122.933781,46.133388],[-122.93372,46.13343],[-122.933718,46.133567],[-122.933589,46.133567],[-122.933571,46.133407],[-122.933519,46.133387],[-122.933365,46.133389],[-122.933311,46.133432],[-122.93333,46.133567],[-122.933112,46.133573],[-122.933072,46.13361],[-122.93307,46.133746],[-122.932854,46.133747],[-122.932794,46.133786],[-122.932825,46.133902],[-122.932941,46.133927],[-122.93295,46.134078],[-122.932996,46.134104],[-122.93307,46.134107],[-122.93307,46.134286],[-122.932996,46.134289],[-122.93295,46.134315],[-122.932946,46.134433],[-122.93301,46.134466],[-122.933329,46.134467],[-122.933332,46.134698],[-122.933376,46.134733],[-122.933458,46.134737],[-122.933439,46.134872],[-122.933492,46.134914],[-122.933669,46.134913],[-122.933711,46.134884],[-122.933717,46.134827],[-122.933828,46.134807],[-122.933846,46.134557],[-122.933928,46.134553],[-122.933972,46.134519],[-122.933958,46.134397],[-122.933906,46.134377],[-122.933717,46.134377],[-122.933717,46.134287],[-122.933928,46.134283],[-122.93397,46.134254],[-122.933976,46.134197],[-122.934088,46.134177],[-122.934106,46.133927],[-122.934188,46.133923],[-122.934232,46.133889],[-122.934234,46.133521],[-122.934195,46.133484],[-122.934107,46.133477]],[[-122.93334,46.139467],[-122.933314,46.139355],[-122.93326,46.139328],[-122.933064,46.139327],[-122.932988,46.139303],[-122.9329,46.139364],[-122.93294,46.139473],[-122.932997,46.139506],[-122.933295,46.139502],[-122.93334,46.139467]],[[-122.93346,46.135548],[-122.933457,46.135415],[-122.933429,46.135379],[-122.933209,46.135378],[-122.933159,46.135346],[-122.9331,46.135348],[-122.933056,46.13538],[-122.933054,46.135422],[-122.933111,46.135455],[-122.933187,46.135446],[-122.933198,46.135547],[-122.932962,46.135562],[-122.932944,46.135707],[-122.933014,46.13574],[-122.933409,46.135723],[-122.933447,46.135698],[-122.933489,46.135605],[-122.93346,46.135548]],[[-122.933196,46.139778],[-122.933138,46.139763],[-122.93308,46.139783],[-122.933064,46.139832],[-122.93309,46.139868],[-122.933153,46.13988],[-122.933212,46.139854],[-122.933227,46.139814],[-122.933196,46.139778]],[[-122.934097,46.141667],[-122.934093,46.141616],[-122.934056,46.141584],[-122.933872,46.141586],[-122.933838,46.141667],[-122.933737,46.141679],[-122.933708,46.141757],[-122.933613,46.141766],[-122.933579,46.141847],[-122.933462,46.141871],[-122.933449,46.142027],[-122.933342,46.142043],[-122.933319,46.142117],[-122.933123,46.142118],[-122.93307,46.142145],[-122.933066,46.142353],[-122.933123,46.142386],[-122.933335,46.142394],[-122.933299,46.142516],[-122.933339,46.14256],[-122.93363,46.142567],[-122.933685,46.142551],[-122.933707,46.142513],[-122.933694,46.142411],[-122.933637,46.142387],[-122.933449,46.142387],[-122.933449,46.142297],[-122.933667,46.142291],[-122.933704,46.142259],[-122.933708,46.142207],[-122.933824,46.142183],[-122.933837,46.142117],[-122.933949,46.142097],[-122.933967,46.142027],[-122.934163,46.142026],[-122.934217,46.141999],[-122.934223,46.141706],[-122.934178,46.141671],[-122.934097,46.141667]],[[-122.936301,46.138608],[-122.936298,46.138557],[-122.93626,46.138525],[-122.936063,46.138525],[-122.936023,46.138569],[-122.936042,46.138698],[-122.935961,46.138702],[-122.935916,46.138737],[-122.935913,46.138878],[-122.935524,46.138878],[-122.935524,46.138788],[-122.935721,46.138787],[-122.935774,46.13876],[-122.935778,46.138551],[-122.935714,46.138518],[-122.935294,46.13853],[-122.935266,46.138567],[-122.935269,46.13866],[-122.935313,46.138694],[-122.935395,46.138698],[-122.935411,46.13878],[-122.935164,46.1388],[-122.935137,46.138831],[-122.935137,46.138924],[-122.935177,46.138961],[-122.935265,46.138968],[-122.935294,46.139046],[-122.935394,46.139058],[-122.935423,46.139136],[-122.935524,46.139148],[-122.935524,46.139238],[-122.935412,46.139258],[-122.935374,46.139362],[-122.935415,46.139411],[-122.935524,46.139418],[-122.935523,46.139508],[-122.935066,46.139495],[-122.935011,46.139528],[-122.935005,46.139598],[-122.934758,46.139609],[-122.934729,46.139437],[-122.934677,46.139418],[-122.934529,46.139424],[-122.934488,46.139466],[-122.934503,46.13968],[-122.934169,46.139688],[-122.934108,46.139716],[-122.934064,46.13982],[-122.934099,46.139867],[-122.934099,46.140047],[-122.933992,46.140063],[-122.933969,46.140137],[-122.933361,46.14013],[-122.933325,46.140162],[-122.933322,46.140227],[-122.93324,46.140231],[-122.933198,46.14026],[-122.93321,46.140387],[-122.933382,46.140431],[-122.933451,46.140407],[-122.933655,46.140405],[-122.933704,46.140374],[-122.93371,46.140317],[-122.934064,46.140308],[-122.934099,46.140227],[-122.934215,46.140203],[-122.934228,46.140137],[-122.934453,46.140128],[-122.934487,46.140089],[-122.934487,46.139867],[-122.934562,46.139865],[-122.934608,46.139839],[-122.934617,46.139688],[-122.934736,46.139677],[-122.934752,46.139834],[-122.934794,46.139863],[-122.934876,46.139868],[-122.934904,46.139945],[-122.935134,46.139958],[-122.93515,46.14013],[-122.9351,46.140186],[-122.935152,46.140236],[-122.935247,46.140221],[-122.935264,46.140138],[-122.935883,46.140126],[-122.935911,46.140048],[-122.936006,46.140039],[-122.936041,46.139994],[-122.93604,46.139732],[-122.936,46.139695],[-122.935912,46.139688],[-122.935912,46.139508],[-122.936007,46.139499],[-122.936042,46.139418],[-122.936116,46.139416],[-122.936162,46.13939],[-122.936172,46.138968],[-122.936273,46.138956],[-122.936301,46.138879],[-122.936389,46.138872],[-122.936429,46.138835],[-122.936425,46.138642],[-122.936383,46.138613],[-122.936301,46.138608]],[[-122.934751,46.135638],[-122.934833,46.135633],[-122.934875,46.135604],[-122.934881,46.135506],[-122.934853,46.13547],[-122.934622,46.135457],[-122.934613,46.135396],[-122.93456,46.135368],[-122.934234,46.135367],[-122.934234,46.135277],[-122.934322,46.135271],[-122.934362,46.135234],[-122.934348,46.135015],[-122.934452,46.135001],[-122.934492,46.134964],[-122.934494,46.134647],[-122.934582,46.134641],[-122.934622,46.134604],[-122.934618,46.134487],[-122.934533,46.134454],[-122.934399,46.134476],[-122.934364,46.134557],[-122.934269,46.13456],[-122.93422,46.134592],[-122.93425,46.135],[-122.934105,46.135007],[-122.934028,46.134984],[-122.933855,46.135036],[-122.933849,46.135149],[-122.933894,46.135183],[-122.933975,46.135187],[-122.933975,46.135277],[-122.933786,46.135277],[-122.933729,46.135301],[-122.933716,46.135457],[-122.933609,46.135473],[-122.933554,46.135579],[-122.933586,46.135637],[-122.933586,46.135727],[-122.933504,46.135731],[-122.93346,46.135765],[-122.933456,46.136177],[-122.933368,46.136183],[-122.933328,46.13622],[-122.933326,46.136627],[-122.933291,46.136674],[-122.933339,46.136783],[-122.933455,46.136807],[-122.93349,46.136888],[-122.933666,46.136893],[-122.933708,46.136864],[-122.933714,46.136807],[-122.933833,46.136796],[-122.933857,46.136873],[-122.933973,46.136897],[-122.933979,46.136954],[-122.934021,46.136983],[-122.934291,46.136987],[-122.934348,46.136963],[-122.934362,46.136807],[-122.93445,46.136801],[-122.93449,46.136764],[-122.934474,46.136544],[-122.934409,46.136524],[-122.934234,46.136554],[-122.934212,46.136593],[-122.934232,46.136717],[-122.934103,46.136717],[-122.934034,46.136693],[-122.933855,46.136728],[-122.933844,46.136627],[-122.933879,46.136579],[-122.933835,46.136476],[-122.933782,46.136448],[-122.933585,46.136447],[-122.933585,46.136357],[-122.933667,46.136353],[-122.933711,46.136319],[-122.933715,46.135997],[-122.933789,46.135995],[-122.933835,46.135968],[-122.933845,46.135817],[-122.93418,46.135828],[-122.934228,46.135797],[-122.934233,46.135727],[-122.934689,46.135726],[-122.934742,46.135699],[-122.934751,46.135638]],[[-122.934002,46.139835],[-122.93397,46.139687],[-122.934058,46.139681],[-122.934098,46.139644],[-122.934082,46.139347],[-122.934029,46.139327],[-122.933841,46.139327],[-122.93378,46.139303],[-122.933711,46.139327],[-122.933481,46.139339],[-122.933417,46.139459],[-122.933452,46.139507],[-122.933458,46.139654],[-122.933514,46.139686],[-122.933711,46.139687],[-122.933711,46.139777],[-122.933336,46.139786],[-122.933302,46.139833],[-122.93334,46.139937],[-122.933392,46.139957],[-122.933655,46.139955],[-122.933705,46.139924],[-122.933721,46.139856],[-122.933931,46.139888],[-122.934002,46.139835]],[[-122.934102,46.137257],[-122.934184,46.137253],[-122.934226,46.137224],[-122.934231,46.137126],[-122.934197,46.137086],[-122.933973,46.137077],[-122.933964,46.137016],[-122.93391,46.136988],[-122.933655,46.136987],[-122.933598,46.137011],[-122.933586,46.137213],[-122.933625,46.137251],[-122.933714,46.137257],[-122.933713,46.137347],[-122.933639,46.137349],[-122.933593,46.137375],[-122.933584,46.137617],[-122.933472,46.137637],[-122.933454,46.137797],[-122.933373,46.137801],[-122.933328,46.137835],[-122.933324,46.138103],[-122.933379,46.138154],[-122.933583,46.138157],[-122.933589,46.138214],[-122.933638,46.138245],[-122.933772,46.138247],[-122.933824,46.138227],[-122.933842,46.137977],[-122.933924,46.137973],[-122.933968,46.137939],[-122.933971,46.137661],[-122.933931,46.137623],[-122.933843,46.137617],[-122.933843,46.137527],[-122.934032,46.137527],[-122.934089,46.137503],[-122.934102,46.137257]],[[-122.934109,46.140576],[-122.934304,46.140598],[-122.934354,46.140563],[-122.934356,46.140451],[-122.934302,46.14041],[-122.934133,46.140416],[-122.934087,46.140508],[-122.93388,46.140503],[-122.933843,46.140535],[-122.933839,46.140587],[-122.933621,46.140593],[-122.93358,46.140636],[-122.933589,46.140828],[-122.933642,46.140856],[-122.933798,46.140851],[-122.933835,46.140819],[-122.933839,46.140767],[-122.933955,46.140743],[-122.933969,46.140677],[-122.93408,46.140657],[-122.934109,46.140576]],[[-122.935007,46.138738],[-122.934946,46.138685],[-122.934748,46.138698],[-122.934742,46.138641],[-122.934693,46.13861],[-122.93423,46.138607],[-122.934224,46.138551],[-122.934182,46.138521],[-122.93389,46.138521],[-122.933842,46.138566],[-122.933841,46.138787],[-122.933753,46.138793],[-122.933713,46.13883],[-122.933717,46.139114],[-122.933774,46.139146],[-122.93397,46.139147],[-122.933976,46.139204],[-122.934018,46.139233],[-122.934181,46.139233],[-122.934229,46.139189],[-122.93423,46.138967],[-122.934304,46.138965],[-122.93435,46.138939],[-122.934359,46.138787],[-122.934489,46.138787],[-122.934502,46.138853],[-122.934618,46.138878],[-122.934621,46.138943],[-122.934664,46.138977],[-122.934936,46.138967],[-122.935005,46.138924],[-122.935007,46.138738]],[[-122.934473,46.132863],[-122.934161,46.132824],[-122.933995,46.132867],[-122.933978,46.132987],[-122.934005,46.133028],[-122.934425,46.133027],[-122.934478,46.133008],[-122.934496,46.132901],[-122.934473,46.132863]],[[-122.934489,46.138157],[-122.934571,46.138153],[-122.934613,46.138124],[-122.934596,46.137993],[-122.93436,46.137977],[-122.934354,46.137921],[-122.934305,46.13789],[-122.934124,46.137903],[-122.934101,46.138157],[-122.934066,46.1382],[-122.934101,46.138247],[-122.934123,46.138411],[-122.934277,46.138441],[-122.934338,46.138425],[-122.93436,46.138337],[-122.934441,46.138333],[-122.934483,46.138304],[-122.934489,46.138157]],[[-122.93458,46.135914],[-122.934423,46.135883],[-122.934261,46.13592],[-122.934233,46.135956],[-122.934233,46.136087],[-122.934144,46.136094],[-122.934104,46.136136],[-122.934105,46.136237],[-122.934136,46.136271],[-122.934362,46.136267],[-122.934365,46.136423],[-122.934437,46.136461],[-122.93458,46.136441],[-122.934621,46.136399],[-122.93462,46.135951],[-122.93458,46.135914]],[[-122.934654,46.137575],[-122.934614,46.137471],[-122.934572,46.137442],[-122.934383,46.137453],[-122.934361,46.137527],[-122.934279,46.137531],[-122.934234,46.137566],[-122.934254,46.137781],[-122.934561,46.137797],[-122.934617,46.137781],[-122.934639,46.137742],[-122.93462,46.137618],[-122.934654,46.137575]],[[-122.935005,46.140318],[-122.935024,46.140183],[-122.934991,46.140147],[-122.934824,46.140138],[-122.934749,46.140176],[-122.934735,46.140329],[-122.934616,46.140317],[-122.93461,46.140261],[-122.934561,46.14023],[-122.93438,46.140243],[-122.934361,46.140369],[-122.934405,46.140403],[-122.934487,46.140408],[-122.934509,46.140572],[-122.934564,46.140587],[-122.934723,46.140572],[-122.934757,46.140397],[-122.934875,46.140408],[-122.934881,46.140464],[-122.93493,46.140495],[-122.935111,46.140482],[-122.935131,46.140356],[-122.935086,46.140322],[-122.935005,46.140318]],[[-122.934753,46.134288],[-122.934834,46.134283],[-122.934879,46.134249],[-122.934879,46.134146],[-122.934827,46.13411],[-122.934672,46.134112],[-122.934629,46.134141],[-122.934623,46.134197],[-122.934427,46.134198],[-122.934366,46.134241],[-122.934382,46.134358],[-122.934547,46.134401],[-122.934724,46.134365],[-122.934753,46.134288]],[[-122.934669,46.139328],[-122.934744,46.139289],[-122.934738,46.139176],[-122.934685,46.139149],[-122.934529,46.139154],[-122.93449,46.139191],[-122.934497,46.139299],[-122.934551,46.139326],[-122.934669,46.139328]],[[-122.934766,46.142102],[-122.934942,46.14213],[-122.934994,46.142103],[-122.934994,46.141966],[-122.934948,46.14194],[-122.934873,46.141938],[-122.93487,46.141886],[-122.934832,46.141854],[-122.934656,46.141854],[-122.934616,46.141891],[-122.934607,46.142003],[-122.934649,46.142025],[-122.934744,46.142028],[-122.934766,46.142102]],[[-122.934906,46.141636],[-122.934851,46.141413],[-122.934796,46.141398],[-122.934638,46.141413],[-122.934595,46.141612],[-122.934617,46.141651],[-122.934835,46.141689],[-122.934906,46.141636]],[[-122.937864,46.133481],[-122.937838,46.133315],[-122.937602,46.133298],[-122.937602,46.133209],[-122.937684,46.133205],[-122.937728,46.133171],[-122.937732,46.133029],[-122.937827,46.133027],[-122.937876,46.132995],[-122.937856,46.132869],[-122.937786,46.132835],[-122.937521,46.132853],[-122.937479,46.132882],[-122.937473,46.132939],[-122.937357,46.132963],[-122.937343,46.133029],[-122.937147,46.13303],[-122.93709,46.133062],[-122.937084,46.133299],[-122.93701,46.133301],[-122.936964,46.133327],[-122.936954,46.133569],[-122.936866,46.133575],[-122.936826,46.133612],[-122.936824,46.134019],[-122.936695,46.134019],[-122.936626,46.133994],[-122.936465,46.134031],[-122.936436,46.134067],[-122.936436,46.134198],[-122.93624,46.134199],[-122.936186,46.134227],[-122.936177,46.134378],[-122.935918,46.134378],[-122.935857,46.134354],[-122.935788,46.134378],[-122.935659,46.134378],[-122.935631,46.1343],[-122.935461,46.134264],[-122.935305,46.134297],[-122.935271,46.134378],[-122.935189,46.134382],[-122.935147,46.134411],[-122.935141,46.134509],[-122.935169,46.134545],[-122.9354,46.134558],[-122.935423,46.134632],[-122.935529,46.134648],[-122.935529,46.134738],[-122.935441,46.134744],[-122.935401,46.134781],[-122.935399,46.135134],[-122.935434,46.135179],[-122.935528,46.135188],[-122.935528,46.135277],[-122.93521,46.135278],[-122.935146,46.135311],[-122.935158,46.135438],[-122.93521,46.135458],[-122.935399,46.135458],[-122.935399,46.135548],[-122.93508,46.135548],[-122.935016,46.135581],[-122.93501,46.135908],[-122.934936,46.13591],[-122.93489,46.135936],[-122.93488,46.136178],[-122.934792,46.136184],[-122.934752,46.136221],[-122.934766,46.13671],[-122.934662,46.136724],[-122.934621,46.136766],[-122.934621,46.137029],[-122.934643,46.137062],[-122.934698,46.137078],[-122.935138,46.137078],[-122.935161,46.137152],[-122.935267,46.137168],[-122.935283,46.13725],[-122.934688,46.137244],[-122.934621,46.137287],[-122.934629,46.137409],[-122.934675,46.137435],[-122.934749,46.137438],[-122.934765,46.13752],[-122.934714,46.137575],[-122.934761,46.137624],[-122.934861,46.137611],[-122.934879,46.137528],[-122.935137,46.137528],[-122.935137,46.137888],[-122.934938,46.137875],[-122.934878,46.137923],[-122.934891,46.138044],[-122.935007,46.138068],[-122.935007,46.138248],[-122.934681,46.138249],[-122.93462,46.138291],[-122.934641,46.138412],[-122.934877,46.138428],[-122.934883,46.138484],[-122.934925,46.138514],[-122.935114,46.138502],[-122.935137,46.138338],[-122.935231,46.138329],[-122.935266,46.138248],[-122.935348,46.138244],[-122.935392,46.13821],[-122.935396,46.138068],[-122.93543,46.138026],[-122.935396,46.137978],[-122.935396,46.137888],[-122.935477,46.137884],[-122.935522,46.13785],[-122.935526,46.137528],[-122.935561,46.13748],[-122.935508,46.137368],[-122.935397,46.137348],[-122.935381,46.137266],[-122.935492,46.137249],[-122.935526,46.137168],[-122.935643,46.137144],[-122.935656,46.136988],[-122.935691,46.13694],[-122.935656,46.136898],[-122.935655,46.136672],[-122.935608,46.136632],[-122.935426,46.13664],[-122.935398,46.136677],[-122.935397,46.136808],[-122.935179,46.136814],[-122.935142,46.136846],[-122.935138,46.136898],[-122.935009,46.136898],[-122.934986,46.136823],[-122.934879,46.136808],[-122.934864,46.136725],[-122.935233,46.136709],[-122.935268,46.136669],[-122.935268,46.136538],[-122.935656,46.136538],[-122.935725,46.136562],[-122.935902,46.136514],[-122.935898,46.136378],[-122.935846,46.136358],[-122.935657,46.136358],[-122.935651,46.136301],[-122.935602,46.13627],[-122.935446,46.136272],[-122.935404,46.136301],[-122.935398,46.136358],[-122.935268,46.136358],[-122.935269,46.136178],[-122.935363,46.136169],[-122.935398,46.136088],[-122.935514,46.136064],[-122.935528,46.135818],[-122.935635,46.135802],[-122.935657,46.135728],[-122.935916,46.135728],[-122.935951,46.135809],[-122.936113,46.135817],[-122.936166,46.13579],[-122.936175,46.135728],[-122.936287,46.135709],[-122.936305,46.135638],[-122.936421,46.135614],[-122.936435,46.135189],[-122.936547,46.135169],[-122.936565,46.135009],[-122.936653,46.135002],[-122.936692,46.134965],[-122.936695,46.134469],[-122.936824,46.134469],[-122.93683,46.134525],[-122.936879,46.134556],[-122.93715,46.134558],[-122.937203,46.13453],[-122.937212,46.134469],[-122.937324,46.134449],[-122.937342,46.134379],[-122.937454,46.134359],[-122.937472,46.134109],[-122.937567,46.1341],[-122.937601,46.134019],[-122.937718,46.133995],[-122.937731,46.133749],[-122.937833,46.133745],[-122.937878,46.133709],[-122.937861,46.133569],[-122.937895,46.133522],[-122.937864,46.133481]],[[-122.934745,46.143559],[-122.934688,46.143544],[-122.934629,46.143564],[-122.934613,46.143613],[-122.93464,46.143649],[-122.934702,46.143661],[-122.934761,46.143635],[-122.934776,46.143595],[-122.934745,46.143559]],[[-122.934933,46.135098],[-122.935009,46.135054],[-122.93501,46.134961],[-122.934983,46.13493],[-122.9347,46.134917],[-122.93464,46.134937],[-122.934623,46.135049],[-122.934651,46.135085],[-122.934933,46.135098]],[[-122.935063,46.134828],[-122.935139,46.134784],[-122.935139,46.134691],[-122.935112,46.13466],[-122.93483,46.134648],[-122.93477,46.134667],[-122.934753,46.134779],[-122.934781,46.134815],[-122.935063,46.134828]],[[-122.935781,46.140498],[-122.935856,46.140496],[-122.935902,46.14047],[-122.935893,46.140338],[-122.935841,46.140318],[-122.935576,46.140307],[-122.935528,46.140338],[-122.935522,46.140408],[-122.935406,46.140432],[-122.935393,46.140498],[-122.935175,46.140504],[-122.935123,46.140599],[-122.934903,46.1406],[-122.934875,46.140636],[-122.934881,46.140734],[-122.934923,46.140764],[-122.935066,46.140781],[-122.935125,46.140753],[-122.935145,46.140667],[-122.935393,46.140678],[-122.935454,46.140702],[-122.935522,46.140678],[-122.935733,46.140674],[-122.93578,46.140635],[-122.935781,46.140498]],[[-122.935271,46.134107],[-122.93529,46.134063],[-122.935257,46.134027],[-122.935184,46.134019],[-122.935134,46.134043],[-122.935124,46.134084],[-122.93516,46.134121],[-122.935218,46.134131],[-122.935271,46.134107]],[[-122.936301,46.134075],[-122.936324,46.133878],[-122.936272,46.133841],[-122.935867,46.133838],[-122.935802,46.133862],[-122.935789,46.133928],[-122.935449,46.133932],[-122.935406,46.133961],[-122.935366,46.134055],[-122.935406,46.134178],[-122.935475,46.134212],[-122.936129,46.134194],[-122.936171,46.134165],[-122.936177,46.134108],[-122.936259,46.134104],[-122.936301,46.134075]],[[-122.936691,46.137619],[-122.936685,46.137562],[-122.936643,46.137533],[-122.93638,46.137528],[-122.936316,46.137552],[-122.936302,46.137618],[-122.936191,46.137638],[-122.936173,46.137708],[-122.935914,46.137708],[-122.935911,46.137657],[-122.935873,46.137625],[-122.935684,46.13763],[-122.935656,46.137667],[-122.935655,46.137888],[-122.93562,46.13793],[-122.935655,46.137978],[-122.935651,46.138228],[-122.935704,46.138248],[-122.935885,46.138236],[-122.935913,46.1382],[-122.935914,46.138068],[-122.936369,46.138067],[-122.936422,46.13804],[-122.936432,46.137979],[-122.936662,46.137966],[-122.936691,46.137889],[-122.936779,46.137882],[-122.93682,46.13784],[-122.936814,46.137652],[-122.936772,46.137623],[-122.936691,46.137619]],[[-122.936096,46.137258],[-122.93617,46.13722],[-122.936164,46.137107],[-122.936111,46.137079],[-122.935954,46.137071],[-122.935915,46.137113],[-122.935924,46.13723],[-122.935977,46.137257],[-122.936096,46.137258]],[[-122.936543,46.138319],[-122.936578,46.138198],[-122.936526,46.138161],[-122.936113,46.138159],[-122.936052,46.138187],[-122.936009,46.138301],[-122.936084,46.138422],[-122.936361,46.138428],[-122.936422,46.1384],[-122.936431,46.138339],[-122.936543,46.138319]],[[-122.936673,46.133193],[-122.936731,46.132981],[-122.936679,46.132868],[-122.936634,46.13285],[-122.9365,46.13285],[-122.936439,46.132892],[-122.936426,46.133129],[-122.936239,46.133094],[-122.936051,46.133135],[-122.936029,46.133174],[-122.936071,46.133462],[-122.936126,46.133478],[-122.936414,46.133463],[-122.936437,46.133208],[-122.936673,46.133193]],[[-122.93645,46.136859],[-122.936424,46.136747],[-122.936371,46.136719],[-122.936112,46.136705],[-122.936046,46.136748],[-122.936048,46.13686],[-122.936107,46.136897],[-122.936405,46.136894],[-122.93645,46.136859]],[[-122.936818,46.140089],[-122.936757,46.140036],[-122.936543,46.140041],[-122.936558,46.139904],[-122.936526,46.139864],[-122.936348,46.139873],[-122.936301,46.139912],[-122.936301,46.140005],[-122.936341,46.140042],[-122.936445,46.140056],[-122.936429,46.140139],[-122.936199,46.140151],[-122.93617,46.140187],[-122.936176,46.140285],[-122.936225,46.140316],[-122.936359,46.140318],[-122.93642,46.14029],[-122.93644,46.140218],[-122.936769,46.140225],[-122.936816,46.140185],[-122.936818,46.140089]],[[-122.936561,46.136177],[-122.93651,46.136155],[-122.936452,46.136165],[-122.936414,46.136207],[-122.93643,46.136248],[-122.936484,46.136268],[-122.936555,46.136256],[-122.936583,46.136218],[-122.936561,46.136177]],[[-122.93657,46.13231],[-122.936513,46.132295],[-122.936455,46.132315],[-122.936438,46.132363],[-122.936465,46.132399],[-122.936528,46.132412],[-122.936587,46.132386],[-122.936601,46.132346],[-122.93657,46.13231]],[[-122.936818,46.139419],[-122.936812,46.139362],[-122.936763,46.139331],[-122.9365,46.139329],[-122.936443,46.139353],[-122.93643,46.139738],[-122.936463,46.139783],[-122.936654,46.13977],[-122.936689,46.139689],[-122.936784,46.13968],[-122.936818,46.139599],[-122.936935,46.139575],[-122.936939,46.139447],[-122.936893,46.139421],[-122.936818,46.139419]],[[-122.936855,46.135967],[-122.936813,46.135847],[-122.93676,46.13582],[-122.936502,46.135805],[-122.936435,46.135848],[-122.936437,46.13596],[-122.936496,46.135997],[-122.936693,46.135999],[-122.936784,46.13602],[-122.936855,46.135967]],[[-122.936628,46.133555],[-122.936478,46.133575],[-122.936438,46.133612],[-122.93644,46.133724],[-122.936497,46.133761],[-122.936647,46.133744],[-122.936694,46.133705],[-122.936683,46.133579],[-122.936628,46.133555]],[[-122.936882,46.137103],[-122.937032,46.137075],[-122.937077,46.137041],[-122.937057,46.136825],[-122.93701,46.136809],[-122.93662,46.136809],[-122.936564,46.136825],[-122.936542,46.136864],[-122.936584,46.137076],[-122.936637,46.137092],[-122.936821,46.137079],[-122.936882,46.137103]],[[-122.937341,46.135639],[-122.93736,46.135509],[-122.937333,46.135472],[-122.937158,46.135435],[-122.937082,46.135459],[-122.936634,46.135459],[-122.93657,46.135492],[-122.936564,46.13559],[-122.936605,46.135632],[-122.936693,46.135639],[-122.936696,46.13569],[-122.936734,46.135722],[-122.936952,46.135729],[-122.936958,46.135785],[-122.937007,46.135816],[-122.937211,46.135819],[-122.93722,46.135894],[-122.937293,46.135923],[-122.937429,46.135903],[-122.937469,46.13586],[-122.937467,46.135677],[-122.937422,46.135643],[-122.937341,46.135639]],[[-122.93755,46.132478],[-122.937344,46.132489],[-122.937344,46.132268],[-122.937296,46.132223],[-122.937133,46.132223],[-122.937091,46.132252],[-122.937085,46.132309],[-122.936974,46.132328],[-122.936955,46.132669],[-122.936867,46.132675],[-122.936826,46.132717],[-122.936826,46.132939],[-122.936791,46.132986],[-122.936844,46.133042],[-122.936909,46.133051],[-122.937075,46.133],[-122.937085,46.132759],[-122.937214,46.132759],[-122.937283,46.132783],[-122.937344,46.132759],[-122.937533,46.132759],[-122.937585,46.132739],[-122.9376,46.132514],[-122.93755,46.132478]],[[-122.937134,46.135009],[-122.937208,46.134971],[-122.937199,46.134853],[-122.937142,46.134829],[-122.936967,46.134838],[-122.936933,46.134885],[-122.936966,46.134985],[-122.937015,46.135008],[-122.937134,46.135009]],[[-122.937225,46.138119],[-122.937205,46.138017],[-122.937167,46.137985],[-122.936997,46.137983],[-122.936951,46.138022],[-122.936955,46.138139],[-122.937017,46.138172],[-122.937181,46.138155],[-122.937225,46.138119]],[[-122.937652,46.135369],[-122.937723,46.135336],[-122.937728,46.135233],[-122.937688,46.135196],[-122.9376,46.135189],[-122.937572,46.135111],[-122.937289,46.135099],[-122.937229,46.135119],[-122.937211,46.135315],[-122.93724,46.135357],[-122.937652,46.135369]],[[-122.937344,46.138012],[-122.937319,46.138114],[-122.937351,46.13815],[-122.937541,46.138157],[-122.937593,46.138121],[-122.937593,46.138017],[-122.937542,46.137981],[-122.937393,46.137981],[-122.937344,46.138012]],[[-122.937859,46.134739],[-122.937941,46.134735],[-122.937986,46.134701],[-122.937966,46.134485],[-122.937911,46.134469],[-122.937541,46.134469],[-122.937494,46.134485],[-122.937436,46.134601],[-122.937471,46.134649],[-122.937494,46.134813],[-122.937804,46.134827],[-122.937853,46.134796],[-122.937859,46.134739]],[[-122.937882,46.131989],[-122.937857,46.131893],[-122.937815,46.131863],[-122.937626,46.131875],[-122.937604,46.131949],[-122.937497,46.131965],[-122.937442,46.132071],[-122.937497,46.132203],[-122.937552,46.132219],[-122.93771,46.132203],[-122.937733,46.132039],[-122.937861,46.132023],[-122.937882,46.131989]],[[-122.938242,46.137221],[-122.938265,46.13713],[-122.938238,46.137092],[-122.937986,46.137079],[-122.93798,46.137023],[-122.937938,46.136993],[-122.937653,46.136991],[-122.937599,46.137033],[-122.937598,46.137169],[-122.937516,46.137173],[-122.937474,46.137202],[-122.937471,46.137311],[-122.937531,46.137348],[-122.937801,46.137347],[-122.937851,46.137316],[-122.937857,46.137259],[-122.938204,46.137253],[-122.938242,46.137221]],[[-122.937875,46.1365],[-122.937854,46.136398],[-122.937816,46.136366],[-122.937647,46.136363],[-122.9376,46.136403],[-122.937604,46.136519],[-122.937666,46.136553],[-122.93783,46.136535],[-122.937875,46.1365]],[[-122.937852,46.136236],[-122.937877,46.136134],[-122.937844,46.136099],[-122.937654,46.136091],[-122.937602,46.136127],[-122.937602,46.136231],[-122.937654,46.136267],[-122.937803,46.136267],[-122.937852,46.136236]],[[-122.937995,46.132128],[-122.938026,46.132092],[-122.938011,46.132052],[-122.937952,46.132026],[-122.93789,46.132038],[-122.937863,46.132074],[-122.937879,46.132123],[-122.937937,46.132143],[-122.937995,46.132128]],[[-122.938673,46.132717],[-122.938633,46.132613],[-122.938591,46.132584],[-122.938387,46.132592],[-122.93836,46.13263],[-122.938379,46.132849],[-122.938278,46.132862],[-122.93825,46.132939],[-122.938155,46.132948],[-122.93812,46.133029],[-122.938046,46.133032],[-122.938,46.133058],[-122.93797,46.133513],[-122.938011,46.133563],[-122.938189,46.133582],[-122.938243,46.13355],[-122.938249,46.133479],[-122.938567,46.133479],[-122.938628,46.133451],[-122.938638,46.132761],[-122.938673,46.132717]],[[-122.938431,46.134481],[-122.938623,46.134446],[-122.938633,46.134328],[-122.938581,46.134292],[-122.938433,46.134292],[-122.938379,46.134333],[-122.938381,46.134445],[-122.938431,46.134481]],[[-122.938636,46.13496],[-122.938568,46.134906],[-122.93839,46.134944],[-122.938377,46.135141],[-122.938411,46.13518],[-122.938566,46.135189],[-122.938623,46.135166],[-122.938636,46.13496]],[[-122.93882,46.13222],[-122.938895,46.132181],[-122.93888,46.132059],[-122.938769,46.13204],[-122.938763,46.131983],[-122.938721,46.131954],[-122.938538,46.131962],[-122.93851,46.131998],[-122.938527,46.13211],[-122.938639,46.13213],[-122.938642,46.132181],[-122.93868,46.132213],[-122.93882,46.13222]]]}},{"type":"Feature","properties":{"id":7,"area_m2":7500,"px":75,"rank":2,"persistent":false},"geometry":{"type":"Polygon","coordinates":[[[-122.941475,46.143201],[-122.941475,46.143381],[-122.94138,46.14339],[-122.941345,46.143471],[-122.941229,46.143495],[-122.941216,46.143651],[-122.940827,46.143651],[-122.940814,46.143495],[-122.940765,46.143472],[-122.940639,46.143471],[-122.940578,46.143499],[-122.940568,46.143561],[-122.940457,46.14358],[-122.940439,46.143651],[-122.940243,46.143652],[-122.940183,46.143689],[-122.940197,46.143811],[-122.940309,46.143831],[-122.940344,46.143912],[-122.940439,46.143921],[-122.940461,46.144085],[-122.940516,46.144101],[-122.940956,46.144101],[-122.940956,46.144281],[-122.940697,46.144281],[-122.940688,46.144219],[-122.940627,46.144191],[-122.939921,46.14419],[-122.939915,46.14412],[-122.93986,46.144088],[-122.939532,46.1441],[-122.939532,46.14383],[-122.939633,46.143818],[-122.939662,46.14374],[-122.939763,46.143728],[-122.939792,46.14365],[-122.939887,46.143641],[-122.939921,46.143561],[-122.940003,46.143556],[-122.940045,46.143527],[-122.940051,46.143381],[-122.940086,46.143338],[-122.940051,46.14329],[-122.940051,46.143201],[-122.940133,46.143196],[-122.940175,46.143167],[-122.940181,46.142931],[-122.940255,46.142928],[-122.940301,46.142902],[-122.940311,46.142751],[-122.94044,46.142752],[-122.94044,46.142931],[-122.940365,46.142933],[-122.940319,46.142959],[-122.940323,46.143087],[-122.94038,46.14311],[-122.940698,46.143111],[-122.940704,46.143258],[-122.940746,46.143287],[-122.940828,46.143291],[-122.940831,46.143343],[-122.940869,46.143375],[-122.941298,46.143377],[-122.941344,46.143338],[-122.941346,46.143201],[-122.941475,46.143201]],[[-122.940044,46.143977],[-122.940069,46.143876],[-122.94003,46.143837],[-122.939839,46.143835],[-122.939793,46.143874],[-122.939797,46.143991],[-122.939859,46.144024],[-122.940002,46.144006],[-122.940044,46.143977]]]}},{"type":"Feature","properties":{"id":1,"area_m2":6800,"px":68,"rank":3,"persistent":false},"geometry":{"type":"Polygon","coordinates":[[[-122.939403,46.1441],[-122.939402,46.14437],[-122.938755,46.14437],[-122.938746,46.144308],[-122.938692,46.144281],[-122.938237,46.14428],[-122.938237,46.14419],[-122.938272,46.144142],[-122.938224,46.144034],[-122.938167,46.14401],[-122.937979,46.144009],[-122.937979,46.143739],[-122.938175,46.143739],[-122.938229,46.143711],[-122.938238,46.14356],[-122.938326,46.143553],[-122.938366,46.143516],[-122.938368,46.1432],[-122.938497,46.1432],[-122.938515,46.14327],[-122.938627,46.14329],[-122.93864,46.143356],[-122.938756,46.14338],[-122.93879,46.143461],[-122.939015,46.14347],[-122.939014,46.14374],[-122.93898,46.143782],[-122.939014,46.14383],[-122.939014,46.14392],[-122.93892,46.143922],[-122.938873,46.14395],[-122.938902,46.144093],[-122.93896,46.144114],[-122.939403,46.1441]]]}},{"type":"Feature","properties":{"id":72,"area_m2":5200,"px":52,"rank":4,"persistent":false},"geometry":{"type":"Polygon","coordinates":[[[-122.933461,46.131767],[-122.933461,46.131947],[-122.933373,46.131953],[-122.933333,46.13199],[-122.933331,46.132307],[-122.933243,46.132313],[-122.933203,46.13235],[-122.933201,46.132577],[-122.932746,46.132577],[-122.932693,46.132605],[-122.932683,46.132666],[-122.932554,46.132666],[-122.93252,46.132585],[-122.932295,46.132576],[-122.932273,46.132502],[-122.932166,46.132486],[-122.932167,46.132036],[-122.932273,46.13202],[-122.932296,46.131946],[-122.932514,46.13194],[-122.932552,46.131908],[-122.932557,46.131856],[-122.932814,46.131856],[-122.932875,46.13188],[-122.932943,46.131856],[-122.933073,46.131857],[-122.933107,46.131937],[-122.933269,46.131946],[-122.93333,46.131903],[-122.933332,46.131767],[-122.933461,46.131767]],[[-122.932555,46.132216],[-122.932791,46.132201],[-122.932814,46.132162],[-122.932791,46.132052],[-122.932736,46.132036],[-122.932366,46.132036],[-122.932319,46.132052],[-122.932296,46.13209],[-122.932296,46.132347],[-122.932318,46.13238],[-122.932373,46.132396],[-122.932532,46.13238],[-122.932555,46.132216]]]}},{"type":"Feature","properties":{"id":24,"area_m2":4400,"px":44,"rank":5,"persistent":false},"geometry":{"type":"Polygon","coordinates":[[[-122.937982,46.140769],[-122.937982,46.140859],[-122.937887,46.140868],[-122.937852,46.140913],[-122.937865,46.141015],[-122.937982,46.141039],[-122.937981,46.141219],[-122.937723,46.141219],[-122.937722,46.141088],[-122.937694,46.141052],[-122.937464,46.141039],[-122.937429,46.140958],[-122.937275,46.140949],[-122.937208,46.140987],[-122.937205,46.141129],[-122.937123,46.141133],[-122.937081,46.141162],[-122.937075,46.141309],[-122.936946,46.141309],[-122.936923,46.141235],[-122.936816,46.141219],[-122.936782,46.141138],[-122.936687,46.141129],[-122.936681,46.140892],[-122.936639,46.140863],[-122.936558,46.140859],[-122.936523,46.140778],[-122.936428,46.140768],[-122.936429,46.140679],[-122.936535,46.140663],[-122.936558,46.140589],[-122.936687,46.140589],[-122.936705,46.140749],[-122.936817,46.140769],[-122.93682,46.14082],[-122.936858,46.140852],[-122.937029,46.140868],[-122.937074,46.140829],[-122.937076,46.140679],[-122.937157,46.140675],[-122.937202,46.140641],[-122.937206,46.140409],[-122.937312,46.140393],[-122.937335,46.140319],[-122.937465,46.140319],[-122.937464,46.140499],[-122.937376,46.140505],[-122.937336,46.140543],[-122.937352,46.140749],[-122.937405,46.140769],[-122.937723,46.140769],[-122.937784,46.140793],[-122.937853,46.140769],[-122.937982,46.140769]]]}},{"type":"Feature","properties":{"id":54,"area_m2":3500,"px":35,"rank":6,"persistent":false},"geometry":{"type":"Polygon","coordinates":[[[-122.936565,46.134559],[-122.936565,46.134648],[-122.936464,46.134661],[-122.936435,46.134738],[-122.936334,46.134751],[-122.936306,46.134828],[-122.936211,46.134837],[-122.936176,46.134918],[-122.936095,46.134922],[-122.93605,46.134957],[-122.93606,46.135074],[-122.936176,46.135098],[-122.936176,46.135278],[-122.936141,46.135321],[-122.936176,46.135368],[-122.936175,46.135458],[-122.935835,46.135462],[-122.935789,46.135502],[-122.935787,46.135638],[-122.935528,46.135638],[-122.935528,46.135548],[-122.935617,46.135542],[-122.935656,46.135505],[-122.935658,46.135278],[-122.935746,46.135272],[-122.935787,46.135229],[-122.935774,46.135122],[-122.935658,46.135098],[-122.935658,46.134918],[-122.935847,46.134918],[-122.935904,46.134894],[-122.935952,46.134786],[-122.935918,46.134738],[-122.935918,46.134648],[-122.935992,46.134646],[-122.936038,46.13462],[-122.936047,46.134468],[-122.936436,46.134469],[-122.936458,46.134543],[-122.936565,46.134559]]]}},{"type":"Feature","properties":{"id":69,"area_m2":3200,"px":32,"rank":7,"persistent":false},"geometry":{"type":"Polygon","coordinates":[[[-122.9455,46.132133],[-122.9455,46.132223],[-122.945399,46.132235],[-122.94537,46.132313],[-122.945275,46.132322],[-122.945241,46.132367],[-122.945258,46.132563],[-122.945311,46.132583],[-122.9455,46.132583],[-122.945499,46.132853],[-122.945393,46.132869],[-122.94537,46.132943],[-122.945111,46.132943],[-122.945122,46.132842],[-122.9453,46.132853],[-122.945357,46.132829],[-122.94537,46.132727],[-122.945347,46.132689],[-122.945152,46.132679],[-122.9451,46.132774],[-122.944982,46.132763],[-122.944976,46.132706],[-122.944934,46.132677],[-122.944723,46.132673],[-122.944723,46.132583],[-122.944824,46.132571],[-122.944853,46.132493],[-122.944941,46.132486],[-122.94498,46.132449],[-122.944982,46.132223],[-122.945017,46.13218],[-122.944982,46.132133],[-122.944983,46.131863],[-122.945241,46.131863],[-122.945264,46.131937],[-122.945371,46.131953],[-122.945384,46.132109],[-122.9455,46.132133]]]}},{"type":"Feature","properties":{"id":35,"area_m2":2800,"px":28,"rank":8,"persistent":false},"geometry":{"type":"Polygon","coordinates":[[[-122.940186,46.137981],[-122.940186,46.13807],[-122.939567,46.138082],[-122.939539,46.138119],[-122.939538,46.13834],[-122.939409,46.13834],[-122.939396,46.138274],[-122.93928,46.13825],[-122.939276,46.138198],[-122.939239,46.138166],[-122.939021,46.13816],[-122.939021,46.13807],[-122.939116,46.138061],[-122.93915,46.13798],[-122.939232,46.137976],[-122.939274,46.137947],[-122.93928,46.13771],[-122.939668,46.13771],[-122.939682,46.137776],[-122.939798,46.1378],[-122.939826,46.137878],[-122.940057,46.137891],[-122.940079,46.137965],[-122.940186,46.137981]]]}},{"type":"Feature","properties":{"id":3,"area_m2":2700,"px":27,"rank":9,"persistent":false},"geometry":{"type":"Polygon","coordinates":[[[-122.935777,46.144188],[-122.935777,46.144368],[-122.935518,46.144368],[-122.935457,46.144344],[-122.935388,46.144368],[-122.935259,46.144368],[-122.93525,46.144293],[-122.935184,46.144264],[-122.935028,46.14429],[-122.935,46.144368],[-122.934482,46.144367],[-122.934482,46.144278],[-122.934671,46.144277],[-122.934728,46.144254],[-122.934741,46.144008],[-122.934848,46.143992],[-122.934871,46.143918],[-122.935,46.143918],[-122.93501,46.143979],[-122.935063,46.144007],[-122.935518,46.144008],[-122.935541,46.144172],[-122.935777,46.144188]]]}},{"type":"Feature","properties":{"id":59,"area_m2":2200,"px":22,"rank":10,"persistent":false},"geometry":{"type":"Polygon","coordinates":[[[-122.942391,46.133662],[-122.942391,46.133932],[-122.942173,46.133938],[-122.942136,46.13397],[-122.942132,46.134021],[-122.942051,46.134026],[-122.942006,46.13406],[-122.942004,46.134338],[-122.942044,46.134375],[-122.942132,46.134382],[-122.942132,46.13456],[-122.942002,46.134561],[-122.942002,46.13443],[-122.941968,46.13439],[-122.941812,46.134357],[-122.941743,46.134381],[-122.941614,46.134381],[-122.941614,46.134291],[-122.941649,46.134249],[-122.941614,46.134201],[-122.941614,46.134111],[-122.941806,46.134125],[-122.941864,46.134096],[-122.941874,46.133931],[-122.941985,46.133912],[-122.942023,46.133807],[-122.941983,46.133758],[-122.941874,46.133751],[-122.941874,46.133661],[-122.94211,46.133646],[-122.942133,46.133482],[-122.942262,46.133482],[-122.942271,46.133633],[-122.942317,46.133659],[-122.942391,46.133662]]]}},{"type":"Feature","properties":{"id":46,"area_m2":1800,"px":18,"rank":11,"persistent":false},"geometry":{"type":"Polygon","coordinates":[[[-122.940446,46.137171],[-122.940446,46.137261],[-122.940091,46.137256],[-122.940057,46.13735],[-122.939951,46.137366],[-122.939928,46.13744],[-122.939539,46.13744],[-122.939536,46.137389],[-122.939498,46.137357],[-122.939281,46.13735],[-122.939281,46.13726],[-122.939669,46.13726],[-122.939678,46.137322],[-122.939731,46.137349],[-122.939865,46.137349],[-122.939915,46.137326],[-122.939925,46.137119],[-122.93988,46.137084],[-122.939799,46.13708],[-122.939799,46.13681],[-122.939928,46.13681],[-122.939934,46.13688],[-122.939982,46.136911],[-122.940187,46.136901],[-122.9402,46.137147],[-122.940257,46.13717],[-122.940446,46.137171]]]}},{"type":"Feature","properties":{"id":47,"area_m2":1600,"px":16,"rank":12,"persistent":false},"geometry":{"type":"Polygon","coordinates":[[[-122.931513,46.136626],[-122.931513,46.136896],[-122.931406,46.136911],[-122.931384,46.136986],[-122.931289,46.136995],[-122.931254,46.137075],[-122.931142,46.137095],[-122.931124,46.137165],[-122.930995,46.137165],[-122.930972,46.137091],[-122.930866,46.137075],[-122.930866,46.136985],[-122.930961,46.136976],[-122.930995,46.136895],[-122.93107,46.136893],[-122.931116,46.136867],[-122.931125,46.136625],[-122.931513,46.136626]]]}},{"type":"Feature","properties":{"id":66,"area_m2":1600,"px":16,"rank":13,"persistent":false},"geometry":{"type":"Polygon","coordinates":[[[-122.941356,46.133121],[-122.941356,46.133211],[-122.941275,46.133215],[-122.94123,46.133249],[-122.941227,46.133391],[-122.941009,46.133397],[-122.940971,46.133429],[-122.940966,46.133481],[-122.940838,46.133481],[-122.940816,46.133407],[-122.940709,46.133391],[-122.940709,46.133211],[-122.940798,46.133204],[-122.940837,46.133167],[-122.940839,46.133031],[-122.940873,46.132988],[-122.940839,46.132941],[-122.940839,46.132851],[-122.940946,46.132835],[-122.940969,46.132761],[-122.941098,46.132762],[-122.941098,46.133031],[-122.941023,46.133033],[-122.940977,46.133059],[-122.940986,46.133191],[-122.941038,46.133211],[-122.941172,46.133209],[-122.941221,46.133178],[-122.941227,46.133121],[-122.941356,46.133121]]]}},{"type":"Feature","properties":{"id":73,"area_m2":1600,"px":16,"rank":14,"persistent":false},"geometry":{"type":"Polygon","coordinates":[[[-122.932037,46.131856],[-122.932037,46.132306],[-122.93193,46.132322],[-122.931907,46.132396],[-122.931648,46.132396],[-122.931626,46.132321],[-122.931519,46.132306],[-122.931519,46.132216],[-122.931593,46.132213],[-122.931639,46.132187],[-122.931649,46.132036],[-122.93173,46.132032],[-122.931775,46.131997],[-122.931778,46.131856],[-122.932037,46.131856]]]}},{"type":"Feature","properties":{"id":30,"area_m2":1400,"px":14,"rank":15,"persistent":false},"geometry":{"type":"Polygon","coordinates":[[[-122.944976,46.138793],[-122.944975,46.138883],[-122.944779,46.138884],[-122.944726,46.138911],[-122.944716,46.139243],[-122.944621,46.139252],[-122.944587,46.139333],[-122.94447,46.139357],[-122.944457,46.139693],[-122.944327,46.139693],[-122.944328,46.139333],[-122.94444,46.139313],[-122.944457,46.139153],[-122.944546,46.139146],[-122.944585,46.139109],[-122.944587,46.138703],[-122.944717,46.138703],[-122.944723,46.138759],[-122.944772,46.138791],[-122.944976,46.138793]]]}},{"type":"Feature","properties":{"id":22,"area_m2":1300,"px":13,"rank":16,"persistent":false},"geometry":{"type":"Polygon","coordinates":[[[-122.939017,46.14158],[-122.939017,46.14167],[-122.938499,46.14167],[-122.938496,46.141618],[-122.938458,46.141586],[-122.93824,46.141579],[-122.93824,46.14149],[-122.938315,46.141487],[-122.938361,46.141461],[-122.93837,46.14131],[-122.938629,46.14131],[-122.938632,46.141361],[-122.93867,46.141393],[-122.938888,46.1414],[-122.938876,46.14155],[-122.938922,46.141577],[-122.939017,46.14158]]]}},{"type":"Feature","properties":{"id":58,"area_m2":1300,"px":13,"rank":17,"persistent":false},"geometry":{"type":"Polygon","coordinates":[[[-122.943427,46.133662],[-122.943427,46.133842],[-122.943339,46.133848],[-122.943298,46.133891],[-122.943297,46.134292],[-122.943223,46.134294],[-122.943177,46.134321],[-122.943167,46.134472],[-122.943061,46.134488],[-122.943038,46.134562],[-122.942909,46.134562],[-122.942909,46.134472],[-122.942997,46.134466],[-122.943038,46.134423],[-122.943038,46.134202],[-122.943073,46.13416],[-122.943038,46.134112],[-122.943039,46.133932],[-122.943134,46.133923],[-122.943168,46.133842],[-122.943285,46.133818],[-122.943298,46.133662],[-122.943427,46.133662]]]}},{"type":"Feature","properties":{"id":13,"area_m2":1200,"px":12,"rank":18,"persistent":false},"geometry":{"type":"Polygon","coordinates":[[[-122.938757,46.14248],[-122.938757,46.14284],[-122.938662,46.142849],[-122.938627,46.14293],[-122.938511,46.142954],[-122.938497,46.14311],[-122.938368,46.14311],[-122.938368,46.14293],[-122.938402,46.142877],[-122.938351,46.142769],[-122.938239,46.142749],[-122.938239,46.14266],[-122.938496,46.142643],[-122.938518,46.142604],[-122.938498,46.14248],[-122.938757,46.14248]]]}},{"type":"Feature","properties":{"id":25,"area_m2":1200,"px":12,"rank":19,"persistent":false},"geometry":{"type":"Polygon","coordinates":[[[-122.938629,46.14086],[-122.938629,46.14122],[-122.938241,46.141219],[-122.938241,46.14113],[-122.938329,46.141123],[-122.938369,46.141086],[-122.938369,46.140813],[-122.938308,46.140771],[-122.938112,46.140769],[-122.938112,46.14068],[-122.93837,46.14068],[-122.938393,46.140754],[-122.9385,46.14077],[-122.938534,46.140851],[-122.938629,46.14086]]]}},{"type":"Feature","properties":{"id":49,"area_m2":1200,"px":12,"rank":20,"persistent":false},"geometry":{"type":"Polygon","coordinates":[[[-122.941353,46.136361],[-122.941353,46.136451],[-122.941027,46.136452],[-122.940966,46.136494],[-122.940966,46.136587],[-122.940993,46.136619],[-122.941223,46.136631],[-122.941223,46.136811],[-122.940964,46.136811],[-122.940942,46.136737],[-122.940835,46.136721],[-122.9408,46.13664],[-122.940706,46.136631],[-122.940706,46.136541],[-122.9408,46.136532],[-122.940835,46.136451],[-122.940909,46.136449],[-122.940955,46.136422],[-122.940965,46.136271],[-122.941094,46.136271],[-122.9411,46.136328],[-122.941149,46.136359],[-122.941353,46.136361]]]}},{"type":"Feature","properties":{"id":70,"area_m2":1200,"px":12,"rank":21,"persistent":false},"geometry":{"type":"Polygon","coordinates":[[[-122.942911,46.131772],[-122.942911,46.132042],[-122.94283,46.132046],[-122.942785,46.13208],[-122.942781,46.132312],[-122.942686,46.132321],[-122.942652,46.132402],[-122.942535,46.132426],[-122.942522,46.132762],[-122.942393,46.132762],[-122.942393,46.132402],[-122.942488,46.132393],[-122.942523,46.132312],[-122.942597,46.132309],[-122.942643,46.132283],[-122.942652,46.131952],[-122.942727,46.131949],[-122.942773,46.131923],[-122.942782,46.131772],[-122.942911,46.131772]]]}},{"type":"Feature","properties":{"id":32,"area_m2":1100,"px":11,"rank":22,"persistent":false},"geometry":{"type":"Polygon","coordinates":[[[-122.940962,46.138611],[-122.940962,46.138701],[-122.940874,46.138707],[-122.940834,46.138744],[-122.940832,46.139061],[-122.940573,46.139061],[-122.940585,46.13891],[-122.940539,46.138883],[-122.940444,46.138881],[-122.94041,46.1388],[-122.940315,46.138791],[-122.940315,46.138701],[-122.940641,46.1387],[-122.940694,46.138672],[-122.940703,46.138611],[-122.940962,46.138611]]]}},{"type":"Feature","properties":{"id":28,"area_m2":1000,"px":10,"rank":23,"persistent":false},"geometry":{"type":"Polygon","coordinates":[[[-122.940572,46.139871],[-122.940572,46.140051],[-122.940313,46.140051],[-122.940308,46.139994],[-122.940258,46.139963],[-122.940123,46.139936],[-122.940054,46.13996],[-122.939925,46.13996],[-122.939902,46.139886],[-122.939796,46.13987],[-122.939796,46.13978],[-122.940314,46.139781],[-122.940317,46.139832],[-122.940355,46.139864],[-122.940572,46.139871]]]}},{"type":"Feature","properties":{"id":14,"area_m2":900,"px":9,"rank":24,"persistent":false},"geometry":{"type":"Polygon","coordinates":[[[-122.936815,46.142659],[-122.936814,46.142839],[-122.93674,46.142841],[-122.936694,46.142867],[-122.936685,46.143019],[-122.936555,46.143019],[-122.936533,46.142944],[-122.936426,46.142929],[-122.936426,46.142659],[-122.936815,46.142659]]]}},{"type":"Feature","properties":{"id":18,"area_m2":900,"px":9,"rank":25,"persistent":false},"geometry":{"type":"Polygon","coordinates":[[[-122.936686,46.142029],[-122.936686,46.142209],[-122.936427,46.142208],[-122.936418,46.142057],[-122.936372,46.142031],[-122.936297,46.142027],[-122.936298,46.141849],[-122.936404,46.141833],[-122.936427,46.141759],[-122.936557,46.141759],[-122.93656,46.14199],[-122.936604,46.142025],[-122.936686,46.142029]]]}},{"type":"Feature","properties":{"id":19,"area_m2":800,"px":8,"rank":26,"persistent":false},"geometry":{"type":"Polygon","coordinates":[[[-122.939276,46.14176],[-122.939275,46.14203],[-122.939169,46.142046],[-122.939146,46.14212],[-122.938887,46.14212],[-122.938887,46.14203],[-122.938922,46.141987],[-122.938887,46.14194],[-122.938887,46.14185],[-122.938994,46.141834],[-122.939017,46.14176],[-122.939276,46.14176]]]}},{"type":"Feature","properties":{"id":33,"area_m2":800,"px":8,"rank":27,"persistent":false},"geometry":{"type":"Polygon","coordinates":[[[-122.928274,46.138514],[-122.928274,46.139054],[-122.928144,46.139054],[-122.928143,46.138827],[-122.928104,46.13879],[-122.928015,46.138783],[-122.928015,46.138604],[-122.928122,46.138588],[-122.928145,46.138514],[-122.928274,46.138514]]]}},{"type":"Feature","properties":{"id":34,"area_m2":800,"px":8,"rank":28,"persistent":false},"geometry":{"type":"Polygon","coordinates":[[[-122.931899,46.138516],[-122.931899,46.138696],[-122.931825,46.138698],[-122.931779,46.138724],[-122.93177,46.138876],[-122.931511,46.138876],[-122.931511,46.138786],[-122.931599,46.138779],[-122.931639,46.138742],[-122.931641,46.138426],[-122.93177,46.138426],[-122.931793,46.1385],[-122.931899,46.138516]]]}},{"type":"Feature","properties":{"id":52,"area_m2":800,"px":8,"rank":29,"persistent":false},"geometry":{"type":"Polygon","coordinates":[[[-122.93022,46.135725],[-122.93022,46.135905],[-122.930145,46.135907],[-122.930099,46.135933],[-122.93009,46.136085],[-122.929961,46.136085],[-122.929938,46.13601],[-122.929831,46.135993],[-122.929831,46.135905],[-122.929913,46.135901],[-122.929958,46.135866],[-122.929961,46.135635],[-122.930091,46.135635],[-122.930113,46.135709],[-122.93022,46.135725]]]}},{"type":"Feature","properties":{"id":6,"area_m2":700,"px":7,"rank":30,"persistent":false},"geometry":{"type":"Polygon","coordinates":[[[-122.929173,46.144184],[-122.929173,46.144364],[-122.928785,46.144364],[-122.928785,46.144184],[-122.928892,46.144168],[-122.928915,46.144094],[-122.929044,46.144094],[-122.929067,46.144168],[-122.929173,46.144184]]]}},{"type":"Feature","properties":{"id":20,"area_m2":700,"px":7,"rank":31,"persistent":false},"geometry":{"type":"Polygon","coordinates":[[[-122.936039,46.141758],[-122.936039,46.141938],[-122.935932,46.141954],[-122.935909,46.142028],[-122.93565,46.142028],[-122.93565,46.141938],[-122.935739,46.141932],[-122.935778,46.141895],[-122.93578,46.141668],[-122.935909,46.141668],[-122.935932,46.141742],[-122.936039,46.141758]]]}},{"type":"Feature","properties":{"id":57,"area_m2":700,"px":7,"rank":32,"persistent":false},"geometry":{"type":"Polygon","coordinates":[[[-122.932422,46.134556],[-122.932422,46.134736],[-122.932315,46.134752],[-122.932292,46.134826],[-122.932034,46.134826],[-122.932011,46.134752],[-122.931904,46.134736],[-122.931904,46.134646],[-122.93223,46.134645],[-122.932284,46.134618],[-122.932293,46.134556],[-122.932422,46.134556]]]}},{"type":"Feature","properties":{"id":12,"area_m2":600,"px":6,"rank":33,"persistent":false},"geometry":{"type":"Polygon","coordinates":[[[-122.937458,46.143291],[-122.937427,46.143337],[-122.937461,46.143379],[-122.937461,46.143469],[-122.937332,46.143469],[-122.937309,46.143395],[-122.937202,46.143378],[-122.937203,46.143199],[-122.937277,46.143197],[-122.937323,46.143171],[-122.937332,46.143019],[-122.937462,46.143019],[-122.937458,46.143291]]]}},{"type":"Feature","properties":{"id":16,"area_m2":600,"px":6,"rank":34,"persistent":false},"geometry":{"type":"Polygon","coordinates":[[[-122.937981,46.142029],[-122.93798,46.142299],[-122.937906,46.142302],[-122.93786,46.142328],[-122.937851,46.142479],[-122.937721,46.142479],[-122.937722,46.142209],[-122.937796,46.142207],[-122.937842,46.142181],[-122.937851,46.142029],[-122.937981,46.142029]]]}},{"type":"Feature","properties":{"id":29,"area_m2":600,"px":6,"rank":35,"persistent":false},"geometry":{"type":"Polygon","coordinates":[[[-122.940702,46.139421],[-122.940702,46.139781],[-122.940573,46.139781],[-122.940567,46.139454],[-122.94051,46.139422],[-122.940314,46.139421],[-122.940314,46.139331],[-122.940573,46.139331],[-122.940596,46.139405],[-122.940702,46.139421]]]}},{"type":"Feature","properties":{"id":42,"area_m2":600,"px":6,"rank":36,"persistent":false},"geometry":{"type":"Polygon","coordinates":[[[-122.942258,46.137442],[-122.942258,46.137532],[-122.94204,46.137538],[-122.942002,46.13757],[-122.941999,46.137621],[-122.94174,46.137621],[-122.94174,46.137441],[-122.942258,46.137442]]]}},{"type":"Feature","properties":{"id":9,"area_m2":500,"px":5,"rank":37,"persistent":false},"geometry":{"type":"Polygon","coordinates":[[[-122.941086,46.143741],[-122.941086,46.143831],[-122.941005,46.143835],[-122.94096,46.143869],[-122.940956,46.144011],[-122.940827,46.144011],[-122.940804,46.143937],[-122.940698,46.143921],[-122.940698,46.143831],[-122.940804,46.143815],[-122.940827,46.143741],[-122.941086,46.143741]]]}},{"type":"Feature","properties":{"id":15,"area_m2":500,"px":5,"rank":38,"persistent":false},"geometry":{"type":"Polygon","coordinates":[[[-122.940958,46.142841],[-122.940958,46.142931],[-122.940569,46.142931],[-122.940569,46.142841],[-122.940651,46.142837],[-122.940695,46.142803],[-122.940699,46.142661],[-122.940828,46.142661],[-122.940837,46.142812],[-122.940883,46.142839],[-122.940958,46.142841]]]}},{"type":"Feature","properties":{"id":36,"area_m2":500,"px":5,"rank":39,"persistent":false},"geometry":{"type":"Polygon","coordinates":[[[-122.930864,46.138065],[-122.930864,46.138155],[-122.930659,46.138144],[-122.930611,46.138175],[-122.930605,46.138245],[-122.930476,46.138245],[-122.930473,46.138103],[-122.930428,46.138069],[-122.930347,46.138065],[-122.930347,46.137975],[-122.930476,46.137975],[-122.930537,46.137999],[-122.930606,46.137975],[-122.930735,46.137975],[-122.930758,46.138049],[-122.930864,46.138065]]]}},{"type":"Feature","properties":{"id":45,"area_m2":500,"px":5,"rank":40,"persistent":false},"geometry":{"type":"Polygon","coordinates":[[[-122.928794,46.137254],[-122.928794,46.137524],[-122.928535,46.137524],[-122.928535,46.137344],[-122.928642,46.137328],[-122.928665,46.137254],[-122.928794,46.137254]]]}},{"type":"Feature","properties":{"id":62,"area_m2":500,"px":5,"rank":41,"persistent":false},"geometry":{"type":"Polygon","coordinates":[[[-122.944592,46.134293],[-122.944592,46.134383],[-122.944333,46.134383],[-122.944272,46.134358],[-122.944203,46.134382],[-122.944074,46.134382],[-122.944074,46.134203],[-122.944333,46.134203],[-122.944336,46.134254],[-122.944374,46.134286],[-122.944592,46.134293]]]}},{"type":"Feature","properties":{"id":65,"area_m2":500,"px":5,"rank":42,"persistent":false},"geometry":{"type":"Polygon","coordinates":[[[-122.943557,46.133302],[-122.943557,46.133572],[-122.943298,46.133572],[-122.943275,46.133498],[-122.943169,46.133482],[-122.943169,46.133392],[-122.943374,46.133403],[-122.943422,46.133372],[-122.943428,46.133302],[-122.943557,46.133302]]]}},{"type":"Feature","properties":{"id":4,"area_m2":400,"px":4,"rank":43,"persistent":false},"geometry":{"type":"Polygon","coordinates":[[[-122.932022,46.144186],[-122.932022,46.144366],[-122.931763,46.144366],[-122.931763,46.144186],[-122.932022,46.144186]]]}},{"type":"Feature","properties":{"id":21,"area_m2":400,"px":4,"rank":44,"persistent":false},"geometry":{"type":"Polygon","coordinates":[[[-122.938369,46.14167],[-122.938369,46.14194],[-122.93824,46.141939],[-122.938237,46.141798],[-122.938192,46.141764],[-122.938111,46.141759],[-122.938111,46.14167],[-122.938369,46.14167]]]}},{"type":"Feature","properties":{"id":23,"area_m2":400,"px":4,"rank":45,"persistent":false},"geometry":{"type":"Polygon","coordinates":[[[-122.943678,46.141492],[-122.943678,46.141582],[-122.943419,46.141582],[-122.943396,46.141508],[-122.94329,46.141492],[-122.94329,46.141402],[-122.943397,46.141386],[-122.943419,46.141312],[-122.943549,46.141312],[-122.943537,46.141463],[-122.943583,46.14149],[-122.943678,46.141492]]]}},{"type":"Feature","properties":{"id":27,"area_m2":400,"px":4,"rank":46,"persistent":false},"geometry":{"type":"Polygon","coordinates":[[[-122.943421,46.139782],[-122.943421,46.140052],[-122.943162,46.140052],[-122.943162,46.139962],[-122.943243,46.139958],[-122.943288,46.139924],[-122.943292,46.139782],[-122.943421,46.139782]]]}},{"type":"Feature","properties":{"id":31,"area_m2":400,"px":4,"rank":47,"persistent":false},"geometry":{"type":"Polygon","coordinates":[[[-122.928792,46.139054],[-122.928791,46.139144],[-122.928703,46.13915],[-122.928663,46.139187],[-122.928662,46.139414],[-122.928532,46.139414],[-122.928533,46.139144],[-122.928639,46.139128],[-122.928662,46.139054],[-122.928792,46.139054]]]}},{"type":"Feature","properties":{"id":37,"area_m2":400,"px":4,"rank":48,"persistent":false},"geometry":{"type":"Polygon","coordinates":[[[-122.9442,46.137713],[-122.9442,46.137892],[-122.944093,46.137908],[-122.94407,46.137982],[-122.943941,46.137982],[-122.943941,46.137802],[-122.944048,46.137787],[-122.944071,46.137713],[-122.9442,46.137713]]]}},{"type":"Feature","properties":{"id":41,"area_m2":400,"px":4,"rank":49,"persistent":false},"geometry":{"type":"Polygon","coordinates":[[[-122.930088,46.137525],[-122.930088,46.137705],[-122.929981,46.137721],[-122.929958,46.137795],[-122.929829,46.137795],[-122.929829,46.137615],[-122.929936,46.137599],[-122.929959,46.137525],[-122.930088,46.137525]]]}},{"type":"Feature","properties":{"id":44,"area_m2":400,"px":4,"rank":50,"persistent":false},"geometry":{"type":"Polygon","coordinates":[[[-122.9442,46.137443],[-122.9442,46.137532],[-122.943941,46.137532],[-122.943918,46.137458],[-122.943812,46.137442],[-122.943812,46.137352],[-122.944071,46.137353],[-122.944093,46.137427],[-122.9442,46.137443]]]}},{"type":"Feature","properties":{"id":55,"area_m2":400,"px":4,"rank":51,"persistent":false},"geometry":{"type":"Polygon","coordinates":[[[-122.932033,46.135366],[-122.932033,46.135456],[-122.931903,46.135456],[-122.93189,46.13539],[-122.931826,46.135366],[-122.931679,46.135375],[-122.931644,46.135456],[-122.931515,46.135456],[-122.931515,46.135366],[-122.931622,46.13535],[-122.931645,46.135276],[-122.931903,46.135276],[-122.931926,46.13535],[-122.932033,46.135366]]]}},{"type":"Feature","properties":{"id":60,"area_m2":400,"px":4,"rank":52,"persistent":false},"geometry":{"type":"Polygon","coordinates":[[[-122.940449,46.134201],[-122.940449,46.134471],[-122.940319,46.13447],[-122.940297,46.134396],[-122.94019,46.13438],[-122.94019,46.134291],[-122.940297,46.134275],[-122.94032,46.134201],[-122.940449,46.134201]]]}},{"type":"Feature","properties":{"id":74,"area_m2":400,"px":4,"rank":53,"persistent":false},"geometry":{"type":"Polygon","coordinates":[[[-122.934756,46.131858],[-122.934756,46.131947],[-122.934626,46.131947],[-122.934565,46.131923],[-122.934497,46.131947],[-122.934367,46.131947],[-122.934368,46.131767],[-122.934626,46.131767],[-122.934649,46.131842],[-122.934756,46.131858]]]}},{"type":"Feature","properties":{"id":2,"area_m2":300,"px":3,"rank":54,"persistent":false},"geometry":{"type":"Polygon","coordinates":[[[-122.93759,46.144099],[-122.937589,46.144369],[-122.93746,46.144369],[-122.93746,46.144099],[-122.93759,46.144099]]]}},{"type":"Feature","properties":{"id":8,"area_m2":300,"px":3,"rank":55,"persistent":false},"geometry":{"type":"Polygon","coordinates":[[[-122.932669,46.144186],[-122.932669,46.144276],[-122.93241,46.144276],[-122.932388,46.144202],[-122.932281,46.144186],[-122.932281,46.144096],[-122.932411,46.144096],[-122.932416,46.144153],[-122.932466,46.144184],[-122.932669,46.144186]]]}},{"type":"Feature","properties":{"id":10,"area_m2":300,"px":3,"rank":56,"persistent":false},"geometry":{"type":"Polygon","coordinates":[[[-122.932799,46.143737],[-122.932799,46.143916],[-122.93267,46.143916],[-122.932647,46.143842],[-122.932541,46.143826],[-122.932541,46.143736],[-122.932799,46.143737]]]}},{"type":"Feature","properties":{"id":11,"area_m2":300,"px":3,"rank":57,"persistent":false},"geometry":{"type":"Polygon","coordinates":[[[-122.939662,46.14356],[-122.939662,46.14365],[-122.939458,46.143653],[-122.939409,46.143684],[-122.939403,46.14374],[-122.939274,46.14374],[-122.939274,46.14365],[-122.93938,46.143634],[-122.939403,46.14356],[-122.939662,46.14356]]]}},{"type":"Feature","properties":{"id":17,"area_m2":300,"px":3,"rank":58,"persistent":false},"geometry":{"type":"Polygon","coordinates":[[[-122.942124,46.142122],[-122.942123,46.142392],[-122.941994,46.142391],[-122.941994,46.142122],[-122.942124,46.142122]]]}},{"type":"Feature","properties":{"id":26,"area_m2":300,"px":3,"rank":59,"persistent":false},"geometry":{"type":"Polygon","coordinates":[[[-122.929566,46.140675],[-122.929566,46.140764],[-122.929437,46.140764],[-122.929414,46.14069],[-122.929308,46.140674],[-122.929273,46.140593],[-122.929178,46.140584],[-122.929178,46.140494],[-122.929308,46.140494],[-122.92933,46.140569],[-122.929437,46.140584],[-122.929471,46.140665],[-122.929566,46.140675]]]}},{"type":"Feature","properties":{"id":38,"area_m2":300,"px":3,"rank":60,"persistent":false},"geometry":{"type":"Polygon","coordinates":[[[-122.936173,46.137888],[-122.936173,46.137978],[-122.935784,46.137978],[-122.935784,46.137888],[-122.936173,46.137888]]]}},{"type":"Feature","properties":{"id":39,"area_m2":300,"px":3,"rank":61,"persistent":false},"geometry":{"type":"Polygon","coordinates":[[[-122.93203,46.137796],[-122.93203,46.137976],[-122.9319,46.137976],[-122.931878,46.137902],[-122.931771,46.137886],[-122.931771,46.137796],[-122.93203,46.137796]]]}},{"type":"Feature","properties":{"id":40,"area_m2":300,"px":3,"rank":62,"persistent":false},"geometry":{"type":"Polygon","coordinates":[[[-122.931642,46.137706],[-122.931641,46.137796],[-122.931512,46.137796],[-122.931509,46.137744],[-122.931471,46.137712],[-122.931253,46.137705],[-122.931253,46.137616],[-122.931512,46.137616],[-122.931535,46.13769],[-122.931642,46.137706]]]}},{"type":"Feature","properties":{"id":43,"area_m2":300,"px":3,"rank":63,"persistent":false},"geometry":{"type":"Polygon","coordinates":[[[-122.939151,46.13753],[-122.939151,46.13762],[-122.938892,46.13762],[-122.938892,46.13744],[-122.939021,46.13744],[-122.939044,46.137514],[-122.939151,46.13753]]]}},{"type":"Feature","properties":{"id":48,"area_m2":300,"px":3,"rank":64,"persistent":false},"geometry":{"type":"Polygon","coordinates":[[[-122.941741,46.136721],[-122.941741,46.136811],[-122.941634,46.136827],[-122.941611,46.136901],[-122.941482,46.136901],[-122.941482,46.136721],[-122.941741,46.136721]]]}},{"type":"Feature","properties":{"id":50,"area_m2":300,"px":3,"rank":65,"persistent":false},"geometry":{"type":"Polygon","coordinates":[[[-122.928925,46.136174],[-122.928925,46.136264],[-122.928536,46.136264],[-122.928537,46.136174],[-122.928925,46.136174]]]}},{"type":"Feature","properties":{"id":51,"area_m2":300,"px":3,"rank":66,"persistent":false},"geometry":{"type":"Polygon","coordinates":[[[-122.943813,46.136002],[-122.943813,46.136182],[-122.943554,46.136182],[-122.943554,46.136092],[-122.943661,46.136076],[-122.943684,46.136002],[-122.943813,46.136002]]]}},{"type":"Feature","properties":{"id":53,"area_m2":300,"px":3,"rank":67,"persistent":false},"geometry":{"type":"Polygon","coordinates":[[[-122.944073,46.135553],[-122.944072,46.135822],[-122.943943,46.135822],[-122.943943,46.135552],[-122.944073,46.135553]]]}},{"type":"Feature","properties":{"id":56,"area_m2":300,"px":3,"rank":68,"persistent":false},"geometry":{"type":"Polygon","coordinates":[[[-122.941484,46.135101],[-122.941484,46.135191],[-122.941402,46.135195],[-122.941358,46.135229],[-122.941354,46.135371],[-122.941225,46.135371],[-122.941225,46.135191],[-122.941332,46.135175],[-122.941354,46.135101],[-122.941484,46.135101]]]}},{"type":"Feature","properties":{"id":61,"area_m2":300,"px":3,"rank":69,"persistent":false},"geometry":{"type":"Polygon","coordinates":[[[-122.932034,46.134286],[-122.932034,46.134466],[-122.931775,46.134466],[-122.931775,46.134376],[-122.931882,46.13436],[-122.931905,46.134286],[-122.932034,46.134286]]]}},{"type":"Feature","properties":{"id":63,"area_m2":300,"px":3,"rank":70,"persistent":false},"geometry":{"type":"Polygon","coordinates":[[[-122.933588,46.134107],[-122.933588,46.134197],[-122.933481,46.134213],[-122.933458,46.134287],[-122.933329,46.134287],[-122.933329,46.134107],[-122.933588,46.134107]]]}},{"type":"Feature","properties":{"id":64,"area_m2":300,"px":3,"rank":71,"persistent":false},"geometry":{"type":"Polygon","coordinates":[[[-122.944333,46.133843],[-122.944333,46.134113],[-122.944204,46.134112],[-122.944204,46.133843],[-122.944333,46.133843]]]}},{"type":"Feature","properties":{"id":67,"area_m2":300,"px":3,"rank":72,"persistent":false},"geometry":{"type":"Polygon","coordinates":[[[-122.94524,46.133303],[-122.94524,46.133393],[-122.944852,46.133393],[-122.944852,46.133303],[-122.94524,46.133303]]]}},{"type":"Feature","properties":{"id":68,"area_m2":300,"px":3,"rank":73,"persistent":false},"geometry":{"type":"Polygon","coordinates":[[[-122.943816,46.132852],[-122.943816,46.132942],[-122.94371,46.132958],[-122.943687,46.133032],[-122.943557,46.133032],[-122.943558,46.132852],[-122.943816,46.132852]]]}},{"type":"Feature","properties":{"id":71,"area_m2":300,"px":3,"rank":74,"persistent":false},"geometry":{"type":"Polygon","coordinates":[[[-122.941357,46.132581],[-122.941357,46.132671],[-122.940969,46.132671],[-122.940969,46.132581],[-122.941357,46.132581]]]}}]}