{"type":"FeatureCollection","features":[{"type":"Feature","properties":{"id":14,"area_m2":7300,"px":73,"rank":1,"persistent":true},"geometry":{"type":"Polygon","coordinates":[[[-122.932543,46.141576],[-122.932543,46.141666],[-122.932414,46.141666],[-122.932391,46.141592],[-122.932284,46.141576],[-122.932275,46.141425],[-122.932229,46.141398],[-122.932155,46.141396],[-122.932121,46.141315],[-122.931692,46.141308],[-122.931639,46.141349],[-122.931637,46.141486],[-122.931304,46.141488],[-122.931254,46.141519],[-122.931248,46.141575],[-122.931137,46.141595],[-122.931119,46.141755],[-122.930778,46.141759],[-122.930736,46.141789],[-122.93073,46.141845],[-122.930519,46.141849],[-122.930477,46.141878],[-122.930471,46.141935],[-122.930359,46.141955],[-122.930351,46.142086],[-122.930397,46.142113],[-122.930471,46.142115],[-122.930471,46.142384],[-122.930364,46.142401],[-122.930341,46.142475],[-122.930082,46.142475],[-122.930081,46.142338],[-122.930027,46.142297],[-122.929564,46.142294],[-122.929565,46.142205],[-122.929671,46.142189],[-122.929694,46.142115],[-122.929885,46.142128],[-122.929944,46.1421],[-122.92995,46.141973],[-122.929905,46.141939],[-122.929824,46.141935],[-122.929824,46.141846],[-122.929931,46.141829],[-122.929954,46.141755],[-122.930083,46.141755],[-122.930152,46.141779],[-122.930212,46.141755],[-122.930411,46.141768],[-122.930463,46.14174],[-122.930462,46.141604],[-122.930416,46.141577],[-122.930342,46.141575],[-122.930342,46.141485],[-122.930377,46.141443],[-122.930342,46.141395],[-122.930343,46.141305],[-122.930601,46.141305],[-122.930602,46.141436],[-122.93063,46.141473],[-122.93086,46.141485],[-122.930895,46.141566],[-122.931049,46.141575],[-122.931116,46.141537],[-122.931119,46.141396],[-122.931201,46.141391],[-122.931243,46.141362],[-122.931249,46.141216],[-122.931467,46.141209],[-122.931505,46.141177],[-122.931508,46.141126],[-122.932155,46.141126],[-122.932178,46.1412],[-122.932285,46.141216],[-122.932319,46.141297],[-122.932414,46.141306],[-122.932417,46.141538],[-122.932462,46.141572],[-122.932543,46.141576]]]}},{"type":"Feature","properties":{"id":19,"area_m2":2500,"px":25,"rank":2,"persistent":false},"geometry":{"type":"Polygon","coordinates":[[[-122.939147,46.1414],[-122.939146,46.14176],[-122.939039,46.141776],[-122.939017,46.14185],[-122.938922,46.141852],[-122.938879,46.141875],[-122.938887,46.14203],[-122.938758,46.14203],[-122.938748,46.141968],[-122.938695,46.141941],[-122.938369,46.14194],[-122.938366,46.141708],[-122.938322,46.141674],[-122.93824,46.141668],[-122.93824,46.14158],[-122.938329,46.141573],[-122.938368,46.141536],[-122.93837,46.14122],[-122.938499,46.14122],[-122.938512,46.141286],[-122.938629,46.14131],[-122.938634,46.14138],[-122.938682,46.141411],[-122.939147,46.1414]],[[-122.938882,46.14183],[-122.938921,46.141707],[-122.938846,46.141586],[-122.938549,46.14158],[-122.938487,46.141609],[-122.9385,46.141806],[-122.93854,46.141843],[-122.938834,46.141861],[-122.938882,46.14183]]]}},{"type":"Feature","properties":{"id":65,"area_m2":2300,"px":23,"rank":3,"persistent":false},"geometry":{"type":"Polygon","coordinates":[[[-122.935787,46.135278],[-122.935787,46.135368],[-122.93566,46.135368],[-122.935655,46.135316],[-122.935617,46.135284],[-122.935399,46.135278],[-122.935376,46.135204],[-122.93527,46.135188],[-122.935237,46.135094],[-122.935011,46.135098],[-122.93501,46.134961],[-122.934949,46.134919],[-122.934671,46.134922],[-122.934629,46.134951],[-122.934622,46.135007],[-122.934506,46.135031],[-122.934493,46.135097],[-122.934364,46.135097],[-122.934364,46.135007],[-122.934452,46.135001],[-122.934492,46.134964],[-122.934494,46.134647],[-122.9346,46.134632],[-122.934656,46.134526],[-122.934623,46.134467],[-122.934623,46.134377],[-122.934753,46.134378],[-122.934775,46.134452],[-122.934882,46.134468],[-122.934882,46.134558],[-122.9348,46.134562],[-122.934756,46.134596],[-122.934774,46.134735],[-122.934827,46.134751],[-122.935011,46.134738],[-122.935013,46.134874],[-122.935074,46.134917],[-122.935222,46.134914],[-122.935264,46.134884],[-122.93527,46.134828],[-122.935399,46.134828],[-122.935412,46.135164],[-122.935469,46.135188],[-122.935658,46.135188],[-122.935681,46.135262],[-122.935787,46.135278]]]}},{"type":"Feature","properties":{"id":33,"area_m2":2000,"px":20,"rank":4,"persistent":false},"geometry":{"type":"Polygon","coordinates":[[[-122.932417,46.138516],[-122.932417,46.138696],[-122.932329,46.138703],[-122.932288,46.138745],[-122.932287,46.139146],[-122.932213,46.139148],[-122.932167,46.139175],[-122.932157,46.139326],[-122.932028,46.139326],[-122.932022,46.139089],[-122.931966,46.139057],[-122.93177,46.139056],[-122.931789,46.138741],[-122.931742,46.1387],[-122.93164,46.138696],[-122.931641,46.138606],[-122.932225,46.138605],[-122.932279,46.138578],[-122.932288,46.138516],[-122.932417,46.138516]],[[-122.931957,46.138696],[-122.93188,46.138741],[-122.931905,46.138933],[-122.931962,46.138965],[-122.93211,46.138962],[-122.932158,46.138917],[-122.932152,46.138729],[-122.932096,46.138697],[-122.931957,46.138696]]]}},{"type":"Feature","properties":{"id":53,"area_m2":2000,"px":20,"rank":5,"persistent":false},"geometry":{"type":"Polygon","coordinates":[[[-122.937468,46.136899],[-122.937468,46.136989],[-122.937251,46.136995],[-122.937213,46.137027],[-122.937209,46.137079],[-122.936951,46.137079],[-122.936951,46.136899],[-122.936985,46.136846],[-122.936938,46.136743],[-122.936873,46.136719],[-122.93672,46.136731],[-122.936692,46.136809],[-122.936575,46.136833],[-122.936562,46.136899],[-122.936174,46.136898],[-122.936174,46.136808],[-122.936283,46.136802],[-122.936323,46.136753],[-122.936286,46.136648],[-122.936174,46.136628],[-122.936174,46.136538],[-122.936304,46.136538],[-122.936317,46.136604],[-122.936381,46.136628],[-122.936637,46.136626],[-122.936686,46.136595],[-122.936692,46.136539],[-122.936822,46.136539],[-122.936839,46.136609],[-122.936951,46.136629],[-122.936985,46.13671],[-122.93708,46.136719],[-122.937109,46.136797],[-122.937339,46.136809],[-122.937362,46.136883],[-122.937468,46.136899]]]}},{"type":"Feature","properties":{"id":78,"area_m2":2000,"px":20,"rank":6,"persistent":false},"geometry":{"type":"Polygon","coordinates":[[[-122.939156,46.13258],[-122.939156,46.13276],[-122.939061,46.132769],[-122.939027,46.13285],[-122.93891,46.132874],[-122.938897,46.13303],[-122.938815,46.133034],[-122.938771,46.133068],[-122.938767,46.13321],[-122.938638,46.13321],[-122.938658,46.13299],[-122.938624,46.132949],[-122.93825,46.132939],[-122.93825,46.132849],[-122.938568,46.132849],[-122.938632,46.132816],[-122.938646,46.132695],[-122.938604,46.132672],[-122.938509,46.13267],[-122.938509,46.13249],[-122.939027,46.13249],[-122.93905,46.132564],[-122.939156,46.13258]]]}},{"type":"Feature","properties":{"id":31,"area_m2":1900,"px":19,"rank":7,"persistent":false},"geometry":{"type":"Polygon","coordinates":[[[-122.937077,46.139329],[-122.937077,46.139509],[-122.937003,46.139511],[-122.936957,46.139537],[-122.936947,46.139689],[-122.936689,46.139689],[-122.936689,46.139599],[-122.93677,46.139595],[-122.936815,46.13956],[-122.936817,46.139462],[-122.936784,46.139428],[-122.936559,46.139419],[-122.936498,46.139394],[-122.93643,46.139418],[-122.936301,46.139418],[-122.936301,46.138969],[-122.936375,46.138966],[-122.936421,46.13894],[-122.936431,46.138789],[-122.93656,46.13879],[-122.93656,46.138969],[-122.936472,46.138975],[-122.936432,46.139012],[-122.936447,46.139142],[-122.936505,46.139162],[-122.936689,46.139149],[-122.936691,46.139285],[-122.936737,46.139325],[-122.937077,46.139329]]]}},{"type":"Feature","properties":{"id":21,"area_m2":1600,"px":16,"rank":8,"persistent":false},"geometry":{"type":"Polygon","coordinates":[[[-122.935781,46.140768],[-122.935781,46.140858],[-122.935692,46.140865],[-122.935653,46.140902],[-122.935651,46.141218],[-122.935563,46.141224],[-122.935523,46.141262],[-122.935521,46.141668],[-122.935392,46.141668],[-122.935392,46.140997],[-122.935351,46.140954],[-122.935263,46.140948],[-122.935263,46.140858],[-122.935481,46.140852],[-122.935519,46.14082],[-122.935522,46.140768],[-122.935781,46.140768]]]}},{"type":"Feature","properties":{"id":41,"area_m2":1500,"px":15,"rank":9,"persistent":false},"geometry":{"type":"Polygon","coordinates":[[[-122.937209,46.137799],[-122.937208,46.137889],[-122.937081,46.137889],[-122.937073,46.137832],[-122.937024,46.137801],[-122.936889,46.137775],[-122.93682,46.137799],[-122.936691,46.137799],[-122.936691,46.137709],[-122.936772,46.137705],[-122.936814,46.137675],[-122.936815,46.137562],[-122.93675,46.137529],[-122.936432,46.137528],[-122.936432,46.137349],[-122.936562,46.137349],[-122.936623,46.137373],[-122.936691,46.137349],[-122.936821,46.137349],[-122.936882,46.137373],[-122.93695,46.137349],[-122.93708,46.137349],[-122.937081,46.137755],[-122.93712,46.137793],[-122.937209,46.137799]]]}},{"type":"Feature","properties":{"id":3,"area_m2":1400,"px":14,"rank":10,"persistent":false},"geometry":{"type":"Polygon","coordinates":[[[-122.937072,46.143739],[-122.937072,46.143919],[-122.936813,46.143919],[-122.936804,46.143857],[-122.936751,46.14383],[-122.936554,46.143829],[-122.936493,46.143805],[-122.936425,46.143829],[-122.936295,46.143828],[-122.936296,46.143649],[-122.936402,46.143633],[-122.936425,46.143559],[-122.936542,46.143535],[-122.936555,46.143469],[-122.936943,46.143469],[-122.936943,46.143559],[-122.936848,46.143561],[-122.936799,46.143593],[-122.936817,46.1437],[-122.936876,46.143738],[-122.937072,46.143739]]]}},{"type":"Feature","properties":{"id":84,"area_m2":1400,"px":14,"rank":11,"persistent":false},"geometry":{"type":"Polygon","coordinates":[[[-122.932943,46.131856],[-122.932943,46.132126],[-122.932725,46.132133],[-122.932687,46.132165],[-122.932684,46.132216],[-122.932568,46.13224],[-122.932554,46.132306],[-122.932425,46.132306],[-122.932442,46.132076],[-122.932398,46.13204],[-122.932296,46.132036],[-122.932296,46.131946],[-122.932514,46.13194],[-122.932552,46.131908],[-122.932555,46.131856],[-122.932943,46.131856]]]}},{"type":"Feature","properties":{"id":6,"area_m2":1300,"px":13,"rank":12,"persistent":false},"geometry":{"type":"Polygon","coordinates":[[[-122.928786,46.143374],[-122.928786,46.143464],[-122.928679,46.14348],[-122.928656,46.143554],[-122.928529,46.143554],[-122.928527,46.143333],[-122.928486,46.14329],[-122.928309,46.14329],[-122.928272,46.143322],[-122.928268,46.143374],[-122.928009,46.143374],[-122.928009,46.143284],[-122.928116,46.143268],[-122.928171,46.143162],[-122.928139,46.143104],[-122.928139,46.143014],[-122.928398,46.143014],[-122.928421,46.143088],[-122.928527,46.143104],[-122.928545,46.143264],[-122.928657,46.143284],[-122.928691,46.143365],[-122.928786,46.143374]]]}},{"type":"Feature","properties":{"id":26,"area_m2":1300,"px":13,"rank":13,"persistent":false},"geometry":{"type":"Polygon","coordinates":[[[-122.933969,46.140407],[-122.933969,46.140497],[-122.933758,46.140501],[-122.933716,46.14053],[-122.93371,46.140587],[-122.933615,46.140589],[-122.933572,46.140612],[-122.93358,46.140857],[-122.93345,46.140857],[-122.933433,46.140787],[-122.933321,46.140767],[-122.933312,46.140705],[-122.933259,46.140678],[-122.93311,46.140681],[-122.933068,46.14071],[-122.933062,46.140767],[-122.932933,46.140766],[-122.932933,46.140677],[-122.933039,46.140661],[-122.933062,46.140587],[-122.933179,46.140563],[-122.933192,46.140497],[-122.933647,46.140496],[-122.933701,46.140468],[-122.93371,46.140407],[-122.933969,46.140407]]]}},{"type":"Feature","properties":{"id":34,"area_m2":1300,"px":13,"rank":14,"persistent":false},"geometry":{"type":"Polygon","coordinates":[[[-122.933065,46.138607],[-122.933064,46.138697],[-122.93297,46.138706],[-122.932935,46.138751],[-122.932948,46.138853],[-122.933064,46.138877],[-122.933064,46.139057],[-122.932846,46.139063],[-122.932808,46.139095],[-122.932805,46.139146],[-122.932689,46.13917],[-122.932675,46.139236],[-122.932546,46.139236],[-122.932546,46.139146],[-122.932628,46.139142],[-122.932672,46.139108],[-122.932676,46.138786],[-122.93275,46.138784],[-122.932796,46.138758],[-122.932806,46.138607],[-122.933065,46.138607]]]}},{"type":"Feature","properties":{"id":71,"area_m2":1200,"px":12,"rank":15,"persistent":false},"geometry":{"type":"Polygon","coordinates":[[[-122.933458,46.134287],[-122.933458,46.134377],[-122.93337,46.134383],[-122.93333,46.13442],[-122.933328,46.134647],[-122.93294,46.134646],[-122.932927,46.13458],[-122.932862,46.134556],[-122.932716,46.134565],[-122.932681,46.134646],[-122.932552,46.134646],[-122.932552,46.134556],[-122.932647,46.134547],[-122.932681,46.134466],[-122.932756,46.134464],[-122.932802,46.134438],[-122.932811,46.134286],[-122.93294,46.134287],[-122.932942,46.134513],[-122.933018,46.134557],[-122.933144,46.134554],[-122.933193,46.134523],[-122.933199,46.134287],[-122.933458,46.134287]]]}},{"type":"Feature","properties":{"id":75,"area_m2":1200,"px":12,"rank":16,"persistent":false},"geometry":{"type":"Polygon","coordinates":[[[-122.933977,46.133207],[-122.933977,46.133387],[-122.933781,46.133388],[-122.933724,46.13342],[-122.933718,46.133657],[-122.933589,46.133657],[-122.933566,46.133583],[-122.933413,46.133544],[-122.93333,46.133567],[-122.9332,46.133567],[-122.9332,46.133477],[-122.933307,46.133461],[-122.93333,46.133387],[-122.933648,46.133387],[-122.933701,46.133367],[-122.933719,46.133117],[-122.933848,46.133117],[-122.933871,46.133191],[-122.933977,46.133207]]]}},{"type":"Feature","properties":{"id":18,"area_m2":1100,"px":11,"rank":17,"persistent":false},"geometry":{"type":"Polygon","coordinates":[[[-122.933579,46.141757],[-122.933579,46.141847],[-122.933497,46.141851],[-122.933452,46.141885],[-122.933449,46.142027],[-122.933245,46.142029],[-122.933196,46.14206],[-122.93319,46.142117],[-122.933061,46.142117],[-122.933061,46.141847],[-122.933167,46.141831],[-122.93319,46.141757],[-122.933307,46.141733],[-122.93332,46.141667],[-122.933449,46.141667],[-122.933472,46.141741],[-122.933579,46.141757]]]}},{"type":"Feature","properties":{"id":27,"area_m2":1100,"px":11,"rank":18,"persistent":false},"geometry":{"type":"Polygon","coordinates":[[[-122.937076,46.140139],[-122.937076,46.140229],[-122.936852,46.140238],[-122.936817,46.140319],[-122.936701,46.140343],[-122.936688,46.140409],[-122.936558,46.140409],[-122.93649,46.140384],[-122.936354,46.140411],[-122.936305,46.140442],[-122.936297,46.140498],[-122.93617,46.140498],[-122.936147,46.140424],[-122.93604,46.140408],[-122.936041,46.140318],[-122.936254,46.140341],[-122.936406,46.140303],[-122.936429,46.140229],[-122.936653,46.14022],[-122.936688,46.140139],[-122.936804,46.140115],[-122.936818,46.140049],[-122.936947,46.140049],[-122.93697,46.140123],[-122.937076,46.140139]]]}},{"type":"Feature","properties":{"id":66,"area_m2":1100,"px":11,"rank":19,"persistent":true},"geometry":{"type":"Polygon","coordinates":[[[-122.938118,46.134649],[-122.938118,46.134919],[-122.93803,46.134926],[-122.937989,46.134968],[-122.937988,46.135279],[-122.937729,46.135279],[-122.93773,46.135099],[-122.937804,46.135097],[-122.93785,46.135071],[-122.937879,46.134885],[-122.937839,46.134836],[-122.93773,46.134829],[-122.93773,46.134739],[-122.937934,46.134737],[-122.937983,46.134706],[-122.937989,46.134649],[-122.938118,46.134649]]]}},{"type":"Feature","properties":{"id":23,"area_m2":1000,"px":10,"rank":20,"persistent":false},"geometry":{"type":"Polygon","coordinates":[[[-122.937205,46.141039],[-122.937205,46.141129],[-122.937098,46.141145],[-122.937075,46.141219],[-122.936946,46.141219],[-122.936923,46.141145],[-122.936816,46.141129],[-122.936817,46.141039],[-122.936851,46.140991],[-122.936813,46.140897],[-122.936769,46.140863],[-122.936687,46.140859],[-122.936684,46.140717],[-122.936639,46.140683],[-122.936558,46.140679],[-122.936558,46.140589],[-122.936687,46.140589],[-122.936701,46.140655],[-122.936817,46.140679],[-122.93682,46.140744],[-122.936863,46.140778],[-122.937076,46.140769],[-122.937076,46.140859],[-122.937041,46.140907],[-122.937079,46.141001],[-122.937123,46.141035],[-122.937205,46.141039]]]}},{"type":"Feature","properties":{"id":35,"area_m2":1000,"px":10,"rank":21,"persistent":false},"geometry":{"type":"Polygon","coordinates":[[[-122.933971,46.138337],[-122.933971,46.138517],[-122.93389,46.138521],[-122.933847,46.13855],[-122.933841,46.138787],[-122.933767,46.138789],[-122.933721,46.138816],[-122.933711,46.138967],[-122.933453,46.138967],[-122.933453,46.138877],[-122.933534,46.138873],[-122.933579,46.138839],[-122.933617,46.138744],[-122.933583,46.138697],[-122.933583,46.138607],[-122.933657,46.138605],[-122.933703,46.138578],[-122.933712,46.138427],[-122.933819,46.138411],[-122.933842,46.138337],[-122.933971,46.138337]]]}},{"type":"Feature","properties":{"id":57,"area_m2":1000,"px":10,"rank":22,"persistent":false},"geometry":{"type":"Polygon","coordinates":[[[-122.933456,46.135997],[-122.933456,46.136177],[-122.93326,46.136178],[-122.933199,46.13622],[-122.933203,46.136323],[-122.933245,46.136353],[-122.933326,46.136357],[-122.933326,46.136447],[-122.933067,46.136447],[-122.933068,46.136177],[-122.933102,46.136134],[-122.933068,46.136087],[-122.933068,46.135997],[-122.933175,46.135981],[-122.933199,46.135907],[-122.933327,46.135907],[-122.93335,46.135981],[-122.933456,46.135997]]]}},{"type":"Feature","properties":{"id":46,"area_m2":900,"px":9,"rank":23,"persistent":false},"geometry":{"type":"Polygon","coordinates":[[[-122.934102,46.137437],[-122.934102,46.137527],[-122.933995,46.137543],[-122.933972,46.137617],[-122.933843,46.137617],[-122.93383,46.137551],[-122.933765,46.137527],[-122.933618,46.137536],[-122.933584,46.137617],[-122.933454,46.137617],[-122.933455,46.137257],[-122.933561,46.137241],[-122.933584,46.137167],[-122.933714,46.137167],[-122.933714,46.137257],[-122.933632,46.137261],[-122.933587,46.137295],[-122.933607,46.137421],[-122.933843,46.137437],[-122.933904,46.137461],[-122.933972,46.137437],[-122.934102,46.137437]]]}},{"type":"Feature","properties":{"id":73,"area_m2":800,"px":8,"rank":24,"persistent":false},"geometry":{"type":"Polygon","coordinates":[[[-122.933588,46.134017],[-122.933588,46.134107],[-122.933133,46.134108],[-122.933079,46.134135],[-122.93307,46.134196],[-122.932941,46.134196],[-122.932918,46.134122],[-122.932811,46.134106],[-122.932811,46.134016],[-122.932918,46.134001],[-122.932941,46.133927],[-122.93307,46.133927],[-122.933079,46.133988],[-122.933133,46.134016],[-122.933588,46.134017]]]}},{"type":"Feature","properties":{"id":10,"area_m2":700,"px":7,"rank":25,"persistent":false},"geometry":{"type":"Polygon","coordinates":[[[-122.940958,46.142841],[-122.940958,46.142931],[-122.940474,46.14294],[-122.94044,46.142979],[-122.940439,46.143111],[-122.94031,46.143111],[-122.94031,46.142841],[-122.940958,46.142841]]]}},{"type":"Feature","properties":{"id":69,"area_m2":700,"px":7,"rank":26,"persistent":false},"geometry":{"type":"Polygon","coordinates":[[[-122.935659,46.134648],[-122.935658,46.134738],[-122.935529,46.134738],[-122.935516,46.134672],[-122.935452,46.134648],[-122.935305,46.134657],[-122.93527,46.134738],[-122.935141,46.134738],[-122.935138,46.134596],[-122.935093,46.134562],[-122.935012,46.134558],[-122.935012,46.134468],[-122.93527,46.134468],[-122.935305,46.134549],[-122.935529,46.134558],[-122.935552,46.134632],[-122.935659,46.134648]]]}},{"type":"Feature","properties":{"id":76,"area_m2":700,"px":7,"rank":27,"persistent":false},"geometry":{"type":"Polygon","coordinates":[[[-122.936049,46.133118],[-122.936049,46.133208],[-122.93596,46.133215],[-122.935921,46.133252],[-122.935919,46.133568],[-122.935789,46.133568],[-122.935767,46.133494],[-122.93566,46.133478],[-122.93566,46.133298],[-122.935767,46.133282],[-122.93579,46.133208],[-122.935906,46.133184],[-122.935919,46.133118],[-122.936049,46.133118]]]}},{"type":"Feature","properties":{"id":86,"area_m2":700,"px":7,"rank":28,"persistent":false},"geometry":{"type":"Polygon","coordinates":[[[-122.939157,46.13186],[-122.939157,46.13204],[-122.938769,46.13204],[-122.938769,46.13186],[-122.938875,46.131844],[-122.938898,46.13177],[-122.939028,46.13177],[-122.93905,46.131844],[-122.939157,46.13186]]]}},{"type":"Feature","properties":{"id":5,"area_m2":600,"px":6,"rank":29,"persistent":false},"geometry":{"type":"Polygon","coordinates":[[[-122.938497,46.14329],[-122.938497,46.14347],[-122.93839,46.143485],[-122.938367,46.14356],[-122.938108,46.143559],[-122.938109,46.14347],[-122.938305,46.143469],[-122.938366,46.143426],[-122.938355,46.143314],[-122.938238,46.14329],[-122.938238,46.14311],[-122.938368,46.14311],[-122.938377,46.143261],[-122.938423,46.143287],[-122.938497,46.14329]]]}},{"type":"Feature","properties":{"id":16,"area_m2":600,"px":6,"rank":30,"persistent":false},"geometry":{"type":"Polygon","coordinates":[[[-122.928917,46.142114],[-122.928917,46.142204],[-122.928788,46.142204],[-122.928719,46.14218],[-122.928531,46.14222],[-122.928509,46.14226],[-122.928528,46.142384],[-122.928399,46.142384],[-122.928376,46.14231],[-122.92827,46.142294],[-122.92827,46.142204],[-122.928376,46.142188],[-122.928399,46.142114],[-122.928617,46.142108],[-122.928655,46.142076],[-122.928658,46.142024],[-122.928788,46.142024],[-122.92881,46.142098],[-122.928917,46.142114]]]}},{"type":"Feature","properties":{"id":45,"area_m2":600,"px":6,"rank":31,"persistent":false},"geometry":{"type":"Polygon","coordinates":[[[-122.936173,46.137528],[-122.936173,46.137708],[-122.936044,46.137708],[-122.93604,46.137657],[-122.936003,46.137625],[-122.935785,46.137618],[-122.935762,46.137544],[-122.935655,46.137528],[-122.935656,46.137438],[-122.935785,46.137438],[-122.935846,46.137462],[-122.935914,46.137438],[-122.936044,46.137438],[-122.936066,46.137512],[-122.936173,46.137528]]]}},{"type":"Feature","properties":{"id":44,"area_m2":600,"px":6,"rank":32,"persistent":false},"geometry":{"type":"Polygon","coordinates":[[[-122.937727,46.137619],[-122.937726,46.137709],[-122.937468,46.137709],[-122.937459,46.137558],[-122.937413,46.137531],[-122.937338,46.137528],[-122.937339,46.137439],[-122.937445,46.137423],[-122.937468,46.137349],[-122.937597,46.137349],[-122.937601,46.137581],[-122.937645,46.137615],[-122.937727,46.137619]]]}},{"type":"Feature","properties":{"id":48,"area_m2":600,"px":6,"rank":33,"persistent":false},"geometry":{"type":"Polygon","coordinates":[[[-122.939928,46.13708],[-122.939928,46.13735],[-122.93954,46.13735],[-122.93954,46.13717],[-122.939745,46.137181],[-122.939793,46.13715],[-122.939799,46.13708],[-122.939928,46.13708]]]}},{"type":"Feature","properties":{"id":55,"area_m2":600,"px":6,"rank":34,"persistent":false},"geometry":{"type":"Polygon","coordinates":[[[-122.935268,46.136718],[-122.935268,46.136808],[-122.935161,46.136824],[-122.935138,46.136898],[-122.935009,46.136898],[-122.935006,46.136832],[-122.934963,46.136798],[-122.93475,46.136807],[-122.93475,46.136628],[-122.935138,46.136628],[-122.935161,46.136702],[-122.935268,46.136718]]]}},{"type":"Feature","properties":{"id":56,"area_m2":600,"px":6,"rank":35,"persistent":false},"geometry":{"type":"Polygon","coordinates":[[[-122.936045,46.136448],[-122.936045,46.136628],[-122.935915,46.136628],[-122.935854,46.136604],[-122.935786,46.136628],[-122.935656,46.136628],[-122.935653,46.136576],[-122.935615,46.136544],[-122.935398,46.136538],[-122.935398,46.136448],[-122.935657,46.136448],[-122.935718,46.136472],[-122.935786,46.136448],[-122.936045,46.136448]]]}},{"type":"Feature","properties":{"id":1,"area_m2":500,"px":5,"rank":36,"persistent":false},"geometry":{"type":"Polygon","coordinates":[[[-122.937587,46.144101],[-122.937555,46.144147],[-122.93759,46.144189],[-122.937589,46.144369],[-122.93746,46.144369],[-122.937447,46.144213],[-122.93739,46.144189],[-122.937201,46.144189],[-122.937202,46.144099],[-122.937405,46.144097],[-122.937455,46.144066],[-122.937461,46.144009],[-122.937588,46.144009],[-122.937587,46.144101]]]}},{"type":"Feature","properties":{"id":25,"area_m2":500,"px":5,"rank":37,"persistent":false},"geometry":{"type":"Polygon","coordinates":[[[-122.937852,46.140859],[-122.937852,46.140949],[-122.937464,46.140949],[-122.937464,46.140769],[-122.937723,46.140769],[-122.937746,46.140843],[-122.937852,46.140859]]]}},{"type":"Feature","properties":{"id":30,"area_m2":500,"px":5,"rank":38,"persistent":false},"geometry":{"type":"Polygon","coordinates":[[[-122.936559,46.139689],[-122.936559,46.139869],[-122.936429,46.139868],[-122.936426,46.139817],[-122.936388,46.139785],[-122.936171,46.139778],[-122.936171,46.139598],[-122.9363,46.139599],[-122.936306,46.139655],[-122.936355,46.139686],[-122.936559,46.139689]]]}},{"type":"Feature","properties":{"id":38,"area_m2":500,"px":5,"rank":39,"persistent":false},"geometry":{"type":"Polygon","coordinates":[[[-122.932677,46.138156],[-122.932677,46.138246],[-122.932595,46.13825],[-122.932551,46.138285],[-122.932547,46.138426],[-122.932418,46.138426],[-122.932418,46.138066],[-122.932547,46.138066],[-122.93257,46.13814],[-122.932677,46.138156]]]}},{"type":"Feature","properties":{"id":49,"area_m2":500,"px":5,"rank":40,"persistent":false},"geometry":{"type":"Polygon","coordinates":[[[-122.932678,46.136896],[-122.932678,46.136986],[-122.932583,46.136995],[-122.932549,46.137076],[-122.932467,46.13708],[-122.932425,46.13711],[-122.932425,46.137223],[-122.932467,46.137252],[-122.932548,46.137256],[-122.932548,46.137345],[-122.932419,46.137346],[-122.932396,46.137272],[-122.93229,46.137256],[-122.93229,46.137076],[-122.932396,46.13706],[-122.932419,46.136986],[-122.932536,46.136962],[-122.932549,46.136896],[-122.932678,46.136896]]]}},{"type":"Feature","properties":{"id":52,"area_m2":500,"px":5,"rank":41,"persistent":false},"geometry":{"type":"Polygon","coordinates":[[[-122.93954,46.13672],[-122.93954,46.13699],[-122.939466,46.136992],[-122.93942,46.137019],[-122.93941,46.13717],[-122.939281,46.13717],[-122.939281,46.13699],[-122.939369,46.136984],[-122.939409,46.136947],[-122.939411,46.13672],[-122.93954,46.13672]]]}},{"type":"Feature","properties":{"id":54,"area_m2":500,"px":5,"rank":42,"persistent":false},"geometry":{"type":"Polygon","coordinates":[[[-122.936044,46.136808],[-122.936044,46.136898],[-122.935938,46.136914],[-122.935915,46.136988],[-122.935785,46.136988],[-122.935763,46.136914],[-122.935656,46.136898],[-122.935656,46.136718],[-122.935786,46.136718],[-122.935792,46.136775],[-122.935841,46.136806],[-122.936044,46.136808]]]}},{"type":"Feature","properties":{"id":4,"area_m2":400,"px":4,"rank":43,"persistent":false},"geometry":{"type":"Polygon","coordinates":[[[-122.929045,46.143644],[-122.929044,46.143734],[-122.928841,46.143736],[-122.928791,46.143767],[-122.928785,46.143824],[-122.928656,46.143824],[-122.928656,46.143734],[-122.928738,46.14373],[-122.928782,46.143696],[-122.928786,46.143554],[-122.928915,46.143554],[-122.928938,46.143628],[-122.929045,46.143644]]]}},{"type":"Feature","properties":{"id":9,"area_m2":400,"px":4,"rank":44,"persistent":false},"geometry":{"type":"Polygon","coordinates":[[[-122.935649,46.143198],[-122.935649,46.143288],[-122.93539,46.143288],[-122.935386,46.143236],[-122.935349,46.143204],[-122.935131,46.143198],[-122.935131,46.143108],[-122.93539,46.143108],[-122.935393,46.14316],[-122.935431,46.143192],[-122.935649,46.143198]]]}},{"type":"Feature","properties":{"id":15,"area_m2":400,"px":4,"rank":45,"persistent":false},"geometry":{"type":"Polygon","coordinates":[[[-122.935132,46.142208],[-122.935132,46.142388],[-122.935002,46.142388],[-122.934989,46.142232],[-122.934932,46.142208],[-122.934744,46.142208],[-122.934744,46.142118],[-122.935002,46.142118],[-122.935025,46.142192],[-122.935132,46.142208]]]}},{"type":"Feature","properties":{"id":17,"area_m2":400,"px":4,"rank":46,"persistent":false},"geometry":{"type":"Polygon","coordinates":[[[-122.935391,46.141848],[-122.935391,46.141938],[-122.93531,46.141942],[-122.935265,46.141976],[-122.935261,46.142118],[-122.935132,46.142118],[-122.935132,46.141848],[-122.935391,46.141848]]]}},{"type":"Feature","properties":{"id":22,"area_m2":400,"px":4,"rank":47,"persistent":false},"geometry":{"type":"Polygon","coordinates":[[[-122.933838,46.141487],[-122.933838,46.141667],[-122.933579,46.141667],[-122.933579,46.141487],[-122.933838,46.141487]]]}},{"type":"Feature","properties":{"id":36,"area_m2":400,"px":4,"rank":48,"persistent":false},"geometry":{"type":"Polygon","coordinates":[[[-122.935266,46.138608],[-122.935265,46.138698],[-122.935184,46.138702],[-122.935139,46.138736],[-122.935136,46.138878],[-122.935006,46.138878],[-122.935007,46.138608],[-122.935266,46.138608]]]}},{"type":"Feature","properties":{"id":37,"area_m2":400,"px":4,"rank":49,"persistent":false},"geometry":{"type":"Polygon","coordinates":[[[-122.93669,46.138249],[-122.93669,46.138519],[-122.936583,46.138534],[-122.93656,46.138609],[-122.936431,46.138608],[-122.936431,46.138519],[-122.936519,46.138512],[-122.936559,46.138475],[-122.936561,46.138249],[-122.93669,46.138249]]]}},{"type":"Feature","properties":{"id":39,"area_m2":400,"px":4,"rank":50,"persistent":false},"geometry":{"type":"Polygon","coordinates":[[[-122.939539,46.13798],[-122.939538,46.13825],[-122.93928,46.13825],[-122.93928,46.13816],[-122.939361,46.138156],[-122.939406,46.138122],[-122.939409,46.13798],[-122.939539,46.13798]]]}},{"type":"Feature","properties":{"id":40,"area_m2":400,"px":4,"rank":51,"persistent":false},"geometry":{"type":"Polygon","coordinates":[[[-122.938762,46.13753],[-122.938762,46.13762],[-122.938674,46.137626],[-122.938634,46.137663],[-122.938633,46.13789],[-122.938503,46.13789],[-122.938504,46.13762],[-122.93861,46.137604],[-122.938633,46.13753],[-122.938762,46.13753]]]}},{"type":"Feature","properties":{"id":47,"area_m2":400,"px":4,"rank":52,"persistent":false},"geometry":{"type":"Polygon","coordinates":[[[-122.928794,46.137254],[-122.928794,46.137434],[-122.928687,46.13745],[-122.928664,46.137524],[-122.928535,46.137524],[-122.928535,46.137344],[-122.928642,46.137328],[-122.928665,46.137254],[-122.928794,46.137254]]]}},{"type":"Feature","properties":{"id":58,"area_m2":400,"px":4,"rank":53,"persistent":false},"geometry":{"type":"Polygon","coordinates":[[[-122.936175,46.136088],[-122.936175,46.136178],[-122.936093,46.136182],[-122.936049,46.136217],[-122.936045,46.136358],[-122.935786,46.136358],[-122.935786,46.136268],[-122.935893,46.136252],[-122.935916,46.136178],[-122.936032,46.136154],[-122.936045,46.136088],[-122.936175,46.136088]]]}},{"type":"Feature","properties":{"id":59,"area_m2":400,"px":4,"rank":54,"persistent":false},"geometry":{"type":"Polygon","coordinates":[[[-122.932938,46.136087],[-122.932938,46.136176],[-122.932831,46.136192],[-122.932808,46.136266],[-122.932605,46.136269],[-122.932556,46.1363],[-122.932549,46.136356],[-122.93242,46.136356],[-122.93242,46.136266],[-122.932527,46.13625],[-122.93255,46.136176],[-122.932754,46.136174],[-122.932803,46.136143],[-122.932809,46.136086],[-122.932938,46.136087]]]}},{"type":"Feature","properties":{"id":62,"area_m2":400,"px":4,"rank":55,"persistent":false},"geometry":{"type":"Polygon","coordinates":[[[-122.938117,46.135909],[-122.938117,46.135999],[-122.937858,46.135999],[-122.937797,46.135975],[-122.937728,46.135999],[-122.937599,46.135999],[-122.937599,46.135909],[-122.937706,46.135893],[-122.937729,46.135819],[-122.937858,46.135819],[-122.937864,46.135876],[-122.937913,46.135907],[-122.938117,46.135909]]]}},{"type":"Feature","properties":{"id":68,"area_m2":400,"px":4,"rank":56,"persistent":false},"geometry":{"type":"Polygon","coordinates":[[[-122.934234,46.134737],[-122.934234,46.134917],[-122.933975,46.134917],[-122.933976,46.134737],[-122.934234,46.134737]]]}},{"type":"Feature","properties":{"id":70,"area_m2":400,"px":4,"rank":57,"persistent":false},"geometry":{"type":"Polygon","coordinates":[[[-122.933976,46.134287],[-122.933976,46.134647],[-122.933846,46.134647],[-122.933847,46.134287],[-122.933976,46.134287]]]}},{"type":"Feature","properties":{"id":72,"area_m2":400,"px":4,"rank":58,"persistent":false},"geometry":{"type":"Polygon","coordinates":[[[-122.938248,46.13429],[-122.938248,46.134559],[-122.937989,46.134559],[-122.937989,46.134469],[-122.938071,46.134465],[-122.938115,46.134431],[-122.938119,46.134289],[-122.938248,46.13429]]]}},{"type":"Feature","properties":{"id":74,"area_m2":400,"px":4,"rank":59,"persistent":false},"geometry":{"type":"Polygon","coordinates":[[[-122.934753,46.133748],[-122.934753,46.134017],[-122.934624,46.134017],[-122.934601,46.133943],[-122.934494,46.133927],[-122.934495,46.133837],[-122.934601,46.133822],[-122.934624,46.133747],[-122.934753,46.133748]]]}},{"type":"Feature","properties":{"id":77,"area_m2":400,"px":4,"rank":60,"persistent":false},"geometry":{"type":"Polygon","coordinates":[[[-122.936566,46.133209],[-122.936566,46.133298],[-122.93646,46.133314],[-122.936437,46.133388],[-122.93632,46.133412],[-122.936307,46.133478],[-122.936048,46.133478],[-122.936049,46.133388],[-122.936266,46.133382],[-122.936304,46.13335],[-122.936308,46.133298],[-122.936424,46.133274],[-122.936437,46.133209],[-122.936566,46.133209]]]}},{"type":"Feature","properties":{"id":82,"area_m2":400,"px":4,"rank":61,"persistent":false},"geometry":{"type":"Polygon","coordinates":[[[-122.936826,46.132219],[-122.936826,46.132489],[-122.93672,46.132504],[-122.936697,46.132579],[-122.936567,46.132578],[-122.936567,46.132489],[-122.936656,46.132482],[-122.936695,46.132445],[-122.936697,46.132219],[-122.936826,46.132219]]]}},{"type":"Feature","properties":{"id":2,"area_m2":300,"px":3,"rank":62,"persistent":false},"geometry":{"type":"Polygon","coordinates":[[[-122.936683,46.144279],[-122.936683,46.144369],[-122.936424,46.144369],[-122.936402,46.144294],[-122.936295,46.144278],[-122.936295,46.144189],[-122.936424,46.144189],[-122.93643,46.144245],[-122.936479,46.144276],[-122.936683,46.144279]]]}},{"type":"Feature","properties":{"id":7,"area_m2":300,"px":3,"rank":63,"persistent":false},"geometry":{"type":"Polygon","coordinates":[[[-122.936425,46.143379],[-122.936425,46.143469],[-122.936037,46.143468],[-122.936037,46.143378],[-122.936425,46.143379]]]}},{"type":"Feature","properties":{"id":8,"area_m2":300,"px":3,"rank":64,"persistent":false},"geometry":{"type":"Polygon","coordinates":[[[-122.940828,46.143111],[-122.940828,46.143291],[-122.940698,46.143291],[-122.940695,46.143149],[-122.940651,46.143115],[-122.940569,46.143111],[-122.940569,46.143021],[-122.940699,46.143021],[-122.940721,46.143095],[-122.940828,46.143111]]]}},{"type":"Feature","properties":{"id":12,"area_m2":300,"px":3,"rank":65,"persistent":false},"geometry":{"type":"Polygon","coordinates":[[[-122.928398,46.142744],[-122.928398,46.142834],[-122.928194,46.142836],[-122.928145,46.142867],[-122.928139,46.142924],[-122.92801,46.142924],[-122.92801,46.142834],[-122.928117,46.142818],[-122.92814,46.142744],[-122.928398,46.142744]]]}},{"type":"Feature","properties":{"id":11,"area_m2":300,"px":3,"rank":66,"persistent":false},"geometry":{"type":"Polygon","coordinates":[[[-122.938498,46.14266],[-122.938497,46.14293],[-122.938368,46.14293],[-122.938368,46.14266],[-122.938498,46.14266]]]}},{"type":"Feature","properties":{"id":13,"area_m2":300,"px":3,"rank":67,"persistent":false},"geometry":{"type":"Polygon","coordinates":[[[-122.933707,46.142567],[-122.933707,46.142657],[-122.9336,46.142673],[-122.933577,46.142747],[-122.933319,46.142747],[-122.933319,46.142657],[-122.933523,46.142655],[-122.933572,46.142624],[-122.933578,46.142567],[-122.933707,46.142567]]]}},{"type":"Feature","properties":{"id":20,"area_m2":300,"px":3,"rank":68,"persistent":false},"geometry":{"type":"Polygon","coordinates":[[[-122.931377,46.141936],[-122.931377,46.142026],[-122.931118,46.142025],[-122.931119,46.141846],[-122.931248,46.141846],[-122.931271,46.14192],[-122.931377,46.141936]]]}},{"type":"Feature","properties":{"id":24,"area_m2":300,"px":3,"rank":69,"persistent":false},"geometry":{"type":"Polygon","coordinates":[[[-122.931249,46.140946],[-122.931249,46.141035],[-122.931142,46.141051],[-122.931119,46.141125],[-122.930861,46.141125],[-122.930861,46.141035],[-122.931064,46.141033],[-122.931114,46.141002],[-122.93112,46.140946],[-122.931249,46.140946]]]}},{"type":"Feature","properties":{"id":28,"area_m2":300,"px":3,"rank":70,"persistent":false},"geometry":{"type":"Polygon","coordinates":[[[-122.93125,46.140406],[-122.93125,46.140495],[-122.930991,46.140495],[-122.930968,46.140421],[-122.930862,46.140405],[-122.930862,46.140315],[-122.930991,46.140315],[-122.930997,46.140372],[-122.931046,46.140403],[-122.93125,46.140406]]]}},{"type":"Feature","properties":{"id":29,"area_m2":300,"px":3,"rank":71,"persistent":false},"geometry":{"type":"Polygon","coordinates":[[[-122.934487,46.140047],[-122.934487,46.140137],[-122.934405,46.140142],[-122.934361,46.140176],[-122.934357,46.140317],[-122.934228,46.140317],[-122.934228,46.140137],[-122.934335,46.140122],[-122.934358,46.140047],[-122.934487,46.140047]]]}},{"type":"Feature","properties":{"id":32,"area_m2":300,"px":3,"rank":72,"persistent":false},"geometry":{"type":"Polygon","coordinates":[[[-122.933841,46.139057],[-122.933841,46.139327],[-122.933711,46.139327],[-122.933712,46.139057],[-122.933841,46.139057]]]}},{"type":"Feature","properties":{"id":42,"area_m2":300,"px":3,"rank":73,"persistent":false},"geometry":{"type":"Polygon","coordinates":[[[-122.93449,46.137797],[-122.93449,46.137887],[-122.93436,46.137887],[-122.934357,46.137836],[-122.934319,46.137804],[-122.934101,46.137797],[-122.934102,46.137707],[-122.93436,46.137707],[-122.934383,46.137782],[-122.93449,46.137797]]]}},{"type":"Feature","properties":{"id":43,"area_m2":300,"px":3,"rank":74,"persistent":false},"geometry":{"type":"Polygon","coordinates":[[[-122.938374,46.13744],[-122.938374,46.13753],[-122.938267,46.137545],[-122.938244,46.137619],[-122.938128,46.137643],[-122.938115,46.137709],[-122.937986,46.137709],[-122.937986,46.137619],[-122.938092,46.137604],[-122.938115,46.137529],[-122.938232,46.137505],[-122.938245,46.13744],[-122.938374,46.13744]]]}},{"type":"Feature","properties":{"id":50,"area_m2":300,"px":3,"rank":75,"persistent":false},"geometry":{"type":"Polygon","coordinates":[[[-122.938633,46.13717],[-122.938633,46.13726],[-122.938504,46.13726],[-122.938443,46.137235],[-122.938374,46.137259],[-122.938245,46.137259],[-122.938245,46.13717],[-122.938352,46.137154],[-122.938375,46.13708],[-122.938504,46.13708],[-122.938527,46.137154],[-122.938633,46.13717]]]}},{"type":"Feature","properties":{"id":51,"area_m2":300,"px":3,"rank":76,"persistent":false},"geometry":{"type":"Polygon","coordinates":[[[-122.934361,46.137077],[-122.934361,46.137257],[-122.934232,46.137257],[-122.934228,46.137116],[-122.934184,46.137081],[-122.934102,46.137077],[-122.934102,46.136987],[-122.934232,46.136987],[-122.934254,46.137061],[-122.934361,46.137077]]]}},{"type":"Feature","properties":{"id":60,"area_m2":300,"px":3,"rank":77,"persistent":false},"geometry":{"type":"Polygon","coordinates":[[[-122.940188,46.136091],[-122.940188,46.13618],[-122.939929,46.13618],[-122.939929,46.136],[-122.940059,46.136],[-122.940081,46.136075],[-122.940188,46.136091]]]}},{"type":"Feature","properties":{"id":61,"area_m2":300,"px":3,"rank":78,"persistent":false},"geometry":{"type":"Polygon","coordinates":[[[-122.93242,46.135996],[-122.93242,46.136086],[-122.932293,46.136086],[-122.932268,46.136012],[-122.932162,46.135996],[-122.932162,46.135816],[-122.932291,46.135816],[-122.9323,46.135968],[-122.932346,46.135994],[-122.93242,46.135996]]]}},{"type":"Feature","properties":{"id":63,"area_m2":300,"px":3,"rank":79,"persistent":false},"geometry":{"type":"Polygon","coordinates":[[[-122.936305,46.135728],[-122.936304,46.135998],[-122.936175,46.135998],[-122.936175,46.135728],[-122.936305,46.135728]]]}},{"type":"Feature","properties":{"id":64,"area_m2":300,"px":3,"rank":80,"persistent":false},"geometry":{"type":"Polygon","coordinates":[[[-122.938506,46.13555],[-122.938505,46.13573],[-122.938376,46.135729],[-122.938353,46.135655],[-122.938247,46.135639],[-122.938247,46.13555],[-122.938506,46.13555]]]}},{"type":"Feature","properties":{"id":67,"area_m2":300,"px":3,"rank":81,"persistent":false},"geometry":{"type":"Polygon","coordinates":[[[-122.935788,46.134828],[-122.935788,46.135098],[-122.935658,46.135098],[-122.935659,46.134828],[-122.935788,46.134828]]]}},{"type":"Feature","properties":{"id":80,"area_m2":300,"px":3,"rank":82,"persistent":false},"geometry":{"type":"Polygon","coordinates":[[[-122.933978,46.132937],[-122.933978,46.133027],[-122.933589,46.133027],[-122.933589,46.132937],[-122.933978,46.132937]]]}},{"type":"Feature","properties":{"id":79,"area_m2":300,"px":3,"rank":83,"persistent":false},"geometry":{"type":"Polygon","coordinates":[[[-122.940968,46.132851],[-122.940968,46.133121],[-122.940839,46.133121],[-122.940839,46.132851],[-122.940968,46.132851]]]}},{"type":"Feature","properties":{"id":81,"area_m2":300,"px":3,"rank":84,"persistent":false},"geometry":{"type":"Polygon","coordinates":[[[-122.934366,46.132577],[-122.934366,46.132757],[-122.934237,46.132757],[-122.934214,46.132683],[-122.934108,46.132667],[-122.934108,46.132577],[-122.934366,46.132577]]]}},{"type":"Feature","properties":{"id":83,"area_m2":300,"px":3,"rank":85,"persistent":false},"geometry":{"type":"Polygon","coordinates":[[[-122.937344,46.132219],[-122.937344,46.132489],[-122.937215,46.132489],[-122.937215,46.132219],[-122.937344,46.132219]]]}},{"type":"Feature","properties":{"id":85,"area_m2":300,"px":3,"rank":86,"persistent":false},"geometry":{"type":"Polygon","coordinates":[[[-122.935662,46.132128],[-122.935661,46.132218],[-122.935403,46.132218],[-122.935403,46.132038],[-122.935532,46.132038],[-122.935555,46.132112],[-122.935662,46.132128]]]}}]}