{"type":"FeatureCollection","features":[{"type":"Feature","properties":{"id":18,"area_m2":9100,"px":91,"rank":1},"geometry":{"type":"Polygon","coordinates":[[[-122.349563,47.582199],[-122.349562,47.582289],[-122.349465,47.582291],[-122.349414,47.582322],[-122.349427,47.582468],[-122.349343,47.582472],[-122.349297,47.582505],[-122.349291,47.582737],[-122.349255,47.582779],[-122.34929,47.582828],[-122.349283,47.583366],[-122.349248,47.58342],[-122.349321,47.583554],[-122.349547,47.583548],[-122.349543,47.583818],[-122.349446,47.583827],[-122.349409,47.583907],[-122.349326,47.583911],[-122.349279,47.583945],[-122.349267,47.584626],[-122.349135,47.584626],[-122.349123,47.58447],[-122.349004,47.584445],[-122.348969,47.584364],[-122.348872,47.584354],[-122.348887,47.584114],[-122.348839,47.584087],[-122.348742,47.584084],[-122.348745,47.583904],[-122.34886,47.583885],[-122.348899,47.58378],[-122.348859,47.583731],[-122.348747,47.583724],[-122.348748,47.583634],[-122.348845,47.583625],[-122.348881,47.583581],[-122.348869,47.583478],[-122.34875,47.583454],[-122.348751,47.583364],[-122.348888,47.583344],[-122.348886,47.583185],[-122.34897,47.583181],[-122.349014,47.583152],[-122.349023,47.582916],[-122.349059,47.582873],[-122.348991,47.582731],[-122.348759,47.582734],[-122.348761,47.582554],[-122.348859,47.582546],[-122.348895,47.582501],[-122.348883,47.582399],[-122.348763,47.582374],[-122.348766,47.582194],[-122.348863,47.582186],[-122.348899,47.582141],[-122.348887,47.582039],[-122.348768,47.582014],[-122.34877,47.581834],[-122.34888,47.581819],[-122.348904,47.581745],[-122.349037,47.581746],[-122.3491,47.58177],[-122.34917,47.581747],[-122.349303,47.581747],[-122.349326,47.581822],[-122.349435,47.581838],[-122.349437,47.582165],[-122.34948,47.582194],[-122.349563,47.582199]]]}},{"type":"Feature","properties":{"id":9,"area_m2":5300,"px":53,"rank":2},"geometry":{"type":"Polygon","coordinates":[[[-122.349256,47.585348],[-122.349222,47.585394],[-122.349257,47.585436],[-122.349254,47.585706],[-122.349218,47.585754],[-122.349253,47.585796],[-122.349251,47.585975],[-122.349215,47.586024],[-122.34925,47.586066],[-122.349248,47.586155],[-122.349212,47.586198],[-122.349247,47.586246],[-122.349245,47.586426],[-122.349135,47.586441],[-122.349111,47.586515],[-122.348845,47.586514],[-122.348847,47.586334],[-122.348967,47.58631],[-122.348982,47.586208],[-122.348947,47.586163],[-122.34885,47.586154],[-122.348847,47.585904],[-122.348776,47.58587],[-122.348321,47.585881],[-122.348325,47.585521],[-122.34878,47.585537],[-122.348845,47.585513],[-122.348864,47.584984],[-122.348997,47.584985],[-122.349019,47.585059],[-122.349129,47.585076],[-122.349163,47.585157],[-122.349261,47.585166],[-122.349256,47.585348]]]}},{"type":"Feature","properties":{"id":38,"area_m2":2600,"px":26,"rank":3},"geometry":{"type":"Polygon","coordinates":[[[-122.348286,47.577963],[-122.348284,47.578142],[-122.34818,47.578154],[-122.34815,47.578232],[-122.348052,47.57824],[-122.348016,47.578321],[-122.347932,47.578324],[-122.347888,47.578353],[-122.347878,47.57868],[-122.34748,47.578678],[-122.347483,47.578408],[-122.34758,47.578399],[-122.347616,47.578355],[-122.347604,47.578253],[-122.347485,47.578228],[-122.347491,47.577778],[-122.347624,47.577779],[-122.347639,47.578029],[-122.347692,47.578049],[-122.347886,47.57805],[-122.347891,47.57812],[-122.34794,47.578152],[-122.348122,47.578129],[-122.348151,47.578093],[-122.348153,47.577962],[-122.348286,47.577963]]]}},{"type":"Feature","properties":{"id":19,"area_m2":1600,"px":16,"rank":4},"geometry":{"type":"Polygon","coordinates":[[[-122.348228,47.582641],[-122.348226,47.582821],[-122.348116,47.582836],[-122.348092,47.58291],[-122.347972,47.582934],[-122.347958,47.582999],[-122.347715,47.583014],[-122.347688,47.583268],[-122.347556,47.583267],[-122.347559,47.582997],[-122.347595,47.582955],[-122.34756,47.582907],[-122.347562,47.582727],[-122.347711,47.582736],[-122.347696,47.582788],[-122.347741,47.582827],[-122.347837,47.582814],[-122.347863,47.582771],[-122.347812,47.582721],[-122.347829,47.582639],[-122.347906,47.582637],[-122.347953,47.582611],[-122.347965,47.58246],[-122.348097,47.58246],[-122.348105,47.582612],[-122.348152,47.582638],[-122.348228,47.582641]]]}},{"type":"Feature","properties":{"id":69,"area_m2":1600,"px":16,"rank":5},"geometry":{"type":"Polygon","coordinates":[[[-122.353261,47.573492],[-122.35326,47.573582],[-122.35315,47.573597],[-122.353124,47.573671],[-122.352993,47.57367],[-122.352994,47.573539],[-122.35296,47.573499],[-122.352772,47.573495],[-122.352731,47.573532],[-122.352727,47.573669],[-122.352618,47.573684],[-122.352593,47.573758],[-122.35246,47.573757],[-122.352466,47.573307],[-122.352865,47.57331],[-122.352927,47.573334],[-122.352998,47.57331],[-122.353131,47.573311],[-122.353117,47.573461],[-122.353164,47.573489],[-122.353261,47.573492]]]}},{"type":"Feature","properties":{"id":26,"area_m2":1500,"px":15,"rank":6},"geometry":{"type":"Polygon","coordinates":[[[-122.349863,47.579501],[-122.349859,47.579771],[-122.349658,47.579771],[-122.349595,47.579813],[-122.349598,47.579916],[-122.349641,47.579946],[-122.349724,47.57995],[-122.349723,47.58004],[-122.349514,47.580041],[-122.349463,47.580072],[-122.349456,47.580129],[-122.349323,47.580128],[-122.349301,47.580054],[-122.349191,47.580037],[-122.349194,47.579857],[-122.34943,47.579846],[-122.34946,47.57981],[-122.349462,47.579679],[-122.349572,47.579664],[-122.349596,47.57959],[-122.349716,47.579566],[-122.34973,47.5795],[-122.349863,47.579501]]]}},{"type":"Feature","properties":{"id":54,"area_m2":1400,"px":14,"rank":7},"geometry":{"type":"Polygon","coordinates":[[[-122.350708,47.575637],[-122.350706,47.575817],[-122.35044,47.575815],[-122.350406,47.575734],[-122.350238,47.575712],[-122.350177,47.575754],[-122.350173,47.575904],[-122.349839,47.575903],[-122.349784,47.57593],[-122.349773,47.575991],[-122.34964,47.575991],[-122.349642,47.575901],[-122.349751,47.575885],[-122.349776,47.575811],[-122.34988,47.5758],[-122.34991,47.575722],[-122.350007,47.575714],[-122.350044,47.575633],[-122.350159,47.575614],[-122.350178,47.575544],[-122.350444,47.575545],[-122.350447,47.575597],[-122.350485,47.575629],[-122.350708,47.575637]]]}},{"type":"Feature","properties":{"id":45,"area_m2":1300,"px":13,"rank":8},"geometry":{"type":"Polygon","coordinates":[[[-122.350821,47.577257],[-122.350818,47.577527],[-122.350594,47.577532],[-122.350555,47.577564],[-122.350549,47.577615],[-122.350418,47.577615],[-122.350413,47.577558],[-122.350363,47.577527],[-122.350153,47.577523],[-122.350155,47.577433],[-122.350264,47.577418],[-122.350289,47.577344],[-122.350408,47.577321],[-122.350423,47.577255],[-122.350821,47.577257]]]}},{"type":"Feature","properties":{"id":24,"area_m2":1200,"px":12,"rank":9},"geometry":{"type":"Polygon","coordinates":[[[-122.348388,47.580482],[-122.348384,47.580752],[-122.348161,47.580757],[-122.348122,47.580789],[-122.348117,47.580841],[-122.347985,47.58084],[-122.347922,47.580816],[-122.347851,47.580839],[-122.347719,47.580838],[-122.347721,47.580659],[-122.347831,47.580643],[-122.347855,47.580569],[-122.348044,47.580584],[-122.348098,47.580568],[-122.348123,47.580391],[-122.348256,47.580392],[-122.348279,47.580466],[-122.348388,47.580482]]]}},{"type":"Feature","properties":{"id":30,"area_m2":1200,"px":12,"rank":10},"geometry":{"type":"Polygon","coordinates":[[[-122.35372,47.579433],[-122.353717,47.579703],[-122.353584,47.579702],[-122.353562,47.579538],[-122.35332,47.579521],[-122.353321,47.579431],[-122.353357,47.579383],[-122.353306,47.579257],[-122.353246,47.579236],[-122.353058,47.579249],[-122.353059,47.579159],[-122.353168,47.579144],[-122.353193,47.57907],[-122.353313,47.579047],[-122.353327,47.578981],[-122.35346,47.578982],[-122.353459,47.579071],[-122.353422,47.579119],[-122.353463,47.579218],[-122.353506,47.579248],[-122.353589,47.579252],[-122.353606,47.579412],[-122.35372,47.579433]]]}},{"type":"Feature","properties":{"id":46,"area_m2":1200,"px":12,"rank":11},"geometry":{"type":"Polygon","coordinates":[[[-122.34803,47.577151],[-122.348028,47.577331],[-122.347804,47.577336],[-122.347765,47.577368],[-122.347761,47.57742],[-122.347495,47.577418],[-122.347499,47.577148],[-122.347608,47.577133],[-122.347633,47.577059],[-122.347898,47.577061],[-122.347921,47.577135],[-122.34803,47.577151]]]}},{"type":"Feature","properties":{"id":47,"area_m2":1200,"px":12,"rank":12},"geometry":{"type":"Polygon","coordinates":[[[-122.346437,47.576962],[-122.346432,47.577322],[-122.346323,47.577337],[-122.346298,47.577411],[-122.346166,47.57741],[-122.346143,47.577336],[-122.346034,47.57732],[-122.346037,47.57705],[-122.346147,47.577035],[-122.346171,47.576961],[-122.346437,47.576962]]]}},{"type":"Feature","properties":{"id":64,"area_m2":1200,"px":12,"rank":13},"geometry":{"type":"Polygon","coordinates":[[[-122.351393,47.574021],[-122.351391,47.574201],[-122.351286,47.574205],[-122.35124,47.57424],[-122.351256,47.57438],[-122.351032,47.574385],[-122.350993,47.574417],[-122.350989,47.574469],[-122.350723,47.574467],[-122.350726,47.574197],[-122.351076,47.574195],[-122.35112,47.574166],[-122.351126,47.57411],[-122.351246,47.574086],[-122.35126,47.57402],[-122.351393,47.574021]]]}},{"type":"Feature","properties":{"id":16,"area_m2":1000,"px":10,"rank":14},"geometry":{"type":"Polygon","coordinates":[[[-122.348073,47.58444],[-122.34807,47.58462],[-122.34798,47.584626],[-122.347937,47.584668],[-122.347932,47.585069],[-122.347799,47.585068],[-122.347808,47.584348],[-122.347941,47.584349],[-122.347963,47.584423],[-122.348073,47.58444]]]}},{"type":"Feature","properties":{"id":44,"area_m2":1000,"px":10,"rank":15},"geometry":{"type":"Polygon","coordinates":[[[-122.349484,47.577879],[-122.349483,47.577969],[-122.34935,47.577968],[-122.349337,47.577902],[-122.349218,47.577878],[-122.349215,47.577826],[-122.349177,47.577794],[-122.349024,47.577763],[-122.348953,47.577786],[-122.34882,47.577785],[-122.348825,47.577426],[-122.349091,47.577427],[-122.349101,47.577673],[-122.34922,47.577698],[-122.349255,47.577779],[-122.349352,47.577789],[-122.34938,47.577866],[-122.349484,47.577879]]]}},{"type":"Feature","properties":{"id":53,"area_m2":1000,"px":10,"rank":16},"geometry":{"type":"Polygon","coordinates":[[[-122.353102,47.57565],[-122.353098,47.57592],[-122.352989,47.575935],[-122.352964,47.576009],[-122.352845,47.576033],[-122.35283,47.576099],[-122.352697,47.576098],[-122.352692,47.576041],[-122.352642,47.57601],[-122.352433,47.576006],[-122.352434,47.575916],[-122.352688,47.575907],[-122.35277,47.575942],[-122.352842,47.57591],[-122.352826,47.575841],[-122.352701,47.575827],[-122.352702,47.575738],[-122.352786,47.575734],[-122.352832,47.5757],[-122.352837,47.575559],[-122.35297,47.57556],[-122.352992,47.575634],[-122.353102,47.57565]]]}},{"type":"Feature","properties":{"id":58,"area_m2":1000,"px":10,"rank":17},"geometry":{"type":"Polygon","coordinates":[[[-122.352841,47.575199],[-122.35284,47.575289],[-122.352731,47.575304],[-122.352706,47.575378],[-122.35244,47.575377],[-122.352418,47.575302],[-122.352309,47.575286],[-122.35231,47.575196],[-122.352393,47.575192],[-122.35244,47.575158],[-122.352445,47.575017],[-122.352711,47.575018],[-122.352718,47.57517],[-122.352765,47.575196],[-122.352841,47.575199]]]}},{"type":"Feature","properties":{"id":4,"area_m2":900,"px":9,"rank":18},"geometry":{"type":"Polygon","coordinates":[[[-122.3487,47.587503],[-122.348697,47.587682],[-122.348488,47.587684],[-122.348437,47.587714],[-122.34843,47.587771],[-122.348298,47.58777],[-122.348299,47.58768],[-122.348396,47.587672],[-122.348432,47.587627],[-122.34842,47.587525],[-122.348301,47.5875],[-122.348303,47.58732],[-122.348569,47.587322],[-122.348577,47.587473],[-122.348623,47.5875],[-122.3487,47.587503]]]}},{"type":"Feature","properties":{"id":8,"area_m2":900,"px":9,"rank":19},"geometry":{"type":"Polygon","coordinates":[[[-122.349911,47.58634],[-122.349908,47.58661],[-122.349798,47.586625],[-122.349774,47.586699],[-122.349641,47.586698],[-122.349633,47.586547],[-122.349586,47.58652],[-122.34951,47.586517],[-122.349512,47.586338],[-122.349911,47.58634]]]}},{"type":"Feature","properties":{"id":52,"area_m2":900,"px":9,"rank":20},"geometry":{"type":"Polygon","coordinates":[[[-122.349245,47.575718],[-122.349241,47.575988],[-122.349011,47.575996],[-122.348975,47.576036],[-122.348973,47.576167],[-122.34884,47.576166],[-122.348844,47.575896],[-122.34892,47.575894],[-122.348968,47.575868],[-122.348979,47.575717],[-122.349245,47.575718]]]}},{"type":"Feature","properties":{"id":7,"area_m2":800,"px":8,"rank":21},"geometry":{"type":"Polygon","coordinates":[[[-122.350443,47.586343],[-122.350442,47.586433],[-122.350344,47.586441],[-122.350308,47.586486],[-122.350321,47.586588],[-122.35044,47.586613],[-122.350439,47.586703],[-122.35004,47.5867],[-122.350042,47.58652],[-122.350118,47.586519],[-122.350166,47.586493],[-122.350177,47.586341],[-122.350443,47.586343]]]}},{"type":"Feature","properties":{"id":68,"area_m2":800,"px":8,"rank":22},"geometry":{"type":"Polygon","coordinates":[[[-122.353523,47.573853],[-122.353521,47.574033],[-122.353411,47.574048],[-122.353386,47.574122],[-122.353254,47.574121],[-122.353246,47.57397],[-122.353199,47.573944],[-122.353123,47.573939],[-122.353124,47.573851],[-122.353208,47.573847],[-122.353254,47.573813],[-122.353259,47.573672],[-122.353392,47.573672],[-122.3534,47.573824],[-122.353447,47.57385],[-122.353523,47.573853]]]}},{"type":"Feature","properties":{"id":28,"area_m2":700,"px":7,"rank":23},"geometry":{"type":"Polygon","coordinates":[[[-122.349199,47.579407],[-122.349196,47.579677],[-122.349086,47.579692],[-122.349062,47.579766],[-122.348796,47.579765],[-122.348798,47.579585],[-122.349029,47.579577],[-122.349064,47.579538],[-122.349066,47.579407],[-122.349199,47.579407]]]}},{"type":"Feature","properties":{"id":37,"area_m2":700,"px":7,"rank":24},"geometry":{"type":"Polygon","coordinates":[[[-122.348678,47.578505],[-122.348677,47.578594],[-122.348343,47.578594],[-122.348279,47.578636],[-122.348295,47.578753],[-122.348348,47.578772],[-122.348542,47.578774],[-122.348541,47.578864],[-122.348275,47.578862],[-122.348253,47.578788],[-122.348143,47.578771],[-122.348146,47.578592],[-122.348255,47.578576],[-122.34828,47.578502],[-122.348678,47.578505]]]}},{"type":"Feature","properties":{"id":48,"area_m2":700,"px":7,"rank":25},"geometry":{"type":"Polygon","coordinates":[[[-122.353887,47.576645],[-122.353886,47.576734],[-122.353777,47.57675],[-122.353752,47.576824],[-122.353353,47.576821],[-122.353356,47.576642],[-122.353887,47.576645]]]}},{"type":"Feature","properties":{"id":60,"area_m2":700,"px":7,"rank":26},"geometry":{"type":"Polygon","coordinates":[[[-122.349922,47.574733],[-122.34992,47.574912],[-122.34981,47.574928],[-122.349786,47.575002],[-122.349666,47.575025],[-122.349651,47.575091],[-122.349519,47.57509],[-122.349522,47.57482],[-122.349731,47.574819],[-122.349782,47.574788],[-122.349789,47.574732],[-122.349922,47.574733]]]}},{"type":"Feature","properties":{"id":67,"area_m2":700,"px":7,"rank":27},"geometry":{"type":"Polygon","coordinates":[[[-122.350199,47.573834],[-122.350198,47.573924],[-122.350114,47.573928],[-122.350068,47.573962],[-122.350063,47.574103],[-122.349953,47.574119],[-122.349928,47.574193],[-122.349663,47.574191],[-122.349665,47.574011],[-122.349889,47.574006],[-122.349928,47.573974],[-122.349932,47.573923],[-122.350052,47.573899],[-122.350066,47.573834],[-122.350199,47.573834]]]}},{"type":"Feature","properties":{"id":50,"area_m2":600,"px":6,"rank":28},"geometry":{"type":"Polygon","coordinates":[[[-122.348177,47.576072],[-122.348175,47.576162],[-122.348092,47.576166],[-122.348046,47.5762],[-122.34804,47.576341],[-122.347642,47.576339],[-122.347643,47.576249],[-122.347752,47.576234],[-122.347777,47.57616],[-122.347986,47.576159],[-122.348037,47.576128],[-122.348044,47.576072],[-122.348177,47.576072]]]}},{"type":"Feature","properties":{"id":55,"area_m2":600,"px":6,"rank":29},"geometry":{"type":"Polygon","coordinates":[[[-122.348317,47.575443],[-122.348316,47.575533],[-122.348122,47.575532],[-122.348068,47.575552],[-122.348048,47.575712],[-122.347938,47.575727],[-122.347914,47.575801],[-122.347781,47.5758],[-122.347783,47.57562],[-122.347893,47.575605],[-122.347918,47.575531],[-122.348037,47.575508],[-122.348052,47.575442],[-122.348317,47.575443]]]}},{"type":"Feature","properties":{"id":57,"area_m2":600,"px":6,"rank":30},"geometry":{"type":"Polygon","coordinates":[[[-122.349251,47.575179],[-122.349249,47.575358],[-122.34914,47.575374],[-122.349115,47.575448],[-122.348982,47.575447],[-122.348987,47.575087],[-122.34912,47.575088],[-122.349142,47.575162],[-122.349251,47.575179]]]}},{"type":"Feature","properties":{"id":10,"area_m2":500,"px":5,"rank":31},"geometry":{"type":"Polygon","coordinates":[[[-122.348582,47.586242],[-122.34858,47.586422],[-122.348314,47.586421],[-122.348318,47.586151],[-122.34845,47.586152],[-122.348473,47.586226],[-122.348582,47.586242]]]}},{"type":"Feature","properties":{"id":12,"area_m2":500,"px":5,"rank":32},"geometry":{"type":"Polygon","coordinates":[[[-122.350053,47.585621],[-122.350051,47.585801],[-122.349785,47.585799],[-122.349788,47.585529],[-122.349921,47.58553],[-122.349944,47.585604],[-122.350053,47.585621]]]}},{"type":"Feature","properties":{"id":25,"area_m2":500,"px":5,"rank":33},"geometry":{"type":"Polygon","coordinates":[[[-122.349587,47.580309],[-122.349586,47.580399],[-122.349495,47.580405],[-122.349454,47.580442],[-122.349449,47.580668],[-122.349317,47.580668],[-122.349321,47.580308],[-122.349587,47.580309]]]}},{"type":"Feature","properties":{"id":29,"area_m2":500,"px":5,"rank":34},"geometry":{"type":"Polygon","coordinates":[[[-122.348666,47.579494],[-122.348665,47.579584],[-122.348308,47.579589],[-122.348267,47.579625],[-122.348264,47.579762],[-122.348131,47.579761],[-122.348133,47.579581],[-122.348243,47.579566],[-122.348267,47.579492],[-122.348666,47.579494]]]}},{"type":"Feature","properties":{"id":31,"area_m2":500,"px":5,"rank":35},"geometry":{"type":"Polygon","coordinates":[[[-122.348938,47.579046],[-122.348932,47.579496],[-122.348799,47.579495],[-122.348805,47.579045],[-122.348938,47.579046]]]}},{"type":"Feature","properties":{"id":40,"area_m2":500,"px":5,"rank":36},"geometry":{"type":"Polygon","coordinates":[[[-122.350012,47.577974],[-122.349979,47.57802],[-122.350014,47.578062],[-122.350011,47.578242],[-122.349879,47.578241],[-122.349856,47.578167],[-122.349747,47.578151],[-122.349749,47.577971],[-122.349859,47.577956],[-122.349883,47.577882],[-122.350014,47.577882],[-122.350012,47.577974]]]}},{"type":"Feature","properties":{"id":1,"area_m2":400,"px":4,"rank":37},"geometry":{"type":"Polygon","coordinates":[[[-122.346271,47.590278],[-122.346269,47.590458],[-122.346003,47.590456],[-122.346005,47.590277],[-122.346271,47.590278]]]}},{"type":"Feature","properties":{"id":5,"area_m2":400,"px":4,"rank":38},"geometry":{"type":"Polygon","coordinates":[[[-122.348576,47.586782],[-122.348572,47.587052],[-122.348306,47.58705],[-122.348308,47.586961],[-122.348391,47.586957],[-122.348438,47.586923],[-122.348443,47.586781],[-122.348576,47.586782]]]}},{"type":"Feature","properties":{"id":13,"area_m2":400,"px":4,"rank":39},"geometry":{"type":"Polygon","coordinates":[[[-122.34806,47.585429],[-122.348059,47.585519],[-122.347962,47.585528],[-122.347925,47.585609],[-122.347849,47.58561],[-122.347801,47.585636],[-122.34779,47.585788],[-122.347657,47.585787],[-122.347659,47.585607],[-122.347769,47.585592],[-122.347794,47.585518],[-122.347913,47.585495],[-122.347928,47.585429],[-122.34806,47.585429]]]}},{"type":"Feature","properties":{"id":14,"area_m2":400,"px":4,"rank":40},"geometry":{"type":"Polygon","coordinates":[[[-122.350059,47.585171],[-122.350057,47.585261],[-122.349792,47.585259],[-122.349795,47.584989],[-122.349928,47.58499],[-122.349935,47.585142],[-122.349982,47.585168],[-122.350059,47.585171]]]}},{"type":"Feature","properties":{"id":20,"area_m2":400,"px":4,"rank":41},"geometry":{"type":"Polygon","coordinates":[[[-122.346506,47.582091],[-122.346505,47.582181],[-122.346239,47.58218],[-122.346217,47.582106],[-122.346107,47.582089],[-122.346073,47.582008],[-122.345975,47.581998],[-122.345977,47.581908],[-122.346109,47.581909],[-122.346122,47.581975],[-122.346241,47.582],[-122.346244,47.582052],[-122.346282,47.582084],[-122.346506,47.582091]]]}},{"type":"Feature","properties":{"id":21,"area_m2":400,"px":4,"rank":42},"geometry":{"type":"Polygon","coordinates":[[[-122.348509,47.581473],[-122.348505,47.581743],[-122.348372,47.581742],[-122.34835,47.581668],[-122.348241,47.581651],[-122.348242,47.581561],[-122.348351,47.581546],[-122.348376,47.581472],[-122.348509,47.581473]]]}},{"type":"Feature","properties":{"id":36,"area_m2":400,"px":4,"rank":43},"geometry":{"type":"Polygon","coordinates":[[[-122.354529,47.578538],[-122.354525,47.578897],[-122.354392,47.578897],[-122.354396,47.578537],[-122.354529,47.578538]]]}},{"type":"Feature","properties":{"id":62,"area_m2":400,"px":4,"rank":44},"geometry":{"type":"Polygon","coordinates":[[[-122.352185,47.574475],[-122.352183,47.574655],[-122.351917,47.574654],[-122.35192,47.574474],[-122.352185,47.574475]]]}},{"type":"Feature","properties":{"id":63,"area_m2":400,"px":4,"rank":45},"geometry":{"type":"Polygon","coordinates":[[[-122.348731,47.574276],[-122.348727,47.574546],[-122.348462,47.574544],[-122.348463,47.574454],[-122.348546,47.574451],[-122.348593,47.574417],[-122.348598,47.574275],[-122.348731,47.574276]]]}},{"type":"Feature","properties":{"id":65,"area_m2":400,"px":4,"rank":46},"geometry":{"type":"Polygon","coordinates":[[[-122.349131,47.574188],[-122.349129,47.574368],[-122.348863,47.574366],[-122.348865,47.574187],[-122.349131,47.574188]]]}},{"type":"Feature","properties":{"id":2,"area_m2":300,"px":3,"rank":47},"geometry":{"type":"Polygon","coordinates":[[[-122.348149,47.589029],[-122.348148,47.589119],[-122.348038,47.589134],[-122.348014,47.589208],[-122.347881,47.589207],[-122.347883,47.589028],[-122.348149,47.589029]]]}},{"type":"Feature","properties":{"id":3,"area_m2":300,"px":3,"rank":48},"geometry":{"type":"Polygon","coordinates":[[[-122.348157,47.588399],[-122.348155,47.588489],[-122.348046,47.588504],[-122.348021,47.588578],[-122.347889,47.588578],[-122.347891,47.588398],[-122.348157,47.588399]]]}},{"type":"Feature","properties":{"id":6,"area_m2":300,"px":3,"rank":49},"geometry":{"type":"Polygon","coordinates":[[[-122.348047,47.586509],[-122.348046,47.586599],[-122.347962,47.586603],[-122.347916,47.586637],[-122.347911,47.586778],[-122.347778,47.586777],[-122.34778,47.586598],[-122.34789,47.586582],[-122.347914,47.586508],[-122.348047,47.586509]]]}},{"type":"Feature","properties":{"id":11,"area_m2":300,"px":3,"rank":50},"geometry":{"type":"Polygon","coordinates":[[[-122.347123,47.585964],[-122.347121,47.586144],[-122.346988,47.586143],[-122.346986,47.586001],[-122.346941,47.585967],[-122.346857,47.585962],[-122.346858,47.585873],[-122.346991,47.585873],[-122.347013,47.585948],[-122.347123,47.585964]]]}},{"type":"Feature","properties":{"id":15,"area_m2":300,"px":3,"rank":51},"geometry":{"type":"Polygon","coordinates":[[[-122.347134,47.585064],[-122.347133,47.585154],[-122.347023,47.585169],[-122.346999,47.585243],[-122.346866,47.585243],[-122.346868,47.585063],[-122.347134,47.585064]]]}},{"type":"Feature","properties":{"id":17,"area_m2":300,"px":3,"rank":52},"geometry":{"type":"Polygon","coordinates":[[[-122.349266,47.584716],[-122.349263,47.584986],[-122.34913,47.584986],[-122.349133,47.584716],[-122.349266,47.584716]]]}},{"type":"Feature","properties":{"id":22,"area_m2":300,"px":3,"rank":53},"geometry":{"type":"Polygon","coordinates":[[[-122.348111,47.581381],[-122.348108,47.581561],[-122.347999,47.581576],[-122.347974,47.58165],[-122.347842,47.581649],[-122.347843,47.581559],[-122.347926,47.581555],[-122.347973,47.581522],[-122.347978,47.58138],[-122.348111,47.581381]]]}},{"type":"Feature","properties":{"id":23,"area_m2":300,"px":3,"rank":54},"geometry":{"type":"Polygon","coordinates":[[[-122.34732,47.580836],[-122.347318,47.580926],[-122.347209,47.580941],[-122.347184,47.581015],[-122.347052,47.581015],[-122.347054,47.580835],[-122.34732,47.580836]]]}},{"type":"Feature","properties":{"id":27,"area_m2":300,"px":3,"rank":55},"geometry":{"type":"Polygon","coordinates":[[[-122.348262,47.579942],[-122.34826,47.580032],[-122.348128,47.580031],[-122.348065,47.580007],[-122.347995,47.58003],[-122.347862,47.580029],[-122.347863,47.57994],[-122.347973,47.579924],[-122.347997,47.57985],[-122.34813,47.579851],[-122.348152,47.579925],[-122.348262,47.579942]]]}},{"type":"Feature","properties":{"id":32,"area_m2":300,"px":3,"rank":56},"geometry":{"type":"Polygon","coordinates":[[[-122.348005,47.579221],[-122.348003,47.57931],[-122.34792,47.579314],[-122.347874,47.579348],[-122.347868,47.57949],[-122.347735,47.579489],[-122.347738,47.579309],[-122.347847,47.579294],[-122.347872,47.57922],[-122.348005,47.579221]]]}},{"type":"Feature","properties":{"id":33,"area_m2":300,"px":3,"rank":57},"geometry":{"type":"Polygon","coordinates":[[[-122.348405,47.579133],[-122.348403,47.579223],[-122.34832,47.579226],[-122.348274,47.57926],[-122.348268,47.579402],[-122.348135,47.579401],[-122.348138,47.579221],[-122.348247,47.579206],[-122.348272,47.579132],[-122.348405,47.579133]]]}},{"type":"Feature","properties":{"id":34,"area_m2":300,"px":3,"rank":58},"geometry":{"type":"Polygon","coordinates":[[[-122.35173,47.579062],[-122.351728,47.579242],[-122.351462,47.57924],[-122.351463,47.57915],[-122.351573,47.579135],[-122.351597,47.579061],[-122.35173,47.579062]]]}},{"type":"Feature","properties":{"id":35,"area_m2":300,"px":3,"rank":59},"geometry":{"type":"Polygon","coordinates":[[[-122.352398,47.578796],[-122.352397,47.578885],[-122.352287,47.578901],[-122.352263,47.578975],[-122.352143,47.578998],[-122.352129,47.579064],[-122.351996,47.579063],[-122.351997,47.578973],[-122.352107,47.578958],[-122.352131,47.578884],[-122.352251,47.578861],[-122.352265,47.578795],[-122.352398,47.578796]]]}},{"type":"Feature","properties":{"id":39,"area_m2":300,"px":3,"rank":60},"geometry":{"type":"Polygon","coordinates":[[[-122.351208,47.578249],[-122.351207,47.578339],[-122.351097,47.578354],[-122.351073,47.578428],[-122.35094,47.578427],[-122.350941,47.578337],[-122.350977,47.578295],[-122.350942,47.578247],[-122.350943,47.578158],[-122.351076,47.578158],[-122.351099,47.578233],[-122.351208,47.578249]]]}},{"type":"Feature","properties":{"id":41,"area_m2":300,"px":3,"rank":61},"geometry":{"type":"Polygon","coordinates":[[[-122.35161,47.577981],[-122.351608,47.578161],[-122.351342,47.57816],[-122.351343,47.57807],[-122.351453,47.578055],[-122.351478,47.577981],[-122.35161,47.577981]]]}},{"type":"Feature","properties":{"id":42,"area_m2":300,"px":3,"rank":62},"geometry":{"type":"Polygon","coordinates":[[[-122.352808,47.577898],[-122.352807,47.577988],[-122.352697,47.578003],[-122.352673,47.578077],[-122.352407,47.578076],[-122.352408,47.577986],[-122.352618,47.577985],[-122.352668,47.577954],[-122.352675,47.577897],[-122.352808,47.577898]]]}},{"type":"Feature","properties":{"id":43,"area_m2":300,"px":3,"rank":63},"geometry":{"type":"Polygon","coordinates":[[[-122.346958,47.577865],[-122.346956,47.577955],[-122.346847,47.57797],[-122.346822,47.578044],[-122.34669,47.578043],[-122.346692,47.577863],[-122.346958,47.577865]]]}},{"type":"Feature","properties":{"id":49,"area_m2":300,"px":3,"rank":64},"geometry":{"type":"Polygon","coordinates":[[[-122.352296,47.576276],[-122.352295,47.576365],[-122.351896,47.576363],[-122.351898,47.576273],[-122.352296,47.576276]]]}},{"type":"Feature","properties":{"id":51,"area_m2":300,"px":3,"rank":65},"geometry":{"type":"Polygon","coordinates":[[[-122.347246,47.576067],[-122.347244,47.576247],[-122.347111,47.576246],[-122.347088,47.576172],[-122.346979,47.576155],[-122.34698,47.576066],[-122.347246,47.576067]]]}},{"type":"Feature","properties":{"id":56,"area_m2":300,"px":3,"rank":66},"geometry":{"type":"Polygon","coordinates":[[[-122.349913,47.575452],[-122.349912,47.575542],[-122.349802,47.575557],[-122.349778,47.575631],[-122.349645,47.575631],[-122.349647,47.575451],[-122.349913,47.575452]]]}},{"type":"Feature","properties":{"id":59,"area_m2":300,"px":3,"rank":67},"geometry":{"type":"Polygon","coordinates":[[[-122.348855,47.574996],[-122.348854,47.575086],[-122.348744,47.575102],[-122.34872,47.575175],[-122.348587,47.575175],[-122.348589,47.574995],[-122.348855,47.574996]]]}},{"type":"Feature","properties":{"id":61,"area_m2":300,"px":3,"rank":68},"geometry":{"type":"Polygon","coordinates":[[[-122.351781,47.574923],[-122.35178,47.575013],[-122.351381,47.575011],[-122.351382,47.574921],[-122.351781,47.574923]]]}},{"type":"Feature","properties":{"id":66,"area_m2":300,"px":3,"rank":69},"geometry":{"type":"Polygon","coordinates":[[[-122.353786,47.574035],[-122.353785,47.574124],[-122.353702,47.574128],[-122.353655,47.574162],[-122.35365,47.574304],[-122.353517,47.574303],[-122.35352,47.574123],[-122.353629,47.574108],[-122.353654,47.574034],[-122.353786,47.574035]]]}}]}