{"type":"FeatureCollection","features":[{"type":"Feature","properties":{"id":19,"area_m2":1800,"px":18,"rank":1},"geometry":{"type":"Polygon","coordinates":[[[-122.34815,47.578232],[-122.348149,47.578322],[-122.348058,47.578327],[-122.348017,47.578364],[-122.348012,47.578591],[-122.347976,47.578633],[-122.348011,47.578681],[-122.34801,47.578771],[-122.347877,47.57877],[-122.347872,47.578713],[-122.347822,47.578682],[-122.347613,47.578678],[-122.347605,47.578527],[-122.347558,47.578501],[-122.347482,47.578498],[-122.347484,47.578318],[-122.347594,47.578303],[-122.347618,47.578229],[-122.34815,47.578232]]]}},{"type":"Feature","properties":{"id":30,"area_m2":1500,"px":15,"rank":2},"geometry":{"type":"Polygon","coordinates":[[[-122.348712,47.575537],[-122.348679,47.575583],[-122.348714,47.575625],[-122.348713,47.575715],[-122.348677,47.575763],[-122.348712,47.575805],[-122.348708,47.576075],[-122.348499,47.576076],[-122.348448,47.576107],[-122.348441,47.576164],[-122.348309,47.576163],[-122.34831,47.576073],[-122.348346,47.576031],[-122.348311,47.575983],[-122.348313,47.575803],[-122.348397,47.575799],[-122.34844,47.57577],[-122.348449,47.575534],[-122.348526,47.575532],[-122.348573,47.575506],[-122.348585,47.575355],[-122.348717,47.575356],[-122.348712,47.575537]]]}},{"type":"Feature","properties":{"id":31,"area_m2":1200,"px":12,"rank":3},"geometry":{"type":"Polygon","coordinates":[[[-122.347911,47.576071],[-122.34791,47.576161],[-122.347779,47.57616],[-122.347754,47.576086],[-122.347645,47.576069],[-122.347645,47.575748],[-122.3476,47.575713],[-122.347516,47.575709],[-122.3475,47.575548],[-122.347386,47.575528],[-122.347388,47.575348],[-122.347498,47.575333],[-122.347522,47.575259],[-122.347655,47.57526],[-122.347651,47.575666],[-122.347692,47.575703],[-122.347782,47.57571],[-122.347784,47.576037],[-122.347827,47.576066],[-122.347911,47.576071]]]}},{"type":"Feature","properties":{"id":40,"area_m2":1100,"px":11,"rank":4},"geometry":{"type":"Polygon","coordinates":[[[-122.352047,47.574925],[-122.352044,47.575194],[-122.35182,47.575199],[-122.351781,47.575231],[-122.351777,47.575283],[-122.351657,47.575306],[-122.351643,47.575372],[-122.35151,47.575371],[-122.351513,47.575101],[-122.351756,47.575087],[-122.351781,47.574923],[-122.352047,47.574925]]]}},{"type":"Feature","properties":{"id":46,"area_m2":1100,"px":11,"rank":5},"geometry":{"type":"Polygon","coordinates":[[[-122.347,47.574446],[-122.346999,47.574536],[-122.346908,47.574542],[-122.346867,47.574579],[-122.346863,47.574805],[-122.34673,47.574804],[-122.346724,47.574748],[-122.346674,47.574716],[-122.346465,47.574713],[-122.346467,47.574533],[-122.346577,47.574518],[-122.346601,47.574444],[-122.346721,47.57442],[-122.346735,47.574355],[-122.346868,47.574355],[-122.346891,47.57443],[-122.347,47.574446]]]}},{"type":"Feature","properties":{"id":13,"area_m2":900,"px":9,"rank":6},"geometry":{"type":"Polygon","coordinates":[[[-122.347859,47.58021],[-122.347854,47.580659],[-122.347721,47.580659],[-122.347718,47.580593],[-122.347675,47.580559],[-122.347456,47.580567],[-122.347458,47.580387],[-122.34766,47.580387],[-122.347721,47.58035],[-122.34772,47.580242],[-122.347677,47.580213],[-122.347594,47.580208],[-122.347595,47.580118],[-122.347727,47.580119],[-122.34775,47.580193],[-122.347859,47.58021]]]}},{"type":"Feature","properties":{"id":35,"area_m2":900,"px":9,"rank":7},"geometry":{"type":"Polygon","coordinates":[[[-122.350441,47.575725],[-122.350439,47.575905],[-122.350251,47.57589],[-122.350196,47.575906],[-122.350171,47.576084],[-122.350038,47.576083],[-122.350016,47.576009],[-122.349906,47.575992],[-122.349908,47.575902],[-122.349991,47.575898],[-122.350037,47.575865],[-122.350043,47.575723],[-122.350152,47.575708],[-122.350177,47.575634],[-122.35031,47.575635],[-122.350332,47.575709],[-122.350441,47.575725]]]}},{"type":"Feature","properties":{"id":9,"area_m2":800,"px":8,"rank":8},"geometry":{"type":"Polygon","coordinates":[[[-122.349422,47.582918],[-122.349419,47.583098],[-122.349177,47.583112],[-122.349151,47.583276],[-122.349018,47.583275],[-122.348996,47.583201],[-122.348886,47.583185],[-122.348888,47.583095],[-122.348997,47.583079],[-122.349022,47.583006],[-122.349141,47.582982],[-122.349156,47.582916],[-122.349422,47.582918]]]}},{"type":"Feature","properties":{"id":24,"area_m2":800,"px":8,"rank":9},"geometry":{"type":"Polygon","coordinates":[[[-122.353354,47.576731],[-122.353352,47.576911],[-122.353242,47.576927],[-122.353218,47.577001],[-122.353009,47.577002],[-122.352958,47.577032],[-122.352951,47.577089],[-122.352818,47.577088],[-122.352819,47.576998],[-122.352903,47.576995],[-122.352949,47.576961],[-122.352955,47.576819],[-122.353064,47.576804],[-122.353089,47.57673],[-122.353354,47.576731]]]}},{"type":"Feature","properties":{"id":36,"area_m2":800,"px":8,"rank":10},"geometry":{"type":"Polygon","coordinates":[[[-122.348183,47.575532],[-122.348182,47.575622],[-122.348085,47.575631],[-122.348049,47.575676],[-122.348061,47.575778],[-122.34818,47.575802],[-122.348178,47.575982],[-122.348045,47.575981],[-122.348022,47.575907],[-122.347913,47.575891],[-122.347914,47.575664],[-122.347874,47.575627],[-122.347783,47.57562],[-122.347786,47.57544],[-122.347918,47.575441],[-122.347924,47.575511],[-122.347972,47.575542],[-122.348183,47.575532]]]}},{"type":"Feature","properties":{"id":45,"area_m2":800,"px":8,"rank":11},"geometry":{"type":"Polygon","coordinates":[[[-122.352849,47.574569],[-122.352848,47.574659],[-122.352626,47.574659],[-122.35257,47.574687],[-122.352579,47.574927],[-122.352446,47.574927],[-122.352441,47.57487],[-122.35239,47.574839],[-122.352181,47.574835],[-122.352182,47.574745],[-122.352292,47.57473],[-122.352316,47.574656],[-122.352436,47.574633],[-122.35245,47.574567],[-122.352849,47.574569]]]}},{"type":"Feature","properties":{"id":15,"area_m2":700,"px":7,"rank":12},"geometry":{"type":"Polygon","coordinates":[[[-122.347729,47.57976],[-122.347696,47.579806],[-122.347731,47.579849],[-122.347729,47.580029],[-122.347596,47.580028],[-122.347588,47.579877],[-122.347541,47.57985],[-122.347465,47.579847],[-122.347468,47.579577],[-122.347734,47.579579],[-122.347729,47.57976]]]}},{"type":"Feature","properties":{"id":17,"area_m2":700,"px":7,"rank":13},"geometry":{"type":"Polygon","coordinates":[[[-122.347743,47.578859],[-122.347736,47.579399],[-122.347604,47.579398],[-122.347607,47.578992],[-122.347567,47.578955],[-122.347476,47.578948],[-122.347477,47.578858],[-122.347743,47.578859]]]}},{"type":"Feature","properties":{"id":18,"area_m2":700,"px":7,"rank":14},"geometry":{"type":"Polygon","coordinates":[[[-122.349343,47.578508],[-122.349341,47.578688],[-122.349243,47.578697],[-122.349207,47.578777],[-122.349087,47.578801],[-122.349072,47.578957],[-122.348939,47.578956],[-122.348941,47.578776],[-122.349032,47.57877],[-122.349073,47.578733],[-122.349077,47.578507],[-122.349343,47.578508]]]}},{"type":"Feature","properties":{"id":34,"area_m2":700,"px":7,"rank":15},"geometry":{"type":"Polygon","coordinates":[[[-122.351638,47.575732],[-122.351637,47.575822],[-122.351527,47.575837],[-122.351503,47.575911],[-122.351405,47.57592],[-122.351369,47.576],[-122.351254,47.576019],[-122.351235,47.57609],[-122.351102,47.576089],[-122.351103,47.575999],[-122.351194,47.575993],[-122.351235,47.575956],[-122.351239,47.57573],[-122.351638,47.575732]]]}},{"type":"Feature","properties":{"id":16,"area_m2":600,"px":6,"rank":16},"geometry":{"type":"Polygon","coordinates":[[[-122.347203,47.579486],[-122.347197,47.580026],[-122.347064,47.580025],[-122.347071,47.579485],[-122.347203,47.579486]]]}},{"type":"Feature","properties":{"id":26,"area_m2":600,"px":6,"rank":17},"geometry":{"type":"Polygon","coordinates":[[[-122.349235,47.576528],[-122.349234,47.576618],[-122.349143,47.576624],[-122.349102,47.576661],[-122.349096,47.576977],[-122.348963,47.576976],[-122.348969,47.576527],[-122.349235,47.576528]]]}},{"type":"Feature","properties":{"id":28,"area_m2":600,"px":6,"rank":18},"geometry":{"type":"Polygon","coordinates":[[[-122.348171,47.576522],[-122.348169,47.576702],[-122.34777,47.5767],[-122.347772,47.57652],[-122.348171,47.576522]]]}},{"type":"Feature","properties":{"id":37,"area_m2":600,"px":6,"rank":19},"geometry":{"type":"Polygon","coordinates":[[[-122.349247,47.575539],[-122.349244,47.575808],[-122.349111,47.575808],[-122.349105,47.575751],[-122.349055,47.57572],[-122.348846,47.575716],[-122.348847,47.575626],[-122.348957,47.575611],[-122.348981,47.575537],[-122.349247,47.575539]]]}},{"type":"Feature","properties":{"id":3,"area_m2":500,"px":5,"rank":20},"geometry":{"type":"Polygon","coordinates":[[[-122.346976,47.587043],[-122.346974,47.587223],[-122.346708,47.587221],[-122.346712,47.586951],[-122.346845,47.586952],[-122.346867,47.587026],[-122.346976,47.587043]]]}},{"type":"Feature","properties":{"id":4,"area_m2":500,"px":5,"rank":21},"geometry":{"type":"Polygon","coordinates":[[[-122.347774,47.586869],[-122.34774,47.586915],[-122.347775,47.586957],[-122.347773,47.587137],[-122.34764,47.587137],[-122.347633,47.586985],[-122.347586,47.586959],[-122.34751,47.586956],[-122.347512,47.586776],[-122.347778,47.586778],[-122.347774,47.586869]]]}},{"type":"Feature","properties":{"id":5,"area_m2":500,"px":5,"rank":22},"geometry":{"type":"Polygon","coordinates":[[[-122.34871,47.586693],[-122.348709,47.586783],[-122.348625,47.586786],[-122.348579,47.58682],[-122.348573,47.586962],[-122.348308,47.58696],[-122.348309,47.586871],[-122.348392,47.586867],[-122.348439,47.586833],[-122.348444,47.586691],[-122.34871,47.586693]]]}},{"type":"Feature","properties":{"id":6,"area_m2":500,"px":5,"rank":23},"geometry":{"type":"Polygon","coordinates":[[[-122.34991,47.58643],[-122.349908,47.58661],[-122.349798,47.586625],[-122.349774,47.586699],[-122.349641,47.586698],[-122.349644,47.586428],[-122.34991,47.58643]]]}},{"type":"Feature","properties":{"id":7,"area_m2":500,"px":5,"rank":24},"geometry":{"type":"Polygon","coordinates":[[[-122.348048,47.586419],[-122.348046,47.586599],[-122.347936,47.586614],[-122.347912,47.586688],[-122.347779,47.586687],[-122.347781,47.586508],[-122.347817,47.586465],[-122.347782,47.586418],[-122.347783,47.586328],[-122.347916,47.586328],[-122.347939,47.586403],[-122.348048,47.586419]]]}},{"type":"Feature","properties":{"id":51,"area_m2":500,"px":5,"rank":25},"geometry":{"type":"Polygon","coordinates":[[[-122.353259,47.573672],[-122.353258,47.573762],[-122.353127,47.573761],[-122.353122,47.573709],[-122.353084,47.573677],[-122.35286,47.573669],[-122.352863,47.573489],[-122.353128,47.573491],[-122.353136,47.573642],[-122.353183,47.573669],[-122.353259,47.573672]]]}},{"type":"Feature","properties":{"id":2,"area_m2":400,"px":4,"rank":26},"geometry":{"type":"Polygon","coordinates":[[[-122.348031,47.587769],[-122.34803,47.587859],[-122.347947,47.587862],[-122.3479,47.587896],[-122.347895,47.588038],[-122.347762,47.588037],[-122.347766,47.587767],[-122.348031,47.587769]]]}},{"type":"Feature","properties":{"id":10,"area_m2":400,"px":4,"rank":27},"geometry":{"type":"Polygon","coordinates":[[[-122.347824,47.583089],[-122.347822,47.583179],[-122.347613,47.58318],[-122.347562,47.58321],[-122.347555,47.583267],[-122.347423,47.583266],[-122.347425,47.583086],[-122.347824,47.583089]]]}},{"type":"Feature","properties":{"id":11,"area_m2":400,"px":4,"rank":28},"geometry":{"type":"Polygon","coordinates":[[[-122.347302,47.582276],[-122.347301,47.582366],[-122.347217,47.582369],[-122.347171,47.582403],[-122.347165,47.582545],[-122.347033,47.582544],[-122.347036,47.582274],[-122.347302,47.582276]]]}},{"type":"Feature","properties":{"id":20,"area_m2":400,"px":4,"rank":29},"geometry":{"type":"Polygon","coordinates":[[[-122.347888,47.57787],[-122.347886,47.57805],[-122.347776,47.578065],[-122.347752,47.578139],[-122.347486,47.578138],[-122.347487,47.578048],[-122.347681,47.578049],[-122.34774,47.578025],[-122.347756,47.57787],[-122.347888,47.57787]]]}},{"type":"Feature","properties":{"id":22,"area_m2":400,"px":4,"rank":30},"geometry":{"type":"Polygon","coordinates":[[[-122.351749,47.577532],[-122.351748,47.577622],[-122.351638,47.577637],[-122.351614,47.577711],[-122.351348,47.57771],[-122.351349,47.57762],[-122.351459,47.577605],[-122.351483,47.577531],[-122.351749,47.577532]]]}},{"type":"Feature","properties":{"id":23,"area_m2":400,"px":4,"rank":31},"geometry":{"type":"Polygon","coordinates":[[[-122.348164,47.577062],[-122.348162,47.577242],[-122.348029,47.577241],[-122.348007,47.577167],[-122.347897,47.57715],[-122.3479,47.576971],[-122.348032,47.576971],[-122.348055,47.577046],[-122.348164,47.577062]]]}},{"type":"Feature","properties":{"id":27,"area_m2":400,"px":4,"rank":32},"geometry":{"type":"Polygon","coordinates":[[[-122.3499,47.576532],[-122.349898,47.576622],[-122.349789,47.576637],[-122.349764,47.576711],[-122.349632,47.57671],[-122.349635,47.576441],[-122.349768,47.576441],[-122.34979,47.576516],[-122.3499,47.576532]]]}},{"type":"Feature","properties":{"id":29,"area_m2":400,"px":4,"rank":33},"geometry":{"type":"Polygon","coordinates":[[[-122.347245,47.576157],[-122.347241,47.576427],[-122.346976,47.576425],[-122.346977,47.576335],[-122.34706,47.576332],[-122.347107,47.576298],[-122.347112,47.576156],[-122.347245,47.576157]]]}},{"type":"Feature","properties":{"id":32,"area_m2":400,"px":4,"rank":34},"geometry":{"type":"Polygon","coordinates":[[[-122.346716,47.575884],[-122.346714,47.576064],[-122.346604,47.576079],[-122.34658,47.576153],[-122.346447,47.576152],[-122.346449,47.575973],[-122.346559,47.575957],[-122.346583,47.575883],[-122.346716,47.575884]]]}},{"type":"Feature","properties":{"id":38,"area_m2":400,"px":4,"rank":35},"geometry":{"type":"Polygon","coordinates":[[[-122.353102,47.57565],[-122.353101,47.57574],[-122.352835,47.575739],[-122.352838,47.575469],[-122.352971,47.57547],[-122.352979,47.575621],[-122.353026,47.575647],[-122.353102,47.57565]]]}},{"type":"Feature","properties":{"id":42,"area_m2":400,"px":4,"rank":36},"geometry":{"type":"Polygon","coordinates":[[[-122.350716,47.575007],[-122.350715,47.575097],[-122.350631,47.575101],[-122.350585,47.575134],[-122.35058,47.575276],[-122.350447,47.575275],[-122.35045,47.575005],[-122.350716,47.575007]]]}},{"type":"Feature","properties":{"id":47,"area_m2":400,"px":4,"rank":37},"geometry":{"type":"Polygon","coordinates":[[[-122.34873,47.574366],[-122.348727,47.574546],[-122.348462,47.574544],[-122.348464,47.574364],[-122.34873,47.574366]]]}},{"type":"Feature","properties":{"id":1,"area_m2":300,"px":3,"rank":38},"geometry":{"type":"Polygon","coordinates":[[[-122.348557,47.588312],[-122.348553,47.588581],[-122.34842,47.588581],[-122.348424,47.588311],[-122.348557,47.588312]]]}},{"type":"Feature","properties":{"id":8,"area_m2":300,"px":3,"rank":39},"geometry":{"type":"Polygon","coordinates":[[[-122.349141,47.584086],[-122.34914,47.584176],[-122.34903,47.584191],[-122.349006,47.584265],[-122.348873,47.584264],[-122.348875,47.584084],[-122.349141,47.584086]]]}},{"type":"Feature","properties":{"id":12,"area_m2":300,"px":3,"rank":40},"geometry":{"type":"Polygon","coordinates":[[[-122.349563,47.582199],[-122.349561,47.582379],[-122.349451,47.582394],[-122.349427,47.582468],[-122.349294,47.582467],[-122.349295,47.582377],[-122.349379,47.582374],[-122.349425,47.58234],[-122.349431,47.582198],[-122.349563,47.582199]]]}},{"type":"Feature","properties":{"id":14,"area_m2":300,"px":3,"rank":41},"geometry":{"type":"Polygon","coordinates":[[[-122.347326,47.580297],[-122.347325,47.580386],[-122.347059,47.580385],[-122.347062,47.580205],[-122.347194,47.580206],[-122.347217,47.58028],[-122.347326,47.580297]]]}},{"type":"Feature","properties":{"id":21,"area_m2":300,"px":3,"rank":42},"geometry":{"type":"Polygon","coordinates":[[[-122.347758,47.57769],[-122.347756,47.577779],[-122.347673,47.577783],[-122.347627,47.577817],[-122.347621,47.577959],[-122.347488,47.577958],[-122.347491,47.577778],[-122.3476,47.577763],[-122.347625,47.577689],[-122.347758,47.57769]]]}},{"type":"Feature","properties":{"id":25,"area_m2":300,"px":3,"rank":43},"geometry":{"type":"Polygon","coordinates":[[[-122.347636,47.576789],[-122.347632,47.577059],[-122.3475,47.577058],[-122.347503,47.576788],[-122.347636,47.576789]]]}},{"type":"Feature","properties":{"id":33,"area_m2":300,"px":3,"rank":44},"geometry":{"type":"Polygon","coordinates":[[[-122.346316,47.575972],[-122.346315,47.576062],[-122.346205,47.576077],[-122.346181,47.576151],[-122.346048,47.57615],[-122.346051,47.57597],[-122.346316,47.575972]]]}},{"type":"Feature","properties":{"id":39,"area_m2":300,"px":3,"rank":45},"geometry":{"type":"Polygon","coordinates":[[[-122.352441,47.575287],[-122.352438,47.575556],[-122.352305,47.575556],[-122.352309,47.575286],[-122.352441,47.575287]]]}},{"type":"Feature","properties":{"id":41,"area_m2":300,"px":3,"rank":46},"geometry":{"type":"Polygon","coordinates":[[[-122.349251,47.575179],[-122.349249,47.575358],[-122.349116,47.575358],[-122.349094,47.575283],[-122.348985,47.575267],[-122.348986,47.575177],[-122.349251,47.575179]]]}},{"type":"Feature","properties":{"id":43,"area_m2":300,"px":3,"rank":47},"geometry":{"type":"Polygon","coordinates":[[[-122.347923,47.575081],[-122.347922,47.575171],[-122.347656,47.575169],[-122.347658,47.57499],[-122.347791,47.57499],[-122.347814,47.575065],[-122.347923,47.575081]]]}},{"type":"Feature","properties":{"id":44,"area_m2":300,"px":3,"rank":48},"geometry":{"type":"Polygon","coordinates":[[[-122.346729,47.574894],[-122.346726,47.575074],[-122.346461,47.575073],[-122.346462,47.574983],[-122.346571,47.574968],[-122.346596,47.574894],[-122.346729,47.574894]]]}},{"type":"Feature","properties":{"id":48,"area_m2":300,"px":3,"rank":49},"geometry":{"type":"Polygon","coordinates":[[[-122.34727,47.574088],[-122.347269,47.574177],[-122.34716,47.574193],[-122.347135,47.574267],[-122.347002,47.574266],[-122.347005,47.574086],[-122.34727,47.574088]]]}},{"type":"Feature","properties":{"id":49,"area_m2":300,"px":3,"rank":50},"geometry":{"type":"Polygon","coordinates":[[[-122.35206,47.573845],[-122.352057,47.574115],[-122.351924,47.574114],[-122.351927,47.573844],[-122.35206,47.573845]]]}},{"type":"Feature","properties":{"id":50,"area_m2":300,"px":3,"rank":51},"geometry":{"type":"Polygon","coordinates":[[[-122.352594,47.573668],[-122.352593,47.573758],[-122.352483,47.573773],[-122.352459,47.573847],[-122.352193,47.573845],[-122.352194,47.573756],[-122.352404,47.573754],[-122.352455,47.573724],[-122.352462,47.573667],[-122.352594,47.573668]]]}}]}