{"type":"FeatureCollection","features":[{"type":"Feature","properties":{"id":3,"area_m2":600,"px":6,"rank":1},"geometry":{"type":"Polygon","coordinates":[[[-122.347901,47.587588],[-122.347897,47.587858],[-122.347764,47.587857],[-122.347742,47.587783],[-122.347633,47.587766],[-122.347634,47.587676],[-122.34767,47.587634],[-122.347635,47.587586],[-122.347637,47.587407],[-122.34777,47.587407],[-122.347778,47.587559],[-122.347824,47.587585],[-122.347901,47.587588]]]}},{"type":"Feature","properties":{"id":1,"area_m2":400,"px":4,"rank":2},"geometry":{"type":"Polygon","coordinates":[[[-122.348019,47.588758],[-122.348017,47.588938],[-122.347751,47.588937],[-122.347753,47.588757],[-122.348019,47.588758]]]}},{"type":"Feature","properties":{"id":2,"area_m2":300,"px":3,"rank":3},"geometry":{"type":"Polygon","coordinates":[[[-122.348556,47.588402],[-122.348552,47.588671],[-122.348419,47.588671],[-122.348423,47.588401],[-122.348556,47.588402]]]}}]}