{"type":"FeatureCollection","features":[{"type":"Feature","properties":{"id":37,"area_m2":1600,"px":16,"rank":1},"geometry":{"type":"Polygon","coordinates":[[[-122.349369,47.576439],[-122.349368,47.576529],[-122.349284,47.576533],[-122.349238,47.576567],[-122.349232,47.576708],[-122.349142,47.576714],[-122.349099,47.576756],[-122.3491,47.576939],[-122.349146,47.576973],[-122.349229,47.576978],[-122.349228,47.577068],[-122.348962,47.577066],[-122.34894,47.576992],[-122.34883,47.576976],[-122.348833,47.576796],[-122.34893,47.576787],[-122.348966,47.576743],[-122.348954,47.576641],[-122.348835,47.576616],[-122.348836,47.576526],[-122.348933,47.576524],[-122.348981,47.576497],[-122.348971,47.576347],[-122.349237,47.576348],[-122.349259,47.576423],[-122.349369,47.576439]]]}},{"type":"Feature","properties":{"id":1,"area_m2":1200,"px":12,"rank":2},"geometry":{"type":"Polygon","coordinates":[[[-122.348014,47.58894],[-122.347981,47.588986],[-122.348016,47.589028],[-122.348015,47.589118],[-122.347905,47.589133],[-122.347881,47.589207],[-122.347615,47.589206],[-122.347617,47.589026],[-122.347693,47.589024],[-122.347741,47.588998],[-122.347752,47.588847],[-122.347787,47.58881],[-122.347753,47.588757],[-122.347757,47.588487],[-122.347889,47.588488],[-122.347888,47.588714],[-122.347928,47.588752],[-122.348019,47.588758],[-122.348014,47.58894]]]}},{"type":"Feature","properties":{"id":23,"area_m2":1200,"px":12,"rank":3},"geometry":{"type":"Polygon","coordinates":[[[-122.34733,47.580027],[-122.347324,47.580476],[-122.347248,47.580478],[-122.3472,47.580504],[-122.347189,47.580656],[-122.347056,47.580655],[-122.347064,47.580025],[-122.34733,47.580027]]]}},{"type":"Feature","properties":{"id":45,"area_m2":1200,"px":12,"rank":4},"geometry":{"type":"Polygon","coordinates":[[[-122.350573,47.575816],[-122.350572,47.575906],[-122.350462,47.575921],[-122.350438,47.575995],[-122.350172,47.575994],[-122.35016,47.575928],[-122.350094,47.575903],[-122.349943,47.575911],[-122.349906,47.575992],[-122.349773,47.575991],[-122.349776,47.575811],[-122.349885,47.575796],[-122.34991,47.575722],[-122.350308,47.575725],[-122.350311,47.575776],[-122.35035,47.575808],[-122.350573,47.575816]]]}},{"type":"Feature","properties":{"id":17,"area_m2":1100,"px":11,"rank":5},"geometry":{"type":"Polygon","coordinates":[[[-122.348093,47.58282],[-122.348092,47.58291],[-122.347961,47.582909],[-122.347936,47.582835],[-122.34778,47.582796],[-122.347694,47.582818],[-122.347428,47.582816],[-122.347431,47.582547],[-122.347643,47.582559],[-122.347692,47.582528],[-122.347699,47.582458],[-122.347831,47.582459],[-122.347854,47.582533],[-122.347963,47.58255],[-122.34797,47.582791],[-122.348017,47.582817],[-122.348093,47.58282]]]}},{"type":"Feature","properties":{"id":51,"area_m2":1100,"px":11,"rank":6},"geometry":{"type":"Polygon","coordinates":[[[-122.350848,47.575098],[-122.350846,47.575278],[-122.350736,47.575293],[-122.350712,47.575367],[-122.350377,47.575366],[-122.350322,47.575393],[-122.350312,47.575454],[-122.350046,47.575453],[-122.350047,47.575363],[-122.350241,47.575364],[-122.3503,47.57534],[-122.350315,47.575185],[-122.350539,47.57518],[-122.350578,47.575148],[-122.350582,47.575096],[-122.350848,47.575098]]]}},{"type":"Feature","properties":{"id":6,"area_m2":1000,"px":10,"rank":7},"geometry":{"type":"Polygon","coordinates":[[[-122.348039,47.587139],[-122.348034,47.587589],[-122.347768,47.587587],[-122.347745,47.587513],[-122.347636,47.587496],[-122.347637,47.587407],[-122.347713,47.587405],[-122.347761,47.587379],[-122.347772,47.587227],[-122.347882,47.587212],[-122.347906,47.587138],[-122.348039,47.587139]]]}},{"type":"Feature","properties":{"id":16,"area_m2":900,"px":9,"rank":8},"geometry":{"type":"Polygon","coordinates":[[[-122.349287,47.583007],[-122.349285,47.583187],[-122.349188,47.583195],[-122.349151,47.583276],[-122.349075,47.583278],[-122.349027,47.583304],[-122.349015,47.583545],[-122.348882,47.583544],[-122.348888,47.583095],[-122.349097,47.583094],[-122.349148,47.583063],[-122.349155,47.583006],[-122.349287,47.583007]]]}},{"type":"Feature","properties":{"id":34,"area_m2":900,"px":9,"rank":9},"geometry":{"type":"Polygon","coordinates":[[[-122.346965,47.577057],[-122.346932,47.577103],[-122.346967,47.577145],[-122.346965,47.577235],[-122.346833,47.577234],[-122.346827,47.577178],[-122.346784,47.577148],[-122.346617,47.577147],[-122.346569,47.577186],[-122.346565,47.577323],[-122.346456,47.577338],[-122.346431,47.577412],[-122.346299,47.577411],[-122.346301,47.577231],[-122.34641,47.577216],[-122.346435,47.577142],[-122.346532,47.577134],[-122.346569,47.577053],[-122.346684,47.577034],[-122.346703,47.576964],[-122.346969,47.576965],[-122.346965,47.577057]]]}},{"type":"Feature","properties":{"id":48,"area_m2":900,"px":9,"rank":10},"geometry":{"type":"Polygon","coordinates":[[[-122.351111,47.575369],[-122.35111,47.575459],[-122.351012,47.575468],[-122.350975,47.575548],[-122.350892,47.575552],[-122.350848,47.575581],[-122.350839,47.575817],[-122.350706,47.575817],[-122.350684,47.575742],[-122.350575,47.575726],[-122.350577,47.575546],[-122.350686,47.575531],[-122.350711,47.575457],[-122.350831,47.575433],[-122.350845,47.575368],[-122.351111,47.575369]]]}},{"type":"Feature","properties":{"id":19,"area_m2":800,"px":8,"rank":11},"geometry":{"type":"Polygon","coordinates":[[[-122.349301,47.581927],[-122.3493,47.582017],[-122.349216,47.582021],[-122.34917,47.582055],[-122.349164,47.582196],[-122.348899,47.582195],[-122.348902,47.581925],[-122.349012,47.58191],[-122.349036,47.581836],[-122.349169,47.581837],[-122.349191,47.581911],[-122.349301,47.581927]]]}},{"type":"Feature","properties":{"id":32,"area_m2":800,"px":8,"rank":12},"geometry":{"type":"Polygon","coordinates":[[[-122.347891,47.57769],[-122.347889,47.57778],[-122.34778,47.577795],[-122.347755,47.577869],[-122.347636,47.577893],[-122.347621,47.577959],[-122.347488,47.577958],[-122.347493,47.577598],[-122.347759,47.5776],[-122.347781,47.577674],[-122.347891,47.57769]]]}},{"type":"Feature","properties":{"id":57,"area_m2":800,"px":8,"rank":13},"geometry":{"type":"Polygon","coordinates":[[[-122.352597,47.573488],[-122.352595,47.573578],[-122.352512,47.573582],[-122.352466,47.573615],[-122.35246,47.573757],[-122.352377,47.573761],[-122.352333,47.57379],[-122.352325,47.573936],[-122.352215,47.573951],[-122.352191,47.574025],[-122.352071,47.574049],[-122.352057,47.574115],[-122.351924,47.574114],[-122.351902,47.57404],[-122.351792,47.574023],[-122.351793,47.573933],[-122.351926,47.573934],[-122.351997,47.573959],[-122.352163,47.573923],[-122.352192,47.573887],[-122.352194,47.573756],[-122.352278,47.573752],[-122.352324,47.573718],[-122.35233,47.573576],[-122.352439,47.573561],[-122.352464,47.573487],[-122.352597,47.573488]]]}},{"type":"Feature","properties":{"id":33,"area_m2":700,"px":7,"rank":14},"geometry":{"type":"Polygon","coordinates":[[[-122.35255,47.577267],[-122.352549,47.577357],[-122.352439,47.577372],[-122.352415,47.577446],[-122.352191,47.577451],[-122.352152,47.577483],[-122.352148,47.577534],[-122.352028,47.577558],[-122.352014,47.577624],[-122.351881,47.577623],[-122.351883,47.577443],[-122.352114,47.577435],[-122.35215,47.577355],[-122.35227,47.577331],[-122.352284,47.577265],[-122.35255,47.577267]]]}},{"type":"Feature","properties":{"id":54,"area_m2":700,"px":7,"rank":15},"geometry":{"type":"Polygon","coordinates":[[[-122.354046,47.574576],[-122.354042,47.574846],[-122.353777,47.574844],[-122.353754,47.57477],[-122.353645,47.574753],[-122.353646,47.574664],[-122.353756,47.574648],[-122.35378,47.574574],[-122.354046,47.574576]]]}},{"type":"Feature","properties":{"id":2,"area_m2":600,"px":6,"rank":16},"geometry":{"type":"Polygon","coordinates":[[[-122.348818,47.588673],[-122.348815,47.588943],[-122.348705,47.588958],[-122.348681,47.589032],[-122.348548,47.589031],[-122.348549,47.588941],[-122.348647,47.588933],[-122.348683,47.588888],[-122.34867,47.588786],[-122.348551,47.588761],[-122.348553,47.588582],[-122.348686,47.588582],[-122.348709,47.588657],[-122.348818,47.588673]]]}},{"type":"Feature","properties":{"id":9,"area_m2":600,"px":6,"rank":17},"geometry":{"type":"Polygon","coordinates":[[[-122.347788,47.585968],[-122.347784,47.586238],[-122.347519,47.586236],[-122.347522,47.585966],[-122.347788,47.585968]]]}},{"type":"Feature","properties":{"id":14,"area_m2":600,"px":6,"rank":18},"geometry":{"type":"Polygon","coordinates":[[[-122.349272,47.584267],[-122.349271,47.584356],[-122.349161,47.584372],[-122.349137,47.584446],[-122.349004,47.584445],[-122.348981,47.584371],[-122.348872,47.584354],[-122.348874,47.584174],[-122.34914,47.584176],[-122.349162,47.58425],[-122.349272,47.584267]]]}},{"type":"Feature","properties":{"id":22,"area_m2":600,"px":6,"rank":19},"geometry":{"type":"Polygon","coordinates":[[[-122.347983,47.58093],[-122.347982,47.58102],[-122.347899,47.581024],[-122.347852,47.581058],[-122.347847,47.581199],[-122.347581,47.581198],[-122.347583,47.581018],[-122.347693,47.581003],[-122.347718,47.580929],[-122.347983,47.58093]]]}},{"type":"Feature","properties":{"id":28,"area_m2":600,"px":6,"rank":20},"geometry":{"type":"Polygon","coordinates":[[[-122.347878,47.57868],[-122.347876,47.57886],[-122.34761,47.578858],[-122.347611,47.578768],[-122.347647,47.578716],[-122.347595,47.578608],[-122.347481,47.578588],[-122.347483,47.578408],[-122.347616,47.578409],[-122.347627,47.578565],[-122.347746,47.578589],[-122.347781,47.57867],[-122.347878,47.57868]]]}},{"type":"Feature","properties":{"id":40,"area_m2":600,"px":6,"rank":21},"geometry":{"type":"Polygon","coordinates":[[[-122.348036,47.576701],[-122.348035,47.576791],[-122.347769,47.57679],[-122.347766,47.576738],[-122.347728,47.576706],[-122.347504,47.576698],[-122.347482,47.576624],[-122.347372,47.576608],[-122.347373,47.576518],[-122.347639,47.576519],[-122.347652,47.576585],[-122.347771,47.57661],[-122.347806,47.576691],[-122.348036,47.576701]]]}},{"type":"Feature","properties":{"id":41,"area_m2":600,"px":6,"rank":22},"geometry":{"type":"Polygon","coordinates":[[[-122.354021,47.576555],[-122.354019,47.576735],[-122.35362,47.576733],[-122.353623,47.576553],[-122.354021,47.576555]]]}},{"type":"Feature","properties":{"id":39,"area_m2":600,"px":6,"rank":23},"geometry":{"type":"Polygon","coordinates":[[[-122.3499,47.576532],[-122.349897,47.576712],[-122.349688,47.576713],[-122.349637,47.576744],[-122.34963,47.5768],[-122.349497,47.5768],[-122.349499,47.57671],[-122.349589,47.576704],[-122.34963,47.576667],[-122.349635,47.576441],[-122.349768,47.576441],[-122.34979,47.576516],[-122.3499,47.576532]]]}},{"type":"Feature","properties":{"id":7,"area_m2":500,"px":5,"rank":24},"geometry":{"type":"Polygon","coordinates":[[[-122.347783,47.586328],[-122.347781,47.586508],[-122.347671,47.586523],[-122.347647,47.586597],[-122.347514,47.586596],[-122.347517,47.586326],[-122.347783,47.586328]]]}},{"type":"Feature","properties":{"id":11,"area_m2":500,"px":5,"rank":25},"geometry":{"type":"Polygon","coordinates":[[[-122.347802,47.584798],[-122.3478,47.584978],[-122.34769,47.584993],[-122.347666,47.585067],[-122.347533,47.585066],[-122.347568,47.584918],[-122.347513,47.584812],[-122.347404,47.584796],[-122.347405,47.584706],[-122.347537,47.584707],[-122.347543,47.584763],[-122.347593,47.584795],[-122.347802,47.584798]]]}},{"type":"Feature","properties":{"id":15,"area_m2":500,"px":5,"rank":26},"geometry":{"type":"Polygon","coordinates":[[[-122.349144,47.583816],[-122.349143,47.583906],[-122.349034,47.583921],[-122.349009,47.583995],[-122.348876,47.583994],[-122.348881,47.583635],[-122.349014,47.583635],[-122.349021,47.583787],[-122.349068,47.583813],[-122.349144,47.583816]]]}},{"type":"Feature","properties":{"id":42,"area_m2":500,"px":5,"rank":27},"geometry":{"type":"Polygon","coordinates":[[[-122.346715,47.575974],[-122.346711,47.576334],[-122.346578,47.576333],[-122.346579,47.576107],[-122.346539,47.576069],[-122.346448,47.576062],[-122.346449,47.575973],[-122.346715,47.575974]]]}},{"type":"Feature","properties":{"id":4,"area_m2":400,"px":4,"rank":28},"geometry":{"type":"Polygon","coordinates":[[[-122.347765,47.587767],[-122.347762,47.588037],[-122.347629,47.588036],[-122.347607,47.587962],[-122.347497,47.587946],[-122.347498,47.587856],[-122.347608,47.58784],[-122.347633,47.587767],[-122.347765,47.587767]]]}},{"type":"Feature","properties":{"id":5,"area_m2":400,"px":4,"rank":29},"geometry":{"type":"Polygon","coordinates":[[[-122.347233,47.587764],[-122.347231,47.587944],[-122.346965,47.587943],[-122.346968,47.587763],[-122.347233,47.587764]]]}},{"type":"Feature","properties":{"id":24,"area_m2":400,"px":4,"rank":30},"geometry":{"type":"Polygon","coordinates":[[[-122.347729,47.580029],[-122.347726,47.580209],[-122.347461,47.580207],[-122.347463,47.580027],[-122.347729,47.580029]]]}},{"type":"Feature","properties":{"id":25,"area_m2":400,"px":4,"rank":31},"geometry":{"type":"Polygon","coordinates":[[[-122.348933,47.579406],[-122.348929,47.579766],[-122.348796,47.579765],[-122.3488,47.579405],[-122.348933,47.579406]]]}},{"type":"Feature","properties":{"id":26,"area_m2":400,"px":4,"rank":32},"geometry":{"type":"Polygon","coordinates":[[[-122.347741,47.579039],[-122.347739,47.579219],[-122.347473,47.579217],[-122.347475,47.579038],[-122.347741,47.579039]]]}},{"type":"Feature","properties":{"id":29,"area_m2":400,"px":4,"rank":33},"geometry":{"type":"Polygon","coordinates":[[[-122.347346,47.578677],[-122.347344,47.578857],[-122.347078,47.578855],[-122.347081,47.578675],[-122.347346,47.578677]]]}},{"type":"Feature","properties":{"id":27,"area_m2":400,"px":4,"rank":34},"geometry":{"type":"Polygon","coordinates":[[[-122.354528,47.578628],[-122.354523,47.578987],[-122.354391,47.578987],[-122.354395,47.578627],[-122.354528,47.578628]]]}},{"type":"Feature","properties":{"id":30,"area_m2":400,"px":4,"rank":35},"geometry":{"type":"Polygon","coordinates":[[[-122.347887,47.57796],[-122.347886,47.57805],[-122.347795,47.578056],[-122.347754,47.578093],[-122.34775,47.578319],[-122.347617,47.578318],[-122.34762,47.578049],[-122.34773,47.578033],[-122.347754,47.577959],[-122.347887,47.57796]]]}},{"type":"Feature","properties":{"id":31,"area_m2":400,"px":4,"rank":36},"geometry":{"type":"Polygon","coordinates":[[[-122.35161,47.577981],[-122.351608,47.578161],[-122.351342,47.57816],[-122.351345,47.57798],[-122.35161,47.577981]]]}},{"type":"Feature","properties":{"id":44,"area_m2":400,"px":4,"rank":37},"geometry":{"type":"Polygon","coordinates":[[[-122.34871,47.575985],[-122.348708,47.576075],[-122.348443,47.576074],[-122.34842,47.575999],[-122.348311,47.575983],[-122.348312,47.575893],[-122.348578,47.575895],[-122.3486,47.575969],[-122.34871,47.575985]]]}},{"type":"Feature","properties":{"id":49,"area_m2":400,"px":4,"rank":38},"geometry":{"type":"Polygon","coordinates":[[[-122.349246,47.575629],[-122.349244,47.575808],[-122.349111,47.575808],[-122.349105,47.575751],[-122.349055,47.57572],[-122.348846,47.575716],[-122.348847,47.575626],[-122.349246,47.575629]]]}},{"type":"Feature","properties":{"id":47,"area_m2":400,"px":4,"rank":39},"geometry":{"type":"Polygon","coordinates":[[[-122.353102,47.57565],[-122.353101,47.57574],[-122.352991,47.575755],[-122.352967,47.575829],[-122.352834,47.575829],[-122.352837,47.575559],[-122.35297,47.57556],[-122.352992,47.575634],[-122.353102,47.57565]]]}},{"type":"Feature","properties":{"id":50,"area_m2":400,"px":4,"rank":40},"geometry":{"type":"Polygon","coordinates":[[[-122.347255,47.575347],[-122.347251,47.575617],[-122.347119,47.575616],[-122.347096,47.575542],[-122.346987,47.575526],[-122.346988,47.575436],[-122.347098,47.57542],[-122.347122,47.575346],[-122.347255,47.575347]]]}},{"type":"Feature","properties":{"id":52,"area_m2":400,"px":4,"rank":41},"geometry":{"type":"Polygon","coordinates":[[[-122.352047,47.574925],[-122.352045,47.575104],[-122.351779,47.575103],[-122.351781,47.574923],[-122.352047,47.574925]]]}},{"type":"Feature","properties":{"id":53,"area_m2":400,"px":4,"rank":42},"geometry":{"type":"Polygon","coordinates":[[[-122.353644,47.574844],[-122.353642,47.574933],[-122.353308,47.574933],[-122.353253,47.57496],[-122.353242,47.575021],[-122.35311,47.57502],[-122.353111,47.574931],[-122.35322,47.574915],[-122.353245,47.574841],[-122.353644,47.574844]]]}},{"type":"Feature","properties":{"id":55,"area_m2":400,"px":4,"rank":43},"geometry":{"type":"Polygon","coordinates":[[[-122.34873,47.574366],[-122.348727,47.574546],[-122.348462,47.574544],[-122.348464,47.574364],[-122.34873,47.574366]]]}},{"type":"Feature","properties":{"id":60,"area_m2":400,"px":4,"rank":44},"geometry":{"type":"Polygon","coordinates":[[[-122.348355,47.572384],[-122.348353,47.572564],[-122.348087,47.572563],[-122.34809,47.572383],[-122.348355,47.572384]]]}},{"type":"Feature","properties":{"id":3,"area_m2":300,"px":3,"rank":45},"geometry":{"type":"Polygon","coordinates":[[[-122.348417,47.588851],[-122.348416,47.588941],[-122.34815,47.588939],[-122.348152,47.588759],[-122.348285,47.58876],[-122.348308,47.588834],[-122.348417,47.588851]]]}},{"type":"Feature","properties":{"id":8,"area_m2":300,"px":3,"rank":46},"geometry":{"type":"Polygon","coordinates":[[[-122.349115,47.586155],[-122.349113,47.586335],[-122.34898,47.586334],[-122.348958,47.58626],[-122.348848,47.586244],[-122.34885,47.586154],[-122.349115,47.586155]]]}},{"type":"Feature","properties":{"id":10,"area_m2":300,"px":3,"rank":47},"geometry":{"type":"Polygon","coordinates":[[[-122.349258,47.585346],[-122.349257,47.585436],[-122.349174,47.58544],[-122.349127,47.585474],[-122.349122,47.585615],[-122.348989,47.585615],[-122.348992,47.585435],[-122.349101,47.58542],[-122.349126,47.585346],[-122.349258,47.585346]]]}},{"type":"Feature","properties":{"id":12,"area_m2":300,"px":3,"rank":48},"geometry":{"type":"Polygon","coordinates":[[[-122.348467,47.584802],[-122.348465,47.584982],[-122.348332,47.584981],[-122.34831,47.584907],[-122.3482,47.58489],[-122.348201,47.5848],[-122.348467,47.584802]]]}},{"type":"Feature","properties":{"id":13,"area_m2":300,"px":3,"rank":49},"geometry":{"type":"Polygon","coordinates":[[[-122.349267,47.584627],[-122.349266,47.584716],[-122.349,47.584715],[-122.348978,47.584641],[-122.348869,47.584624],[-122.34887,47.584534],[-122.349002,47.584535],[-122.349008,47.584592],[-122.349058,47.584623],[-122.349267,47.584627]]]}},{"type":"Feature","properties":{"id":18,"area_m2":300,"px":3,"rank":50},"geometry":{"type":"Polygon","coordinates":[[[-122.349163,47.582286],[-122.349161,47.582466],[-122.348895,47.582465],[-122.348896,47.582375],[-122.349006,47.58236],[-122.349031,47.582286],[-122.349163,47.582286]]]}},{"type":"Feature","properties":{"id":20,"area_m2":300,"px":3,"rank":51},"geometry":{"type":"Polygon","coordinates":[[[-122.348102,47.5821],[-122.348101,47.58219],[-122.347835,47.582189],[-122.347837,47.582009],[-122.34797,47.58201],[-122.347992,47.582084],[-122.348102,47.5821]]]}},{"type":"Feature","properties":{"id":21,"area_m2":300,"px":3,"rank":52},"geometry":{"type":"Polygon","coordinates":[[[-122.347841,47.581649],[-122.347838,47.581919],[-122.347705,47.581918],[-122.347709,47.581648],[-122.347841,47.581649]]]}},{"type":"Feature","properties":{"id":35,"area_m2":300,"px":3,"rank":53},"geometry":{"type":"Polygon","coordinates":[[[-122.351623,47.576992],[-122.35162,47.577171],[-122.351355,47.57717],[-122.351356,47.57708],[-122.351465,47.577065],[-122.35149,47.576991],[-122.351623,47.576992]]]}},{"type":"Feature","properties":{"id":36,"area_m2":300,"px":3,"rank":54},"geometry":{"type":"Polygon","coordinates":[[[-122.353219,47.576911],[-122.353218,47.577001],[-122.353108,47.577016],[-122.353084,47.57709],[-122.352951,47.577089],[-122.352953,47.576909],[-122.353219,47.576911]]]}},{"type":"Feature","properties":{"id":38,"area_m2":300,"px":3,"rank":55},"geometry":{"type":"Polygon","coordinates":[[[-122.347768,47.57688],[-122.347767,47.57697],[-122.347501,47.576968],[-122.347503,47.576788],[-122.347636,47.576789],[-122.347658,47.576863],[-122.347768,47.57688]]]}},{"type":"Feature","properties":{"id":43,"area_m2":300,"px":3,"rank":56},"geometry":{"type":"Polygon","coordinates":[[[-122.347778,47.57607],[-122.347777,47.57616],[-122.347511,47.576158],[-122.347513,47.575979],[-122.347646,47.575979],[-122.347668,47.576054],[-122.347778,47.57607]]]}},{"type":"Feature","properties":{"id":46,"area_m2":300,"px":3,"rank":57},"geometry":{"type":"Polygon","coordinates":[[[-122.351771,47.575733],[-122.35177,47.575823],[-122.35166,47.575838],[-122.351636,47.575912],[-122.351503,47.575911],[-122.351505,47.575731],[-122.351771,47.575733]]]}},{"type":"Feature","properties":{"id":56,"area_m2":300,"px":3,"rank":58},"geometry":{"type":"Polygon","coordinates":[[[-122.353919,47.574035],[-122.353917,47.574215],[-122.353651,47.574214],[-122.353653,47.574124],[-122.353762,47.574109],[-122.353787,47.574035],[-122.353919,47.574035]]]}},{"type":"Feature","properties":{"id":58,"area_m2":300,"px":3,"rank":59},"geometry":{"type":"Polygon","coordinates":[[[-122.347006,47.573996],[-122.347005,47.574086],[-122.346739,47.574084],[-122.346741,47.573905],[-122.346874,47.573905],[-122.346896,47.57398],[-122.347006,47.573996]]]}},{"type":"Feature","properties":{"id":59,"area_m2":300,"px":3,"rank":60},"geometry":{"type":"Polygon","coordinates":[[[-122.348612,47.573105],[-122.348611,47.573195],[-122.348402,47.573197],[-122.348351,47.573227],[-122.348344,47.573284],[-122.348211,47.573283],[-122.348213,47.573193],[-122.348322,47.573178],[-122.348347,47.573104],[-122.348612,47.573105]]]}}]}