{"type":"FeatureCollection","features":[{"type":"Feature","properties":{"id":7,"area_m2":16700,"px":167,"rank":1},"geometry":{"type":"Polygon","coordinates":[[[-122.349302,47.581837],[-122.349301,47.581927],[-122.349203,47.581936],[-122.349167,47.581981],[-122.349151,47.583317],[-122.349192,47.58336],[-122.349283,47.583368],[-122.349282,47.583457],[-122.349191,47.583463],[-122.349149,47.583505],[-122.349142,47.584032],[-122.349177,47.584077],[-122.349274,47.584087],[-122.349267,47.584625],[-122.349184,47.58463],[-122.34914,47.584659],[-122.349131,47.584896],[-122.349095,47.584938],[-122.34913,47.584987],[-122.349121,47.585704],[-122.349085,47.585748],[-122.34912,47.585797],[-122.349111,47.586514],[-122.349075,47.586557],[-122.34911,47.586605],[-122.349108,47.586785],[-122.348998,47.5868],[-122.348973,47.586874],[-122.348841,47.586873],[-122.348818,47.586799],[-122.348709,47.586781],[-122.34871,47.586693],[-122.348801,47.586687],[-122.348843,47.586645],[-122.348831,47.586538],[-122.348712,47.586512],[-122.348714,47.586333],[-122.348805,47.586327],[-122.348846,47.58629],[-122.348848,47.586012],[-122.348802,47.585978],[-122.348719,47.585973],[-122.348716,47.585921],[-122.348678,47.585889],[-122.348526,47.585882],[-122.348457,47.58592],[-122.348452,47.586061],[-122.348319,47.586061],[-122.348323,47.585701],[-122.348359,47.585659],[-122.348324,47.585611],[-122.348325,47.585522],[-122.348362,47.585473],[-122.348309,47.585361],[-122.348195,47.58534],[-122.348197,47.58516],[-122.348651,47.585177],[-122.348706,47.585161],[-122.348766,47.585031],[-122.348731,47.584983],[-122.348734,47.584713],[-122.348825,47.584708],[-122.348868,47.584665],[-122.348856,47.584558],[-122.348737,47.584532],[-122.34874,47.584264],[-122.348776,47.584221],[-122.348741,47.584174],[-122.348745,47.583904],[-122.348842,47.583895],[-122.348878,47.58385],[-122.348866,47.583748],[-122.348747,47.583724],[-122.348749,47.583544],[-122.348847,47.583535],[-122.348883,47.583491],[-122.34887,47.583388],[-122.348751,47.583364],[-122.348752,47.583274],[-122.348867,47.583255],[-122.348922,47.583142],[-122.34887,47.583024],[-122.348756,47.583004],[-122.348759,47.582734],[-122.348857,47.582725],[-122.348893,47.582681],[-122.348889,47.582498],[-122.348846,47.582469],[-122.348762,47.582464],[-122.348765,47.582284],[-122.348801,47.582242],[-122.348766,47.582193],[-122.348771,47.581744],[-122.34917,47.581747],[-122.349193,47.581821],[-122.349302,47.581837]],[[-122.348741,47.585748],[-122.348717,47.585646],[-122.348667,47.585615],[-122.348501,47.585613],[-122.348439,47.585651],[-122.348462,47.585758],[-122.348512,47.58579],[-122.348707,47.585784],[-122.348741,47.585748]]]}},{"type":"Feature","properties":{"id":31,"area_m2":6500,"px":65,"rank":2},"geometry":{"type":"Polygon","coordinates":[[[-122.349593,47.57977],[-122.349591,47.579949],[-122.349482,47.579965],[-122.349457,47.580039],[-122.349227,47.580046],[-122.34919,47.580127],[-122.349057,47.580126],[-122.349052,47.58007],[-122.349002,47.580038],[-122.348793,47.580035],[-122.348794,47.579945],[-122.349149,47.579946],[-122.349214,47.579891],[-122.349181,47.579791],[-122.349062,47.579766],[-122.349033,47.579689],[-122.348797,47.579675],[-122.348806,47.578955],[-122.34891,47.578944],[-122.34894,47.578866],[-122.349038,47.578857],[-122.349074,47.578813],[-122.349061,47.578711],[-122.348942,47.578686],[-122.348935,47.578535],[-122.348888,47.578508],[-122.348811,47.578505],[-122.348813,47.578415],[-122.34891,47.578407],[-122.348947,47.578326],[-122.349062,47.578307],[-122.349101,47.578203],[-122.349061,47.578153],[-122.348949,47.578146],[-122.34895,47.578056],[-122.349034,47.578053],[-122.349077,47.578024],[-122.349083,47.57792],[-122.349043,47.577883],[-122.348952,47.577876],[-122.34895,47.577735],[-122.348905,47.5777],[-122.348822,47.577695],[-122.348823,47.577606],[-122.349088,47.577607],[-122.349111,47.577681],[-122.34922,47.577698],[-122.349198,47.577822],[-122.34922,47.577861],[-122.349484,47.577879],[-122.349482,47.578059],[-122.349377,47.578063],[-122.349329,47.578103],[-122.349345,47.578328],[-122.349144,47.578328],[-122.349081,47.57837],[-122.349086,47.578568],[-122.349133,47.578595],[-122.349209,47.578598],[-122.349244,47.578679],[-122.349341,47.578688],[-122.349369,47.578766],[-122.349473,47.578779],[-122.349472,47.578868],[-122.349362,47.578884],[-122.349338,47.578958],[-122.349136,47.578958],[-122.349077,47.57899],[-122.349079,47.579108],[-122.349126,47.579135],[-122.349202,47.579137],[-122.3492,47.579316],[-122.34908,47.579341],[-122.349066,47.579443],[-122.349129,47.579496],[-122.349464,47.579499],[-122.349463,47.579589],[-122.349343,47.579612],[-122.349313,47.579733],[-122.349371,47.579767],[-122.349593,47.57977]]]}},{"type":"Feature","properties":{"id":71,"area_m2":5600,"px":56,"rank":3},"geometry":{"type":"Polygon","coordinates":[[[-122.353382,47.574482],[-122.353381,47.574572],[-122.353283,47.574581],[-122.353247,47.574661],[-122.353171,47.574663],[-122.353123,47.574689],[-122.353112,47.57484],[-122.352979,47.57484],[-122.352901,47.574816],[-122.352755,47.574845],[-122.352714,47.574882],[-122.352716,47.575075],[-122.352759,47.575104],[-122.352843,47.57511],[-122.35284,47.575289],[-122.352721,47.575312],[-122.352709,47.57543],[-122.352754,47.575464],[-122.352838,47.575469],[-122.352873,47.57555],[-122.35297,47.57556],[-122.352978,47.575711],[-122.353024,47.575737],[-122.353101,47.57574],[-122.3531,47.57583],[-122.352967,47.575829],[-122.352954,47.575763],[-122.352835,47.575739],[-122.352832,47.575687],[-122.352794,47.575655],[-122.352641,47.575624],[-122.35257,47.575647],[-122.352437,47.575646],[-122.352435,47.575581],[-122.352391,47.575547],[-122.352172,47.575555],[-122.352175,47.575375],[-122.352411,47.575364],[-122.352442,47.575287],[-122.352561,47.575263],[-122.352611,47.575145],[-122.352548,47.57503],[-122.352367,47.574993],[-122.352277,47.575053],[-122.352311,47.575106],[-122.35231,47.575196],[-122.352044,47.575194],[-122.352046,47.575014],[-122.352082,47.574972],[-122.352047,47.574924],[-122.352048,47.574835],[-122.352084,47.574782],[-122.352049,47.574744],[-122.352045,47.574598],[-122.352002,47.574568],[-122.351919,47.574564],[-122.35192,47.574474],[-122.352185,47.574475],[-122.352264,47.574499],[-122.352422,47.574464],[-122.352453,47.574387],[-122.352585,47.574388],[-122.352588,47.574453],[-122.352625,47.574485],[-122.352983,47.57448],[-122.352991,47.574555],[-122.353059,47.574584],[-122.353219,47.574559],[-122.353249,47.574481],[-122.353382,47.574482]]]}},{"type":"Feature","properties":{"id":85,"area_m2":4600,"px":46,"rank":4},"geometry":{"type":"Polygon","coordinates":[[[-122.353524,47.573763],[-122.353523,47.573853],[-122.353425,47.573862],[-122.353389,47.573942],[-122.353312,47.573944],[-122.353265,47.57397],[-122.353252,47.574121],[-122.353121,47.574121],[-122.353144,47.573907],[-122.353122,47.573867],[-122.352991,47.57385],[-122.352986,47.573793],[-122.352943,47.573764],[-122.352755,47.573771],[-122.352726,47.573807],[-122.352724,47.573938],[-122.352522,47.573938],[-122.352459,47.57398],[-122.352436,47.574066],[-122.352464,47.574104],[-122.352722,47.574119],[-122.352721,47.574208],[-122.352611,47.574224],[-122.352587,47.574298],[-122.352321,47.574296],[-122.352319,47.574155],[-122.352243,47.574116],[-122.352092,47.574124],[-122.352056,47.574205],[-122.351832,47.57421],[-122.351793,47.574242],[-122.351789,47.574293],[-122.35139,47.574291],[-122.351391,47.574201],[-122.351501,47.574186],[-122.351525,47.574112],[-122.351742,47.574109],[-122.351785,47.57408],[-122.351792,47.574023],[-122.352029,47.574012],[-122.352059,47.573935],[-122.352179,47.573911],[-122.352193,47.573846],[-122.352436,47.573831],[-122.35246,47.573757],[-122.352544,47.573753],[-122.35259,47.573719],[-122.352597,47.573488],[-122.35282,47.573483],[-122.35286,47.573451],[-122.352864,47.573399],[-122.352996,47.5734],[-122.353002,47.573457],[-122.353052,47.573488],[-122.353261,47.573492],[-122.35326,47.573582],[-122.353224,47.573629],[-122.353286,47.573763],[-122.353524,47.573763]]]}},{"type":"Feature","properties":{"id":4,"area_m2":4500,"px":45,"rank":5},"geometry":{"type":"Polygon","coordinates":[[[-122.348039,47.587139],[-122.348025,47.588308],[-122.347759,47.588307],[-122.347696,47.588283],[-122.347626,47.588306],[-122.347493,47.588305],[-122.347495,47.588126],[-122.347593,47.588117],[-122.347629,47.588072],[-122.347617,47.58797],[-122.347497,47.587946],[-122.347498,47.587856],[-122.3477,47.587856],[-122.347755,47.587829],[-122.347768,47.587532],[-122.347707,47.587484],[-122.347503,47.587496],[-122.34748,47.587421],[-122.347371,47.587405],[-122.347377,47.586955],[-122.347908,47.586958],[-122.347916,47.58711],[-122.347963,47.587136],[-122.348039,47.587139]],[[-122.347556,47.587222],[-122.347702,47.58724],[-122.347759,47.587217],[-122.347771,47.587086],[-122.347718,47.587049],[-122.347565,47.587049],[-122.347511,47.587084],[-122.34751,47.587188],[-122.347556,47.587222]]]}},{"type":"Feature","properties":{"id":54,"area_m2":3900,"px":39,"rank":6},"geometry":{"type":"Polygon","coordinates":[[[-122.346959,47.577506],[-122.346926,47.577552],[-122.346961,47.577595],[-122.346959,47.577775],[-122.346826,47.577774],[-122.346824,47.577633],[-122.346756,47.577594],[-122.346458,47.577604],[-122.346429,47.577641],[-122.346427,47.577772],[-122.346294,47.577771],[-122.346289,47.577714],[-122.346238,47.577683],[-122.346029,47.57768],[-122.346036,47.57714],[-122.346148,47.577134],[-122.34619,47.577085],[-122.346153,47.57698],[-122.346038,47.57696],[-122.346039,47.57687],[-122.346172,47.576871],[-122.3462,47.576949],[-122.34636,47.576976],[-122.346428,47.576947],[-122.346438,47.576872],[-122.346571,47.576873],[-122.346633,47.576897],[-122.346704,47.576874],[-122.34697,47.576875],[-122.346969,47.576965],[-122.346871,47.576974],[-122.346835,47.577018],[-122.346847,47.57712],[-122.346967,47.577145],[-122.346965,47.577235],[-122.346833,47.577234],[-122.346827,47.577178],[-122.346784,47.577148],[-122.346602,47.577139],[-122.346568,47.577178],[-122.346544,47.577447],[-122.346591,47.577499],[-122.346757,47.577504],[-122.34682,47.577476],[-122.34683,47.577414],[-122.346963,47.577415],[-122.346959,47.577506]]]}},{"type":"Feature","properties":{"id":58,"area_m2":3600,"px":36,"rank":7},"geometry":{"type":"Polygon","coordinates":[[[-122.348175,47.576162],[-122.348168,47.576792],[-122.347944,47.576797],[-122.347905,47.576829],[-122.347901,47.57688],[-122.347502,47.576878],[-122.347508,47.576387],[-122.347466,47.576345],[-122.347376,47.576338],[-122.347377,47.576248],[-122.347486,47.576232],[-122.347511,47.576159],[-122.347777,47.57616],[-122.347839,47.576184],[-122.34791,47.576161],[-122.348175,47.576162]]]}},{"type":"Feature","properties":{"id":2,"area_m2":2100,"px":21,"rank":8},"geometry":{"type":"Polygon","coordinates":[[[-122.348019,47.588758],[-122.348014,47.589208],[-122.347748,47.589207],[-122.347713,47.589126],[-122.347483,47.589115],[-122.34746,47.589041],[-122.347351,47.589024],[-122.347355,47.588665],[-122.347488,47.588665],[-122.347511,47.58874],[-122.347667,47.588779],[-122.347753,47.588757],[-122.348019,47.588758]]]}},{"type":"Feature","properties":{"id":16,"area_m2":2100,"px":21,"rank":9},"geometry":{"type":"Polygon","coordinates":[[[-122.348088,47.58318],[-122.348087,47.58327],[-122.347975,47.583276],[-122.347933,47.583325],[-122.347954,47.583591],[-122.347999,47.583625],[-122.348083,47.58363],[-122.348082,47.58372],[-122.347816,47.583718],[-122.347794,47.583554],[-122.347552,47.583537],[-122.347554,47.583357],[-122.34759,47.583315],[-122.347556,47.583267],[-122.347557,47.583177],[-122.347654,47.583169],[-122.34769,47.583124],[-122.347689,47.582946],[-122.347644,47.582912],[-122.34756,47.582907],[-122.347561,47.582817],[-122.347827,47.582819],[-122.347849,47.582893],[-122.347959,47.582909],[-122.347958,47.582999],[-122.347922,47.583047],[-122.347959,47.583141],[-122.348005,47.583176],[-122.348088,47.58318]]]}},{"type":"Feature","properties":{"id":27,"area_m2":1900,"px":19,"rank":10},"geometry":{"type":"Polygon","coordinates":[[[-122.347323,47.580566],[-122.34732,47.580836],[-122.347229,47.580842],[-122.347186,47.580884],[-122.347182,47.581195],[-122.347049,47.581195],[-122.347042,47.581043],[-122.346995,47.581017],[-122.346919,47.581013],[-122.34692,47.580924],[-122.34701,47.580918],[-122.347053,47.580876],[-122.347056,47.580518],[-122.347016,47.580481],[-122.346925,47.580473],[-122.346926,47.580384],[-122.34701,47.580381],[-122.347056,47.580347],[-122.347062,47.580164],[-122.34702,47.580121],[-122.34693,47.580114],[-122.346931,47.580024],[-122.347197,47.580026],[-122.347192,47.580522],[-122.347232,47.580559],[-122.347323,47.580566]]]}},{"type":"Feature","properties":{"id":40,"area_m2":1900,"px":19,"rank":11},"geometry":{"type":"Polygon","coordinates":[[[-122.348144,47.578682],[-122.348143,47.578771],[-122.348033,47.578787],[-122.347975,47.578892],[-122.348007,47.579041],[-122.347783,47.579046],[-122.347744,47.579077],[-122.347738,47.579129],[-122.347607,47.579128],[-122.347584,47.579054],[-122.347475,47.579038],[-122.347476,47.578948],[-122.347512,47.578905],[-122.347477,47.578858],[-122.34748,47.578678],[-122.347577,47.578669],[-122.347613,47.578624],[-122.347601,47.578522],[-122.347482,47.578498],[-122.347483,47.578408],[-122.347749,47.578409],[-122.34777,47.578574],[-122.347879,47.57859],[-122.347885,47.578647],[-122.347928,47.578676],[-122.348144,47.578682]]]}},{"type":"Feature","properties":{"id":14,"area_m2":1700,"px":17,"rank":12},"geometry":{"type":"Polygon","coordinates":[[[-122.34807,47.58462],[-122.348069,47.58471],[-122.347972,47.584718],[-122.347935,47.584799],[-122.347859,47.584801],[-122.347811,47.584827],[-122.3478,47.584978],[-122.34769,47.584993],[-122.347666,47.585067],[-122.347546,47.585091],[-122.347532,47.585156],[-122.347399,47.585156],[-122.347405,47.584706],[-122.347635,47.584698],[-122.347672,47.584617],[-122.347791,47.584594],[-122.347806,47.584528],[-122.347939,47.584529],[-122.347961,47.584603],[-122.34807,47.58462]]]}},{"type":"Feature","properties":{"id":72,"area_m2":1700,"px":17,"rank":13},"geometry":{"type":"Polygon","coordinates":[[[-122.350581,47.575186],[-122.35058,47.575276],[-122.35023,47.575278],[-122.350187,47.575307],[-122.35018,47.575364],[-122.35006,47.575387],[-122.350046,47.575453],[-122.349809,47.575464],[-122.349779,47.575541],[-122.349695,47.575545],[-122.349652,47.575574],[-122.349644,47.575721],[-122.349511,47.57572],[-122.349515,47.57536],[-122.349725,47.575359],[-122.349775,47.575328],[-122.349782,47.575272],[-122.350013,47.575264],[-122.350049,47.575183],[-122.350169,47.57516],[-122.350183,47.575094],[-122.350449,47.575095],[-122.350472,47.57517],[-122.350581,47.575186]]]}},{"type":"Feature","properties":{"id":22,"area_m2":1500,"px":15,"rank":14},"geometry":{"type":"Polygon","coordinates":[[[-122.348637,47.581834],[-122.348636,47.581923],[-122.348545,47.581929],[-122.348504,47.581966],[-122.348498,47.582283],[-122.348233,47.582281],[-122.348236,47.582011],[-122.348334,47.582003],[-122.34837,47.581958],[-122.348357,47.581856],[-122.348238,47.581831],[-122.348241,47.581651],[-122.348317,47.581649],[-122.348364,47.581623],[-122.348376,47.581472],[-122.348509,47.581473],[-122.348506,47.581789],[-122.348546,47.581827],[-122.348637,47.581834]]]}},{"type":"Feature","properties":{"id":64,"area_m2":1500,"px":15,"rank":15},"geometry":{"type":"Polygon","coordinates":[[[-122.350307,47.575814],[-122.350305,47.575994],[-122.350117,47.575979],[-122.350062,47.575996],[-122.350038,47.576083],[-122.349954,47.576086],[-122.349911,47.576115],[-122.349903,47.576262],[-122.349637,47.57626],[-122.349615,47.576186],[-122.349505,47.57617],[-122.349506,47.57608],[-122.349616,47.576065],[-122.349674,47.575959],[-122.349642,47.575901],[-122.349643,47.575811],[-122.350307,47.575814]]]}},{"type":"Feature","properties":{"id":25,"area_m2":1400,"px":14,"rank":16},"geometry":{"type":"Polygon","coordinates":[[[-122.347308,47.581736],[-122.347307,47.581826],[-122.34721,47.581835],[-122.347174,47.581879],[-122.347175,47.582057],[-122.34722,47.582091],[-122.347304,47.582096],[-122.347303,47.582186],[-122.347193,47.582201],[-122.347169,47.582275],[-122.347036,47.582274],[-122.347013,47.5822],[-122.346904,47.582182],[-122.346906,47.582004],[-122.347004,47.581995],[-122.34704,47.58195],[-122.347039,47.581773],[-122.346993,47.581738],[-122.34691,47.581734],[-122.346911,47.581644],[-122.346987,47.581642],[-122.347035,47.581616],[-122.347046,47.581465],[-122.347179,47.581465],[-122.347179,47.581697],[-122.347225,47.581731],[-122.347308,47.581736]]]}},{"type":"Feature","properties":{"id":55,"area_m2":1400,"px":14,"rank":17},"geometry":{"type":"Polygon","coordinates":[[[-122.353215,47.577271],[-122.353211,47.57754],[-122.353079,47.57754],[-122.353073,47.577483],[-122.35303,47.577454],[-122.352878,47.57745],[-122.352815,47.577492],[-122.352811,47.577628],[-122.352413,47.577626],[-122.352415,47.577446],[-122.352645,47.577438],[-122.352682,47.577358],[-122.352802,47.577334],[-122.352816,47.577268],[-122.353215,47.577271]]]}},{"type":"Feature","properties":{"id":32,"area_m2":1300,"px":13,"rank":18},"geometry":{"type":"Polygon","coordinates":[[[-122.347865,47.57976],[-122.347862,47.580029],[-122.347596,47.580028],[-122.347588,47.579877],[-122.347541,47.57985],[-122.347465,47.579847],[-122.347467,47.579667],[-122.347503,47.579625],[-122.347468,47.579577],[-122.347471,47.579398],[-122.347736,47.579399],[-122.347735,47.579489],[-122.347699,47.579536],[-122.347734,47.579579],[-122.347734,47.579715],[-122.347774,47.579753],[-122.347865,47.57976]]]}},{"type":"Feature","properties":{"id":26,"area_m2":1200,"px":12,"rank":19},"geometry":{"type":"Polygon","coordinates":[[[-122.347854,47.580659],[-122.34785,47.580929],[-122.347767,47.580933],[-122.34772,47.580967],[-122.347714,47.581198],[-122.347448,47.581197],[-122.347449,47.581107],[-122.347547,47.581098],[-122.347583,47.581054],[-122.347571,47.580952],[-122.347452,47.580927],[-122.347454,47.580747],[-122.347564,47.580732],[-122.347588,47.580658],[-122.347854,47.580659]]]}},{"type":"Feature","properties":{"id":48,"area_m2":1200,"px":12,"rank":20},"geometry":{"type":"Polygon","coordinates":[[[-122.351611,47.577891],[-122.351607,47.578251],[-122.351075,47.578248],[-122.351077,47.578068],[-122.351187,47.578053],[-122.351212,47.577979],[-122.351421,47.577978],[-122.351472,47.577947],[-122.351479,47.577891],[-122.351611,47.577891]]]}},{"type":"Feature","properties":{"id":8,"area_m2":1100,"px":11,"rank":21},"geometry":{"type":"Polygon","coordinates":[[[-122.350175,47.586521],[-122.350174,47.586611],[-122.34995,47.586616],[-122.349911,47.586648],[-122.349907,47.5867],[-122.349641,47.586698],[-122.349618,47.586624],[-122.349509,47.586607],[-122.34951,47.586517],[-122.349594,47.586514],[-122.34964,47.58648],[-122.349645,47.586338],[-122.349778,47.586339],[-122.349784,47.586396],[-122.349834,47.586427],[-122.350043,47.586431],[-122.350066,47.586505],[-122.350175,47.586521]]]}},{"type":"Feature","properties":{"id":56,"area_m2":1100,"px":11,"rank":22},"geometry":{"type":"Polygon","coordinates":[[[-122.348031,47.577061],[-122.348029,47.577241],[-122.347919,47.577256],[-122.347895,47.57733],[-122.347686,47.577332],[-122.347635,47.577362],[-122.347628,47.577419],[-122.347495,47.577418],[-122.347496,47.577328],[-122.347532,47.577286],[-122.347497,47.577238],[-122.3475,47.577058],[-122.348031,47.577061]]]}},{"type":"Feature","properties":{"id":60,"area_m2":1100,"px":11,"rank":23},"geometry":{"type":"Polygon","coordinates":[[[-122.347373,47.576518],[-122.347371,47.576697],[-122.347261,47.576713],[-122.347237,47.576787],[-122.347104,47.576786],[-122.347082,47.576712],[-122.346972,47.576695],[-122.346977,47.576335],[-122.347243,47.576337],[-122.34725,47.576488],[-122.347297,47.576515],[-122.347373,47.576518]]]}},{"type":"Feature","properties":{"id":61,"area_m2":1100,"px":11,"rank":24},"geometry":{"type":"Polygon","coordinates":[[[-122.349237,47.576348],[-122.349232,47.576708],[-122.348834,47.576706],[-122.348837,47.576436],[-122.348947,47.576421],[-122.348971,47.576347],[-122.349237,47.576348]]]}},{"type":"Feature","properties":{"id":66,"area_m2":1100,"px":11,"rank":25},"geometry":{"type":"Polygon","coordinates":[[[-122.346314,47.575883],[-122.346281,47.575929],[-122.346316,47.575972],[-122.346313,47.576242],[-122.346047,47.57624],[-122.346052,47.57588],[-122.346088,47.575838],[-122.346053,47.57579],[-122.346055,47.57561],[-122.346188,47.575611],[-122.34621,47.575685],[-122.34632,47.575702],[-122.346314,47.575883]]]}},{"type":"Feature","properties":{"id":79,"area_m2":1100,"px":11,"rank":26},"geometry":{"type":"Polygon","coordinates":[[[-122.348058,47.574902],[-122.348055,47.575172],[-122.347656,47.575169],[-122.347594,47.575145],[-122.347523,47.575169],[-122.34739,47.575168],[-122.347392,47.574988],[-122.347727,47.574989],[-122.347782,47.574962],[-122.347792,47.5749],[-122.348058,47.574902]]]}},{"type":"Feature","properties":{"id":76,"area_m2":1100,"px":11,"rank":27},"geometry":{"type":"Polygon","coordinates":[[[-122.351914,47.574924],[-122.351908,47.575374],[-122.351776,47.575373],[-122.35177,47.575041],[-122.351716,47.575014],[-122.351514,47.575011],[-122.351503,47.574855],[-122.351444,47.574831],[-122.35125,47.57483],[-122.351252,47.57474],[-122.35165,47.574742],[-122.351672,47.574907],[-122.351914,47.574924]]]}},{"type":"Feature","properties":{"id":86,"area_m2":1100,"px":11,"rank":28},"geometry":{"type":"Polygon","coordinates":[[[-122.35033,47.574015],[-122.350327,47.574195],[-122.350195,47.574194],[-122.350132,47.57417],[-122.350061,47.574193],[-122.349663,47.574191],[-122.349664,47.574101],[-122.349748,47.574098],[-122.349794,47.574064],[-122.349799,47.573922],[-122.350198,47.573924],[-122.35022,47.573999],[-122.35033,47.574015]]]}},{"type":"Feature","properties":{"id":30,"area_m2":1000,"px":10,"rank":29},"geometry":{"type":"Polygon","coordinates":[[[-122.347857,47.58039],[-122.347855,47.580569],[-122.347722,47.580569],[-122.34766,47.580544],[-122.347589,47.580568],[-122.347456,47.580567],[-122.347434,47.580493],[-122.347324,47.580476],[-122.347325,47.580386],[-122.347409,47.580383],[-122.347455,47.580349],[-122.347461,47.580207],[-122.347726,47.580209],[-122.347734,47.58036],[-122.347781,47.580387],[-122.347857,47.58039]]]}},{"type":"Feature","properties":{"id":10,"area_m2":800,"px":8,"rank":30},"geometry":{"type":"Polygon","coordinates":[[[-122.347923,47.585789],[-122.347921,47.585968],[-122.347811,47.585984],[-122.347787,47.586058],[-122.347521,47.586056],[-122.347498,47.585982],[-122.347389,47.585965],[-122.347391,47.585786],[-122.347524,47.585786],[-122.347537,47.585852],[-122.347603,47.585877],[-122.347754,47.585868],[-122.34779,47.585788],[-122.347923,47.585789]]]}},{"type":"Feature","properties":{"id":20,"area_m2":800,"px":8,"rank":31},"geometry":{"type":"Polygon","coordinates":[[[-122.349567,47.581929],[-122.349563,47.582199],[-122.34948,47.582202],[-122.349433,47.582236],[-122.349427,47.582468],[-122.349294,47.582467],[-122.3493,47.582017],[-122.34941,47.582002],[-122.349434,47.581928],[-122.349567,47.581929]]]}},{"type":"Feature","properties":{"id":23,"area_m2":800,"px":8,"rank":32},"geometry":{"type":"Polygon","coordinates":[[[-122.347972,47.58183],[-122.347967,47.58228],[-122.347834,47.582279],[-122.347831,47.582042],[-122.347788,47.582013],[-122.347704,47.582008],[-122.34767,47.581927],[-122.347572,47.581917],[-122.347573,47.581828],[-122.347972,47.58183]]]}},{"type":"Feature","properties":{"id":51,"area_m2":800,"px":8,"rank":33},"geometry":{"type":"Polygon","coordinates":[[[-122.348024,47.577691],[-122.348021,47.577871],[-122.347812,47.577872],[-122.347761,47.577903],[-122.347754,47.577959],[-122.347621,47.577959],[-122.347626,47.577599],[-122.347759,47.5776],[-122.347764,47.577656],[-122.347814,47.577688],[-122.348024,47.577691]]]}},{"type":"Feature","properties":{"id":69,"area_m2":800,"px":8,"rank":34},"geometry":{"type":"Polygon","coordinates":[[[-122.348045,47.575982],[-122.348044,47.576071],[-122.347512,47.576068],[-122.347516,47.575709],[-122.347782,47.57571],[-122.347781,47.5758],[-122.347697,47.575804],[-122.347651,47.575838],[-122.347647,47.575931],[-122.347675,47.575967],[-122.348045,47.575982]]]}},{"type":"Feature","properties":{"id":74,"area_m2":800,"px":8,"rank":35},"geometry":{"type":"Polygon","coordinates":[[[-122.351379,47.575191],[-122.351375,47.57546],[-122.35111,47.575459],[-122.351087,47.575385],[-122.350978,47.575368],[-122.35098,47.575188],[-122.351379,47.575191]]]}},{"type":"Feature","properties":{"id":81,"area_m2":800,"px":8,"rank":36},"geometry":{"type":"Polygon","coordinates":[[[-122.353779,47.574664],[-122.353778,47.574754],[-122.35368,47.574763],[-122.353644,47.574843],[-122.353567,47.574845],[-122.35352,47.574871],[-122.353508,47.575023],[-122.353243,47.575021],[-122.353246,47.574751],[-122.353581,47.574752],[-122.353636,47.574725],[-122.353646,47.574664],[-122.353779,47.574664]]]}},{"type":"Feature","properties":{"id":82,"area_m2":800,"px":8,"rank":37},"geometry":{"type":"Polygon","coordinates":[[[-122.353916,47.574305],[-122.353915,47.574395],[-122.353782,47.574394],[-122.35377,47.574328],[-122.353703,47.574304],[-122.353316,47.574303],[-122.35326,47.57433],[-122.35325,47.574391],[-122.353117,47.574391],[-122.35312,47.574211],[-122.353587,47.574212],[-122.353642,47.574185],[-122.353653,47.574124],[-122.353785,47.574125],[-122.353793,47.574276],[-122.35384,47.574302],[-122.353916,47.574305]]]}},{"type":"Feature","properties":{"id":49,"area_m2":700,"px":7,"rank":38},"geometry":{"type":"Polygon","coordinates":[[[-122.350017,47.577792],[-122.350012,47.578152],[-122.34988,47.578151],[-122.349857,47.578077],[-122.349748,47.578061],[-122.349751,47.577791],[-122.350017,47.577792]]]}},{"type":"Feature","properties":{"id":52,"area_m2":700,"px":7,"rank":39},"geometry":{"type":"Polygon","coordinates":[[[-122.353875,47.577634],[-122.353874,47.577724],[-122.353764,47.577739],[-122.35374,47.577813],[-122.35362,47.577837],[-122.353606,47.577903],[-122.35334,47.577901],[-122.353342,47.577721],[-122.353566,47.577716],[-122.353605,47.577684],[-122.353609,47.577633],[-122.353875,47.577634]]]}},{"type":"Feature","properties":{"id":65,"area_m2":700,"px":7,"rank":40},"geometry":{"type":"Polygon","coordinates":[[[-122.349243,47.575898],[-122.349241,47.575988],[-122.349151,47.575994],[-122.34911,47.576031],[-122.349105,47.576257],[-122.348972,47.576257],[-122.34895,47.576182],[-122.34884,47.576166],[-122.348843,47.575986],[-122.348952,47.575971],[-122.348977,47.575897],[-122.349243,47.575898]]]}},{"type":"Feature","properties":{"id":11,"area_m2":600,"px":6,"rank":41},"geometry":{"type":"Polygon","coordinates":[[[-122.347793,47.585518],[-122.347791,47.585698],[-122.347392,47.585695],[-122.347393,47.585606],[-122.34743,47.585563],[-122.347395,47.585516],[-122.347396,47.585426],[-122.347528,47.585426],[-122.347534,47.585483],[-122.347584,47.585514],[-122.347793,47.585518]]]}},{"type":"Feature","properties":{"id":28,"area_m2":600,"px":6,"rank":42},"geometry":{"type":"Polygon","coordinates":[[[-122.349587,47.580309],[-122.349586,47.580399],[-122.349495,47.580405],[-122.349454,47.580442],[-122.34945,47.580578],[-122.349414,47.580621],[-122.349449,47.580668],[-122.349448,47.580758],[-122.349183,47.580757],[-122.349185,47.580577],[-122.349261,47.580575],[-122.349309,47.580549],[-122.34932,47.580398],[-122.34943,47.580383],[-122.349454,47.580309],[-122.349587,47.580309]]]}},{"type":"Feature","properties":{"id":36,"area_m2":600,"px":6,"rank":43},"geometry":{"type":"Polygon","coordinates":[[[-122.353057,47.579249],[-122.353056,47.579339],[-122.352791,47.579338],[-122.352796,47.578888],[-122.352929,47.578889],[-122.352927,47.579205],[-122.352967,47.579242],[-122.353057,47.579249]]]}},{"type":"Feature","properties":{"id":41,"area_m2":600,"px":6,"rank":44},"geometry":{"type":"Polygon","coordinates":[[[-122.354529,47.578538],[-122.354523,47.578987],[-122.354391,47.578987],[-122.354393,47.57867],[-122.354353,47.578633],[-122.354262,47.578626],[-122.354263,47.578536],[-122.354529,47.578538]]]}},{"type":"Feature","properties":{"id":57,"area_m2":600,"px":6,"rank":45},"geometry":{"type":"Polygon","coordinates":[[[-122.3499,47.576532],[-122.349897,47.576712],[-122.349821,47.576714],[-122.349774,47.57674],[-122.349762,47.576891],[-122.349629,47.57689],[-122.349634,47.57653],[-122.3499,47.576532]]]}},{"type":"Feature","properties":{"id":91,"area_m2":600,"px":6,"rank":46},"geometry":{"type":"Polygon","coordinates":[[[-122.347421,47.572649],[-122.347417,47.573009],[-122.347341,47.573011],[-122.347293,47.573036],[-122.347282,47.573188],[-122.347149,47.573187],[-122.347151,47.573007],[-122.347242,47.573001],[-122.347283,47.572964],[-122.347289,47.572648],[-122.347421,47.572649]]]}},{"type":"Feature","properties":{"id":9,"area_m2":500,"px":5,"rank":47},"geometry":{"type":"Polygon","coordinates":[[[-122.347914,47.586508],[-122.347913,47.586598],[-122.347647,47.586597],[-122.347585,47.586572],[-122.347514,47.586596],[-122.347381,47.586595],[-122.347383,47.586415],[-122.347649,47.586417],[-122.347652,47.586469],[-122.34769,47.586501],[-122.347914,47.586508]]]}},{"type":"Feature","properties":{"id":17,"area_m2":500,"px":5,"rank":48},"geometry":{"type":"Polygon","coordinates":[[[-122.34729,47.583176],[-122.347288,47.583355],[-122.347212,47.583357],[-122.347164,47.583383],[-122.347153,47.583535],[-122.34702,47.583534],[-122.347024,47.583264],[-122.347133,47.583249],[-122.347158,47.583175],[-122.34729,47.583176]]]}},{"type":"Feature","properties":{"id":45,"area_m2":500,"px":5,"rank":49},"geometry":{"type":"Polygon","coordinates":[[[-122.346819,47.578314],[-122.346817,47.578494],[-122.346707,47.578509],[-122.346683,47.578583],[-122.34655,47.578582],[-122.346551,47.578493],[-122.346635,47.578489],[-122.346678,47.57846],[-122.346684,47.578357],[-122.346622,47.578314],[-122.34642,47.578312],[-122.346421,47.578222],[-122.346687,47.578223],[-122.34671,47.578298],[-122.346819,47.578314]]]}},{"type":"Feature","properties":{"id":63,"area_m2":500,"px":5,"rank":50},"geometry":{"type":"Polygon","coordinates":[[[-122.346713,47.576154],[-122.346711,47.576334],[-122.346578,47.576333],[-122.346555,47.576259],[-122.346446,47.576242],[-122.346449,47.575973],[-122.346582,47.575973],[-122.34659,47.576125],[-122.346637,47.576151],[-122.346713,47.576154]]]}},{"type":"Feature","properties":{"id":68,"area_m2":500,"px":5,"rank":51},"geometry":{"type":"Polygon","coordinates":[[[-122.347248,47.575887],[-122.347245,47.576157],[-122.346979,47.576155],[-122.346981,47.575976],[-122.347091,47.57596],[-122.347115,47.575886],[-122.347248,47.575887]]]}},{"type":"Feature","properties":{"id":70,"area_m2":500,"px":5,"rank":52},"geometry":{"type":"Polygon","coordinates":[[[-122.346718,47.575704],[-122.346717,47.575794],[-122.346608,47.575809],[-122.346583,47.575883],[-122.346451,47.575882],[-122.346452,47.575793],[-122.346488,47.57575],[-122.346453,47.575702],[-122.346456,47.575433],[-122.346589,47.575433],[-122.34659,47.575665],[-122.346635,47.575699],[-122.346718,47.575704]]]}},{"type":"Feature","properties":{"id":73,"area_m2":500,"px":5,"rank":53},"geometry":{"type":"Polygon","coordinates":[[[-122.346324,47.575342],[-122.346322,47.575522],[-122.346056,47.57552],[-122.346059,47.57525],[-122.346192,47.575251],[-122.346215,47.575325],[-122.346324,47.575342]]]}},{"type":"Feature","properties":{"id":77,"area_m2":500,"px":5,"rank":54},"geometry":{"type":"Polygon","coordinates":[[[-122.348721,47.575086],[-122.348718,47.575265],[-122.348509,47.575267],[-122.348458,47.575297],[-122.348451,47.575354],[-122.348319,47.575353],[-122.34832,47.575263],[-122.348403,47.57526],[-122.34845,47.575226],[-122.348455,47.575084],[-122.348721,47.575086]]]}},{"type":"Feature","properties":{"id":78,"area_m2":500,"px":5,"rank":55},"geometry":{"type":"Polygon","coordinates":[[[-122.354572,47.575029],[-122.35457,47.575209],[-122.35446,47.575224],[-122.354436,47.575298],[-122.354303,47.575297],[-122.354306,47.575027],[-122.354572,47.575029]]]}},{"type":"Feature","properties":{"id":89,"area_m2":500,"px":5,"rank":56},"geometry":{"type":"Polygon","coordinates":[[[-122.351,47.573569],[-122.350999,47.573659],[-122.350733,47.573657],[-122.350671,47.573633],[-122.3506,47.573657],[-122.350467,47.573656],[-122.350469,47.573476],[-122.350735,47.573477],[-122.350738,47.573529],[-122.350776,47.573561],[-122.351,47.573569]]]}},{"type":"Feature","properties":{"id":1,"area_m2":400,"px":4,"rank":57},"geometry":{"type":"Polygon","coordinates":[[[-122.346271,47.590278],[-122.346269,47.590458],[-122.346003,47.590456],[-122.346005,47.590277],[-122.346271,47.590278]]]}},{"type":"Feature","properties":{"id":3,"area_m2":400,"px":4,"rank":58},"geometry":{"type":"Polygon","coordinates":[[[-122.347889,47.588488],[-122.347887,47.588668],[-122.347621,47.588666],[-122.347624,47.588486],[-122.347889,47.588488]]]}},{"type":"Feature","properties":{"id":5,"area_m2":400,"px":4,"rank":59},"geometry":{"type":"Polygon","coordinates":[[[-122.347236,47.587584],[-122.347232,47.587854],[-122.3471,47.587853],[-122.347077,47.587779],[-122.346968,47.587763],[-122.346969,47.587673],[-122.347078,47.587657],[-122.347103,47.587584],[-122.347236,47.587584]]]}},{"type":"Feature","properties":{"id":13,"area_m2":400,"px":4,"rank":60},"geometry":{"type":"Polygon","coordinates":[[[-122.348066,47.58498],[-122.348064,47.585159],[-122.347855,47.585161],[-122.347804,47.585191],[-122.347797,47.585248],[-122.347664,47.585247],[-122.347665,47.585157],[-122.347775,47.585142],[-122.347799,47.585068],[-122.347919,47.585045],[-122.347933,47.584979],[-122.348066,47.58498]]]}},{"type":"Feature","properties":{"id":15,"area_m2":400,"px":4,"rank":61},"geometry":{"type":"Polygon","coordinates":[[[-122.347813,47.583898],[-122.347812,47.583988],[-122.347547,47.583987],[-122.347524,47.583913],[-122.347415,47.583896],[-122.347416,47.583806],[-122.347682,47.583808],[-122.347704,47.583882],[-122.347813,47.583898]]]}},{"type":"Feature","properties":{"id":19,"area_m2":400,"px":4,"rank":62},"geometry":{"type":"Polygon","coordinates":[[[-122.348497,47.582373],[-122.348495,47.582553],[-122.348229,47.582551],[-122.348232,47.582371],[-122.348497,47.582373]]]}},{"type":"Feature","properties":{"id":24,"area_m2":400,"px":4,"rank":63},"geometry":{"type":"Polygon","coordinates":[[[-122.347703,47.582098],[-122.347701,47.582278],[-122.347435,47.582277],[-122.347437,47.582097],[-122.347703,47.582098]]]}},{"type":"Feature","properties":{"id":34,"area_m2":400,"px":4,"rank":64},"geometry":{"type":"Polygon","coordinates":[[[-122.353718,47.579613],[-122.353717,47.579703],[-122.353185,47.5797],[-122.353186,47.57961],[-122.353718,47.579613]]]}},{"type":"Feature","properties":{"id":35,"area_m2":400,"px":4,"rank":65},"geometry":{"type":"Polygon","coordinates":[[[-122.353588,47.579342],[-122.353587,47.579432],[-122.353477,47.579447],[-122.353453,47.579521],[-122.35332,47.579521],[-122.353324,47.579251],[-122.353456,47.579251],[-122.353479,47.579326],[-122.353588,47.579342]]]}},{"type":"Feature","properties":{"id":37,"area_m2":400,"px":4,"rank":66},"geometry":{"type":"Polygon","coordinates":[[[-122.348669,47.579224],[-122.348668,47.579314],[-122.348403,47.579313],[-122.34838,47.579238],[-122.348271,47.579222],[-122.348272,47.579132],[-122.348538,47.579134],[-122.34856,47.579208],[-122.348669,47.579224]]]}},{"type":"Feature","properties":{"id":38,"area_m2":400,"px":4,"rank":67},"geometry":{"type":"Polygon","coordinates":[[[-122.34734,47.579217],[-122.347339,47.579307],[-122.347073,47.579305],[-122.347076,47.579035],[-122.347209,47.579036],[-122.347217,47.579188],[-122.347263,47.579214],[-122.34734,47.579217]]]}},{"type":"Feature","properties":{"id":39,"area_m2":400,"px":4,"rank":68},"geometry":{"type":"Polygon","coordinates":[[[-122.34681,47.579034],[-122.346808,47.579214],[-122.346409,47.579211],[-122.34641,47.579122],[-122.346619,47.57912],[-122.34667,47.57909],[-122.346677,47.579033],[-122.34681,47.579034]]]}},{"type":"Feature","properties":{"id":43,"area_m2":400,"px":4,"rank":69},"geometry":{"type":"Polygon","coordinates":[[[-122.35147,47.57861],[-122.351467,47.57879],[-122.351202,47.578789],[-122.351204,47.578609],[-122.35147,47.57861]]]}},{"type":"Feature","properties":{"id":44,"area_m2":400,"px":4,"rank":70},"geometry":{"type":"Polygon","coordinates":[[[-122.352933,47.578529],[-122.352931,47.578709],[-122.352798,47.578708],[-122.352776,47.578634],[-122.352666,47.578617],[-122.352669,47.578437],[-122.352801,47.578438],[-122.352824,47.578512],[-122.352933,47.578529]]]}},{"type":"Feature","properties":{"id":47,"area_m2":400,"px":4,"rank":71},"geometry":{"type":"Polygon","coordinates":[[[-122.35001,47.578332],[-122.350008,47.578512],[-122.349742,47.578511],[-122.349744,47.578331],[-122.35001,47.578332]]]}},{"type":"Feature","properties":{"id":53,"area_m2":400,"px":4,"rank":72},"geometry":{"type":"Polygon","coordinates":[[[-122.351749,47.577532],[-122.351747,47.577712],[-122.351537,47.577713],[-122.351486,47.577744],[-122.35148,47.577801],[-122.351347,47.5778],[-122.351348,47.57771],[-122.351458,47.577695],[-122.351482,47.577621],[-122.351602,47.577597],[-122.351616,47.577531],[-122.351749,47.577532]]]}},{"type":"Feature","properties":{"id":93,"area_m2":400,"px":4,"rank":73},"geometry":{"type":"Polygon","coordinates":[[[-122.348889,47.572207],[-122.348887,47.572387],[-122.348621,47.572386],[-122.348624,47.572206],[-122.348889,47.572207]]]}},{"type":"Feature","properties":{"id":6,"area_m2":300,"px":3,"rank":74},"geometry":{"type":"Polygon","coordinates":[[[-122.346843,47.587042],[-122.346841,47.587222],[-122.346575,47.58722],[-122.346577,47.587131],[-122.346686,47.587115],[-122.346711,47.587041],[-122.346843,47.587042]]]}},{"type":"Feature","properties":{"id":12,"area_m2":300,"px":3,"rank":75},"geometry":{"type":"Polygon","coordinates":[[[-122.347266,47.585155],[-122.347265,47.585245],[-122.347155,47.58526],[-122.347131,47.585334],[-122.346998,47.585333],[-122.347,47.585154],[-122.347266,47.585155]]]}},{"type":"Feature","properties":{"id":18,"area_m2":300,"px":3,"rank":76},"geometry":{"type":"Polygon","coordinates":[[[-122.346895,47.582903],[-122.346894,47.582993],[-122.346628,47.582992],[-122.34663,47.582812],[-122.346763,47.582813],[-122.346786,47.582887],[-122.346895,47.582903]]]}},{"type":"Feature","properties":{"id":21,"area_m2":300,"px":3,"rank":77},"geometry":{"type":"Polygon","coordinates":[[[-122.34677,47.582273],[-122.346769,47.582363],[-122.34637,47.58236],[-122.346371,47.582271],[-122.34677,47.582273]]]}},{"type":"Feature","properties":{"id":29,"area_m2":300,"px":3,"rank":78},"geometry":{"type":"Polygon","coordinates":[[[-122.348255,47.580482],[-122.348252,47.580752],[-122.348119,47.580751],[-122.348122,47.580481],[-122.348255,47.580482]]]}},{"type":"Feature","properties":{"id":33,"area_m2":300,"px":3,"rank":79},"geometry":{"type":"Polygon","coordinates":[[[-122.3472,47.579756],[-122.347198,47.579936],[-122.347065,47.579935],[-122.347042,47.579861],[-122.346933,47.579844],[-122.346934,47.579754],[-122.3472,47.579756]]]}},{"type":"Feature","properties":{"id":42,"area_m2":300,"px":3,"rank":80},"geometry":{"type":"Polygon","coordinates":[[[-122.353597,47.578622],[-122.353596,47.578712],[-122.353486,47.578728],[-122.353462,47.578801],[-122.353329,47.578801],[-122.353331,47.578621],[-122.353597,47.578622]]]}},{"type":"Feature","properties":{"id":46,"area_m2":300,"px":3,"rank":81},"geometry":{"type":"Polygon","coordinates":[[[-122.350674,47.578426],[-122.350673,47.578516],[-122.350407,47.578514],[-122.350409,47.578334],[-122.350542,47.578335],[-122.350565,47.578409],[-122.350674,47.578426]]]}},{"type":"Feature","properties":{"id":50,"area_m2":300,"px":3,"rank":82},"geometry":{"type":"Polygon","coordinates":[[[-122.348554,47.577784],[-122.348552,47.577964],[-122.348286,47.577962],[-122.348287,47.577873],[-122.348397,47.577857],[-122.348421,47.577783],[-122.348554,47.577784]]]}},{"type":"Feature","properties":{"id":59,"area_m2":300,"px":3,"rank":83},"geometry":{"type":"Polygon","coordinates":[[[-122.353888,47.576555],[-122.353887,47.576644],[-122.353804,47.576648],[-122.353757,47.576682],[-122.353752,47.576824],[-122.353619,47.576823],[-122.353622,47.576643],[-122.353731,47.576628],[-122.353756,47.576554],[-122.353888,47.576555]]]}},{"type":"Feature","properties":{"id":62,"area_m2":300,"px":3,"rank":84},"geometry":{"type":"Polygon","coordinates":[[[-122.346577,47.576423],[-122.346573,47.576693],[-122.34644,47.576692],[-122.346444,47.576422],[-122.346577,47.576423]]]}},{"type":"Feature","properties":{"id":67,"area_m2":300,"px":3,"rank":85},"geometry":{"type":"Polygon","coordinates":[[[-122.34871,47.575985],[-122.348708,47.576075],[-122.348599,47.57609],[-122.348574,47.576164],[-122.348442,47.576164],[-122.348444,47.575984],[-122.34871,47.575985]]]}},{"type":"Feature","properties":{"id":75,"area_m2":300,"px":3,"rank":86},"geometry":{"type":"Polygon","coordinates":[[[-122.348053,47.575352],[-122.348051,47.575442],[-122.347919,47.575441],[-122.347916,47.575389],[-122.347877,47.575357],[-122.347654,47.575349],[-122.347655,47.57526],[-122.347921,47.575261],[-122.347943,47.575335],[-122.348053,47.575352]]]}},{"type":"Feature","properties":{"id":80,"area_m2":300,"px":3,"rank":87},"geometry":{"type":"Polygon","coordinates":[[[-122.346729,47.574894],[-122.346726,47.575074],[-122.346594,47.575073],[-122.346571,47.574999],[-122.346462,47.574983],[-122.346463,47.574893],[-122.346729,47.574894]]]}},{"type":"Feature","properties":{"id":83,"area_m2":300,"px":3,"rank":88},"geometry":{"type":"Polygon","coordinates":[[[-122.348998,47.574187],[-122.348996,47.574367],[-122.34873,47.574366],[-122.348731,47.574276],[-122.348841,47.574261],[-122.348865,47.574187],[-122.348998,47.574187]]]}},{"type":"Feature","properties":{"id":84,"area_m2":300,"px":3,"rank":89},"geometry":{"type":"Polygon","coordinates":[[[-122.347003,47.574176],[-122.347001,47.574356],[-122.346868,47.574355],[-122.346846,47.574281],[-122.346737,47.574264],[-122.346738,47.574175],[-122.347003,47.574176]]]}},{"type":"Feature","properties":{"id":87,"area_m2":300,"px":3,"rank":90},"geometry":{"type":"Polygon","coordinates":[[[-122.348205,47.573823],[-122.348202,47.574003],[-122.34807,47.574002],[-122.348047,47.573928],[-122.347938,47.573911],[-122.347939,47.573821],[-122.348205,47.573823]]]}},{"type":"Feature","properties":{"id":88,"area_m2":300,"px":3,"rank":91},"geometry":{"type":"Polygon","coordinates":[[[-122.346614,47.573454],[-122.346611,47.573634],[-122.346502,47.573649],[-122.346477,47.573723],[-122.346344,47.573722],[-122.346346,47.573632],[-122.346429,47.573629],[-122.346475,47.573595],[-122.346481,47.573453],[-122.346614,47.573454]]]}},{"type":"Feature","properties":{"id":90,"area_m2":300,"px":3,"rank":92},"geometry":{"type":"Polygon","coordinates":[[[-122.351005,47.573119],[-122.351003,47.573299],[-122.350738,47.573297],[-122.350739,47.573208],[-122.350848,47.573192],[-122.350873,47.573118],[-122.351005,47.573119]]]}},{"type":"Feature","properties":{"id":92,"area_m2":300,"px":3,"rank":93},"geometry":{"type":"Polygon","coordinates":[[[-122.348885,47.572567],[-122.348884,47.572657],[-122.348618,47.572656],[-122.34862,47.572476],[-122.348753,47.572476],[-122.348776,47.572551],[-122.348885,47.572567]]]}}]}