{"type":"FeatureCollection","features":[{"type":"Feature","properties":{"id":26,"area_m2":1000,"px":10,"rank":1},"geometry":{"type":"Polygon","coordinates":[[[-122.348165,47.576972],[-122.348163,47.577152],[-122.348053,47.577167],[-122.348029,47.577241],[-122.347763,47.57724],[-122.347741,47.577165],[-122.347632,47.577149],[-122.347634,47.576969],[-122.348165,47.576972]]]}},{"type":"Feature","properties":{"id":5,"area_m2":900,"px":9,"rank":2},"geometry":{"type":"Polygon","coordinates":[[[-122.349258,47.585346],[-122.349256,47.585526],[-122.349159,47.585535],[-122.349123,47.585579],[-122.349135,47.585681],[-122.349254,47.585706],[-122.349253,47.585796],[-122.348987,47.585795],[-122.348988,47.585568],[-122.348948,47.585531],[-122.348857,47.585524],[-122.348859,47.585434],[-122.348968,47.585419],[-122.348993,47.585345],[-122.349258,47.585346]]]}},{"type":"Feature","properties":{"id":11,"area_m2":900,"px":9,"rank":3},"geometry":{"type":"Polygon","coordinates":[[[-122.347841,47.581471],[-122.347808,47.581517],[-122.347843,47.581559],[-122.347841,47.581649],[-122.347632,47.58165],[-122.347581,47.581681],[-122.347574,47.581737],[-122.347442,47.581737],[-122.347443,47.581647],[-122.34754,47.581638],[-122.347576,47.581594],[-122.347564,47.581492],[-122.347445,47.581467],[-122.347446,47.581377],[-122.347556,47.581362],[-122.34758,47.581288],[-122.347846,47.581289],[-122.347841,47.581471]]]}},{"type":"Feature","properties":{"id":36,"area_m2":900,"px":9,"rank":4},"geometry":{"type":"Polygon","coordinates":[[[-122.348721,47.575086],[-122.348717,47.575355],[-122.348319,47.575353],[-122.348322,47.575083],[-122.348721,47.575086]]]}},{"type":"Feature","properties":{"id":44,"area_m2":900,"px":9,"rank":5},"geometry":{"type":"Polygon","coordinates":[[[-122.353917,47.574215],[-122.353916,47.574305],[-122.353384,47.574302],[-122.353387,47.574122],[-122.353496,47.574107],[-122.353521,47.574033],[-122.353786,47.574035],[-122.353794,47.574186],[-122.353841,47.574212],[-122.353917,47.574215]]]}},{"type":"Feature","properties":{"id":24,"area_m2":800,"px":8,"rank":6},"geometry":{"type":"Polygon","coordinates":[[[-122.347887,47.57796],[-122.347886,47.57805],[-122.347487,47.578048],[-122.347491,47.577778],[-122.3476,47.577763],[-122.347625,47.577689],[-122.347758,47.57769],[-122.347758,47.577921],[-122.347804,47.577956],[-122.347887,47.57796]]]}},{"type":"Feature","properties":{"id":15,"area_m2":700,"px":7,"rank":7},"geometry":{"type":"Polygon","coordinates":[[[-122.347856,47.580479],[-122.347854,47.580659],[-122.347721,47.580659],[-122.347718,47.580607],[-122.34768,47.580575],[-122.347456,47.580567],[-122.347434,47.580493],[-122.347324,47.580476],[-122.347325,47.580386],[-122.347724,47.580389],[-122.347747,47.580463],[-122.347856,47.580479]]]}},{"type":"Feature","properties":{"id":4,"area_m2":600,"px":6,"rank":8},"geometry":{"type":"Polygon","coordinates":[[[-122.348588,47.585792],[-122.348586,47.585972],[-122.348476,47.585987],[-122.348452,47.586061],[-122.348319,47.586061],[-122.348323,47.585701],[-122.348456,47.585702],[-122.348479,47.585776],[-122.348588,47.585792]]]}},{"type":"Feature","properties":{"id":12,"area_m2":600,"px":6,"rank":9},"geometry":{"type":"Polygon","coordinates":[[[-122.347851,47.580839],[-122.347849,47.581019],[-122.34774,47.581034],[-122.347715,47.581108],[-122.347582,47.581108],[-122.34756,47.581033],[-122.34745,47.581017],[-122.347452,47.580927],[-122.347561,47.580912],[-122.347586,47.580838],[-122.347851,47.580839]]]}},{"type":"Feature","properties":{"id":29,"area_m2":600,"px":6,"rank":10},"geometry":{"type":"Polygon","coordinates":[[[-122.350569,47.576176],[-122.350567,47.576356],[-122.350168,47.576353],[-122.35017,47.576174],[-122.350569,47.576176]]]}},{"type":"Feature","properties":{"id":31,"area_m2":600,"px":6,"rank":11},"geometry":{"type":"Polygon","coordinates":[[[-122.34858,47.575715],[-122.348577,47.575984],[-122.348311,47.575983],[-122.348314,47.575713],[-122.34858,47.575715]]]}},{"type":"Feature","properties":{"id":32,"area_m2":600,"px":6,"rank":12},"geometry":{"type":"Polygon","coordinates":[[[-122.350844,47.575458],[-122.350841,47.575637],[-122.350732,47.575653],[-122.350707,47.575727],[-122.350575,47.575726],[-122.350552,47.575652],[-122.350443,47.575635],[-122.350444,47.575545],[-122.350554,47.57553],[-122.350578,47.575456],[-122.350844,47.575458]]]}},{"type":"Feature","properties":{"id":41,"area_m2":600,"px":6,"rank":13},"geometry":{"type":"Polygon","coordinates":[[[-122.34873,47.574366],[-122.348729,47.574456],[-122.348261,47.574454],[-122.348206,47.574481],[-122.348196,47.574543],[-122.348063,47.574542],[-122.348065,47.574362],[-122.34873,47.574366]]]}},{"type":"Feature","properties":{"id":43,"area_m2":600,"px":6,"rank":14},"geometry":{"type":"Polygon","coordinates":[[[-122.347003,47.574176],[-122.347001,47.574356],[-122.346891,47.574371],[-122.346867,47.574445],[-122.346734,47.574444],[-122.346712,47.57437],[-122.346603,47.574354],[-122.346604,47.574264],[-122.346713,47.574249],[-122.346738,47.574175],[-122.347003,47.574176]]]}},{"type":"Feature","properties":{"id":9,"area_m2":500,"px":5,"rank":15},"geometry":{"type":"Polygon","coordinates":[[[-122.348501,47.582103],[-122.348498,47.582283],[-122.348289,47.582284],[-122.348238,47.582314],[-122.348231,47.582371],[-122.348099,47.58237],[-122.3481,47.58228],[-122.348183,47.582277],[-122.34823,47.582243],[-122.348235,47.582101],[-122.348501,47.582103]]]}},{"type":"Feature","properties":{"id":13,"area_m2":500,"px":5,"rank":16},"geometry":{"type":"Polygon","coordinates":[[[-122.349583,47.580579],[-122.34958,47.580849],[-122.349447,47.580848],[-122.349425,47.580774],[-122.349315,47.580758],[-122.349318,47.580578],[-122.349583,47.580579]]]}},{"type":"Feature","properties":{"id":16,"area_m2":500,"px":5,"rank":17},"geometry":{"type":"Polygon","coordinates":[[[-122.347863,47.57994],[-122.347862,47.580029],[-122.347778,47.580033],[-122.347732,47.580067],[-122.347726,47.580209],[-122.347594,47.580208],[-122.347571,47.580134],[-122.347462,47.580117],[-122.347463,47.580027],[-122.347572,47.580012],[-122.347597,47.579938],[-122.347863,47.57994]]]}},{"type":"Feature","properties":{"id":18,"area_m2":500,"px":5,"rank":18},"geometry":{"type":"Polygon","coordinates":[[[-122.347339,47.579307],[-122.347337,47.579397],[-122.347254,47.5794],[-122.347208,47.579434],[-122.347202,47.579576],[-122.347069,47.579575],[-122.347074,47.579215],[-122.347207,47.579216],[-122.347229,47.57929],[-122.347339,47.579307]]]}},{"type":"Feature","properties":{"id":35,"area_m2":500,"px":5,"rank":19},"geometry":{"type":"Polygon","coordinates":[[[-122.348187,47.575263],[-122.348184,47.575442],[-122.347919,47.575441],[-122.347922,47.575171],[-122.348055,47.575172],[-122.348077,47.575246],[-122.348187,47.575263]]]}},{"type":"Feature","properties":{"id":40,"area_m2":500,"px":5,"rank":20},"geometry":{"type":"Polygon","coordinates":[[[-122.353383,47.574392],[-122.353382,47.574482],[-122.352915,47.574481],[-122.352859,47.574508],[-122.352849,47.574569],[-122.352716,47.574568],[-122.352717,47.574478],[-122.352827,47.574463],[-122.352852,47.574389],[-122.353383,47.574392]]]}},{"type":"Feature","properties":{"id":48,"area_m2":500,"px":5,"rank":21},"geometry":{"type":"Polygon","coordinates":[[[-122.34874,47.573556],[-122.348739,47.573646],[-122.348473,47.573644],[-122.348471,47.573503],[-122.348426,47.573468],[-122.348342,47.573464],[-122.348343,47.573374],[-122.348609,47.573375],[-122.348617,47.573527],[-122.348663,47.573553],[-122.34874,47.573556]]]}},{"type":"Feature","properties":{"id":6,"area_m2":400,"px":4,"rank":22},"geometry":{"type":"Polygon","coordinates":[[[-122.347803,47.584708],[-122.3478,47.584978],[-122.347667,47.584977],[-122.347665,47.584836],[-122.34762,47.584801],[-122.347537,47.584797],[-122.347538,47.584707],[-122.347803,47.584708]]]}},{"type":"Feature","properties":{"id":19,"area_m2":400,"px":4,"rank":23},"geometry":{"type":"Polygon","coordinates":[[[-122.347873,47.57913],[-122.34787,47.57931],[-122.347761,47.579325],[-122.347736,47.579399],[-122.347604,47.579398],[-122.347606,47.579218],[-122.347716,47.579203],[-122.34774,47.579129],[-122.347873,47.57913]]]}},{"type":"Feature","properties":{"id":20,"area_m2":400,"px":4,"rank":24},"geometry":{"type":"Polygon","coordinates":[[[-122.353595,47.578802],[-122.353594,47.578892],[-122.353328,47.578891],[-122.353331,47.578621],[-122.353464,47.578622],[-122.353472,47.578773],[-122.353519,47.5788],[-122.353595,47.578802]]]}},{"type":"Feature","properties":{"id":22,"area_m2":400,"px":4,"rank":25},"geometry":{"type":"Polygon","coordinates":[[[-122.347348,47.578587],[-122.347346,47.578677],[-122.347237,47.578692],[-122.347212,47.578766],[-122.34708,47.578765],[-122.347083,47.578496],[-122.347216,47.578496],[-122.347238,47.578571],[-122.347348,47.578587]]]}},{"type":"Feature","properties":{"id":23,"area_m2":400,"px":4,"rank":26},"geometry":{"type":"Polygon","coordinates":[[[-122.347748,47.578499],[-122.347745,47.578679],[-122.34748,47.578678],[-122.347482,47.578498],[-122.347748,47.578499]]]}},{"type":"Feature","properties":{"id":28,"area_m2":400,"px":4,"rank":27},"geometry":{"type":"Polygon","coordinates":[[[-122.348574,47.576165],[-122.348571,47.576434],[-122.348305,47.576433],[-122.348306,47.576343],[-122.34839,47.576339],[-122.348436,47.576305],[-122.348442,47.576164],[-122.348574,47.576165]]]}},{"type":"Feature","properties":{"id":33,"area_m2":400,"px":4,"rank":28},"geometry":{"type":"Polygon","coordinates":[[[-122.348583,47.575445],[-122.348581,47.575625],[-122.348315,47.575623],[-122.348318,47.575443],[-122.348583,47.575445]]]}},{"type":"Feature","properties":{"id":34,"area_m2":400,"px":4,"rank":29},"geometry":{"type":"Polygon","coordinates":[[[-122.352174,47.575375],[-122.352172,47.575555],[-122.351906,47.575553],[-122.351909,47.575374],[-122.352174,47.575375]]]}},{"type":"Feature","properties":{"id":37,"area_m2":400,"px":4,"rank":30},"geometry":{"type":"Polygon","coordinates":[[[-122.351513,47.575101],[-122.351511,47.575281],[-122.351112,47.575279],[-122.351113,47.575189],[-122.351322,47.575188],[-122.351373,47.575157],[-122.35138,47.575101],[-122.351513,47.575101]]]}},{"type":"Feature","properties":{"id":45,"area_m2":400,"px":4,"rank":31},"geometry":{"type":"Polygon","coordinates":[[[-122.350331,47.573925],[-122.350328,47.574105],[-122.350063,47.574103],[-122.350065,47.573924],[-122.350331,47.573925]]]}},{"type":"Feature","properties":{"id":46,"area_m2":400,"px":4,"rank":32},"geometry":{"type":"Polygon","coordinates":[[[-122.348074,47.573642],[-122.348073,47.573732],[-122.347807,47.573731],[-122.34781,47.573461],[-122.347943,47.573462],[-122.347951,47.573613],[-122.347998,47.573639],[-122.348074,47.573642]]]}},{"type":"Feature","properties":{"id":1,"area_m2":300,"px":3,"rank":33},"geometry":{"type":"Polygon","coordinates":[[[-122.347619,47.588846],[-122.347616,47.589116],[-122.347483,47.589115],[-122.347486,47.588845],[-122.347619,47.588846]]]}},{"type":"Feature","properties":{"id":2,"area_m2":300,"px":3,"rank":34},"geometry":{"type":"Polygon","coordinates":[[[-122.347756,47.588487],[-122.347754,47.588667],[-122.347645,47.588682],[-122.34762,47.588756],[-122.347487,47.588755],[-122.347488,47.588665],[-122.347572,47.588662],[-122.347618,47.588628],[-122.347624,47.588486],[-122.347756,47.588487]]]}},{"type":"Feature","properties":{"id":3,"area_m2":300,"px":3,"rank":35},"geometry":{"type":"Polygon","coordinates":[[[-122.34791,47.586868],[-122.347906,47.587138],[-122.347773,47.587137],[-122.347777,47.586868],[-122.34791,47.586868]]]}},{"type":"Feature","properties":{"id":7,"area_m2":300,"px":3,"rank":36},"geometry":{"type":"Polygon","coordinates":[[[-122.349147,47.583636],[-122.349144,47.583816],[-122.348879,47.583814],[-122.34888,47.583725],[-122.348989,47.583709],[-122.349014,47.583635],[-122.349147,47.583636]]]}},{"type":"Feature","properties":{"id":8,"area_m2":300,"px":3,"rank":37},"geometry":{"type":"Polygon","coordinates":[[[-122.347688,47.583268],[-122.347685,47.583538],[-122.347552,47.583537],[-122.347556,47.583267],[-122.347688,47.583268]]]}},{"type":"Feature","properties":{"id":10,"area_m2":300,"px":3,"rank":38},"geometry":{"type":"Polygon","coordinates":[[[-122.349567,47.581929],[-122.349563,47.582199],[-122.349431,47.582198],[-122.349434,47.581928],[-122.349567,47.581929]]]}},{"type":"Feature","properties":{"id":14,"area_m2":300,"px":3,"rank":39},"geometry":{"type":"Polygon","coordinates":[[[-122.348255,47.580482],[-122.348252,47.580752],[-122.348119,47.580751],[-122.348122,47.580481],[-122.348255,47.580482]]]}},{"type":"Feature","properties":{"id":17,"area_m2":300,"px":3,"rank":40},"geometry":{"type":"Polygon","coordinates":[[[-122.3472,47.579756],[-122.347197,47.580026],[-122.347064,47.580025],[-122.347067,47.579755],[-122.3472,47.579756]]]}},{"type":"Feature","properties":{"id":21,"area_m2":300,"px":3,"rank":41},"geometry":{"type":"Polygon","coordinates":[[[-122.354529,47.578538],[-122.354526,47.578807],[-122.354393,47.578807],[-122.354396,47.578537],[-122.354529,47.578538]]]}},{"type":"Feature","properties":{"id":25,"area_m2":300,"px":3,"rank":42},"geometry":{"type":"Polygon","coordinates":[[[-122.351349,47.57762],[-122.351347,47.5778],[-122.351081,47.577798],[-122.351082,47.577708],[-122.351192,47.577693],[-122.351216,47.577619],[-122.351349,47.57762]]]}},{"type":"Feature","properties":{"id":27,"area_m2":300,"px":3,"rank":43},"geometry":{"type":"Polygon","coordinates":[[[-122.350035,47.576353],[-122.350031,47.576623],[-122.349899,47.576622],[-122.349902,47.576352],[-122.350035,47.576353]]]}},{"type":"Feature","properties":{"id":30,"area_m2":300,"px":3,"rank":44},"geometry":{"type":"Polygon","coordinates":[[[-122.353762,47.576014],[-122.35376,47.576194],[-122.353494,47.576192],[-122.353495,47.576102],[-122.353605,47.576087],[-122.353629,47.576013],[-122.353762,47.576014]]]}},{"type":"Feature","properties":{"id":38,"area_m2":300,"px":3,"rank":45},"geometry":{"type":"Polygon","coordinates":[[[-122.351914,47.574924],[-122.351911,47.575194],[-122.351778,47.575193],[-122.351781,47.574923],[-122.351914,47.574924]]]}},{"type":"Feature","properties":{"id":39,"area_m2":300,"px":3,"rank":46},"geometry":{"type":"Polygon","coordinates":[[[-122.354046,47.574576],[-122.354042,47.574846],[-122.35391,47.574845],[-122.353913,47.574575],[-122.354046,47.574576]]]}},{"type":"Feature","properties":{"id":42,"area_m2":300,"px":3,"rank":47},"geometry":{"type":"Polygon","coordinates":[[[-122.347799,47.574361],[-122.347798,47.57445],[-122.347399,47.574448],[-122.3474,47.574358],[-122.347799,47.574361]]]}},{"type":"Feature","properties":{"id":47,"area_m2":300,"px":3,"rank":48},"geometry":{"type":"Polygon","coordinates":[[[-122.351134,47.57348],[-122.351132,47.57366],[-122.350866,47.573658],[-122.350867,47.573568],[-122.350977,47.573553],[-122.351001,47.573479],[-122.351134,47.57348]]]}}]}