{"type":"FeatureCollection","features":[{"type":"Feature","properties":{"id":35,"area_m2":3900,"px":39,"rank":1},"geometry":{"type":"Polygon","coordinates":[[[-122.35084,47.575728],[-122.350839,47.575817],[-122.350729,47.575833],[-122.350705,47.575907],[-122.350368,47.575892],[-122.350312,47.575924],[-122.350305,47.575994],[-122.350103,47.575994],[-122.350045,47.576026],[-122.350033,47.576242],[-122.350087,47.576263],[-122.350302,47.576264],[-122.350298,47.576534],[-122.350033,47.576533],[-122.35001,47.576458],[-122.349901,47.576442],[-122.349901,47.576305],[-122.349861,47.576268],[-122.349504,47.57626],[-122.349509,47.5759],[-122.349618,47.575885],[-122.349643,47.575811],[-122.350258,47.57581],[-122.350306,47.575771],[-122.35031,47.575635],[-122.350708,47.575637],[-122.350731,47.575711],[-122.35084,47.575728]]]}},{"type":"Feature","properties":{"id":23,"area_m2":3400,"px":34,"rank":2},"geometry":{"type":"Polygon","coordinates":[[[-122.349863,47.579501],[-122.349861,47.579681],[-122.349751,47.579696],[-122.349726,47.57977],[-122.349607,47.579794],[-122.349592,47.579859],[-122.34946,47.579859],[-122.349451,47.579797],[-122.349396,47.579769],[-122.348796,47.579765],[-122.348801,47.579315],[-122.349011,47.579314],[-122.349067,47.579268],[-122.349067,47.57918],[-122.349034,47.579146],[-122.348804,47.579135],[-122.348808,47.578775],[-122.348918,47.57876],[-122.348942,47.578686],[-122.349075,47.578688],[-122.349074,47.578777],[-122.34899,47.57878],[-122.348944,47.578814],[-122.348952,47.578945],[-122.349016,47.57897],[-122.349205,47.578957],[-122.349212,47.579109],[-122.349259,47.579135],[-122.349335,47.579138],[-122.349333,47.579318],[-122.34909,47.579333],[-122.349067,47.579371],[-122.349083,47.579477],[-122.349198,47.579497],[-122.349215,47.579568],[-122.34933,47.579588],[-122.349343,47.579654],[-122.349409,47.579678],[-122.349566,47.579667],[-122.349596,47.57959],[-122.349716,47.579566],[-122.34973,47.5795],[-122.349863,47.579501]]]}},{"type":"Feature","properties":{"id":31,"area_m2":3200,"px":32,"rank":3},"geometry":{"type":"Polygon","coordinates":[[[-122.34817,47.576612],[-122.348169,47.576702],[-122.348071,47.576711],[-122.348035,47.576755],[-122.348032,47.577108],[-122.348073,47.577145],[-122.348163,47.577152],[-122.348162,47.577242],[-122.348086,47.577244],[-122.348038,47.57727],[-122.348027,47.577421],[-122.34793,47.577423],[-122.347882,47.57745],[-122.347892,47.5776],[-122.347759,47.577599],[-122.347696,47.577575],[-122.347626,47.577599],[-122.347493,47.577598],[-122.347496,47.577328],[-122.347618,47.577318],[-122.347707,47.577353],[-122.347783,47.577296],[-122.347742,47.577246],[-122.34763,47.577239],[-122.347632,47.577149],[-122.347751,47.577126],[-122.347766,47.577018],[-122.347724,47.576976],[-122.347634,47.576969],[-122.347635,47.576742],[-122.347595,47.576705],[-122.347504,47.576698],[-122.347505,47.576608],[-122.347729,47.576603],[-122.347768,47.576572],[-122.347774,47.57652],[-122.348038,47.576521],[-122.348061,47.576596],[-122.34817,47.576612]]]}},{"type":"Feature","properties":{"id":11,"area_m2":2800,"px":28,"rank":4},"geometry":{"type":"Polygon","coordinates":[[[-122.349147,47.583367],[-122.349114,47.583414],[-122.349149,47.583457],[-122.349143,47.583906],[-122.348878,47.583904],[-122.348855,47.58383],[-122.348746,47.583812],[-122.348747,47.583724],[-122.348838,47.583718],[-122.348879,47.583681],[-122.348884,47.583365],[-122.34892,47.583322],[-122.348868,47.583204],[-122.348753,47.583184],[-122.348755,47.583094],[-122.348831,47.583092],[-122.348878,47.583066],[-122.348891,47.582825],[-122.348982,47.582819],[-122.349024,47.582777],[-122.349012,47.582669],[-122.348893,47.582645],[-122.348894,47.582555],[-122.34916,47.582556],[-122.349147,47.583367]]]}},{"type":"Feature","properties":{"id":30,"area_m2":2600,"px":26,"rank":5},"geometry":{"type":"Polygon","coordinates":[[[-122.346961,47.577595],[-122.34696,47.577685],[-122.34685,47.5777],[-122.346826,47.577774],[-122.346562,47.577773],[-122.346582,47.577643],[-122.346548,47.577602],[-122.346163,47.57759],[-122.346156,47.577439],[-122.346109,47.577413],[-122.346033,47.57741],[-122.346037,47.57705],[-122.34617,47.577051],[-122.346248,47.577075],[-122.346407,47.57704],[-122.346437,47.576962],[-122.346836,47.576964],[-122.346832,47.577234],[-122.346796,47.577282],[-122.346831,47.577324],[-122.346829,47.577546],[-122.34687,47.577588],[-122.346961,47.577595]],[[-122.346616,47.577503],[-122.346691,47.57747],[-122.346696,47.577367],[-122.346656,47.57733],[-122.346566,47.577323],[-122.34655,47.57724],[-122.346686,47.57721],[-122.3467,47.577097],[-122.346645,47.577056],[-122.3465,47.577054],[-122.346437,47.577096],[-122.34645,47.577225],[-122.34635,47.577236],[-122.346304,47.57727],[-122.346299,47.577458],[-122.346362,47.577501],[-122.346616,47.577503]]]}},{"type":"Feature","properties":{"id":42,"area_m2":1900,"px":19,"rank":6},"geometry":{"type":"Polygon","coordinates":[[[-122.352841,47.575199],[-122.352838,47.575469],[-122.352705,47.575468],[-122.352635,47.575444],[-122.352475,47.575476],[-122.352439,47.575515],[-122.352437,47.575646],[-122.352304,47.575646],[-122.352282,47.575571],[-122.352172,47.575555],[-122.352177,47.575195],[-122.3524,47.57519],[-122.35244,47.575158],[-122.352446,47.575107],[-122.35271,47.575108],[-122.352732,47.575182],[-122.352841,47.575199]]]}},{"type":"Feature","properties":{"id":19,"area_m2":1800,"px":18,"rank":7},"geometry":{"type":"Polygon","coordinates":[[[-122.348386,47.580662],[-122.348384,47.580752],[-122.348281,47.580764],[-122.34825,47.580842],[-122.348153,47.58085],[-122.348116,47.580931],[-122.347997,47.580954],[-122.347981,47.58111],[-122.347848,47.581109],[-122.347826,47.581035],[-122.347716,47.581018],[-122.347721,47.580659],[-122.347909,47.580673],[-122.347964,47.580657],[-122.347988,47.58057],[-122.348072,47.580567],[-122.348115,47.580538],[-122.348123,47.580391],[-122.348256,47.580392],[-122.348257,47.580623],[-122.348302,47.580658],[-122.348386,47.580662]]]}},{"type":"Feature","properties":{"id":56,"area_m2":1600,"px":16,"rank":8},"geometry":{"type":"Polygon","coordinates":[[[-122.347677,47.57346],[-122.347676,47.57355],[-122.347482,47.573549],[-122.347423,47.573573],[-122.347408,47.573728],[-122.347275,47.573728],[-122.347278,47.573458],[-122.347315,47.573416],[-122.34728,47.573368],[-122.347284,47.573008],[-122.347375,47.573002],[-122.347416,47.572965],[-122.347423,47.572559],[-122.347555,47.572561],[-122.347549,47.573099],[-122.347465,47.573103],[-122.347421,47.573132],[-122.347415,47.573325],[-122.347455,47.573362],[-122.347545,47.573369],[-122.347574,47.573447],[-122.347677,47.57346]]]}},{"type":"Feature","properties":{"id":10,"area_m2":1300,"px":13,"rank":9},"geometry":{"type":"Polygon","coordinates":[[[-122.349139,47.584266],[-122.349134,47.584626],[-122.349037,47.584634],[-122.349001,47.584679],[-122.349013,47.584781],[-122.349132,47.584806],[-122.349131,47.584896],[-122.349055,47.584898],[-122.349007,47.584923],[-122.348996,47.585075],[-122.348863,47.585074],[-122.34887,47.584534],[-122.348967,47.584526],[-122.349003,47.584481],[-122.348991,47.584379],[-122.348872,47.584354],[-122.348874,47.584174],[-122.349007,47.584175],[-122.349029,47.584249],[-122.349139,47.584266]]]}},{"type":"Feature","properties":{"id":54,"area_m2":1300,"px":13,"rank":10},"geometry":{"type":"Polygon","coordinates":[[[-122.348333,47.573915],[-122.3483,47.573961],[-122.348335,47.574004],[-122.348333,47.574184],[-122.348067,47.574182],[-122.348064,47.57413],[-122.348026,47.574098],[-122.347802,47.574091],[-122.347804,47.574001],[-122.347894,47.573995],[-122.347935,47.573958],[-122.34794,47.573732],[-122.348206,47.573733],[-122.348228,47.573807],[-122.348337,47.573824],[-122.348333,47.573915]]]}},{"type":"Feature","properties":{"id":46,"area_m2":1200,"px":12,"rank":11},"geometry":{"type":"Polygon","coordinates":[[[-122.347265,47.574537],[-122.347263,47.574717],[-122.347153,47.574733],[-122.347129,47.574807],[-122.346996,47.574806],[-122.346975,47.574628],[-122.346921,47.574612],[-122.346732,47.574624],[-122.346735,47.574355],[-122.347134,47.574357],[-122.347142,47.574508],[-122.347189,47.574535],[-122.347265,47.574537]]]}},{"type":"Feature","properties":{"id":13,"area_m2":1100,"px":11,"rank":12},"geometry":{"type":"Polygon","coordinates":[[[-122.348624,47.582913],[-122.348621,47.583093],[-122.348524,47.583102],[-122.348488,47.583146],[-122.3485,47.583248],[-122.348619,47.583273],[-122.348616,47.583543],[-122.348483,47.583542],[-122.348475,47.583391],[-122.348429,47.583364],[-122.348352,47.583362],[-122.348359,47.582822],[-122.348492,47.582823],[-122.348514,47.582897],[-122.348624,47.582913]]]}},{"type":"Feature","properties":{"id":52,"area_m2":1100,"px":11,"rank":13},"geometry":{"type":"Polygon","coordinates":[[[-122.353391,47.573762],[-122.353388,47.574032],[-122.353278,47.574047],[-122.353254,47.574121],[-122.353156,47.57413],[-122.353119,47.574211],[-122.353004,47.57423],[-122.352985,47.5743],[-122.352853,47.574299],[-122.352855,47.574119],[-122.352952,47.574111],[-122.352989,47.57403],[-122.353073,47.574026],[-122.353119,47.573992],[-122.353125,47.573761],[-122.353391,47.573762]]]}},{"type":"Feature","properties":{"id":29,"area_m2":1000,"px":10,"rank":14},"geometry":{"type":"Polygon","coordinates":[[[-122.348155,47.577782],[-122.348153,47.577962],[-122.34802,47.577961],[-122.348015,47.577904],[-122.347972,47.577875],[-122.34782,47.577871],[-122.347756,47.577913],[-122.347753,47.578049],[-122.347487,47.578048],[-122.347488,47.577958],[-122.347579,47.577952],[-122.34762,47.577915],[-122.347625,47.577689],[-122.347891,47.57769],[-122.347893,47.577742],[-122.347932,47.577774],[-122.348155,47.577782]]]}},{"type":"Feature","properties":{"id":48,"area_m2":1000,"px":10,"rank":15},"geometry":{"type":"Polygon","coordinates":[[[-122.348731,47.574276],[-122.348726,47.574636],[-122.348328,47.574633],[-122.348331,47.574364],[-122.34854,47.574362],[-122.348591,47.574332],[-122.348598,47.574275],[-122.348731,47.574276]]]}},{"type":"Feature","properties":{"id":49,"area_m2":1000,"px":10,"rank":16},"geometry":{"type":"Polygon","coordinates":[[[-122.353384,47.574302],[-122.353383,47.574392],[-122.353153,47.5744],[-122.353116,47.574481],[-122.352996,47.574504],[-122.352982,47.57457],[-122.352716,47.574568],[-122.352704,47.574502],[-122.352638,47.574478],[-122.352375,47.574479],[-122.352324,47.574509],[-122.352317,47.574566],[-122.352185,47.574565],[-122.352186,47.574475],[-122.352295,47.57446],[-122.35232,47.574386],[-122.352439,47.574363],[-122.352454,47.574297],[-122.352587,47.574298],[-122.352604,47.574368],[-122.352718,47.574388],[-122.352731,47.574454],[-122.352797,47.574479],[-122.352954,47.574467],[-122.352984,47.57439],[-122.353104,47.574367],[-122.353119,47.574301],[-122.353384,47.574302]]]}},{"type":"Feature","properties":{"id":45,"area_m2":900,"px":9,"rank":17},"geometry":{"type":"Polygon","coordinates":[[[-122.352051,47.574565],[-122.35205,47.574654],[-122.351941,47.57467],[-122.351916,47.574744],[-122.351722,47.574743],[-122.351668,47.574762],[-122.351648,47.574922],[-122.351249,47.57492],[-122.35125,47.57483],[-122.351444,47.574831],[-122.351503,47.574807],[-122.351519,47.574652],[-122.351742,47.574646],[-122.351781,47.574615],[-122.351786,47.574563],[-122.352051,47.574565]]]}},{"type":"Feature","properties":{"id":2,"area_m2":800,"px":8,"rank":18},"geometry":{"type":"Polygon","coordinates":[[[-122.34802,47.588668],[-122.348019,47.588758],[-122.347886,47.588758],[-122.347878,47.588696],[-122.347823,47.588668],[-122.347355,47.588665],[-122.347357,47.588575],[-122.347466,47.588559],[-122.347491,47.588486],[-122.347889,47.588488],[-122.347897,47.588639],[-122.347944,47.588666],[-122.34802,47.588668]]]}},{"type":"Feature","properties":{"id":8,"area_m2":800,"px":8,"rank":19},"geometry":{"type":"Polygon","coordinates":[[[-122.348193,47.58543],[-122.348192,47.58552],[-122.348109,47.585524],[-122.348062,47.585558],[-122.348057,47.585699],[-122.347973,47.585703],[-122.34793,47.585732],[-122.347922,47.585878],[-122.347838,47.585882],[-122.347795,47.585911],[-122.347787,47.586058],[-122.347654,47.586057],[-122.347656,47.585877],[-122.347747,47.585871],[-122.347788,47.585834],[-122.347792,47.585608],[-122.347902,47.585593],[-122.347927,47.585519],[-122.348046,47.585495],[-122.348061,47.585429],[-122.348193,47.58543]]]}},{"type":"Feature","properties":{"id":21,"area_m2":800,"px":8,"rank":20},"geometry":{"type":"Polygon","coordinates":[[[-122.349723,47.58004],[-122.349722,47.58013],[-122.34919,47.580127],[-122.349194,47.579857],[-122.349326,47.579858],[-122.349332,47.579915],[-122.349382,47.579946],[-122.349591,47.579949],[-122.349614,47.580024],[-122.349723,47.58004]]]}},{"type":"Feature","properties":{"id":53,"area_m2":800,"px":8,"rank":21},"geometry":{"type":"Polygon","coordinates":[[[-122.348867,47.574007],[-122.348866,47.574097],[-122.348756,47.574112],[-122.348732,47.574186],[-122.348466,47.574184],[-122.348471,47.573825],[-122.348736,47.573826],[-122.348723,47.573976],[-122.34877,47.574004],[-122.348867,47.574007]]]}},{"type":"Feature","properties":{"id":1,"area_m2":700,"px":7,"rank":22},"geometry":{"type":"Polygon","coordinates":[[[-122.348683,47.588852],[-122.34868,47.589122],[-122.348547,47.589121],[-122.348541,47.589065],[-122.348491,47.589033],[-122.348282,47.58903],[-122.348284,47.58885],[-122.348683,47.588852]]]}},{"type":"Feature","properties":{"id":3,"area_m2":700,"px":7,"rank":23},"geometry":{"type":"Polygon","coordinates":[[[-122.348173,47.58705],[-122.348171,47.58723],[-122.348095,47.587232],[-122.348047,47.587257],[-122.348036,47.587409],[-122.347926,47.587424],[-122.347902,47.587498],[-122.347769,47.587497],[-122.347772,47.587227],[-122.348003,47.58722],[-122.348038,47.58718],[-122.348041,47.587049],[-122.348173,47.58705]]]}},{"type":"Feature","properties":{"id":4,"area_m2":700,"px":7,"rank":24},"geometry":{"type":"Polygon","coordinates":[[[-122.348181,47.58642],[-122.34818,47.58651],[-122.348082,47.586518],[-122.348046,47.586599],[-122.34797,47.586601],[-122.347922,47.586627],[-122.347911,47.586778],[-122.347801,47.586793],[-122.347777,47.586867],[-122.347644,47.586867],[-122.347646,47.586687],[-122.347744,47.586678],[-122.34778,47.586598],[-122.3479,47.586574],[-122.347915,47.586418],[-122.348181,47.58642]]]}},{"type":"Feature","properties":{"id":14,"area_m2":700,"px":7,"rank":25},"geometry":{"type":"Polygon","coordinates":[[[-122.349167,47.582017],[-122.349161,47.582466],[-122.349028,47.582466],[-122.349006,47.582391],[-122.348896,47.582375],[-122.348899,47.582195],[-122.348975,47.582193],[-122.349023,47.582167],[-122.349034,47.582016],[-122.349167,47.582017]]]}},{"type":"Feature","properties":{"id":15,"area_m2":700,"px":7,"rank":26},"geometry":{"type":"Polygon","coordinates":[[[-122.348236,47.582011],[-122.348234,47.582191],[-122.348136,47.5822],[-122.3481,47.582244],[-122.348112,47.582346],[-122.348231,47.582371],[-122.34823,47.582461],[-122.348097,47.58246],[-122.348095,47.582409],[-122.348056,47.582376],[-122.347833,47.582369],[-122.347835,47.582189],[-122.348065,47.582181],[-122.348101,47.582142],[-122.348103,47.582011],[-122.348236,47.582011]]]}},{"type":"Feature","properties":{"id":26,"area_m2":700,"px":7,"rank":27},"geometry":{"type":"Polygon","coordinates":[[[-122.353598,47.578532],[-122.353597,47.578622],[-122.3535,47.578631],[-122.353463,47.578676],[-122.353476,47.578778],[-122.353595,47.578802],[-122.353594,47.578892],[-122.353484,47.578907],[-122.35346,47.578981],[-122.353327,47.578981],[-122.353304,47.578906],[-122.353195,47.57889],[-122.353196,47.5788],[-122.353272,47.578798],[-122.35332,47.578772],[-122.353331,47.578621],[-122.353441,47.578606],[-122.353465,47.578532],[-122.353598,47.578532]]]}},{"type":"Feature","properties":{"id":36,"area_m2":700,"px":7,"rank":28},"geometry":{"type":"Polygon","coordinates":[[[-122.34871,47.575985],[-122.348707,47.576165],[-122.348603,47.576169],[-122.348556,47.576204],[-122.348572,47.576344],[-122.348439,47.576344],[-122.348417,47.576269],[-122.348308,47.576253],[-122.348273,47.576172],[-122.348176,47.576162],[-122.348177,47.576072],[-122.348511,47.576073],[-122.348567,47.576046],[-122.348577,47.575985],[-122.34871,47.575985]]]}},{"type":"Feature","properties":{"id":38,"area_m2":700,"px":7,"rank":29},"geometry":{"type":"Polygon","coordinates":[[[-122.349243,47.575898],[-122.349241,47.575988],[-122.349144,47.575997],[-122.349108,47.576042],[-122.34912,47.576144],[-122.349239,47.576168],[-122.349238,47.576258],[-122.348839,47.576256],[-122.348842,47.576076],[-122.348951,47.576061],[-122.348976,47.575987],[-122.349095,47.575964],[-122.34911,47.575898],[-122.349243,47.575898]]]}},{"type":"Feature","properties":{"id":55,"area_m2":700,"px":7,"rank":30},"geometry":{"type":"Polygon","coordinates":[[[-122.352059,47.573935],[-122.352058,47.574025],[-122.351948,47.57404],[-122.351924,47.574114],[-122.351658,47.574112],[-122.351662,47.573843],[-122.351927,47.573844],[-122.35195,47.573918],[-122.352059,47.573935]]]}},{"type":"Feature","properties":{"id":9,"area_m2":600,"px":6,"rank":31},"geometry":{"type":"Polygon","coordinates":[[[-122.349123,47.585525],[-122.34912,47.585795],[-122.348854,47.585794],[-122.348857,47.585524],[-122.349123,47.585525]]]}},{"type":"Feature","properties":{"id":18,"area_m2":600,"px":6,"rank":32},"geometry":{"type":"Polygon","coordinates":[[[-122.349579,47.580939],[-122.349573,47.581389],[-122.349308,47.581387],[-122.349309,47.581298],[-122.3494,47.581292],[-122.349441,47.581255],[-122.349446,47.580938],[-122.349579,47.580939]]]}},{"type":"Feature","properties":{"id":24,"area_m2":600,"px":6,"rank":33},"geometry":{"type":"Polygon","coordinates":[[[-122.347874,47.57904],[-122.347873,47.57913],[-122.347763,47.579145],[-122.347739,47.579219],[-122.347606,47.579218],[-122.347583,47.579144],[-122.347474,47.579127],[-122.347476,47.578948],[-122.347742,47.578949],[-122.347764,47.579023],[-122.347874,47.57904]]]}},{"type":"Feature","properties":{"id":37,"area_m2":600,"px":6,"rank":34},"geometry":{"type":"Polygon","coordinates":[[[-122.346847,47.576065],[-122.346845,47.576245],[-122.346735,47.57626],[-122.346711,47.576334],[-122.346578,47.576333],[-122.346576,47.576191],[-122.346531,47.576157],[-122.346447,47.576152],[-122.346448,47.576062],[-122.346847,47.576065]]]}},{"type":"Feature","properties":{"id":12,"area_m2":500,"px":5,"rank":35},"geometry":{"type":"Polygon","coordinates":[[[-122.346887,47.583533],[-122.346884,47.583803],[-122.346774,47.583818],[-122.34675,47.583892],[-122.346617,47.583892],[-122.346618,47.583802],[-122.346715,47.583793],[-122.346751,47.583748],[-122.346739,47.583646],[-122.34662,47.583622],[-122.346621,47.583532],[-122.346887,47.583533]]]}},{"type":"Feature","properties":{"id":16,"area_m2":500,"px":5,"rank":36},"geometry":{"type":"Polygon","coordinates":[[[-122.348106,47.581741],[-122.348104,47.58192],[-122.347994,47.581936],[-122.34797,47.58201],[-122.347837,47.582009],[-122.34784,47.581739],[-122.348106,47.581741]]]}},{"type":"Feature","properties":{"id":20,"area_m2":500,"px":5,"rank":37},"geometry":{"type":"Polygon","coordinates":[[[-122.348125,47.580211],[-122.348124,47.580301],[-122.348014,47.580316],[-122.34799,47.58039],[-122.347724,47.580389],[-122.347726,47.580209],[-122.348125,47.580211]]]}},{"type":"Feature","properties":{"id":28,"area_m2":500,"px":5,"rank":38},"geometry":{"type":"Polygon","coordinates":[[[-122.349479,47.578239],[-122.349477,47.578419],[-122.349211,47.578418],[-122.349215,47.578148],[-122.349348,47.578148],[-122.34937,47.578223],[-122.349479,47.578239]]]}},{"type":"Feature","properties":{"id":44,"area_m2":500,"px":5,"rank":39},"geometry":{"type":"Polygon","coordinates":[[[-122.34925,47.575269],[-122.349248,47.575448],[-122.349115,47.575448],[-122.34911,47.575391],[-122.34906,47.57536],[-122.348851,47.575356],[-122.348852,47.575266],[-122.348961,47.575251],[-122.348986,47.575177],[-122.349118,47.575178],[-122.349141,47.575252],[-122.34925,47.575269]]]}},{"type":"Feature","properties":{"id":47,"area_m2":500,"px":5,"rank":40},"geometry":{"type":"Polygon","coordinates":[[[-122.35099,47.574379],[-122.350988,47.574558],[-122.350878,47.574574],[-122.350854,47.574648],[-122.350721,47.574647],[-122.350724,47.574377],[-122.35099,47.574379]]]}},{"type":"Feature","properties":{"id":27,"area_m2":400,"px":4,"rank":41},"geometry":{"type":"Polygon","coordinates":[[[-122.348143,47.578772],[-122.348141,47.578951],[-122.348008,47.578951],[-122.348003,47.578894],[-122.347952,47.578863],[-122.347743,47.578859],[-122.347744,47.578769],[-122.348143,47.578772]]]}},{"type":"Feature","properties":{"id":25,"area_m2":400,"px":4,"rank":42},"geometry":{"type":"Polygon","coordinates":[[[-122.354527,47.578718],[-122.354523,47.578987],[-122.354414,47.579003],[-122.354389,47.579077],[-122.354257,47.579076],[-122.354258,47.578986],[-122.354348,47.57898],[-122.35439,47.578943],[-122.354394,47.578717],[-122.354527,47.578718]]]}},{"type":"Feature","properties":{"id":33,"area_m2":400,"px":4,"rank":43},"geometry":{"type":"Polygon","coordinates":[[[-122.349236,47.576438],[-122.349232,47.576708],[-122.3491,47.576707],[-122.349098,47.576566],[-122.349053,47.576531],[-122.348969,47.576527],[-122.34897,47.576437],[-122.349236,47.576438]]]}},{"type":"Feature","properties":{"id":40,"area_m2":400,"px":4,"rank":44},"geometry":{"type":"Polygon","coordinates":[[[-122.348714,47.575625],[-122.348712,47.575805],[-122.348313,47.575803],[-122.348314,47.575713],[-122.348523,47.575712],[-122.348574,47.575681],[-122.348581,47.575625],[-122.348714,47.575625]]]}},{"type":"Feature","properties":{"id":41,"area_m2":400,"px":4,"rank":45},"geometry":{"type":"Polygon","coordinates":[[[-122.353102,47.57565],[-122.353101,47.57574],[-122.352835,47.575739],[-122.352812,47.575664],[-122.352703,47.575648],[-122.352704,47.575558],[-122.35297,47.57556],[-122.352992,47.575634],[-122.353102,47.57565]]]}},{"type":"Feature","properties":{"id":57,"area_m2":400,"px":4,"rank":46},"geometry":{"type":"Polygon","coordinates":[[[-122.346478,47.573633],[-122.346477,47.573723],[-122.346346,47.573722],[-122.346322,47.573648],[-122.346213,47.573632],[-122.346216,47.573362],[-122.346349,47.573363],[-122.346349,47.573594],[-122.346395,47.573629],[-122.346478,47.573633]]]}},{"type":"Feature","properties":{"id":60,"area_m2":400,"px":4,"rank":47},"geometry":{"type":"Polygon","coordinates":[[[-122.347694,47.572111],[-122.347689,47.57247],[-122.347557,47.57247],[-122.347561,47.57211],[-122.347694,47.572111]]]}},{"type":"Feature","properties":{"id":5,"area_m2":300,"px":3,"rank":48},"geometry":{"type":"Polygon","coordinates":[[[-122.349243,47.586606],[-122.349242,47.586696],[-122.349132,47.586711],[-122.349108,47.586785],[-122.348975,47.586784],[-122.348977,47.586604],[-122.349243,47.586606]]]}},{"type":"Feature","properties":{"id":6,"area_m2":300,"px":3,"rank":49},"geometry":{"type":"Polygon","coordinates":[[[-122.346856,47.586052],[-122.346855,47.586142],[-122.346745,47.586158],[-122.346721,47.586232],[-122.346588,47.586231],[-122.34659,47.586051],[-122.346856,47.586052]]]}},{"type":"Feature","properties":{"id":7,"area_m2":300,"px":3,"rank":50},"geometry":{"type":"Polygon","coordinates":[[[-122.349119,47.585885],[-122.349115,47.586155],[-122.348983,47.586154],[-122.348986,47.585885],[-122.349119,47.585885]]]}},{"type":"Feature","properties":{"id":17,"area_m2":300,"px":3,"rank":51},"geometry":{"type":"Polygon","coordinates":[[[-122.348638,47.581744],[-122.348636,47.581923],[-122.34837,47.581922],[-122.348371,47.581832],[-122.348481,47.581817],[-122.348505,47.581743],[-122.348638,47.581744]]]}},{"type":"Feature","properties":{"id":22,"area_m2":300,"px":3,"rank":52},"geometry":{"type":"Polygon","coordinates":[[[-122.348662,47.579854],[-122.348659,47.580034],[-122.34855,47.580049],[-122.348525,47.580123],[-122.348392,47.580122],[-122.348394,47.580033],[-122.348477,47.580029],[-122.348524,47.579995],[-122.348529,47.579853],[-122.348662,47.579854]]]}},{"type":"Feature","properties":{"id":32,"area_m2":300,"px":3,"rank":53},"geometry":{"type":"Polygon","coordinates":[[[-122.3499,47.576532],[-122.349898,47.576622],[-122.349789,47.576637],[-122.349764,47.576711],[-122.349632,47.57671],[-122.349634,47.57653],[-122.3499,47.576532]]]}},{"type":"Feature","properties":{"id":34,"area_m2":300,"px":3,"rank":54},"geometry":{"type":"Polygon","coordinates":[[[-122.352826,47.576459],[-122.352824,47.576638],[-122.352558,47.576637],[-122.352559,47.576547],[-122.352669,47.576532],[-122.352693,47.576458],[-122.352826,47.576459]]]}},{"type":"Feature","properties":{"id":39,"area_m2":300,"px":3,"rank":55},"geometry":{"type":"Polygon","coordinates":[[[-122.351103,47.575999],[-122.351101,47.576179],[-122.350835,47.576177],[-122.350836,47.576087],[-122.350946,47.576072],[-122.35097,47.575998],[-122.351103,47.575999]]]}},{"type":"Feature","properties":{"id":43,"area_m2":300,"px":3,"rank":56},"geometry":{"type":"Polygon","coordinates":[[[-122.348051,47.575442],[-122.34805,47.575532],[-122.347941,47.575547],[-122.347916,47.575621],[-122.347783,47.57562],[-122.347786,47.57544],[-122.348051,47.575442]]]}},{"type":"Feature","properties":{"id":50,"area_m2":300,"px":3,"rank":57},"geometry":{"type":"Polygon","coordinates":[[[-122.35139,47.574291],[-122.351389,47.574381],[-122.351279,47.574396],[-122.351255,47.57447],[-122.351122,47.574469],[-122.351124,47.574289],[-122.35139,47.574291]]]}},{"type":"Feature","properties":{"id":51,"area_m2":300,"px":3,"rank":58},"geometry":{"type":"Polygon","coordinates":[[[-122.353917,47.574215],[-122.353915,47.574395],[-122.353782,47.574394],[-122.35376,47.57432],[-122.35365,47.574304],[-122.353651,47.574214],[-122.353917,47.574215]]]}},{"type":"Feature","properties":{"id":58,"area_m2":300,"px":3,"rank":59},"geometry":{"type":"Polygon","coordinates":[[[-122.350474,47.573116],[-122.350471,47.573296],[-122.350206,47.573294],[-122.350207,47.573205],[-122.350317,47.573189],[-122.350341,47.573115],[-122.350474,47.573116]]]}},{"type":"Feature","properties":{"id":59,"area_m2":300,"px":3,"rank":60},"geometry":{"type":"Polygon","coordinates":[[[-122.350074,47.573204],[-122.350073,47.573294],[-122.349807,47.573292],[-122.349809,47.573112],[-122.349942,47.573113],[-122.349964,47.573187],[-122.350074,47.573204]]]}}]}