{"type":"FeatureCollection","features":[{"type":"Feature","properties":{"id":26,"area_m2":24300,"px":243,"rank":1},"geometry":{"type":"Polygon","coordinates":[[[-122.349996,47.579502],[-122.349995,47.579592],[-122.349911,47.579595],[-122.349865,47.579629],[-122.349859,47.579771],[-122.349658,47.579771],[-122.349597,47.579808],[-122.349598,47.579916],[-122.349641,47.579946],[-122.349724,47.57995],[-122.349723,47.58004],[-122.349613,47.580055],[-122.349589,47.580129],[-122.349456,47.580129],[-122.349453,47.580077],[-122.349415,47.580045],[-122.349191,47.580037],[-122.349194,47.579816],[-122.349165,47.579779],[-122.348796,47.579765],[-122.348797,47.579634],[-122.348762,47.579594],[-122.348399,47.579583],[-122.3484,47.579493],[-122.348436,47.579445],[-122.348382,47.579389],[-122.348316,47.57938],[-122.348153,47.579421],[-122.348136,47.579633],[-122.348181,47.579667],[-122.348265,47.579672],[-122.34828,47.579754],[-122.34814,47.57979],[-122.348145,47.579934],[-122.348005,47.579969],[-122.347974,47.580064],[-122.347996,47.580104],[-122.3482,47.580121],[-122.348263,47.580101],[-122.34828,47.580061],[-122.348245,47.579949],[-122.348386,47.579914],[-122.348381,47.57977],[-122.348679,47.579772],[-122.348662,47.579854],[-122.348578,47.579858],[-122.348534,47.579887],[-122.348525,47.580123],[-122.348449,47.580125],[-122.348401,47.580151],[-122.34839,47.580302],[-122.348278,47.580309],[-122.348236,47.580352],[-122.348264,47.580543],[-122.34831,47.58057],[-122.348387,47.580572],[-122.348421,47.580653],[-122.348519,47.580663],[-122.348517,47.580753],[-122.34813,47.580762],[-122.348114,47.580681],[-122.348072,47.580651],[-122.347877,47.580675],[-122.34784,47.58081],[-122.347903,47.580839],[-122.348106,47.58083],[-122.348115,47.581019],[-122.347872,47.581035],[-122.347847,47.581199],[-122.347714,47.581198],[-122.347692,47.581124],[-122.347582,47.581108],[-122.347548,47.581027],[-122.34745,47.581017],[-122.347453,47.580782],[-122.34742,47.580743],[-122.347188,47.580745],[-122.34716,47.580668],[-122.347001,47.580631],[-122.346923,47.580654],[-122.346657,47.580652],[-122.34666,47.580383],[-122.346891,47.580375],[-122.346928,47.580294],[-122.347031,47.580283],[-122.347062,47.580205],[-122.347152,47.580199],[-122.347194,47.580162],[-122.347178,47.580045],[-122.347125,47.580026],[-122.346931,47.580024],[-122.346932,47.579934],[-122.347052,47.579911],[-122.347067,47.579755],[-122.347182,47.579736],[-122.347202,47.579576],[-122.347293,47.57957],[-122.347334,47.579533],[-122.347359,47.579262],[-122.347312,47.579221],[-122.347207,47.579216],[-122.347208,47.579126],[-122.347312,47.579114],[-122.347342,47.579037],[-122.347433,47.579031],[-122.347474,47.578994],[-122.347502,47.578453],[-122.347455,47.578412],[-122.34735,47.578407],[-122.347351,47.578318],[-122.347427,47.578315],[-122.347475,47.578289],[-122.347486,47.578138],[-122.347696,47.578137],[-122.347746,47.578106],[-122.347753,47.578049],[-122.347886,47.57805],[-122.347885,47.57814],[-122.347801,47.578144],[-122.347758,47.578173],[-122.347752,47.578276],[-122.347792,47.578313],[-122.347883,47.57832],[-122.347885,47.578385],[-122.347929,47.57842],[-122.348148,47.578412],[-122.348145,47.578591],[-122.348026,47.578615],[-122.348011,47.578722],[-122.348052,47.578765],[-122.348143,47.578772],[-122.348143,47.578922],[-122.348195,47.578963],[-122.348407,47.578953],[-122.348485,47.578977],[-122.348624,47.57895],[-122.348667,47.578921],[-122.348687,47.578804],[-122.348639,47.578777],[-122.348542,47.578774],[-122.348508,47.578693],[-122.34841,47.578683],[-122.348411,47.578593],[-122.348544,47.578594],[-122.348607,47.578618],[-122.348677,47.578595],[-122.348943,47.578596],[-122.349006,47.57862],[-122.349076,47.578597],[-122.349209,47.578598],[-122.349207,47.578777],[-122.349087,47.578801],[-122.349072,47.578903],[-122.349107,47.578948],[-122.349205,47.578957],[-122.349212,47.579473],[-122.349331,47.579498],[-122.349339,47.579573],[-122.349407,47.579602],[-122.349567,47.579577],[-122.349597,47.5795],[-122.349996,47.579502]],[[-122.347129,47.580565],[-122.347527,47.58058],[-122.34758,47.580553],[-122.347585,47.580421],[-122.347542,47.580392],[-122.347458,47.580387],[-122.34746,47.580242],[-122.347432,47.580206],[-122.347376,47.580193],[-122.347244,47.58021],[-122.347196,47.580249],[-122.347192,47.580386],[-122.347109,47.580389],[-122.347065,47.580418],[-122.347064,47.580532],[-122.347129,47.580565]],[[-122.347854,47.58019],[-122.347879,47.580069],[-122.347833,47.580034],[-122.347527,47.580029],[-122.347468,47.580061],[-122.347442,47.580162],[-122.347504,47.580206],[-122.34779,47.580222],[-122.347854,47.58019]],[[-122.347941,47.580394],[-122.347794,47.580376],[-122.347737,47.580399],[-122.347726,47.58053],[-122.347779,47.580567],[-122.347931,47.580567],[-122.347985,47.580532],[-122.347986,47.580428],[-122.347941,47.580394]],[[-122.348609,47.579122],[-122.348405,47.579133],[-122.348334,47.579108],[-122.348181,47.579138],[-122.348142,47.57917],[-122.348125,47.579282],[-122.348165,47.579307],[-122.348332,47.579336],[-122.348402,47.579313],[-122.348626,47.579308],[-122.348667,47.579271],[-122.348665,47.579154],[-122.348609,47.579122]]]}},{"type":"Feature","properties":{"id":16,"area_m2":14100,"px":141,"rank":2},"geometry":{"type":"Polygon","coordinates":[[[-122.348636,47.581655],[-122.348603,47.581701],[-122.348638,47.581744],[-122.348636,47.581923],[-122.3486,47.581971],[-122.348635,47.582014],[-122.348633,47.582193],[-122.348367,47.582192],[-122.348296,47.582167],[-122.348214,47.582204],[-122.34823,47.582461],[-122.348111,47.582484],[-122.348096,47.582586],[-122.348131,47.582631],[-122.348228,47.582641],[-122.348227,47.582731],[-122.347996,47.582739],[-122.347925,47.582856],[-122.347959,47.582909],[-122.347966,47.583061],[-122.348013,47.583087],[-122.348089,47.58309],[-122.348072,47.583325],[-122.348122,47.583358],[-122.348219,47.583361],[-122.348217,47.583541],[-122.347951,47.583539],[-122.347942,47.583478],[-122.347888,47.58345],[-122.347462,47.583453],[-122.34742,47.583495],[-122.347417,47.583716],[-122.34734,47.583718],[-122.347293,47.583744],[-122.347282,47.583895],[-122.347149,47.583895],[-122.347151,47.583715],[-122.347242,47.583709],[-122.347283,47.583672],[-122.347301,47.583295],[-122.347246,47.583266],[-122.347024,47.583264],[-122.347045,47.583135],[-122.346998,47.583088],[-122.346494,47.58308],[-122.346495,47.582991],[-122.346992,47.582985],[-122.347027,47.582945],[-122.347029,47.582814],[-122.347253,47.582809],[-122.347292,47.582777],[-122.347296,47.582726],[-122.347387,47.58272],[-122.347428,47.582683],[-122.347427,47.582585],[-122.347367,47.582547],[-122.347215,47.582549],[-122.347171,47.582578],[-122.347164,47.582635],[-122.347031,47.582634],[-122.347034,47.582454],[-122.34707,47.582412],[-122.347035,47.582364],[-122.347037,47.582184],[-122.347135,47.582176],[-122.347171,47.582131],[-122.347167,47.581948],[-122.347124,47.581919],[-122.34704,47.581914],[-122.347046,47.581465],[-122.347156,47.581449],[-122.34718,47.581375],[-122.347311,47.581376],[-122.347347,47.581457],[-122.347523,47.581478],[-122.347577,47.581438],[-122.34758,47.581288],[-122.347713,47.581288],[-122.347775,47.581313],[-122.347846,47.581289],[-122.347979,47.58129],[-122.348006,47.581381],[-122.348244,47.581381],[-122.348249,47.581438],[-122.348292,47.581468],[-122.348641,47.581474],[-122.348636,47.581655]],[[-122.34784,47.581779],[-122.347771,47.581725],[-122.34747,47.581741],[-122.347421,47.581787],[-122.347445,47.581897],[-122.347509,47.58193],[-122.347791,47.581928],[-122.347837,47.581889],[-122.34784,47.581779]],[[-122.347697,47.582817],[-122.347729,47.582765],[-122.347676,47.582714],[-122.347609,47.582705],[-122.347542,47.58274],[-122.347528,47.582785],[-122.34758,47.582831],[-122.347639,47.582841],[-122.347697,47.582817]],[[-122.347691,47.582906],[-122.347638,47.582884],[-122.347579,47.582894],[-122.34754,47.582936],[-122.347556,47.582977],[-122.34761,47.582997],[-122.347684,47.582985],[-122.347713,47.582948],[-122.347691,47.582906]],[[-122.347964,47.582241],[-122.347986,47.58214],[-122.347941,47.582104],[-122.347773,47.582085],[-122.347709,47.582118],[-122.347703,47.582235],[-122.34775,47.582274],[-122.347925,47.582273],[-122.347964,47.582241]],[[-122.348239,47.581741],[-122.348237,47.581676],[-122.3482,47.581644],[-122.348031,47.581652],[-122.347977,47.581688],[-122.347976,47.581791],[-122.348022,47.581826],[-122.348105,47.581831],[-122.34811,47.581901],[-122.348159,47.581932],[-122.34848,47.581907],[-122.348504,47.581869],[-122.348482,47.581758],[-122.348239,47.581741]]]}},{"type":"Feature","properties":{"id":63,"area_m2":7600,"px":76,"rank":3},"geometry":{"type":"Polygon","coordinates":[[[-122.348851,47.575266],[-122.34885,47.575356],[-122.348753,47.575358],[-122.348702,47.57539],[-122.348715,47.575535],[-122.3486,47.575555],[-122.348545,47.575667],[-122.34858,47.575715],[-122.3486,47.575892],[-122.348655,47.575909],[-122.348844,47.575896],[-122.348843,47.575986],[-122.348745,47.575995],[-122.348709,47.576039],[-122.348707,47.576302],[-122.348747,47.576339],[-122.348838,47.576346],[-122.348837,47.576436],[-122.348704,47.576435],[-122.348642,47.576411],[-122.348569,47.576434],[-122.34764,47.576429],[-122.347643,47.576249],[-122.347762,47.576226],[-122.347776,47.576113],[-122.347736,47.576076],[-122.347645,47.576069],[-122.347617,47.575991],[-122.347513,47.575978],[-122.347514,47.575889],[-122.347624,47.575873],[-122.347648,47.575799],[-122.347768,47.575776],[-122.347782,47.57571],[-122.34788,47.575708],[-122.347931,47.575676],[-122.347921,47.575261],[-122.348297,47.575247],[-122.348325,47.574993],[-122.348722,47.574996],[-122.348722,47.575227],[-122.348768,47.575262],[-122.348851,47.575266]],[[-122.348259,47.575792],[-122.34806,47.575826],[-122.348047,47.575938],[-122.348094,47.575978],[-122.348249,47.575995],[-122.34831,47.575953],[-122.348309,47.575828],[-122.348259,47.575792]],[[-122.348184,47.575532],[-122.348148,47.575569],[-122.348163,47.57561],[-122.348223,47.575636],[-122.348281,47.575627],[-122.348314,47.575593],[-122.348303,47.575544],[-122.348247,47.575519],[-122.348184,47.575532]],[[-122.348435,47.57622],[-122.348461,47.576119],[-122.348428,47.576083],[-122.348224,47.576063],[-122.348178,47.576102],[-122.348181,47.576232],[-122.348244,47.576266],[-122.348391,47.576249],[-122.348435,47.57622]]]}},{"type":"Feature","properties":{"id":4,"area_m2":6100,"px":61,"rank":4},"geometry":{"type":"Polygon","coordinates":[[[-122.349251,47.585976],[-122.34925,47.586066],[-122.349159,47.586072],[-122.349116,47.586114],[-122.349121,47.586212],[-122.349164,47.586241],[-122.349247,47.586246],[-122.349246,47.586335],[-122.349162,47.58634],[-122.349116,47.586374],[-122.34911,47.586605],[-122.349,47.58662],[-122.348976,47.586694],[-122.348843,47.586694],[-122.348765,47.58667],[-122.348619,47.586699],[-122.348578,47.586736],[-122.348588,47.586848],[-122.348708,47.586873],[-122.348703,47.587231],[-122.348619,47.587236],[-122.348573,47.58727],[-122.348567,47.587502],[-122.348531,47.587549],[-122.348583,47.587662],[-122.348697,47.587683],[-122.348695,47.587862],[-122.348486,47.587864],[-122.348435,47.587894],[-122.348428,47.587951],[-122.348295,47.58795],[-122.348315,47.58781],[-122.348269,47.587774],[-122.348165,47.587769],[-122.348167,47.58759],[-122.348264,47.587581],[-122.348301,47.5875],[-122.348416,47.587481],[-122.348434,47.587365],[-122.348394,47.587327],[-122.348303,47.58732],[-122.3483,47.587084],[-122.348257,47.587054],[-122.348174,47.58705],[-122.348139,47.586969],[-122.348042,47.586959],[-122.348043,47.586869],[-122.348267,47.586864],[-122.348308,47.586827],[-122.348311,47.586691],[-122.348554,47.586676],[-122.34858,47.586422],[-122.348678,47.586414],[-122.348714,47.586333],[-122.348798,47.586329],[-122.348842,47.5863],[-122.348843,47.586187],[-122.3488,47.586158],[-122.348717,47.586153],[-122.348718,47.586063],[-122.348927,47.586062],[-122.348984,47.586011],[-122.348984,47.585743],[-122.348939,47.585708],[-122.348855,47.585704],[-122.348859,47.585434],[-122.349124,47.585436],[-122.349122,47.585615],[-122.349086,47.585663],[-122.349121,47.585705],[-122.34912,47.585932],[-122.34916,47.585969],[-122.349251,47.585976]],[[-122.348433,47.58777],[-122.348466,47.587734],[-122.348451,47.587694],[-122.348391,47.587668],[-122.348327,47.587679],[-122.348299,47.587715],[-122.348315,47.587764],[-122.348374,47.587784],[-122.348433,47.58777]]]}},{"type":"Feature","properties":{"id":12,"area_m2":3900,"px":39,"rank":5},"geometry":{"type":"Polygon","coordinates":[[[-122.349261,47.584898],[-122.349228,47.584944],[-122.349263,47.584986],[-122.349262,47.585076],[-122.349129,47.585076],[-122.349124,47.585019],[-122.349073,47.584988],[-122.348864,47.584984],[-122.348869,47.584624],[-122.348988,47.584601],[-122.349002,47.584488],[-122.348939,47.584446],[-122.348738,47.584443],[-122.348739,47.584354],[-122.348854,47.584334],[-122.348894,47.58423],[-122.348853,47.584181],[-122.348741,47.584174],[-122.348742,47.584084],[-122.34884,47.584075],[-122.348876,47.58403],[-122.348875,47.583853],[-122.348829,47.583818],[-122.348746,47.583814],[-122.348747,47.583724],[-122.348866,47.5837],[-122.348882,47.583545],[-122.348992,47.583529],[-122.349016,47.583455],[-122.349149,47.583456],[-122.349156,47.583608],[-122.349203,47.583634],[-122.34928,47.583637],[-122.349276,47.583907],[-122.349185,47.583913],[-122.349143,47.583955],[-122.349139,47.584266],[-122.349041,47.584274],[-122.349005,47.584319],[-122.349006,47.584402],[-122.349039,47.584436],[-122.34927,47.584447],[-122.349261,47.584898]]]}},{"type":"Feature","properties":{"id":92,"area_m2":3600,"px":36,"rank":6},"geometry":{"type":"Polygon","coordinates":[[[-122.349143,47.573198],[-122.349142,47.573288],[-122.348924,47.573278],[-122.348879,47.573312],[-122.348875,47.573377],[-122.348784,47.573383],[-122.348743,47.57342],[-122.348745,47.573613],[-122.348788,47.573642],[-122.348872,47.573647],[-122.348888,47.573807],[-122.349002,47.573828],[-122.349001,47.573917],[-122.348917,47.573921],[-122.348871,47.573955],[-122.348866,47.574097],[-122.348334,47.574094],[-122.348314,47.573916],[-122.348259,47.573899],[-122.348071,47.573912],[-122.348048,47.573838],[-122.347939,47.573821],[-122.347926,47.573755],[-122.347807,47.573731],[-122.347779,47.573653],[-122.347675,47.57364],[-122.34768,47.57328],[-122.347945,47.573282],[-122.347939,47.573531],[-122.348075,47.573552],[-122.348077,47.573617],[-122.348121,47.573652],[-122.34834,47.573644],[-122.34841,47.573668],[-122.348597,47.573617],[-122.348609,47.573375],[-122.348685,47.573373],[-122.348733,47.573348],[-122.348744,47.573196],[-122.348828,47.573193],[-122.348874,47.573159],[-122.34888,47.573017],[-122.349012,47.573018],[-122.34902,47.573169],[-122.349067,47.573196],[-122.349143,47.573198]],[[-122.348739,47.573827],[-122.348666,47.573801],[-122.348494,47.57384],[-122.34847,47.573878],[-122.348492,47.573989],[-122.348548,47.574005],[-122.348711,47.57399],[-122.348771,47.573879],[-122.348739,47.573827]]]}},{"type":"Feature","properties":{"id":5,"area_m2":3300,"px":33,"rank":7},"geometry":{"type":"Polygon","coordinates":[[[-122.34817,47.58732],[-122.348168,47.587499],[-122.348035,47.587499],[-122.34803,47.587429],[-122.347974,47.587396],[-122.347686,47.587411],[-122.347637,47.587455],[-122.347634,47.587676],[-122.347501,47.587676],[-122.347478,47.587601],[-122.347369,47.587584],[-122.34737,47.587495],[-122.347406,47.587453],[-122.347371,47.587405],[-122.347373,47.587225],[-122.347457,47.587221],[-122.347501,47.587192],[-122.347503,47.586989],[-122.34746,47.58696],[-122.347314,47.586931],[-122.347244,47.586954],[-122.346978,47.586953],[-122.346979,47.586863],[-122.347089,47.586848],[-122.347113,47.586774],[-122.347233,47.58675],[-122.347247,47.586685],[-122.34738,47.586685],[-122.347385,47.586755],[-122.347441,47.586788],[-122.347778,47.586778],[-122.3478,47.586852],[-122.34791,47.586868],[-122.347916,47.58711],[-122.347963,47.587136],[-122.348039,47.587139],[-122.348055,47.587299],[-122.34817,47.58732]]]}},{"type":"Feature","properties":{"id":89,"area_m2":3300,"px":33,"rank":8},"geometry":{"type":"Polygon","coordinates":[[[-122.347003,47.574176],[-122.347001,47.574356],[-122.346891,47.574371],[-122.346867,47.574445],[-122.346468,47.574443],[-122.34647,47.574353],[-122.34656,47.574347],[-122.346601,47.57431],[-122.346604,47.573942],[-122.346536,47.573904],[-122.346209,47.573902],[-122.346213,47.573632],[-122.346249,47.573589],[-122.346214,47.573542],[-122.346215,47.573452],[-122.346306,47.573446],[-122.346347,47.573409],[-122.346352,47.573093],[-122.346618,47.573094],[-122.346617,47.573184],[-122.346533,47.573188],[-122.34649,47.573217],[-122.346484,47.57332],[-122.346546,47.573363],[-122.346748,47.573365],[-122.346746,47.573455],[-122.346663,47.573458],[-122.346617,47.573492],[-122.346612,47.57368],[-122.346652,47.573718],[-122.346743,47.573725],[-122.346742,47.573815],[-122.346706,47.573862],[-122.346741,47.573905],[-122.346749,47.574056],[-122.346795,47.574083],[-122.346872,47.574085],[-122.346906,47.574166],[-122.347003,47.574176]]]}},{"type":"Feature","properties":{"id":21,"area_m2":3100,"px":31,"rank":9},"geometry":{"type":"Polygon","coordinates":[[[-122.349562,47.58211],[-122.349528,47.582156],[-122.349563,47.582199],[-122.349561,47.582379],[-122.349441,47.582402],[-122.349426,47.582558],[-122.349311,47.582577],[-122.349291,47.582737],[-122.3492,47.582743],[-122.349159,47.58278],[-122.349162,47.582883],[-122.349205,47.582912],[-122.349289,47.582917],[-122.349287,47.583007],[-122.348889,47.583005],[-122.348894,47.582556],[-122.34893,47.582513],[-122.348895,47.582465],[-122.348898,47.582285],[-122.348995,47.582276],[-122.349032,47.582196],[-122.349151,47.582172],[-122.349167,47.582017],[-122.349264,47.582008],[-122.349301,47.581927],[-122.349385,47.581924],[-122.349428,47.581895],[-122.349436,47.581748],[-122.349569,47.581749],[-122.349562,47.58211]],[[-122.34943,47.582238],[-122.349361,47.582184],[-122.349194,47.582209],[-122.349164,47.582245],[-122.34918,47.58237],[-122.349247,47.582391],[-122.349399,47.582365],[-122.349427,47.582334],[-122.34943,47.582238]]]}},{"type":"Feature","properties":{"id":54,"area_m2":3100,"px":31,"rank":10},"geometry":{"type":"Polygon","coordinates":[[[-122.34817,47.576612],[-122.348162,47.577242],[-122.347896,47.57724],[-122.347884,47.577174],[-122.347818,47.57715],[-122.347667,47.577158],[-122.34763,47.577239],[-122.347497,47.577238],[-122.347504,47.576698],[-122.347868,47.576691],[-122.347903,47.576652],[-122.347905,47.576521],[-122.348038,47.576521],[-122.348061,47.576596],[-122.34817,47.576612]]]}},{"type":"Feature","properties":{"id":88,"area_m2":2900,"px":29,"rank":11},"geometry":{"type":"Polygon","coordinates":[[[-122.349131,47.574188],[-122.34913,47.574278],[-122.348803,47.574276],[-122.34874,47.574304],[-122.348733,47.574417],[-122.348778,47.574452],[-122.348861,47.574457],[-122.34886,47.574546],[-122.348595,47.574545],[-122.348532,47.574521],[-122.34846,47.574544],[-122.3474,47.574538],[-122.347336,47.574514],[-122.347265,47.574537],[-122.347132,47.574537],[-122.347135,47.574267],[-122.347401,47.574268],[-122.34741,47.57433],[-122.347472,47.574358],[-122.348259,47.574363],[-122.348322,47.574335],[-122.348332,47.574274],[-122.348465,47.574274],[-122.348535,47.574299],[-122.348689,47.574269],[-122.348728,47.574237],[-122.348732,47.574186],[-122.349131,47.574188]]]}},{"type":"Feature","properties":{"id":53,"area_m2":2600,"px":26,"rank":12},"geometry":{"type":"Polygon","coordinates":[[[-122.346965,47.577057],[-122.346932,47.577103],[-122.346967,47.577145],[-122.346965,47.577235],[-122.346747,47.577211],[-122.34659,47.577249],[-122.346565,47.577323],[-122.346335,47.577331],[-122.346299,47.57737],[-122.346297,47.577501],[-122.346164,47.5775],[-122.346142,47.577426],[-122.346033,47.57741],[-122.346038,47.57696],[-122.346171,47.576961],[-122.346241,47.576985],[-122.346388,47.576958],[-122.346431,47.576929],[-122.346438,47.576872],[-122.346558,47.576849],[-122.346572,47.576783],[-122.346705,47.576784],[-122.346708,47.576849],[-122.346751,47.576883],[-122.34697,47.576875],[-122.346965,47.577057]]]}},{"type":"Feature","properties":{"id":10,"area_m2":2400,"px":24,"rank":13},"geometry":{"type":"Polygon","coordinates":[[[-122.348592,47.585433],[-122.348591,47.585522],[-122.348388,47.585509],[-122.348331,47.585541],[-122.348324,47.585611],[-122.348202,47.585621],[-122.348121,47.585586],[-122.348053,47.585613],[-122.348038,47.585654],[-122.348065,47.585687],[-122.34819,47.5857],[-122.348187,47.58597],[-122.348077,47.585985],[-122.348053,47.586059],[-122.347933,47.586083],[-122.347919,47.586148],[-122.347786,47.586148],[-122.347787,47.586058],[-122.347884,47.586049],[-122.34792,47.586004],[-122.347908,47.585902],[-122.347789,47.585878],[-122.347792,47.585608],[-122.347896,47.585596],[-122.347927,47.585519],[-122.348024,47.58551],[-122.34806,47.585465],[-122.348048,47.585363],[-122.347929,47.585339],[-122.347921,47.585187],[-122.347874,47.585161],[-122.347798,47.585158],[-122.3478,47.584978],[-122.347933,47.584979],[-122.347996,47.585003],[-122.348066,47.58498],[-122.348199,47.58498],[-122.34821,47.58515],[-122.348274,47.585175],[-122.348463,47.585162],[-122.348463,47.585393],[-122.348509,47.585428],[-122.348592,47.585433]]]}},{"type":"Feature","properties":{"id":87,"area_m2":2400,"px":24,"rank":14},"geometry":{"type":"Polygon","coordinates":[[[-122.353918,47.574125],[-122.353915,47.574395],[-122.353558,47.574399],[-122.353519,47.574431],[-122.353515,47.574483],[-122.353395,47.574506],[-122.353381,47.574572],[-122.353115,47.574571],[-122.353093,47.574496],[-122.352983,47.57448],[-122.352984,47.57439],[-122.353311,47.574391],[-122.353374,47.574364],[-122.353387,47.574122],[-122.353477,47.574116],[-122.353519,47.57408],[-122.353524,47.573763],[-122.353657,47.573764],[-122.353679,47.573838],[-122.353789,47.573855],[-122.353788,47.573944],[-122.353751,47.573992],[-122.353789,47.574086],[-122.353835,47.574121],[-122.353918,47.574125]]]}},{"type":"Feature","properties":{"id":34,"area_m2":2000,"px":20,"rank":15},"geometry":{"type":"Polygon","coordinates":[[[-122.353599,47.578442],[-122.35359,47.579162],[-122.353481,47.579177],[-122.353456,47.579251],[-122.353324,47.579251],[-122.353301,47.579176],[-122.353192,47.57916],[-122.35318,47.579004],[-122.353061,47.578979],[-122.353063,47.578799],[-122.35316,47.578797],[-122.353208,47.57877],[-122.353198,47.57862],[-122.353429,47.578612],[-122.353464,47.578573],[-122.353466,47.578442],[-122.353599,47.578442]]]}},{"type":"Feature","properties":{"id":3,"area_m2":1700,"px":17,"rank":16},"geometry":{"type":"Polygon","coordinates":[[[-122.348027,47.58786],[-122.347994,47.587906],[-122.348029,47.587949],[-122.348028,47.588039],[-122.347895,47.588038],[-122.347825,47.588013],[-122.347678,47.588041],[-122.347635,47.58807],[-122.347628,47.588126],[-122.347508,47.58815],[-122.347494,47.588215],[-122.347361,47.588215],[-122.347357,47.588068],[-122.347314,47.588039],[-122.34723,47.588034],[-122.347229,47.587892],[-122.347183,47.587858],[-122.3471,47.587853],[-122.347101,47.587763],[-122.347366,47.587765],[-122.347437,47.587789],[-122.3475,47.587766],[-122.347842,47.587765],[-122.347897,47.587724],[-122.347901,47.587588],[-122.348034,47.587589],[-122.348027,47.58786]],[[-122.347582,47.58786],[-122.347435,47.587842],[-122.347378,47.587866],[-122.347367,47.587997],[-122.34742,47.588033],[-122.347573,47.588034],[-122.347626,47.587998],[-122.347627,47.587895],[-122.347582,47.58786]]]}},{"type":"Feature","properties":{"id":77,"area_m2":1500,"px":15,"rank":17},"geometry":{"type":"Polygon","coordinates":[[[-122.351513,47.575101],[-122.351511,47.575281],[-122.351401,47.575297],[-122.351377,47.575371],[-122.351111,47.575369],[-122.351088,47.575295],[-122.350979,47.575278],[-122.350958,47.575114],[-122.350715,47.575097],[-122.350718,47.574917],[-122.351116,47.574919],[-122.351115,47.575064],[-122.351148,47.575103],[-122.351513,47.575101]]]}},{"type":"Feature","properties":{"id":81,"area_m2":1500,"px":15,"rank":18},"geometry":{"type":"Polygon","coordinates":[[[-122.354041,47.574936],[-122.35404,47.575026],[-122.353831,47.575027],[-122.35378,47.575058],[-122.353773,47.575114],[-122.35364,47.575113],[-122.353638,47.575062],[-122.353599,47.57503],[-122.353376,47.575022],[-122.353353,47.574948],[-122.353244,47.574931],[-122.353209,47.57485],[-122.353112,47.57484],[-122.353113,47.574751],[-122.353322,47.574749],[-122.353373,47.574719],[-122.35338,47.574662],[-122.353513,47.574663],[-122.35353,47.574733],[-122.353645,47.574754],[-122.353679,47.574835],[-122.353777,47.574844],[-122.353805,47.574922],[-122.354041,47.574936]]]}},{"type":"Feature","properties":{"id":70,"area_m2":1400,"px":14,"rank":19},"geometry":{"type":"Polygon","coordinates":[[[-122.350845,47.575368],[-122.35084,47.575727],[-122.350617,47.575733],[-122.350577,47.575764],[-122.350573,47.575816],[-122.350454,47.575839],[-122.350439,47.575905],[-122.350306,47.575904],[-122.350309,47.575725],[-122.350399,47.575719],[-122.350441,47.575682],[-122.350445,47.575455],[-122.350555,47.57544],[-122.350579,47.575366],[-122.350845,47.575368]]]}},{"type":"Feature","properties":{"id":59,"area_m2":1300,"px":13,"rank":20},"geometry":{"type":"Polygon","coordinates":[[[-122.352959,47.576459],[-122.352955,47.576729],[-122.352737,47.576705],[-122.35258,47.576743],[-122.352555,47.576817],[-122.35229,47.576815],[-122.352293,47.576546],[-122.352628,47.576546],[-122.352683,47.576519],[-122.352693,47.576458],[-122.352959,47.576459]]]}},{"type":"Feature","properties":{"id":62,"area_m2":1300,"px":13,"rank":21},"geometry":{"type":"Polygon","coordinates":[[[-122.350569,47.576176],[-122.350567,47.576356],[-122.350203,47.576363],[-122.350168,47.576402],[-122.350165,47.576533],[-122.3499,47.576532],[-122.349877,47.576458],[-122.349768,47.576441],[-122.34977,47.576261],[-122.349903,47.576262],[-122.349908,47.576319],[-122.349959,47.57635],[-122.350096,47.576353],[-122.35015,47.576334],[-122.350171,47.576084],[-122.350304,47.576084],[-122.350309,47.576141],[-122.35036,47.576172],[-122.350569,47.576176]]]}},{"type":"Feature","properties":{"id":80,"area_m2":1200,"px":12,"rank":22},"geometry":{"type":"Polygon","coordinates":[[[-122.346467,47.574533],[-122.346465,47.574713],[-122.346367,47.574721],[-122.346331,47.574802],[-122.346247,47.574806],[-122.346201,47.57484],[-122.346193,47.575161],[-122.346061,47.57516],[-122.346068,47.574531],[-122.346467,47.574533]]]}},{"type":"Feature","properties":{"id":13,"area_m2":1100,"px":11,"rank":23},"geometry":{"type":"Polygon","coordinates":[[[-122.348202,47.58471],[-122.3482,47.58489],[-122.347668,47.584887],[-122.347672,47.584617],[-122.34807,47.58462],[-122.348093,47.584694],[-122.348202,47.58471]]]}},{"type":"Feature","properties":{"id":27,"area_m2":1100,"px":11,"rank":24},"geometry":{"type":"Polygon","coordinates":[[[-122.349583,47.580579],[-122.349581,47.580759],[-122.349484,47.580768],[-122.349448,47.580812],[-122.34946,47.580914],[-122.349579,47.580939],[-122.349577,47.581119],[-122.349311,47.581117],[-122.349319,47.580488],[-122.349452,47.580489],[-122.349474,47.580563],[-122.349583,47.580579]]]}},{"type":"Feature","properties":{"id":74,"area_m2":1100,"px":11,"rank":25},"geometry":{"type":"Polygon","coordinates":[[[-122.35244,47.575377],[-122.352438,47.575556],[-122.352214,47.575562],[-122.352175,47.575593],[-122.352171,47.575645],[-122.351905,47.575643],[-122.351883,47.575569],[-122.351773,47.575553],[-122.351775,47.575463],[-122.351884,47.575448],[-122.351909,47.575374],[-122.35244,47.575377]]]}},{"type":"Feature","properties":{"id":79,"area_m2":1000,"px":10,"rank":26},"geometry":{"type":"Polygon","coordinates":[[[-122.352314,47.574836],[-122.352313,47.574926],[-122.352096,47.574929],[-122.352053,47.574958],[-122.352046,47.575014],[-122.351926,47.575038],[-122.35191,47.575284],[-122.351777,47.575283],[-122.351754,47.575209],[-122.351645,47.575192],[-122.351647,47.575012],[-122.351757,47.574997],[-122.351781,47.574923],[-122.351901,47.5749],[-122.351915,47.574834],[-122.352314,47.574836]]]}},{"type":"Feature","properties":{"id":99,"area_m2":1000,"px":10,"rank":27},"geometry":{"type":"Polygon","coordinates":[[[-122.350607,47.573117],[-122.350606,47.573207],[-122.350013,47.573204],[-122.34995,47.573232],[-122.34994,47.573293],[-122.349408,47.57329],[-122.349409,47.5732],[-122.349751,47.5732],[-122.349802,47.573169],[-122.349809,47.573112],[-122.350607,47.573117]]]}},{"type":"Feature","properties":{"id":98,"area_m2":1000,"px":10,"rank":28},"geometry":{"type":"Polygon","coordinates":[[[-122.347688,47.57256],[-122.347687,47.57265],[-122.347596,47.572656],[-122.347555,47.572693],[-122.347551,47.572919],[-122.34746,47.572925],[-122.347419,47.572962],[-122.347412,47.573368],[-122.34728,47.573368],[-122.347285,47.572918],[-122.347376,47.572912],[-122.347417,47.572875],[-122.347423,47.572559],[-122.347688,47.57256]]]}},{"type":"Feature","properties":{"id":19,"area_m2":900,"px":9,"rank":29},"geometry":{"type":"Polygon","coordinates":[[[-122.349286,47.583097],[-122.349283,47.583367],[-122.348948,47.583366],[-122.348893,47.583393],[-122.348883,47.583454],[-122.34875,47.583454],[-122.348751,47.583364],[-122.348835,47.58336],[-122.348881,47.583326],[-122.348886,47.583185],[-122.348996,47.583169],[-122.349021,47.583095],[-122.349286,47.583097]]]}},{"type":"Feature","properties":{"id":40,"area_m2":900,"px":9,"rank":30},"geometry":{"type":"Polygon","coordinates":[[[-122.346282,47.578492],[-122.346249,47.578538],[-122.346284,47.578581],[-122.34628,47.578851],[-122.346148,47.57885],[-122.346125,47.578776],[-122.346016,47.578759],[-122.346019,47.578489],[-122.346055,47.578447],[-122.34602,47.578399],[-122.346023,47.57822],[-122.346155,47.57822],[-122.346157,47.578362],[-122.346202,47.578396],[-122.346286,47.578401],[-122.346282,47.578492]]]}},{"type":"Feature","properties":{"id":69,"area_m2":900,"px":9,"rank":31},"geometry":{"type":"Polygon","coordinates":[[[-122.353102,47.57565],[-122.353098,47.57592],[-122.352966,47.575919],[-122.352961,47.575773],[-122.352918,47.575743],[-122.352835,47.575739],[-122.352813,47.575651],[-122.352759,47.575635],[-122.35257,47.575647],[-122.352572,47.575467],[-122.352971,47.57547],[-122.352979,47.575621],[-122.353026,47.575647],[-122.353102,47.57565]]]}},{"type":"Feature","properties":{"id":78,"area_m2":900,"px":9,"rank":32},"geometry":{"type":"Polygon","coordinates":[[[-122.347259,47.574987],[-122.347255,47.575347],[-122.347122,47.575346],[-122.347117,47.575276],[-122.347061,47.575244],[-122.346892,47.575264],[-122.346854,47.575345],[-122.346723,47.575344],[-122.346701,47.57527],[-122.346591,47.575253],[-122.346592,47.575164],[-122.346725,47.575164],[-122.346796,47.575189],[-122.346968,47.57515],[-122.346994,47.574986],[-122.347259,47.574987]]]}},{"type":"Feature","properties":{"id":85,"area_m2":900,"px":9,"rank":33},"geometry":{"type":"Polygon","coordinates":[[[-122.354179,47.574577],[-122.354176,47.574756],[-122.353778,47.574754],[-122.353755,47.57468],[-122.353646,47.574663],[-122.353647,47.574574],[-122.353757,47.574558],[-122.353781,47.574484],[-122.354047,47.574486],[-122.354069,47.57456],[-122.354179,47.574577]]]}},{"type":"Feature","properties":{"id":93,"area_m2":900,"px":9,"rank":34},"geometry":{"type":"Polygon","coordinates":[[[-122.347544,47.573459],[-122.347543,47.573549],[-122.347446,47.573558],[-122.34741,47.573602],[-122.347422,47.573705],[-122.347541,47.573729],[-122.347539,47.573909],[-122.347462,47.573911],[-122.347415,47.573937],[-122.347403,47.574088],[-122.347271,47.574088],[-122.347273,47.573908],[-122.347309,47.573865],[-122.347274,47.573818],[-122.347278,47.573458],[-122.347544,47.573459]]]}},{"type":"Feature","properties":{"id":2,"area_m2":800,"px":8,"rank":35},"geometry":{"type":"Polygon","coordinates":[[[-122.347889,47.588488],[-122.347887,47.588668],[-122.347621,47.588666],[-122.347599,47.588592],[-122.34749,47.588575],[-122.347492,47.588396],[-122.347602,47.58838],[-122.347626,47.588306],[-122.347759,47.588307],[-122.347766,47.588458],[-122.347813,47.588485],[-122.347889,47.588488]]]}},{"type":"Feature","properties":{"id":56,"area_m2":800,"px":8,"rank":36},"geometry":{"type":"Polygon","coordinates":[[[-122.349364,47.576799],[-122.349363,47.576889],[-122.349254,47.576904],[-122.349229,47.576978],[-122.349109,47.577001],[-122.349095,47.577067],[-122.348962,47.577066],[-122.34894,47.576992],[-122.34883,47.576976],[-122.348834,47.576706],[-122.348967,47.576707],[-122.348989,47.576781],[-122.349145,47.57682],[-122.349364,47.576799]]]}},{"type":"Feature","properties":{"id":91,"area_m2":800,"px":8,"rank":37},"geometry":{"type":"Polygon","coordinates":[[[-122.350331,47.573925],[-122.350328,47.574105],[-122.350063,47.574103],[-122.350062,47.573872],[-122.350017,47.573837],[-122.349933,47.573831],[-122.349934,47.573743],[-122.350044,47.573728],[-122.350068,47.573654],[-122.350201,47.573654],[-122.350202,47.573886],[-122.350247,47.57392],[-122.350331,47.573925]]]}},{"type":"Feature","properties":{"id":6,"area_m2":700,"px":7,"rank":38},"geometry":{"type":"Polygon","coordinates":[[[-122.346975,47.587133],[-122.346974,47.587223],[-122.346708,47.587221],[-122.346715,47.586682],[-122.346848,47.586682],[-122.346844,47.587089],[-122.346885,47.587126],[-122.346975,47.587133]]]}},{"type":"Feature","properties":{"id":18,"area_m2":700,"px":7,"rank":39},"geometry":{"type":"Polygon","coordinates":[[[-122.349679,47.583371],[-122.349646,47.583417],[-122.349681,47.583459],[-122.349679,47.583639],[-122.349413,47.583637],[-122.349417,47.583278],[-122.349683,47.583279],[-122.349679,47.583371]]]}},{"type":"Feature","properties":{"id":31,"area_m2":700,"px":7,"rank":40},"geometry":{"type":"Polygon","coordinates":[[[-122.346802,47.579664],[-122.346799,47.579933],[-122.346533,47.579932],[-122.346511,47.579858],[-122.346401,47.579841],[-122.346402,47.579751],[-122.346512,47.579736],[-122.346536,47.579662],[-122.346802,47.579664]]]}},{"type":"Feature","properties":{"id":30,"area_m2":700,"px":7,"rank":41},"geometry":{"type":"Polygon","coordinates":[[[-122.351055,47.579868],[-122.351054,47.579958],[-122.350923,47.579957],[-122.350918,47.579905],[-122.35088,47.579873],[-122.350656,47.579865],[-122.350657,47.579776],[-122.350741,47.579772],[-122.350785,47.579743],[-122.35079,47.57964],[-122.350728,47.579597],[-122.350527,47.579595],[-122.350528,47.579505],[-122.350794,47.579506],[-122.350816,47.579581],[-122.350925,47.579597],[-122.350926,47.579829],[-122.350971,47.579863],[-122.351055,47.579868]]]}},{"type":"Feature","properties":{"id":38,"area_m2":700,"px":7,"rank":42},"geometry":{"type":"Polygon","coordinates":[[[-122.347349,47.578497],[-122.347344,47.578857],[-122.347211,47.578856],[-122.3472,47.5787],[-122.347142,47.578676],[-122.346948,47.578675],[-122.346949,47.578585],[-122.347059,47.57857],[-122.347083,47.578496],[-122.347349,47.578497]]]}},{"type":"Feature","properties":{"id":49,"area_m2":700,"px":7,"rank":43},"geometry":{"type":"Polygon","coordinates":[[[-122.34776,47.57751],[-122.347759,47.577599],[-122.347661,47.577608],[-122.347625,47.577653],[-122.347626,47.57783],[-122.347672,47.577865],[-122.347755,47.57787],[-122.347754,47.577959],[-122.347645,47.577975],[-122.34762,47.578049],[-122.347487,47.578048],[-122.347493,47.577598],[-122.347603,47.577583],[-122.347627,47.577509],[-122.34776,47.57751]]]}},{"type":"Feature","properties":{"id":51,"area_m2":700,"px":7,"rank":44},"geometry":{"type":"Polygon","coordinates":[[[-122.349351,47.57761],[-122.349318,47.577656],[-122.349353,47.577699],[-122.349351,47.577878],[-122.349218,47.577878],[-122.349218,47.577741],[-122.349156,47.577698],[-122.349004,47.577701],[-122.34896,47.57773],[-122.348953,47.577786],[-122.34882,47.577785],[-122.348823,47.577606],[-122.349165,47.577605],[-122.349216,47.577574],[-122.349223,47.577518],[-122.349354,47.577519],[-122.349351,47.57761]]]}},{"type":"Feature","properties":{"id":57,"area_m2":700,"px":7,"rank":45},"geometry":{"type":"Polygon","coordinates":[[[-122.3487,47.576795],[-122.348698,47.576885],[-122.348615,47.576889],[-122.348568,47.576923],[-122.348563,47.577064],[-122.34843,47.577063],[-122.348423,47.576912],[-122.348376,47.576886],[-122.3483,47.576883],[-122.348303,47.576613],[-122.348436,47.576614],[-122.348435,47.576745],[-122.348469,47.576785],[-122.3487,47.576795]]]}},{"type":"Feature","properties":{"id":65,"area_m2":700,"px":7,"rank":46},"geometry":{"type":"Polygon","coordinates":[[[-122.346846,47.576155],[-122.346845,47.576245],[-122.346735,47.57626],[-122.346711,47.576334],[-122.346578,47.576333],[-122.346555,47.576259],[-122.346446,47.576242],[-122.346449,47.575973],[-122.346582,47.575973],[-122.346605,47.576048],[-122.346714,47.576064],[-122.346749,47.576145],[-122.346846,47.576155]]]}},{"type":"Feature","properties":{"id":95,"area_m2":700,"px":7,"rank":47},"geometry":{"type":"Polygon","coordinates":[[[-122.351399,47.573571],[-122.351398,47.573661],[-122.351314,47.573665],[-122.351268,47.573699],[-122.351263,47.57384],[-122.35113,47.573839],[-122.351136,47.5733],[-122.351269,47.573301],[-122.35127,47.573532],[-122.351315,47.573567],[-122.351399,47.573571]]]}},{"type":"Feature","properties":{"id":1,"area_m2":600,"px":6,"rank":48},"geometry":{"type":"Polygon","coordinates":[[[-122.346424,47.588659],[-122.346423,47.588749],[-122.346339,47.588753],[-122.346293,47.588787],[-122.346288,47.588928],[-122.346155,47.588928],[-122.346147,47.588776],[-122.346101,47.58875],[-122.346024,47.588747],[-122.346027,47.588567],[-122.346159,47.588568],[-122.346165,47.588625],[-122.346215,47.588656],[-122.346424,47.588659]]]}},{"type":"Feature","properties":{"id":8,"area_m2":600,"px":6,"rank":49},"geometry":{"type":"Polygon","coordinates":[[[-122.346853,47.586232],[-122.346849,47.586592],[-122.346716,47.586591],[-122.346709,47.58644],[-122.346662,47.586414],[-122.346585,47.586411],[-122.346588,47.586231],[-122.346853,47.586232]]]}},{"type":"Feature","properties":{"id":15,"area_m2":600,"px":6,"rank":50},"geometry":{"type":"Polygon","coordinates":[[[-122.348216,47.583631],[-122.348214,47.583811],[-122.348104,47.583826],[-122.348079,47.5839],[-122.347814,47.583898],[-122.347791,47.583824],[-122.347682,47.583808],[-122.347683,47.583718],[-122.347793,47.583702],[-122.347817,47.583629],[-122.34795,47.583629],[-122.348012,47.583654],[-122.348083,47.58363],[-122.348216,47.583631]]]}},{"type":"Feature","properties":{"id":35,"area_m2":600,"px":6,"rank":51},"geometry":{"type":"Polygon","coordinates":[[[-122.352927,47.579069],[-122.352926,47.579158],[-122.352716,47.57916],[-122.352665,47.57919],[-122.352658,47.579247],[-122.352526,47.579246],[-122.352528,47.579066],[-122.352604,47.579064],[-122.352652,47.579038],[-122.352663,47.578887],[-122.352796,47.578888],[-122.352804,47.579039],[-122.35285,47.579066],[-122.352927,47.579069]]]}},{"type":"Feature","properties":{"id":42,"area_m2":600,"px":6,"rank":52},"geometry":{"type":"Polygon","coordinates":[[[-122.352537,47.578346],[-122.352534,47.578526],[-122.352323,47.578514],[-122.352274,47.578545],[-122.352267,47.578615],[-122.352135,47.578614],[-122.352137,47.578434],[-122.352213,47.578432],[-122.352261,47.578406],[-122.352272,47.578255],[-122.352405,47.578256],[-122.352427,47.57833],[-122.352537,47.578346]]]}},{"type":"Feature","properties":{"id":66,"area_m2":600,"px":6,"rank":53},"geometry":{"type":"Polygon","coordinates":[[[-122.353762,47.576014],[-122.35376,47.576194],[-122.35365,47.576209],[-122.353626,47.576283],[-122.353493,47.576282],[-122.353471,47.576208],[-122.353361,47.576192],[-122.353362,47.576102],[-122.353472,47.576086],[-122.353496,47.576012],[-122.353762,47.576014]]]}},{"type":"Feature","properties":{"id":68,"area_m2":600,"px":6,"rank":54},"geometry":{"type":"Polygon","coordinates":[[[-122.350173,47.575904],[-122.350172,47.575994],[-122.350039,47.575993],[-122.350034,47.575936],[-122.349984,47.575905],[-122.349642,47.575901],[-122.349643,47.575811],[-122.349752,47.575795],[-122.349777,47.575721],[-122.350043,47.575723],[-122.35005,47.575874],[-122.350097,47.575901],[-122.350173,47.575904]]]}},{"type":"Feature","properties":{"id":72,"area_m2":600,"px":6,"rank":55},"geometry":{"type":"Polygon","coordinates":[[[-122.347387,47.575438],[-122.347386,47.575528],[-122.347295,47.575534],[-122.347254,47.575571],[-122.347249,47.575797],[-122.346983,47.575795],[-122.346986,47.575616],[-122.347095,47.5756],[-122.34712,47.575526],[-122.34724,47.575503],[-122.347254,47.575437],[-122.347387,47.575438]]]}},{"type":"Feature","properties":{"id":23,"area_m2":500,"px":5,"rank":56},"geometry":{"type":"Polygon","coordinates":[[[-122.346641,47.581912],[-122.34664,47.582002],[-122.345975,47.581998],[-122.345977,47.581908],[-122.346641,47.581912]]]}},{"type":"Feature","properties":{"id":25,"area_m2":500,"px":5,"rank":57},"geometry":{"type":"Polygon","coordinates":[[[-122.346122,47.580919],[-122.346116,47.581369],[-122.345983,47.581368],[-122.345989,47.580919],[-122.346122,47.580919]]]}},{"type":"Feature","properties":{"id":36,"area_m2":500,"px":5,"rank":58},"geometry":{"type":"Polygon","coordinates":[[[-122.354528,47.578628],[-122.354523,47.578987],[-122.354258,47.578986],[-122.354259,47.578896],[-122.35435,47.57889],[-122.354391,47.578853],[-122.354395,47.578627],[-122.354528,47.578628]]]}},{"type":"Feature","properties":{"id":44,"area_m2":500,"px":5,"rank":59},"geometry":{"type":"Polygon","coordinates":[[[-122.346821,47.578134],[-122.346817,47.578494],[-122.346684,47.578493],[-122.346661,47.578419],[-122.346552,47.578402],[-122.346553,47.578313],[-122.34663,47.578311],[-122.346677,47.578285],[-122.346688,47.578133],[-122.346821,47.578134]]]}},{"type":"Feature","properties":{"id":64,"area_m2":500,"px":5,"rank":60},"geometry":{"type":"Polygon","coordinates":[[[-122.347377,47.576248],[-122.347375,47.576338],[-122.347266,47.576353],[-122.347241,47.576427],[-122.347109,47.576426],[-122.347086,47.576352],[-122.346977,47.576335],[-122.346978,47.576245],[-122.347088,47.57623],[-122.347112,47.576156],[-122.347245,47.576157],[-122.347267,47.576231],[-122.347377,47.576248]]]}},{"type":"Feature","properties":{"id":75,"area_m2":500,"px":5,"rank":61},"geometry":{"type":"Polygon","coordinates":[[[-122.349383,47.575269],[-122.349382,47.575359],[-122.349272,47.575374],[-122.349248,47.575448],[-122.349115,47.575448],[-122.349108,47.575296],[-122.349061,47.57527],[-122.348985,47.575267],[-122.348987,47.575087],[-122.34912,47.575088],[-122.349118,47.575219],[-122.349153,47.575259],[-122.349383,47.575269]]]}},{"type":"Feature","properties":{"id":94,"area_m2":500,"px":5,"rank":62},"geometry":{"type":"Polygon","coordinates":[[[-122.350865,47.573748],[-122.350863,47.573928],[-122.350464,47.573926],[-122.350465,47.573836],[-122.350575,47.573821],[-122.350599,47.573747],[-122.350865,47.573748]]]}},{"type":"Feature","properties":{"id":96,"area_m2":500,"px":5,"rank":63},"geometry":{"type":"Polygon","coordinates":[[[-122.351138,47.57312],[-122.351137,47.57321],[-122.351028,47.573225],[-122.351003,47.573299],[-122.350884,47.573322],[-122.350869,47.573388],[-122.350736,47.573387],[-122.350739,47.573208],[-122.350848,47.573192],[-122.350873,47.573118],[-122.351138,47.57312]]]}},{"type":"Feature","properties":{"id":7,"area_m2":400,"px":4,"rank":64},"geometry":{"type":"Polygon","coordinates":[[[-122.350176,47.586431],[-122.350173,47.586701],[-122.349907,47.5867],[-122.349908,47.58661],[-122.349992,47.586606],[-122.350038,47.586572],[-122.350043,47.586431],[-122.350176,47.586431]]]}},{"type":"Feature","properties":{"id":11,"area_m2":400,"px":4,"rank":65},"geometry":{"type":"Polygon","coordinates":[[[-122.349128,47.585166],[-122.349125,47.585345],[-122.34886,47.585344],[-122.348862,47.585164],[-122.349128,47.585166]]]}},{"type":"Feature","properties":{"id":14,"area_m2":400,"px":4,"rank":66},"geometry":{"type":"Polygon","coordinates":[[[-122.348076,47.58417],[-122.348074,47.58435],[-122.347964,47.584365],[-122.34794,47.584439],[-122.347807,47.584438],[-122.347809,47.584258],[-122.347919,47.584243],[-122.347943,47.584169],[-122.348076,47.58417]]]}},{"type":"Feature","properties":{"id":17,"area_m2":400,"px":4,"rank":67},"geometry":{"type":"Polygon","coordinates":[[[-122.34702,47.583534],[-122.347018,47.583714],[-122.346908,47.583729],[-122.346884,47.583803],[-122.346618,47.583802],[-122.346619,47.583712],[-122.346813,47.583712],[-122.346872,47.583689],[-122.346887,47.583533],[-122.34702,47.583534]]]}},{"type":"Feature","properties":{"id":22,"area_m2":400,"px":4,"rank":68},"geometry":{"type":"Polygon","coordinates":[[[-122.348629,47.582463],[-122.348627,47.582643],[-122.348551,47.582645],[-122.348503,47.582671],[-122.348492,47.582822],[-122.348359,47.582822],[-122.348361,47.582642],[-122.348438,47.58264],[-122.348485,47.582614],[-122.348496,47.582463],[-122.348629,47.582463]]]}},{"type":"Feature","properties":{"id":39,"area_m2":400,"px":4,"rank":69},"geometry":{"type":"Polygon","coordinates":[[[-122.346816,47.578584],[-122.346812,47.578854],[-122.346547,47.578852],[-122.346548,47.578762],[-122.346631,47.578759],[-122.346678,47.578725],[-122.346683,47.578583],[-122.346816,47.578584]]]}},{"type":"Feature","properties":{"id":41,"area_m2":400,"px":4,"rank":70},"geometry":{"type":"Polygon","coordinates":[[[-122.352934,47.578439],[-122.352933,47.578529],[-122.35285,47.578532],[-122.352803,47.578566],[-122.352798,47.578708],[-122.352665,47.578707],[-122.352669,47.578437],[-122.352934,47.578439]]]}},{"type":"Feature","properties":{"id":43,"area_m2":400,"px":4,"rank":71},"geometry":{"type":"Polygon","coordinates":[[[-122.350808,47.578337],[-122.350806,47.578517],[-122.35054,47.578515],[-122.350542,47.578335],[-122.350808,47.578337]]]}},{"type":"Feature","properties":{"id":46,"area_m2":400,"px":4,"rank":72},"geometry":{"type":"Polygon","coordinates":[[[-122.351209,47.578159],[-122.351207,47.578339],[-122.350941,47.578337],[-122.350943,47.578158],[-122.351209,47.578159]]]}},{"type":"Feature","properties":{"id":47,"area_m2":400,"px":4,"rank":73},"geometry":{"type":"Polygon","coordinates":[[[-122.348286,47.577963],[-122.348285,47.578052],[-122.348194,47.578058],[-122.348153,47.578095],[-122.348149,47.578322],[-122.348016,47.578321],[-122.348019,47.578051],[-122.348129,47.578036],[-122.348153,47.577962],[-122.348286,47.577963]]]}},{"type":"Feature","properties":{"id":50,"area_m2":400,"px":4,"rank":74},"geometry":{"type":"Polygon","coordinates":[[[-122.347359,47.577687],[-122.347356,47.577867],[-122.347247,47.577882],[-122.347222,47.577956],[-122.34709,47.577956],[-122.347092,47.577776],[-122.347202,47.577761],[-122.347226,47.577687],[-122.347359,47.577687]]]}},{"type":"Feature","properties":{"id":58,"area_m2":400,"px":4,"rank":75},"geometry":{"type":"Polygon","coordinates":[[[-122.347239,47.576607],[-122.347235,47.576967],[-122.347102,47.576966],[-122.347106,47.576606],[-122.347239,47.576607]]]}},{"type":"Feature","properties":{"id":60,"area_m2":400,"px":4,"rank":76},"geometry":{"type":"Polygon","coordinates":[[[-122.35003,47.576713],[-122.350029,47.576803],[-122.349896,47.576802],[-122.349884,47.576736],[-122.349818,47.576711],[-122.349667,47.57672],[-122.34963,47.5768],[-122.349497,47.5768],[-122.349499,47.57671],[-122.349608,47.576694],[-122.349633,47.57662],[-122.349898,47.576622],[-122.349921,47.576696],[-122.35003,47.576713]]]}},{"type":"Feature","properties":{"id":71,"area_m2":400,"px":4,"rank":77},"geometry":{"type":"Polygon","coordinates":[[[-122.353634,47.575653],[-122.353632,47.575743],[-122.353523,47.575758],[-122.353498,47.575832],[-122.353233,47.575831],[-122.353235,47.575651],[-122.353368,47.575652],[-122.35343,47.575676],[-122.353501,47.575653],[-122.353634,47.575653]]]}},{"type":"Feature","properties":{"id":73,"area_m2":400,"px":4,"rank":78},"geometry":{"type":"Polygon","coordinates":[[[-122.349912,47.575542],[-122.349911,47.575632],[-122.349701,47.575633],[-122.349651,47.575664],[-122.349644,47.575721],[-122.349511,47.57572],[-122.349513,47.57554],[-122.349912,47.575542]]]}},{"type":"Feature","properties":{"id":83,"area_m2":400,"px":4,"rank":79},"geometry":{"type":"Polygon","coordinates":[[[-122.354575,47.574759],[-122.354573,47.574939],[-122.354307,47.574937],[-122.35431,47.574757],[-122.354575,47.574759]]]}},{"type":"Feature","properties":{"id":86,"area_m2":400,"px":4,"rank":80},"geometry":{"type":"Polygon","coordinates":[[[-122.352851,47.574389],[-122.352849,47.574569],[-122.35264,47.57457],[-122.352589,47.574601],[-122.352582,47.574657],[-122.352449,47.574657],[-122.35245,47.574567],[-122.35256,47.574552],[-122.352584,47.574478],[-122.352704,47.574454],[-122.352719,47.574388],[-122.352851,47.574389]]]}},{"type":"Feature","properties":{"id":100,"area_m2":400,"px":4,"rank":81},"geometry":{"type":"Polygon","coordinates":[[[-122.34928,47.572839],[-122.349277,47.573109],[-122.349144,47.573108],[-122.349145,47.572882],[-122.349105,47.572845],[-122.349015,47.572838],[-122.349016,47.572748],[-122.349149,47.572749],[-122.349171,47.572823],[-122.34928,47.572839]]]}},{"type":"Feature","properties":{"id":102,"area_m2":400,"px":4,"rank":82},"geometry":{"type":"Polygon","coordinates":[[[-122.347694,47.572111],[-122.347689,47.57247],[-122.347557,47.57247],[-122.347561,47.57211],[-122.347694,47.572111]]]}},{"type":"Feature","properties":{"id":9,"area_m2":300,"px":3,"rank":83},"geometry":{"type":"Polygon","coordinates":[[[-122.348585,47.586062],[-122.348583,47.586152],[-122.3485,47.586156],[-122.348454,47.58619],[-122.348448,47.586331],[-122.348315,47.586331],[-122.348318,47.586151],[-122.348427,47.586136],[-122.348452,47.586062],[-122.348585,47.586062]]]}},{"type":"Feature","properties":{"id":20,"area_m2":300,"px":3,"rank":84},"geometry":{"type":"Polygon","coordinates":[[[-122.346229,47.58299],[-122.346228,47.583079],[-122.345962,47.583078],[-122.345964,47.582898],[-122.346097,47.582899],[-122.34612,47.582973],[-122.346229,47.58299]]]}},{"type":"Feature","properties":{"id":24,"area_m2":300,"px":3,"rank":85},"geometry":{"type":"Polygon","coordinates":[[[-122.349438,47.581568],[-122.349437,47.581658],[-122.349306,47.581657],[-122.349282,47.581583],[-122.349172,47.581567],[-122.349175,47.581387],[-122.349307,47.581388],[-122.349315,47.581539],[-122.349362,47.581565],[-122.349438,47.581568]]]}},{"type":"Feature","properties":{"id":28,"area_m2":300,"px":3,"rank":86},"geometry":{"type":"Polygon","coordinates":[[[-122.346126,47.58056],[-122.346123,47.580829],[-122.34599,47.580829],[-122.345993,47.580559],[-122.346126,47.58056]]]}},{"type":"Feature","properties":{"id":29,"area_m2":300,"px":3,"rank":87},"geometry":{"type":"Polygon","coordinates":[[[-122.346131,47.5802],[-122.346127,47.58047],[-122.345994,47.580469],[-122.345998,47.580199],[-122.346131,47.5802]]]}},{"type":"Feature","properties":{"id":32,"area_m2":300,"px":3,"rank":88},"geometry":{"type":"Polygon","coordinates":[[[-122.353851,47.579614],[-122.35385,47.579703],[-122.353451,47.579701],[-122.353452,47.579611],[-122.353851,47.579614]]]}},{"type":"Feature","properties":{"id":33,"area_m2":300,"px":3,"rank":89},"geometry":{"type":"Polygon","coordinates":[[[-122.346143,47.57921],[-122.34614,47.57948],[-122.346007,47.579479],[-122.34601,47.579209],[-122.346143,47.57921]]]}},{"type":"Feature","properties":{"id":37,"area_m2":300,"px":3,"rank":90},"geometry":{"type":"Polygon","coordinates":[[[-122.352265,47.578795],[-122.352263,47.578975],[-122.351997,47.578973],[-122.351998,47.578883],[-122.352108,47.578868],[-122.352132,47.578794],[-122.352265,47.578795]]]}},{"type":"Feature","properties":{"id":45,"area_m2":300,"px":3,"rank":91},"geometry":{"type":"Polygon","coordinates":[[[-122.35387,47.578084],[-122.353866,47.578354],[-122.353734,47.578353],[-122.353737,47.578083],[-122.35387,47.578084]]]}},{"type":"Feature","properties":{"id":48,"area_m2":300,"px":3,"rank":92},"geometry":{"type":"Polygon","coordinates":[[[-122.34629,47.578041],[-122.346289,47.578131],[-122.346024,47.578129],[-122.346026,47.57795],[-122.346159,47.57795],[-122.346181,47.578025],[-122.34629,47.578041]]]}},{"type":"Feature","properties":{"id":52,"area_m2":300,"px":3,"rank":93},"geometry":{"type":"Polygon","coordinates":[[[-122.348291,47.577603],[-122.348289,47.577692],[-122.348206,47.577696],[-122.34816,47.57773],[-122.348154,47.577872],[-122.348021,47.577871],[-122.348024,47.577691],[-122.348133,47.577676],[-122.348158,47.577602],[-122.348291,47.577603]]]}},{"type":"Feature","properties":{"id":55,"area_m2":300,"px":3,"rank":94},"geometry":{"type":"Polygon","coordinates":[[[-122.347367,47.577057],[-122.347365,47.577147],[-122.347256,47.577163],[-122.347231,47.577237],[-122.347099,47.577236],[-122.347101,47.577056],[-122.347367,47.577057]]]}},{"type":"Feature","properties":{"id":61,"area_m2":300,"px":3,"rank":95},"geometry":{"type":"Polygon","coordinates":[[[-122.34631,47.576512],[-122.346308,47.576601],[-122.346225,47.576605],[-122.346178,47.576639],[-122.346173,47.576781],[-122.34604,47.57678],[-122.346043,47.5766],[-122.346152,47.576585],[-122.346177,47.576511],[-122.34631,47.576512]]]}},{"type":"Feature","properties":{"id":67,"area_m2":300,"px":3,"rank":96},"geometry":{"type":"Polygon","coordinates":[[[-122.351238,47.57582],[-122.351235,47.57609],[-122.351102,47.576089],[-122.351105,47.575819],[-122.351238,47.57582]]]}},{"type":"Feature","properties":{"id":76,"area_m2":300,"px":3,"rank":97},"geometry":{"type":"Polygon","coordinates":[[[-122.353373,47.575202],[-122.353372,47.575292],[-122.353262,47.575307],[-122.353238,47.575381],[-122.352972,47.57538],[-122.352973,47.57529],[-122.353183,47.575288],[-122.353234,47.575258],[-122.35324,47.575201],[-122.353373,47.575202]]]}},{"type":"Feature","properties":{"id":82,"area_m2":300,"px":3,"rank":98},"geometry":{"type":"Polygon","coordinates":[[[-122.352845,47.574929],[-122.352844,47.575019],[-122.352734,47.575034],[-122.35271,47.575108],[-122.352444,47.575107],[-122.352445,47.575017],[-122.352654,47.575016],[-122.352705,47.574985],[-122.352712,47.574928],[-122.352845,47.574929]]]}},{"type":"Feature","properties":{"id":84,"area_m2":300,"px":3,"rank":99},"geometry":{"type":"Polygon","coordinates":[[[-122.351784,47.574653],[-122.351783,47.574743],[-122.351574,47.574744],[-122.351523,47.574775],[-122.351516,47.574831],[-122.351383,47.574831],[-122.351385,47.574741],[-122.351494,47.574726],[-122.351519,47.574652],[-122.351784,47.574653]]]}},{"type":"Feature","properties":{"id":90,"area_m2":300,"px":3,"rank":100},"geometry":{"type":"Polygon","coordinates":[[[-122.346206,47.574172],[-122.346202,47.574441],[-122.34607,47.574441],[-122.346073,47.574171],[-122.346206,47.574172]]]}},{"type":"Feature","properties":{"id":97,"area_m2":300,"px":3,"rank":101},"geometry":{"type":"Polygon","coordinates":[[[-122.348345,47.573194],[-122.348343,47.573374],[-122.34821,47.573373],[-122.348188,47.573299],[-122.348078,47.573282],[-122.34808,47.573192],[-122.348345,47.573194]]]}},{"type":"Feature","properties":{"id":101,"area_m2":300,"px":3,"rank":102},"geometry":{"type":"Polygon","coordinates":[[[-122.346622,47.572734],[-122.346619,47.573004],[-122.346486,47.573003],[-122.34649,47.572734],[-122.346622,47.572734]]]}},{"type":"Feature","properties":{"id":103,"area_m2":300,"px":3,"rank":103},"geometry":{"type":"Polygon","coordinates":[[[-122.347028,47.572197],[-122.347027,47.572287],[-122.346917,47.572302],[-122.346893,47.572376],[-122.346773,47.572399],[-122.346759,47.572465],[-122.346626,47.572464],[-122.346627,47.572374],[-122.346737,47.572359],[-122.346761,47.572285],[-122.346881,47.572262],[-122.346895,47.572196],[-122.347028,47.572197]]]}}]}