{"type":"FeatureCollection","features":[{"type":"Feature","properties":{"id":13,"area_m2":3900,"px":39,"rank":1},"geometry":{"type":"Polygon","coordinates":[[[-122.349425,47.582648],[-122.349424,47.582738],[-122.349089,47.582737],[-122.349025,47.582784],[-122.349036,47.582892],[-122.349156,47.582916],[-122.34915,47.583407],[-122.349191,47.58345],[-122.349282,47.583457],[-122.34928,47.583637],[-122.348881,47.583634],[-122.348896,47.582375],[-122.349016,47.582352],[-122.349031,47.58225],[-122.348996,47.582205],[-122.348899,47.582195],[-122.348902,47.581926],[-122.348978,47.581923],[-122.349026,47.581897],[-122.349037,47.581746],[-122.34917,47.581747],[-122.349152,47.581982],[-122.349203,47.582014],[-122.3493,47.582017],[-122.349299,47.582107],[-122.349208,47.582113],[-122.349165,47.582155],[-122.349163,47.582608],[-122.349223,47.582646],[-122.349425,47.582648]]]}},{"type":"Feature","properties":{"id":50,"area_m2":3100,"px":31,"rank":2},"geometry":{"type":"Polygon","coordinates":[[[-122.348294,47.577333],[-122.348293,47.577423],[-122.34816,47.577422],[-122.348157,47.57737],[-122.348119,47.577338],[-122.347895,47.57733],[-122.347883,47.577264],[-122.347763,47.57724],[-122.347729,47.577159],[-122.347499,47.577148],[-122.347501,47.576968],[-122.347537,47.576926],[-122.347502,47.576877],[-122.347503,47.576788],[-122.347539,47.576746],[-122.347504,47.576698],[-122.347505,47.576608],[-122.347541,47.576566],[-122.347506,47.576518],[-122.347508,47.576428],[-122.347617,47.576413],[-122.347642,47.576339],[-122.34804,47.576341],[-122.348039,47.576431],[-122.348003,47.576474],[-122.348038,47.576521],[-122.348036,47.576701],[-122.347799,47.576712],[-122.347771,47.576743],[-122.34777,47.576836],[-122.34781,47.576874],[-122.347901,47.576881],[-122.347929,47.576958],[-122.348032,47.576971],[-122.348043,47.577217],[-122.348162,47.577242],[-122.348197,47.577323],[-122.348294,47.577333]]]}},{"type":"Feature","properties":{"id":6,"area_m2":3000,"px":30,"rank":3},"geometry":{"type":"Polygon","coordinates":[[[-122.349386,47.585797],[-122.349385,47.585887],[-122.349301,47.58589],[-122.349255,47.585924],[-122.34925,47.586066],[-122.349166,47.58607],[-122.34912,47.586104],[-122.349114,47.586245],[-122.349078,47.586287],[-122.349113,47.586335],[-122.349112,47.586425],[-122.348903,47.586426],[-122.348852,47.586457],[-122.348845,47.586514],[-122.348712,47.586513],[-122.348714,47.586333],[-122.348805,47.586327],[-122.348846,47.58629],[-122.348851,47.586064],[-122.34906,47.586063],[-122.349117,47.586011],[-122.3491,47.585905],[-122.348986,47.585885],[-122.348951,47.585803],[-122.348854,47.585794],[-122.348842,47.585638],[-122.348723,47.585613],[-122.348724,47.585523],[-122.348822,47.585515],[-122.348858,47.58547],[-122.348846,47.585368],[-122.348727,47.585343],[-122.348729,47.585163],[-122.348862,47.585164],[-122.34887,47.585226],[-122.348925,47.585253],[-122.34926,47.585256],[-122.349258,47.585346],[-122.349168,47.585352],[-122.349127,47.585389],[-122.349122,47.585752],[-122.349184,47.585795],[-122.349386,47.585797]]]}},{"type":"Feature","properties":{"id":12,"area_m2":2200,"px":22,"rank":4},"geometry":{"type":"Polygon","coordinates":[[[-122.349273,47.584177],[-122.349272,47.584267],[-122.34907,47.584266],[-122.349007,47.584309],[-122.349006,47.584497],[-122.349052,47.584531],[-122.349135,47.584536],[-122.349134,47.584626],[-122.349058,47.584628],[-122.349011,47.584654],[-122.348999,47.584805],[-122.348889,47.58482],[-122.348865,47.584894],[-122.348732,47.584893],[-122.348733,47.584803],[-122.348824,47.584798],[-122.348866,47.584755],[-122.348863,47.584568],[-122.34882,47.584538],[-122.348737,47.584533],[-122.348739,47.584355],[-122.348823,47.58435],[-122.348866,47.584321],[-122.348894,47.58413],[-122.348847,47.584088],[-122.348742,47.584084],[-122.348743,47.583995],[-122.348827,47.58399],[-122.348873,47.583956],[-122.34888,47.583725],[-122.349146,47.583726],[-122.349144,47.583816],[-122.349108,47.583863],[-122.349143,47.583906],[-122.349142,47.584132],[-122.349182,47.58417],[-122.349273,47.584177]]]}},{"type":"Feature","properties":{"id":47,"area_m2":2200,"px":22,"rank":5},"geometry":{"type":"Polygon","coordinates":[[[-122.346962,47.577505],[-122.346959,47.577775],[-122.346826,47.577774],[-122.346826,47.577638],[-122.346786,47.5776],[-122.346506,47.577579],[-122.346446,47.577599],[-122.346431,47.577734],[-122.346476,47.577768],[-122.34656,47.577773],[-122.346559,47.577863],[-122.346426,47.577862],[-122.346413,47.577796],[-122.346294,47.577771],[-122.346291,47.577706],[-122.346248,47.577672],[-122.346029,47.57768],[-122.346031,47.5775],[-122.346146,47.577481],[-122.346167,47.577321],[-122.34625,47.577317],[-122.346297,47.577283],[-122.346303,47.577051],[-122.346436,47.577052],[-122.346443,47.577204],[-122.34649,47.57723],[-122.346567,47.577233],[-122.346587,47.577487],[-122.346962,47.577505]]]}},{"type":"Feature","properties":{"id":76,"area_m2":1800,"px":18,"rank":6},"geometry":{"type":"Polygon","coordinates":[[[-122.348998,47.574187],[-122.348996,47.574367],[-122.348807,47.574352],[-122.348752,47.574369],[-122.348727,47.574546],[-122.348063,47.574542],[-122.348065,47.574362],[-122.348175,47.574347],[-122.348199,47.574273],[-122.348319,47.574249],[-122.348333,47.574184],[-122.348466,47.574184],[-122.348479,47.57425],[-122.348545,47.574275],[-122.348696,47.574267],[-122.348732,47.574186],[-122.348998,47.574187]]]}},{"type":"Feature","properties":{"id":2,"area_m2":1700,"px":17,"rank":7},"geometry":{"type":"Polygon","coordinates":[[[-122.348037,47.587319],[-122.348035,47.587499],[-122.347902,47.587498],[-122.347893,47.587437],[-122.347839,47.587409],[-122.347371,47.587405],[-122.347372,47.587315],[-122.347581,47.587314],[-122.347638,47.587268],[-122.347627,47.587161],[-122.347507,47.587136],[-122.3475,47.586984],[-122.347453,47.586958],[-122.347377,47.586955],[-122.347378,47.586865],[-122.347488,47.58685],[-122.347512,47.586776],[-122.347645,47.586777],[-122.347667,47.586851],[-122.347777,47.586868],[-122.34778,47.587104],[-122.347823,47.587134],[-122.347906,47.587138],[-122.347901,47.587298],[-122.348037,47.587319]]]}},{"type":"Feature","properties":{"id":62,"area_m2":1600,"px":16,"rank":8},"geometry":{"type":"Polygon","coordinates":[[[-122.346848,47.575975],[-122.346845,47.576245],[-122.346712,47.576244],[-122.346649,47.576219],[-122.346579,47.576243],[-122.346446,47.576242],[-122.346444,47.576101],[-122.346399,47.576066],[-122.346315,47.576062],[-122.346299,47.575901],[-122.346246,47.575882],[-122.346052,47.57588],[-122.346053,47.57579],[-122.346136,47.575787],[-122.346183,47.575753],[-122.346188,47.575611],[-122.346298,47.575596],[-122.346322,47.575522],[-122.346455,47.575523],[-122.346431,47.57587],[-122.346513,47.575907],[-122.346583,47.575883],[-122.346716,47.575884],[-122.346739,47.575958],[-122.346848,47.575975]]]}},{"type":"Feature","properties":{"id":79,"area_m2":1600,"px":16,"rank":9},"geometry":{"type":"Polygon","coordinates":[[[-122.351268,47.57339],[-122.351264,47.57375],[-122.350921,47.573751],[-122.350871,47.573781],[-122.350864,47.573838],[-122.350744,47.573861],[-122.35073,47.573927],[-122.350464,47.573926],[-122.350466,47.573746],[-122.350576,47.573731],[-122.3506,47.573657],[-122.350789,47.573671],[-122.350844,47.573655],[-122.350868,47.573478],[-122.351078,47.573477],[-122.351128,47.573446],[-122.351135,47.57339],[-122.351268,47.57339]]]}},{"type":"Feature","properties":{"id":70,"area_m2":1400,"px":14,"rank":10},"geometry":{"type":"Polygon","coordinates":[[[-122.348056,47.575082],[-122.348053,47.575352],[-122.347943,47.575367],[-122.347918,47.575441],[-122.347786,47.57544],[-122.347786,47.575304],[-122.347724,47.575261],[-122.347571,47.575263],[-122.347528,47.575292],[-122.347521,47.575349],[-122.347388,47.575348],[-122.347391,47.575078],[-122.348056,47.575082]]]}},{"type":"Feature","properties":{"id":59,"area_m2":1200,"px":12,"rank":11},"geometry":{"type":"Polygon","coordinates":[[[-122.350177,47.575634],[-122.350175,47.575724],[-122.350066,47.575739],[-122.350041,47.575813],[-122.349922,47.575836],[-122.349907,47.575902],[-122.34981,47.575904],[-122.349762,47.575931],[-122.349771,47.576171],[-122.349562,47.576172],[-122.349511,47.576203],[-122.349504,47.57626],[-122.349371,47.576259],[-122.349373,47.576079],[-122.34945,47.576077],[-122.349497,47.576051],[-122.349509,47.5759],[-122.349618,47.575885],[-122.349643,47.575811],[-122.349885,47.575796],[-122.349911,47.575632],[-122.350177,47.575634]]]}},{"type":"Feature","properties":{"id":60,"area_m2":1100,"px":11,"rank":12},"geometry":{"type":"Polygon","coordinates":[[[-122.348177,47.576072],[-122.348175,47.576162],[-122.347952,47.576167],[-122.347913,47.576199],[-122.347908,47.576251],[-122.347377,47.576248],[-122.347379,47.576068],[-122.347512,47.576069],[-122.347582,47.576093],[-122.347721,47.576067],[-122.347772,47.576037],[-122.347779,47.57598],[-122.348045,47.575982],[-122.348067,47.576056],[-122.348177,47.576072]]]}},{"type":"Feature","properties":{"id":51,"area_m2":1000,"px":10,"rank":13},"geometry":{"type":"Polygon","coordinates":[[[-122.347368,47.576968],[-122.347367,47.577057],[-122.347257,47.577073],[-122.347232,47.577147],[-122.3471,47.577146],[-122.3471,47.576996],[-122.34704,47.576953],[-122.346849,47.576988],[-122.346834,47.577144],[-122.346701,47.577144],[-122.346678,47.577069],[-122.346569,47.577053],[-122.34657,47.576963],[-122.346787,47.57696],[-122.34683,47.576931],[-122.346837,47.576875],[-122.346952,47.576855],[-122.346972,47.576695],[-122.347105,47.576696],[-122.347117,47.576852],[-122.347236,47.576877],[-122.34727,47.576958],[-122.347368,47.576968]]]}},{"type":"Feature","properties":{"id":15,"area_m2":900,"px":9,"rank":14},"geometry":{"type":"Polygon","coordinates":[[[-122.347971,47.58192],[-122.34797,47.58201],[-122.347886,47.582013],[-122.34784,47.582047],[-122.347835,47.582189],[-122.347751,47.582193],[-122.347705,47.582226],[-122.347698,47.582458],[-122.347433,47.582456],[-122.347434,47.582367],[-122.347517,47.582363],[-122.347564,47.582329],[-122.34757,47.582097],[-122.347646,47.582096],[-122.347694,47.58207],[-122.347705,47.581918],[-122.347971,47.58192]]]}},{"type":"Feature","properties":{"id":58,"area_m2":900,"px":9,"rank":15},"geometry":{"type":"Polygon","coordinates":[[[-122.354029,47.575925],[-122.354027,47.576105],[-122.353951,47.576107],[-122.353903,47.576133],[-122.353892,47.576284],[-122.353493,47.576282],[-122.353495,47.576102],[-122.353719,47.576097],[-122.353758,47.576066],[-122.353762,47.576014],[-122.353882,47.575991],[-122.353896,47.575925],[-122.354029,47.575925]]]}},{"type":"Feature","properties":{"id":65,"area_m2":900,"px":9,"rank":16},"geometry":{"type":"Polygon","coordinates":[[[-122.348714,47.575625],[-122.348713,47.575715],[-122.348629,47.575719],[-122.348583,47.575753],[-122.348578,47.575895],[-122.348312,47.575893],[-122.348289,47.575819],[-122.34818,47.575802],[-122.348181,47.575712],[-122.348291,47.575697],[-122.348315,47.575623],[-122.348435,47.5756],[-122.348449,47.575534],[-122.348582,47.575535],[-122.348605,47.575609],[-122.348714,47.575625]]]}},{"type":"Feature","properties":{"id":1,"area_m2":700,"px":7,"rank":17},"geometry":{"type":"Polygon","coordinates":[[[-122.347752,47.588847],[-122.34775,47.589027],[-122.34764,47.589042],[-122.347616,47.589116],[-122.347483,47.589115],[-122.347484,47.588889],[-122.347444,47.588851],[-122.347353,47.588845],[-122.347354,47.588755],[-122.347464,47.588739],[-122.347488,47.588665],[-122.347621,47.588666],[-122.347608,47.588816],[-122.347655,47.588844],[-122.347752,47.588847]]]}},{"type":"Feature","properties":{"id":48,"area_m2":700,"px":7,"rank":18},"geometry":{"type":"Polygon","coordinates":[[[-122.349096,47.576977],[-122.349094,47.577157],[-122.349003,47.577163],[-122.348962,47.5772],[-122.348957,47.577516],[-122.348824,47.577516],[-122.348828,47.577156],[-122.348926,47.577147],[-122.348962,47.577102],[-122.34895,47.577],[-122.34883,47.576976],[-122.348832,47.576886],[-122.348964,47.576887],[-122.348987,47.576961],[-122.349096,47.576977]]]}},{"type":"Feature","properties":{"id":55,"area_m2":700,"px":7,"rank":19},"geometry":{"type":"Polygon","coordinates":[[[-122.348572,47.576345],[-122.348569,47.576614],[-122.348436,47.576614],[-122.348431,47.576557],[-122.34838,47.576526],[-122.348171,47.576522],[-122.348173,47.576342],[-122.348572,47.576345]]]}},{"type":"Feature","properties":{"id":69,"area_m2":700,"px":7,"rank":20},"geometry":{"type":"Polygon","coordinates":[[[-122.352441,47.575287],[-122.352438,47.575556],[-122.352172,47.575555],[-122.35211,47.575531],[-122.352039,47.575554],[-122.351906,47.575553],[-122.351907,47.575464],[-122.352017,47.575448],[-122.352042,47.575374],[-122.352251,47.575373],[-122.352302,47.575342],[-122.352309,47.575286],[-122.352441,47.575287]]]}},{"type":"Feature","properties":{"id":80,"area_m2":700,"px":7,"rank":21},"geometry":{"type":"Polygon","coordinates":[[[-122.348072,47.573554],[-122.348039,47.5736],[-122.348074,47.573642],[-122.348073,47.573732],[-122.347807,47.573731],[-122.347784,47.573656],[-122.347675,47.57364],[-122.347677,47.57346],[-122.348076,47.573462],[-122.348072,47.573554]]]}},{"type":"Feature","properties":{"id":5,"area_m2":600,"px":6,"rank":22},"geometry":{"type":"Polygon","coordinates":[[[-122.346851,47.586412],[-122.346849,47.586592],[-122.346317,47.586589],[-122.346318,47.586499],[-122.346533,47.5865],[-122.346592,47.586476],[-122.346587,47.586321],[-122.346719,47.586322],[-122.346742,47.586396],[-122.346851,47.586412]]]}},{"type":"Feature","properties":{"id":7,"area_m2":600,"px":6,"rank":23},"geometry":{"type":"Polygon","coordinates":[[[-122.348183,47.58624],[-122.348181,47.58642],[-122.348071,47.586435],[-122.348047,47.586509],[-122.347781,47.586508],[-122.347782,47.586418],[-122.347866,47.586414],[-122.347912,47.58638],[-122.347918,47.586238],[-122.348183,47.58624]]]}},{"type":"Feature","properties":{"id":9,"area_m2":600,"px":6,"rank":24},"geometry":{"type":"Polygon","coordinates":[[[-122.346994,47.585603],[-122.346993,47.585693],[-122.346862,47.585693],[-122.346852,47.585631],[-122.346797,47.585603],[-122.34633,47.585599],[-122.346332,47.58542],[-122.346465,47.58542],[-122.346473,47.585482],[-122.346528,47.58551],[-122.346862,47.585513],[-122.346885,47.585587],[-122.346994,47.585603]]]}},{"type":"Feature","properties":{"id":19,"area_m2":600,"px":6,"rank":25},"geometry":{"type":"Polygon","coordinates":[[[-122.347846,47.581289],[-122.347844,47.581469],[-122.347445,47.581467],[-122.347447,47.581287],[-122.347846,47.581289]]]}},{"type":"Feature","properties":{"id":21,"area_m2":600,"px":6,"rank":26},"geometry":{"type":"Polygon","coordinates":[[[-122.347983,47.58093],[-122.347982,47.58102],[-122.347718,47.581019],[-122.347694,47.580944],[-122.347585,47.580928],[-122.347586,47.580838],[-122.347669,47.580834],[-122.347716,47.5808],[-122.347721,47.580659],[-122.347854,47.580659],[-122.347854,47.580891],[-122.3479,47.580925],[-122.347983,47.58093]]]}},{"type":"Feature","properties":{"id":22,"area_m2":600,"px":6,"rank":27},"geometry":{"type":"Polygon","coordinates":[[[-122.348255,47.580482],[-122.348249,47.580931],[-122.348116,47.580931],[-122.348119,47.580614],[-122.348079,47.580577],[-122.347988,47.58057],[-122.347989,47.58048],[-122.348255,47.580482]]]}},{"type":"Feature","properties":{"id":28,"area_m2":600,"px":6,"rank":28},"geometry":{"type":"Polygon","coordinates":[[[-122.349595,47.57968],[-122.349591,47.579949],[-122.349458,47.579949],[-122.349436,47.579874],[-122.349327,47.579858],[-122.349292,47.579777],[-122.349195,47.579767],[-122.349196,47.579677],[-122.349595,47.57968]]]}},{"type":"Feature","properties":{"id":39,"area_m2":600,"px":6,"rank":29},"geometry":{"type":"Polygon","coordinates":[[[-122.354528,47.578628],[-122.354525,47.578897],[-122.354415,47.578913],[-122.35439,47.578987],[-122.354258,47.578986],[-122.354259,47.578896],[-122.354356,47.578887],[-122.354392,47.578843],[-122.354388,47.57866],[-122.354346,47.578631],[-122.354262,47.578626],[-122.354264,47.578446],[-122.354397,47.578447],[-122.354405,47.578598],[-122.354452,47.578625],[-122.354528,47.578628]]]}},{"type":"Feature","properties":{"id":42,"area_m2":600,"px":6,"rank":30},"geometry":{"type":"Polygon","coordinates":[[[-122.349483,47.577969],[-122.349482,47.578059],[-122.349384,47.578068],[-122.349348,47.578148],[-122.349264,47.578152],[-122.349218,47.578186],[-122.34921,47.578508],[-122.349077,47.578507],[-122.349082,47.578147],[-122.349192,47.578132],[-122.349216,47.578058],[-122.349336,47.578034],[-122.34935,47.577969],[-122.349483,47.577969]]]}},{"type":"Feature","properties":{"id":61,"area_m2":600,"px":6,"rank":31},"geometry":{"type":"Polygon","coordinates":[[[-122.347247,47.575977],[-122.347244,47.576247],[-122.346978,47.576245],[-122.346981,47.575976],[-122.347247,47.575977]]]}},{"type":"Feature","properties":{"id":71,"area_m2":600,"px":6,"rank":32},"geometry":{"type":"Polygon","coordinates":[[[-122.351379,47.575191],[-122.351377,47.575371],[-122.350978,47.575368],[-122.35098,47.575188],[-122.351379,47.575191]]]}},{"type":"Feature","properties":{"id":77,"area_m2":600,"px":6,"rank":33},"geometry":{"type":"Polygon","coordinates":[[[-122.347799,47.574361],[-122.347798,47.57445],[-122.347688,47.574466],[-122.347664,47.57454],[-122.347265,47.574537],[-122.347266,47.574448],[-122.347376,47.574432],[-122.3474,47.574358],[-122.347799,47.574361]]]}},{"type":"Feature","properties":{"id":16,"area_m2":500,"px":5,"rank":34},"geometry":{"type":"Polygon","coordinates":[[[-122.348772,47.581654],[-122.348771,47.581744],[-122.348687,47.581748],[-122.348641,47.581782],[-122.348636,47.581923],[-122.34837,47.581922],[-122.348372,47.581742],[-122.348582,47.581741],[-122.348633,47.58171],[-122.348639,47.581654],[-122.348772,47.581654]]]}},{"type":"Feature","properties":{"id":34,"area_m2":500,"px":5,"rank":35},"geometry":{"type":"Polygon","coordinates":[[[-122.348939,47.578956],[-122.348938,47.579046],[-122.34884,47.579054],[-122.348803,47.579135],[-122.348727,47.579137],[-122.34868,47.579163],[-122.348668,47.579314],[-122.348535,47.579313],[-122.348538,47.579134],[-122.348614,47.579132],[-122.348662,47.579106],[-122.348673,47.578954],[-122.348939,47.578956]]]}},{"type":"Feature","properties":{"id":36,"area_m2":500,"px":5,"rank":36},"geometry":{"type":"Polygon","coordinates":[[[-122.352797,47.578798],[-122.352795,47.578978],[-122.352719,47.57898],[-122.352671,47.579006],[-122.35266,47.579157],[-122.352527,47.579156],[-122.352529,47.578976],[-122.352627,47.578968],[-122.352663,47.578923],[-122.35265,47.578821],[-122.352531,47.578796],[-122.352532,47.578706],[-122.352665,47.578707],[-122.352688,47.578781],[-122.352797,47.578798]]]}},{"type":"Feature","properties":{"id":38,"area_m2":500,"px":5,"rank":37},"geometry":{"type":"Polygon","coordinates":[[[-122.348276,47.578772],[-122.348274,47.578952],[-122.348164,47.578967],[-122.34814,47.579041],[-122.348007,47.579041],[-122.348008,47.578951],[-122.348106,47.578942],[-122.348142,47.578897],[-122.348129,47.578795],[-122.34801,47.578771],[-122.348013,47.578591],[-122.348145,47.578592],[-122.348153,47.578743],[-122.3482,47.578769],[-122.348276,47.578772]]]}},{"type":"Feature","properties":{"id":44,"area_m2":500,"px":5,"rank":38},"geometry":{"type":"Polygon","coordinates":[[[-122.352673,47.578077],[-122.352671,47.578257],[-122.35244,47.578265],[-122.352405,47.578304],[-122.352403,47.578436],[-122.35227,47.578435],[-122.352272,47.578255],[-122.352382,47.57824],[-122.352406,47.578166],[-122.352526,47.578142],[-122.35254,47.578077],[-122.352673,47.578077]]]}},{"type":"Feature","properties":{"id":57,"area_m2":500,"px":5,"rank":39},"geometry":{"type":"Polygon","coordinates":[[[-122.35057,47.576086],[-122.350568,47.576266],[-122.350458,47.576281],[-122.350434,47.576355],[-122.350301,47.576354],[-122.350304,47.576084],[-122.35057,47.576086]]]}},{"type":"Feature","properties":{"id":64,"area_m2":500,"px":5,"rank":40},"geometry":{"type":"Polygon","coordinates":[[[-122.349245,47.575718],[-122.349243,47.575898],[-122.34911,47.575898],[-122.349047,47.575873],[-122.348977,47.575897],[-122.348844,47.575896],[-122.348846,47.575716],[-122.349245,47.575718]]]}},{"type":"Feature","properties":{"id":67,"area_m2":500,"px":5,"rank":41},"geometry":{"type":"Polygon","coordinates":[[[-122.347386,47.575528],[-122.347384,47.575618],[-122.347275,47.575633],[-122.34725,47.575707],[-122.347131,47.57573],[-122.347116,47.575796],[-122.346983,47.575795],[-122.346986,47.575616],[-122.347095,47.5756],[-122.34712,47.575526],[-122.347386,47.575528]]]}},{"type":"Feature","properties":{"id":68,"area_m2":500,"px":5,"rank":42},"geometry":{"type":"Polygon","coordinates":[[[-122.350844,47.575458],[-122.350841,47.575637],[-122.350732,47.575653],[-122.350707,47.575727],[-122.350575,47.575726],[-122.350578,47.575456],[-122.350844,47.575458]]]}},{"type":"Feature","properties":{"id":72,"area_m2":500,"px":5,"rank":43},"geometry":{"type":"Polygon","coordinates":[[[-122.348721,47.575086],[-122.348718,47.575265],[-122.348509,47.575267],[-122.348458,47.575297],[-122.348451,47.575354],[-122.348319,47.575353],[-122.34832,47.575263],[-122.348403,47.57526],[-122.34845,47.575226],[-122.348455,47.575084],[-122.348721,47.575086]]]}},{"type":"Feature","properties":{"id":3,"area_m2":400,"px":4,"rank":44},"geometry":{"type":"Polygon","coordinates":[[[-122.34991,47.58643],[-122.349908,47.58661],[-122.349798,47.586625],[-122.349774,47.586699],[-122.349641,47.586698],[-122.349642,47.586608],[-122.349678,47.586566],[-122.349643,47.586518],[-122.349644,47.586428],[-122.34991,47.58643]]]}},{"type":"Feature","properties":{"id":4,"area_m2":400,"px":4,"rank":45},"geometry":{"type":"Polygon","coordinates":[[[-122.34725,47.586415],[-122.347249,47.586504],[-122.347165,47.586508],[-122.347119,47.586542],[-122.347114,47.586684],[-122.346981,47.586683],[-122.346984,47.586413],[-122.34725,47.586415]]]}},{"type":"Feature","properties":{"id":8,"area_m2":400,"px":4,"rank":46},"geometry":{"type":"Polygon","coordinates":[[[-122.347258,47.585785],[-122.347256,47.585965],[-122.347146,47.58598],[-122.347122,47.586054],[-122.346989,47.586053],[-122.346991,47.585873],[-122.347101,47.585858],[-122.347125,47.585784],[-122.347258,47.585785]]]}},{"type":"Feature","properties":{"id":17,"area_m2":400,"px":4,"rank":47},"geometry":{"type":"Polygon","coordinates":[[[-122.346115,47.581459],[-122.34611,47.581819],[-122.345978,47.581818],[-122.345982,47.581459],[-122.346115,47.581459]]]}},{"type":"Feature","properties":{"id":27,"area_m2":400,"px":4,"rank":48},"geometry":{"type":"Polygon","coordinates":[[[-122.347866,47.57967],[-122.347865,47.57976],[-122.347774,47.579765],[-122.347733,47.579802],[-122.347729,47.580029],[-122.347596,47.580028],[-122.347599,47.579758],[-122.347709,47.579743],[-122.347733,47.579669],[-122.347866,47.57967]]]}},{"type":"Feature","properties":{"id":29,"area_m2":400,"px":4,"rank":49},"geometry":{"type":"Polygon","coordinates":[[[-122.347735,47.579489],[-122.347734,47.579579],[-122.347624,47.579594],[-122.3476,47.579668],[-122.347334,47.579667],[-122.347335,47.579577],[-122.347445,47.579561],[-122.347469,47.579488],[-122.347735,47.579489]]]}},{"type":"Feature","properties":{"id":37,"area_m2":400,"px":4,"rank":50},"geometry":{"type":"Polygon","coordinates":[[[-122.353862,47.578714],[-122.353861,47.578804],[-122.353763,47.578812],[-122.353727,47.578857],[-122.353739,47.578959],[-122.353859,47.578984],[-122.353857,47.579074],[-122.353725,47.579073],[-122.353702,47.578999],[-122.353593,47.578982],[-122.353595,47.578802],[-122.353705,47.578787],[-122.353729,47.578713],[-122.353862,47.578714]]]}},{"type":"Feature","properties":{"id":40,"area_m2":400,"px":4,"rank":51},"geometry":{"type":"Polygon","coordinates":[[[-122.353597,47.578622],[-122.353596,47.578712],[-122.353505,47.578718],[-122.353464,47.578755],[-122.35346,47.578981],[-122.353327,47.578981],[-122.35333,47.578711],[-122.35344,47.578696],[-122.353464,47.578622],[-122.353597,47.578622]]]}},{"type":"Feature","properties":{"id":43,"area_m2":400,"px":4,"rank":52},"geometry":{"type":"Polygon","coordinates":[[[-122.347752,47.578139],[-122.347748,47.578499],[-122.347615,47.578498],[-122.347619,47.578139],[-122.347752,47.578139]]]}},{"type":"Feature","properties":{"id":45,"area_m2":400,"px":4,"rank":53},"geometry":{"type":"Polygon","coordinates":[[[-122.348954,47.577696],[-122.348952,47.577876],[-122.348842,47.577891],[-122.348818,47.577965],[-122.348685,47.577965],[-122.348687,47.577785],[-122.348797,47.57777],[-122.348822,47.577696],[-122.348954,47.577696]]]}},{"type":"Feature","properties":{"id":46,"area_m2":400,"px":4,"rank":54},"geometry":{"type":"Polygon","coordinates":[[[-122.348291,47.577603],[-122.348288,47.577782],[-122.348179,47.577798],[-122.348154,47.577872],[-122.348021,47.577871],[-122.348024,47.577691],[-122.348133,47.577676],[-122.348158,47.577602],[-122.348291,47.577603]]]}},{"type":"Feature","properties":{"id":52,"area_m2":400,"px":4,"rank":55},"geometry":{"type":"Polygon","coordinates":[[[-122.35096,47.576808],[-122.350959,47.576898],[-122.35075,47.576899],[-122.350699,47.57693],[-122.350692,47.576986],[-122.350559,47.576986],[-122.35056,47.576896],[-122.350644,47.576892],[-122.35069,47.576858],[-122.350695,47.576716],[-122.350828,47.576717],[-122.350851,47.576791],[-122.35096,47.576808]]]}},{"type":"Feature","properties":{"id":53,"area_m2":400,"px":4,"rank":56},"geometry":{"type":"Polygon","coordinates":[[[-122.346577,47.576423],[-122.346575,47.576513],[-122.346466,47.576528],[-122.346441,47.576602],[-122.346322,47.576626],[-122.346307,47.576691],[-122.346042,47.57669],[-122.346043,47.5766],[-122.346266,47.576595],[-122.346306,47.576563],[-122.34631,47.576512],[-122.346429,47.576488],[-122.346444,47.576422],[-122.346577,47.576423]]]}},{"type":"Feature","properties":{"id":66,"area_m2":400,"px":4,"rank":57},"geometry":{"type":"Polygon","coordinates":[[[-122.347783,47.57562],[-122.347781,47.5758],[-122.347515,47.575799],[-122.347518,47.575619],[-122.347783,47.57562]]]}},{"type":"Feature","properties":{"id":73,"area_m2":400,"px":4,"rank":58},"geometry":{"type":"Polygon","coordinates":[[[-122.349786,47.575002],[-122.349783,47.575182],[-122.349518,47.57518],[-122.34952,47.575],[-122.349786,47.575002]]]}},{"type":"Feature","properties":{"id":74,"area_m2":400,"px":4,"rank":59},"geometry":{"type":"Polygon","coordinates":[[[-122.353778,47.574754],[-122.353775,47.574934],[-122.353643,47.574933],[-122.353638,47.574863],[-122.353589,47.574832],[-122.353378,47.574842],[-122.353379,47.574752],[-122.353489,47.574737],[-122.353513,47.574663],[-122.353646,47.574664],[-122.353668,47.574738],[-122.353778,47.574754]]]}},{"type":"Feature","properties":{"id":75,"area_m2":400,"px":4,"rank":60},"geometry":{"type":"Polygon","coordinates":[[[-122.346334,47.574532],[-122.346333,47.574622],[-122.346249,47.574626],[-122.346203,47.57466],[-122.346198,47.574801],[-122.346065,47.5748],[-122.346068,47.574531],[-122.346334,47.574532]]]}},{"type":"Feature","properties":{"id":78,"area_m2":400,"px":4,"rank":61},"geometry":{"type":"Polygon","coordinates":[[[-122.350331,47.573925],[-122.350328,47.574105],[-122.350063,47.574103],[-122.350064,47.574013],[-122.3501,47.573971],[-122.350065,47.573923],[-122.350066,47.573834],[-122.350199,47.573834],[-122.350221,47.573909],[-122.350331,47.573925]]]}},{"type":"Feature","properties":{"id":10,"area_m2":300,"px":3,"rank":62},"geometry":{"type":"Polygon","coordinates":[[[-122.35006,47.585081],[-122.350057,47.585261],[-122.349925,47.58526],[-122.349902,47.585186],[-122.349793,47.585169],[-122.349794,47.585079],[-122.35006,47.585081]]]}},{"type":"Feature","properties":{"id":11,"area_m2":300,"px":3,"rank":63},"geometry":{"type":"Polygon","coordinates":[[[-122.347267,47.585065],[-122.347265,47.585245],[-122.347132,47.585244],[-122.347109,47.58517],[-122.347,47.585153],[-122.347001,47.585064],[-122.347267,47.585065]]]}},{"type":"Feature","properties":{"id":14,"area_m2":300,"px":3,"rank":64},"geometry":{"type":"Polygon","coordinates":[[[-122.347693,47.582908],[-122.347691,47.583088],[-122.347425,47.583086],[-122.347426,47.582996],[-122.347536,47.582981],[-122.34756,47.582907],[-122.347693,47.582908]]]}},{"type":"Feature","properties":{"id":18,"area_m2":300,"px":3,"rank":65},"geometry":{"type":"Polygon","coordinates":[[[-122.347312,47.581466],[-122.347311,47.581556],[-122.347227,47.58156],[-122.347181,47.581594],[-122.347175,47.581735],[-122.347043,47.581734],[-122.347045,47.581555],[-122.347155,47.581539],[-122.347179,47.581465],[-122.347312,47.581466]]]}},{"type":"Feature","properties":{"id":20,"area_m2":300,"px":3,"rank":66},"geometry":{"type":"Polygon","coordinates":[[[-122.348517,47.580753],[-122.348514,47.581023],[-122.348381,47.581022],[-122.348385,47.580752],[-122.348517,47.580753]]]}},{"type":"Feature","properties":{"id":23,"area_m2":300,"px":3,"rank":67},"geometry":{"type":"Polygon","coordinates":[[[-122.34945,47.580579],[-122.349449,47.580668],[-122.349184,47.580667],[-122.349186,47.580487],[-122.349319,47.580488],[-122.349341,47.580562],[-122.34945,47.580579]]]}},{"type":"Feature","properties":{"id":24,"area_m2":300,"px":3,"rank":68},"geometry":{"type":"Polygon","coordinates":[[[-122.346925,47.580474],[-122.346923,47.580654],[-122.346657,47.580652],[-122.346658,47.580563],[-122.346768,47.580547],[-122.346792,47.580473],[-122.346925,47.580474]]]}},{"type":"Feature","properties":{"id":25,"area_m2":300,"px":3,"rank":69},"geometry":{"type":"Polygon","coordinates":[[[-122.347725,47.580299],[-122.347724,47.580389],[-122.347458,47.580387],[-122.347461,47.580207],[-122.347593,47.580208],[-122.347616,47.580282],[-122.347725,47.580299]]]}},{"type":"Feature","properties":{"id":26,"area_m2":300,"px":3,"rank":70},"geometry":{"type":"Polygon","coordinates":[[[-122.349457,47.580039],[-122.349455,47.580218],[-122.349322,47.580218],[-122.3493,47.580144],[-122.34919,47.580127],[-122.349191,47.580037],[-122.349457,47.580039]]]}},{"type":"Feature","properties":{"id":31,"area_m2":300,"px":3,"rank":71},"geometry":{"type":"Polygon","coordinates":[[[-122.346673,47.579393],[-122.346671,47.579483],[-122.346406,47.579481],[-122.346383,47.579407],[-122.346274,47.579391],[-122.346275,47.579301],[-122.346408,47.579302],[-122.346413,47.579358],[-122.346463,47.579389],[-122.346673,47.579393]]]}},{"type":"Feature","properties":{"id":30,"area_m2":300,"px":3,"rank":72},"geometry":{"type":"Polygon","coordinates":[[[-122.348935,47.579226],[-122.348933,47.579406],[-122.348823,47.579421],[-122.348799,47.579495],[-122.348666,47.579494],[-122.348667,47.579404],[-122.348751,47.579401],[-122.348797,47.579367],[-122.348803,47.579225],[-122.348935,47.579226]]]}},{"type":"Feature","properties":{"id":32,"area_m2":300,"px":3,"rank":73},"geometry":{"type":"Polygon","coordinates":[[[-122.348272,47.579132],[-122.348269,47.579312],[-122.34816,47.579327],[-122.348135,47.579401],[-122.348002,47.5794],[-122.348004,47.579311],[-122.348087,47.579307],[-122.348134,47.579273],[-122.348139,47.579131],[-122.348272,47.579132]]]}},{"type":"Feature","properties":{"id":33,"area_m2":300,"px":3,"rank":74},"geometry":{"type":"Polygon","coordinates":[[[-122.353193,47.57907],[-122.353189,47.57934],[-122.353056,47.579339],[-122.35306,47.579069],[-122.353193,47.57907]]]}},{"type":"Feature","properties":{"id":35,"area_m2":300,"px":3,"rank":75},"geometry":{"type":"Polygon","coordinates":[[[-122.353592,47.579072],[-122.353589,47.579252],[-122.353324,47.579251],[-122.353325,47.579161],[-122.353434,47.579145],[-122.353459,47.579072],[-122.353592,47.579072]]]}},{"type":"Feature","properties":{"id":41,"area_m2":300,"px":3,"rank":76},"geometry":{"type":"Polygon","coordinates":[[[-122.353198,47.57862],[-122.353195,47.57889],[-122.353062,47.578889],[-122.353065,47.578619],[-122.353198,47.57862]]]}},{"type":"Feature","properties":{"id":49,"area_m2":300,"px":3,"rank":77},"geometry":{"type":"Polygon","coordinates":[[[-122.347894,47.57742],[-122.347893,47.57751],[-122.347627,47.577509],[-122.347629,47.577329],[-122.347762,47.57733],[-122.347785,47.577404],[-122.347894,47.57742]]]}},{"type":"Feature","properties":{"id":54,"area_m2":300,"px":3,"rank":78},"geometry":{"type":"Polygon","coordinates":[[[-122.349901,47.576442],[-122.349898,47.576622],[-122.349633,47.57662],[-122.349634,47.57653],[-122.349743,47.576515],[-122.349768,47.576441],[-122.349901,47.576442]]]}},{"type":"Feature","properties":{"id":56,"area_m2":300,"px":3,"rank":79},"geometry":{"type":"Polygon","coordinates":[[[-122.346975,47.576425],[-122.346974,47.576515],[-122.346865,47.576531],[-122.34684,47.576604],[-122.346707,47.576604],[-122.34671,47.576424],[-122.346975,47.576425]]]}},{"type":"Feature","properties":{"id":63,"area_m2":300,"px":3,"rank":80},"geometry":{"type":"Polygon","coordinates":[[[-122.351636,47.575912],[-122.351635,47.576002],[-122.351369,47.576],[-122.351371,47.57582],[-122.351504,47.575821],[-122.351527,47.575895],[-122.351636,47.575912]]]}}]}