{"type":"FeatureCollection","features":[{"type":"Feature","properties":{"id":18,"area_m2":3700,"px":37,"rank":1},"geometry":{"type":"Polygon","coordinates":[[[-122.3481,47.58228],[-122.348096,47.58255],[-122.34802,47.582552],[-122.347972,47.582578],[-122.347961,47.582729],[-122.347857,47.582741],[-122.347827,47.582819],[-122.347736,47.582825],[-122.347694,47.582867],[-122.347694,47.582954],[-122.347727,47.582989],[-122.347958,47.582999],[-122.347955,47.583179],[-122.347557,47.583177],[-122.34756,47.582771],[-122.34752,47.582733],[-122.347429,47.582726],[-122.34743,47.582637],[-122.347528,47.582628],[-122.347564,47.582547],[-122.347648,47.582544],[-122.347694,47.58251],[-122.347686,47.582392],[-122.347567,47.582367],[-122.347571,47.582007],[-122.347681,47.581992],[-122.347705,47.581918],[-122.347825,47.581895],[-122.347839,47.581829],[-122.347972,47.58183],[-122.34797,47.58201],[-122.347934,47.582052],[-122.347969,47.5821],[-122.347948,47.582234],[-122.347995,47.582275],[-122.3481,47.58228]]]}},{"type":"Feature","properties":{"id":31,"area_m2":3600,"px":36,"rank":2},"geometry":{"type":"Polygon","coordinates":[[[-122.349461,47.579769],[-122.349458,47.579949],[-122.349327,47.579948],[-122.349326,47.579811],[-122.349285,47.579774],[-122.348796,47.579765],[-122.3488,47.579405],[-122.348898,47.579396],[-122.348934,47.579352],[-122.348922,47.57925],[-122.348803,47.579225],[-122.348804,47.579135],[-122.348901,47.579127],[-122.348937,47.579082],[-122.348925,47.57898],[-122.348806,47.578955],[-122.348809,47.578685],[-122.349026,47.578682],[-122.349069,47.578653],[-122.349076,47.578597],[-122.349153,47.578595],[-122.3492,47.578569],[-122.349207,47.578456],[-122.349162,47.578421],[-122.349079,47.578417],[-122.34908,47.578327],[-122.349212,47.578328],[-122.349235,47.578402],[-122.349344,47.578418],[-122.349342,47.578598],[-122.349222,47.578622],[-122.349207,47.578777],[-122.349092,47.578797],[-122.349052,47.578906],[-122.349093,47.57895],[-122.349205,47.578957],[-122.349199,47.579117],[-122.349335,47.579138],[-122.349333,47.579318],[-122.349221,47.579324],[-122.34918,47.579378],[-122.349216,47.579478],[-122.349331,47.579498],[-122.349337,47.579739],[-122.349384,47.579766],[-122.349461,47.579769]]]}},{"type":"Feature","properties":{"id":14,"area_m2":2900,"px":29,"rank":3},"geometry":{"type":"Polygon","coordinates":[[[-122.34928,47.583368],[-122.349247,47.583414],[-122.349282,47.583457],[-122.34928,47.583637],[-122.349203,47.583639],[-122.349156,47.583665],[-122.349143,47.583906],[-122.349052,47.583912],[-122.34901,47.583954],[-122.349022,47.584061],[-122.349141,47.584086],[-122.34914,47.584176],[-122.349007,47.584175],[-122.348985,47.584101],[-122.348875,47.584084],[-122.34888,47.583725],[-122.348916,47.583682],[-122.348881,47.583634],[-122.348883,47.583455],[-122.348981,47.583446],[-122.349017,47.583401],[-122.349004,47.583299],[-122.348885,47.583275],[-122.348892,47.582735],[-122.349158,47.582736],[-122.349152,47.583227],[-122.349193,47.58327],[-122.349284,47.583277],[-122.34928,47.583368]]]}},{"type":"Feature","properties":{"id":45,"area_m2":2900,"px":29,"rank":4},"geometry":{"type":"Polygon","coordinates":[[[-122.347231,47.577237],[-122.34723,47.577327],[-122.347133,47.577335],[-122.347096,47.577416],[-122.347012,47.577419],[-122.346969,47.577448],[-122.34696,47.577685],[-122.346428,47.577682],[-122.346423,47.577625],[-122.346373,47.577594],[-122.346234,47.577567],[-122.346163,47.57759],[-122.34603,47.57759],[-122.346033,47.57741],[-122.346109,47.577408],[-122.346156,47.577382],[-122.346168,47.577231],[-122.346251,47.577227],[-122.346298,47.577193],[-122.346303,47.577051],[-122.346505,47.577051],[-122.346563,47.57702],[-122.346572,47.576783],[-122.346705,47.576784],[-122.346704,47.576915],[-122.346738,47.576955],[-122.346969,47.576965],[-122.346988,47.577233],[-122.347042,47.577249],[-122.347231,47.577237]],[[-122.346834,47.577326],[-122.346825,47.577083],[-122.346771,47.577055],[-122.346611,47.57706],[-122.346569,47.577102],[-122.346565,47.577323],[-122.346475,47.577329],[-122.346434,47.577366],[-122.346453,47.577576],[-122.346509,47.577592],[-122.346805,47.577578],[-122.34683,47.577414],[-122.346866,47.577372],[-122.346834,47.577326]]]}},{"type":"Feature","properties":{"id":52,"area_m2":2600,"px":26,"rank":5},"geometry":{"type":"Polygon","coordinates":[[[-122.348167,47.576613],[-122.348134,47.57666],[-122.348169,47.576702],[-122.348167,47.576882],[-122.348018,47.576874],[-122.348035,47.57675],[-122.348007,47.576713],[-122.347834,47.576701],[-122.347773,47.576738],[-122.34777,47.576836],[-122.34781,47.576874],[-122.347917,47.576888],[-122.3479,47.57697],[-122.347634,47.576969],[-122.347611,47.576895],[-122.347502,47.576878],[-122.347504,47.576698],[-122.34754,47.576651],[-122.347505,47.576608],[-122.347505,47.576472],[-122.347465,47.576435],[-122.347375,47.576428],[-122.347376,47.576338],[-122.347718,47.576337],[-122.347769,47.576307],[-122.347778,47.57625],[-122.347908,47.576251],[-122.347913,47.576321],[-122.347962,47.576352],[-122.348173,47.576342],[-122.348167,47.576613]]]}},{"type":"Feature","properties":{"id":5,"area_m2":2500,"px":25,"rank":6},"geometry":{"type":"Polygon","coordinates":[[[-122.349129,47.585076],[-122.349119,47.585885],[-122.349021,47.585894],[-122.348985,47.585939],[-122.348997,47.586041],[-122.349117,47.586065],[-122.349113,47.586335],[-122.348847,47.586334],[-122.348856,47.585615],[-122.348892,47.585572],[-122.348857,47.585523],[-122.348863,47.585074],[-122.349129,47.585076]]]}},{"type":"Feature","properties":{"id":72,"area_m2":2100,"px":21,"rank":7},"geometry":{"type":"Polygon","coordinates":[[[-122.347264,47.574627],[-122.347262,47.574807],[-122.346597,47.574804],[-122.346599,47.574624],[-122.346635,47.574581],[-122.3466,47.574534],[-122.346603,47.574354],[-122.346712,47.574339],[-122.346738,47.574265],[-122.346869,47.574265],[-122.346875,47.574322],[-122.346925,47.574353],[-122.347134,47.574357],[-122.347133,47.574447],[-122.347097,47.574494],[-122.347135,47.574588],[-122.34718,47.574623],[-122.347264,47.574627]]]}},{"type":"Feature","properties":{"id":68,"area_m2":1600,"px":16,"rank":8},"geometry":{"type":"Polygon","coordinates":[[[-122.353105,47.57538],[-122.353104,47.57547],[-122.352973,47.57547],[-122.352968,47.575418],[-122.35293,47.575386],[-122.352706,47.575378],[-122.352684,47.575304],[-122.352575,47.575287],[-122.352558,47.575127],[-122.352505,47.575107],[-122.352311,47.575106],[-122.352288,47.575032],[-122.352179,47.575015],[-122.35218,47.574925],[-122.352404,47.57492],[-122.352443,47.574888],[-122.352447,47.574837],[-122.352713,47.574838],[-122.352712,47.574928],[-122.352628,47.574932],[-122.352582,47.574966],[-122.352586,47.575079],[-122.352649,47.575108],[-122.352975,47.57511],[-122.352976,47.575341],[-122.353021,47.575376],[-122.353105,47.57538]]]}},{"type":"Feature","properties":{"id":6,"area_m2":1500,"px":15,"rank":9},"geometry":{"type":"Polygon","coordinates":[[[-122.348723,47.585613],[-122.34872,47.585883],[-122.348454,47.585881],[-122.348472,47.585646],[-122.348422,47.585614],[-122.348324,47.585611],[-122.34833,47.585161],[-122.348596,47.585163],[-122.348592,47.585569],[-122.348632,47.585606],[-122.348723,47.585613]]]}},{"type":"Feature","properties":{"id":46,"area_m2":1500,"px":15,"rank":10},"geometry":{"type":"Polygon","coordinates":[[[-122.348162,47.577242],[-122.34816,47.577422],[-122.348084,47.577424],[-122.348036,47.57745],[-122.348025,47.577601],[-122.347626,47.577599],[-122.347603,47.577524],[-122.347494,47.577508],[-122.347497,47.577238],[-122.347763,47.57724],[-122.347776,47.577306],[-122.347842,47.57733],[-122.347993,47.577322],[-122.348029,47.577241],[-122.348162,47.577242]]]}},{"type":"Feature","properties":{"id":60,"area_m2":1500,"px":15,"rank":11},"geometry":{"type":"Polygon","coordinates":[[[-122.35071,47.575547],[-122.350708,47.575637],[-122.350618,47.575643],[-122.350577,47.575679],[-122.350572,47.575906],[-122.350462,47.575921],[-122.350438,47.575995],[-122.350341,47.576004],[-122.350304,47.576084],[-122.350189,47.576103],[-122.35017,47.576173],[-122.350037,47.576173],[-122.350039,47.575993],[-122.350075,47.575951],[-122.35004,47.575903],[-122.350043,47.575723],[-122.350394,47.575734],[-122.35044,47.575695],[-122.350444,47.575545],[-122.35071,47.575547]]]}},{"type":"Feature","properties":{"id":35,"area_m2":1400,"px":14,"rank":12},"geometry":{"type":"Polygon","coordinates":[[[-122.35359,47.578984],[-122.353557,47.57903],[-122.353592,47.579072],[-122.35359,47.579162],[-122.353554,47.57921],[-122.353589,47.579252],[-122.353588,47.579342],[-122.353455,47.579341],[-122.35345,47.579285],[-122.3534,47.579253],[-122.353191,47.57925],[-122.353193,47.57907],[-122.353284,47.579064],[-122.353326,47.579022],[-122.353331,47.578621],[-122.353464,47.578622],[-122.353487,47.578696],[-122.353596,47.578712],[-122.35359,47.578984]]]}},{"type":"Feature","properties":{"id":33,"area_m2":1300,"px":13,"rank":13},"geometry":{"type":"Polygon","coordinates":[[[-122.347869,47.5794],[-122.347867,47.57958],[-122.347757,47.579595],[-122.347733,47.579669],[-122.3476,47.579668],[-122.347578,47.579594],[-122.347468,47.579577],[-122.347474,47.579128],[-122.34774,47.579129],[-122.34774,47.579361],[-122.347786,47.579395],[-122.347869,47.5794]]]}},{"type":"Feature","properties":{"id":39,"area_m2":1300,"px":13,"rank":14},"geometry":{"type":"Polygon","coordinates":[[[-122.346549,47.578672],[-122.346545,47.578942],[-122.346147,47.57894],[-122.346139,47.578789],[-122.346092,47.578762],[-122.346016,47.578759],[-122.346023,47.57822],[-122.346155,47.57822],[-122.346168,47.57865],[-122.346345,47.578695],[-122.346416,47.578672],[-122.346549,47.578672]]]}},{"type":"Feature","properties":{"id":29,"area_m2":1200,"px":12,"rank":15},"geometry":{"type":"Polygon","coordinates":[[[-122.347334,47.579667],[-122.34733,47.580026],[-122.347232,47.580035],[-122.347196,47.58008],[-122.347197,47.580257],[-122.347243,47.580292],[-122.347326,47.580297],[-122.347325,47.580386],[-122.347059,47.580385],[-122.347067,47.579755],[-122.347177,47.57974],[-122.347201,47.579666],[-122.347334,47.579667]]]}},{"type":"Feature","properties":{"id":55,"area_m2":1200,"px":12,"rank":16},"geometry":{"type":"Polygon","coordinates":[[[-122.346844,47.576335],[-122.346841,47.576515],[-122.346732,47.57653],[-122.346707,47.576604],[-122.346442,47.576602],[-122.346443,47.576512],[-122.346558,47.576493],[-122.346613,47.576381],[-122.346578,47.576333],[-122.346575,47.576096],[-122.346532,47.576067],[-122.346448,47.576062],[-122.346451,47.575883],[-122.346716,47.575884],[-122.346713,47.57629],[-122.346753,47.576328],[-122.346844,47.576335]]]}},{"type":"Feature","properties":{"id":65,"area_m2":1200,"px":12,"rank":17},"geometry":{"type":"Polygon","coordinates":[[[-122.35244,47.575377],[-122.352437,47.575646],[-122.352327,47.575662],[-122.352303,47.575736],[-122.352037,47.575734],[-122.352034,47.575683],[-122.351996,47.57565],[-122.351772,47.575643],[-122.351773,47.575553],[-122.351883,47.575538],[-122.351907,47.575464],[-122.352242,47.575464],[-122.352297,47.575437],[-122.352307,47.575376],[-122.35244,47.575377]]]}},{"type":"Feature","properties":{"id":28,"area_m2":1100,"px":11,"rank":18},"geometry":{"type":"Polygon","coordinates":[[[-122.348793,47.579945],[-122.348792,47.580035],[-122.348423,47.580045],[-122.348392,47.580122],[-122.348309,47.580126],[-122.348265,47.580155],[-122.348257,47.580302],[-122.348147,47.580317],[-122.348123,47.580391],[-122.34799,47.58039],[-122.347992,47.58021],[-122.348096,47.580199],[-122.348127,47.580121],[-122.348224,47.580112],[-122.348261,47.580032],[-122.348344,47.580028],[-122.348388,47.579999],[-122.348397,47.579763],[-122.34853,47.579763],[-122.348552,47.579838],[-122.348662,47.579854],[-122.348696,47.579935],[-122.348793,47.579945]]]}},{"type":"Feature","properties":{"id":59,"area_m2":1100,"px":11,"rank":19},"geometry":{"type":"Polygon","coordinates":[[[-122.349907,47.575902],[-122.349905,47.576082],[-122.3498,47.576086],[-122.349752,47.576126],[-122.349769,47.576351],[-122.349636,47.57635],[-122.349613,47.576276],[-122.349504,47.57626],[-122.34947,47.576179],[-122.349372,47.576169],[-122.349373,47.576079],[-122.34945,47.576077],[-122.349497,47.576051],[-122.349509,47.5759],[-122.349907,47.575902]]]}},{"type":"Feature","properties":{"id":57,"area_m2":1100,"px":11,"rank":20},"geometry":{"type":"Polygon","coordinates":[[[-122.349377,47.575809],[-122.349375,47.575899],[-122.349174,47.575899],[-122.349113,47.575936],[-122.349121,47.576054],[-122.34924,47.576078],[-122.349236,47.576437],[-122.349103,47.576437],[-122.349081,47.576363],[-122.348971,47.576347],[-122.348977,47.575897],[-122.349086,47.575882],[-122.349111,47.575808],[-122.349377,47.575809]]]}},{"type":"Feature","properties":{"id":51,"area_m2":1000,"px":10,"rank":21},"geometry":{"type":"Polygon","coordinates":[[[-122.352425,47.576636],[-122.35242,47.576996],[-122.352155,47.576995],[-122.352152,47.576943],[-122.352113,47.576911],[-122.35189,47.576903],[-122.351891,47.576813],[-122.352001,47.576798],[-122.352025,47.576724],[-122.352234,47.576723],[-122.352285,47.576692],[-122.352292,47.576636],[-122.352425,47.576636]]]}},{"type":"Feature","properties":{"id":54,"area_m2":1000,"px":10,"rank":22},"geometry":{"type":"Polygon","coordinates":[[[-122.353494,47.576192],[-122.353493,47.576282],[-122.353395,47.576291],[-122.353359,47.576371],[-122.353275,47.576375],[-122.353232,47.576404],[-122.353223,47.576641],[-122.352824,47.576638],[-122.352825,47.576549],[-122.352909,47.576545],[-122.352955,47.576511],[-122.35296,47.576369],[-122.35307,47.576354],[-122.353094,47.57628],[-122.353303,47.576279],[-122.353354,47.576248],[-122.353361,47.576192],[-122.353494,47.576192]]]}},{"type":"Feature","properties":{"id":44,"area_m2":900,"px":9,"rank":23},"geometry":{"type":"Polygon","coordinates":[[[-122.350682,47.577528],[-122.350649,47.577574],[-122.350684,47.577616],[-122.350682,47.577796],[-122.350416,47.577795],[-122.350413,47.577743],[-122.350375,47.577711],[-122.350151,47.577703],[-122.350152,47.577613],[-122.350262,47.577598],[-122.350286,47.577524],[-122.35051,47.577519],[-122.350549,47.577487],[-122.350553,47.577435],[-122.350686,47.577436],[-122.350682,47.577528]]]}},{"type":"Feature","properties":{"id":49,"area_m2":900,"px":9,"rank":24},"geometry":{"type":"Polygon","coordinates":[[[-122.349363,47.576889],[-122.349362,47.576979],[-122.349278,47.576982],[-122.349232,47.577016],[-122.349227,47.577158],[-122.348828,47.577156],[-122.34883,47.576976],[-122.34894,47.576961],[-122.348965,47.576887],[-122.349363,47.576889]]]}},{"type":"Feature","properties":{"id":37,"area_m2":800,"px":8,"rank":25},"geometry":{"type":"Polygon","coordinates":[[[-122.353063,47.578799],[-122.353062,47.578889],[-122.352971,47.578895],[-122.35293,47.578932],[-122.352924,47.579248],[-122.352659,47.579247],[-122.352661,47.579067],[-122.352752,47.579061],[-122.352793,47.579024],[-122.352797,47.578798],[-122.353063,47.578799]]]}},{"type":"Feature","properties":{"id":73,"area_m2":800,"px":8,"rank":26},"geometry":{"type":"Polygon","coordinates":[[[-122.353116,47.574481],[-122.353113,47.57475],[-122.352847,47.574749],[-122.352825,47.574675],[-122.352715,47.574658],[-122.352716,47.574568],[-122.352752,47.574526],[-122.352717,47.574478],[-122.352719,47.574388],[-122.352851,47.574389],[-122.352857,47.574446],[-122.352907,47.574477],[-122.353116,47.574481]]]}},{"type":"Feature","properties":{"id":80,"area_m2":800,"px":8,"rank":27},"geometry":{"type":"Polygon","coordinates":[[[-122.346615,47.573364],[-122.34661,47.573724],[-122.346526,47.573728],[-122.34648,47.573761],[-122.34644,47.573855],[-122.346475,47.573903],[-122.346474,47.573993],[-122.346341,47.573992],[-122.346319,47.573918],[-122.346209,47.573902],[-122.34621,47.573812],[-122.346325,47.573793],[-122.346346,47.573632],[-122.346429,47.573629],[-122.346473,47.5736],[-122.346482,47.573363],[-122.346615,47.573364]]]}},{"type":"Feature","properties":{"id":17,"area_m2":700,"px":7,"rank":28},"geometry":{"type":"Polygon","coordinates":[[[-122.346895,47.582903],[-122.346893,47.583083],[-122.346816,47.583085],[-122.346769,47.583111],[-122.346757,47.583262],[-122.346625,47.583262],[-122.34663,47.582812],[-122.346763,47.582813],[-122.346786,47.582887],[-122.346895,47.582903]]]}},{"type":"Feature","properties":{"id":23,"area_m2":700,"px":7,"rank":29},"geometry":{"type":"Polygon","coordinates":[[[-122.347318,47.580926],[-122.347315,47.581196],[-122.347049,47.581195],[-122.347054,47.580835],[-122.347187,47.580836],[-122.347209,47.58091],[-122.347318,47.580926]]]}},{"type":"Feature","properties":{"id":25,"area_m2":700,"px":7,"rank":30},"geometry":{"type":"Polygon","coordinates":[[[-122.348389,47.580393],[-122.348388,47.580482],[-122.34829,47.580491],[-122.348254,47.580536],[-122.348256,47.580713],[-122.348301,47.580748],[-122.348384,47.580752],[-122.348383,47.580842],[-122.348251,47.580842],[-122.348248,47.58079],[-122.348209,47.580758],[-122.347986,47.58075],[-122.347988,47.58057],[-122.348098,47.580555],[-122.348122,47.580481],[-122.348242,47.580458],[-122.348256,47.580392],[-122.348389,47.580393]]]}},{"type":"Feature","properties":{"id":36,"area_m2":700,"px":7,"rank":31},"geometry":{"type":"Polygon","coordinates":[[[-122.348272,47.579132],[-122.34827,47.579222],[-122.348161,47.579237],[-122.348136,47.579311],[-122.348004,47.57931],[-122.347996,47.579159],[-122.347949,47.579133],[-122.347873,47.579128],[-122.347875,47.57895],[-122.347985,47.578935],[-122.348009,47.578861],[-122.348142,47.578861],[-122.348124,47.579097],[-122.348174,47.579129],[-122.348272,47.579132]]]}},{"type":"Feature","properties":{"id":38,"area_m2":700,"px":7,"rank":32},"geometry":{"type":"Polygon","coordinates":[[[-122.354529,47.578538],[-122.354522,47.579077],[-122.35439,47.579077],[-122.354391,47.57885],[-122.35435,47.578813],[-122.35426,47.578806],[-122.354261,47.578716],[-122.354337,47.578714],[-122.354385,47.578688],[-122.354396,47.578537],[-122.354529,47.578538]]]}},{"type":"Feature","properties":{"id":63,"area_m2":700,"px":7,"rank":33},"geometry":{"type":"Polygon","coordinates":[[[-122.351771,47.575733],[-122.351769,47.575913],[-122.351503,47.575911],[-122.351481,47.575837],[-122.351371,47.57582],[-122.351373,47.575641],[-122.351639,47.575642],[-122.351662,47.575716],[-122.351771,47.575733]]]}},{"type":"Feature","properties":{"id":70,"area_m2":700,"px":7,"rank":34},"geometry":{"type":"Polygon","coordinates":[[[-122.352051,47.574565],[-122.352049,47.574744],[-122.351806,47.574759],[-122.351781,47.574923],[-122.351515,47.574921],[-122.351517,47.574742],[-122.351741,47.574736],[-122.35178,47.574705],[-122.351785,47.574653],[-122.351904,47.57463],[-122.351919,47.574564],[-122.352051,47.574565]]]}},{"type":"Feature","properties":{"id":74,"area_m2":600,"px":6,"rank":35},"geometry":{"type":"Polygon","coordinates":[[[-122.353784,47.574214],[-122.353783,47.574304],[-122.353686,47.574313],[-122.35365,47.574358],[-122.353662,47.57446],[-122.353781,47.574484],[-122.35378,47.574574],[-122.353647,47.574574],[-122.353625,47.574499],[-122.353515,47.574483],[-122.353481,47.574402],[-122.353383,47.574392],[-122.353384,47.574302],[-122.353494,47.574287],[-122.353519,47.574213],[-122.353784,47.574214]]]}},{"type":"Feature","properties":{"id":3,"area_m2":500,"px":5,"rank":36},"geometry":{"type":"Polygon","coordinates":[[[-122.34817,47.58732],[-122.348169,47.58741],[-122.347903,47.587408],[-122.347908,47.587048],[-122.34804,47.587049],[-122.348041,47.587281],[-122.348086,47.587315],[-122.34817,47.58732]]]}},{"type":"Feature","properties":{"id":8,"area_m2":500,"px":5,"rank":37},"geometry":{"type":"Polygon","coordinates":[[[-122.347926,47.585519],[-122.347923,47.585788],[-122.347657,47.585787],[-122.347659,47.585607],[-122.347769,47.585592],[-122.347794,47.585518],[-122.347926,47.585519]]]}},{"type":"Feature","properties":{"id":9,"area_m2":500,"px":5,"rank":38},"geometry":{"type":"Polygon","coordinates":[[[-122.347269,47.584885],[-122.347266,47.585155],[-122.347,47.585153],[-122.347002,47.584974],[-122.347112,47.584958],[-122.347136,47.584884],[-122.347269,47.584885]]]}},{"type":"Feature","properties":{"id":11,"area_m2":500,"px":5,"rank":39},"geometry":{"type":"Polygon","coordinates":[[[-122.349266,47.584716],[-122.349265,47.584806],[-122.349155,47.584822],[-122.349131,47.584896],[-122.348865,47.584894],[-122.348867,47.584714],[-122.349266,47.584716]]]}},{"type":"Feature","properties":{"id":12,"area_m2":500,"px":5,"rank":40},"geometry":{"type":"Polygon","coordinates":[[[-122.349272,47.584267],[-122.349271,47.584356],[-122.349187,47.58436],[-122.349141,47.584394],[-122.349135,47.584536],[-122.34887,47.584534],[-122.348871,47.584444],[-122.348954,47.584441],[-122.349001,47.584407],[-122.349006,47.584265],[-122.349272,47.584267]]]}},{"type":"Feature","properties":{"id":15,"area_m2":500,"px":5,"rank":41},"geometry":{"type":"Polygon","coordinates":[[[-122.349675,47.583909],[-122.349673,47.584089],[-122.349407,47.584087],[-122.349411,47.583818],[-122.349543,47.583818],[-122.349566,47.583893],[-122.349675,47.583909]]]}},{"type":"Feature","properties":{"id":16,"area_m2":500,"px":5,"rank":42},"geometry":{"type":"Polygon","coordinates":[[[-122.346887,47.583533],[-122.346883,47.583893],[-122.34675,47.583892],[-122.346751,47.583666],[-122.346711,47.583629],[-122.34662,47.583622],[-122.346621,47.583532],[-122.346887,47.583533]]]}},{"type":"Feature","properties":{"id":21,"area_m2":500,"px":5,"rank":43},"geometry":{"type":"Polygon","coordinates":[[[-122.349301,47.581927],[-122.349299,47.582107],[-122.349166,47.582106],[-122.349143,47.582032],[-122.349034,47.582016],[-122.348999,47.581935],[-122.348902,47.581925],[-122.348903,47.581835],[-122.349169,47.581837],[-122.349191,47.581911],[-122.349301,47.581927]]]}},{"type":"Feature","properties":{"id":41,"area_m2":500,"px":5,"rank":44},"geometry":{"type":"Polygon","coordinates":[[[-122.347754,47.577959],[-122.347752,47.578139],[-122.347486,47.578138],[-122.34749,47.577868],[-122.347622,47.577869],[-122.347645,47.577943],[-122.347754,47.577959]]]}},{"type":"Feature","properties":{"id":43,"area_m2":500,"px":5,"rank":45},"geometry":{"type":"Polygon","coordinates":[[[-122.351348,47.57771],[-122.351344,47.57798],[-122.351079,47.577978],[-122.351081,47.577798],[-122.351191,47.577783],[-122.351215,47.577709],[-122.351348,47.57771]]]}},{"type":"Feature","properties":{"id":50,"area_m2":500,"px":5,"rank":46},"geometry":{"type":"Polygon","coordinates":[[[-122.348567,47.576794],[-122.348563,47.577064],[-122.348454,47.577079],[-122.348429,47.577153],[-122.348296,47.577153],[-122.348297,47.577063],[-122.348334,47.57702],[-122.348299,47.576973],[-122.3483,47.576883],[-122.348409,47.576868],[-122.348434,47.576794],[-122.348567,47.576794]]]}},{"type":"Feature","properties":{"id":56,"area_m2":500,"px":5,"rank":47},"geometry":{"type":"Polygon","coordinates":[[[-122.350169,47.576264],[-122.350165,47.576533],[-122.350033,47.576533],[-122.35001,47.576458],[-122.349901,47.576442],[-122.349903,47.576262],[-122.350169,47.576264]]]}},{"type":"Feature","properties":{"id":58,"area_m2":500,"px":5,"rank":48},"geometry":{"type":"Polygon","coordinates":[[[-122.350835,47.576177],[-122.350834,47.576267],[-122.350724,47.576282],[-122.3507,47.576356],[-122.350434,47.576355],[-122.350436,47.576175],[-122.350835,47.576177]]]}},{"type":"Feature","properties":{"id":62,"area_m2":500,"px":5,"rank":49},"geometry":{"type":"Polygon","coordinates":[[[-122.348579,47.575805],[-122.348577,47.575984],[-122.348311,47.575983],[-122.348314,47.575713],[-122.348447,47.575714],[-122.34847,47.575788],[-122.348579,47.575805]]]}},{"type":"Feature","properties":{"id":69,"area_m2":500,"px":5,"rank":50},"geometry":{"type":"Polygon","coordinates":[[[-122.352178,47.575105],[-122.352177,47.575195],[-122.352067,47.57521],[-122.352042,47.575284],[-122.35191,47.575284],[-122.351914,47.574924],[-122.352047,47.574925],[-122.352055,47.575076],[-122.352101,47.575102],[-122.352178,47.575105]]]}},{"type":"Feature","properties":{"id":1,"area_m2":400,"px":4,"rank":51},"geometry":{"type":"Polygon","coordinates":[[[-122.347762,47.588037],[-122.347759,47.588307],[-122.347626,47.588306],[-122.347603,47.588232],[-122.347494,47.588215],[-122.347495,47.588126],[-122.347605,47.58811],[-122.347629,47.588036],[-122.347762,47.588037]]]}},{"type":"Feature","properties":{"id":2,"area_m2":400,"px":4,"rank":52},"geometry":{"type":"Polygon","coordinates":[[[-122.348162,47.587949],[-122.34816,47.588129],[-122.347894,47.588128],[-122.347896,47.587948],[-122.348162,47.587949]]]}},{"type":"Feature","properties":{"id":4,"area_m2":400,"px":4,"rank":53},"geometry":{"type":"Polygon","coordinates":[[[-122.347374,47.587135],[-122.347372,47.587315],[-122.347106,47.587313],[-122.347108,47.587134],[-122.347374,47.587135]]]}},{"type":"Feature","properties":{"id":19,"area_m2":400,"px":4,"rank":54},"geometry":{"type":"Polygon","coordinates":[[[-122.349563,47.582199],[-122.349559,47.582559],[-122.349426,47.582558],[-122.349431,47.582198],[-122.349563,47.582199]]]}},{"type":"Feature","properties":{"id":22,"area_m2":400,"px":4,"rank":55},"geometry":{"type":"Polygon","coordinates":[[[-122.347978,47.58138],[-122.347975,47.58156],[-122.34771,47.581558],[-122.347712,47.581378],[-122.347978,47.58138]]]}},{"type":"Feature","properties":{"id":24,"area_m2":400,"px":4,"rank":56},"geometry":{"type":"Polygon","coordinates":[[[-122.346923,47.580654],[-122.346922,47.580744],[-122.346838,47.580748],[-122.346792,47.580782],[-122.346787,47.580923],[-122.346654,47.580922],[-122.346657,47.580653],[-122.346923,47.580654]]]}},{"type":"Feature","properties":{"id":34,"area_m2":400,"px":4,"rank":57},"geometry":{"type":"Polygon","coordinates":[[[-122.34734,47.579217],[-122.347339,47.579307],[-122.347129,47.579308],[-122.347078,47.579339],[-122.347072,47.579395],[-122.346939,47.579394],[-122.34694,47.579305],[-122.347024,47.579301],[-122.34707,47.579267],[-122.347075,47.579125],[-122.347208,47.579126],[-122.34723,47.5792],[-122.34734,47.579217]]]}},{"type":"Feature","properties":{"id":42,"area_m2":400,"px":4,"rank":58},"geometry":{"type":"Polygon","coordinates":[[[-122.35201,47.577894],[-122.352008,47.578073],[-122.351742,47.578072],[-122.351745,47.577892],[-122.35201,47.577894]]]}},{"type":"Feature","properties":{"id":47,"area_m2":400,"px":4,"rank":59},"geometry":{"type":"Polygon","coordinates":[[[-122.352416,47.577356],[-122.352415,47.577446],[-122.352205,47.577447],[-122.352155,47.577478],[-122.352148,47.577534],[-122.352015,47.577534],[-122.352017,47.577354],[-122.352416,47.577356]]]}},{"type":"Feature","properties":{"id":61,"area_m2":400,"px":4,"rank":60},"geometry":{"type":"Polygon","coordinates":[[[-122.347911,47.576071],[-122.34791,47.576161],[-122.347511,47.576158],[-122.347512,47.576069],[-122.347622,47.576053],[-122.347646,47.575979],[-122.347779,47.57598],[-122.347801,47.576054],[-122.347911,47.576071]]]}},{"type":"Feature","properties":{"id":64,"area_m2":400,"px":4,"rank":61},"geometry":{"type":"Polygon","coordinates":[[[-122.353102,47.57565],[-122.3531,47.57583],[-122.352967,47.575829],[-122.352944,47.575755],[-122.352835,47.575739],[-122.352837,47.575559],[-122.35297,47.57556],[-122.352992,47.575634],[-122.353102,47.57565]]]}},{"type":"Feature","properties":{"id":66,"area_m2":400,"px":4,"rank":62},"geometry":{"type":"Polygon","coordinates":[[[-122.348717,47.575356],[-122.348714,47.575625],[-122.348448,47.575624],[-122.348449,47.575534],[-122.348533,47.57553],[-122.348579,47.575496],[-122.348585,47.575355],[-122.348717,47.575356]]]}},{"type":"Feature","properties":{"id":71,"area_m2":400,"px":4,"rank":63},"geometry":{"type":"Polygon","coordinates":[[[-122.354178,47.574667],[-122.354176,47.574756],[-122.354067,47.574772],[-122.354042,47.574846],[-122.353777,47.574844],[-122.353778,47.574754],[-122.353887,47.574739],[-122.353912,47.574665],[-122.354178,47.574667]]]}},{"type":"Feature","properties":{"id":83,"area_m2":400,"px":4,"rank":64},"geometry":{"type":"Polygon","coordinates":[[[-122.349941,47.573203],[-122.34994,47.573293],[-122.349746,47.573292],[-122.349687,47.573315],[-122.349671,47.573471],[-122.349539,47.573471],[-122.349541,47.573291],[-122.349651,47.573275],[-122.349675,47.573202],[-122.349941,47.573203]]]}},{"type":"Feature","properties":{"id":7,"area_m2":300,"px":3,"rank":65},"geometry":{"type":"Polygon","coordinates":[[[-122.347259,47.585695],[-122.347257,47.585875],[-122.346991,47.585873],[-122.346992,47.585783],[-122.347102,47.585768],[-122.347126,47.585694],[-122.347259,47.585695]]]}},{"type":"Feature","properties":{"id":10,"area_m2":300,"px":3,"rank":66},"geometry":{"type":"Polygon","coordinates":[[[-122.347934,47.584889],[-122.347933,47.584979],[-122.347667,47.584977],[-122.347669,47.584797],[-122.347802,47.584798],[-122.347825,47.584872],[-122.347934,47.584889]]]}},{"type":"Feature","properties":{"id":13,"area_m2":300,"px":3,"rank":67},"geometry":{"type":"Polygon","coordinates":[[[-122.348474,47.584262],[-122.348471,47.584532],[-122.348338,47.584531],[-122.348341,47.584261],[-122.348474,47.584262]]]}},{"type":"Feature","properties":{"id":20,"area_m2":300,"px":3,"rank":68},"geometry":{"type":"Polygon","coordinates":[[[-122.346109,47.581909],[-122.346106,47.582179],[-122.345973,47.582178],[-122.345977,47.581908],[-122.346109,47.581909]]]}},{"type":"Feature","properties":{"id":26,"area_m2":300,"px":3,"rank":69},"geometry":{"type":"Polygon","coordinates":[[[-122.347725,47.580299],[-122.347722,47.580569],[-122.347589,47.580568],[-122.347592,47.580298],[-122.347725,47.580299]]]}},{"type":"Feature","properties":{"id":27,"area_m2":300,"px":3,"rank":70},"geometry":{"type":"Polygon","coordinates":[[[-122.349721,47.58022],[-122.34972,47.58031],[-122.34961,47.580325],[-122.349586,47.580399],[-122.349466,47.580423],[-122.349452,47.580488],[-122.349319,47.580488],[-122.34932,47.580398],[-122.34943,47.580383],[-122.349454,47.580309],[-122.349574,47.580285],[-122.349588,47.580219],[-122.349721,47.58022]]]}},{"type":"Feature","properties":{"id":30,"area_m2":300,"px":3,"rank":71},"geometry":{"type":"Polygon","coordinates":[[[-122.348263,47.579852],[-122.348262,47.579942],[-122.348152,47.579957],[-122.348127,47.580031],[-122.347995,47.58003],[-122.347997,47.57985],[-122.348263,47.579852]]]}},{"type":"Feature","properties":{"id":32,"area_m2":300,"px":3,"rank":72},"geometry":{"type":"Polygon","coordinates":[[[-122.348268,47.579402],[-122.348267,47.579492],[-122.348183,47.579496],[-122.348137,47.57953],[-122.348132,47.579671],[-122.347999,47.57967],[-122.348001,47.579491],[-122.348111,47.579475],[-122.348135,47.579401],[-122.348268,47.579402]]]}},{"type":"Feature","properties":{"id":40,"area_m2":300,"px":3,"rank":73},"geometry":{"type":"Polygon","coordinates":[[[-122.347216,47.578496],[-122.347212,47.578766],[-122.34708,47.578765],[-122.347083,47.578496],[-122.347216,47.578496]]]}},{"type":"Feature","properties":{"id":48,"area_m2":300,"px":3,"rank":74},"geometry":{"type":"Polygon","coordinates":[[[-122.349625,47.57725],[-122.349624,47.57734],[-122.349493,47.577339],[-122.349468,47.577265],[-122.349359,47.577249],[-122.349361,47.577069],[-122.349494,47.57707],[-122.349502,47.577221],[-122.349548,47.577247],[-122.349625,47.57725]]]}},{"type":"Feature","properties":{"id":53,"area_m2":300,"px":3,"rank":75},"geometry":{"type":"Polygon","coordinates":[[[-122.354021,47.576555],[-122.354019,47.576735],[-122.353753,47.576734],[-122.353755,47.576644],[-122.353864,47.576629],[-122.353889,47.576555],[-122.354021,47.576555]]]}},{"type":"Feature","properties":{"id":67,"area_m2":300,"px":3,"rank":76},"geometry":{"type":"Polygon","coordinates":[[[-122.349381,47.575449],[-122.34938,47.575539],[-122.349247,47.575538],[-122.349244,47.575487],[-122.349206,47.575455],[-122.348982,47.575447],[-122.348983,47.575357],[-122.349249,47.575359],[-122.349272,47.575433],[-122.349381,47.575449]]]}},{"type":"Feature","properties":{"id":75,"area_m2":300,"px":3,"rank":77},"geometry":{"type":"Polygon","coordinates":[[[-122.352587,47.574298],[-122.352585,47.574388],[-122.352502,47.574391],[-122.352456,47.574425],[-122.35245,47.574567],[-122.352317,47.574566],[-122.35232,47.574386],[-122.352429,47.574371],[-122.352454,47.574297],[-122.352587,47.574298]]]}},{"type":"Feature","properties":{"id":76,"area_m2":300,"px":3,"rank":78},"geometry":{"type":"Polygon","coordinates":[[[-122.351524,47.574202],[-122.351521,47.574472],[-122.351388,47.574471],[-122.351391,47.574201],[-122.351524,47.574202]]]}},{"type":"Feature","properties":{"id":77,"area_m2":300,"px":3,"rank":79},"geometry":{"type":"Polygon","coordinates":[[[-122.35073,47.573927],[-122.350728,47.574017],[-122.350619,47.574032],[-122.350594,47.574106],[-122.350462,47.574106],[-122.350464,47.573926],[-122.35073,47.573927]]]}},{"type":"Feature","properties":{"id":79,"area_m2":300,"px":3,"rank":80},"geometry":{"type":"Polygon","coordinates":[[[-122.348203,47.573913],[-122.348202,47.574003],[-122.347937,47.574001],[-122.347939,47.573821],[-122.348072,47.573822],[-122.348094,47.573896],[-122.348203,47.573913]]]}},{"type":"Feature","properties":{"id":78,"area_m2":300,"px":3,"rank":81},"geometry":{"type":"Polygon","coordinates":[[[-122.353655,47.573944],[-122.353654,47.574034],[-122.353521,47.574033],[-122.353498,47.573959],[-122.353389,47.573942],[-122.353354,47.573861],[-122.353257,47.573851],[-122.353258,47.573762],[-122.353391,47.573762],[-122.353413,47.573837],[-122.353523,47.573853],[-122.353557,47.573934],[-122.353655,47.573944]]]}},{"type":"Feature","properties":{"id":81,"area_m2":300,"px":3,"rank":82},"geometry":{"type":"Polygon","coordinates":[[[-122.349003,47.573738],[-122.349001,47.573917],[-122.348868,47.573917],[-122.348867,47.573775],[-122.348821,47.573741],[-122.348738,47.573736],[-122.348739,47.573646],[-122.348872,47.573647],[-122.348894,47.573721],[-122.349003,47.573738]]]}},{"type":"Feature","properties":{"id":82,"area_m2":300,"px":3,"rank":83},"geometry":{"type":"Polygon","coordinates":[[[-122.352595,47.573578],[-122.352594,47.573668],[-122.352485,47.573683],[-122.35246,47.573757],[-122.352327,47.573756],[-122.35233,47.573576],[-122.352595,47.573578]]]}},{"type":"Feature","properties":{"id":84,"area_m2":300,"px":3,"rank":84},"geometry":{"type":"Polygon","coordinates":[[[-122.347416,47.573099],[-122.347412,47.573368],[-122.34728,47.573368],[-122.347283,47.573098],[-122.347416,47.573099]]]}},{"type":"Feature","properties":{"id":85,"area_m2":300,"px":3,"rank":85},"geometry":{"type":"Polygon","coordinates":[[[-122.34928,47.572839],[-122.349277,47.573109],[-122.349144,47.573108],[-122.349148,47.572839],[-122.34928,47.572839]]]}}]}