{"type":"FeatureCollection","features":[{"type":"Feature","properties":{"id":21,"area_m2":3200,"px":32,"rank":1},"geometry":{"type":"Polygon","coordinates":[[[-122.34942,47.583008],[-122.349419,47.583098],[-122.349218,47.583098],[-122.349154,47.58314],[-122.349154,47.583328],[-122.349199,47.583362],[-122.349283,47.583367],[-122.349282,47.583455],[-122.349185,47.583459],[-122.349133,47.583491],[-122.349146,47.583726],[-122.349013,47.583725],[-122.349008,47.583655],[-122.348959,47.583624],[-122.348748,47.583634],[-122.348749,47.583544],[-122.34884,47.583538],[-122.348882,47.583496],[-122.348898,47.582285],[-122.34903,47.582286],[-122.349038,47.582437],[-122.349085,47.582464],[-122.349161,47.582466],[-122.349177,47.582627],[-122.349292,47.582647],[-122.349291,47.582737],[-122.349207,47.582741],[-122.349161,47.582775],[-122.349164,47.582978],[-122.349219,47.583006],[-122.34942,47.583008]]]}},{"type":"Feature","properties":{"id":23,"area_m2":2600,"px":26,"rank":2},"geometry":{"type":"Polygon","coordinates":[[[-122.348231,47.582371],[-122.34823,47.582461],[-122.348147,47.582465],[-122.3481,47.582499],[-122.348074,47.582674],[-122.348115,47.582724],[-122.348227,47.582731],[-122.348226,47.582821],[-122.34815,47.582823],[-122.348102,47.582849],[-122.348091,47.583],[-122.347993,47.583009],[-122.347957,47.583089],[-122.34788,47.583091],[-122.347833,47.583117],[-122.347819,47.583448],[-122.347686,47.583448],[-122.347691,47.583088],[-122.34781,47.583065],[-122.347824,47.582952],[-122.347784,47.582915],[-122.347693,47.582908],[-122.34769,47.582856],[-122.347652,47.582824],[-122.347428,47.582816],[-122.347431,47.582547],[-122.347541,47.582531],[-122.347566,47.582457],[-122.347698,47.582458],[-122.347769,47.582483],[-122.347832,47.582459],[-122.348033,47.582459],[-122.348088,47.582432],[-122.348099,47.58237],[-122.348231,47.582371]]]}},{"type":"Feature","properties":{"id":27,"area_m2":2600,"px":26,"rank":3},"geometry":{"type":"Polygon","coordinates":[[[-122.3481,47.582012],[-122.348067,47.582058],[-122.348102,47.5821],[-122.3481,47.58228],[-122.347876,47.582285],[-122.347837,47.582317],[-122.347832,47.582369],[-122.3477,47.582368],[-122.347637,47.582344],[-122.347567,47.582367],[-122.347434,47.582367],[-122.347436,47.582187],[-122.347546,47.582171],[-122.34757,47.582097],[-122.347779,47.582096],[-122.347836,47.58205],[-122.347829,47.581857],[-122.347783,47.581831],[-122.347706,47.581828],[-122.347672,47.581747],[-122.347575,47.581737],[-122.347577,47.581558],[-122.347975,47.58156],[-122.347998,47.581634],[-122.348107,47.581651],[-122.3481,47.582012]]]}},{"type":"Feature","properties":{"id":45,"area_m2":2400,"px":24,"rank":4},"geometry":{"type":"Polygon","coordinates":[[[-122.346693,47.577773],[-122.346692,47.577863],[-122.346477,47.577862],[-122.346418,47.577887],[-122.346423,47.578042],[-122.346291,47.578041],[-122.346268,47.577967],[-122.346159,47.57795],[-122.346151,47.577799],[-122.346104,47.577772],[-122.346028,47.57777],[-122.34603,47.57759],[-122.346128,47.577581],[-122.346164,47.577536],[-122.346152,47.577434],[-122.346033,47.57741],[-122.346035,47.57723],[-122.346239,47.577243],[-122.346295,47.577211],[-122.346302,47.577141],[-122.346568,47.577143],[-122.346565,47.577323],[-122.346529,47.577365],[-122.346564,47.577413],[-122.346563,47.577503],[-122.346479,47.577506],[-122.346436,47.577535],[-122.346428,47.577723],[-122.346484,47.57777],[-122.346693,47.577773]]]}},{"type":"Feature","properties":{"id":48,"area_m2":2200,"px":22,"rank":5},"geometry":{"type":"Polygon","coordinates":[[[-122.348035,47.576523],[-122.348002,47.576569],[-122.348037,47.576611],[-122.348034,47.576881],[-122.347936,47.576883],[-122.347888,47.57691],[-122.347898,47.57706],[-122.347766,47.57706],[-122.347743,47.576985],[-122.347634,47.576969],[-122.347599,47.576888],[-122.347502,47.576878],[-122.347504,47.576698],[-122.347595,47.576692],[-122.347637,47.57665],[-122.347639,47.576519],[-122.347675,47.576477],[-122.34764,47.576429],[-122.347643,47.576249],[-122.348041,47.576252],[-122.348035,47.576523]]]}},{"type":"Feature","properties":{"id":64,"area_m2":2000,"px":20,"rank":6},"geometry":{"type":"Polygon","coordinates":[[[-122.347694,47.572111],[-122.347688,47.57256],[-122.347598,47.572566],[-122.347555,47.572608],[-122.347549,47.573099],[-122.347458,47.573105],[-122.347416,47.573147],[-122.347427,47.573255],[-122.347546,47.573279],[-122.347545,47.573369],[-122.347509,47.573411],[-122.347544,47.573459],[-122.347542,47.573639],[-122.347409,47.573638],[-122.347398,47.573482],[-122.347339,47.573458],[-122.347146,47.573457],[-122.347147,47.573367],[-122.34723,47.573363],[-122.347274,47.573334],[-122.347284,47.573008],[-122.347375,47.573002],[-122.347416,47.572965],[-122.347423,47.572559],[-122.347513,47.572553],[-122.347556,47.572511],[-122.347561,47.57211],[-122.347694,47.572111]]]}},{"type":"Feature","properties":{"id":35,"area_m2":1800,"px":18,"rank":7},"geometry":{"type":"Polygon","coordinates":[[[-122.347866,47.57967],[-122.347864,47.57985],[-122.347773,47.579855],[-122.347731,47.579898],[-122.347725,47.580299],[-122.347592,47.580298],[-122.347592,47.580066],[-122.347546,47.580032],[-122.347463,47.580027],[-122.347464,47.579937],[-122.3475,47.579895],[-122.347465,47.579846],[-122.347471,47.579398],[-122.347736,47.579399],[-122.347737,47.579631],[-122.347782,47.579665],[-122.347866,47.57967]]]}},{"type":"Feature","properties":{"id":32,"area_m2":1500,"px":15,"rank":8},"geometry":{"type":"Polygon","coordinates":[[[-122.347986,47.58075],[-122.347984,47.58084],[-122.347887,47.580849],[-122.347851,47.580893],[-122.347863,47.580995],[-122.347982,47.58102],[-122.34798,47.5812],[-122.347581,47.581198],[-122.347559,47.581123],[-122.347449,47.581106],[-122.34745,47.581017],[-122.347554,47.581005],[-122.347585,47.580928],[-122.347675,47.580922],[-122.347716,47.580885],[-122.347713,47.580782],[-122.34767,47.580752],[-122.347587,47.580748],[-122.347588,47.580658],[-122.347698,47.580643],[-122.347722,47.580569],[-122.347855,47.580569],[-122.347862,47.580721],[-122.347909,47.580747],[-122.347986,47.58075]]]}},{"type":"Feature","properties":{"id":54,"area_m2":1500,"px":15,"rank":9},"geometry":{"type":"Polygon","coordinates":[[[-122.351771,47.575733],[-122.351769,47.575913],[-122.351649,47.575936],[-122.351634,47.576092],[-122.351524,47.576107],[-122.3515,47.576181],[-122.351367,47.57618],[-122.351389,47.576051],[-122.351348,47.576007],[-122.351174,47.575975],[-122.351103,47.575999],[-122.35097,47.575998],[-122.350972,47.575818],[-122.351315,47.575818],[-122.351365,47.575787],[-122.351372,47.575731],[-122.351771,47.575733]]]}},{"type":"Feature","properties":{"id":60,"area_m2":1300,"px":13,"rank":10},"geometry":{"type":"Polygon","coordinates":[[[-122.348731,47.574276],[-122.348726,47.574636],[-122.348195,47.574633],[-122.348198,47.574363],[-122.348533,47.574364],[-122.348588,47.574336],[-122.348598,47.574275],[-122.348731,47.574276]]]}},{"type":"Feature","properties":{"id":36,"area_m2":1200,"px":12,"rank":11},"geometry":{"type":"Polygon","coordinates":[[[-122.349862,47.579591],[-122.349861,47.579681],[-122.349757,47.579693],[-122.349726,47.57977],[-122.349636,47.579776],[-122.349595,47.579813],[-122.349594,47.580001],[-122.34964,47.580036],[-122.349723,47.58004],[-122.349722,47.58013],[-122.349589,47.580129],[-122.349527,47.580105],[-122.349456,47.580129],[-122.34919,47.580127],[-122.349194,47.579857],[-122.349419,47.579865],[-122.349458,47.579829],[-122.349462,47.579679],[-122.349671,47.579678],[-122.349722,47.579647],[-122.349729,47.57959],[-122.349862,47.579591]]]}},{"type":"Feature","properties":{"id":9,"area_m2":1100,"px":11,"rank":12},"geometry":{"type":"Polygon","coordinates":[[[-122.34912,47.585795],[-122.349112,47.586425],[-122.348979,47.586424],[-122.348972,47.586273],[-122.348925,47.586246],[-122.348848,47.586244],[-122.348851,47.586064],[-122.348948,47.586055],[-122.348984,47.586011],[-122.348972,47.585908],[-122.348853,47.585884],[-122.348855,47.585704],[-122.348988,47.585705],[-122.349011,47.585779],[-122.34912,47.585795]]]}},{"type":"Feature","properties":{"id":49,"area_m2":1100,"px":11,"rank":13},"geometry":{"type":"Polygon","coordinates":[[[-122.350301,47.576354],[-122.350298,47.576534],[-122.349949,47.576536],[-122.349901,47.576575],[-122.349897,47.576712],[-122.349632,47.57671],[-122.349634,47.57653],[-122.349876,47.576516],[-122.349902,47.576352],[-122.350012,47.576337],[-122.350036,47.576263],[-122.350169,47.576264],[-122.350191,47.576338],[-122.350301,47.576354]]]}},{"type":"Feature","properties":{"id":62,"area_m2":1000,"px":10,"rank":14},"geometry":{"type":"Polygon","coordinates":[[[-122.351123,47.574379],[-122.351121,47.574559],[-122.350589,47.574556],[-122.35059,47.574466],[-122.350626,47.574424],[-122.350591,47.574376],[-122.350592,47.574286],[-122.350991,47.574289],[-122.351014,47.574363],[-122.351123,47.574379]]]}},{"type":"Feature","properties":{"id":63,"area_m2":1000,"px":10,"rank":15},"geometry":{"type":"Polygon","coordinates":[[[-122.348337,47.573824],[-122.348336,47.573914],[-122.348148,47.573899],[-122.348083,47.573923],[-122.348068,47.574092],[-122.347802,47.574091],[-122.347805,47.573911],[-122.347895,47.573905],[-122.347937,47.573868],[-122.347941,47.573642],[-122.348051,47.573626],[-122.348075,47.573552],[-122.348208,47.573553],[-122.348207,47.573643],[-122.348171,47.57369],[-122.348209,47.573785],[-122.348254,47.573819],[-122.348337,47.573824]]]}},{"type":"Feature","properties":{"id":10,"area_m2":900,"px":9,"rank":16},"geometry":{"type":"Polygon","coordinates":[[[-122.348588,47.585792],[-122.348586,47.585972],[-122.348509,47.585974],[-122.348462,47.586],[-122.34845,47.586151],[-122.348318,47.586151],[-122.348325,47.585521],[-122.348458,47.585522],[-122.348459,47.585753],[-122.348504,47.585788],[-122.348588,47.585792]]]}},{"type":"Feature","properties":{"id":19,"area_m2":900,"px":9,"rank":17},"geometry":{"type":"Polygon","coordinates":[[[-122.349274,47.584087],[-122.349273,47.584177],[-122.349182,47.584182],[-122.349141,47.584219],[-122.349135,47.584536],[-122.349003,47.584535],[-122.34898,47.584461],[-122.348871,47.584444],[-122.348872,47.584354],[-122.348908,47.584312],[-122.348873,47.584264],[-122.348875,47.584084],[-122.349274,47.584087]]]}},{"type":"Feature","properties":{"id":29,"area_m2":900,"px":9,"rank":18},"geometry":{"type":"Polygon","coordinates":[[[-122.349301,47.581927],[-122.3493,47.582017],[-122.349216,47.582021],[-122.34917,47.582055],[-122.349164,47.582196],[-122.349032,47.582196],[-122.349009,47.582121],[-122.3489,47.582105],[-122.348903,47.581835],[-122.349013,47.58182],[-122.349037,47.581746],[-122.34917,47.581747],[-122.349178,47.581898],[-122.349225,47.581925],[-122.349301,47.581927]]]}},{"type":"Feature","properties":{"id":16,"area_m2":800,"px":8,"rank":19},"geometry":{"type":"Polygon","coordinates":[[[-122.349133,47.584716],[-122.34913,47.584986],[-122.34902,47.585001],[-122.348996,47.585075],[-122.348863,47.585074],[-122.348883,47.584844],[-122.348838,47.584808],[-122.348733,47.584803],[-122.348734,47.584713],[-122.348844,47.584698],[-122.34887,47.584624],[-122.349001,47.584625],[-122.349024,47.584699],[-122.349133,47.584716]]]}},{"type":"Feature","properties":{"id":46,"area_m2":800,"px":8,"rank":20},"geometry":{"type":"Polygon","coordinates":[[[-122.347098,47.577236],[-122.347096,47.577416],[-122.347005,47.577422],[-122.346963,47.577464],[-122.346958,47.577865],[-122.346825,47.577864],[-122.346831,47.577324],[-122.346941,47.577309],[-122.346966,47.577235],[-122.347098,47.577236]]]}},{"type":"Feature","properties":{"id":53,"area_m2":800,"px":8,"rank":21},"geometry":{"type":"Polygon","coordinates":[[[-122.346979,47.576155],[-122.346978,47.576245],[-122.346579,47.576243],[-122.346571,47.576092],[-122.346524,47.576065],[-122.346448,47.576062],[-122.346451,47.575883],[-122.346583,47.575883],[-122.346606,47.575958],[-122.346715,47.575974],[-122.346728,47.57604],[-122.346847,47.576065],[-122.346875,47.576143],[-122.346979,47.576155]]]}},{"type":"Feature","properties":{"id":22,"area_m2":700,"px":7,"rank":22},"geometry":{"type":"Polygon","coordinates":[[[-122.348618,47.583363],[-122.348616,47.583543],[-122.348506,47.583558],[-122.348482,47.583632],[-122.348349,47.583631],[-122.348326,47.583557],[-122.348217,47.583541],[-122.348218,47.583451],[-122.348302,47.583447],[-122.348348,47.583413],[-122.348353,47.583272],[-122.348486,47.583272],[-122.348509,47.583347],[-122.348618,47.583363]]]}},{"type":"Feature","properties":{"id":41,"area_m2":700,"px":7,"rank":23},"geometry":{"type":"Polygon","coordinates":[[[-122.353597,47.578622],[-122.353594,47.578892],[-122.353484,47.578907],[-122.35346,47.578981],[-122.353194,47.57898],[-122.353195,47.57889],[-122.353279,47.578886],[-122.353325,47.578852],[-122.35333,47.578711],[-122.35344,47.578696],[-122.353464,47.578622],[-122.353597,47.578622]]]}},{"type":"Feature","properties":{"id":57,"area_m2":700,"px":7,"rank":24},"geometry":{"type":"Polygon","coordinates":[[[-122.350588,47.574646],[-122.350587,47.574736],[-122.350477,47.574751],[-122.350453,47.574825],[-122.350333,47.574849],[-122.350318,47.574915],[-122.350109,47.574916],[-122.350058,47.574947],[-122.350051,47.575003],[-122.349919,47.575002],[-122.34992,47.574912],[-122.350003,47.574909],[-122.35005,47.574875],[-122.350055,47.574733],[-122.35039,47.574734],[-122.350445,47.574707],[-122.350455,47.574646],[-122.350588,47.574646]]]}},{"type":"Feature","properties":{"id":61,"area_m2":700,"px":7,"rank":25},"geometry":{"type":"Polygon","coordinates":[[[-122.352721,47.574208],[-122.352718,47.574388],[-122.352609,47.574404],[-122.352584,47.574478],[-122.352465,47.574501],[-122.35245,47.574567],[-122.352317,47.574566],[-122.352321,47.574296],[-122.35253,47.574295],[-122.352581,47.574264],[-122.352588,47.574208],[-122.352721,47.574208]]]}},{"type":"Feature","properties":{"id":15,"area_m2":600,"px":6,"rank":26},"geometry":{"type":"Polygon","coordinates":[[[-122.348596,47.585163],[-122.348592,47.585432],[-122.348327,47.585431],[-122.34833,47.585161],[-122.348596,47.585163]]]}},{"type":"Feature","properties":{"id":34,"area_m2":600,"px":6,"rank":27},"geometry":{"type":"Polygon","coordinates":[[[-122.348517,47.580753],[-122.348516,47.580843],[-122.348385,47.580842],[-122.348381,47.580791],[-122.348342,47.580758],[-122.348119,47.580751],[-122.348096,47.580677],[-122.347987,47.58066],[-122.347988,47.58057],[-122.348098,47.580555],[-122.348122,47.580481],[-122.348255,47.580482],[-122.348266,47.580638],[-122.348386,47.580662],[-122.34842,47.580743],[-122.348517,47.580753]]]}},{"type":"Feature","properties":{"id":55,"area_m2":600,"px":6,"rank":28},"geometry":{"type":"Polygon","coordinates":[[[-122.353102,47.57565],[-122.353097,47.57601],[-122.352965,47.576009],[-122.352966,47.575783],[-122.352926,47.575746],[-122.352835,47.575739],[-122.352837,47.575559],[-122.35297,47.57556],[-122.352992,47.575634],[-122.353102,47.57565]]]}},{"type":"Feature","properties":{"id":12,"area_m2":500,"px":5,"rank":29},"geometry":{"type":"Polygon","coordinates":[[[-122.34726,47.585605],[-122.347256,47.585965],[-122.347123,47.585964],[-122.3471,47.58589],[-122.346991,47.585873],[-122.346992,47.585783],[-122.347069,47.585781],[-122.347116,47.585755],[-122.347127,47.585604],[-122.34726,47.585605]]]}},{"type":"Feature","properties":{"id":14,"area_m2":500,"px":5,"rank":30},"geometry":{"type":"Polygon","coordinates":[[[-122.349125,47.585346],[-122.349122,47.585615],[-122.348989,47.585615],[-122.348967,47.58554],[-122.348857,47.585524],[-122.34886,47.585344],[-122.349125,47.585346]]]}},{"type":"Feature","properties":{"id":17,"area_m2":500,"px":5,"rank":31},"geometry":{"type":"Polygon","coordinates":[[[-122.348203,47.58462],[-122.348201,47.5848],[-122.348125,47.584802],[-122.348077,47.584828],[-122.348066,47.584979],[-122.3478,47.584978],[-122.347801,47.584888],[-122.347899,47.58488],[-122.347935,47.584799],[-122.348012,47.584797],[-122.348059,47.584771],[-122.348071,47.58462],[-122.348203,47.58462]]]}},{"type":"Feature","properties":{"id":24,"area_m2":500,"px":5,"rank":32},"geometry":{"type":"Polygon","coordinates":[[[-122.348627,47.582643],[-122.348626,47.582733],[-122.348535,47.582739],[-122.348494,47.582776],[-122.34849,47.583002],[-122.348357,47.583002],[-122.348361,47.582642],[-122.348627,47.582643]]]}},{"type":"Feature","properties":{"id":28,"area_m2":500,"px":5,"rank":33},"geometry":{"type":"Polygon","coordinates":[[[-122.348767,47.582104],[-122.348766,47.582194],[-122.348656,47.582209],[-122.348631,47.582283],[-122.348499,47.582283],[-122.348476,47.582208],[-122.348367,47.582192],[-122.348368,47.582102],[-122.348478,47.582087],[-122.348502,47.582013],[-122.348635,47.582014],[-122.348657,47.582088],[-122.348767,47.582104]]]}},{"type":"Feature","properties":{"id":37,"area_m2":500,"px":5,"rank":34},"geometry":{"type":"Polygon","coordinates":[[[-122.348663,47.579764],[-122.348659,47.580034],[-122.34855,47.580049],[-122.348525,47.580123],[-122.348392,47.580122],[-122.348394,47.580033],[-122.34843,47.57999],[-122.348395,47.579943],[-122.348396,47.579853],[-122.348506,47.579837],[-122.34853,47.579763],[-122.348663,47.579764]]]}},{"type":"Feature","properties":{"id":44,"area_m2":500,"px":5,"rank":35},"geometry":{"type":"Polygon","coordinates":[[[-122.347884,47.57823],[-122.347882,47.57841],[-122.347616,47.578408],[-122.347593,47.578334],[-122.347484,47.578318],[-122.347485,47.578228],[-122.347884,47.57823]]]}},{"type":"Feature","properties":{"id":47,"area_m2":500,"px":5,"rank":36},"geometry":{"type":"Polygon","coordinates":[[[-122.346969,47.576965],[-122.346967,47.577145],[-122.346701,47.577144],[-122.346678,47.577069],[-122.346569,47.577053],[-122.34657,47.576963],[-122.346969,47.576965]]]}},{"type":"Feature","properties":{"id":51,"area_m2":500,"px":5,"rank":37},"geometry":{"type":"Polygon","coordinates":[[[-122.34924,47.576078],[-122.349239,47.576168],[-122.349129,47.576183],[-122.349105,47.576257],[-122.348839,47.576256],[-122.348842,47.576076],[-122.34924,47.576078]]]}},{"type":"Feature","properties":{"id":3,"area_m2":400,"px":4,"rank":38},"geometry":{"type":"Polygon","coordinates":[[[-122.347233,47.587764],[-122.347231,47.587944],[-122.346965,47.587943],[-122.346968,47.587763],[-122.347233,47.587764]]]}},{"type":"Feature","properties":{"id":2,"area_m2":400,"px":4,"rank":39},"geometry":{"type":"Polygon","coordinates":[[[-122.347767,47.587677],[-122.347763,47.587947],[-122.34763,47.587946],[-122.347608,47.587872],[-122.347498,47.587856],[-122.3475,47.587766],[-122.347609,47.58775],[-122.347634,47.587677],[-122.347767,47.587677]]]}},{"type":"Feature","properties":{"id":5,"area_m2":400,"px":4,"rank":40},"geometry":{"type":"Polygon","coordinates":[[[-122.347771,47.587317],[-122.347769,47.587497],[-122.347503,47.587496],[-122.347505,47.587316],[-122.347771,47.587317]]]}},{"type":"Feature","properties":{"id":8,"area_m2":400,"px":4,"rank":41},"geometry":{"type":"Polygon","coordinates":[[[-122.349244,47.586516],[-122.349243,47.586606],[-122.349133,47.586621],[-122.349109,47.586695],[-122.348976,47.586694],[-122.348953,47.58662],[-122.348844,47.586604],[-122.348845,47.586514],[-122.349244,47.586516]]]}},{"type":"Feature","properties":{"id":18,"area_m2":400,"px":4,"rank":42},"geometry":{"type":"Polygon","coordinates":[[[-122.34727,47.584795],[-122.347269,47.584885],[-122.347003,47.584883],[-122.347007,47.584614],[-122.34714,47.584614],[-122.347147,47.584766],[-122.347194,47.584792],[-122.34727,47.584795]]]}},{"type":"Feature","properties":{"id":20,"area_m2":400,"px":4,"rank":43},"geometry":{"type":"Polygon","coordinates":[[[-122.34795,47.583629],[-122.347948,47.583809],[-122.347815,47.583808],[-122.347803,47.583652],[-122.347745,47.583628],[-122.347551,47.583627],[-122.347552,47.583537],[-122.347818,47.583539],[-122.34784,47.583613],[-122.34795,47.583629]]]}},{"type":"Feature","properties":{"id":25,"area_m2":400,"px":4,"rank":44},"geometry":{"type":"Polygon","coordinates":[[[-122.346237,47.58236],[-122.346236,47.58245],[-122.346152,47.582453],[-122.346106,47.582487],[-122.3461,47.582629],[-122.345968,47.582628],[-122.345971,47.582358],[-122.346237,47.58236]]]}},{"type":"Feature","properties":{"id":30,"area_m2":400,"px":4,"rank":45},"geometry":{"type":"Polygon","coordinates":[[[-122.348771,47.581744],[-122.348769,47.581924],[-122.34837,47.581922],[-122.348371,47.581832],[-122.348581,47.581831],[-122.348631,47.5818],[-122.348638,47.581744],[-122.348771,47.581744]]]}},{"type":"Feature","properties":{"id":33,"area_m2":400,"px":4,"rank":46},"geometry":{"type":"Polygon","coordinates":[[[-122.34958,47.580849],[-122.349579,47.580939],[-122.349313,47.580938],[-122.349311,47.580796],[-122.349266,47.580761],[-122.349183,47.580757],[-122.349184,47.580667],[-122.349316,47.580668],[-122.349339,47.580742],[-122.349448,47.580758],[-122.349483,47.580839],[-122.34958,47.580849]]]}},{"type":"Feature","properties":{"id":39,"area_m2":400,"px":4,"rank":47},"geometry":{"type":"Polygon","coordinates":[[[-122.349064,47.579587],[-122.349062,47.579766],[-122.348796,47.579765],[-122.348798,47.579585],[-122.349064,47.579587]]]}},{"type":"Feature","properties":{"id":42,"area_m2":400,"px":4,"rank":48},"geometry":{"type":"Polygon","coordinates":[[[-122.34921,47.578508],[-122.349209,47.578597],[-122.349099,47.578613],[-122.349041,47.578718],[-122.349073,47.578867],[-122.34894,47.578866],[-122.348917,47.578792],[-122.348808,47.578775],[-122.348809,47.578685],[-122.348919,47.57867],[-122.348943,47.578596],[-122.349063,47.578573],[-122.349077,47.578507],[-122.34921,47.578508]]]}},{"type":"Feature","properties":{"id":43,"area_m2":400,"px":4,"rank":49},"geometry":{"type":"Polygon","coordinates":[[[-122.348285,47.578052],[-122.348284,47.578142],[-122.348193,47.578148],[-122.348152,47.578185],[-122.348148,47.578411],[-122.348015,47.578411],[-122.348018,47.578141],[-122.348128,47.578126],[-122.348152,47.578052],[-122.348285,47.578052]]]}},{"type":"Feature","properties":{"id":52,"area_m2":400,"px":4,"rank":50},"geometry":{"type":"Polygon","coordinates":[[[-122.348575,47.576075],[-122.348573,47.576254],[-122.348308,47.576253],[-122.34831,47.576073],[-122.348575,47.576075]]]}},{"type":"Feature","properties":{"id":65,"area_m2":400,"px":4,"rank":51},"geometry":{"type":"Polygon","coordinates":[[[-122.346483,47.573273],[-122.346479,47.573543],[-122.34637,47.573558],[-122.346345,47.573632],[-122.346213,47.573632],[-122.346214,47.573542],[-122.346304,47.573536],[-122.346346,47.573499],[-122.34635,47.573273],[-122.346483,47.573273]]]}},{"type":"Feature","properties":{"id":66,"area_m2":400,"px":4,"rank":52},"geometry":{"type":"Polygon","coordinates":[[[-122.348078,47.573282],[-122.348077,47.573372],[-122.347967,47.573388],[-122.347943,47.573461],[-122.347677,47.57346],[-122.347678,47.57337],[-122.347788,47.573355],[-122.347813,47.573281],[-122.348078,47.573282]]]}},{"type":"Feature","properties":{"id":1,"area_m2":300,"px":3,"rank":53},"geometry":{"type":"Polygon","coordinates":[[[-122.348161,47.588039],[-122.34816,47.588129],[-122.347761,47.588127],[-122.347762,47.588037],[-122.348161,47.588039]]]}},{"type":"Feature","properties":{"id":4,"area_m2":300,"px":3,"rank":54},"geometry":{"type":"Polygon","coordinates":[[[-122.35003,47.58751],[-122.350027,47.58769],[-122.349895,47.587689],[-122.349872,47.587615],[-122.349763,47.587599],[-122.349764,47.587509],[-122.35003,47.58751]]]}},{"type":"Feature","properties":{"id":6,"area_m2":300,"px":3,"rank":55},"geometry":{"type":"Polygon","coordinates":[[[-122.347241,47.587134],[-122.347238,47.587404],[-122.347105,47.587403],[-122.347108,47.587134],[-122.347241,47.587134]]]}},{"type":"Feature","properties":{"id":7,"area_m2":300,"px":3,"rank":56},"geometry":{"type":"Polygon","coordinates":[[[-122.346845,47.586952],[-122.346841,47.587222],[-122.346708,47.587221],[-122.346712,47.586951],[-122.346845,47.586952]]]}},{"type":"Feature","properties":{"id":11,"area_m2":300,"px":3,"rank":57},"geometry":{"type":"Polygon","coordinates":[[[-122.348055,47.585879],[-122.348054,47.585969],[-122.34797,47.585973],[-122.347924,47.586007],[-122.347919,47.586148],[-122.347786,47.586148],[-122.347788,47.585968],[-122.347898,47.585953],[-122.347922,47.585879],[-122.348055,47.585879]]]}},{"type":"Feature","properties":{"id":13,"area_m2":300,"px":3,"rank":58},"geometry":{"type":"Polygon","coordinates":[[[-122.348058,47.585609],[-122.348057,47.585699],[-122.347947,47.585715],[-122.347923,47.585788],[-122.34779,47.585788],[-122.347792,47.585608],[-122.348058,47.585609]]]}},{"type":"Feature","properties":{"id":26,"area_m2":300,"px":3,"rank":59},"geometry":{"type":"Polygon","coordinates":[[[-122.349563,47.582199],[-122.34956,47.582469],[-122.349427,47.582468],[-122.349431,47.582198],[-122.349563,47.582199]]]}},{"type":"Feature","properties":{"id":31,"area_m2":300,"px":3,"rank":60},"geometry":{"type":"Polygon","coordinates":[[[-122.348644,47.581294],[-122.348641,47.581474],[-122.348376,47.581472],[-122.348377,47.581382],[-122.348487,47.581367],[-122.348511,47.581293],[-122.348644,47.581294]]]}},{"type":"Feature","properties":{"id":38,"area_m2":300,"px":3,"rank":61},"geometry":{"type":"Polygon","coordinates":[[[-122.350923,47.579777],[-122.350921,47.579957],[-122.350655,47.579955],[-122.350656,47.579866],[-122.350766,47.57985],[-122.35079,47.579776],[-122.350923,47.579777]]]}},{"type":"Feature","properties":{"id":40,"area_m2":300,"px":3,"rank":62},"geometry":{"type":"Polygon","coordinates":[[[-122.354527,47.578718],[-122.354523,47.578987],[-122.354391,47.578987],[-122.354394,47.578717],[-122.354527,47.578718]]]}},{"type":"Feature","properties":{"id":50,"area_m2":300,"px":3,"rank":63},"geometry":{"type":"Polygon","coordinates":[[[-122.34857,47.576524],[-122.348568,47.576704],[-122.348435,47.576704],[-122.348412,47.576629],[-122.348303,47.576613],[-122.348304,47.576523],[-122.34857,47.576524]]]}},{"type":"Feature","properties":{"id":56,"area_m2":300,"px":3,"rank":64},"geometry":{"type":"Polygon","coordinates":[[[-122.35284,47.575289],[-122.352839,47.575379],[-122.352708,47.575378],[-122.352684,47.575304],[-122.352575,47.575287],[-122.352577,47.575107],[-122.35271,47.575108],[-122.352717,47.57526],[-122.352764,47.575286],[-122.35284,47.575289]]]}},{"type":"Feature","properties":{"id":58,"area_m2":300,"px":3,"rank":65},"geometry":{"type":"Polygon","coordinates":[[[-122.346333,47.574622],[-122.346332,47.574712],[-122.346222,47.574727],[-122.346198,47.574801],[-122.346065,47.5748],[-122.346067,47.574621],[-122.346333,47.574622]]]}},{"type":"Feature","properties":{"id":59,"area_m2":300,"px":3,"rank":66},"geometry":{"type":"Polygon","coordinates":[[[-122.35192,47.574474],[-122.351916,47.574744],[-122.351783,47.574743],[-122.351787,47.574473],[-122.35192,47.574474]]]}}]}