{"type":"FeatureCollection","features":[{"type":"Feature","properties":{"id":32,"area_m2":5500,"px":55,"rank":1},"geometry":{"type":"Polygon","coordinates":[[[-122.348163,47.576973],[-122.348129,47.577019],[-122.348164,47.577062],[-122.348161,47.577332],[-122.348085,47.577334],[-122.348037,47.57736],[-122.348026,47.577511],[-122.347916,47.577526],[-122.347892,47.5776],[-122.347626,47.577599],[-122.347627,47.577509],[-122.347711,47.577505],[-122.347754,47.577476],[-122.34776,47.577373],[-122.34772,47.577336],[-122.347629,47.577329],[-122.34763,47.577239],[-122.347667,47.577191],[-122.347623,47.577087],[-122.347576,47.577061],[-122.3475,47.577058],[-122.347523,47.576558],[-122.347478,47.576522],[-122.347373,47.576516],[-122.347375,47.576428],[-122.347458,47.576424],[-122.347504,47.57639],[-122.34751,47.576248],[-122.347614,47.576245],[-122.347661,47.57621],[-122.347647,47.575889],[-122.34778,47.57589],[-122.347789,47.575952],[-122.347843,47.575979],[-122.348178,47.575982],[-122.348177,47.576072],[-122.348093,47.576076],[-122.348047,47.57611],[-122.348041,47.576251],[-122.347926,47.576271],[-122.347871,47.576383],[-122.347924,47.576501],[-122.348038,47.576521],[-122.348037,47.576748],[-122.348077,47.576785],[-122.348168,47.576792],[-122.348163,47.576973]],[[-122.347897,47.57724],[-122.347916,47.577196],[-122.347883,47.57716],[-122.347808,47.577151],[-122.347756,47.577175],[-122.347745,47.577216],[-122.347782,47.577253],[-122.347841,47.577264],[-122.347897,47.57724]]]}},{"type":"Feature","properties":{"id":31,"area_m2":2400,"px":24,"rank":2},"geometry":{"type":"Polygon","coordinates":[[[-122.346698,47.577324],[-122.346697,47.577413],[-122.346494,47.5774],[-122.346431,47.577452],[-122.346443,47.577568],[-122.346562,47.577594],[-122.346561,47.577683],[-122.346477,47.577686],[-122.346434,47.577715],[-122.346432,47.577829],[-122.34649,47.577861],[-122.346692,47.577863],[-122.346691,47.577953],[-122.346425,47.577952],[-122.346402,47.577878],[-122.346246,47.577838],[-122.34616,47.57786],[-122.346027,47.57786],[-122.346029,47.57768],[-122.346127,47.577671],[-122.346163,47.577626],[-122.346151,47.577524],[-122.346031,47.5775],[-122.346034,47.57732],[-122.34611,47.577318],[-122.346158,47.577292],[-122.346169,47.577141],[-122.34638,47.577153],[-122.346429,47.577122],[-122.346436,47.577052],[-122.346569,47.577053],[-122.346569,47.577285],[-122.346615,47.577319],[-122.346698,47.577324]]]}},{"type":"Feature","properties":{"id":44,"area_m2":2200,"px":22,"rank":3},"geometry":{"type":"Polygon","coordinates":[[[-122.350844,47.575458],[-122.350843,47.575547],[-122.350739,47.575559],[-122.350708,47.575637],[-122.350611,47.575645],[-122.350574,47.575726],[-122.350498,47.575728],[-122.350451,47.575754],[-122.350438,47.575995],[-122.350328,47.57601],[-122.350304,47.576084],[-122.350171,47.576084],[-122.350166,47.576027],[-122.350116,47.575996],[-122.349838,47.575993],[-122.349774,47.576035],[-122.349771,47.576171],[-122.349505,47.57617],[-122.349508,47.57599],[-122.349617,47.575975],[-122.349642,47.575901],[-122.349878,47.57589],[-122.349909,47.575812],[-122.350028,47.575789],[-122.350043,47.575723],[-122.350301,47.575712],[-122.350329,47.575674],[-122.350311,47.575545],[-122.350529,47.575568],[-122.350686,47.575531],[-122.350711,47.575457],[-122.350844,47.575458]]]}},{"type":"Feature","properties":{"id":45,"area_m2":1900,"px":19,"rank":4},"geometry":{"type":"Polygon","coordinates":[[[-122.34818,47.575534],[-122.348147,47.57558],[-122.348182,47.575622],[-122.348181,47.575712],[-122.347915,47.575711],[-122.347899,47.575551],[-122.347785,47.57553],[-122.34775,47.575449],[-122.347653,47.575439],[-122.347624,47.575362],[-122.347521,47.575349],[-122.347523,47.575169],[-122.348055,47.575172],[-122.348077,47.575246],[-122.348187,47.575263],[-122.34818,47.575534]]]}},{"type":"Feature","properties":{"id":36,"area_m2":1800,"px":18,"rank":5},"geometry":{"type":"Polygon","coordinates":[[[-122.352958,47.576549],[-122.352955,47.576729],[-122.352719,47.57674],[-122.352688,47.576818],[-122.352591,47.576826],[-122.352554,47.576907],[-122.352439,47.576926],[-122.35242,47.576996],[-122.352155,47.576995],[-122.352157,47.576815],[-122.352276,47.576791],[-122.352292,47.576636],[-122.352402,47.57662],[-122.352426,47.576546],[-122.35265,47.576541],[-122.352689,47.576509],[-122.352695,47.576458],[-122.352826,47.576459],[-122.352848,47.576533],[-122.352958,47.576549]]]}},{"type":"Feature","properties":{"id":52,"area_m2":1800,"px":18,"rank":6},"geometry":{"type":"Polygon","coordinates":[[[-122.353251,47.574301],[-122.353248,47.574571],[-122.353024,47.574576],[-122.352985,47.574608],[-122.352981,47.57466],[-122.352861,47.574683],[-122.352847,47.574749],[-122.352716,47.574765],[-122.352693,47.574804],[-122.352711,47.575018],[-122.352578,47.575017],[-122.352555,47.574943],[-122.352446,47.574927],[-122.352444,47.574785],[-122.352399,47.574751],[-122.352315,47.574746],[-122.352316,47.574656],[-122.35254,47.574651],[-122.352579,47.574619],[-122.352583,47.574568],[-122.352703,47.574544],[-122.352717,47.574478],[-122.352941,47.574473],[-122.35298,47.574442],[-122.352984,47.57439],[-122.353104,47.574367],[-122.353119,47.574301],[-122.353251,47.574301]]]}},{"type":"Feature","properties":{"id":38,"area_m2":1600,"px":16,"rank":7},"geometry":{"type":"Polygon","coordinates":[[[-122.350568,47.576266],[-122.350567,47.576356],[-122.350457,47.576371],[-122.350433,47.576445],[-122.350223,47.576446],[-122.350172,47.576477],[-122.350165,47.576533],[-122.349923,47.576548],[-122.349897,47.576712],[-122.349632,47.57671],[-122.349635,47.576441],[-122.349823,47.576455],[-122.349878,47.576439],[-122.349903,47.576262],[-122.350568,47.576266]]]}},{"type":"Feature","properties":{"id":56,"area_m2":1400,"px":14,"rank":8},"geometry":{"type":"Polygon","coordinates":[[[-122.347268,47.574268],[-122.347267,47.574357],[-122.34717,47.574366],[-122.347133,47.574447],[-122.347036,47.574449],[-122.346988,47.574476],[-122.346998,47.574626],[-122.346732,47.574624],[-122.346724,47.574473],[-122.346678,47.574446],[-122.346601,47.574444],[-122.346604,47.574264],[-122.346827,47.574259],[-122.346866,47.574227],[-122.346873,47.574175],[-122.347136,47.574177],[-122.347159,47.574251],[-122.347268,47.574268]]]}},{"type":"Feature","properties":{"id":12,"area_m2":1300,"px":13,"rank":9},"geometry":{"type":"Polygon","coordinates":[[[-122.34928,47.583637],[-122.349277,47.583817],[-122.349201,47.583819],[-122.349154,47.583845],[-122.349142,47.583996],[-122.349009,47.583995],[-122.349031,47.583675],[-122.348986,47.583639],[-122.348881,47.583633],[-122.348882,47.583545],[-122.34898,47.583536],[-122.349016,47.583491],[-122.349014,47.583314],[-122.348969,47.583279],[-122.348885,47.583275],[-122.348886,47.583185],[-122.348996,47.583169],[-122.349021,47.583095],[-122.349153,47.583096],[-122.349149,47.583593],[-122.349189,47.58363],[-122.34928,47.583637]]]}},{"type":"Feature","properties":{"id":40,"area_m2":1200,"px":12,"rank":10},"geometry":{"type":"Polygon","coordinates":[[[-122.353895,47.576015],[-122.353894,47.576105],[-122.35379,47.576116],[-122.35376,47.576194],[-122.353669,47.5762],[-122.353628,47.576237],[-122.353631,47.57634],[-122.353674,47.576369],[-122.353758,47.576374],[-122.353757,47.576464],[-122.353624,47.576463],[-122.353618,47.576406],[-122.353576,47.576377],[-122.353423,47.576373],[-122.35336,47.576415],[-122.353357,47.576551],[-122.353224,47.576551],[-122.353228,47.576191],[-122.353445,47.576188],[-122.353488,47.576159],[-122.353495,47.576102],[-122.353705,47.576101],[-122.353755,47.576071],[-122.353762,47.576014],[-122.353895,47.576015]]]}},{"type":"Feature","properties":{"id":41,"area_m2":1200,"px":12,"rank":11},"geometry":{"type":"Polygon","coordinates":[[[-122.348706,47.576255],[-122.348704,47.576435],[-122.348305,47.576433],[-122.348311,47.575983],[-122.348577,47.575985],[-122.348577,47.576216],[-122.348623,47.576251],[-122.348706,47.576255]]]}},{"type":"Feature","properties":{"id":54,"area_m2":1200,"px":12,"rank":12},"geometry":{"type":"Polygon","coordinates":[[[-122.350721,47.574647],[-122.35072,47.574737],[-122.35061,47.574752],[-122.350585,47.574826],[-122.350466,47.57485],[-122.350451,47.574915],[-122.34992,47.574912],[-122.349922,47.574733],[-122.350032,47.574717],[-122.350056,47.574643],[-122.350189,47.574644],[-122.350197,47.574719],[-122.350265,47.574748],[-122.350441,47.574711],[-122.350456,47.574556],[-122.350589,47.574556],[-122.350611,47.574631],[-122.350721,47.574647]]]}},{"type":"Feature","properties":{"id":6,"area_m2":1100,"px":11,"rank":13},"geometry":{"type":"Polygon","coordinates":[[[-122.349121,47.585705],[-122.349112,47.586425],[-122.348979,47.586424],[-122.348984,47.585928],[-122.348944,47.585891],[-122.348853,47.585884],[-122.348825,47.585806],[-122.348721,47.585793],[-122.348722,47.585703],[-122.349121,47.585705]]]}},{"type":"Feature","properties":{"id":23,"area_m2":1100,"px":11,"rank":14},"geometry":{"type":"Polygon","coordinates":[[[-122.349729,47.57959],[-122.349725,47.57986],[-122.349642,47.579864],[-122.349595,47.579898],[-122.349589,47.580129],[-122.349456,47.580129],[-122.349451,47.580072],[-122.349401,47.580041],[-122.349191,47.580037],[-122.349194,47.579857],[-122.34943,47.579846],[-122.349461,47.579769],[-122.349544,47.579765],[-122.349588,47.579736],[-122.349596,47.57959],[-122.349729,47.57959]]]}},{"type":"Feature","properties":{"id":42,"area_m2":1100,"px":11,"rank":15},"geometry":{"type":"Polygon","coordinates":[[[-122.351104,47.575909],[-122.351101,47.576179],[-122.350991,47.576194],[-122.350967,47.576268],[-122.350701,47.576266],[-122.350678,47.576192],[-122.350569,47.576176],[-122.35057,47.576086],[-122.35068,47.576071],[-122.350704,47.575997],[-122.350824,47.575973],[-122.350838,47.575907],[-122.351104,47.575909]]]}},{"type":"Feature","properties":{"id":47,"area_m2":1100,"px":11,"rank":16},"geometry":{"type":"Polygon","coordinates":[[[-122.352973,47.57529],[-122.352972,47.57538],[-122.352748,47.575385],[-122.352709,47.575416],[-122.352705,47.575468],[-122.352439,47.575466],[-122.352444,47.575107],[-122.35271,47.575108],[-122.352732,47.575182],[-122.352841,47.575199],[-122.352876,47.57528],[-122.352973,47.57529]]]}},{"type":"Feature","properties":{"id":5,"area_m2":1000,"px":10,"rank":17},"geometry":{"type":"Polygon","coordinates":[[[-122.348049,47.586329],[-122.348048,47.586419],[-122.347951,47.586428],[-122.347915,47.586472],[-122.347916,47.58665],[-122.347961,47.586684],[-122.348045,47.586689],[-122.348044,47.586779],[-122.347911,47.586778],[-122.347902,47.586717],[-122.347848,47.586689],[-122.347513,47.586686],[-122.347515,47.586506],[-122.347758,47.586492],[-122.347783,47.586328],[-122.348049,47.586329]]]}},{"type":"Feature","properties":{"id":51,"area_m2":1000,"px":10,"rank":18},"geometry":{"type":"Polygon","coordinates":[[[-122.353641,47.575024],[-122.35364,47.575113],[-122.353531,47.575129],[-122.353506,47.575203],[-122.353107,47.5752],[-122.353106,47.575059],[-122.35306,47.575024],[-122.352977,47.57502],[-122.352978,47.57493],[-122.353111,47.574931],[-122.353116,47.574987],[-122.353159,47.575017],[-122.353311,47.575021],[-122.353375,47.574978],[-122.353378,47.574842],[-122.353511,47.574843],[-122.353518,47.574994],[-122.353565,47.575021],[-122.353641,47.575024]]]}},{"type":"Feature","properties":{"id":25,"area_m2":900,"px":9,"rank":19},"geometry":{"type":"Polygon","coordinates":[[[-122.349329,47.579678],[-122.349328,47.579768],[-122.349195,47.579767],[-122.349182,47.579701],[-122.349063,47.579676],[-122.34906,47.579611],[-122.349017,47.579577],[-122.348833,47.579594],[-122.348795,47.579675],[-122.348664,47.579674],[-122.348665,47.579584],[-122.348741,47.579582],[-122.348789,47.579556],[-122.3488,47.579405],[-122.34891,47.57939],[-122.348934,47.579316],[-122.349067,47.579317],[-122.34909,47.579391],[-122.349199,47.579407],[-122.349206,47.579649],[-122.349252,47.579675],[-122.349329,47.579678]]]}},{"type":"Feature","properties":{"id":57,"area_m2":900,"px":9,"rank":20},"geometry":{"type":"Polygon","coordinates":[[[-122.353917,47.574215],[-122.353915,47.574395],[-122.353685,47.574403],[-122.353649,47.574442],[-122.353647,47.574574],[-122.353514,47.574573],[-122.353516,47.574393],[-122.353552,47.574351],[-122.353517,47.574303],[-122.35352,47.574123],[-122.353785,47.574125],[-122.353808,47.574199],[-122.353917,47.574215]]]}},{"type":"Feature","properties":{"id":28,"area_m2":800,"px":8,"rank":21},"geometry":{"type":"Polygon","coordinates":[[[-122.35453,47.578448],[-122.354522,47.579077],[-122.35439,47.579077],[-122.354392,47.57876],[-122.354352,47.578723],[-122.354261,47.578716],[-122.354262,47.578626],[-122.354338,47.578624],[-122.354386,47.578598],[-122.354397,47.578447],[-122.35453,47.578448]]]}},{"type":"Feature","properties":{"id":58,"area_m2":800,"px":8,"rank":22},"geometry":{"type":"Polygon","coordinates":[[[-122.348864,47.574277],[-122.348863,47.574366],[-122.348779,47.57437],[-122.348733,47.574404],[-122.348727,47.574546],[-122.348196,47.574543],[-122.348197,47.574453],[-122.348307,47.574438],[-122.348331,47.574364],[-122.348666,47.574364],[-122.348721,47.574337],[-122.348731,47.574276],[-122.348864,47.574277]]]}},{"type":"Feature","properties":{"id":7,"area_m2":700,"px":7,"rank":23},"geometry":{"type":"Polygon","coordinates":[[[-122.349129,47.585076],[-122.349127,47.585255],[-122.349017,47.585271],[-122.348992,47.585345],[-122.34886,47.585344],[-122.348865,47.584894],[-122.348998,47.584895],[-122.349006,47.585046],[-122.349053,47.585073],[-122.349129,47.585076]]]}},{"type":"Feature","properties":{"id":22,"area_m2":700,"px":7,"rank":24},"geometry":{"type":"Polygon","coordinates":[[[-122.348124,47.580301],[-122.348123,47.580391],[-122.347857,47.580389],[-122.34785,47.580238],[-122.347803,47.580211],[-122.347726,47.580209],[-122.347729,47.580029],[-122.347994,47.58003],[-122.347995,47.580262],[-122.348041,47.580296],[-122.348124,47.580301]]]}},{"type":"Feature","properties":{"id":43,"area_m2":700,"px":7,"rank":25},"geometry":{"type":"Polygon","coordinates":[[[-122.347113,47.576066],[-122.347111,47.576246],[-122.346579,47.576243],[-122.346581,47.576063],[-122.346847,47.576065],[-122.346909,47.576089],[-122.34698,47.576066],[-122.347113,47.576066]]]}},{"type":"Feature","properties":{"id":48,"area_m2":700,"px":7,"rank":26},"geometry":{"type":"Polygon","coordinates":[[[-122.351512,47.575191],[-122.35151,47.575371],[-122.351175,47.57537],[-122.35112,47.575398],[-122.35111,47.575459],[-122.350977,47.575458],[-122.350978,47.575368],[-122.351062,47.575365],[-122.351108,47.575331],[-122.351113,47.575189],[-122.351512,47.575191]]]}},{"type":"Feature","properties":{"id":63,"area_m2":700,"px":7,"rank":27},"geometry":{"type":"Polygon","coordinates":[[[-122.348207,47.573643],[-122.348203,47.573913],[-122.348071,47.573912],[-122.348065,47.573855],[-122.348015,47.573824],[-122.347806,47.573821],[-122.347783,47.573746],[-122.347674,47.57373],[-122.347675,47.57364],[-122.347941,47.573642],[-122.348003,47.573666],[-122.348074,47.573642],[-122.348207,47.573643]]]}},{"type":"Feature","properties":{"id":1,"area_m2":600,"px":6,"rank":28},"geometry":{"type":"Polygon","coordinates":[[[-122.348819,47.588583],[-122.348817,47.588763],[-122.348707,47.588778],[-122.348683,47.588852],[-122.34855,47.588851],[-122.348528,47.588777],[-122.348418,47.588761],[-122.34842,47.588581],[-122.348553,47.588582],[-122.348616,47.588606],[-122.348686,47.588582],[-122.348819,47.588583]]]}},{"type":"Feature","properties":{"id":4,"area_m2":600,"px":6,"rank":29},"geometry":{"type":"Polygon","coordinates":[[[-122.346847,47.586772],[-122.346841,47.587222],[-122.346708,47.587221],[-122.346711,47.586905],[-122.346671,47.586868],[-122.34658,47.586861],[-122.346581,47.586771],[-122.346847,47.586772]]]}},{"type":"Feature","properties":{"id":17,"area_m2":600,"px":6,"rank":30},"geometry":{"type":"Polygon","coordinates":[[[-122.349168,47.581927],[-122.349166,47.582106],[-122.349089,47.582108],[-122.349042,47.582134],[-122.34903,47.582286],[-122.348898,47.582285],[-122.348902,47.581925],[-122.349168,47.581927]]]}},{"type":"Feature","properties":{"id":18,"area_m2":600,"px":6,"rank":31},"geometry":{"type":"Polygon","coordinates":[[[-122.347971,47.58192],[-122.347967,47.58228],[-122.347701,47.582278],[-122.347703,47.582098],[-122.347779,47.582096],[-122.347827,47.58207],[-122.347838,47.581919],[-122.347971,47.58192]]]}},{"type":"Feature","properties":{"id":20,"area_m2":600,"px":6,"rank":32},"geometry":{"type":"Polygon","coordinates":[[[-122.348112,47.581291],[-122.348108,47.581561],[-122.347843,47.581559],[-122.347846,47.581289],[-122.348112,47.581291]]]}},{"type":"Feature","properties":{"id":29,"area_m2":600,"px":6,"rank":33},"geometry":{"type":"Polygon","coordinates":[[[-122.353596,47.578712],[-122.353594,47.578892],[-122.353484,47.578907],[-122.35346,47.578981],[-122.353327,47.578981],[-122.353331,47.578621],[-122.353464,47.578622],[-122.353487,47.578696],[-122.353596,47.578712]]]}},{"type":"Feature","properties":{"id":30,"area_m2":600,"px":6,"rank":34},"geometry":{"type":"Polygon","coordinates":[[[-122.348288,47.577783],[-122.348286,47.577962],[-122.348176,47.577978],[-122.348152,47.578052],[-122.348019,47.578051],[-122.348014,47.577981],[-122.347966,47.57795],[-122.347754,47.577959],[-122.347756,47.57787],[-122.347865,47.577854],[-122.34789,47.57778],[-122.348022,47.577781],[-122.348085,47.577805],[-122.348156,47.577782],[-122.348288,47.577783]]]}},{"type":"Feature","properties":{"id":66,"area_m2":600,"px":6,"rank":35},"geometry":{"type":"Polygon","coordinates":[[[-122.347551,47.57292],[-122.347549,47.573099],[-122.347472,47.573101],[-122.347425,47.573127],[-122.347413,47.573279],[-122.347281,47.573278],[-122.347284,47.573008],[-122.34732,47.572966],[-122.347285,47.572918],[-122.347286,47.572828],[-122.347419,47.572829],[-122.347442,47.572903],[-122.347551,47.57292]]]}},{"type":"Feature","properties":{"id":11,"area_m2":500,"px":5,"rank":36},"geometry":{"type":"Polygon","coordinates":[[[-122.349273,47.584177],[-122.349271,47.584356],[-122.349194,47.584358],[-122.349147,47.584384],[-122.349135,47.584536],[-122.349003,47.584535],[-122.349006,47.584265],[-122.349116,47.58425],[-122.34914,47.584176],[-122.349273,47.584177]]]}},{"type":"Feature","properties":{"id":35,"area_m2":500,"px":5,"rank":37},"geometry":{"type":"Polygon","coordinates":[[[-122.346969,47.576965],[-122.346968,47.577055],[-122.346858,47.57707],[-122.346834,47.577144],[-122.346701,47.577144],[-122.346693,47.576992],[-122.346646,47.576966],[-122.34657,47.576963],[-122.346572,47.576783],[-122.346705,47.576784],[-122.346704,47.576915],[-122.346738,47.576955],[-122.346969,47.576965]]]}},{"type":"Feature","properties":{"id":37,"area_m2":500,"px":5,"rank":38},"geometry":{"type":"Polygon","coordinates":[[[-122.34724,47.576517],[-122.347237,47.576787],[-122.347104,47.576786],[-122.347082,47.576712],[-122.346972,47.576695],[-122.346975,47.576515],[-122.34724,47.576517]]]}},{"type":"Feature","properties":{"id":64,"area_m2":500,"px":5,"rank":39},"geometry":{"type":"Polygon","coordinates":[[[-122.346482,47.573363],[-122.346478,47.573633],[-122.346402,47.573635],[-122.346355,47.573661],[-122.346343,47.573812],[-122.34621,47.573812],[-122.346213,47.573632],[-122.346303,47.573626],[-122.346344,47.573589],[-122.346349,47.573363],[-122.346482,47.573363]]]}},{"type":"Feature","properties":{"id":3,"area_m2":400,"px":4,"rank":40},"geometry":{"type":"Polygon","coordinates":[[[-122.347907,47.587048],[-122.347906,47.587138],[-122.347697,47.587139],[-122.347646,47.58717],[-122.347639,47.587227],[-122.347506,47.587226],[-122.347509,47.587046],[-122.347907,47.587048]]]}},{"type":"Feature","properties":{"id":8,"area_m2":400,"px":4,"rank":41},"geometry":{"type":"Polygon","coordinates":[[[-122.347932,47.585069],[-122.34793,47.585249],[-122.347664,47.585247],[-122.347666,47.585067],[-122.347932,47.585069]]]}},{"type":"Feature","properties":{"id":14,"area_m2":400,"px":4,"rank":42},"geometry":{"type":"Polygon","coordinates":[[[-122.347821,47.583269],[-122.34782,47.583358],[-122.347736,47.583362],[-122.34769,47.583396],[-122.347685,47.583538],[-122.347552,47.583537],[-122.347556,47.583267],[-122.347821,47.583269]]]}},{"type":"Feature","properties":{"id":16,"area_m2":400,"px":4,"rank":43},"geometry":{"type":"Polygon","coordinates":[[[-122.34863,47.582373],[-122.348629,47.582463],[-122.34852,47.582479],[-122.348495,47.582553],[-122.348362,47.582552],[-122.348366,47.582282],[-122.348498,47.582283],[-122.348521,47.582357],[-122.34863,47.582373]]]}},{"type":"Feature","properties":{"id":24,"area_m2":400,"px":4,"rank":44},"geometry":{"type":"Polygon","coordinates":[[[-122.347866,47.57967],[-122.347863,47.57994],[-122.34773,47.579939],[-122.347707,47.579865],[-122.347598,47.579848],[-122.347599,47.579758],[-122.347709,47.579743],[-122.347733,47.579669],[-122.347866,47.57967]]]}},{"type":"Feature","properties":{"id":26,"area_m2":400,"px":4,"rank":45},"geometry":{"type":"Polygon","coordinates":[[[-122.349072,47.578957],[-122.349069,47.579137],[-122.34896,47.579152],[-122.348935,47.579226],[-122.348803,47.579225],[-122.348805,47.579045],[-122.348914,47.57903],[-122.348939,47.578956],[-122.349072,47.578957]]]}},{"type":"Feature","properties":{"id":27,"area_m2":400,"px":4,"rank":46},"geometry":{"type":"Polygon","coordinates":[[[-122.346149,47.57876],[-122.346144,47.57912],[-122.346011,47.579119],[-122.346016,47.578759],[-122.346149,47.57876]]]}},{"type":"Feature","properties":{"id":33,"area_m2":400,"px":4,"rank":47},"geometry":{"type":"Polygon","coordinates":[[[-122.351488,47.577081],[-122.351486,47.577261],[-122.351353,47.57726],[-122.351348,47.577203],[-122.351298,47.577172],[-122.351089,47.577168],[-122.35109,47.577079],[-122.351488,47.577081]]]}},{"type":"Feature","properties":{"id":46,"area_m2":400,"px":4,"rank":48},"geometry":{"type":"Polygon","coordinates":[[[-122.348717,47.575356],[-122.348716,47.575445],[-122.348607,47.575461],[-122.348582,47.575535],[-122.348316,47.575533],[-122.348318,47.575443],[-122.348427,47.575428],[-122.348452,47.575354],[-122.348717,47.575356]]]}},{"type":"Feature","properties":{"id":49,"area_m2":400,"px":4,"rank":49},"geometry":{"type":"Polygon","coordinates":[[[-122.34925,47.575269],[-122.349249,47.575358],[-122.34914,47.575374],[-122.349115,47.575448],[-122.348849,47.575446],[-122.348851,47.575356],[-122.34896,47.575341],[-122.348985,47.575267],[-122.34925,47.575269]]]}},{"type":"Feature","properties":{"id":55,"area_m2":400,"px":4,"rank":50},"geometry":{"type":"Polygon","coordinates":[[[-122.346599,47.574624],[-122.346597,47.574804],[-122.346464,47.574803],[-122.346458,47.574746],[-122.346408,47.574715],[-122.346199,47.574711],[-122.3462,47.574621],[-122.346599,47.574624]]]}},{"type":"Feature","properties":{"id":59,"area_m2":400,"px":4,"rank":51},"geometry":{"type":"Polygon","coordinates":[[[-122.351791,47.574113],[-122.351789,47.574293],[-122.351713,47.574295],[-122.351665,47.574321],[-122.351654,47.574472],[-122.351521,47.574472],[-122.351523,47.574292],[-122.351599,47.57429],[-122.351647,47.574264],[-122.351658,47.574113],[-122.351791,47.574113]]]}},{"type":"Feature","properties":{"id":61,"area_m2":400,"px":4,"rank":52},"geometry":{"type":"Polygon","coordinates":[[[-122.348733,47.574096],[-122.348732,47.574186],[-122.348601,47.574185],[-122.348577,47.574111],[-122.348467,47.574094],[-122.348471,47.573825],[-122.348603,47.573825],[-122.348604,47.574057],[-122.348649,47.574091],[-122.348733,47.574096]]]}},{"type":"Feature","properties":{"id":2,"area_m2":300,"px":3,"rank":53},"geometry":{"type":"Polygon","coordinates":[[[-122.348568,47.587412],[-122.348566,47.587592],[-122.348456,47.587607],[-122.348431,47.587681],[-122.348299,47.58768],[-122.3483,47.58759],[-122.348383,47.587587],[-122.34843,47.587553],[-122.348435,47.587411],[-122.348568,47.587412]]]}},{"type":"Feature","properties":{"id":9,"area_m2":300,"px":3,"rank":54},"geometry":{"type":"Polygon","coordinates":[[[-122.348468,47.584712],[-122.348465,47.584982],[-122.348332,47.584981],[-122.348336,47.584711],[-122.348468,47.584712]]]}},{"type":"Feature","properties":{"id":10,"area_m2":300,"px":3,"rank":55},"geometry":{"type":"Polygon","coordinates":[[[-122.349134,47.584626],[-122.349132,47.584806],[-122.348866,47.584804],[-122.348867,47.584714],[-122.348977,47.584699],[-122.349002,47.584625],[-122.349134,47.584626]]]}},{"type":"Feature","properties":{"id":13,"area_m2":300,"px":3,"rank":56},"geometry":{"type":"Polygon","coordinates":[[[-122.346885,47.583713],[-122.346884,47.583803],[-122.346774,47.583818],[-122.34675,47.583892],[-122.346617,47.583892],[-122.346619,47.583712],[-122.346885,47.583713]]]}},{"type":"Feature","properties":{"id":15,"area_m2":300,"px":3,"rank":57},"geometry":{"type":"Polygon","coordinates":[[[-122.347964,47.58246],[-122.347962,47.582639],[-122.347696,47.582638],[-122.347697,47.582548],[-122.347807,47.582533],[-122.347832,47.582459],[-122.347964,47.58246]]]}},{"type":"Feature","properties":{"id":19,"area_m2":300,"px":3,"rank":58},"geometry":{"type":"Polygon","coordinates":[[[-122.348503,47.581923],[-122.3485,47.582193],[-122.348367,47.582192],[-122.34837,47.581922],[-122.348503,47.581923]]]}},{"type":"Feature","properties":{"id":21,"area_m2":300,"px":3,"rank":59},"geometry":{"type":"Polygon","coordinates":[[[-122.348255,47.580482],[-122.348252,47.580752],[-122.348119,47.580751],[-122.348122,47.580481],[-122.348255,47.580482]]]}},{"type":"Feature","properties":{"id":34,"area_m2":300,"px":3,"rank":60},"geometry":{"type":"Polygon","coordinates":[[[-122.34923,47.576888],[-122.349228,47.577068],[-122.349118,47.577083],[-122.349094,47.577157],[-122.348961,47.577156],[-122.348962,47.577067],[-122.349046,47.577063],[-122.349092,47.577029],[-122.349097,47.576887],[-122.34923,47.576888]]]}},{"type":"Feature","properties":{"id":39,"area_m2":300,"px":3,"rank":61},"geometry":{"type":"Polygon","coordinates":[[[-122.346843,47.576425],[-122.346841,47.576515],[-122.346632,47.576516],[-122.346581,47.576546],[-122.346574,47.576603],[-122.346442,47.576602],[-122.346443,47.576512],[-122.346552,47.576497],[-122.346577,47.576423],[-122.346843,47.576425]]]}},{"type":"Feature","properties":{"id":50,"area_m2":300,"px":3,"rank":62},"geometry":{"type":"Polygon","coordinates":[[[-122.346724,47.575254],[-122.346722,47.575434],[-122.346589,47.575433],[-122.346567,47.575359],[-122.346457,47.575343],[-122.346458,47.575253],[-122.346724,47.575254]]]}},{"type":"Feature","properties":{"id":53,"area_m2":300,"px":3,"rank":63},"geometry":{"type":"Polygon","coordinates":[[[-122.352181,47.574835],[-122.35218,47.574925],[-122.35207,47.57494],[-122.352046,47.575014],[-122.351913,47.575014],[-122.351915,47.574834],[-122.352181,47.574835]]]}},{"type":"Feature","properties":{"id":60,"area_m2":300,"px":3,"rank":64},"geometry":{"type":"Polygon","coordinates":[[[-122.353388,47.574032],[-122.353385,47.574212],[-122.353253,47.574211],[-122.35323,47.574137],[-122.353121,47.574121],[-122.353122,47.574031],[-122.353388,47.574032]]]}},{"type":"Feature","properties":{"id":62,"area_m2":300,"px":3,"rank":65},"geometry":{"type":"Polygon","coordinates":[[[-122.350331,47.573925],[-122.350328,47.574105],[-122.350063,47.574103],[-122.350064,47.574014],[-122.350174,47.573998],[-122.350198,47.573924],[-122.350331,47.573925]]]}},{"type":"Feature","properties":{"id":65,"area_m2":300,"px":3,"rank":66},"geometry":{"type":"Polygon","coordinates":[[[-122.350606,47.573207],[-122.350604,47.573297],[-122.350339,47.573295],[-122.350341,47.573115],[-122.350474,47.573116],[-122.350496,47.57319],[-122.350606,47.573207]]]}}]}