{"type":"FeatureCollection","features":[{"type":"Feature","properties":{"id":26,"area_m2":6400,"px":64,"rank":1},"geometry":{"type":"Polygon","coordinates":[[[-122.348255,47.580482],[-122.348254,47.580572],[-122.348156,47.58058],[-122.34812,47.580625],[-122.348132,47.580727],[-122.348251,47.580752],[-122.348249,47.580931],[-122.348173,47.580933],[-122.348125,47.580959],[-122.348114,47.581111],[-122.34803,47.581114],[-122.347984,47.581148],[-122.347979,47.58129],[-122.347846,47.581289],[-122.347843,47.581053],[-122.347785,47.58102],[-122.347583,47.581018],[-122.347585,47.580928],[-122.347621,47.58088],[-122.347586,47.580838],[-122.347587,47.580611],[-122.347547,47.580574],[-122.347456,47.580567],[-122.347458,47.580387],[-122.347578,47.580364],[-122.34759,47.580246],[-122.347544,47.580212],[-122.347461,47.580207],[-122.347426,47.580126],[-122.347329,47.580116],[-122.34733,47.580027],[-122.347672,47.580026],[-122.347723,47.579995],[-122.34773,47.579939],[-122.347931,47.579939],[-122.347995,47.579897],[-122.347984,47.579784],[-122.347865,47.57976],[-122.347868,47.579258],[-122.347807,47.57922],[-122.347606,47.579218],[-122.347609,47.578948],[-122.348008,47.578951],[-122.34803,47.579025],[-122.34814,47.579041],[-122.348138,47.579221],[-122.34804,47.57923],[-122.348004,47.579275],[-122.347999,47.579712],[-122.34804,47.579754],[-122.348131,47.579761],[-122.348129,47.579941],[-122.348019,47.579956],[-122.347994,47.58003],[-122.347801,47.580029],[-122.347747,47.580049],[-122.347726,47.58025],[-122.347782,47.580297],[-122.347927,47.580299],[-122.347982,47.580272],[-122.347992,47.58021],[-122.348125,47.580211],[-122.348124,47.580301],[-122.348004,47.580324],[-122.347974,47.580445],[-122.348032,47.580479],[-122.348255,47.580482]]]}},{"type":"Feature","properties":{"id":14,"area_m2":3100,"px":31,"rank":2},"geometry":{"type":"Polygon","coordinates":[[[-122.349134,47.584626],[-122.349117,47.586065],[-122.349007,47.58608],[-122.348982,47.586154],[-122.34885,47.586154],[-122.348852,47.585974],[-122.348949,47.585965],[-122.348985,47.585921],[-122.348973,47.585819],[-122.348854,47.585794],[-122.348869,47.584624],[-122.349134,47.584626]]]}},{"type":"Feature","properties":{"id":46,"area_m2":3000,"px":30,"rank":3},"geometry":{"type":"Polygon","coordinates":[[[-122.346965,47.577057],[-122.346932,47.577103],[-122.346967,47.577145],[-122.346965,47.577235],[-122.346833,47.577234],[-122.346827,47.577178],[-122.346777,47.577146],[-122.346645,47.577129],[-122.34658,47.577154],[-122.346562,47.577593],[-122.346478,47.577596],[-122.346432,47.57763],[-122.346426,47.577862],[-122.34616,47.57786],[-122.346137,47.577786],[-122.346028,47.57777],[-122.34603,47.57759],[-122.346128,47.577581],[-122.346164,47.577536],[-122.34616,47.577354],[-122.346117,47.577324],[-122.346034,47.57732],[-122.346036,47.57714],[-122.346254,47.57715],[-122.346299,47.577117],[-122.346303,47.577051],[-122.346527,47.577046],[-122.346566,47.577015],[-122.34657,47.576963],[-122.346969,47.576965],[-122.346965,47.577057]]]}},{"type":"Feature","properties":{"id":6,"area_m2":2700,"px":27,"rank":4},"geometry":{"type":"Polygon","coordinates":[[[-122.348179,47.5866],[-122.348178,47.58669],[-122.348045,47.586689],[-122.347967,47.586665],[-122.347814,47.586697],[-122.347778,47.586742],[-122.34779,47.586844],[-122.34791,47.58687],[-122.347907,47.587048],[-122.347788,47.587071],[-122.347774,47.587184],[-122.347814,47.587221],[-122.347905,47.587228],[-122.34792,47.587311],[-122.347784,47.587341],[-122.347773,47.587459],[-122.347833,47.587497],[-122.347993,47.587492],[-122.348035,47.58745],[-122.348021,47.587326],[-122.34817,47.58732],[-122.348168,47.587499],[-122.348091,47.587501],[-122.348044,47.587527],[-122.348033,47.587679],[-122.3479,47.587678],[-122.347837,47.587654],[-122.347767,47.587677],[-122.347634,47.587676],[-122.347626,47.587525],[-122.347579,47.587499],[-122.347503,47.587496],[-122.347504,47.587406],[-122.347602,47.587397],[-122.347638,47.587353],[-122.347643,47.586915],[-122.347601,47.586873],[-122.347511,47.586866],[-122.347512,47.586776],[-122.347548,47.586734],[-122.347513,47.586686],[-122.347514,47.586596],[-122.347878,47.586589],[-122.347913,47.58655],[-122.347917,47.586418],[-122.348048,47.586419],[-122.348056,47.586571],[-122.348103,47.586597],[-122.348179,47.5866]]]}},{"type":"Feature","properties":{"id":22,"area_m2":2700,"px":27,"rank":5},"geometry":{"type":"Polygon","coordinates":[[[-122.348107,47.581651],[-122.348104,47.58192],[-122.34788,47.581926],[-122.347841,47.581957],[-122.347837,47.582009],[-122.347739,47.582017],[-122.347703,47.582062],[-122.347705,47.582163],[-122.347771,47.582202],[-122.347939,47.582177],[-122.347969,47.5821],[-122.348102,47.5821],[-122.3481,47.58228],[-122.34799,47.582296],[-122.347965,47.58237],[-122.347846,47.582393],[-122.347831,47.582459],[-122.34762,47.582447],[-122.347571,47.582477],[-122.347564,47.582547],[-122.347431,47.582546],[-122.347435,47.582277],[-122.347526,47.582271],[-122.347568,47.582229],[-122.347572,47.581918],[-122.347684,47.581911],[-122.347726,47.581863],[-122.347689,47.581758],[-122.347575,47.581737],[-122.34754,47.581656],[-122.347443,47.581647],[-122.347445,47.581467],[-122.347578,47.581468],[-122.34764,47.581492],[-122.347711,47.581468],[-122.347844,47.581469],[-122.347864,47.581647],[-122.347919,47.581663],[-122.348107,47.581651]]]}},{"type":"Feature","properties":{"id":32,"area_m2":2600,"px":26,"rank":6},"geometry":{"type":"Polygon","coordinates":[[[-122.349468,47.579139],[-122.349466,47.579319],[-122.349351,47.579338],[-122.349297,47.579445],[-122.349331,47.579499],[-122.349325,47.579948],[-122.349193,47.579947],[-122.349193,47.579811],[-122.349152,47.579773],[-122.348796,47.579765],[-122.348796,47.579628],[-122.348756,47.579591],[-122.348399,47.579583],[-122.3484,47.579493],[-122.348776,47.579479],[-122.348801,47.579315],[-122.348911,47.5793],[-122.348936,47.579226],[-122.349272,47.57924],[-122.349329,47.579208],[-122.349336,47.579138],[-122.349468,47.579139]]]}},{"type":"Feature","properties":{"id":41,"area_m2":2600,"px":26,"rank":7},"geometry":{"type":"Polygon","coordinates":[[[-122.348146,47.578323],[-122.348113,47.578369],[-122.348148,47.578412],[-122.348143,47.578771],[-122.34801,47.578771],[-122.348006,47.578624],[-122.347963,47.578595],[-122.34788,47.57859],[-122.34788,47.578453],[-122.347825,47.578412],[-122.347658,47.578415],[-122.347619,47.578447],[-122.347615,47.578498],[-122.347495,47.578522],[-122.34748,47.578588],[-122.347348,47.578587],[-122.347349,47.578497],[-122.347453,47.578485],[-122.347483,47.578408],[-122.347574,47.578402],[-122.347616,47.57836],[-122.347619,47.578002],[-122.347579,47.577965],[-122.347488,47.577958],[-122.347491,47.577778],[-122.347624,47.577779],[-122.347641,47.577849],[-122.347755,47.57787],[-122.347764,47.577931],[-122.347819,47.577959],[-122.347971,47.577957],[-122.348015,47.577928],[-122.348021,47.577871],[-122.348154,47.577872],[-122.348153,47.577962],[-122.348056,47.57797],[-122.34802,47.578015],[-122.348032,47.578117],[-122.348151,47.578142],[-122.348146,47.578323]]]}},{"type":"Feature","properties":{"id":18,"area_m2":2300,"px":23,"rank":8},"geometry":{"type":"Polygon","coordinates":[[[-122.349284,47.583277],[-122.349282,47.583457],[-122.349191,47.583463],[-122.34915,47.5835],[-122.349146,47.583726],[-122.349036,47.583741],[-122.349011,47.583815],[-122.348879,47.583814],[-122.348883,47.583455],[-122.349003,47.583431],[-122.349017,47.583324],[-122.348962,47.583277],[-122.348752,47.583274],[-122.348753,47.583184],[-122.348837,47.58318],[-122.348881,47.583151],[-122.348891,47.582825],[-122.349001,47.58281],[-122.349025,47.582736],[-122.349158,47.582736],[-122.349153,47.583233],[-122.349193,47.58327],[-122.349284,47.583277]]]}},{"type":"Feature","properties":{"id":19,"area_m2":1600,"px":16,"rank":9},"geometry":{"type":"Polygon","coordinates":[[[-122.348097,47.58246],[-122.348095,47.58264],[-122.347991,47.582652],[-122.347961,47.582729],[-122.34787,47.582735],[-122.347828,47.582777],[-122.34784,47.582885],[-122.347959,47.582909],[-122.347955,47.583179],[-122.34769,47.583178],[-122.347682,47.583026],[-122.347635,47.583],[-122.347559,47.582996],[-122.347561,47.582817],[-122.347652,47.582811],[-122.347693,47.582774],[-122.347697,47.582548],[-122.347907,47.582547],[-122.347958,47.582516],[-122.347965,47.58246],[-122.348097,47.58246]]]}},{"type":"Feature","properties":{"id":36,"area_m2":1600,"px":16,"rank":10},"geometry":{"type":"Polygon","coordinates":[[[-122.353727,47.578893],[-122.353726,47.578983],[-122.353628,47.578985],[-122.353577,47.579017],[-122.35359,47.579162],[-122.353481,47.579177],[-122.353456,47.579251],[-122.353324,47.579251],[-122.35334,47.579105],[-122.35329,47.579073],[-122.353193,47.57907],[-122.353191,47.578928],[-122.353146,47.578894],[-122.353062,47.578889],[-122.353063,47.578799],[-122.35316,47.578797],[-122.353208,47.57877],[-122.353198,47.57862],[-122.353308,47.578605],[-122.353332,47.578531],[-122.353465,47.578532],[-122.353488,47.578606],[-122.353597,47.578622],[-122.353604,47.578864],[-122.35365,47.57889],[-122.353727,47.578893]]]}},{"type":"Feature","properties":{"id":77,"area_m2":1500,"px":15,"rank":11},"geometry":{"type":"Polygon","coordinates":[[[-122.351534,47.573392],[-122.351532,47.573572],[-122.351162,47.573582],[-122.351133,47.573618],[-122.351131,47.573749],[-122.351021,47.573765],[-122.350997,47.573839],[-122.350598,47.573836],[-122.3506,47.573657],[-122.35071,47.573641],[-122.350734,47.573567],[-122.351076,47.573567],[-122.351127,47.573536],[-122.351134,47.57348],[-122.351254,47.573456],[-122.351268,47.57339],[-122.351534,47.573392]]]}},{"type":"Feature","properties":{"id":16,"area_m2":1400,"px":14,"rank":12},"geometry":{"type":"Polygon","coordinates":[[[-122.347941,47.584349],[-122.347932,47.585069],[-122.347856,47.585071],[-122.347808,47.585097],[-122.347797,47.585248],[-122.347265,47.585245],[-122.347266,47.585155],[-122.347475,47.585154],[-122.347526,47.585123],[-122.347533,47.585067],[-122.347735,47.585067],[-122.34779,47.585039],[-122.347808,47.584348],[-122.347941,47.584349]]]}},{"type":"Feature","properties":{"id":27,"area_m2":1400,"px":14,"rank":13},"geometry":{"type":"Polygon","coordinates":[[[-122.346926,47.580384],[-122.346924,47.580564],[-122.346833,47.58057],[-122.346791,47.580612],[-122.346784,47.581103],[-122.346652,47.581102],[-122.346662,47.580251],[-122.34662,47.580209],[-122.34653,47.580202],[-122.346531,47.580112],[-122.346797,47.580114],[-122.346797,47.580345],[-122.346843,47.58038],[-122.346926,47.580384]]]}},{"type":"Feature","properties":{"id":1,"area_m2":1300,"px":13,"rank":14},"geometry":{"type":"Polygon","coordinates":[[[-122.34815,47.588939],[-122.348149,47.589029],[-122.348039,47.589044],[-122.348015,47.589118],[-122.347821,47.589117],[-122.347767,47.589137],[-122.347746,47.589297],[-122.347614,47.589296],[-122.347617,47.589026],[-122.347714,47.589018],[-122.347751,47.588973],[-122.347738,47.588871],[-122.347619,47.588846],[-122.347624,47.588486],[-122.347889,47.588488],[-122.347888,47.588578],[-122.347805,47.588581],[-122.347758,47.588615],[-122.347759,47.588814],[-122.347801,47.588843],[-122.347885,47.588848],[-122.347888,47.588913],[-122.347931,47.588947],[-122.34815,47.588939]]]}},{"type":"Feature","properties":{"id":50,"area_m2":1200,"px":12,"rank":15},"geometry":{"type":"Polygon","coordinates":[[[-122.346848,47.575975],[-122.346846,47.576155],[-122.346755,47.576161],[-122.346714,47.576197],[-122.34671,47.576424],[-122.346577,47.576423],[-122.346569,47.576272],[-122.346522,47.576245],[-122.346446,47.576242],[-122.346451,47.575883],[-122.346716,47.575884],[-122.346739,47.575958],[-122.346848,47.575975]]]}},{"type":"Feature","properties":{"id":56,"area_m2":1200,"px":12,"rank":16},"geometry":{"type":"Polygon","coordinates":[[[-122.346859,47.575075],[-122.346851,47.575705],[-122.346719,47.575704],[-122.346696,47.57563],[-122.346587,47.575613],[-122.346552,47.575532],[-122.346455,47.575523],[-122.346456,47.575433],[-122.346553,47.575431],[-122.346605,47.575399],[-122.346592,47.575164],[-122.346702,47.575148],[-122.346727,47.575074],[-122.346859,47.575075]]]}},{"type":"Feature","properties":{"id":15,"area_m2":1100,"px":11,"rank":17},"geometry":{"type":"Polygon","coordinates":[[[-122.347926,47.585519],[-122.347925,47.585609],[-122.34782,47.585612],[-122.347774,47.585648],[-122.347789,47.585878],[-122.347523,47.585876],[-122.347515,47.585725],[-122.347469,47.585698],[-122.347392,47.585694],[-122.347393,47.585606],[-122.347477,47.585602],[-122.347523,47.585568],[-122.347529,47.585426],[-122.347638,47.585411],[-122.347663,47.585337],[-122.347796,47.585338],[-122.347803,47.585489],[-122.34785,47.585516],[-122.347926,47.585519]]]}},{"type":"Feature","properties":{"id":29,"area_m2":1000,"px":10,"rank":18},"geometry":{"type":"Polygon","coordinates":[[[-122.349863,47.579501],[-122.349859,47.579771],[-122.34965,47.579772],[-122.349593,47.579818],[-122.349594,47.580001],[-122.34964,47.580036],[-122.349723,47.58004],[-122.349722,47.58013],[-122.349456,47.580129],[-122.349462,47.579679],[-122.349692,47.579671],[-122.349728,47.579632],[-122.34973,47.5795],[-122.349863,47.579501]]]}},{"type":"Feature","properties":{"id":70,"area_m2":1000,"px":10,"rank":19},"geometry":{"type":"Polygon","coordinates":[[[-122.348464,47.574364],[-122.348461,47.574544],[-122.347797,47.57454],[-122.347799,47.574361],[-122.348464,47.574364]]]}},{"type":"Feature","properties":{"id":78,"area_m2":1000,"px":10,"rank":20},"geometry":{"type":"Polygon","coordinates":[[[-122.346745,47.573545],[-122.346744,47.573635],[-122.346661,47.573638],[-122.346614,47.573672],[-122.346609,47.573814],[-122.346476,47.573813],[-122.346477,47.573663],[-122.346417,47.57362],[-122.346248,47.573641],[-122.346211,47.573722],[-122.346079,47.573721],[-122.34608,47.573631],[-122.346163,47.573627],[-122.34621,47.573593],[-122.346215,47.573452],[-122.346299,47.573448],[-122.346342,47.573419],[-122.34635,47.573273],[-122.346483,47.573273],[-122.346503,47.573528],[-122.346745,47.573545]]]}},{"type":"Feature","properties":{"id":9,"area_m2":800,"px":8,"rank":21},"geometry":{"type":"Polygon","coordinates":[[[-122.347383,47.586415],[-122.347382,47.586505],[-122.347298,47.586509],[-122.347252,47.586543],[-122.347247,47.586684],[-122.347137,47.5867],[-122.347113,47.586774],[-122.34698,47.586773],[-122.346984,47.586413],[-122.347383,47.586415]]]}},{"type":"Feature","properties":{"id":25,"area_m2":800,"px":8,"rank":22},"geometry":{"type":"Polygon","coordinates":[[[-122.347313,47.581376],[-122.347307,47.581826],[-122.347041,47.581824],[-122.347043,47.581735],[-122.34714,47.581726],[-122.347176,47.581681],[-122.347164,47.581579],[-122.347045,47.581554],[-122.347047,47.581375],[-122.347313,47.581376]]]}},{"type":"Feature","properties":{"id":65,"area_m2":800,"px":8,"rank":23},"geometry":{"type":"Polygon","coordinates":[[[-122.352178,47.575105],[-122.352177,47.575195],[-122.352044,47.575194],[-122.352031,47.575128],[-122.351965,47.575104],[-122.351814,47.575112],[-122.351778,47.575193],[-122.351512,47.575191],[-122.351514,47.575011],[-122.351723,47.57501],[-122.351774,47.57498],[-122.351781,47.574923],[-122.351914,47.574924],[-122.351937,47.574998],[-122.352046,47.575015],[-122.35208,47.575096],[-122.352178,47.575105]]]}},{"type":"Feature","properties":{"id":80,"area_m2":800,"px":8,"rank":24},"geometry":{"type":"Polygon","coordinates":[[[-122.349278,47.573019],[-122.349275,47.573289],[-122.349044,47.573297],[-122.349008,47.573378],[-122.348888,47.573401],[-122.348874,47.573467],[-122.348741,47.573466],[-122.348718,47.573392],[-122.348609,47.573375],[-122.34861,47.573285],[-122.34898,47.573275],[-122.34901,47.573198],[-122.349094,47.573194],[-122.349137,47.573165],[-122.349145,47.573019],[-122.349278,47.573019]]]}},{"type":"Feature","properties":{"id":3,"area_m2":700,"px":7,"rank":25},"geometry":{"type":"Polygon","coordinates":[[[-122.350022,47.58814],[-122.350014,47.58877],[-122.349881,47.588769],[-122.349889,47.588139],[-122.350022,47.58814]]]}},{"type":"Feature","properties":{"id":8,"area_m2":700,"px":7,"rank":26},"geometry":{"type":"Polygon","coordinates":[[[-122.348575,47.586872],[-122.34857,47.587232],[-122.348437,47.587231],[-122.348415,47.587157],[-122.348305,47.58714],[-122.348309,47.586871],[-122.348575,47.586872]]]}},{"type":"Feature","properties":{"id":11,"area_m2":700,"px":7,"rank":27},"geometry":{"type":"Polygon","coordinates":[[[-122.349114,47.586245],[-122.34911,47.586605],[-122.348844,47.586604],[-122.348847,47.586334],[-122.348957,47.586318],[-122.348981,47.586245],[-122.349114,47.586245]]]}},{"type":"Feature","properties":{"id":45,"area_m2":700,"px":7,"rank":28},"geometry":{"type":"Polygon","coordinates":[[[-122.346959,47.577506],[-122.346926,47.577552],[-122.346961,47.577595],[-122.346958,47.577865],[-122.346921,47.577912],[-122.346956,47.577955],[-122.346955,47.578045],[-122.346823,47.578044],[-122.3468,47.57797],[-122.346691,47.577953],[-122.346692,47.577863],[-122.346789,47.577855],[-122.346825,47.57781],[-122.346824,47.577633],[-122.346779,47.577598],[-122.346695,47.577593],[-122.346696,47.577504],[-122.346806,47.577488],[-122.34683,47.577414],[-122.346961,47.577415],[-122.346959,47.577506]]]}},{"type":"Feature","properties":{"id":55,"area_m2":700,"px":7,"rank":29},"geometry":{"type":"Polygon","coordinates":[[[-122.348053,47.575352],[-122.348049,47.575622],[-122.34784,47.575623],[-122.347789,47.575653],[-122.347782,47.57571],[-122.347649,47.575709],[-122.347652,47.575529],[-122.347761,47.575514],[-122.347786,47.57544],[-122.347905,47.575417],[-122.34792,47.575351],[-122.348053,47.575352]]]}},{"type":"Feature","properties":{"id":62,"area_m2":700,"px":7,"rank":30},"geometry":{"type":"Polygon","coordinates":[[[-122.353375,47.575022],[-122.353373,47.575202],[-122.353264,47.575217],[-122.353239,47.575291],[-122.353106,47.57529],[-122.353084,47.575216],[-122.352975,47.5752],[-122.352977,47.57502],[-122.353375,47.575022]]]}},{"type":"Feature","properties":{"id":66,"area_m2":700,"px":7,"rank":31},"geometry":{"type":"Polygon","coordinates":[[[-122.350055,47.574733],[-122.350051,47.575003],[-122.349942,47.575018],[-122.349917,47.575092],[-122.349785,47.575092],[-122.349789,47.574732],[-122.350055,47.574733]]]}},{"type":"Feature","properties":{"id":69,"area_m2":700,"px":7,"rank":32},"geometry":{"type":"Polygon","coordinates":[[[-122.348997,47.574277],[-122.348996,47.574367],[-122.348807,47.574352],[-122.348743,47.574377],[-122.348727,47.574546],[-122.348595,47.574545],[-122.348598,47.574275],[-122.348634,47.574233],[-122.348599,47.574185],[-122.348601,47.574005],[-122.348734,47.574006],[-122.348746,47.574162],[-122.348865,47.574187],[-122.348899,47.574268],[-122.348997,47.574277]]]}},{"type":"Feature","properties":{"id":75,"area_m2":700,"px":7,"rank":33},"geometry":{"type":"Polygon","coordinates":[[[-122.348608,47.573465],[-122.348606,47.573645],[-122.348508,47.573654],[-122.348472,47.573698],[-122.348484,47.573801],[-122.348603,47.573825],[-122.348602,47.573915],[-122.348469,47.573914],[-122.348407,47.57389],[-122.348336,47.573914],[-122.348204,47.573913],[-122.348205,47.573823],[-122.348295,47.573817],[-122.348337,47.57378],[-122.348341,47.573554],[-122.348451,47.573539],[-122.348475,47.573465],[-122.348608,47.573465]]]}},{"type":"Feature","properties":{"id":5,"area_m2":600,"px":6,"rank":34},"geometry":{"type":"Polygon","coordinates":[[[-122.348567,47.587502],[-122.348563,47.587772],[-122.348431,47.587771],[-122.348368,47.587747],[-122.348297,47.58777],[-122.348165,47.587769],[-122.348166,47.58768],[-122.348249,47.587676],[-122.348296,47.587642],[-122.348301,47.5875],[-122.348567,47.587502]]]}},{"type":"Feature","properties":{"id":37,"area_m2":600,"px":6,"rank":35},"geometry":{"type":"Polygon","coordinates":[[[-122.349073,47.578867],[-122.349069,47.579137],[-122.348671,47.579134],[-122.348672,47.579044],[-122.348782,47.579029],[-122.348806,47.578955],[-122.348926,47.578932],[-122.34894,47.578866],[-122.349073,47.578867]]]}},{"type":"Feature","properties":{"id":47,"area_m2":600,"px":6,"rank":36},"geometry":{"type":"Polygon","coordinates":[[[-122.348026,47.577511],[-122.348025,47.577601],[-122.347493,47.577598],[-122.347495,47.577418],[-122.347761,47.57742],[-122.347764,47.577471],[-122.347802,47.577503],[-122.348026,47.577511]]]}},{"type":"Feature","properties":{"id":51,"area_m2":600,"px":6,"rank":37},"geometry":{"type":"Polygon","coordinates":[[[-122.35137,47.57591],[-122.351369,47.576],[-122.351259,47.576016],[-122.351235,47.57609],[-122.351115,47.576113],[-122.351101,47.576179],[-122.350968,47.576178],[-122.350969,47.576088],[-122.35106,47.576082],[-122.351101,47.576045],[-122.351106,47.575729],[-122.351239,47.57573],[-122.351247,47.575881],[-122.351294,47.575908],[-122.35137,47.57591]]]}},{"type":"Feature","properties":{"id":54,"area_m2":600,"px":6,"rank":38},"geometry":{"type":"Polygon","coordinates":[[[-122.353103,47.57556],[-122.3531,47.57583],[-122.352967,47.575829],[-122.352944,47.575755],[-122.352835,47.575739],[-122.352833,47.575597],[-122.352788,47.575563],[-122.352704,47.575558],[-122.352705,47.575468],[-122.352838,47.575469],[-122.352844,47.575525],[-122.352894,47.575557],[-122.353103,47.57556]]]}},{"type":"Feature","properties":{"id":59,"area_m2":600,"px":6,"rank":39},"geometry":{"type":"Polygon","coordinates":[[[-122.350447,47.575275],[-122.350446,47.575365],[-122.350336,47.57538],[-122.350312,47.575454],[-122.350192,47.575478],[-122.350178,47.575544],[-122.350045,47.575543],[-122.350022,47.575469],[-122.349913,47.575452],[-122.349914,47.575362],[-122.350138,47.575357],[-122.350177,47.575325],[-122.350181,47.575274],[-122.350447,47.575275]]]}},{"type":"Feature","properties":{"id":60,"area_m2":600,"px":6,"rank":40},"geometry":{"type":"Polygon","coordinates":[[[-122.348586,47.575265],[-122.348582,47.575535],[-122.348316,47.575533],[-122.34832,47.575263],[-122.348586,47.575265]]]}},{"type":"Feature","properties":{"id":63,"area_m2":600,"px":6,"rank":41},"geometry":{"type":"Polygon","coordinates":[[[-122.352842,47.575109],[-122.35284,47.575289],[-122.352442,47.575287],[-122.352444,47.575107],[-122.352842,47.575109]]]}},{"type":"Feature","properties":{"id":72,"area_m2":600,"px":6,"rank":42},"geometry":{"type":"Polygon","coordinates":[[[-122.347268,47.574268],[-122.347267,47.574357],[-122.347157,47.574373],[-122.347133,47.574447],[-122.346867,47.574445],[-122.34687,47.574265],[-122.346979,47.57425],[-122.347004,47.574176],[-122.347136,47.574177],[-122.347159,47.574251],[-122.347268,47.574268]]]}},{"type":"Feature","properties":{"id":76,"area_m2":600,"px":6,"rank":43},"geometry":{"type":"Polygon","coordinates":[[[-122.348075,47.573552],[-122.34807,47.573912],[-122.347938,47.573911],[-122.34793,47.57376],[-122.347883,47.573733],[-122.347807,47.573731],[-122.347809,47.573551],[-122.348075,47.573552]]]}},{"type":"Feature","properties":{"id":82,"area_m2":600,"px":6,"rank":44},"geometry":{"type":"Polygon","coordinates":[[[-122.350606,47.573207],[-122.350604,47.573297],[-122.350381,47.573302],[-122.350342,47.573334],[-122.350337,47.573385],[-122.349939,47.573383],[-122.34994,47.573293],[-122.350315,47.573279],[-122.350341,47.573115],[-122.350474,47.573116],[-122.350496,47.57319],[-122.350606,47.573207]]]}},{"type":"Feature","properties":{"id":2,"area_m2":500,"px":5,"rank":45},"geometry":{"type":"Polygon","coordinates":[[[-122.348551,47.588761],[-122.34855,47.588851],[-122.34844,47.588867],[-122.348416,47.588941],[-122.348283,47.58894],[-122.34826,47.588866],[-122.348151,47.588849],[-122.348152,47.588759],[-122.348262,47.588744],[-122.348286,47.58867],[-122.348419,47.588671],[-122.348442,47.588745],[-122.348551,47.588761]]]}},{"type":"Feature","properties":{"id":7,"area_m2":500,"px":5,"rank":46},"geometry":{"type":"Polygon","coordinates":[[[-122.347371,47.587405],[-122.347369,47.587585],[-122.347103,47.587583],[-122.347106,47.587314],[-122.347239,47.587314],[-122.347262,47.587389],[-122.347371,47.587405]]]}},{"type":"Feature","properties":{"id":13,"area_m2":500,"px":5,"rank":47},"geometry":{"type":"Polygon","coordinates":[[[-122.34739,47.585876],[-122.347389,47.585965],[-122.347298,47.585971],[-122.347257,47.586008],[-122.347252,47.586235],[-122.34712,47.586234],[-122.347124,47.585874],[-122.34739,47.585876]]]}},{"type":"Feature","properties":{"id":23,"area_m2":500,"px":5,"rank":48},"geometry":{"type":"Polygon","coordinates":[[[-122.347306,47.581916],[-122.347302,47.582276],[-122.347036,47.582274],[-122.347037,47.582184],[-122.347128,47.582178],[-122.347169,47.582142],[-122.347173,47.581915],[-122.347306,47.581916]]]}},{"type":"Feature","properties":{"id":38,"area_m2":500,"px":5,"rank":49},"geometry":{"type":"Polygon","coordinates":[[[-122.354528,47.578628],[-122.354525,47.578897],[-122.354415,47.578913],[-122.35439,47.578987],[-122.354258,47.578986],[-122.354259,47.578896],[-122.354356,47.578887],[-122.354392,47.578843],[-122.354391,47.578665],[-122.354346,47.578631],[-122.354262,47.578626],[-122.354263,47.578536],[-122.354396,47.578537],[-122.354419,47.578611],[-122.354528,47.578628]]]}},{"type":"Feature","properties":{"id":40,"area_m2":500,"px":5,"rank":50},"geometry":{"type":"Polygon","coordinates":[[[-122.349208,47.578688],[-122.349207,47.578777],[-122.349074,47.578777],[-122.349061,47.578711],[-122.348995,47.578686],[-122.348844,47.578695],[-122.348808,47.578775],[-122.348675,47.578774],[-122.348676,47.578685],[-122.348786,47.578669],[-122.34881,47.578595],[-122.34893,47.578572],[-122.348944,47.578506],[-122.349077,47.578507],[-122.349085,47.578658],[-122.349132,47.578685],[-122.349208,47.578688]]]}},{"type":"Feature","properties":{"id":48,"area_m2":500,"px":5,"rank":51},"geometry":{"type":"Polygon","coordinates":[[[-122.348701,47.576705],[-122.348697,47.576975],[-122.348432,47.576973],[-122.348434,47.576794],[-122.348543,47.576778],[-122.348568,47.576704],[-122.348701,47.576705]]]}},{"type":"Feature","properties":{"id":52,"area_m2":500,"px":5,"rank":52},"geometry":{"type":"Polygon","coordinates":[[[-122.350307,47.575814],[-122.350306,47.575904],[-122.350082,47.575909],[-122.350043,47.575941],[-122.350039,47.575993],[-122.349906,47.575992],[-122.349884,47.575918],[-122.349775,47.575901],[-122.349776,47.575811],[-122.350307,47.575814]]]}},{"type":"Feature","properties":{"id":64,"area_m2":500,"px":5,"rank":53},"geometry":{"type":"Polygon","coordinates":[[[-122.347923,47.575081],[-122.347922,47.575171],[-122.347812,47.575186],[-122.347788,47.57526],[-122.347522,47.575259],[-122.347524,47.575079],[-122.347923,47.575081]]]}},{"type":"Feature","properties":{"id":67,"area_m2":500,"px":5,"rank":54},"geometry":{"type":"Polygon","coordinates":[[[-122.346598,47.574714],[-122.346597,47.574804],[-122.346464,47.574803],[-122.346451,47.574737],[-122.346385,47.574712],[-122.346234,47.574721],[-122.346198,47.574801],[-122.346065,47.5748],[-122.346067,47.574621],[-122.346466,47.574623],[-122.346489,47.574697],[-122.346598,47.574714]]]}},{"type":"Feature","properties":{"id":71,"area_m2":500,"px":5,"rank":55},"geometry":{"type":"Polygon","coordinates":[[[-122.346738,47.574175],[-122.346734,47.574444],[-122.346624,47.57446],[-122.3466,47.574534],[-122.346467,47.574533],[-122.34647,47.574353],[-122.346546,47.574351],[-122.346593,47.574325],[-122.346605,47.574174],[-122.346738,47.574175]]]}},{"type":"Feature","properties":{"id":79,"area_m2":500,"px":5,"rank":56},"geometry":{"type":"Polygon","coordinates":[[[-122.352729,47.573489],[-122.352727,47.573669],[-122.352329,47.573666],[-122.35233,47.573576],[-122.352439,47.573561],[-122.352464,47.573487],[-122.352729,47.573489]]]}},{"type":"Feature","properties":{"id":4,"area_m2":400,"px":4,"rank":57},"geometry":{"type":"Polygon","coordinates":[[[-122.347226,47.588394],[-122.347223,47.588574],[-122.346958,47.588572],[-122.34696,47.588393],[-122.347226,47.588394]]]}},{"type":"Feature","properties":{"id":17,"area_m2":400,"px":4,"rank":58},"geometry":{"type":"Polygon","coordinates":[[[-122.34767,47.584707],[-122.347668,47.584887],[-122.347558,47.584903],[-122.347534,47.584976],[-122.347401,47.584976],[-122.347404,47.584796],[-122.347513,47.584781],[-122.347538,47.584707],[-122.34767,47.584707]]]}},{"type":"Feature","properties":{"id":20,"area_m2":400,"px":4,"rank":59},"geometry":{"type":"Polygon","coordinates":[[[-122.346234,47.58254],[-122.346232,47.58272],[-122.346156,47.582722],[-122.346108,47.582747],[-122.346097,47.582899],[-122.345964,47.582898],[-122.345966,47.582718],[-122.346043,47.582716],[-122.34609,47.58269],[-122.346102,47.582539],[-122.346234,47.58254]]]}},{"type":"Feature","properties":{"id":21,"area_m2":400,"px":4,"rank":60},"geometry":{"type":"Polygon","coordinates":[[[-122.347299,47.582456],[-122.347297,47.582636],[-122.347031,47.582634],[-122.347034,47.582454],[-122.347299,47.582456]]]}},{"type":"Feature","properties":{"id":30,"area_m2":400,"px":4,"rank":61},"geometry":{"type":"Polygon","coordinates":[[[-122.34853,47.579763],[-122.348525,47.580123],[-122.348392,47.580122],[-122.348397,47.579763],[-122.34853,47.579763]]]}},{"type":"Feature","properties":{"id":34,"area_m2":400,"px":4,"rank":62},"geometry":{"type":"Polygon","coordinates":[[[-122.352789,47.579428],[-122.352788,47.579518],[-122.352522,47.579516],[-122.352526,47.579246],[-122.352658,47.579247],[-122.352666,47.579398],[-122.352713,47.579425],[-122.352789,47.579428]]]}},{"type":"Feature","properties":{"id":35,"area_m2":400,"px":4,"rank":63},"geometry":{"type":"Polygon","coordinates":[[[-122.34681,47.579034],[-122.346808,47.579214],[-122.346698,47.579229],[-122.346674,47.579303],[-122.346541,47.579302],[-122.346543,47.579122],[-122.346653,47.579107],[-122.346677,47.579033],[-122.34681,47.579034]]]}},{"type":"Feature","properties":{"id":39,"area_m2":400,"px":4,"rank":64},"geometry":{"type":"Polygon","coordinates":[[[-122.347215,47.578586],[-122.34721,47.578946],[-122.347077,47.578945],[-122.347082,47.578586],[-122.347215,47.578586]]]}},{"type":"Feature","properties":{"id":43,"area_m2":400,"px":4,"rank":65},"geometry":{"type":"Polygon","coordinates":[[[-122.349216,47.578058],[-122.349211,47.578418],[-122.349079,47.578417],[-122.349083,47.578057],[-122.349216,47.578058]]]}},{"type":"Feature","properties":{"id":49,"area_m2":400,"px":4,"rank":66},"geometry":{"type":"Polygon","coordinates":[[[-122.34817,47.576612],[-122.348168,47.576792],[-122.348058,47.576807],[-122.348034,47.576881],[-122.347901,47.57688],[-122.347903,47.576701],[-122.348013,47.576685],[-122.348037,47.576611],[-122.34817,47.576612]]]}},{"type":"Feature","properties":{"id":61,"area_m2":400,"px":4,"rank":67},"geometry":{"type":"Polygon","coordinates":[[[-122.34925,47.575269],[-122.349248,47.575448],[-122.348982,47.575447],[-122.348985,47.575267],[-122.34925,47.575269]]]}},{"type":"Feature","properties":{"id":73,"area_m2":400,"px":4,"rank":68},"geometry":{"type":"Polygon","coordinates":[[[-122.347406,47.573908],[-122.347403,47.574088],[-122.347138,47.574087],[-122.34714,47.573907],[-122.347406,47.573908]]]}},{"type":"Feature","properties":{"id":74,"area_m2":400,"px":4,"rank":69},"geometry":{"type":"Polygon","coordinates":[[[-122.353255,47.573763],[-122.353222,47.573809],[-122.353257,47.573852],[-122.353255,47.574031],[-122.353122,47.574031],[-122.35312,47.573889],[-122.353075,47.573855],[-122.352991,47.57385],[-122.352992,47.57376],[-122.353102,47.573745],[-122.353126,47.573671],[-122.353257,47.573672],[-122.353255,47.573763]]]}},{"type":"Feature","properties":{"id":81,"area_m2":400,"px":4,"rank":70},"geometry":{"type":"Polygon","coordinates":[[[-122.351005,47.573119],[-122.351002,47.573389],[-122.350869,47.573388],[-122.350847,47.573314],[-122.350738,47.573297],[-122.350739,47.573208],[-122.350848,47.573192],[-122.350873,47.573118],[-122.351005,47.573119]]]}},{"type":"Feature","properties":{"id":83,"area_m2":400,"px":4,"rank":71},"geometry":{"type":"Polygon","coordinates":[[[-122.347556,47.57247],[-122.347552,47.572829],[-122.347419,47.572829],[-122.347424,47.572469],[-122.347556,47.57247]]]}},{"type":"Feature","properties":{"id":10,"area_m2":300,"px":3,"rank":72},"geometry":{"type":"Polygon","coordinates":[[[-122.349909,47.58652],[-122.349908,47.58661],[-122.349509,47.586607],[-122.34951,47.586517],[-122.349909,47.58652]]]}},{"type":"Feature","properties":{"id":12,"area_m2":300,"px":3,"rank":73},"geometry":{"type":"Polygon","coordinates":[[[-122.346852,47.586322],[-122.346851,47.586412],[-122.346585,47.586411],[-122.346588,47.586231],[-122.346721,47.586232],[-122.346743,47.586306],[-122.346852,47.586322]]]}},{"type":"Feature","properties":{"id":24,"area_m2":300,"px":3,"rank":74},"geometry":{"type":"Polygon","coordinates":[[[-122.349304,47.581657],[-122.349301,47.581927],[-122.349168,47.581926],[-122.349171,47.581657],[-122.349304,47.581657]]]}},{"type":"Feature","properties":{"id":28,"area_m2":300,"px":3,"rank":75},"geometry":{"type":"Polygon","coordinates":[[[-122.348517,47.580753],[-122.348514,47.581023],[-122.348381,47.581022],[-122.348385,47.580752],[-122.348517,47.580753]]]}},{"type":"Feature","properties":{"id":31,"area_m2":300,"px":3,"rank":76},"geometry":{"type":"Polygon","coordinates":[[[-122.350924,47.579687],[-122.350921,47.579957],[-122.350788,47.579956],[-122.350792,47.579686],[-122.350924,47.579687]]]}},{"type":"Feature","properties":{"id":33,"area_m2":300,"px":3,"rank":77},"geometry":{"type":"Polygon","coordinates":[[[-122.351724,47.579512],[-122.351722,47.579691],[-122.351456,47.57969],[-122.351458,47.5796],[-122.351567,47.579585],[-122.351592,47.579511],[-122.351724,47.579512]]]}},{"type":"Feature","properties":{"id":42,"area_m2":300,"px":3,"rank":78},"geometry":{"type":"Polygon","coordinates":[[[-122.346154,47.57831],[-122.346151,47.57858],[-122.346018,47.578579],[-122.346021,47.57831],[-122.346154,47.57831]]]}},{"type":"Feature","properties":{"id":44,"area_m2":300,"px":3,"rank":79},"geometry":{"type":"Polygon","coordinates":[[[-122.352805,47.578168],[-122.352804,47.578258],[-122.352538,47.578256],[-122.35254,47.578077],[-122.352673,47.578077],[-122.352695,47.578152],[-122.352805,47.578168]]]}},{"type":"Feature","properties":{"id":53,"area_m2":300,"px":3,"rank":80},"geometry":{"type":"Polygon","coordinates":[[[-122.348579,47.575805],[-122.348577,47.575984],[-122.348444,47.575984],[-122.348421,47.57591],[-122.348312,47.575893],[-122.348313,47.575803],[-122.348579,47.575805]]]}},{"type":"Feature","properties":{"id":57,"area_m2":300,"px":3,"rank":81},"geometry":{"type":"Polygon","coordinates":[[[-122.352305,47.575556],[-122.352304,47.575646],[-122.352038,47.575644],[-122.35204,47.575464],[-122.352173,47.575465],[-122.352196,47.575539],[-122.352305,47.575556]]]}},{"type":"Feature","properties":{"id":58,"area_m2":300,"px":3,"rank":82},"geometry":{"type":"Polygon","coordinates":[[[-122.350845,47.575368],[-122.350841,47.575637],[-122.350709,47.575637],[-122.350712,47.575367],[-122.350845,47.575368]]]}},{"type":"Feature","properties":{"id":68,"area_m2":300,"px":3,"rank":83},"geometry":{"type":"Polygon","coordinates":[[[-122.352981,47.57466],[-122.35298,47.57475],[-122.352849,47.574749],[-122.352825,47.574675],[-122.352715,47.574658],[-122.352717,47.574478],[-122.35285,47.574479],[-122.352858,47.574631],[-122.352905,47.574657],[-122.352981,47.57466]]]}}]}