{"type":"FeatureCollection","features":[{"type":"Feature","properties":{"id":23,"area_m2":2200,"px":22,"rank":1},"geometry":{"type":"Polygon","coordinates":[[[-122.347885,47.57814],[-122.347884,47.57823],[-122.347682,47.57823],[-122.347619,47.578272],[-122.34763,47.578385],[-122.347749,47.578409],[-122.347741,47.579038],[-122.347608,47.579038],[-122.347586,47.578964],[-122.347476,47.578948],[-122.34748,47.578678],[-122.347516,47.578635],[-122.347481,47.578586],[-122.34749,47.577868],[-122.347622,47.577869],[-122.347645,47.577943],[-122.347754,47.577959],[-122.347762,47.578111],[-122.347809,47.578137],[-122.347885,47.57814]]]}},{"type":"Feature","properties":{"id":39,"area_m2":1800,"px":18,"rank":2},"geometry":{"type":"Polygon","coordinates":[[[-122.34872,47.575176],[-122.348717,47.575355],[-122.34862,47.575357],[-122.348572,47.575384],[-122.348582,47.575535],[-122.348546,47.575577],[-122.348598,47.575695],[-122.348713,47.575715],[-122.348712,47.575805],[-122.348602,47.575821],[-122.348578,47.575895],[-122.348312,47.575893],[-122.348321,47.575173],[-122.348431,47.575158],[-122.348457,47.575084],[-122.348588,47.575085],[-122.34861,47.575159],[-122.34872,47.575176]]]}},{"type":"Feature","properties":{"id":12,"area_m2":1300,"px":13,"rank":3},"geometry":{"type":"Polygon","coordinates":[[[-122.348111,47.581381],[-122.34811,47.581471],[-122.348012,47.581479],[-122.347975,47.58156],[-122.347899,47.581562],[-122.347852,47.581588],[-122.34784,47.581739],[-122.347442,47.581737],[-122.347443,47.581647],[-122.347533,47.581641],[-122.347575,47.581604],[-122.34758,47.581288],[-122.347846,47.581289],[-122.347851,47.581359],[-122.347907,47.581392],[-122.348111,47.581381]]]}},{"type":"Feature","properties":{"id":2,"area_m2":1200,"px":12,"rank":4},"geometry":{"type":"Polygon","coordinates":[[[-122.347896,47.587769],[-122.347862,47.587815],[-122.347897,47.587858],[-122.347896,47.587948],[-122.347786,47.587963],[-122.347762,47.588037],[-122.347629,47.588036],[-122.347607,47.587962],[-122.347497,47.587946],[-122.3475,47.587766],[-122.347536,47.587723],[-122.347501,47.587676],[-122.347503,47.587496],[-122.347636,47.587497],[-122.347641,47.587553],[-122.347691,47.587584],[-122.347901,47.587588],[-122.347896,47.587769]]]}},{"type":"Feature","properties":{"id":32,"area_m2":1200,"px":12,"rank":5},"geometry":{"type":"Polygon","coordinates":[[[-122.353091,47.57655],[-122.35309,47.57664],[-122.352866,47.576645],[-122.352827,47.576677],[-122.352823,47.576728],[-122.35269,47.576728],[-122.352661,47.57665],[-122.352495,47.576612],[-122.352321,47.576648],[-122.352291,47.576725],[-122.352158,47.576725],[-122.352159,47.576635],[-122.352269,47.57662],[-122.352293,47.576546],[-122.352413,47.576522],[-122.352427,47.576456],[-122.352769,47.576456],[-122.35282,47.576425],[-122.352827,47.576369],[-122.35296,47.576369],[-122.352968,47.576521],[-122.353014,47.576547],[-122.353091,47.57655]]]}},{"type":"Feature","properties":{"id":43,"area_m2":1200,"px":12,"rank":6},"geometry":{"type":"Polygon","coordinates":[[[-122.352707,47.575288],[-122.352706,47.575378],[-122.352596,47.575393],[-122.352572,47.575467],[-122.352452,47.575491],[-122.352438,47.575556],[-122.352172,47.575555],[-122.352177,47.575195],[-122.352575,47.575197],[-122.352598,47.575272],[-122.352707,47.575288]]]}},{"type":"Feature","properties":{"id":4,"area_m2":1100,"px":11,"rank":7},"geometry":{"type":"Polygon","coordinates":[[[-122.346975,47.587133],[-122.346974,47.587223],[-122.346708,47.587221],[-122.34672,47.586322],[-122.346852,47.586322],[-122.346843,47.587083],[-122.346885,47.587126],[-122.346975,47.587133]]]}},{"type":"Feature","properties":{"id":47,"area_m2":1100,"px":11,"rank":8},"geometry":{"type":"Polygon","coordinates":[[[-122.353644,47.574844],[-122.353642,47.574933],[-122.353533,47.574949],[-122.353508,47.575023],[-122.353376,47.575022],[-122.353313,47.574997],[-122.353242,47.575021],[-122.352844,47.575019],[-122.352845,47.574929],[-122.352955,47.574914],[-122.352979,47.57484],[-122.353203,47.574835],[-122.353242,47.574803],[-122.353246,47.574751],[-122.353512,47.574753],[-122.353534,47.574827],[-122.353644,47.574844]]]}},{"type":"Feature","properties":{"id":10,"area_m2":1000,"px":10,"rank":9},"geometry":{"type":"Polygon","coordinates":[[[-122.347831,47.582459],[-122.347826,47.582909],[-122.34756,47.582907],[-122.347577,47.582762],[-122.347526,47.582729],[-122.347429,47.582726],[-122.34743,47.582637],[-122.347507,47.582635],[-122.347554,47.582609],[-122.347566,47.582457],[-122.347831,47.582459]]]}},{"type":"Feature","properties":{"id":22,"area_m2":1000,"px":10,"rank":10},"geometry":{"type":"Polygon","coordinates":[[[-122.353597,47.578622],[-122.353592,47.579072],[-122.353459,47.579071],[-122.353436,47.578997],[-122.353327,47.578981],[-122.353292,47.5789],[-122.353195,47.57889],[-122.353196,47.5788],[-122.353272,47.578798],[-122.35332,47.578772],[-122.353331,47.578621],[-122.353597,47.578622]]]}},{"type":"Feature","properties":{"id":17,"area_m2":900,"px":9,"rank":11},"geometry":{"type":"Polygon","coordinates":[[[-122.349061,47.579588],[-122.349028,47.579634],[-122.349063,47.579676],[-122.349062,47.579766],[-122.348929,47.579766],[-122.348866,47.579741],[-122.348796,47.579765],[-122.348663,47.579764],[-122.348664,47.579674],[-122.348748,47.579671],[-122.348791,47.579642],[-122.348793,47.579528],[-122.348735,47.579496],[-122.348533,47.579493],[-122.348511,47.579419],[-122.348401,47.579403],[-122.348403,47.579313],[-122.348535,47.579314],[-122.348544,47.579375],[-122.348599,47.579403],[-122.3488,47.579405],[-122.348863,47.579429],[-122.348933,47.579406],[-122.349066,47.579407],[-122.349061,47.579588]]]}},{"type":"Feature","properties":{"id":21,"area_m2":800,"px":8,"rank":12},"geometry":{"type":"Polygon","coordinates":[[[-122.349207,47.578778],[-122.349206,47.578867],[-122.349012,47.578867],[-122.348958,47.578886],[-122.348938,47.579046],[-122.348828,47.579061],[-122.348803,47.579135],[-122.348684,47.579158],[-122.348669,47.579224],[-122.348404,47.579223],[-122.348381,47.579149],[-122.348272,47.579132],[-122.348275,47.579042],[-122.348406,47.579043],[-122.348411,47.5791],[-122.348461,47.579131],[-122.348629,47.579128],[-122.348668,47.579096],[-122.348672,47.579044],[-122.348748,47.579042],[-122.348796,47.579017],[-122.348807,47.578865],[-122.348917,47.57885],[-122.348941,47.578776],[-122.349207,47.578778]]]}},{"type":"Feature","properties":{"id":27,"area_m2":800,"px":8,"rank":13},"geometry":{"type":"Polygon","coordinates":[[[-122.346435,47.577142],[-122.346431,47.577412],[-122.34622,47.5774],[-122.346171,47.57743],[-122.346164,47.5775],[-122.346031,47.5775],[-122.346035,47.57723],[-122.346111,47.577228],[-122.346159,47.577202],[-122.34617,47.577051],[-122.346303,47.577051],[-122.346325,47.577126],[-122.346435,47.577142]]]}},{"type":"Feature","properties":{"id":35,"area_m2":800,"px":8,"rank":14},"geometry":{"type":"Polygon","coordinates":[[[-122.353494,47.576192],[-122.353492,47.576372],[-122.353283,47.576373],[-122.353232,47.576404],[-122.353225,47.576461],[-122.353092,47.57646],[-122.35309,47.576318],[-122.353045,47.576284],[-122.352961,47.576279],[-122.352962,47.576189],[-122.353494,47.576192]]]}},{"type":"Feature","properties":{"id":41,"area_m2":800,"px":8,"rank":15},"geometry":{"type":"Polygon","coordinates":[[[-122.350975,47.575548],[-122.350974,47.575638],[-122.350865,47.575653],[-122.35084,47.575727],[-122.350708,47.575727],[-122.350702,47.57567],[-122.350652,47.575639],[-122.350443,47.575635],[-122.350444,47.575545],[-122.350554,47.57553],[-122.350578,47.575456],[-122.350698,47.575433],[-122.350712,47.575367],[-122.350845,47.575368],[-122.350852,47.575519],[-122.350899,47.575546],[-122.350975,47.575548]]]}},{"type":"Feature","properties":{"id":52,"area_m2":800,"px":8,"rank":16},"geometry":{"type":"Polygon","coordinates":[[[-122.353918,47.574125],[-122.353915,47.574395],[-122.353649,47.574394],[-122.353627,47.574319],[-122.353517,47.574303],[-122.35352,47.574123],[-122.353918,47.574125]]]}},{"type":"Feature","properties":{"id":37,"area_m2":700,"px":7,"rank":17},"geometry":{"type":"Polygon","coordinates":[[[-122.354029,47.575925],[-122.354027,47.576105],[-122.353917,47.576121],[-122.353893,47.576195],[-122.353627,47.576193],[-122.353629,47.576013],[-122.353739,47.575998],[-122.353763,47.575924],[-122.354029,47.575925]]]}},{"type":"Feature","properties":{"id":3,"area_m2":600,"px":6,"rank":18},"geometry":{"type":"Polygon","coordinates":[[[-122.347645,47.586777],[-122.347639,47.587227],[-122.347373,47.587225],[-122.347374,47.587135],[-122.347465,47.587129],[-122.347506,47.587092],[-122.347512,47.586776],[-122.347645,47.586777]]]}},{"type":"Feature","properties":{"id":8,"area_m2":600,"px":6,"rank":19},"geometry":{"type":"Polygon","coordinates":[[[-122.346891,47.582995],[-122.346858,47.583041],[-122.346893,47.583083],[-122.346892,47.583173],[-122.346782,47.583188],[-122.346757,47.583262],[-122.346625,47.583262],[-122.346626,47.583172],[-122.346662,47.58313],[-122.346627,47.583082],[-122.346629,47.582902],[-122.346739,47.582887],[-122.346763,47.582813],[-122.346896,47.582813],[-122.346891,47.582995]]]}},{"type":"Feature","properties":{"id":14,"area_m2":600,"px":6,"rank":20},"geometry":{"type":"Polygon","coordinates":[[[-122.34878,47.581025],[-122.348779,47.581114],[-122.34838,47.581112],[-122.348385,47.580752],[-122.348517,47.580753],[-122.348538,47.581007],[-122.34878,47.581025]]]}},{"type":"Feature","properties":{"id":19,"area_m2":600,"px":6,"rank":21},"geometry":{"type":"Polygon","coordinates":[[[-122.347873,47.57913],[-122.34787,47.57931],[-122.34764,47.579318],[-122.347604,47.579357],[-122.347602,47.579488],[-122.347469,47.579487],[-122.347472,47.579308],[-122.347548,47.579306],[-122.347596,47.57928],[-122.347607,47.579128],[-122.347873,47.57913]]]}},{"type":"Feature","properties":{"id":28,"area_m2":600,"px":6,"rank":22},"geometry":{"type":"Polygon","coordinates":[[[-122.348032,47.576971],[-122.34803,47.577151],[-122.347954,47.577153],[-122.347906,47.577179],[-122.347895,47.57733],[-122.347762,47.57733],[-122.347767,47.57697],[-122.348032,47.576971]]]}},{"type":"Feature","properties":{"id":29,"area_m2":600,"px":6,"rank":23},"geometry":{"type":"Polygon","coordinates":[[[-122.346837,47.576875],[-122.346832,47.577234],[-122.3467,47.577234],[-122.346688,47.577078],[-122.34663,47.577053],[-122.346436,47.577052],[-122.346437,47.576962],[-122.346646,47.576961],[-122.346697,47.57693],[-122.346704,47.576874],[-122.346837,47.576875]]]}},{"type":"Feature","properties":{"id":33,"area_m2":600,"px":6,"rank":24},"geometry":{"type":"Polygon","coordinates":[[[-122.348572,47.576345],[-122.348569,47.576614],[-122.348303,47.576613],[-122.348306,47.576343],[-122.348572,47.576345]]]}},{"type":"Feature","properties":{"id":42,"area_m2":600,"px":6,"rank":25},"geometry":{"type":"Polygon","coordinates":[[[-122.346852,47.575436],[-122.346819,47.575482],[-122.346854,47.575525],[-122.346853,47.575615],[-122.346587,47.575613],[-122.346564,47.575539],[-122.346455,47.575523],[-122.346456,47.575433],[-122.346566,47.575417],[-122.34659,47.575343],[-122.34671,47.57532],[-122.346724,47.575254],[-122.346857,47.575255],[-122.346852,47.575436]]]}},{"type":"Feature","properties":{"id":44,"area_m2":600,"px":6,"rank":26},"geometry":{"type":"Polygon","coordinates":[[[-122.351246,47.57519],[-122.351243,47.57546],[-122.350977,47.575458],[-122.35098,47.575188],[-122.351246,47.57519]]]}},{"type":"Feature","properties":{"id":45,"area_m2":600,"px":6,"rank":27},"geometry":{"type":"Polygon","coordinates":[[[-122.348187,47.575263],[-122.348186,47.575352],[-122.348076,47.575368],[-122.348051,47.575442],[-122.347786,47.57544],[-122.347789,47.57517],[-122.347922,47.575171],[-122.347927,47.575228],[-122.347977,47.575259],[-122.348187,47.575263]]]}},{"type":"Feature","properties":{"id":48,"area_m2":600,"px":6,"rank":28},"geometry":{"type":"Polygon","coordinates":[[[-122.352582,47.574658],[-122.352581,47.574747],[-122.352471,47.574763],[-122.352447,47.574837],[-122.352349,47.574845],[-122.352313,47.574926],[-122.352198,47.574945],[-122.352179,47.575015],[-122.352046,47.575014],[-122.352048,47.574835],[-122.352291,47.57482],[-122.352316,47.574656],[-122.352582,47.574658]]]}},{"type":"Feature","properties":{"id":13,"area_m2":500,"px":5,"rank":29},"geometry":{"type":"Polygon","coordinates":[[[-122.347851,47.580839],[-122.347847,47.581199],[-122.347714,47.581198],[-122.347712,47.581057],[-122.347667,47.581022],[-122.347583,47.581018],[-122.347585,47.580928],[-122.347694,47.580913],[-122.347719,47.580839],[-122.347851,47.580839]]]}},{"type":"Feature","properties":{"id":15,"area_m2":500,"px":5,"rank":30},"geometry":{"type":"Polygon","coordinates":[[[-122.346925,47.580474],[-122.346923,47.580654],[-122.346813,47.580669],[-122.346789,47.580743],[-122.346656,47.580742],[-122.346658,47.580563],[-122.346694,47.58052],[-122.346659,47.580473],[-122.34666,47.580383],[-122.346793,47.580383],[-122.346816,47.580458],[-122.346925,47.580474]]]}},{"type":"Feature","properties":{"id":30,"area_m2":500,"px":5,"rank":31},"geometry":{"type":"Polygon","coordinates":[[[-122.3487,47.576795],[-122.348697,47.576975],[-122.348432,47.576973],[-122.348435,47.576704],[-122.348568,47.576704],[-122.34859,47.576779],[-122.3487,47.576795]]]}},{"type":"Feature","properties":{"id":40,"area_m2":500,"px":5,"rank":32},"geometry":{"type":"Polygon","coordinates":[[[-122.353235,47.575651],[-122.353234,47.575741],[-122.353124,47.575756],[-122.3531,47.57583],[-122.352967,47.575829],[-122.352959,47.575678],[-122.352912,47.575652],[-122.352836,47.575649],[-122.352838,47.575469],[-122.352971,47.57547],[-122.35297,47.575601],[-122.353004,47.575641],[-122.353235,47.575651]]]}},{"type":"Feature","properties":{"id":6,"area_m2":400,"px":4,"rank":33},"geometry":{"type":"Polygon","coordinates":[[[-122.347921,47.585969],[-122.34792,47.586058],[-122.34781,47.586074],[-122.347786,47.586148],[-122.347653,47.586147],[-122.34763,47.586073],[-122.347521,47.586056],[-122.347522,47.585966],[-122.347921,47.585969]]]}},{"type":"Feature","properties":{"id":7,"area_m2":400,"px":4,"rank":34},"geometry":{"type":"Polygon","coordinates":[[[-122.347258,47.585785],[-122.347256,47.585965],[-122.347146,47.58598],[-122.347122,47.586054],[-122.346989,47.586053],[-122.346991,47.585873],[-122.347101,47.585858],[-122.347125,47.585784],[-122.347258,47.585785]]]}},{"type":"Feature","properties":{"id":9,"area_m2":400,"px":4,"rank":35},"geometry":{"type":"Polygon","coordinates":[[[-122.347426,47.582996],[-122.347425,47.583086],[-122.347292,47.583086],[-122.347289,47.583034],[-122.347251,47.583002],[-122.347027,47.582994],[-122.347028,47.582904],[-122.347138,47.582889],[-122.347162,47.582815],[-122.347295,47.582816],[-122.347303,47.582967],[-122.347349,47.582994],[-122.347426,47.582996]]]}},{"type":"Feature","properties":{"id":11,"area_m2":400,"px":4,"rank":36},"geometry":{"type":"Polygon","coordinates":[[[-122.347298,47.582546],[-122.347297,47.582636],[-122.347187,47.582651],[-122.347163,47.582725],[-122.34703,47.582724],[-122.347034,47.582454],[-122.347166,47.582455],[-122.347189,47.582529],[-122.347298,47.582546]]]}},{"type":"Feature","properties":{"id":16,"area_m2":400,"px":4,"rank":37},"geometry":{"type":"Polygon","coordinates":[[[-122.347859,47.58021],[-122.347857,47.580389],[-122.347591,47.580388],[-122.347594,47.580208],[-122.347859,47.58021]]]}},{"type":"Feature","properties":{"id":20,"area_m2":400,"px":4,"rank":38},"geometry":{"type":"Polygon","coordinates":[[[-122.349202,47.579137],[-122.349201,47.579227],[-122.349092,47.579243],[-122.349067,47.579317],[-122.348801,47.579315],[-122.348803,47.579225],[-122.348912,47.57921],[-122.348937,47.579136],[-122.349202,47.579137]]]}},{"type":"Feature","properties":{"id":25,"area_m2":400,"px":4,"rank":39},"geometry":{"type":"Polygon","coordinates":[[[-122.34735,47.578407],[-122.347346,47.578677],[-122.347081,47.578675],[-122.347082,47.578586],[-122.347165,47.578582],[-122.347212,47.578548],[-122.347217,47.578406],[-122.34735,47.578407]]]}},{"type":"Feature","properties":{"id":31,"area_m2":400,"px":4,"rank":40},"geometry":{"type":"Polygon","coordinates":[[[-122.347771,47.57661],[-122.347768,47.57688],[-122.347635,47.576879],[-122.347612,47.576805],[-122.347503,47.576788],[-122.347504,47.576698],[-122.347614,47.576683],[-122.347638,47.576609],[-122.347771,47.57661]]]}},{"type":"Feature","properties":{"id":36,"area_m2":400,"px":4,"rank":41},"geometry":{"type":"Polygon","coordinates":[[[-122.346715,47.575974],[-122.346712,47.576244],[-122.346579,47.576243],[-122.346577,47.576101],[-122.346532,47.576067],[-122.346448,47.576062],[-122.346449,47.575973],[-122.346715,47.575974]]]}},{"type":"Feature","properties":{"id":38,"area_m2":400,"px":4,"rank":42},"geometry":{"type":"Polygon","coordinates":[[[-122.351238,47.57582],[-122.351235,47.57609],[-122.351102,47.576089],[-122.351079,47.576015],[-122.35097,47.575998],[-122.350971,47.575908],[-122.351081,47.575893],[-122.351105,47.575819],[-122.351238,47.57582]]]}},{"type":"Feature","properties":{"id":46,"area_m2":400,"px":4,"rank":43},"geometry":{"type":"Polygon","coordinates":[[[-122.354572,47.575029],[-122.35457,47.575209],[-122.354361,47.57521],[-122.35431,47.57524],[-122.354303,47.575297],[-122.35417,47.575296],[-122.354171,47.575206],[-122.354281,47.575191],[-122.354305,47.575117],[-122.354425,47.575094],[-122.354439,47.575028],[-122.354572,47.575029]]]}},{"type":"Feature","properties":{"id":49,"area_m2":400,"px":4,"rank":44},"geometry":{"type":"Polygon","coordinates":[[[-122.346866,47.574535],[-122.346864,47.574715],[-122.346598,47.574714],[-122.3466,47.574534],[-122.346866,47.574535]]]}},{"type":"Feature","properties":{"id":53,"area_m2":400,"px":4,"rank":45},"geometry":{"type":"Polygon","coordinates":[[[-122.348206,47.573733],[-122.348205,47.573823],[-122.347939,47.573821],[-122.347916,47.573747],[-122.347807,47.573731],[-122.347808,47.573641],[-122.348074,47.573642],[-122.348096,47.573717],[-122.348206,47.573733]]]}},{"type":"Feature","properties":{"id":1,"area_m2":300,"px":3,"rank":46},"geometry":{"type":"Polygon","coordinates":[[[-122.348818,47.588673],[-122.348816,47.588853],[-122.34855,47.588851],[-122.348551,47.588761],[-122.348661,47.588746],[-122.348685,47.588672],[-122.348818,47.588673]]]}},{"type":"Feature","properties":{"id":5,"area_m2":300,"px":3,"rank":47},"geometry":{"type":"Polygon","coordinates":[[[-122.348573,47.586962],[-122.348572,47.587052],[-122.348463,47.587067],[-122.348438,47.587141],[-122.348305,47.58714],[-122.348308,47.586961],[-122.348573,47.586962]]]}},{"type":"Feature","properties":{"id":18,"area_m2":300,"px":3,"rank":48},"geometry":{"type":"Polygon","coordinates":[[[-122.347868,47.57949],[-122.347867,47.57958],[-122.347783,47.579583],[-122.347737,47.579617],[-122.347732,47.579759],[-122.347599,47.579758],[-122.347601,47.579578],[-122.347711,47.579563],[-122.347735,47.579489],[-122.347868,47.57949]]]}},{"type":"Feature","properties":{"id":24,"area_m2":300,"px":3,"rank":49},"geometry":{"type":"Polygon","coordinates":[[[-122.349211,47.578418],[-122.34921,47.578508],[-122.349127,47.578511],[-122.34908,47.578545],[-122.349075,47.578687],[-122.348942,47.578686],[-122.348944,47.578506],[-122.349054,47.578491],[-122.349079,47.578417],[-122.349211,47.578418]]]}},{"type":"Feature","properties":{"id":26,"area_m2":300,"px":3,"rank":50},"geometry":{"type":"Polygon","coordinates":[[[-122.348679,47.578415],[-122.348678,47.578504],[-122.348546,47.578504],[-122.348543,47.578452],[-122.348504,47.57842],[-122.348281,47.578412],[-122.348282,47.578322],[-122.348548,47.578324],[-122.34857,47.578398],[-122.348679,47.578415]]]}},{"type":"Feature","properties":{"id":34,"area_m2":300,"px":3,"rank":51},"geometry":{"type":"Polygon","coordinates":[[[-122.34804,47.576341],[-122.348038,47.576521],[-122.347772,47.57652],[-122.347773,47.57643],[-122.347883,47.576415],[-122.347908,47.576341],[-122.34804,47.576341]]]}},{"type":"Feature","properties":{"id":50,"area_m2":300,"px":3,"rank":52},"geometry":{"type":"Polygon","coordinates":[[[-122.35418,47.574487],[-122.354178,47.574666],[-122.354045,47.574666],[-122.354022,47.574592],[-122.353913,47.574575],[-122.353914,47.574485],[-122.35418,47.574487]]]}},{"type":"Feature","properties":{"id":51,"area_m2":300,"px":3,"rank":53},"geometry":{"type":"Polygon","coordinates":[[[-122.351391,47.574201],[-122.35139,47.574291],[-122.351306,47.574295],[-122.35126,47.574328],[-122.351255,47.57447],[-122.351122,47.574469],[-122.351124,47.574289],[-122.351234,47.574274],[-122.351258,47.5742],[-122.351391,47.574201]]]}}]}