{"type":"FeatureCollection","features":[{"type":"Feature","properties":{"id":13,"area_m2":2500,"px":25,"rank":1},"geometry":{"type":"Polygon","coordinates":[[[-122.349168,47.581927],[-122.349151,47.583276],[-122.349018,47.583275],[-122.348996,47.583201],[-122.348886,47.583185],[-122.348889,47.583005],[-122.348986,47.582996],[-122.349022,47.582951],[-122.349018,47.582769],[-122.348976,47.582739],[-122.348892,47.582735],[-122.3489,47.582106],[-122.348936,47.582063],[-122.348901,47.582015],[-122.348902,47.581925],[-122.349168,47.581927]]]}},{"type":"Feature","properties":{"id":24,"area_m2":1800,"px":18,"rank":2},"geometry":{"type":"Polygon","coordinates":[[[-122.346826,47.577506],[-122.346793,47.577552],[-122.346828,47.577594],[-122.346826,47.577774],[-122.346693,47.577773],[-122.346693,47.577637],[-122.346631,47.577594],[-122.346353,47.577594],[-122.346302,47.577625],[-122.346295,47.577681],[-122.346162,47.57768],[-122.346166,47.577274],[-122.346125,47.577237],[-122.346035,47.57723],[-122.346036,47.57714],[-122.346247,47.577152],[-122.346296,47.577121],[-122.346303,47.577051],[-122.346436,47.577052],[-122.346457,47.577216],[-122.346699,47.577234],[-122.346722,47.577308],[-122.346831,47.577324],[-122.346826,47.577506]],[[-122.346616,47.577503],[-122.346695,47.57746],[-122.346696,47.577367],[-122.346669,47.577336],[-122.346379,47.577322],[-122.346317,47.577341],[-122.346298,47.577453],[-122.346327,47.577489],[-122.346616,47.577503]]]}},{"type":"Feature","properties":{"id":5,"area_m2":1700,"px":17,"rank":3},"geometry":{"type":"Polygon","coordinates":[[[-122.349129,47.585076],[-122.349114,47.586245],[-122.348981,47.586244],[-122.348984,47.585928],[-122.348944,47.585891],[-122.348853,47.585882],[-122.348855,47.585704],[-122.348946,47.585698],[-122.348988,47.585656],[-122.348994,47.585213],[-122.348953,47.585171],[-122.348862,47.585164],[-122.348864,47.584984],[-122.348997,47.584985],[-122.349019,47.585059],[-122.349129,47.585076]]]}},{"type":"Feature","properties":{"id":9,"area_m2":1500,"px":15,"rank":4},"geometry":{"type":"Polygon","coordinates":[[[-122.349141,47.584086],[-122.349132,47.584806],[-122.348866,47.584804],[-122.348874,47.584174],[-122.348984,47.584159],[-122.349008,47.584085],[-122.349141,47.584086]]]}},{"type":"Feature","properties":{"id":17,"area_m2":1100,"px":11,"rank":5},"geometry":{"type":"Polygon","coordinates":[[[-122.348245,47.581291],[-122.348241,47.581561],[-122.348132,47.581577],[-122.348107,47.581651],[-122.347988,47.581674],[-122.347973,47.58174],[-122.34784,47.581739],[-122.347845,47.581379],[-122.347955,47.581364],[-122.347979,47.58129],[-122.348245,47.581291]]]}},{"type":"Feature","properties":{"id":25,"area_m2":1100,"px":11,"rank":6},"geometry":{"type":"Polygon","coordinates":[[[-122.348698,47.576885],[-122.348697,47.576975],[-122.348588,47.57699],[-122.348563,47.577064],[-122.348352,47.577052],[-122.348303,47.577083],[-122.348296,47.577153],[-122.348163,47.577152],[-122.348166,47.576972],[-122.348256,47.576966],[-122.348297,47.576929],[-122.348303,47.576613],[-122.348569,47.576614],[-122.348568,47.576704],[-122.348532,47.576752],[-122.348569,47.576846],[-122.348615,47.57688],[-122.348698,47.576885]]]}},{"type":"Feature","properties":{"id":6,"area_m2":900,"px":9,"rank":7},"geometry":{"type":"Polygon","coordinates":[[[-122.347922,47.585879],[-122.347917,47.586238],[-122.347785,47.586238],[-122.347781,47.586001],[-122.347739,47.585972],[-122.347655,47.585967],[-122.347639,47.585807],[-122.347524,47.585786],[-122.347525,47.585696],[-122.347635,47.585681],[-122.347659,47.585607],[-122.347792,47.585608],[-122.347793,47.585839],[-122.347838,47.585874],[-122.347922,47.585879]]]}},{"type":"Feature","properties":{"id":15,"area_m2":900,"px":9,"rank":8},"geometry":{"type":"Polygon","coordinates":[[[-122.348094,47.58273],[-122.348092,47.58291],[-122.347959,47.582909],[-122.347954,47.582839],[-122.347905,47.582808],[-122.347694,47.582818],[-122.347672,47.582744],[-122.347562,47.582727],[-122.347564,47.582547],[-122.347963,47.58255],[-122.347971,47.582701],[-122.348018,47.582727],[-122.348094,47.58273]]]}},{"type":"Feature","properties":{"id":27,"area_m2":900,"px":9,"rank":9},"geometry":{"type":"Polygon","coordinates":[[[-122.348038,47.576521],[-122.348032,47.576971],[-122.347767,47.57697],[-122.34778,47.57682],[-122.347733,47.576792],[-122.347636,47.576789],[-122.347601,47.576708],[-122.347504,47.576698],[-122.347505,47.576608],[-122.347638,47.576609],[-122.347644,47.576666],[-122.347686,47.576695],[-122.347839,47.576699],[-122.347902,47.576657],[-122.347905,47.576521],[-122.348038,47.576521]]]}},{"type":"Feature","properties":{"id":33,"area_m2":900,"px":9,"rank":10},"geometry":{"type":"Polygon","coordinates":[[[-122.348054,47.575262],[-122.348053,47.575352],[-122.347969,47.575355],[-122.347923,47.575389],[-122.347917,47.575531],[-122.347785,47.57553],[-122.347762,47.575456],[-122.347653,47.575439],[-122.347618,47.575358],[-122.347521,47.575349],[-122.347523,47.575169],[-122.347789,47.57517],[-122.347792,47.575222],[-122.34783,47.575254],[-122.348054,47.575262]]]}},{"type":"Feature","properties":{"id":35,"area_m2":700,"px":7,"rank":11},"geometry":{"type":"Polygon","coordinates":[[[-122.350187,47.574824],[-122.350184,47.575004],[-122.349919,47.575002],[-122.349896,47.574928],[-122.349787,47.574912],[-122.349789,47.574732],[-122.350055,47.574733],[-122.350077,47.574808],[-122.350187,47.574824]]]}},{"type":"Feature","properties":{"id":37,"area_m2":700,"px":7,"rank":12},"geometry":{"type":"Polygon","coordinates":[[[-122.353385,47.574212],[-122.353384,47.574302],[-122.353294,47.574308],[-122.353252,47.574345],[-122.353248,47.574571],[-122.352982,47.57457],[-122.352986,47.5743],[-122.353195,47.574299],[-122.353246,47.574268],[-122.353253,47.574211],[-122.353385,47.574212]]]}},{"type":"Feature","properties":{"id":18,"area_m2":600,"px":6,"rank":13},"geometry":{"type":"Polygon","coordinates":[[[-122.347331,47.579937],[-122.347327,47.580206],[-122.347062,47.580205],[-122.347065,47.579935],[-122.347331,47.579937]]]}},{"type":"Feature","properties":{"id":22,"area_m2":600,"px":6,"rank":14},"geometry":{"type":"Polygon","coordinates":[[[-122.353595,47.578802],[-122.353594,47.578892],[-122.353484,47.578907],[-122.35346,47.578981],[-122.353194,47.57898],[-122.353195,47.57889],[-122.353286,47.578884],[-122.353327,47.578847],[-122.353331,47.578621],[-122.353464,47.578622],[-122.353472,47.578773],[-122.353519,47.5788],[-122.353595,47.578802]]]}},{"type":"Feature","properties":{"id":30,"area_m2":600,"px":6,"rank":15},"geometry":{"type":"Polygon","coordinates":[[[-122.349774,47.575901],[-122.349772,47.576081],[-122.349696,47.576083],[-122.349648,47.576109],[-122.349637,47.57626],[-122.349504,47.57626],[-122.349509,47.5759],[-122.349774,47.575901]]]}},{"type":"Feature","properties":{"id":3,"area_m2":500,"px":5,"rank":16},"geometry":{"type":"Polygon","coordinates":[[[-122.349111,47.586515],[-122.349109,47.586695],[-122.349032,47.586697],[-122.348985,47.586723],[-122.348973,47.586874],[-122.348841,47.586873],[-122.348843,47.586694],[-122.34894,47.586685],[-122.348976,47.58664],[-122.348964,47.586538],[-122.348845,47.586514],[-122.348846,47.586424],[-122.348979,47.586424],[-122.349002,47.586499],[-122.349111,47.586515]]]}},{"type":"Feature","properties":{"id":10,"area_m2":500,"px":5,"rank":17},"geometry":{"type":"Polygon","coordinates":[[[-122.348205,47.584531],[-122.348203,47.58462],[-122.347992,47.584608],[-122.347943,47.584639],[-122.347936,47.584709],[-122.347804,47.584708],[-122.347807,47.584438],[-122.348073,47.58444],[-122.348095,47.584514],[-122.348205,47.584531]]]}},{"type":"Feature","properties":{"id":12,"area_m2":500,"px":5,"rank":18},"geometry":{"type":"Polygon","coordinates":[[[-122.349143,47.583906],[-122.349142,47.583996],[-122.348876,47.583994],[-122.348881,47.583635],[-122.349014,47.583635],[-122.349014,47.583867],[-122.34906,47.583901],[-122.349143,47.583906]]]}},{"type":"Feature","properties":{"id":16,"area_m2":500,"px":5,"rank":19},"geometry":{"type":"Polygon","coordinates":[[[-122.347969,47.5821],[-122.347968,47.58219],[-122.347877,47.582196],[-122.347836,47.582232],[-122.347831,47.582459],[-122.347699,47.582458],[-122.347703,47.582098],[-122.347969,47.5821]]]}},{"type":"Feature","properties":{"id":21,"area_m2":500,"px":5,"rank":20},"geometry":{"type":"Polygon","coordinates":[[[-122.354525,47.578629],[-122.354492,47.578675],[-122.354527,47.578718],[-122.354525,47.578897],[-122.354415,47.578913],[-122.35439,47.578987],[-122.354258,47.578986],[-122.354259,47.578896],[-122.354356,47.578887],[-122.354392,47.578843],[-122.35438,47.578741],[-122.354261,47.578716],[-122.354262,47.578626],[-122.354372,47.578611],[-122.354396,47.578537],[-122.354527,47.578538],[-122.354525,47.578629]]]}},{"type":"Feature","properties":{"id":31,"area_m2":500,"px":5,"rank":21},"geometry":{"type":"Polygon","coordinates":[[[-122.353102,47.57565],[-122.3531,47.57583],[-122.352834,47.575829],[-122.352832,47.575687],[-122.352787,47.575653],[-122.352703,47.575648],[-122.352704,47.575558],[-122.352837,47.575559],[-122.352842,47.575615],[-122.352893,47.575647],[-122.353102,47.57565]]]}},{"type":"Feature","properties":{"id":2,"area_m2":400,"px":4,"rank":22},"geometry":{"type":"Polygon","coordinates":[[[-122.347905,47.587228],[-122.347904,47.587318],[-122.347505,47.587316],[-122.347507,47.587136],[-122.34764,47.587137],[-122.347646,47.587193],[-122.347696,47.587225],[-122.347905,47.587228]]]}},{"type":"Feature","properties":{"id":4,"area_m2":400,"px":4,"rank":23},"geometry":{"type":"Polygon","coordinates":[[[-122.347916,47.586328],[-122.347914,47.586508],[-122.347804,47.586524],[-122.34778,47.586597],[-122.347647,47.586597],[-122.347649,47.586417],[-122.347759,47.586402],[-122.347783,47.586328],[-122.347916,47.586328]]]}},{"type":"Feature","properties":{"id":11,"area_m2":400,"px":4,"rank":24},"geometry":{"type":"Polygon","coordinates":[[[-122.348076,47.58417],[-122.348075,47.58426],[-122.347965,47.584275],[-122.347941,47.584349],[-122.347675,47.584347],[-122.347676,47.584258],[-122.347786,47.584242],[-122.34781,47.584168],[-122.348076,47.58417]]]}},{"type":"Feature","properties":{"id":14,"area_m2":400,"px":4,"rank":25},"geometry":{"type":"Polygon","coordinates":[[[-122.347824,47.583089],[-122.347821,47.583269],[-122.347556,47.583267],[-122.347558,47.583087],[-122.347824,47.583089]]]}},{"type":"Feature","properties":{"id":23,"area_m2":400,"px":4,"rank":26},"geometry":{"type":"Polygon","coordinates":[[[-122.35161,47.577981],[-122.351608,47.578161],[-122.351342,47.57816],[-122.351345,47.57798],[-122.35161,47.577981]]]}},{"type":"Feature","properties":{"id":28,"area_m2":400,"px":4,"rank":27},"geometry":{"type":"Polygon","coordinates":[[[-122.353628,47.576103],[-122.353627,47.576193],[-122.353543,47.576197],[-122.353497,47.576231],[-122.353492,47.576372],[-122.353359,47.576371],[-122.353362,47.576102],[-122.353628,47.576103]]]}},{"type":"Feature","properties":{"id":29,"area_m2":400,"px":4,"rank":28},"geometry":{"type":"Polygon","coordinates":[[[-122.347777,47.57616],[-122.347775,47.57625],[-122.347666,47.576265],[-122.347641,47.576339],[-122.347509,47.576338],[-122.347512,47.576069],[-122.347645,47.576069],[-122.347667,47.576144],[-122.347777,47.57616]]]}},{"type":"Feature","properties":{"id":36,"area_m2":400,"px":4,"rank":29},"geometry":{"type":"Polygon","coordinates":[[[-122.350855,47.574558],[-122.350853,47.574738],[-122.35072,47.574737],[-122.350714,47.57468],[-122.350664,47.574649],[-122.350455,47.574645],[-122.350456,47.574556],[-122.350855,47.574558]]]}},{"type":"Feature","properties":{"id":1,"area_m2":300,"px":3,"rank":30},"geometry":{"type":"Polygon","coordinates":[[[-122.348024,47.588399],[-122.348021,47.588578],[-122.347756,47.588577],[-122.347757,47.588487],[-122.347866,47.588472],[-122.347891,47.588398],[-122.348024,47.588399]]]}},{"type":"Feature","properties":{"id":7,"area_m2":300,"px":3,"rank":31},"geometry":{"type":"Polygon","coordinates":[[[-122.348593,47.585343],[-122.348591,47.585522],[-122.348325,47.585521],[-122.348327,47.585431],[-122.348436,47.585416],[-122.348461,47.585342],[-122.348593,47.585343]]]}},{"type":"Feature","properties":{"id":8,"area_m2":300,"px":3,"rank":32},"geometry":{"type":"Polygon","coordinates":[[[-122.34793,47.585249],[-122.347929,47.585339],[-122.347663,47.585337],[-122.34764,47.585263],[-122.347531,47.585246],[-122.347532,47.585157],[-122.347665,47.585157],[-122.34767,47.585214],[-122.34772,47.585245],[-122.34793,47.585249]]]}},{"type":"Feature","properties":{"id":19,"area_m2":300,"px":3,"rank":33},"geometry":{"type":"Polygon","coordinates":[[[-122.349068,47.579227],[-122.349067,47.579317],[-122.348984,47.57932],[-122.348937,47.579354],[-122.348932,47.579496],[-122.348799,47.579495],[-122.348801,47.579315],[-122.348911,47.5793],[-122.348936,47.579226],[-122.349068,47.579227]]]}},{"type":"Feature","properties":{"id":20,"area_m2":300,"px":3,"rank":34},"geometry":{"type":"Polygon","coordinates":[[[-122.353592,47.579072],[-122.35359,47.579162],[-122.353481,47.579177],[-122.353456,47.579251],[-122.353324,47.579251],[-122.353301,47.579176],[-122.353192,47.57916],[-122.353193,47.57907],[-122.353326,47.579071],[-122.353388,47.579095],[-122.353459,47.579072],[-122.353592,47.579072]]]}},{"type":"Feature","properties":{"id":26,"area_m2":300,"px":3,"rank":35},"geometry":{"type":"Polygon","coordinates":[[[-122.346836,47.576964],[-122.346834,47.577144],[-122.346568,47.577143],[-122.346569,47.577053],[-122.346679,47.577038],[-122.346703,47.576964],[-122.346836,47.576964]]]}},{"type":"Feature","properties":{"id":32,"area_m2":300,"px":3,"rank":36},"geometry":{"type":"Polygon","coordinates":[[[-122.353636,47.575473],[-122.353634,47.575653],[-122.353524,47.575668],[-122.3535,47.575742],[-122.353367,47.575742],[-122.353368,47.575652],[-122.353452,47.575648],[-122.353498,47.575614],[-122.353503,47.575473],[-122.353636,47.575473]]]}},{"type":"Feature","properties":{"id":34,"area_m2":300,"px":3,"rank":37},"geometry":{"type":"Polygon","coordinates":[[[-122.347257,47.575167],[-122.347255,47.575347],[-122.347122,47.575346],[-122.347099,47.575272],[-122.34699,47.575256],[-122.346991,47.575166],[-122.347257,47.575167]]]}},{"type":"Feature","properties":{"id":38,"area_m2":300,"px":3,"rank":38},"geometry":{"type":"Polygon","coordinates":[[[-122.353784,47.574214],[-122.353782,47.574394],[-122.353516,47.574393],[-122.353517,47.574303],[-122.353627,47.574288],[-122.353651,47.574214],[-122.353784,47.574214]]]}},{"type":"Feature","properties":{"id":39,"area_m2":300,"px":3,"rank":39},"geometry":{"type":"Polygon","coordinates":[[[-122.346482,47.573363],[-122.346481,47.573453],[-122.346397,47.573457],[-122.346351,47.573491],[-122.346345,47.573632],[-122.346213,47.573632],[-122.346215,47.573452],[-122.346325,47.573437],[-122.346349,47.573363],[-122.346482,47.573363]]]}}]}