{"type":"FeatureCollection","features":[{"type":"Feature","properties":{"id":15,"area_m2":5100,"px":51,"rank":1},"geometry":{"type":"Polygon","coordinates":[[[-122.349425,47.582648],[-122.349424,47.582738],[-122.34934,47.582741],[-122.349294,47.582775],[-122.349289,47.582917],[-122.349198,47.582923],[-122.349155,47.582965],[-122.349172,47.583077],[-122.349225,47.583096],[-122.349419,47.583098],[-122.349418,47.583186],[-122.349314,47.583199],[-122.349284,47.583277],[-122.349193,47.583283],[-122.349151,47.583325],[-122.34914,47.584175],[-122.349104,47.584218],[-122.349139,47.584266],[-122.349135,47.584536],[-122.34887,47.584534],[-122.348874,47.584174],[-122.34891,47.584132],[-122.348875,47.584084],[-122.34888,47.583725],[-122.348971,47.583719],[-122.349012,47.583682],[-122.349018,47.583329],[-122.348983,47.583284],[-122.348885,47.583275],[-122.348893,47.582646],[-122.349013,47.582621],[-122.349028,47.58252],[-122.348993,47.582475],[-122.348895,47.582465],[-122.348899,47.582196],[-122.348975,47.582193],[-122.349023,47.582167],[-122.349034,47.582016],[-122.349167,47.582017],[-122.349165,47.582626],[-122.349228,47.58266],[-122.349425,47.582648]]]}},{"type":"Feature","properties":{"id":19,"area_m2":2600,"px":26,"rank":2},"geometry":{"type":"Polygon","coordinates":[[[-122.34862,47.583183],[-122.348619,47.583273],[-122.348509,47.583288],[-122.348485,47.583362],[-122.348352,47.583362],[-122.34833,47.583287],[-122.348173,47.583248],[-122.347978,47.583285],[-122.347954,47.583323],[-122.34795,47.583629],[-122.347684,47.583628],[-122.347681,47.583576],[-122.347643,47.583544],[-122.347419,47.583536],[-122.347421,47.583356],[-122.347748,47.583358],[-122.347811,47.58333],[-122.347813,47.583207],[-122.347766,47.583181],[-122.34769,47.583178],[-122.347692,47.582998],[-122.347802,47.582983],[-122.347826,47.582909],[-122.347946,47.582885],[-122.34796,47.58282],[-122.348093,47.58282],[-122.348092,47.58291],[-122.348008,47.582914],[-122.347962,47.582948],[-122.347957,47.583054],[-122.347985,47.58309],[-122.348315,47.583098],[-122.348354,47.583062],[-122.348358,47.582912],[-122.348491,47.582913],[-122.348491,47.583144],[-122.348537,47.583179],[-122.34862,47.583183]]]}},{"type":"Feature","properties":{"id":48,"area_m2":2600,"px":26,"rank":3},"geometry":{"type":"Polygon","coordinates":[[[-122.346705,47.576784],[-122.346704,47.576874],[-122.346613,47.57688],[-122.346572,47.576916],[-122.346569,47.577053],[-122.346533,47.577095],[-122.346568,47.577143],[-122.346565,47.577323],[-122.346475,47.577329],[-122.346432,47.577371],[-122.346436,47.577559],[-122.346478,47.577588],[-122.346562,47.577593],[-122.34656,47.577773],[-122.34645,47.577788],[-122.346426,47.577862],[-122.346027,47.57786],[-122.346028,47.57777],[-122.346126,47.577761],[-122.346162,47.577716],[-122.346149,47.577614],[-122.34603,47.57759],[-122.346033,47.57741],[-122.346109,47.577408],[-122.346156,47.577382],[-122.346168,47.577231],[-122.346283,47.577211],[-122.346303,47.577051],[-122.346387,47.577048],[-122.34643,47.577019],[-122.346438,47.576872],[-122.346548,47.576857],[-122.346572,47.576783],[-122.346705,47.576784]]]}},{"type":"Feature","properties":{"id":73,"area_m2":2100,"px":21,"rank":4},"geometry":{"type":"Polygon","coordinates":[[[-122.350989,47.574469],[-122.350988,47.574558],[-122.350878,47.574574],[-122.350854,47.574648],[-122.350721,47.574647],[-122.350651,47.574623],[-122.350478,47.574661],[-122.350453,47.574825],[-122.350343,47.574841],[-122.350318,47.574915],[-122.350109,47.574916],[-122.350058,47.574947],[-122.350051,47.575003],[-122.349919,47.575002],[-122.34992,47.574776],[-122.34988,47.574739],[-122.349789,47.574732],[-122.34979,47.574642],[-122.350014,47.574637],[-122.350053,47.574605],[-122.350057,47.574553],[-122.350408,47.574564],[-122.350453,47.574531],[-122.350457,47.574466],[-122.350989,47.574469]]]}},{"type":"Feature","properties":{"id":75,"area_m2":2000,"px":20,"rank":5},"geometry":{"type":"Polygon","coordinates":[[[-122.347268,47.574268],[-122.347266,47.574447],[-122.347156,47.574463],[-122.347132,47.574537],[-122.346805,47.574535],[-122.346742,47.574563],[-122.346735,47.574676],[-122.34678,47.574711],[-122.346864,47.574715],[-122.346863,47.574805],[-122.346597,47.574804],[-122.346596,47.574572],[-122.346551,47.574537],[-122.346467,47.574533],[-122.346471,47.574263],[-122.346736,47.574265],[-122.346822,47.574287],[-122.346979,47.57425],[-122.347005,47.574176],[-122.347136,47.574177],[-122.347159,47.574251],[-122.347268,47.574268]]]}},{"type":"Feature","properties":{"id":46,"area_m2":1800,"px":18,"rank":6},"geometry":{"type":"Polygon","coordinates":[[[-122.348152,47.578052],[-122.34815,47.578232],[-122.348074,47.578234],[-122.348026,47.578259],[-122.348015,47.578411],[-122.347749,47.578409],[-122.347726,47.578335],[-122.347617,47.578318],[-122.347618,47.57823],[-122.347702,47.578225],[-122.347745,47.578196],[-122.347771,47.577999],[-122.347711,47.57796],[-122.347488,47.577958],[-122.347491,47.577778],[-122.347889,47.57778],[-122.347901,47.577936],[-122.34802,47.577961],[-122.348055,47.578042],[-122.348152,47.578052]]]}},{"type":"Feature","properties":{"id":21,"area_m2":1700,"px":17,"rank":7},"geometry":{"type":"Polygon","coordinates":[[[-122.348636,47.581924],[-122.348633,47.582193],[-122.348535,47.582202],[-122.348499,47.582247],[-122.348503,47.582429],[-122.348546,47.582459],[-122.348629,47.582463],[-122.348626,47.582733],[-122.34836,47.582732],[-122.348359,47.5825],[-122.348314,47.582466],[-122.34823,47.58246],[-122.348232,47.582371],[-122.348315,47.582367],[-122.348359,47.582339],[-122.348366,47.582241],[-122.348324,47.582198],[-122.348234,47.582191],[-122.348235,47.582101],[-122.348311,47.582099],[-122.348359,47.582073],[-122.34837,47.581922],[-122.348636,47.581924]]]}},{"type":"Feature","properties":{"id":35,"area_m2":1500,"px":15,"rank":8},"geometry":{"type":"Polygon","coordinates":[[[-122.34933,47.579588],[-122.349328,47.579768],[-122.348796,47.579765],[-122.348799,47.579495],[-122.348883,47.579491],[-122.348929,47.579457],[-122.348936,47.579226],[-122.349068,47.579227],[-122.349076,47.579378],[-122.349123,47.579405],[-122.349199,47.579407],[-122.349215,47.579568],[-122.34933,47.579588]]]}},{"type":"Feature","properties":{"id":38,"area_m2":1500,"px":15,"rank":9},"geometry":{"type":"Polygon","coordinates":[[[-122.353596,47.578712],[-122.353594,47.578892],[-122.353517,47.578894],[-122.35347,47.57892],[-122.353459,47.579071],[-122.353375,47.579075],[-122.353329,47.579109],[-122.353323,47.579251],[-122.353191,47.57925],[-122.353195,47.57889],[-122.353315,47.578867],[-122.353329,47.578746],[-122.353268,47.578698],[-122.353064,47.578709],[-122.353066,47.578529],[-122.353176,47.578514],[-122.353201,47.57844],[-122.353333,47.578441],[-122.353345,47.578597],[-122.353464,47.578622],[-122.353499,47.578703],[-122.353596,47.578712]]]}},{"type":"Feature","properties":{"id":55,"area_m2":1300,"px":13,"rank":10},"geometry":{"type":"Polygon","coordinates":[[[-122.348172,47.576432],[-122.34817,47.576612],[-122.347785,47.576619],[-122.34775,47.57666],[-122.347769,47.57679],[-122.347636,47.576789],[-122.347613,47.576715],[-122.347504,47.576698],[-122.347508,47.576428],[-122.347617,47.576413],[-122.347642,47.576339],[-122.347774,47.57634],[-122.347783,47.576401],[-122.347838,47.576429],[-122.348172,47.576432]]]}},{"type":"Feature","properties":{"id":52,"area_m2":1300,"px":13,"rank":11},"geometry":{"type":"Polygon","coordinates":[[[-122.348701,47.576705],[-122.348698,47.576885],[-122.348589,47.5769],[-122.348564,47.576974],[-122.348432,47.576973],[-122.348431,47.576742],[-122.348386,47.576707],[-122.348302,47.576703],[-122.348303,47.576613],[-122.348339,47.576571],[-122.348304,47.576523],[-122.348308,47.576253],[-122.34844,47.576254],[-122.348463,47.576328],[-122.348572,47.576345],[-122.34857,47.576661],[-122.34861,47.576698],[-122.348701,47.576705]]]}},{"type":"Feature","properties":{"id":4,"area_m2":1200,"px":12,"rank":12},"geometry":{"type":"Polygon","coordinates":[[[-122.348174,47.58696],[-122.348172,47.58714],[-122.348062,47.587155],[-122.348038,47.587229],[-122.347905,47.587228],[-122.347843,47.587204],[-122.347772,47.587227],[-122.347639,47.587227],[-122.34764,47.587137],[-122.347738,47.587128],[-122.347774,47.587083],[-122.347762,47.586981],[-122.347643,47.586957],[-122.347646,47.586687],[-122.347779,47.586688],[-122.347783,47.586834],[-122.347826,47.586864],[-122.34791,47.586868],[-122.347938,47.586946],[-122.348174,47.58696]]]}},{"type":"Feature","properties":{"id":56,"area_m2":1100,"px":11,"rank":13},"geometry":{"type":"Polygon","coordinates":[[[-122.353227,47.576281],[-122.353226,47.576371],[-122.353142,47.576374],[-122.353096,47.576408],[-122.353091,47.57655],[-122.352981,47.576565],[-122.352957,47.576639],[-122.352622,47.576638],[-122.352567,47.576666],[-122.352557,47.576727],[-122.352424,47.576726],[-122.352426,47.576546],[-122.35265,47.576541],[-122.352689,47.576509],[-122.352693,47.576458],[-122.352813,47.576434],[-122.352827,47.576369],[-122.353036,47.576367],[-122.353087,47.576337],[-122.353094,47.57628],[-122.353227,47.576281]]]}},{"type":"Feature","properties":{"id":59,"area_m2":1100,"px":11,"rank":14},"geometry":{"type":"Polygon","coordinates":[[[-122.346848,47.575975],[-122.346845,47.576245],[-122.346735,47.57626],[-122.346711,47.576334],[-122.346578,47.576333],[-122.346555,47.576259],[-122.346446,47.576242],[-122.346451,47.575883],[-122.346583,47.575883],[-122.346589,47.57594],[-122.346639,47.575971],[-122.346848,47.575975]]]}},{"type":"Feature","properties":{"id":68,"area_m2":1100,"px":11,"rank":15},"geometry":{"type":"Polygon","coordinates":[[[-122.346857,47.575255],[-122.346855,47.575435],[-122.346456,47.575433],[-122.346463,47.574893],[-122.346596,47.574894],[-122.346602,47.575135],[-122.346649,47.575161],[-122.346725,47.575164],[-122.34676,47.575245],[-122.346857,47.575255]]]}},{"type":"Feature","properties":{"id":3,"area_m2":1000,"px":10,"rank":16},"geometry":{"type":"Polygon","coordinates":[[[-122.348028,47.588039],[-122.348025,47.588308],[-122.347759,47.588307],[-122.347758,47.588075],[-122.347713,47.588041],[-122.347629,47.588035],[-122.347631,47.587856],[-122.347741,47.587841],[-122.347766,47.587767],[-122.347898,47.587768],[-122.34788,47.588003],[-122.347931,47.588036],[-122.348028,47.588039]]]}},{"type":"Feature","properties":{"id":31,"area_m2":1000,"px":10,"rank":17},"geometry":{"type":"Polygon","coordinates":[[[-122.347991,47.5803],[-122.347989,47.58048],[-122.347879,47.580495],[-122.347855,47.580569],[-122.347456,47.580567],[-122.347459,47.580297],[-122.347592,47.580298],[-122.347655,47.580322],[-122.347725,47.580299],[-122.347991,47.5803]]]}},{"type":"Feature","properties":{"id":47,"area_m2":1000,"px":10,"rank":18},"geometry":{"type":"Polygon","coordinates":[[[-122.35161,47.577981],[-122.351607,47.578251],[-122.351389,47.578241],[-122.351344,47.578275],[-122.35134,47.57834],[-122.351207,47.578339],[-122.351145,47.578314],[-122.351074,47.578338],[-122.350808,47.578337],[-122.350809,47.578247],[-122.35104,47.578239],[-122.351076,47.578158],[-122.351196,47.578135],[-122.35121,47.578069],[-122.35142,47.578068],[-122.351471,47.578037],[-122.351478,47.577981],[-122.35161,47.577981]]]}},{"type":"Feature","properties":{"id":81,"area_m2":1000,"px":10,"rank":19},"geometry":{"type":"Polygon","coordinates":[[[-122.348207,47.573643],[-122.348202,47.574003],[-122.347937,47.574001],[-122.347929,47.57385],[-122.347882,47.573823],[-122.347806,47.573821],[-122.347808,47.573641],[-122.348207,47.573643]]]}},{"type":"Feature","properties":{"id":41,"area_m2":900,"px":9,"rank":20},"geometry":{"type":"Polygon","coordinates":[[[-122.347874,47.57904],[-122.347873,47.57913],[-122.347607,47.579128],[-122.34761,47.578722],[-122.34757,47.578685],[-122.347479,47.578676],[-122.347481,47.578588],[-122.34759,47.578573],[-122.347615,47.578499],[-122.347748,47.578499],[-122.347743,47.578996],[-122.347783,47.579033],[-122.347874,47.57904]]]}},{"type":"Feature","properties":{"id":67,"area_m2":900,"px":9,"rank":21},"geometry":{"type":"Polygon","coordinates":[[[-122.348188,47.575173],[-122.348184,47.575442],[-122.347919,47.575441],[-122.347916,47.575389],[-122.347877,47.575357],[-122.347654,47.575349],[-122.347656,47.57517],[-122.347789,47.57517],[-122.347851,47.575195],[-122.347922,47.575171],[-122.348188,47.575173]]]}},{"type":"Feature","properties":{"id":74,"area_m2":900,"px":9,"rank":22},"geometry":{"type":"Polygon","coordinates":[[[-122.352847,47.574749],[-122.352845,47.574929],[-122.352712,47.574928],[-122.352706,47.574872],[-122.352656,47.57484],[-122.352314,47.574836],[-122.352316,47.574656],[-122.352426,47.574641],[-122.35245,47.574567],[-122.352583,47.574568],[-122.352606,47.574642],[-122.352715,47.574658],[-122.35275,47.574739],[-122.352847,47.574749]]]}},{"type":"Feature","properties":{"id":11,"area_m2":800,"px":8,"rank":23},"geometry":{"type":"Polygon","coordinates":[[[-122.349123,47.585525],[-122.349118,47.585975],[-122.348985,47.585974],[-122.348977,47.585823],[-122.34893,47.585797],[-122.348854,47.585794],[-122.348855,47.585704],[-122.348891,47.585662],[-122.348856,47.585614],[-122.348859,47.585434],[-122.348991,47.585435],[-122.349014,47.585509],[-122.349123,47.585525]]]}},{"type":"Feature","properties":{"id":1,"area_m2":700,"px":7,"rank":24},"geometry":{"type":"Polygon","coordinates":[[[-122.348419,47.588671],[-122.348416,47.588941],[-122.348184,47.588935],[-122.34815,47.588974],[-122.348148,47.589119],[-122.348015,47.589118],[-122.348018,47.588848],[-122.348128,47.588833],[-122.348152,47.588759],[-122.348272,47.588736],[-122.348286,47.58867],[-122.348419,47.588671]]]}},{"type":"Feature","properties":{"id":14,"area_m2":700,"px":7,"rank":25},"geometry":{"type":"Polygon","coordinates":[[[-122.349132,47.584806],[-122.349125,47.585345],[-122.348993,47.585345],[-122.348994,47.585118],[-122.348954,47.585081],[-122.348863,47.585074],[-122.348864,47.584984],[-122.34894,47.584982],[-122.348988,47.584956],[-122.348999,47.584805],[-122.349132,47.584806]]]}},{"type":"Feature","properties":{"id":30,"area_m2":700,"px":7,"rank":26},"geometry":{"type":"Polygon","coordinates":[[[-122.348255,47.580482],[-122.348253,47.580662],[-122.348143,47.580677],[-122.348119,47.580751],[-122.348021,47.580759],[-122.347984,47.58084],[-122.347869,47.580859],[-122.34785,47.580929],[-122.347718,47.580928],[-122.34772,47.580749],[-122.347829,47.580733],[-122.347854,47.580659],[-122.348091,47.580648],[-122.34812,47.580612],[-122.348122,47.580481],[-122.348255,47.580482]]]}},{"type":"Feature","properties":{"id":32,"area_m2":700,"px":7,"rank":27},"geometry":{"type":"Polygon","coordinates":[[[-122.349729,47.57959],[-122.349725,47.57986],[-122.349642,47.579864],[-122.349595,47.579898],[-122.349589,47.580129],[-122.349456,47.580129],[-122.349454,47.579987],[-122.349409,47.579952],[-122.349326,47.579948],[-122.349327,47.579858],[-122.349569,47.579843],[-122.349596,47.57959],[-122.349729,47.57959]]]}},{"type":"Feature","properties":{"id":36,"area_m2":700,"px":7,"rank":28},"geometry":{"type":"Polygon","coordinates":[[[-122.353861,47.578804],[-122.353859,47.578984],[-122.353768,47.57899],[-122.353727,47.579026],[-122.353722,47.579253],[-122.353646,47.579255],[-122.353598,47.579281],[-122.353587,47.579432],[-122.353454,47.579431],[-122.353457,47.579251],[-122.353547,47.579246],[-122.353588,47.579209],[-122.353593,47.578982],[-122.353669,47.57898],[-122.353717,47.578954],[-122.353728,47.578803],[-122.353861,47.578804]]]}},{"type":"Feature","properties":{"id":64,"area_m2":700,"px":7,"rank":29},"geometry":{"type":"Polygon","coordinates":[[[-122.352571,47.575557],[-122.35257,47.575647],[-122.352437,47.575646],[-122.352424,47.57558],[-122.352358,47.575556],[-122.352096,47.575557],[-122.352045,47.575588],[-122.352038,47.575644],[-122.351905,47.575643],[-122.351907,47.575464],[-122.352242,47.575464],[-122.352297,47.575437],[-122.352307,47.575376],[-122.35244,47.575377],[-122.352448,47.575528],[-122.352495,47.575555],[-122.352571,47.575557]]]}},{"type":"Feature","properties":{"id":2,"area_m2":600,"px":6,"rank":30},"geometry":{"type":"Polygon","coordinates":[[[-122.350021,47.58823],[-122.350014,47.58877],[-122.349881,47.588769],[-122.349888,47.588229],[-122.350021,47.58823]]]}},{"type":"Feature","properties":{"id":17,"area_m2":600,"px":6,"rank":31},"geometry":{"type":"Polygon","coordinates":[[[-122.348081,47.58381],[-122.348078,47.58399],[-122.34768,47.583988],[-122.347682,47.583808],[-122.348081,47.58381]]]}},{"type":"Feature","properties":{"id":20,"area_m2":600,"px":6,"rank":32},"geometry":{"type":"Polygon","coordinates":[[[-122.346103,47.582449],[-122.346096,47.582989],[-122.345963,47.582988],[-122.34597,47.582448],[-122.346103,47.582449]]]}},{"type":"Feature","properties":{"id":23,"area_m2":600,"px":6,"rank":33},"geometry":{"type":"Polygon","coordinates":[[[-122.347302,47.582276],[-122.347297,47.582636],[-122.347164,47.582635],[-122.347157,47.582484],[-122.34711,47.582457],[-122.347034,47.582454],[-122.347036,47.582274],[-122.347302,47.582276]]]}},{"type":"Feature","properties":{"id":24,"area_m2":600,"px":6,"rank":34},"geometry":{"type":"Polygon","coordinates":[[[-122.349565,47.582109],[-122.34956,47.582469],[-122.349427,47.582468],[-122.34943,47.582151],[-122.349389,47.582114],[-122.349299,47.582107],[-122.349301,47.581927],[-122.349434,47.581928],[-122.349441,47.58208],[-122.349488,47.582106],[-122.349565,47.582109]]]}},{"type":"Feature","properties":{"id":42,"area_m2":600,"px":6,"rank":35},"geometry":{"type":"Polygon","coordinates":[[[-122.354529,47.578538],[-122.354523,47.578987],[-122.354391,47.578987],[-122.354389,47.578845],[-122.354343,47.578811],[-122.35426,47.578806],[-122.354261,47.578716],[-122.354337,47.578714],[-122.354385,47.578688],[-122.354396,47.578537],[-122.354529,47.578538]]]}},{"type":"Feature","properties":{"id":50,"area_m2":600,"px":6,"rank":36},"geometry":{"type":"Polygon","coordinates":[[[-122.346969,47.576965],[-122.346964,47.577325],[-122.346831,47.577324],[-122.346824,47.577173],[-122.346777,47.577146],[-122.346701,47.577144],[-122.346703,47.576964],[-122.346969,47.576965]]]}},{"type":"Feature","properties":{"id":54,"area_m2":600,"px":6,"rank":37},"geometry":{"type":"Polygon","coordinates":[[[-122.349364,47.576799],[-122.349363,47.576889],[-122.349097,47.576887],[-122.349091,47.576646],[-122.349037,47.576618],[-122.348835,47.576616],[-122.348836,47.576526],[-122.349102,47.576527],[-122.349124,47.576602],[-122.349234,47.576618],[-122.349245,47.576774],[-122.349364,47.576799]]]}},{"type":"Feature","properties":{"id":62,"area_m2":600,"px":6,"rank":38},"geometry":{"type":"Polygon","coordinates":[[[-122.34805,47.575532],[-122.348047,47.575802],[-122.347781,47.5758],[-122.347785,47.57553],[-122.34805,47.575532]]]}},{"type":"Feature","properties":{"id":66,"area_m2":600,"px":6,"rank":39},"geometry":{"type":"Polygon","coordinates":[[[-122.351379,47.575191],[-122.351377,47.575371],[-122.351267,47.575386],[-122.351243,47.57546],[-122.350977,47.575458],[-122.350978,47.575368],[-122.351062,47.575365],[-122.351108,47.575331],[-122.351113,47.575189],[-122.351379,47.575191]]]}},{"type":"Feature","properties":{"id":77,"area_m2":600,"px":6,"rank":40},"geometry":{"type":"Polygon","coordinates":[[[-122.351791,47.574113],[-122.35179,47.574203],[-122.351693,47.574205],[-122.351641,47.574237],[-122.351655,47.574382],[-122.351545,47.574398],[-122.351521,47.574472],[-122.351401,47.574495],[-122.351387,47.574561],[-122.351254,47.57456],[-122.351255,47.57447],[-122.351365,47.574455],[-122.351423,47.574349],[-122.35139,47.574291],[-122.351391,47.574201],[-122.351501,47.574186],[-122.351525,47.574112],[-122.351791,47.574113]]]}},{"type":"Feature","properties":{"id":7,"area_m2":500,"px":5,"rank":41},"geometry":{"type":"Polygon","coordinates":[[[-122.348048,47.586419],[-122.348046,47.586599],[-122.34778,47.586597],[-122.347778,47.586456],[-122.347733,47.586421],[-122.347649,47.586417],[-122.34765,47.586327],[-122.347783,47.586328],[-122.347789,47.586384],[-122.347839,47.586416],[-122.348048,47.586419]]]}},{"type":"Feature","properties":{"id":9,"area_m2":500,"px":5,"rank":42},"geometry":{"type":"Polygon","coordinates":[[[-122.349117,47.586065],[-122.349113,47.586335],[-122.348847,47.586334],[-122.34885,47.586154],[-122.348959,47.586139],[-122.348984,47.586065],[-122.349117,47.586065]]]}},{"type":"Feature","properties":{"id":12,"area_m2":500,"px":5,"rank":43},"geometry":{"type":"Polygon","coordinates":[[[-122.348726,47.585343],[-122.348725,47.585433],[-122.348616,47.585448],[-122.348591,47.585522],[-122.348458,47.585522],[-122.348436,47.585447],[-122.348327,47.585431],[-122.348329,47.585251],[-122.348462,47.585252],[-122.348467,47.585308],[-122.348517,47.58534],[-122.348726,47.585343]]]}},{"type":"Feature","properties":{"id":16,"area_m2":500,"px":5,"rank":44},"geometry":{"type":"Polygon","coordinates":[[[-122.349675,47.583909],[-122.349673,47.584089],[-122.349274,47.584087],[-122.349275,47.583997],[-122.349385,47.583981],[-122.349409,47.583907],[-122.349675,47.583909]]]}},{"type":"Feature","properties":{"id":22,"area_m2":500,"px":5,"rank":45},"geometry":{"type":"Polygon","coordinates":[[[-122.3481,47.58228],[-122.348098,47.58237],[-122.348015,47.582374],[-122.347968,47.582408],[-122.347963,47.582549],[-122.347853,47.582565],[-122.347829,47.582639],[-122.347696,47.582638],[-122.347699,47.582458],[-122.347808,47.582443],[-122.347833,47.582369],[-122.347952,47.582346],[-122.347967,47.58228],[-122.3481,47.58228]]]}},{"type":"Feature","properties":{"id":25,"area_m2":500,"px":5,"rank":46},"geometry":{"type":"Polygon","coordinates":[[[-122.34864,47.581564],[-122.348638,47.581744],[-122.348239,47.581741],[-122.348241,47.581651],[-122.34835,47.581636],[-122.348375,47.581562],[-122.34864,47.581564]]]}},{"type":"Feature","properties":{"id":49,"area_m2":500,"px":5,"rank":47},"geometry":{"type":"Polygon","coordinates":[[[-122.351883,47.577443],[-122.35188,47.577713],[-122.351747,47.577712],[-122.351724,47.577638],[-122.351615,47.577621],[-122.351617,47.577442],[-122.351883,47.577443]]]}},{"type":"Feature","properties":{"id":51,"area_m2":500,"px":5,"rank":48},"geometry":{"type":"Polygon","coordinates":[[[-122.354547,47.577098],[-122.354546,47.577188],[-122.354413,47.577187],[-122.35439,47.577113],[-122.354281,47.577096],[-122.354246,47.577015],[-122.354149,47.577006],[-122.35415,47.576916],[-122.35426,47.576901],[-122.354284,47.576827],[-122.354417,47.576827],[-122.354418,47.577059],[-122.354463,47.577093],[-122.354547,47.577098]]]}},{"type":"Feature","properties":{"id":61,"area_m2":500,"px":5,"rank":49},"geometry":{"type":"Polygon","coordinates":[[[-122.34858,47.575715],[-122.348577,47.575984],[-122.348444,47.575984],[-122.348421,47.57591],[-122.348312,47.575893],[-122.348314,47.575713],[-122.34858,47.575715]]]}},{"type":"Feature","properties":{"id":72,"area_m2":500,"px":5,"rank":50},"geometry":{"type":"Polygon","coordinates":[[[-122.354044,47.574756],[-122.354042,47.574846],[-122.353849,47.574845],[-122.35379,47.574868],[-122.353774,47.575024],[-122.353642,47.575023],[-122.353645,47.574754],[-122.354044,47.574756]]]}},{"type":"Feature","properties":{"id":78,"area_m2":500,"px":5,"rank":51},"geometry":{"type":"Polygon","coordinates":[[[-122.348997,47.574277],[-122.348996,47.574367],[-122.348802,47.574366],[-122.348743,47.57439],[-122.348727,47.574546],[-122.348595,47.574545],[-122.348597,47.574365],[-122.348673,47.574363],[-122.348721,47.574337],[-122.348732,47.574186],[-122.348865,47.574187],[-122.348887,47.574261],[-122.348997,47.574277]]]}},{"type":"Feature","properties":{"id":84,"area_m2":500,"px":5,"rank":52},"geometry":{"type":"Polygon","coordinates":[[[-122.346614,47.573454],[-122.34661,47.573724],[-122.346534,47.573726],[-122.346486,47.573752],[-122.346475,47.573903],[-122.346342,47.573902],[-122.346344,47.573722],[-122.346435,47.573717],[-122.346476,47.57368],[-122.346481,47.573453],[-122.346614,47.573454]]]}},{"type":"Feature","properties":{"id":5,"area_m2":400,"px":4,"rank":53},"geometry":{"type":"Polygon","coordinates":[[[-122.346845,47.586952],[-122.346841,47.587222],[-122.346708,47.587221],[-122.346707,47.58708],[-122.346661,47.587045],[-122.346578,47.587041],[-122.346579,47.586951],[-122.346845,47.586952]]]}},{"type":"Feature","properties":{"id":13,"area_m2":400,"px":4,"rank":54},"geometry":{"type":"Polygon","coordinates":[[[-122.347931,47.585159],[-122.347926,47.585519],[-122.347794,47.585518],[-122.347798,47.585158],[-122.347931,47.585159]]]}},{"type":"Feature","properties":{"id":18,"area_m2":400,"px":4,"rank":55},"geometry":{"type":"Polygon","coordinates":[[[-122.346886,47.583623],[-122.346885,47.583713],[-122.346775,47.583728],[-122.346751,47.583802],[-122.346618,47.583802],[-122.346621,47.583532],[-122.346754,47.583532],[-122.346777,47.583607],[-122.346886,47.583623]]]}},{"type":"Feature","properties":{"id":29,"area_m2":400,"px":4,"rank":56},"geometry":{"type":"Polygon","coordinates":[[[-122.348516,47.580843],[-122.348513,47.581113],[-122.34838,47.581112],[-122.348381,47.580886],[-122.348341,47.580848],[-122.348251,47.580842],[-122.348252,47.580752],[-122.348384,47.580752],[-122.348407,47.580827],[-122.348516,47.580843]]]}},{"type":"Feature","properties":{"id":33,"area_m2":400,"px":4,"rank":57},"geometry":{"type":"Polygon","coordinates":[[[-122.34866,47.579944],[-122.348659,47.580034],[-122.348394,47.580033],[-122.348397,47.579763],[-122.34853,47.579763],[-122.348537,47.579915],[-122.348584,47.579941],[-122.34866,47.579944]]]}},{"type":"Feature","properties":{"id":40,"area_m2":400,"px":4,"rank":58},"geometry":{"type":"Polygon","coordinates":[[[-122.349205,47.578957],[-122.349204,47.579047],[-122.349094,47.579063],[-122.349069,47.579137],[-122.348804,47.579135],[-122.348805,47.579045],[-122.348914,47.57903],[-122.348939,47.578956],[-122.349205,47.578957]]]}},{"type":"Feature","properties":{"id":45,"area_m2":400,"px":4,"rank":59},"geometry":{"type":"Polygon","coordinates":[[[-122.349478,47.578329],[-122.349477,47.578419],[-122.349368,47.578434],[-122.349343,47.578508],[-122.34921,47.578508],[-122.349188,47.578433],[-122.349079,47.578417],[-122.34908,47.578327],[-122.349478,47.578329]]]}},{"type":"Feature","properties":{"id":57,"area_m2":400,"px":4,"rank":60},"geometry":{"type":"Polygon","coordinates":[[[-122.34724,47.576517],[-122.347238,47.576697],[-122.346972,47.576695],[-122.346975,47.576515],[-122.34724,47.576517]]]}},{"type":"Feature","properties":{"id":60,"area_m2":400,"px":4,"rank":61},"geometry":{"type":"Polygon","coordinates":[[[-122.350041,47.575813],[-122.350039,47.575993],[-122.349773,47.575991],[-122.349776,47.575811],[-122.350041,47.575813]]]}},{"type":"Feature","properties":{"id":65,"area_m2":400,"px":4,"rank":62},"geometry":{"type":"Polygon","coordinates":[[[-122.349248,47.575449],[-122.349246,47.575628],[-122.34898,47.575627],[-122.348982,47.575447],[-122.349248,47.575449]]]}},{"type":"Feature","properties":{"id":69,"area_m2":400,"px":4,"rank":63},"geometry":{"type":"Polygon","coordinates":[[[-122.353374,47.575112],[-122.353372,47.575292],[-122.353239,47.575291],[-122.353234,47.575234],[-122.353184,47.575203],[-122.352975,47.5752],[-122.352976,47.57511],[-122.353374,47.575112]]]}},{"type":"Feature","properties":{"id":71,"area_m2":400,"px":4,"rank":64},"geometry":{"type":"Polygon","coordinates":[[[-122.352178,47.575105],[-122.352177,47.575195],[-122.351911,47.575194],[-122.351888,47.575119],[-122.351779,47.575103],[-122.35178,47.575013],[-122.352046,47.575015],[-122.352068,47.575089],[-122.352178,47.575105]]]}},{"type":"Feature","properties":{"id":79,"area_m2":400,"px":4,"rank":65},"geometry":{"type":"Polygon","coordinates":[[[-122.353121,47.574121],[-122.353118,47.574301],[-122.352853,47.574299],[-122.352855,47.574119],[-122.353121,47.574121]]]}},{"type":"Feature","properties":{"id":80,"area_m2":400,"px":4,"rank":66},"geometry":{"type":"Polygon","coordinates":[[[-122.348734,47.574006],[-122.348733,47.574096],[-122.348524,47.574097],[-122.348473,47.574128],[-122.348466,47.574184],[-122.348333,47.574184],[-122.348335,47.574004],[-122.348734,47.574006]]]}},{"type":"Feature","properties":{"id":82,"area_m2":400,"px":4,"rank":67},"geometry":{"type":"Polygon","coordinates":[[[-122.350732,47.573747],[-122.35073,47.573927],[-122.350464,47.573926],[-122.350466,47.573746],[-122.350732,47.573747]]]}},{"type":"Feature","properties":{"id":86,"area_m2":400,"px":4,"rank":68},"geometry":{"type":"Polygon","coordinates":[[[-122.349278,47.573019],[-122.349275,47.573289],[-122.349165,47.573304],[-122.349141,47.573378],[-122.349008,47.573378],[-122.349009,47.573288],[-122.3491,47.573282],[-122.349141,47.573245],[-122.349145,47.573019],[-122.349278,47.573019]]]}},{"type":"Feature","properties":{"id":87,"area_m2":400,"px":4,"rank":69},"geometry":{"type":"Polygon","coordinates":[[[-122.347556,47.57247],[-122.347552,47.572829],[-122.347419,47.572829],[-122.347424,47.572469],[-122.347556,47.57247]]]}},{"type":"Feature","properties":{"id":6,"area_m2":300,"px":3,"rank":70},"geometry":{"type":"Polygon","coordinates":[[[-122.349109,47.586695],[-122.349106,47.586875],[-122.348841,47.586873],[-122.348842,47.586784],[-122.348952,47.586768],[-122.348976,47.586694],[-122.349109,47.586695]]]}},{"type":"Feature","properties":{"id":8,"area_m2":300,"px":3,"rank":71},"geometry":{"type":"Polygon","coordinates":[[[-122.347382,47.586505],[-122.347381,47.586595],[-122.347115,47.586594],[-122.347117,47.586414],[-122.34725,47.586415],[-122.347273,47.586489],[-122.347382,47.586505]]]}},{"type":"Feature","properties":{"id":10,"area_m2":300,"px":3,"rank":72},"geometry":{"type":"Polygon","coordinates":[[[-122.347788,47.585968],[-122.347786,47.586148],[-122.347653,47.586147],[-122.347651,47.586005],[-122.347606,47.585971],[-122.347522,47.585966],[-122.347523,47.585876],[-122.347656,47.585877],[-122.347678,47.585951],[-122.347788,47.585968]]]}},{"type":"Feature","properties":{"id":26,"area_m2":300,"px":3,"rank":73},"geometry":{"type":"Polygon","coordinates":[[[-122.346115,47.581459],[-122.346112,47.581729],[-122.345979,47.581728],[-122.345982,47.581459],[-122.346115,47.581459]]]}},{"type":"Feature","properties":{"id":27,"area_m2":300,"px":3,"rank":74},"geometry":{"type":"Polygon","coordinates":[[[-122.347977,47.58147],[-122.347975,47.58156],[-122.347577,47.581558],[-122.347578,47.581468],[-122.347977,47.58147]]]}},{"type":"Feature","properties":{"id":28,"area_m2":300,"px":3,"rank":75},"geometry":{"type":"Polygon","coordinates":[[[-122.347981,47.58111],[-122.34798,47.5812],[-122.347714,47.581198],[-122.347716,47.581019],[-122.347849,47.581019],[-122.347872,47.581094],[-122.347981,47.58111]]]}},{"type":"Feature","properties":{"id":34,"area_m2":300,"px":3,"rank":76},"geometry":{"type":"Polygon","coordinates":[[[-122.347865,47.57976],[-122.347863,47.57994],[-122.347597,47.579938],[-122.347598,47.579848],[-122.347708,47.579833],[-122.347732,47.579759],[-122.347865,47.57976]]]}},{"type":"Feature","properties":{"id":37,"area_m2":300,"px":3,"rank":77},"geometry":{"type":"Polygon","coordinates":[[[-122.34814,47.579041],[-122.348136,47.579311],[-122.348004,47.57931],[-122.348007,47.579041],[-122.34814,47.579041]]]}},{"type":"Feature","properties":{"id":39,"area_m2":300,"px":3,"rank":78},"geometry":{"type":"Polygon","coordinates":[[[-122.352663,47.578887],[-122.35266,47.579157],[-122.352527,47.579156],[-122.35253,47.578886],[-122.352663,47.578887]]]}},{"type":"Feature","properties":{"id":43,"area_m2":300,"px":3,"rank":79},"geometry":{"type":"Polygon","coordinates":[[[-122.348143,47.578772],[-122.348141,47.578951],[-122.347875,47.57895],[-122.347876,47.57886],[-122.347986,47.578845],[-122.34801,47.578771],[-122.348143,47.578772]]]}},{"type":"Feature","properties":{"id":44,"area_m2":300,"px":3,"rank":80},"geometry":{"type":"Polygon","coordinates":[[[-122.349075,47.578687],[-122.349073,47.578867],[-122.348807,47.578865],[-122.348808,47.578775],[-122.348918,47.57876],[-122.348942,47.578686],[-122.349075,47.578687]]]}},{"type":"Feature","properties":{"id":53,"area_m2":300,"px":3,"rank":81},"geometry":{"type":"Polygon","coordinates":[[[-122.352423,47.576816],[-122.352421,47.576906],[-122.352156,47.576905],[-122.352158,47.576725],[-122.352291,47.576725],[-122.352313,47.5768],[-122.352423,47.576816]]]}},{"type":"Feature","properties":{"id":58,"area_m2":300,"px":3,"rank":82},"geometry":{"type":"Polygon","coordinates":[[[-122.350301,47.576354],[-122.350297,47.576624],[-122.350165,47.576623],[-122.350168,47.576354],[-122.350301,47.576354]]]}},{"type":"Feature","properties":{"id":63,"area_m2":300,"px":3,"rank":83},"geometry":{"type":"Polygon","coordinates":[[[-122.346853,47.575615],[-122.34685,47.575795],[-122.346585,47.575793],[-122.346586,47.575703],[-122.346695,47.575688],[-122.34672,47.575614],[-122.346853,47.575615]]]}},{"type":"Feature","properties":{"id":70,"area_m2":300,"px":3,"rank":84},"geometry":{"type":"Polygon","coordinates":[[[-122.349784,47.575092],[-122.349783,47.575182],[-122.349674,47.575197],[-122.349649,47.575271],[-122.349516,47.57527],[-122.349519,47.57509],[-122.349784,47.575092]]]}},{"type":"Feature","properties":{"id":76,"area_m2":300,"px":3,"rank":85},"geometry":{"type":"Polygon","coordinates":[[[-122.346333,47.574622],[-122.346332,47.574712],[-122.346222,47.574727],[-122.346198,47.574801],[-122.346065,47.5748],[-122.346067,47.574621],[-122.346333,47.574622]]]}},{"type":"Feature","properties":{"id":83,"area_m2":300,"px":3,"rank":86},"geometry":{"type":"Polygon","coordinates":[[[-122.348604,47.573735],[-122.348602,47.573915],[-122.348337,47.573914],[-122.348338,47.573824],[-122.348447,47.573809],[-122.348472,47.573735],[-122.348604,47.573735]]]}},{"type":"Feature","properties":{"id":85,"area_m2":300,"px":3,"rank":87},"geometry":{"type":"Polygon","coordinates":[[[-122.352727,47.573669],[-122.352726,47.573759],[-122.352327,47.573756],[-122.352329,47.573666],[-122.352727,47.573669]]]}}]}