{"type":"FeatureCollection","features":[{"type":"Feature","properties":{"id":8,"area_m2":1300,"px":13,"rank":1},"geometry":{"type":"Polygon","coordinates":[[[-122.349128,47.585166],[-122.349122,47.585615],[-122.349046,47.585617],[-122.348998,47.585643],[-122.348987,47.585795],[-122.348854,47.585794],[-122.348846,47.585642],[-122.3488,47.585616],[-122.348723,47.585613],[-122.348726,47.585433],[-122.348802,47.585431],[-122.348849,47.585405],[-122.348861,47.585254],[-122.34897,47.585239],[-122.348995,47.585165],[-122.349128,47.585166]]]}},{"type":"Feature","properties":{"id":4,"area_m2":1100,"px":11,"rank":2},"geometry":{"type":"Polygon","coordinates":[[[-122.348047,47.586509],[-122.348044,47.586779],[-122.347946,47.586788],[-122.34791,47.586868],[-122.34779,47.586892],[-122.347774,47.587047],[-122.347642,47.587047],[-122.347646,47.586687],[-122.347682,47.586645],[-122.347647,47.586597],[-122.347648,47.586507],[-122.347781,47.586508],[-122.347843,47.586532],[-122.347914,47.586508],[-122.348047,47.586509]]]}},{"type":"Feature","properties":{"id":7,"area_m2":1100,"px":11,"rank":3},"geometry":{"type":"Polygon","coordinates":[[[-122.347926,47.585519],[-122.347923,47.585788],[-122.347832,47.585794],[-122.34779,47.585836],[-122.347786,47.586148],[-122.34752,47.586146],[-122.347522,47.585966],[-122.347613,47.58596],[-122.347654,47.585924],[-122.347659,47.585607],[-122.347769,47.585592],[-122.347794,47.585518],[-122.347926,47.585519]]]}},{"type":"Feature","properties":{"id":22,"area_m2":1100,"px":11,"rank":4},"geometry":{"type":"Polygon","coordinates":[[[-122.349169,47.581837],[-122.349163,47.582286],[-122.349031,47.582286],[-122.349028,47.58222],[-122.348984,47.582186],[-122.348766,47.582194],[-122.348768,47.582014],[-122.348852,47.582011],[-122.348898,47.581977],[-122.348904,47.581745],[-122.349037,47.581746],[-122.34906,47.58182],[-122.349169,47.581837]]]}},{"type":"Feature","properties":{"id":10,"area_m2":1000,"px":10,"rank":5},"geometry":{"type":"Polygon","coordinates":[[[-122.347802,47.584798],[-122.347801,47.584888],[-122.347704,47.584897],[-122.347668,47.584941],[-122.34768,47.585043],[-122.347799,47.585068],[-122.347797,47.585248],[-122.347664,47.585247],[-122.347661,47.585196],[-122.347623,47.585163],[-122.347399,47.585156],[-122.3474,47.585066],[-122.347498,47.585057],[-122.347534,47.585013],[-122.347533,47.584835],[-122.347487,47.5848],[-122.347404,47.584796],[-122.347405,47.584706],[-122.34767,47.584707],[-122.347693,47.584782],[-122.347802,47.584798]]]}},{"type":"Feature","properties":{"id":17,"area_m2":1000,"px":10,"rank":6},"geometry":{"type":"Polygon","coordinates":[[[-122.349161,47.582466],[-122.34916,47.582556],[-122.349062,47.582565],[-122.349026,47.58261],[-122.349039,47.582712],[-122.349158,47.582736],[-122.349154,47.583006],[-122.349057,47.583015],[-122.349021,47.583059],[-122.349033,47.583161],[-122.349152,47.583186],[-122.349151,47.583276],[-122.349018,47.583275],[-122.348996,47.583201],[-122.348886,47.583185],[-122.348889,47.583005],[-122.348986,47.582996],[-122.349022,47.582951],[-122.349018,47.582769],[-122.348976,47.582739],[-122.348892,47.582735],[-122.348895,47.582465],[-122.349161,47.582466]]]}},{"type":"Feature","properties":{"id":16,"area_m2":900,"px":9,"rank":7},"geometry":{"type":"Polygon","coordinates":[[[-122.34915,47.583366],[-122.349146,47.583726],[-122.349036,47.583741],[-122.349011,47.583815],[-122.348879,47.583814],[-122.348884,47.583365],[-122.34915,47.583366]]]}},{"type":"Feature","properties":{"id":14,"area_m2":800,"px":8,"rank":8},"geometry":{"type":"Polygon","coordinates":[[[-122.348738,47.584444],[-122.348737,47.584533],[-122.348627,47.584549],[-122.348602,47.584623],[-122.348483,47.584646],[-122.348468,47.584712],[-122.348336,47.584711],[-122.34834,47.584351],[-122.348606,47.584353],[-122.348628,47.584427],[-122.348738,47.584444]]]}},{"type":"Feature","properties":{"id":6,"area_m2":700,"px":7,"rank":9},"geometry":{"type":"Polygon","coordinates":[[[-122.34925,47.586066],[-122.349248,47.586156],[-122.349165,47.58616],[-122.349118,47.586194],[-122.349113,47.586335],[-122.34898,47.586334],[-122.348958,47.58626],[-122.348848,47.586244],[-122.348851,47.586064],[-122.34896,47.586049],[-122.348985,47.585975],[-122.349118,47.585975],[-122.34914,47.58605],[-122.34925,47.586066]]]}},{"type":"Feature","properties":{"id":12,"area_m2":700,"px":7,"rank":10},"geometry":{"type":"Polygon","coordinates":[[[-122.349134,47.584626],[-122.349131,47.584896],[-122.348865,47.584894],[-122.34887,47.584534],[-122.349002,47.584535],[-122.349025,47.584609],[-122.349134,47.584626]]]}},{"type":"Feature","properties":{"id":34,"area_m2":700,"px":7,"rank":11},"geometry":{"type":"Polygon","coordinates":[[[-122.346432,47.577322],[-122.34643,47.577502],[-122.34632,47.577517],[-122.346296,47.577591],[-122.346163,47.57759],[-122.346141,47.577516],[-122.346031,47.5775],[-122.346033,47.57741],[-122.346137,47.577406],[-122.346185,47.577366],[-122.34617,47.577051],[-122.346303,47.577051],[-122.346303,47.577283],[-122.346349,47.577317],[-122.346432,47.577322]]]}},{"type":"Feature","properties":{"id":48,"area_m2":700,"px":7,"rank":12},"geometry":{"type":"Polygon","coordinates":[[[-122.352715,47.574658],[-122.352714,47.574748],[-122.352604,47.574763],[-122.35258,47.574837],[-122.352482,47.574846],[-122.352446,47.574927],[-122.352331,47.574946],[-122.352312,47.575016],[-122.352179,47.575015],[-122.352156,47.574941],[-122.352047,47.574924],[-122.352048,47.574835],[-122.352265,47.574832],[-122.352308,47.574803],[-122.352315,47.574746],[-122.352524,47.574745],[-122.352575,47.574714],[-122.352582,47.574658],[-122.352715,47.574658]]]}},{"type":"Feature","properties":{"id":42,"area_m2":600,"px":6,"rank":13},"geometry":{"type":"Polygon","coordinates":[[[-122.347248,47.575887],[-122.347244,47.576247],[-122.347111,47.576246],[-122.347103,47.576095],[-122.347056,47.576068],[-122.34698,47.576065],[-122.346982,47.575886],[-122.347248,47.575887]]]}},{"type":"Feature","properties":{"id":3,"area_m2":500,"px":5,"rank":14},"geometry":{"type":"Polygon","coordinates":[[[-122.348564,47.587682],[-122.348562,47.587862],[-122.348296,47.58786],[-122.3483,47.58759],[-122.348433,47.587591],[-122.348455,47.587665],[-122.348564,47.587682]]]}},{"type":"Feature","properties":{"id":15,"area_m2":500,"px":5,"rank":15},"geometry":{"type":"Polygon","coordinates":[[[-122.348074,47.58435],[-122.348072,47.58453],[-122.347939,47.584529],[-122.347876,47.584504],[-122.347806,47.584528],[-122.347673,47.584527],[-122.347674,47.584438],[-122.347758,47.584434],[-122.347804,47.5844],[-122.347809,47.584258],[-122.347942,47.584259],[-122.347965,47.584333],[-122.348074,47.58435]]]}},{"type":"Feature","properties":{"id":18,"area_m2":500,"px":5,"rank":16},"geometry":{"type":"Polygon","coordinates":[[[-122.347694,47.582818],[-122.347691,47.583088],[-122.347425,47.583086],[-122.347427,47.582906],[-122.347537,47.582891],[-122.347561,47.582817],[-122.347694,47.582818]]]}},{"type":"Feature","properties":{"id":20,"area_m2":500,"px":5,"rank":17},"geometry":{"type":"Polygon","coordinates":[[[-122.348497,47.582373],[-122.348493,47.582732],[-122.34836,47.582732],[-122.348338,47.582657],[-122.348228,47.582641],[-122.348229,47.582551],[-122.348306,47.582549],[-122.348353,47.582523],[-122.348365,47.582372],[-122.348497,47.582373]]]}},{"type":"Feature","properties":{"id":23,"area_m2":500,"px":5,"rank":18},"geometry":{"type":"Polygon","coordinates":[[[-122.348635,47.582014],[-122.348633,47.582193],[-122.348523,47.582209],[-122.348498,47.582283],[-122.348366,47.582282],[-122.348343,47.582208],[-122.348234,47.582191],[-122.348235,47.582101],[-122.348444,47.5821],[-122.348495,47.582069],[-122.348502,47.582013],[-122.348635,47.582014]]]}},{"type":"Feature","properties":{"id":32,"area_m2":500,"px":5,"rank":19},"geometry":{"type":"Polygon","coordinates":[[[-122.350011,47.578242],[-122.350009,47.578422],[-122.349899,47.578437],[-122.349875,47.578511],[-122.349742,47.578511],[-122.349746,47.578241],[-122.350011,47.578242]]]}},{"type":"Feature","properties":{"id":37,"area_m2":500,"px":5,"rank":20},"geometry":{"type":"Polygon","coordinates":[[[-122.348698,47.576885],[-122.348697,47.576975],[-122.348299,47.576973],[-122.348301,47.576793],[-122.348567,47.576794],[-122.348589,47.576869],[-122.348698,47.576885]]]}},{"type":"Feature","properties":{"id":36,"area_m2":500,"px":5,"rank":21},"geometry":{"type":"Polygon","coordinates":[[[-122.347238,47.576697],[-122.347234,47.577057],[-122.347101,47.577056],[-122.347099,47.576914],[-122.347054,47.57688],[-122.34697,47.576875],[-122.346971,47.576785],[-122.347081,47.57677],[-122.347105,47.576696],[-122.347238,47.576697]]]}},{"type":"Feature","properties":{"id":45,"area_m2":500,"px":5,"rank":22},"geometry":{"type":"Polygon","coordinates":[[[-122.34805,47.575532],[-122.348049,47.575622],[-122.34794,47.575637],[-122.347915,47.575711],[-122.347649,47.575709],[-122.347652,47.575529],[-122.34805,47.575532]]]}},{"type":"Feature","properties":{"id":50,"area_m2":500,"px":5,"rank":23},"geometry":{"type":"Polygon","coordinates":[[[-122.353249,47.574481],[-122.353247,47.574661],[-122.352981,47.57466],[-122.352984,47.57439],[-122.353117,47.574391],[-122.35314,47.574465],[-122.353249,47.574481]]]}},{"type":"Feature","properties":{"id":1,"area_m2":400,"px":4,"rank":24},"geometry":{"type":"Polygon","coordinates":[[[-122.347889,47.588488],[-122.347888,47.588578],[-122.347798,47.588584],[-122.347756,47.58862],[-122.347752,47.588847],[-122.347619,47.588846],[-122.347623,47.588576],[-122.347732,47.588561],[-122.347757,47.588487],[-122.347889,47.588488]]]}},{"type":"Feature","properties":{"id":2,"area_m2":400,"px":4,"rank":25},"geometry":{"type":"Polygon","coordinates":[[[-122.348029,47.587949],[-122.348027,47.588129],[-122.347761,47.588127],[-122.347763,47.587947],[-122.348029,47.587949]]]}},{"type":"Feature","properties":{"id":9,"area_m2":400,"px":4,"rank":26},"geometry":{"type":"Polygon","coordinates":[[[-122.348729,47.585163],[-122.348726,47.585343],[-122.348461,47.585342],[-122.348463,47.585162],[-122.348729,47.585163]]]}},{"type":"Feature","properties":{"id":21,"area_m2":400,"px":4,"rank":27},"geometry":{"type":"Polygon","coordinates":[[[-122.347965,47.58237],[-122.347963,47.582549],[-122.347697,47.582548],[-122.3477,47.582368],[-122.347965,47.58237]]]}},{"type":"Feature","properties":{"id":26,"area_m2":400,"px":4,"rank":28},"geometry":{"type":"Polygon","coordinates":[[[-122.349582,47.580669],[-122.34958,47.580849],[-122.349314,47.580848],[-122.349317,47.580668],[-122.349582,47.580669]]]}},{"type":"Feature","properties":{"id":27,"area_m2":400,"px":4,"rank":29},"geometry":{"type":"Polygon","coordinates":[[[-122.347724,47.580389],[-122.347722,47.580569],[-122.347456,47.580567],[-122.347458,47.580387],[-122.347724,47.580389]]]}},{"type":"Feature","properties":{"id":28,"area_m2":400,"px":4,"rank":30},"geometry":{"type":"Polygon","coordinates":[[[-122.352924,47.579248],[-122.352923,47.579338],[-122.352814,47.579354],[-122.352789,47.579428],[-122.352656,47.579427],[-122.352634,47.579353],[-122.352525,47.579336],[-122.352526,47.579246],[-122.352924,47.579248]]]}},{"type":"Feature","properties":{"id":29,"area_m2":400,"px":4,"rank":31},"geometry":{"type":"Polygon","coordinates":[[[-122.353464,47.578622],[-122.35346,47.578981],[-122.353327,47.578981],[-122.353331,47.578621],[-122.353464,47.578622]]]}},{"type":"Feature","properties":{"id":30,"area_m2":400,"px":4,"rank":32},"geometry":{"type":"Polygon","coordinates":[[[-122.354528,47.578628],[-122.354525,47.578897],[-122.354392,47.578897],[-122.35439,47.578755],[-122.354345,47.578721],[-122.354261,47.578716],[-122.354262,47.578626],[-122.354528,47.578628]]]}},{"type":"Feature","properties":{"id":31,"area_m2":400,"px":4,"rank":33},"geometry":{"type":"Polygon","coordinates":[[[-122.347749,47.578409],[-122.347746,47.578589],[-122.347481,47.578588],[-122.347483,47.578408],[-122.347749,47.578409]]]}},{"type":"Feature","properties":{"id":41,"area_m2":400,"px":4,"rank":34},"geometry":{"type":"Polygon","coordinates":[[[-122.353761,47.576104],[-122.35376,47.576194],[-122.35365,47.576209],[-122.353626,47.576283],[-122.353493,47.576282],[-122.353496,47.576012],[-122.353629,47.576013],[-122.353652,47.576087],[-122.353761,47.576104]]]}},{"type":"Feature","properties":{"id":43,"area_m2":400,"px":4,"rank":35},"geometry":{"type":"Polygon","coordinates":[[[-122.351639,47.575642],[-122.351637,47.575822],[-122.351371,47.57582],[-122.351373,47.575641],[-122.351639,47.575642]]]}},{"type":"Feature","properties":{"id":5,"area_m2":300,"px":3,"rank":36},"geometry":{"type":"Polygon","coordinates":[[[-122.347247,47.586685],[-122.347245,47.586864],[-122.347112,47.586864],[-122.347089,47.586789],[-122.34698,47.586773],[-122.346981,47.586683],[-122.347247,47.586685]]]}},{"type":"Feature","properties":{"id":11,"area_m2":300,"px":3,"rank":37},"geometry":{"type":"Polygon","coordinates":[[[-122.349663,47.584899],[-122.349661,47.585079],[-122.349395,47.585077],[-122.349396,47.584987],[-122.349506,47.584972],[-122.34953,47.584898],[-122.349663,47.584899]]]}},{"type":"Feature","properties":{"id":13,"area_m2":300,"px":3,"rank":38},"geometry":{"type":"Polygon","coordinates":[[[-122.34807,47.58462],[-122.348067,47.58489],[-122.347934,47.584889],[-122.347938,47.584619],[-122.34807,47.58462]]]}},{"type":"Feature","properties":{"id":19,"area_m2":300,"px":3,"rank":39},"geometry":{"type":"Polygon","coordinates":[[[-122.346099,47.582719],[-122.346096,47.582989],[-122.345963,47.582988],[-122.345966,47.582718],[-122.346099,47.582719]]]}},{"type":"Feature","properties":{"id":24,"area_m2":300,"px":3,"rank":40},"geometry":{"type":"Polygon","coordinates":[[[-122.347187,47.580836],[-122.347183,47.581105],[-122.34705,47.581105],[-122.347054,47.580835],[-122.347187,47.580836]]]}},{"type":"Feature","properties":{"id":25,"area_m2":300,"px":3,"rank":41},"geometry":{"type":"Polygon","coordinates":[[[-122.348517,47.580753],[-122.348514,47.581023],[-122.348381,47.581022],[-122.348385,47.580752],[-122.348517,47.580753]]]}},{"type":"Feature","properties":{"id":33,"area_m2":300,"px":3,"rank":42},"geometry":{"type":"Polygon","coordinates":[[[-122.347752,47.578139],[-122.34775,47.578319],[-122.347484,47.578318],[-122.347485,47.578228],[-122.347595,47.578213],[-122.347619,47.578139],[-122.347752,47.578139]]]}},{"type":"Feature","properties":{"id":35,"area_m2":300,"px":3,"rank":43},"geometry":{"type":"Polygon","coordinates":[[[-122.346836,47.576964],[-122.346832,47.577234],[-122.3467,47.577234],[-122.346703,47.576964],[-122.346836,47.576964]]]}},{"type":"Feature","properties":{"id":38,"area_m2":300,"px":3,"rank":44},"geometry":{"type":"Polygon","coordinates":[[[-122.350168,47.576354],[-122.350165,47.576533],[-122.3499,47.576532],[-122.349901,47.576442],[-122.350011,47.576427],[-122.350035,47.576353],[-122.350168,47.576354]]]}},{"type":"Feature","properties":{"id":39,"area_m2":300,"px":3,"rank":45},"geometry":{"type":"Polygon","coordinates":[[[-122.353094,47.57628],[-122.353092,47.57646],[-122.352826,47.576458],[-122.352827,47.576369],[-122.352937,47.576353],[-122.352961,47.576279],[-122.353094,47.57628]]]}},{"type":"Feature","properties":{"id":40,"area_m2":300,"px":3,"rank":46},"geometry":{"type":"Polygon","coordinates":[[[-122.348041,47.576252],[-122.34804,47.576341],[-122.347931,47.576357],[-122.347906,47.576431],[-122.347773,47.57643],[-122.347776,47.57625],[-122.348041,47.576252]]]}},{"type":"Feature","properties":{"id":44,"area_m2":300,"px":3,"rank":47},"geometry":{"type":"Polygon","coordinates":[[[-122.35297,47.57556],[-122.352968,47.575739],[-122.352835,47.575739],[-122.352812,47.575664],[-122.352703,47.575648],[-122.352704,47.575558],[-122.35297,47.57556]]]}},{"type":"Feature","properties":{"id":46,"area_m2":300,"px":3,"rank":48},"geometry":{"type":"Polygon","coordinates":[[[-122.347258,47.575077],[-122.347257,47.575167],[-122.347147,47.575182],[-122.347123,47.575256],[-122.34699,47.575256],[-122.346992,47.575076],[-122.347258,47.575077]]]}},{"type":"Feature","properties":{"id":47,"area_m2":300,"px":3,"rank":49},"geometry":{"type":"Polygon","coordinates":[[[-122.353509,47.574933],[-122.353508,47.575023],[-122.353399,47.575038],[-122.353374,47.575112],[-122.353242,47.575111],[-122.353244,47.574931],[-122.353509,47.574933]]]}},{"type":"Feature","properties":{"id":49,"area_m2":300,"px":3,"rank":50},"geometry":{"type":"Polygon","coordinates":[[[-122.350588,47.574646],[-122.350587,47.574736],[-122.350477,47.574751],[-122.350453,47.574825],[-122.350333,47.574849],[-122.350318,47.574915],[-122.350186,47.574914],[-122.350187,47.574824],[-122.350296,47.574809],[-122.350321,47.574735],[-122.350441,47.574711],[-122.350455,47.574646],[-122.350588,47.574646]]]}},{"type":"Feature","properties":{"id":51,"area_m2":300,"px":3,"rank":51},"geometry":{"type":"Polygon","coordinates":[[[-122.346478,47.573633],[-122.346476,47.573813],[-122.34621,47.573812],[-122.346211,47.573722],[-122.346321,47.573706],[-122.346346,47.573632],[-122.346478,47.573633]]]}}]}