{"type":"FeatureCollection","features":[{"type":"Feature","properties":{"id":37,"area_m2":2000,"px":20,"rank":1},"geometry":{"type":"Polygon","coordinates":[[[-122.346569,47.577053],[-122.346565,47.577323],[-122.34645,47.577342],[-122.346411,47.577446],[-122.346451,47.577495],[-122.346563,47.577503],[-122.346561,47.577683],[-122.346463,47.577691],[-122.346427,47.577772],[-122.346307,47.577795],[-122.346292,47.577951],[-122.346159,47.57795],[-122.346151,47.577799],[-122.346104,47.577772],[-122.346028,47.577768],[-122.346029,47.57768],[-122.346113,47.577676],[-122.346159,47.577642],[-122.346164,47.577459],[-122.346123,47.577417],[-122.346033,47.57741],[-122.346034,47.57732],[-122.346271,47.577309],[-122.3463,47.577273],[-122.346302,47.577141],[-122.346412,47.577126],[-122.346436,47.577052],[-122.346569,47.577053]]]}},{"type":"Feature","properties":{"id":6,"area_m2":1900,"px":19,"rank":2},"geometry":{"type":"Polygon","coordinates":[[[-122.348173,47.58705],[-122.348172,47.58714],[-122.348062,47.587155],[-122.348038,47.587229],[-122.347905,47.587228],[-122.347843,47.587204],[-122.347772,47.587227],[-122.347639,47.587227],[-122.34764,47.586905],[-122.347594,47.586871],[-122.347511,47.586866],[-122.347476,47.586785],[-122.347379,47.586775],[-122.34738,47.586685],[-122.34749,47.58667],[-122.347516,47.586596],[-122.347647,47.586597],[-122.347647,47.586733],[-122.347701,47.586775],[-122.347862,47.586774],[-122.347905,47.586745],[-122.347912,47.586688],[-122.348045,47.586689],[-122.348023,47.587009],[-122.348069,47.587045],[-122.348173,47.58705]]]}},{"type":"Feature","properties":{"id":24,"area_m2":1900,"px":19,"rank":3},"geometry":{"type":"Polygon","coordinates":[[[-122.349331,47.579498],[-122.349328,47.579768],[-122.348796,47.579765],[-122.348801,47.579315],[-122.348878,47.579313],[-122.348925,47.579287],[-122.348937,47.579136],[-122.349069,47.579137],[-122.349076,47.579378],[-122.349123,47.579405],[-122.349199,47.579407],[-122.349234,47.579488],[-122.349331,47.579498]]]}},{"type":"Feature","properties":{"id":40,"area_m2":1900,"px":19,"rank":4},"geometry":{"type":"Polygon","coordinates":[[[-122.34817,47.576612],[-122.348169,47.576702],[-122.348085,47.576706],[-122.348039,47.57674],[-122.348034,47.576881],[-122.347924,47.576896],[-122.3479,47.57697],[-122.347634,47.576969],[-122.347626,47.576818],[-122.347579,47.576791],[-122.347503,47.576788],[-122.347508,47.576428],[-122.34764,47.576429],[-122.347649,47.576491],[-122.347703,47.576518],[-122.348038,47.576521],[-122.348061,47.576596],[-122.34817,47.576612]]]}},{"type":"Feature","properties":{"id":11,"area_m2":1300,"px":13,"rank":5},"geometry":{"type":"Polygon","coordinates":[[[-122.347931,47.58489],[-122.347898,47.584936],[-122.347933,47.584979],[-122.347932,47.585069],[-122.347841,47.585075],[-122.347799,47.585117],[-122.347793,47.585518],[-122.347661,47.585517],[-122.347667,47.584936],[-122.347626,47.584893],[-122.347535,47.584886],[-122.347537,47.584797],[-122.347779,47.584782],[-122.347805,47.584618],[-122.347938,47.584619],[-122.347931,47.58489]]]}},{"type":"Feature","properties":{"id":50,"area_m2":1300,"px":13,"rank":6},"geometry":{"type":"Polygon","coordinates":[[[-122.350588,47.574646],[-122.350587,47.574736],[-122.350477,47.574751],[-122.350453,47.574825],[-122.35032,47.574825],[-122.35025,47.5748],[-122.350096,47.57483],[-122.350057,47.574862],[-122.350053,47.574913],[-122.349933,47.574936],[-122.349918,47.575002],[-122.349803,47.575021],[-122.349784,47.575092],[-122.349652,47.575091],[-122.349653,47.575001],[-122.349736,47.574997],[-122.349783,47.574963],[-122.349788,47.574822],[-122.349892,47.57481],[-122.349922,47.574733],[-122.35002,47.574724],[-122.350056,47.574643],[-122.350132,47.574641],[-122.35018,47.574615],[-122.350191,47.574464],[-122.350324,47.574465],[-122.350323,47.574596],[-122.350357,47.574636],[-122.350588,47.574646]]]}},{"type":"Feature","properties":{"id":26,"area_m2":1200,"px":12,"rank":7},"geometry":{"type":"Polygon","coordinates":[[[-122.353597,47.578622],[-122.353594,47.578892],[-122.353496,47.578901],[-122.35346,47.578981],[-122.353383,47.578983],[-122.353336,47.579009],[-122.353323,47.579251],[-122.353191,47.57925],[-122.353195,47.57889],[-122.353293,47.578881],[-122.353329,47.578837],[-122.353316,47.578735],[-122.353197,47.57871],[-122.353198,47.57862],[-122.353597,47.578622]]]}},{"type":"Feature","properties":{"id":35,"area_m2":1200,"px":12,"rank":8},"geometry":{"type":"Polygon","coordinates":[[[-122.348288,47.577783],[-122.348287,47.577872],[-122.348204,47.577876],[-122.348157,47.57791],[-122.348152,47.578052],[-122.34795,47.578052],[-122.347892,47.578084],[-122.34789,47.578197],[-122.347933,47.578226],[-122.348017,47.578231],[-122.348016,47.57832],[-122.347918,47.578323],[-122.347871,47.57835],[-122.347881,47.5785],[-122.347748,47.578499],[-122.347685,47.578475],[-122.347615,47.578498],[-122.347482,47.578498],[-122.347484,47.578318],[-122.347582,47.578309],[-122.347618,47.578229],[-122.347738,47.578205],[-122.347753,47.578049],[-122.347863,47.578034],[-122.347887,47.57796],[-122.347985,47.577952],[-122.348021,47.577871],[-122.348136,47.577852],[-122.348156,47.577782],[-122.348288,47.577783]]]}},{"type":"Feature","properties":{"id":46,"area_m2":1200,"px":12,"rank":9},"geometry":{"type":"Polygon","coordinates":[[[-122.348188,47.575173],[-122.348187,47.575262],[-122.348103,47.575266],[-122.348057,47.5753],[-122.348051,47.575442],[-122.347942,47.575457],[-122.347917,47.575531],[-122.347785,47.57553],[-122.347779,47.575473],[-122.347729,47.575442],[-122.34752,47.575439],[-122.347521,47.575349],[-122.347605,47.575345],[-122.347651,47.575311],[-122.347656,47.57517],[-122.348188,47.575173]]]}},{"type":"Feature","properties":{"id":1,"area_m2":1100,"px":11,"rank":10},"geometry":{"type":"Polygon","coordinates":[[[-122.348149,47.589029],[-122.348148,47.589119],[-122.348017,47.589118],[-122.348012,47.589067],[-122.347974,47.589034],[-122.34775,47.589027],[-122.347751,47.588937],[-122.347849,47.588928],[-122.347885,47.588884],[-122.347872,47.588782],[-122.347753,47.588757],[-122.347757,47.588487],[-122.348022,47.588489],[-122.348018,47.588985],[-122.348058,47.589022],[-122.348149,47.589029]]]}},{"type":"Feature","properties":{"id":58,"area_m2":1000,"px":10,"rank":11},"geometry":{"type":"Polygon","coordinates":[[[-122.346745,47.573545],[-122.346743,47.573725],[-122.346633,47.57374],[-122.346609,47.573814],[-122.346476,47.573813],[-122.346414,47.573789],[-122.346343,47.573812],[-122.34621,47.573812],[-122.346213,47.573632],[-122.346303,47.573626],[-122.346344,47.573589],[-122.34635,47.573273],[-122.346483,47.573273],[-122.346502,47.573541],[-122.346557,47.573557],[-122.346745,47.573545]]]}},{"type":"Feature","properties":{"id":19,"area_m2":900,"px":9,"rank":12},"geometry":{"type":"Polygon","coordinates":[[[-122.346925,47.580474],[-122.346923,47.580654],[-122.346825,47.580663],[-122.346789,47.580707],[-122.346802,47.580809],[-122.346921,47.580834],[-122.34692,47.580924],[-122.34681,47.580939],[-122.346785,47.581013],[-122.346653,47.581012],[-122.346659,47.580473],[-122.346925,47.580474]]]}},{"type":"Feature","properties":{"id":39,"area_m2":900,"px":9,"rank":13},"geometry":{"type":"Polygon","coordinates":[[[-122.348569,47.576614],[-122.348564,47.576974],[-122.348355,47.576975],[-122.348304,47.577006],[-122.348297,47.577063],[-122.348165,47.577062],[-122.348166,47.576972],[-122.348256,47.576966],[-122.348297,47.576929],[-122.348303,47.576613],[-122.348569,47.576614]]]}},{"type":"Feature","properties":{"id":42,"area_m2":900,"px":9,"rank":14},"geometry":{"type":"Polygon","coordinates":[[[-122.348044,47.576072],[-122.348041,47.576251],[-122.347932,47.576267],[-122.347907,47.576341],[-122.347775,47.57634],[-122.347769,47.576283],[-122.347719,47.576252],[-122.34751,47.576248],[-122.347513,47.575979],[-122.347779,47.57598],[-122.347784,47.57605],[-122.34784,47.576083],[-122.348044,47.576072]]]}},{"type":"Feature","properties":{"id":21,"area_m2":700,"px":7,"rank":15},"geometry":{"type":"Polygon","coordinates":[[[-122.347997,47.57985],[-122.347993,47.58012],[-122.347784,47.580121],[-122.347733,47.580152],[-122.347726,47.580209],[-122.347594,47.580208],[-122.347595,47.580118],[-122.347631,47.580076],[-122.347596,47.580028],[-122.347597,47.579938],[-122.347806,47.579937],[-122.347857,47.579906],[-122.347864,47.57985],[-122.347997,47.57985]]]}},{"type":"Feature","properties":{"id":32,"area_m2":700,"px":7,"rank":16},"geometry":{"type":"Polygon","coordinates":[[[-122.349341,47.578688],[-122.34934,47.578778],[-122.349003,47.578764],[-122.348947,47.578796],[-122.34894,47.578866],[-122.348807,47.578865],[-122.348809,47.578685],[-122.348919,47.57867],[-122.348943,47.578596],[-122.349063,47.578573],[-122.349077,47.578507],[-122.34921,47.578508],[-122.349218,47.578659],[-122.349265,47.578686],[-122.349341,47.578688]]]}},{"type":"Feature","properties":{"id":47,"area_m2":700,"px":7,"rank":17},"geometry":{"type":"Polygon","coordinates":[[[-122.348718,47.575266],[-122.348717,47.575355],[-122.348319,47.575353],[-122.348322,47.575083],[-122.348588,47.575085],[-122.348595,47.575236],[-122.348642,47.575263],[-122.348718,47.575266]]]}},{"type":"Feature","properties":{"id":18,"area_m2":600,"px":6,"rank":18},"geometry":{"type":"Polygon","coordinates":[[[-122.347854,47.580659],[-122.34785,47.580929],[-122.347741,47.580944],[-122.347716,47.581018],[-122.347583,47.581018],[-122.347585,47.580928],[-122.347682,47.580919],[-122.347718,47.580875],[-122.347706,47.580772],[-122.347587,47.580748],[-122.347589,47.580568],[-122.347722,47.580569],[-122.347744,47.580643],[-122.347854,47.580659]]]}},{"type":"Feature","properties":{"id":34,"area_m2":600,"px":6,"rank":19},"geometry":{"type":"Polygon","coordinates":[[[-122.352138,47.578344],[-122.352137,47.578434],[-122.352053,47.578438],[-122.352007,47.578472],[-122.352001,47.578613],[-122.351869,47.578613],[-122.351806,47.578588],[-122.351736,47.578612],[-122.351603,47.578611],[-122.351604,47.578521],[-122.351714,47.578506],[-122.351738,47.578432],[-122.351858,47.578409],[-122.351872,47.578343],[-122.352138,47.578344]]]}},{"type":"Feature","properties":{"id":36,"area_m2":600,"px":6,"rank":20},"geometry":{"type":"Polygon","coordinates":[[[-122.352672,47.578167],[-122.352671,47.578257],[-122.352587,47.578261],[-122.352541,47.578295],[-122.352536,47.578436],[-122.35227,47.578435],[-122.352272,47.578255],[-122.352382,47.57824],[-122.352406,47.578166],[-122.352672,47.578167]]]}},{"type":"Feature","properties":{"id":57,"area_m2":600,"px":6,"rank":21},"geometry":{"type":"Polygon","coordinates":[[[-122.348337,47.573824],[-122.348336,47.573914],[-122.348071,47.573912],[-122.348048,47.573838],[-122.347939,47.573821],[-122.347904,47.57374],[-122.347807,47.573731],[-122.347808,47.573641],[-122.348074,47.573642],[-122.348096,47.573717],[-122.348206,47.573733],[-122.34824,47.573814],[-122.348337,47.573824]]]}},{"type":"Feature","properties":{"id":3,"area_m2":500,"px":5,"rank":22},"geometry":{"type":"Polygon","coordinates":[[[-122.350164,47.587421],[-122.350163,47.587511],[-122.350079,47.587514],[-122.350033,47.587548],[-122.350027,47.58769],[-122.349895,47.587689],[-122.349872,47.587615],[-122.349763,47.587599],[-122.349765,47.587419],[-122.349898,47.587419],[-122.34996,47.587444],[-122.350031,47.58742],[-122.350164,47.587421]]]}},{"type":"Feature","properties":{"id":10,"area_m2":500,"px":5,"rank":23},"geometry":{"type":"Polygon","coordinates":[[[-122.347921,47.585969],[-122.347919,47.586148],[-122.34752,47.586146],[-122.347521,47.586056],[-122.347631,47.586041],[-122.347655,47.585967],[-122.347921,47.585969]]]}},{"type":"Feature","properties":{"id":13,"area_m2":500,"px":5,"rank":24},"geometry":{"type":"Polygon","coordinates":[[[-122.348621,47.583093],[-122.34862,47.583183],[-122.348222,47.583181],[-122.348224,47.583001],[-122.34849,47.583002],[-122.348512,47.583077],[-122.348621,47.583093]]]}},{"type":"Feature","properties":{"id":14,"area_m2":500,"px":5,"rank":25},"geometry":{"type":"Polygon","coordinates":[[[-122.348631,47.582283],[-122.348629,47.582463],[-122.348363,47.582462],[-122.348341,47.582388],[-122.348232,47.582371],[-122.348233,47.582281],[-122.348631,47.582283]]]}},{"type":"Feature","properties":{"id":30,"area_m2":500,"px":5,"rank":26},"geometry":{"type":"Polygon","coordinates":[[[-122.354525,47.578629],[-122.354492,47.578675],[-122.354527,47.578718],[-122.354525,47.578897],[-122.354392,47.578897],[-122.354384,47.578745],[-122.354337,47.578719],[-122.354261,47.578715],[-122.354262,47.578626],[-122.354346,47.578622],[-122.354392,47.578589],[-122.354397,47.578447],[-122.35453,47.578448],[-122.354525,47.578629]]]}},{"type":"Feature","properties":{"id":52,"area_m2":500,"px":5,"rank":27},"geometry":{"type":"Polygon","coordinates":[[[-122.353911,47.574755],[-122.353908,47.574935],[-122.353643,47.574933],[-122.353646,47.574664],[-122.353779,47.574664],[-122.353801,47.574739],[-122.353911,47.574755]]]}},{"type":"Feature","properties":{"id":54,"area_m2":500,"px":5,"rank":28},"geometry":{"type":"Polygon","coordinates":[[[-122.34873,47.574366],[-122.348729,47.574456],[-122.348619,47.574471],[-122.348594,47.574545],[-122.348196,47.574543],[-122.348197,47.574453],[-122.348307,47.574438],[-122.348331,47.574364],[-122.348464,47.574364],[-122.348526,47.574389],[-122.348597,47.574365],[-122.34873,47.574366]]]}},{"type":"Feature","properties":{"id":56,"area_m2":500,"px":5,"rank":29},"geometry":{"type":"Polygon","coordinates":[[[-122.348739,47.573646],[-122.348737,47.573736],[-122.34864,47.573745],[-122.348604,47.573789],[-122.348605,47.573967],[-122.348651,47.574001],[-122.348734,47.574006],[-122.348733,47.574096],[-122.3486,47.574095],[-122.348578,47.574021],[-122.348468,47.574004],[-122.348472,47.573735],[-122.348581,47.573719],[-122.348606,47.573645],[-122.348739,47.573646]]]}},{"type":"Feature","properties":{"id":5,"area_m2":400,"px":4,"rank":30},"geometry":{"type":"Polygon","coordinates":[[[-122.347244,47.586954],[-122.347239,47.587314],[-122.347106,47.587313],[-122.347111,47.586954],[-122.347244,47.586954]]]}},{"type":"Feature","properties":{"id":9,"area_m2":400,"px":4,"rank":31},"geometry":{"type":"Polygon","coordinates":[[[-122.348049,47.586329],[-122.348048,47.586419],[-122.347964,47.586423],[-122.347918,47.586457],[-122.347913,47.586598],[-122.34778,47.586597],[-122.347783,47.586328],[-122.348049,47.586329]]]}},{"type":"Feature","properties":{"id":16,"area_m2":400,"px":4,"rank":32},"geometry":{"type":"Polygon","coordinates":[[[-122.346115,47.581459],[-122.34611,47.581819],[-122.345978,47.581818],[-122.345982,47.581459],[-122.346115,47.581459]]]}},{"type":"Feature","properties":{"id":25,"area_m2":400,"px":4,"rank":33},"geometry":{"type":"Polygon","coordinates":[[[-122.347339,47.579307],[-122.347336,47.579487],[-122.347071,47.579485],[-122.347073,47.579305],[-122.347339,47.579307]]]}},{"type":"Feature","properties":{"id":31,"area_m2":400,"px":4,"rank":34},"geometry":{"type":"Polygon","coordinates":[[[-122.3528,47.578528],[-122.352797,47.578798],[-122.352687,47.578813],[-122.352663,47.578887],[-122.35253,47.578886],[-122.352531,47.578796],[-122.352622,47.57879],[-122.352663,47.578754],[-122.352668,47.578527],[-122.3528,47.578528]]]}},{"type":"Feature","properties":{"id":38,"area_m2":400,"px":4,"rank":35},"geometry":{"type":"Polygon","coordinates":[[[-122.347097,47.577326],[-122.347096,47.577416],[-122.347012,47.577419],[-122.346966,47.577453],[-122.346961,47.577595],[-122.346828,47.577594],[-122.346831,47.577324],[-122.347097,47.577326]]]}},{"type":"Feature","properties":{"id":41,"area_m2":400,"px":4,"rank":36},"geometry":{"type":"Polygon","coordinates":[[[-122.3499,47.576532],[-122.349897,47.576712],[-122.349788,47.576727],[-122.349763,47.576801],[-122.34963,47.5768],[-122.349633,47.57662],[-122.349742,47.576605],[-122.349767,47.576531],[-122.3499,47.576532]]]}},{"type":"Feature","properties":{"id":43,"area_m2":400,"px":4,"rank":37},"geometry":{"type":"Polygon","coordinates":[[[-122.350041,47.575813],[-122.35004,47.575903],[-122.349931,47.575918],[-122.349906,47.575992],[-122.34964,47.575991],[-122.349642,47.575901],[-122.349751,47.575885],[-122.349776,47.575811],[-122.350041,47.575813]]]}},{"type":"Feature","properties":{"id":44,"area_m2":400,"px":4,"rank":38},"geometry":{"type":"Polygon","coordinates":[[[-122.353101,47.57574],[-122.3531,47.57583],[-122.352969,47.575829],[-122.352944,47.575755],[-122.352835,47.575739],[-122.352838,47.575469],[-122.352971,47.57547],[-122.352972,47.575701],[-122.353017,47.575736],[-122.353101,47.57574]]]}},{"type":"Feature","properties":{"id":51,"area_m2":400,"px":4,"rank":39},"geometry":{"type":"Polygon","coordinates":[[[-122.352449,47.574657],[-122.352447,47.574837],[-122.352371,47.574839],[-122.352323,47.574865],[-122.352312,47.575016],[-122.352179,47.575015],[-122.352181,47.574835],[-122.352257,47.574833],[-122.352305,47.574807],[-122.352316,47.574656],[-122.352449,47.574657]]]}},{"type":"Feature","properties":{"id":2,"area_m2":300,"px":3,"rank":40},"geometry":{"type":"Polygon","coordinates":[[[-122.348418,47.588761],[-122.348417,47.588851],[-122.348307,47.588866],[-122.348283,47.58894],[-122.34815,47.588939],[-122.348152,47.588759],[-122.348418,47.588761]]]}},{"type":"Feature","properties":{"id":4,"area_m2":300,"px":3,"rank":41},"geometry":{"type":"Polygon","coordinates":[[[-122.347371,47.587405],[-122.347369,47.587585],[-122.347103,47.587583],[-122.347104,47.587494],[-122.347214,47.587478],[-122.347238,47.587404],[-122.347371,47.587405]]]}},{"type":"Feature","properties":{"id":7,"area_m2":300,"px":3,"rank":42},"geometry":{"type":"Polygon","coordinates":[[[-122.346845,47.586952],[-122.346841,47.587222],[-122.346708,47.587221],[-122.346712,47.586951],[-122.346845,47.586952]]]}},{"type":"Feature","properties":{"id":8,"area_m2":300,"px":3,"rank":43},"geometry":{"type":"Polygon","coordinates":[[[-122.348443,47.586781],[-122.34844,47.586961],[-122.348175,47.58696],[-122.348176,47.58687],[-122.348285,47.586855],[-122.34831,47.586781],[-122.348443,47.586781]]]}},{"type":"Feature","properties":{"id":12,"area_m2":300,"px":3,"rank":44},"geometry":{"type":"Polygon","coordinates":[[[-122.347943,47.584169],[-122.34794,47.584439],[-122.347807,47.584438],[-122.34781,47.584168],[-122.347943,47.584169]]]}},{"type":"Feature","properties":{"id":15,"area_m2":300,"px":3,"rank":45},"geometry":{"type":"Polygon","coordinates":[[[-122.347704,47.582008],[-122.347702,47.582188],[-122.347592,47.582203],[-122.347568,47.582277],[-122.347435,47.582277],[-122.347436,47.582187],[-122.34752,47.582183],[-122.347566,47.582149],[-122.347571,47.582007],[-122.347704,47.582008]]]}},{"type":"Feature","properties":{"id":17,"area_m2":300,"px":3,"rank":46},"geometry":{"type":"Polygon","coordinates":[[[-122.348517,47.580753],[-122.348514,47.581023],[-122.348381,47.581022],[-122.348385,47.580752],[-122.348517,47.580753]]]}},{"type":"Feature","properties":{"id":20,"area_m2":300,"px":3,"rank":47},"geometry":{"type":"Polygon","coordinates":[[[-122.348255,47.580482],[-122.348253,47.580662],[-122.347987,47.58066],[-122.347988,47.58057],[-122.348098,47.580555],[-122.348122,47.580481],[-122.348255,47.580482]]]}},{"type":"Feature","properties":{"id":22,"area_m2":300,"px":3,"rank":48},"geometry":{"type":"Polygon","coordinates":[[[-122.34866,47.579944],[-122.348659,47.580034],[-122.348528,47.580033],[-122.348504,47.579959],[-122.348395,47.579943],[-122.348397,47.579763],[-122.34853,47.579763],[-122.348537,47.579915],[-122.348584,47.579941],[-122.34866,47.579944]]]}},{"type":"Feature","properties":{"id":23,"area_m2":300,"px":3,"rank":49},"geometry":{"type":"Polygon","coordinates":[[[-122.350923,47.579777],[-122.350921,47.579957],[-122.350655,47.579955],[-122.350656,47.579866],[-122.350766,47.57985],[-122.35079,47.579776],[-122.350923,47.579777]]]}},{"type":"Feature","properties":{"id":27,"area_m2":300,"px":3,"rank":50},"geometry":{"type":"Polygon","coordinates":[[[-122.352264,47.578885],[-122.352262,47.579065],[-122.351996,47.579063],[-122.351997,47.578973],[-122.352107,47.578958],[-122.352131,47.578884],[-122.352264,47.578885]]]}},{"type":"Feature","properties":{"id":28,"area_m2":300,"px":3,"rank":51},"geometry":{"type":"Polygon","coordinates":[[[-122.351066,47.578968],[-122.351065,47.579058],[-122.350799,47.579056],[-122.350802,47.578877],[-122.350934,47.578877],[-122.350957,47.578952],[-122.351066,47.578968]]]}},{"type":"Feature","properties":{"id":29,"area_m2":300,"px":3,"rank":52},"geometry":{"type":"Polygon","coordinates":[[[-122.349206,47.578868],[-122.349204,47.579047],[-122.348938,47.579046],[-122.348939,47.578956],[-122.349049,47.578941],[-122.349073,47.578867],[-122.349206,47.578868]]]}},{"type":"Feature","properties":{"id":33,"area_m2":300,"px":3,"rank":53},"geometry":{"type":"Polygon","coordinates":[[[-122.347745,47.578679],[-122.347744,47.578769],[-122.347634,47.578784],[-122.34761,47.578858],[-122.347477,47.578858],[-122.34748,47.578678],[-122.347745,47.578679]]]}},{"type":"Feature","properties":{"id":45,"area_m2":300,"px":3,"rank":54},"geometry":{"type":"Polygon","coordinates":[[[-122.35204,47.575464],[-122.352038,47.575644],[-122.351905,47.575643],[-122.351883,47.575569],[-122.351773,47.575553],[-122.351775,47.575463],[-122.35204,47.575464]]]}},{"type":"Feature","properties":{"id":48,"area_m2":300,"px":3,"rank":55},"geometry":{"type":"Polygon","coordinates":[[[-122.347257,47.575167],[-122.347255,47.575347],[-122.347122,47.575346],[-122.347099,47.575272],[-122.34699,47.575256],[-122.346991,47.575166],[-122.347257,47.575167]]]}},{"type":"Feature","properties":{"id":49,"area_m2":300,"px":3,"rank":56},"geometry":{"type":"Polygon","coordinates":[[[-122.353109,47.575021],[-122.353107,47.5752],[-122.352975,47.5752],[-122.352952,47.575125],[-122.352843,47.575109],[-122.352844,47.575019],[-122.353109,47.575021]]]}},{"type":"Feature","properties":{"id":53,"area_m2":300,"px":3,"rank":57},"geometry":{"type":"Polygon","coordinates":[[[-122.346333,47.574622],[-122.346331,47.574802],[-122.346065,47.5748],[-122.346066,47.574711],[-122.346176,47.574695],[-122.3462,47.574621],[-122.346333,47.574622]]]}},{"type":"Feature","properties":{"id":55,"area_m2":300,"px":3,"rank":58},"geometry":{"type":"Polygon","coordinates":[[[-122.353119,47.574211],[-122.353116,47.574481],[-122.352983,47.57448],[-122.352987,47.57421],[-122.353119,47.574211]]]}}]}