{"type":"FeatureCollection","features":[{"type":"Feature","properties":{"id":1,"area_m2":2155300,"px":21553,"rank":1,"persistent":true},"geometry":{"type":"Polygon","coordinates":[[[-122.423636,47.266491],[-122.423624,47.26757],[-122.42336,47.267569],[-122.423358,47.267427],[-122.423313,47.267393],[-122.42323,47.267388],[-122.423222,47.267237],[-122.423175,47.26721],[-122.4231,47.267208],[-122.423087,47.267142],[-122.422968,47.267117],[-122.422963,47.26706],[-122.422913,47.267029],[-122.422747,47.267032],[-122.422708,47.267064],[-122.422704,47.267116],[-122.422589,47.267135],[-122.42257,47.267295],[-122.422534,47.267337],[-122.422569,47.267385],[-122.422576,47.267536],[-122.422623,47.267563],[-122.422699,47.267566],[-122.422733,47.267647],[-122.42283,47.267656],[-122.422858,47.267734],[-122.422961,47.267747],[-122.42296,47.267878],[-122.422995,47.267918],[-122.423189,47.267919],[-122.423225,47.267838],[-122.423344,47.267815],[-122.423358,47.267749],[-122.42349,47.26775],[-122.423513,47.267824],[-122.423621,47.26784],[-122.423618,47.26811],[-122.42341,47.268111],[-122.423353,47.268163],[-122.423366,47.268265],[-122.423484,47.268289],[-122.423492,47.268441],[-122.423539,47.268467],[-122.423614,47.268471],[-122.423593,47.270448],[-122.423484,47.270465],[-122.42346,47.270539],[-122.423196,47.270537],[-122.423161,47.270456],[-122.422932,47.270446],[-122.422904,47.270368],[-122.422761,47.270342],[-122.422681,47.270366],[-122.422666,47.270445],[-122.422271,47.270443],[-122.422262,47.270381],[-122.4222,47.270353],[-122.421683,47.27035],[-122.42162,47.270378],[-122.42161,47.270439],[-122.421491,47.270463],[-122.421476,47.270619],[-122.421367,47.270634],[-122.421343,47.270708],[-122.420878,47.270707],[-122.420823,47.270734],[-122.420813,47.270795],[-122.420549,47.270794],[-122.420528,47.27054],[-122.420342,47.270512],[-122.420293,47.270543],[-122.420286,47.270613],[-122.420154,47.270612],[-122.420132,47.270538],[-122.420023,47.270521],[-122.420005,47.270451],[-122.419892,47.270431],[-122.419857,47.27035],[-122.41976,47.27034],[-122.419732,47.270262],[-122.419629,47.270249],[-122.419608,47.270085],[-122.419367,47.270068],[-122.419344,47.269994],[-122.419236,47.269978],[-122.419228,47.269826],[-122.419181,47.2698],[-122.419105,47.269797],[-122.419071,47.269716],[-122.418974,47.269706],[-122.41894,47.269625],[-122.418781,47.269591],[-122.418711,47.269615],[-122.418386,47.269614],[-122.418323,47.269642],[-122.418313,47.269703],[-122.417784,47.2697],[-122.417777,47.269549],[-122.417722,47.269521],[-122.417522,47.269519],[-122.4175,47.269355],[-122.417243,47.26933],[-122.417261,47.269212],[-122.417238,47.269173],[-122.417069,47.269157],[-122.417003,47.26919],[-122.417009,47.269312],[-122.417143,47.269345],[-122.417125,47.269517],[-122.417035,47.269523],[-122.416994,47.26956],[-122.417004,47.269762],[-122.417062,47.269786],[-122.417254,47.269788],[-122.417241,47.269938],[-122.417288,47.269965],[-122.417385,47.269968],[-122.417401,47.270129],[-122.417515,47.270149],[-122.417549,47.27023],[-122.417646,47.27024],[-122.417674,47.270317],[-122.417777,47.27033],[-122.417799,47.270494],[-122.41804,47.270512],[-122.418045,47.270568],[-122.418095,47.270599],[-122.418303,47.270603],[-122.41829,47.270753],[-122.418337,47.27078],[-122.418433,47.270783],[-122.418438,47.27093],[-122.41848,47.270959],[-122.418564,47.270964],[-122.418586,47.271038],[-122.418757,47.271079],[-122.418827,47.271055],[-122.418959,47.271056],[-122.41897,47.271302],[-122.419088,47.271327],[-122.419123,47.271408],[-122.41922,47.271417],[-122.419248,47.271495],[-122.419351,47.271508],[-122.41935,47.271639],[-122.419378,47.271676],[-122.419613,47.271689],[-122.419614,47.271921],[-122.419659,47.271955],[-122.419743,47.27196],[-122.419748,47.272291],[-122.419795,47.272318],[-122.419871,47.27232],[-122.419905,47.272401],[-122.420002,47.272411],[-122.42003,47.272489],[-122.420133,47.272502],[-122.420161,47.27258],[-122.420264,47.272592],[-122.420272,47.272744],[-122.420319,47.27277],[-122.420395,47.272773],[-122.420393,47.272953],[-122.420274,47.272976],[-122.420259,47.273132],[-122.420175,47.273136],[-122.420129,47.27317],[-122.420124,47.273311],[-122.420041,47.273315],[-122.419998,47.273344],[-122.41999,47.273491],[-122.419907,47.273494],[-122.419864,47.273523],[-122.419855,47.27376],[-122.419758,47.273769],[-122.419722,47.273849],[-122.419646,47.273851],[-122.419599,47.273877],[-122.419588,47.274029],[-122.419497,47.274035],[-122.419457,47.274071],[-122.419453,47.274298],[-122.419334,47.274321],[-122.419318,47.274477],[-122.419235,47.274481],[-122.419189,47.274515],[-122.419184,47.274656],[-122.419101,47.27466],[-122.419058,47.274689],[-122.41905,47.274836],[-122.418967,47.274839],[-122.418924,47.274868],[-122.418914,47.275195],[-122.418817,47.275204],[-122.418781,47.275284],[-122.418662,47.275308],[-122.418646,47.275464],[-122.418556,47.27547],[-122.418515,47.275506],[-122.418511,47.275733],[-122.418414,47.275741],[-122.418378,47.275822],[-122.418264,47.275841],[-122.418244,47.276001],[-122.418135,47.276017],[-122.418111,47.276091],[-122.418014,47.276099],[-122.417978,47.27618],[-122.417863,47.276199],[-122.417844,47.276269],[-122.416258,47.276261],[-122.41626,47.276081],[-122.416369,47.276066],[-122.416427,47.27596],[-122.416389,47.275845],[-122.416331,47.275813],[-122.416131,47.275811],[-122.416102,47.275733],[-122.415944,47.275706],[-122.415867,47.275754],[-122.415861,47.276259],[-122.410575,47.276232],[-122.410511,47.276208],[-122.410441,47.276231],[-122.409912,47.276229],[-122.409917,47.276069],[-122.409863,47.276049],[-122.409649,47.276047],[-122.409637,47.275981],[-122.409571,47.275957],[-122.409442,47.275959],[-122.409392,47.27599],[-122.409383,47.276226],[-122.409119,47.276225],[-122.409056,47.2762],[-122.408986,47.276224],[-122.408459,47.276221],[-122.408395,47.276197],[-122.408323,47.276221],[-122.406344,47.27621],[-122.40628,47.276186],[-122.406208,47.27621],[-122.403568,47.276196],[-122.403553,47.27613],[-122.403487,47.276106],[-122.403337,47.276114],[-122.403301,47.276195],[-122.402376,47.27619],[-122.402388,47.27511],[-122.402605,47.275134],[-122.402688,47.275069],[-122.402636,47.274951],[-122.402522,47.274931],[-122.402511,47.274775],[-122.402392,47.274749],[-122.402456,47.269082],[-122.402588,47.269082],[-122.402658,47.269107],[-122.402811,47.269077],[-122.402849,47.269045],[-122.402853,47.268994],[-122.402957,47.268982],[-122.402987,47.268904],[-122.403084,47.268896],[-122.403119,47.268851],[-122.403112,47.268664],[-122.402928,47.26861],[-122.402754,47.268645],[-122.402724,47.268723],[-122.402605,47.268746],[-122.402591,47.268812],[-122.402459,47.268811],[-122.402518,47.263593],[-122.402747,47.263585],[-122.402782,47.263545],[-122.402784,47.263414],[-122.402999,47.263411],[-122.403043,47.263382],[-122.403049,47.263326],[-122.403158,47.26331],[-122.403184,47.263146],[-122.403267,47.263143],[-122.403313,47.263109],[-122.403318,47.262967],[-122.403421,47.262955],[-122.403451,47.262878],[-122.403548,47.262869],[-122.403584,47.262824],[-122.403575,47.262727],[-122.403529,47.262701],[-122.403453,47.262698],[-122.403431,47.262624],[-122.403261,47.262607],[-122.403199,47.262635],[-122.403188,47.262696],[-122.403113,47.262698],[-122.403065,47.262724],[-122.403054,47.262876],[-122.402922,47.262875],[-122.4029,47.262801],[-122.402791,47.262784],[-122.402778,47.262718],[-122.40266,47.262694],[-122.402632,47.262616],[-122.402529,47.262603],[-122.40253,47.262513],[-122.402566,47.262471],[-122.402531,47.262422],[-122.402538,47.261793],[-122.407294,47.261818],[-122.407358,47.261842],[-122.40743,47.261819],[-122.41906,47.261878],[-122.419082,47.261952],[-122.419191,47.261969],[-122.419203,47.262125],[-122.419321,47.26215],[-122.419333,47.262305],[-122.419391,47.26233],[-122.419583,47.262331],[-122.419585,47.262472],[-122.41963,47.262507],[-122.419714,47.262511],[-122.419725,47.262667],[-122.419844,47.262692],[-122.419878,47.262773],[-122.419975,47.262783],[-122.420003,47.262861],[-122.420106,47.262873],[-122.420114,47.263025],[-122.420161,47.263051],[-122.420236,47.263054],[-122.420271,47.263135],[-122.420368,47.263145],[-122.420389,47.263309],[-122.420498,47.263325],[-122.420532,47.263406],[-122.420629,47.263416],[-122.420641,47.263572],[-122.420759,47.263597],[-122.420794,47.263678],[-122.42089,47.263687],[-122.420919,47.263765],[-122.421022,47.263778],[-122.421024,47.263919],[-122.421069,47.263954],[-122.421152,47.263958],[-122.421164,47.264114],[-122.421282,47.264139],[-122.421316,47.26422],[-122.421413,47.26423],[-122.421441,47.264308],[-122.421544,47.26432],[-122.421556,47.264476],[-122.421675,47.264501],[-122.421709,47.264582],[-122.421806,47.264592],[-122.421827,47.264756],[-122.421936,47.264772],[-122.421971,47.264853],[-122.422067,47.264863],[-122.422069,47.265005],[-122.422114,47.265039],[-122.422198,47.265044],[-122.422209,47.2652],[-122.422267,47.265224],[-122.42246,47.265225],[-122.422462,47.265366],[-122.422507,47.265401],[-122.42259,47.265405],[-122.422602,47.265561],[-122.42272,47.265586],[-122.422755,47.265667],[-122.422852,47.265677],[-122.422856,47.265823],[-122.422899,47.265853],[-122.422982,47.265857],[-122.423016,47.265938],[-122.423113,47.265948],[-122.423135,47.266112],[-122.423243,47.266129],[-122.423249,47.266185],[-122.423291,47.266215],[-122.423507,47.26622],[-122.423508,47.266451],[-122.423553,47.266486],[-122.423636,47.266491]],[[-122.403162,47.269441],[-122.403448,47.269459],[-122.403504,47.269427],[-122.403488,47.269283],[-122.403247,47.269266],[-122.403242,47.269209],[-122.403192,47.269178],[-122.40306,47.269161],[-122.403006,47.269177],[-122.402963,47.269293],[-122.402984,47.269338],[-122.403114,47.269355],[-122.403119,47.269412],[-122.403162,47.269441]],[[-122.403731,47.269544],[-122.403563,47.269526],[-122.403511,47.269562],[-122.403504,47.269897],[-122.403421,47.2699],[-122.403378,47.269929],[-122.403386,47.270069],[-122.403267,47.270088],[-122.403237,47.270165],[-122.40314,47.270174],[-122.403104,47.270255],[-122.40302,47.270258],[-122.402977,47.270287],[-122.402971,47.270404],[-122.403016,47.270443],[-122.403211,47.270419],[-122.403235,47.270345],[-122.403332,47.270337],[-122.403368,47.270256],[-122.403444,47.270254],[-122.403491,47.270228],[-122.403486,47.270084],[-122.403599,47.270068],[-122.403636,47.269988],[-122.403719,47.269984],[-122.403762,47.269955],[-122.403771,47.269582],[-122.403731,47.269544]],[[-122.404324,47.265476],[-122.404364,47.265347],[-122.404306,47.265313],[-122.403855,47.265319],[-122.403819,47.265399],[-122.4037,47.265423],[-122.403686,47.265488],[-122.403572,47.265508],[-122.403553,47.265578],[-122.403438,47.265597],[-122.403419,47.265667],[-122.403305,47.265686],[-122.403286,47.265756],[-122.403172,47.265776],[-122.403166,47.265912],[-122.403284,47.265936],[-122.40329,47.265993],[-122.40334,47.266024],[-122.403485,47.266051],[-122.403645,47.266019],[-122.403681,47.265938],[-122.4038,47.265915],[-122.403814,47.265849],[-122.403929,47.26583],[-122.403947,47.26576],[-122.404062,47.265741],[-122.404081,47.265671],[-122.404195,47.265651],[-122.404215,47.265491],[-122.404324,47.265476]],[[-122.405826,47.26325],[-122.405909,47.263246],[-122.405955,47.263212],[-122.405956,47.263109],[-122.405904,47.263073],[-122.405488,47.263071],[-122.405437,47.263101],[-122.40543,47.263158],[-122.405222,47.263159],[-122.405172,47.26319],[-122.405165,47.263247],[-122.405033,47.263246],[-122.405029,47.263099],[-122.404986,47.26307],[-122.404903,47.263065],[-122.404875,47.262987],[-122.40464,47.262974],[-122.404611,47.262896],[-122.404376,47.262883],[-122.404367,47.262821],[-122.404306,47.262793],[-122.404016,47.2628],[-122.40398,47.26288],[-122.403876,47.262892],[-122.403846,47.26297],[-122.403743,47.262982],[-122.403713,47.263059],[-122.403623,47.263065],[-122.403581,47.263107],[-122.403588,47.2633],[-122.403634,47.263326],[-122.40371,47.263329],[-122.403745,47.26341],[-122.403841,47.26342],[-122.40387,47.263498],[-122.404105,47.263511],[-122.404122,47.263581],[-122.404236,47.263602],[-122.404253,47.263672],[-122.404367,47.263692],[-122.404384,47.263763],[-122.404498,47.263783],[-122.404511,47.263849],[-122.404629,47.263874],[-122.404632,47.263925],[-122.40467,47.263958],[-122.405157,47.263967],[-122.405166,47.264028],[-122.405228,47.264057],[-122.405372,47.264053],[-122.405421,47.264009],[-122.405409,47.263902],[-122.40529,47.263877],[-122.405292,47.263697],[-122.405396,47.263685],[-122.405426,47.263608],[-122.405529,47.263596],[-122.405559,47.263519],[-122.405656,47.26351],[-122.405692,47.263429],[-122.405806,47.26341],[-122.405826,47.26325]],[[-122.406145,47.263072],[-122.406222,47.263034],[-122.406217,47.262921],[-122.406163,47.262893],[-122.406004,47.262897],[-122.405963,47.262934],[-122.40597,47.263042],[-122.406024,47.26307],[-122.406145,47.263072]],[[-122.407636,47.271628],[-122.407714,47.271585],[-122.407715,47.271397],[-122.407662,47.27136],[-122.40751,47.27136],[-122.407463,47.271386],[-122.407418,47.271484],[-122.407455,47.271589],[-122.407507,47.271625],[-122.407636,47.271628]],[[-122.408604,47.262776],[-122.408628,47.262685],[-122.408607,47.262651],[-122.408477,47.262634],[-122.408456,47.262456],[-122.408394,47.26244],[-122.408256,47.262459],[-122.408217,47.262491],[-122.408213,47.262542],[-122.408116,47.262551],[-122.40808,47.262632],[-122.407997,47.262636],[-122.407954,47.262665],[-122.407954,47.262963],[-122.408008,47.26299],[-122.408166,47.262986],[-122.408205,47.262954],[-122.408209,47.262903],[-122.408328,47.262879],[-122.408343,47.262813],[-122.408565,47.262808],[-122.408604,47.262776]],[[-122.409259,47.263628],[-122.409246,47.263562],[-122.409128,47.263537],[-122.409122,47.26348],[-122.40908,47.263451],[-122.408864,47.263446],[-122.408794,47.263421],[-122.408642,47.263451],[-122.408603,47.263483],[-122.408599,47.263534],[-122.408516,47.263538],[-122.408472,47.263567],[-122.408465,47.263714],[-122.408381,47.263717],[-122.408338,47.263746],[-122.408296,47.26385],[-122.408339,47.263954],[-122.408386,47.263981],[-122.408462,47.263984],[-122.408496,47.264065],[-122.408593,47.264074],[-122.408627,47.264155],[-122.408814,47.264159],[-122.408853,47.264127],[-122.408857,47.264076],[-122.40896,47.264064],[-122.40899,47.263986],[-122.409094,47.263975],[-122.409124,47.263897],[-122.409221,47.263888],[-122.409257,47.263808],[-122.409333,47.263806],[-122.40938,47.26378],[-122.409381,47.263657],[-122.409335,47.26363],[-122.409259,47.263628]],[[-122.408856,47.276043],[-122.409059,47.276057],[-122.409112,47.27603],[-122.409104,47.275884],[-122.409051,47.275865],[-122.40879,47.275864],[-122.408735,47.275891],[-122.408725,47.275953],[-122.408606,47.275976],[-122.408572,47.276087],[-122.408626,47.27613],[-122.408791,47.276132],[-122.408846,47.276105],[-122.408856,47.276043]],[[-122.408796,47.262275],[-122.40908,47.26229],[-122.409133,47.262262],[-122.409134,47.262126],[-122.409087,47.262099],[-122.409011,47.262097],[-122.409009,47.262045],[-122.40897,47.262013],[-122.40879,47.262012],[-122.408748,47.262054],[-122.408737,47.26225],[-122.408796,47.262275]],[[-122.408685,47.271447],[-122.40911,47.271468],[-122.409166,47.271436],[-122.409172,47.271319],[-122.409132,47.271282],[-122.408716,47.271274],[-122.408654,47.271302],[-122.408645,47.27141],[-122.408685,47.271447]],[[-122.409848,47.27169],[-122.409828,47.271588],[-122.40979,47.271555],[-122.409567,47.271548],[-122.409513,47.271524],[-122.409345,47.271553],[-122.409303,47.271595],[-122.409307,47.271693],[-122.409372,47.271727],[-122.409794,47.271727],[-122.409848,47.27169]],[[-122.40966,47.267432],[-122.409865,47.267386],[-122.409876,47.267269],[-122.409823,47.267232],[-122.409671,47.267232],[-122.409621,47.267262],[-122.409581,47.267377],[-122.40966,47.267432]],[[-122.412147,47.270211],[-122.41222,47.270178],[-122.412226,47.270075],[-122.412186,47.270038],[-122.412096,47.270031],[-122.412068,47.269953],[-122.411895,47.269916],[-122.411718,47.269959],[-122.411705,47.270086],[-122.411747,47.270115],[-122.41183,47.27012],[-122.411859,47.270198],[-122.412147,47.270211]],[[-122.412399,47.265288],[-122.412196,47.26524],[-122.412115,47.265294],[-122.412153,47.265422],[-122.412208,47.265455],[-122.412362,47.265439],[-122.41241,47.2654],[-122.412399,47.265288]],[[-122.412934,47.270755],[-122.413012,47.270712],[-122.412998,47.270505],[-122.412884,47.270485],[-122.412879,47.270428],[-122.412836,47.270399],[-122.412621,47.270394],[-122.412608,47.270328],[-122.41249,47.270303],[-122.412487,47.270251],[-122.412449,47.270219],[-122.412255,47.270224],[-122.412226,47.270261],[-122.412242,47.270372],[-122.412356,47.270393],[-122.412391,47.270474],[-122.412487,47.270483],[-122.412516,47.270561],[-122.412619,47.270574],[-122.412647,47.270652],[-122.41275,47.270664],[-122.412778,47.270742],[-122.412934,47.270755]],[[-122.412985,47.266166],[-122.413061,47.266129],[-122.413056,47.266015],[-122.413002,47.265988],[-122.412842,47.265979],[-122.412802,47.266021],[-122.412809,47.266137],[-122.412864,47.266165],[-122.412985,47.266166]],[[-122.41424,47.266859],[-122.414267,47.266758],[-122.414227,47.266719],[-122.414032,47.266716],[-122.413984,47.266755],[-122.413987,47.266872],[-122.41405,47.266905],[-122.414197,47.266888],[-122.41424,47.266859]],[[-122.415183,47.267223],[-122.415168,47.267031],[-122.415114,47.26699],[-122.414946,47.266979],[-122.414909,47.267011],[-122.414905,47.267076],[-122.41464,47.267075],[-122.414635,47.267005],[-122.414572,47.266971],[-122.414426,47.266988],[-122.41438,47.267022],[-122.414376,47.26721],[-122.41443,47.267251],[-122.414771,47.267255],[-122.414833,47.26728],[-122.414903,47.267256],[-122.415124,47.267256],[-122.415183,47.267223]],[[-122.415206,47.263566],[-122.415153,47.263544],[-122.415094,47.263554],[-122.415056,47.263596],[-122.415072,47.263637],[-122.415126,47.263658],[-122.415199,47.263645],[-122.415227,47.263608],[-122.415206,47.263566]],[[-122.415609,47.263905],[-122.415585,47.26368],[-122.415532,47.26366],[-122.415388,47.263663],[-122.41534,47.263702],[-122.415337,47.263839],[-122.415101,47.26385],[-122.415072,47.263886],[-122.415077,47.263984],[-122.41512,47.264014],[-122.415257,47.264042],[-122.415418,47.264015],[-122.415462,47.263986],[-122.415468,47.26393],[-122.415565,47.263928],[-122.415609,47.263905]],[[-122.415483,47.267349],[-122.41556,47.267311],[-122.415551,47.267193],[-122.415493,47.267169],[-122.415314,47.267178],[-122.415279,47.267224],[-122.415312,47.267324],[-122.415362,47.267347],[-122.415483,47.267349]],[[-122.415862,47.26402],[-122.415809,47.263998],[-122.41575,47.264008],[-122.415712,47.26405],[-122.415727,47.26409],[-122.415782,47.264111],[-122.415855,47.264099],[-122.415883,47.264061],[-122.415862,47.26402]],[[-122.415911,47.262933],[-122.416078,47.262955],[-122.416131,47.262928],[-122.416132,47.262792],[-122.416086,47.262765],[-122.41601,47.262762],[-122.416007,47.262711],[-122.415969,47.262679],[-122.415787,47.262665],[-122.415746,47.262706],[-122.415754,47.262823],[-122.415801,47.262849],[-122.415876,47.262852],[-122.415911,47.262933]],[[-122.416286,47.275322],[-122.416256,47.275206],[-122.416138,47.275181],[-122.416135,47.275129],[-122.416097,47.275097],[-122.415938,47.275091],[-122.415883,47.275118],[-122.415872,47.275325],[-122.415911,47.275367],[-122.41624,47.275357],[-122.416286,47.275322]],[[-122.416553,47.26317],[-122.416529,47.263068],[-122.416479,47.263037],[-122.416314,47.263035],[-122.416253,47.263073],[-122.416276,47.26318],[-122.416325,47.263212],[-122.41652,47.263206],[-122.416553,47.26317]],[[-122.417109,47.263758],[-122.417185,47.26372],[-122.417181,47.263607],[-122.417127,47.263579],[-122.416967,47.26357],[-122.416926,47.263612],[-122.416934,47.263728],[-122.416988,47.263756],[-122.417109,47.263758]],[[-122.418289,47.264664],[-122.418365,47.264626],[-122.418361,47.264513],[-122.418306,47.264485],[-122.418148,47.264489],[-122.418107,47.264526],[-122.418114,47.264634],[-122.418168,47.264662],[-122.418289,47.264664]],[[-122.419982,47.265154],[-122.419944,47.265065],[-122.419894,47.265034],[-122.419729,47.265032],[-122.419668,47.26507],[-122.419702,47.265191],[-122.419863,47.265234],[-122.419916,47.265231],[-122.419973,47.265195],[-122.419982,47.265154]],[[-122.420263,47.265484],[-122.420339,47.265446],[-122.420334,47.265333],[-122.42028,47.265305],[-122.42012,47.265296],[-122.42008,47.265338],[-122.420087,47.265454],[-122.420142,47.265482],[-122.420263,47.265484]],[[-122.421134,47.268865],[-122.421094,47.268761],[-122.421058,47.268733],[-122.420864,47.268738],[-122.420834,47.268816],[-122.420731,47.268828],[-122.420701,47.268905],[-122.420604,47.268914],[-122.420568,47.268994],[-122.420449,47.269018],[-122.420414,47.269118],[-122.420431,47.269153],[-122.420628,47.269199],[-122.420802,47.269163],[-122.420832,47.269086],[-122.420929,47.269077],[-122.420965,47.268997],[-122.421041,47.268995],[-122.421088,47.268969],[-122.421134,47.268865]],[[-122.421622,47.26936],[-122.421622,47.269223],[-122.42156,47.269181],[-122.421395,47.269188],[-122.421358,47.269268],[-122.420886,47.269268],[-122.420835,47.269299],[-122.420829,47.269356],[-122.42071,47.269379],[-122.420695,47.269445],[-122.420576,47.269468],[-122.420565,47.269586],[-122.42061,47.269621],[-122.420693,47.269625],[-122.420696,47.269677],[-122.420735,47.269709],[-122.420957,47.269716],[-122.420956,47.269848],[-122.420984,47.269884],[-122.421163,47.269895],[-122.421214,47.269864],[-122.42122,47.269808],[-122.421339,47.269784],[-122.421354,47.269718],[-122.421468,47.269699],[-122.421487,47.269629],[-122.421687,47.269629],[-122.421742,47.269602],[-122.42175,47.269399],[-122.421705,47.269364],[-122.421622,47.26936]]]}},{"type":"Feature","properties":{"id":2,"area_m2":41200,"px":412,"rank":2,"persistent":false},"geometry":{"type":"Polygon","coordinates":[[[-122.423668,47.263253],[-122.423635,47.263299],[-122.42367,47.263343],[-122.423658,47.264421],[-122.423526,47.26442],[-122.423522,47.264274],[-122.423479,47.264244],[-122.423396,47.26424],[-122.423362,47.264159],[-122.423189,47.264151],[-122.423138,47.264182],[-122.423132,47.264238],[-122.423001,47.264238],[-122.422977,47.264163],[-122.422868,47.264147],[-122.422869,47.264057],[-122.422988,47.264034],[-122.423003,47.263932],[-122.422968,47.263887],[-122.422871,47.263877],[-122.422849,47.263803],[-122.422608,47.263786],[-122.422595,47.26372],[-122.422477,47.263695],[-122.422471,47.263638],[-122.422429,47.263609],[-122.422213,47.263604],[-122.422191,47.26353],[-122.422082,47.263513],[-122.42206,47.263439],[-122.421951,47.263422],[-122.421934,47.263352],[-122.42182,47.263332],[-122.421785,47.263251],[-122.421689,47.263241],[-122.42166,47.263163],[-122.421557,47.263151],[-122.421529,47.263073],[-122.421426,47.26306],[-122.421398,47.262982],[-122.421295,47.262969],[-122.421267,47.262891],[-122.421164,47.262879],[-122.421141,47.262804],[-122.4209,47.262787],[-122.420878,47.262713],[-122.420769,47.262697],[-122.420747,47.262622],[-122.420638,47.262606],[-122.420621,47.262536],[-122.420507,47.262515],[-122.420472,47.262434],[-122.420376,47.262425],[-122.420347,47.262347],[-122.420244,47.262334],[-122.420216,47.262256],[-122.420113,47.262243],[-122.420085,47.262166],[-122.419982,47.262153],[-122.419954,47.262075],[-122.419851,47.262062],[-122.419823,47.261984],[-122.419587,47.261971],[-122.419588,47.261881],[-122.421701,47.261892],[-122.421765,47.261916],[-122.421837,47.261892],[-122.423686,47.261902],[-122.423668,47.263253]],[[-122.423186,47.263062],[-122.423339,47.263083],[-122.423396,47.263059],[-122.423409,47.262933],[-122.423362,47.262894],[-122.423208,47.262876],[-122.423149,47.262913],[-122.423146,47.263025],[-122.423186,47.263062]]]}}]}