{"type":"FeatureCollection","features":[{"type":"Feature","properties":{"id":30,"area_m2":9200,"px":92,"rank":1},"geometry":{"type":"Polygon","coordinates":[[[-122.408392,47.270192],[-122.408386,47.270732],[-122.408122,47.270731],[-122.408123,47.270599],[-122.408089,47.27056],[-122.40786,47.270549],[-122.407854,47.270493],[-122.407804,47.270461],[-122.407596,47.270458],[-122.407584,47.270392],[-122.407465,47.270367],[-122.40746,47.270311],[-122.407417,47.270281],[-122.40707,47.270275],[-122.407067,47.270224],[-122.407028,47.270191],[-122.406806,47.270184],[-122.406807,47.270039],[-122.40678,47.270003],[-122.406544,47.270003],[-122.406521,47.269928],[-122.406413,47.269912],[-122.40641,47.269847],[-122.406373,47.269815],[-122.406149,47.26982],[-122.406146,47.269769],[-122.406108,47.269737],[-122.405886,47.269729],[-122.405863,47.269655],[-122.405755,47.269638],[-122.405756,47.269549],[-122.405978,47.269543],[-122.406017,47.269512],[-122.406021,47.26946],[-122.406285,47.269461],[-122.406347,47.269486],[-122.406418,47.269462],[-122.40655,47.269463],[-122.406553,47.269514],[-122.406591,47.269547],[-122.406813,47.269554],[-122.406826,47.26962],[-122.406944,47.269645],[-122.406947,47.269696],[-122.406985,47.269729],[-122.407208,47.269736],[-122.407211,47.269788],[-122.407249,47.26982],[-122.407471,47.269827],[-122.407476,47.269884],[-122.407526,47.269915],[-122.407734,47.269919],[-122.407747,47.269985],[-122.407866,47.270009],[-122.407869,47.270061],[-122.407907,47.270093],[-122.408261,47.270101],[-122.408284,47.270176],[-122.408392,47.270192]]]}},{"type":"Feature","properties":{"id":12,"area_m2":7800,"px":78,"rank":2},"geometry":{"type":"Polygon","coordinates":[[[-122.419329,47.273488],[-122.419328,47.273577],[-122.419238,47.273583],[-122.419197,47.27362],[-122.419193,47.273847],[-122.418978,47.27385],[-122.418934,47.273879],[-122.418928,47.273935],[-122.418797,47.273951],[-122.418775,47.27399],[-122.418792,47.274205],[-122.418575,47.274194],[-122.418531,47.274228],[-122.418527,47.274293],[-122.418395,47.274293],[-122.41842,47.273803],[-122.418387,47.273762],[-122.418207,47.273728],[-122.418135,47.273751],[-122.417608,47.273749],[-122.417546,47.273724],[-122.417475,47.273748],[-122.417343,47.273747],[-122.417344,47.273657],[-122.417453,47.273642],[-122.417478,47.273568],[-122.417581,47.273556],[-122.417611,47.273479],[-122.417708,47.27347],[-122.417744,47.273389],[-122.417858,47.27337],[-122.417877,47.2733],[-122.41807,47.273301],[-122.418124,47.273282],[-122.418143,47.273122],[-122.418366,47.273116],[-122.418405,47.273085],[-122.418409,47.273033],[-122.418805,47.273035],[-122.41881,47.273182],[-122.418852,47.273211],[-122.418936,47.273216],[-122.41897,47.273297],[-122.419067,47.273306],[-122.419083,47.273466],[-122.419136,47.273486],[-122.419329,47.273488]],[[-122.418541,47.273607],[-122.418514,47.273708],[-122.418547,47.273744],[-122.418741,47.273752],[-122.418794,47.273716],[-122.418796,47.273613],[-122.418743,47.273577],[-122.418591,47.273576],[-122.418541,47.273607]]]}},{"type":"Feature","properties":{"id":29,"area_m2":7000,"px":70,"rank":3},"geometry":{"type":"Polygon","coordinates":[[[-122.416323,47.270323],[-122.416321,47.270503],[-122.41608,47.270517],[-122.416056,47.270591],[-122.415973,47.270595],[-122.415929,47.270624],[-122.415922,47.270771],[-122.415705,47.27076],[-122.41566,47.270794],[-122.415656,47.270859],[-122.415537,47.270883],[-122.415523,47.270948],[-122.415391,47.270948],[-122.41538,47.270702],[-122.415322,47.270678],[-122.41513,47.270677],[-122.415131,47.270587],[-122.415214,47.270583],[-122.415257,47.270554],[-122.415272,47.270432],[-122.415229,47.27041],[-122.415133,47.270407],[-122.41513,47.270341],[-122.415086,47.270307],[-122.414869,47.270315],[-122.414871,47.270135],[-122.415079,47.270134],[-122.415136,47.270088],[-122.415124,47.269981],[-122.415005,47.269956],[-122.415008,47.269686],[-122.415405,47.269688],[-122.415427,47.269762],[-122.415536,47.269779],[-122.41557,47.26986],[-122.415667,47.26987],[-122.415688,47.270047],[-122.415742,47.270064],[-122.415929,47.270051],[-122.415952,47.270125],[-122.416061,47.270142],[-122.416073,47.270207],[-122.416192,47.270232],[-122.41622,47.27031],[-122.416323,47.270323]]]}},{"type":"Feature","properties":{"id":15,"area_m2":6000,"px":60,"rank":4},"geometry":{"type":"Polygon","coordinates":[[[-122.412582,47.273903],[-122.412579,47.274173],[-122.412182,47.274171],[-122.412162,47.273993],[-122.412108,47.273977],[-122.41192,47.27399],[-122.411943,47.273642],[-122.411862,47.273605],[-122.411792,47.273629],[-122.411527,47.273628],[-122.411525,47.273486],[-122.41148,47.273452],[-122.411397,47.273447],[-122.411381,47.273287],[-122.411267,47.273266],[-122.411254,47.2732],[-122.411136,47.273176],[-122.411133,47.273124],[-122.411095,47.273092],[-122.410872,47.273084],[-122.410874,47.272863],[-122.410846,47.272827],[-122.410611,47.272813],[-122.410614,47.272543],[-122.410723,47.272528],[-122.410747,47.272454],[-122.410879,47.272455],[-122.410902,47.272529],[-122.41101,47.272545],[-122.411031,47.272799],[-122.41114,47.272816],[-122.411145,47.272872],[-122.411188,47.272902],[-122.411403,47.272907],[-122.411423,47.273085],[-122.411478,47.273101],[-122.411665,47.273088],[-122.411644,47.273212],[-122.411666,47.273252],[-122.411928,47.27327],[-122.411932,47.273416],[-122.411975,47.273446],[-122.412058,47.27345],[-122.412085,47.273541],[-122.412454,47.273542],[-122.412452,47.273722],[-122.412333,47.273746],[-122.412319,47.273858],[-122.412381,47.273901],[-122.412582,47.273903]]]}},{"type":"Feature","properties":{"id":5,"area_m2":5800,"px":58,"rank":5},"geometry":{"type":"Polygon","coordinates":[[[-122.414544,47.275803],[-122.414542,47.275983],[-122.41441,47.275982],[-122.414348,47.275958],[-122.414278,47.275981],[-122.414146,47.275981],[-122.414128,47.27591],[-122.414014,47.27589],[-122.41398,47.275809],[-122.413883,47.275799],[-122.413855,47.275721],[-122.413752,47.275709],[-122.413729,47.275634],[-122.41355,47.275605],[-122.413491,47.275642],[-122.413487,47.275749],[-122.413528,47.275791],[-122.413619,47.275798],[-122.413617,47.275978],[-122.41322,47.275976],[-122.413206,47.275636],[-122.413152,47.275616],[-122.41296,47.275615],[-122.412951,47.275553],[-122.412897,47.275525],[-122.412432,47.275522],[-122.412424,47.27537],[-122.412377,47.275344],[-122.412302,47.275341],[-122.412304,47.275161],[-122.412436,47.275162],[-122.412498,47.275186],[-122.412568,47.275163],[-122.4127,47.275163],[-122.412703,47.275229],[-122.412746,47.275263],[-122.412963,47.275255],[-122.412979,47.275505],[-122.413032,47.275525],[-122.413286,47.275526],[-122.413356,47.275483],[-122.413354,47.27529],[-122.413311,47.275261],[-122.413228,47.275256],[-122.413194,47.275175],[-122.413097,47.275165],[-122.413098,47.275075],[-122.41323,47.275076],[-122.413258,47.275154],[-122.413493,47.275167],[-122.413516,47.275242],[-122.413625,47.275258],[-122.413659,47.275339],[-122.413756,47.275349],[-122.413755,47.27548],[-122.413783,47.275517],[-122.414283,47.275531],[-122.414305,47.275606],[-122.414414,47.275622],[-122.414426,47.275778],[-122.414544,47.275803]]]}},{"type":"Feature","properties":{"id":17,"area_m2":3700,"px":37,"rank":6},"geometry":{"type":"Polygon","coordinates":[[[-122.411395,47.273627],[-122.411391,47.273987],[-122.411259,47.273986],[-122.411254,47.273916],[-122.411206,47.273885],[-122.410996,47.273895],[-122.410978,47.273825],[-122.410864,47.273804],[-122.41083,47.273723],[-122.410733,47.273713],[-122.410705,47.273636],[-122.410602,47.273623],[-122.410574,47.273545],[-122.410471,47.273532],[-122.410442,47.273454],[-122.410207,47.273441],[-122.410209,47.27322],[-122.410181,47.273183],[-122.409946,47.27317],[-122.40994,47.273113],[-122.40989,47.273082],[-122.409682,47.273078],[-122.409684,47.272898],[-122.409816,47.272899],[-122.409829,47.272965],[-122.409895,47.272989],[-122.410045,47.272981],[-122.410081,47.2729],[-122.410213,47.272901],[-122.410211,47.273122],[-122.410239,47.273159],[-122.410404,47.273196],[-122.410475,47.273172],[-122.410607,47.273173],[-122.410629,47.273247],[-122.410738,47.273264],[-122.410737,47.273395],[-122.410765,47.273431],[-122.411,47.273445],[-122.411033,47.273539],[-122.411264,47.273536],[-122.411286,47.273611],[-122.411395,47.273627]]]}},{"type":"Feature","properties":{"id":13,"area_m2":3100,"px":31,"rank":7},"geometry":{"type":"Polygon","coordinates":[[[-122.414826,47.274184],[-122.414825,47.274274],[-122.414297,47.274272],[-122.41428,47.274111],[-122.414227,47.274092],[-122.414034,47.27409],[-122.414034,47.273954],[-122.413994,47.273917],[-122.413772,47.273909],[-122.413767,47.273762],[-122.413725,47.273733],[-122.413642,47.273728],[-122.413613,47.273651],[-122.413378,47.273637],[-122.413365,47.273571],[-122.413247,47.273546],[-122.413241,47.27349],[-122.413199,47.27346],[-122.412984,47.273455],[-122.412987,47.273185],[-122.413383,47.273187],[-122.413385,47.273329],[-122.41343,47.273363],[-122.413513,47.273368],[-122.413535,47.273532],[-122.413643,47.273549],[-122.413661,47.273619],[-122.413775,47.273639],[-122.413787,47.273705],[-122.413906,47.27373],[-122.41394,47.273811],[-122.414169,47.273821],[-122.414187,47.273891],[-122.4143,47.273912],[-122.414313,47.273978],[-122.414432,47.274002],[-122.414466,47.274083],[-122.414695,47.274094],[-122.414718,47.274168],[-122.414826,47.274184]]]}},{"type":"Feature","properties":{"id":27,"area_m2":3100,"px":31,"rank":8},"geometry":{"type":"Polygon","coordinates":[[[-122.415259,47.270947],[-122.415257,47.271127],[-122.415064,47.271126],[-122.41501,47.271146],[-122.41499,47.271306],[-122.414907,47.271309],[-122.414861,47.271343],[-122.414856,47.271485],[-122.414724,47.271484],[-122.414662,47.27146],[-122.414592,47.271484],[-122.41446,47.271483],[-122.414464,47.271123],[-122.414499,47.271081],[-122.414465,47.271033],[-122.414466,47.270943],[-122.414541,47.270941],[-122.414589,47.270915],[-122.4146,47.270764],[-122.414864,47.270765],[-122.414926,47.27079],[-122.414996,47.270766],[-122.415128,47.270767],[-122.415136,47.270918],[-122.415183,47.270944],[-122.415259,47.270947]]]}},{"type":"Feature","properties":{"id":6,"area_m2":1900,"px":19,"rank":9},"geometry":{"type":"Polygon","coordinates":[[[-122.415076,47.275536],[-122.415075,47.275625],[-122.414811,47.275624],[-122.414798,47.275558],[-122.414679,47.275533],[-122.414645,47.275452],[-122.414486,47.275418],[-122.414416,47.275442],[-122.414284,47.275441],[-122.414261,47.275367],[-122.414153,47.275351],[-122.414154,47.275261],[-122.414244,47.275255],[-122.414285,47.275218],[-122.414289,47.274992],[-122.414421,47.274992],[-122.414443,47.275066],[-122.414552,47.275083],[-122.414569,47.275153],[-122.414683,47.275174],[-122.414718,47.275255],[-122.414814,47.275264],[-122.414843,47.275342],[-122.414946,47.275355],[-122.414953,47.275506],[-122.415,47.275533],[-122.415076,47.275536]]]}},{"type":"Feature","properties":{"id":1,"area_m2":1700,"px":17,"rank":10},"geometry":{"type":"Polygon","coordinates":[[[-122.415063,47.276705],[-122.415062,47.276795],[-122.414953,47.27681],[-122.414929,47.276884],[-122.414797,47.276884],[-122.414784,47.276818],[-122.414666,47.276793],[-122.414631,47.276712],[-122.414402,47.276702],[-122.4144,47.27656],[-122.414355,47.276526],[-122.414272,47.276521],[-122.414273,47.276431],[-122.414382,47.276416],[-122.414406,47.276342],[-122.41467,47.276343],[-122.414693,47.276418],[-122.414802,47.276434],[-122.414818,47.276594],[-122.414932,47.276615],[-122.414966,47.276696],[-122.415063,47.276705]]]}},{"type":"Feature","properties":{"id":9,"area_m2":1400,"px":14,"rank":11},"geometry":{"type":"Polygon","coordinates":[[[-122.413632,47.274538],[-122.413629,47.274808],[-122.413233,47.274806],[-122.413234,47.27458],[-122.413194,47.274542],[-122.413104,47.274535],[-122.413106,47.274356],[-122.41337,47.274357],[-122.413393,47.274431],[-122.413501,47.274448],[-122.413536,47.274529],[-122.413632,47.274538]]]}},{"type":"Feature","properties":{"id":20,"area_m2":1400,"px":14,"rank":12},"geometry":{"type":"Polygon","coordinates":[[[-122.415898,47.27293],[-122.415897,47.27302],[-122.415788,47.273035],[-122.415764,47.273109],[-122.415367,47.273107],[-122.415345,47.273033],[-122.415236,47.273017],[-122.415238,47.272837],[-122.41546,47.272832],[-122.415499,47.2728],[-122.415503,47.272748],[-122.415768,47.27275],[-122.415775,47.272901],[-122.415822,47.272927],[-122.415898,47.27293]]]}},{"type":"Feature","properties":{"id":2,"area_m2":1100,"px":11,"rank":13},"geometry":{"type":"Polygon","coordinates":[[[-122.413085,47.276245],[-122.413084,47.276335],[-122.412975,47.27635],[-122.412951,47.276424],[-122.412819,47.276424],[-122.412797,47.276259],[-122.412556,47.276242],[-122.412558,47.276063],[-122.412667,47.276047],[-122.412691,47.275973],[-122.412956,47.275975],[-122.412956,47.276206],[-122.413002,47.276241],[-122.413085,47.276245]]]}},{"type":"Feature","properties":{"id":4,"area_m2":1100,"px":11,"rank":14},"geometry":{"type":"Polygon","coordinates":[[[-122.412562,47.275703],[-122.412559,47.275972],[-122.41245,47.275988],[-122.412426,47.276062],[-122.412294,47.276061],[-122.412271,47.275987],[-122.412162,47.27597],[-122.412128,47.275889],[-122.412031,47.27588],[-122.412033,47.2757],[-122.412165,47.275701],[-122.412227,47.275725],[-122.412298,47.275701],[-122.412562,47.275703]]]}},{"type":"Feature","properties":{"id":11,"area_m2":1000,"px":10,"rank":15},"geometry":{"type":"Polygon","coordinates":[[[-122.412311,47.274442],[-122.412309,47.274621],[-122.412045,47.27462],[-122.412023,47.274546],[-122.411914,47.274529],[-122.41188,47.274448],[-122.411783,47.274439],[-122.411785,47.274259],[-122.412049,47.27426],[-122.412071,47.274334],[-122.41218,47.274351],[-122.412215,47.274432],[-122.412311,47.274442]]]}},{"type":"Feature","properties":{"id":21,"area_m2":800,"px":8,"rank":16},"geometry":{"type":"Polygon","coordinates":[[[-122.416824,47.272845],[-122.416823,47.272935],[-122.416561,47.272933],[-122.416556,47.272882],[-122.416518,47.27285],[-122.416296,47.272842],[-122.416299,47.272572],[-122.416431,47.272573],[-122.416453,47.272647],[-122.416562,47.272664],[-122.416575,47.27273],[-122.416693,47.272754],[-122.416721,47.272832],[-122.416824,47.272845]]]}},{"type":"Feature","properties":{"id":24,"area_m2":700,"px":7,"rank":17},"geometry":{"type":"Polygon","coordinates":[[[-122.415771,47.27248],[-122.415769,47.272659],[-122.415551,47.272636],[-122.415395,47.272673],[-122.415371,47.272747],[-122.415239,47.272747],[-122.415241,47.272567],[-122.41535,47.272552],[-122.415374,47.272478],[-122.415771,47.27248]]]}},{"type":"Feature","properties":{"id":14,"area_m2":600,"px":6,"rank":18},"geometry":{"type":"Polygon","coordinates":[[[-122.413374,47.273997],[-122.413372,47.274177],[-122.412976,47.274175],[-122.412977,47.274085],[-122.413012,47.274043],[-122.412978,47.273995],[-122.412979,47.273905],[-122.413111,47.273906],[-122.413116,47.273962],[-122.413166,47.273994],[-122.413374,47.273997]]]}},{"type":"Feature","properties":{"id":22,"area_m2":600,"px":6,"rank":19},"geometry":{"type":"Polygon","coordinates":[[[-122.415107,47.272746],[-122.415106,47.272836],[-122.414974,47.272835],[-122.414951,47.272761],[-122.414842,47.272745],[-122.414808,47.272664],[-122.414711,47.272654],[-122.414713,47.272474],[-122.414977,47.272476],[-122.414978,47.272707],[-122.415023,47.272742],[-122.415107,47.272746]]]}},{"type":"Feature","properties":{"id":3,"area_m2":500,"px":5,"rank":20},"geometry":{"type":"Polygon","coordinates":[[[-122.414144,47.276071],[-122.414141,47.27634],[-122.414009,47.27634],[-122.414004,47.276283],[-122.413954,47.276252],[-122.413746,47.276248],[-122.413747,47.276159],[-122.413955,47.276157],[-122.414006,47.276127],[-122.414012,47.27607],[-122.414144,47.276071]]]}},{"type":"Feature","properties":{"id":7,"area_m2":500,"px":5,"rank":21},"geometry":{"type":"Polygon","coordinates":[[[-122.414026,47.27481],[-122.414023,47.27508],[-122.413891,47.275079],[-122.413883,47.274928],[-122.413837,47.274902],[-122.413761,47.274899],[-122.413763,47.274719],[-122.413895,47.27472],[-122.413917,47.274794],[-122.414026,47.27481]]]}},{"type":"Feature","properties":{"id":10,"area_m2":500,"px":5,"rank":22},"geometry":{"type":"Polygon","coordinates":[[[-122.411647,47.274708],[-122.411646,47.274798],[-122.41125,47.274796],[-122.411252,47.274616],[-122.411516,47.274617],[-122.411539,47.274692],[-122.411647,47.274708]]]}},{"type":"Feature","properties":{"id":28,"area_m2":500,"px":5,"rank":23},"geometry":{"type":"Polygon","coordinates":[[[-122.406266,47.271171],[-122.406265,47.271261],[-122.406156,47.271276],[-122.406132,47.27135],[-122.405868,47.271349],[-122.40587,47.271169],[-122.406266,47.271171]]]}},{"type":"Feature","properties":{"id":8,"area_m2":400,"px":4,"rank":24},"geometry":{"type":"Polygon","coordinates":[[[-122.414557,47.274633],[-122.414555,47.274813],[-122.414291,47.274811],[-122.414293,47.274632],[-122.414557,47.274633]]]}},{"type":"Feature","properties":{"id":16,"area_m2":400,"px":4,"rank":25},"geometry":{"type":"Polygon","coordinates":[[[-122.410599,47.273893],[-122.410596,47.274163],[-122.410331,47.274161],[-122.410332,47.274071],[-122.410416,47.274068],[-122.410462,47.274034],[-122.410467,47.273892],[-122.410599,47.273893]]]}},{"type":"Feature","properties":{"id":19,"area_m2":400,"px":4,"rank":26},"geometry":{"type":"Polygon","coordinates":[[[-122.416292,47.273112],[-122.41629,47.273292],[-122.416026,47.273291],[-122.416028,47.273111],[-122.416292,47.273112]]]}},{"type":"Feature","properties":{"id":23,"area_m2":400,"px":4,"rank":27},"geometry":{"type":"Polygon","coordinates":[[[-122.408497,47.272622],[-122.408496,47.272712],[-122.408387,47.272727],[-122.408363,47.272801],[-122.408231,47.272801],[-122.408234,47.272531],[-122.408366,47.272532],[-122.408389,47.272606],[-122.408497,47.272622]]]}},{"type":"Feature","properties":{"id":26,"area_m2":400,"px":4,"rank":28},"geometry":{"type":"Polygon","coordinates":[[[-122.410887,47.271735],[-122.410886,47.271825],[-122.410777,47.27184],[-122.410753,47.271914],[-122.410356,47.271912],[-122.410357,47.271822],[-122.41069,47.271823],[-122.410745,47.271795],[-122.410755,47.271734],[-122.410887,47.271735]]]}},{"type":"Feature","properties":{"id":18,"area_m2":300,"px":3,"rank":29},"geometry":{"type":"Polygon","coordinates":[[[-122.409417,47.273167],[-122.409415,47.273347],[-122.409283,47.273346],[-122.40926,47.273272],[-122.409152,47.273255],[-122.409153,47.273166],[-122.409417,47.273167]]]}},{"type":"Feature","properties":{"id":25,"area_m2":300,"px":3,"rank":30},"geometry":{"type":"Polygon","coordinates":[[[-122.418816,47.272045],[-122.418815,47.272135],[-122.418706,47.27215],[-122.418682,47.272224],[-122.41855,47.272224],[-122.418552,47.272044],[-122.418816,47.272045]]]}},{"type":"Feature","properties":{"id":31,"area_m2":300,"px":3,"rank":31},"geometry":{"type":"Polygon","coordinates":[[[-122.404429,47.269992],[-122.404428,47.270082],[-122.404318,47.270097],[-122.404294,47.270171],[-122.404162,47.27017],[-122.404164,47.26999],[-122.404429,47.269992]]]}},{"type":"Feature","properties":{"id":32,"area_m2":300,"px":3,"rank":32},"geometry":{"type":"Polygon","coordinates":[[[-122.410126,47.268851],[-122.410123,47.269121],[-122.409991,47.26912],[-122.409994,47.268851],[-122.410126,47.268851]]]}},{"type":"Feature","properties":{"id":33,"area_m2":300,"px":3,"rank":33},"geometry":{"type":"Polygon","coordinates":[[[-122.409865,47.26858],[-122.409863,47.26876],[-122.409731,47.268759],[-122.409708,47.268685],[-122.409599,47.268669],[-122.4096,47.268579],[-122.409865,47.26858]]]}}]}