{"type":"FeatureCollection","features":[{"type":"Feature","properties":{"id":13,"area_m2":3100,"px":31,"rank":1},"geometry":{"type":"Polygon","coordinates":[[[-122.41324,47.274176],[-122.413237,47.274446],[-122.412973,47.274445],[-122.41297,47.274393],[-122.412932,47.274361],[-122.412709,47.274353],[-122.41271,47.274264],[-122.412746,47.274216],[-122.412683,47.274096],[-122.412316,47.274082],[-122.412318,47.273902],[-122.412533,47.273899],[-122.412576,47.27387],[-122.412583,47.273813],[-122.412783,47.273813],[-122.412844,47.273776],[-122.412831,47.273654],[-122.412778,47.273634],[-122.412585,47.273633],[-122.412586,47.273543],[-122.41285,47.273544],[-122.412853,47.273596],[-122.412891,47.273628],[-122.413114,47.273636],[-122.413111,47.273906],[-122.412999,47.273912],[-122.412958,47.273966],[-122.413,47.274069],[-122.413109,47.274086],[-122.413143,47.274167],[-122.41324,47.274176]]]}},{"type":"Feature","properties":{"id":16,"area_m2":2800,"px":28,"rank":2},"geometry":{"type":"Polygon","coordinates":[[[-122.418935,47.273306],[-122.418934,47.273395],[-122.418824,47.273411],[-122.4188,47.273485],[-122.418697,47.273496],[-122.418667,47.273574],[-122.418564,47.273586],[-122.418534,47.273663],[-122.418437,47.273672],[-122.418401,47.273753],[-122.418286,47.273772],[-122.418268,47.273842],[-122.418136,47.273841],[-122.418129,47.2736],[-122.418082,47.273573],[-122.418006,47.273571],[-122.417972,47.27349],[-122.417875,47.273479],[-122.417877,47.2733],[-122.418078,47.2733],[-122.418138,47.273263],[-122.418141,47.27307],[-122.418095,47.273035],[-122.418012,47.273031],[-122.418013,47.272942],[-122.418122,47.272926],[-122.418146,47.272852],[-122.418356,47.272864],[-122.418405,47.272833],[-122.418412,47.272763],[-122.418544,47.272764],[-122.418543,47.27299],[-122.418583,47.273027],[-122.418673,47.273034],[-122.418672,47.273124],[-122.418345,47.273109],[-122.418276,47.273157],[-122.41828,47.273269],[-122.418323,47.273298],[-122.418406,47.273303],[-122.418433,47.273394],[-122.418745,47.273392],[-122.418796,47.273361],[-122.418803,47.273305],[-122.418935,47.273306]],[[-122.418368,47.273563],[-122.418422,47.273433],[-122.418369,47.273395],[-122.418195,47.273368],[-122.418107,47.273423],[-122.418145,47.273538],[-122.418195,47.273569],[-122.418368,47.273563]]]}},{"type":"Feature","properties":{"id":19,"area_m2":2600,"px":26,"rank":3},"geometry":{"type":"Polygon","coordinates":[[[-122.412325,47.273182],[-122.412322,47.273452],[-122.412247,47.273454],[-122.412199,47.27348],[-122.412188,47.273631],[-122.412056,47.27363],[-122.412053,47.273579],[-122.412015,47.273547],[-122.411793,47.273539],[-122.411794,47.273408],[-122.411759,47.273368],[-122.4116,47.273334],[-122.41153,47.273358],[-122.411398,47.273357],[-122.411399,47.273131],[-122.411359,47.273093],[-122.411269,47.273086],[-122.41127,47.272996],[-122.411534,47.272998],[-122.411562,47.273076],[-122.411798,47.273089],[-122.411806,47.273151],[-122.41186,47.273178],[-122.412325,47.273182]]]}},{"type":"Feature","properties":{"id":5,"area_m2":2400,"px":24,"rank":4},"geometry":{"type":"Polygon","coordinates":[[[-122.414948,47.275175],[-122.414945,47.275445],[-122.414416,47.275442],[-122.414393,47.275368],[-122.414285,47.275351],[-122.41425,47.27527],[-122.414154,47.275261],[-122.414154,47.275034],[-122.414114,47.274997],[-122.414024,47.27499],[-122.414025,47.2749],[-122.414157,47.274901],[-122.41422,47.274925],[-122.41429,47.274902],[-122.414422,47.274902],[-122.414439,47.274973],[-122.414553,47.274993],[-122.414587,47.275074],[-122.414684,47.275084],[-122.414712,47.275161],[-122.414948,47.275175]]]}},{"type":"Feature","properties":{"id":18,"area_m2":2300,"px":23,"rank":5},"geometry":{"type":"Polygon","coordinates":[[[-122.411265,47.273446],[-122.411263,47.273626],[-122.411154,47.273642],[-122.41113,47.273715],[-122.410998,47.273715],[-122.41098,47.273645],[-122.410866,47.273624],[-122.410832,47.273543],[-122.410735,47.273533],[-122.410707,47.273456],[-122.410604,47.273443],[-122.410576,47.273365],[-122.410473,47.273352],[-122.410444,47.273274],[-122.410209,47.273261],[-122.410187,47.273187],[-122.410078,47.27317],[-122.410044,47.273089],[-122.409947,47.27308],[-122.409949,47.2729],[-122.410058,47.272884],[-122.410082,47.27281],[-122.410214,47.272811],[-122.410237,47.272885],[-122.410345,47.272902],[-122.41038,47.272983],[-122.410477,47.272992],[-122.410492,47.273243],[-122.410545,47.273262],[-122.410738,47.273264],[-122.410737,47.273395],[-122.410765,47.273431],[-122.41093,47.273469],[-122.411,47.273445],[-122.411265,47.273446]]]}},{"type":"Feature","properties":{"id":12,"area_m2":1700,"px":17,"rank":6},"geometry":{"type":"Polygon","coordinates":[[[-122.415089,47.274366],[-122.415088,47.274456],[-122.414958,47.274455],[-122.414953,47.274403],[-122.414915,47.274371],[-122.414692,47.274364],[-122.414688,47.274217],[-122.414645,47.274188],[-122.414562,47.274183],[-122.41454,47.274109],[-122.414299,47.274092],[-122.414276,47.274017],[-122.414167,47.274001],[-122.414134,47.273907],[-122.413904,47.27391],[-122.413905,47.27382],[-122.414014,47.273805],[-122.414038,47.273731],[-122.41417,47.273731],[-122.414173,47.273783],[-122.414211,47.273815],[-122.414434,47.273823],[-122.414439,47.273879],[-122.414489,47.27391],[-122.414697,47.273914],[-122.414699,47.274055],[-122.414744,47.27409],[-122.414827,47.274094],[-122.414839,47.27425],[-122.414958,47.274275],[-122.414992,47.274356],[-122.415089,47.274366]]]}},{"type":"Feature","properties":{"id":2,"area_m2":1500,"px":15,"rank":7},"geometry":{"type":"Polygon","coordinates":[[[-122.413753,47.275619],[-122.413751,47.275799],[-122.413354,47.275797],[-122.413332,47.275722],[-122.413223,47.275706],[-122.413189,47.275625],[-122.413092,47.275615],[-122.413094,47.275435],[-122.413203,47.27542],[-122.413227,47.275346],[-122.413359,47.275347],[-122.413382,47.275421],[-122.41349,47.275437],[-122.413503,47.275503],[-122.413622,47.275528],[-122.41365,47.275606],[-122.413753,47.275619]]]}},{"type":"Feature","properties":{"id":14,"area_m2":1500,"px":15,"rank":8},"geometry":{"type":"Polygon","coordinates":[[[-122.418664,47.273844],[-122.41866,47.274204],[-122.418551,47.274219],[-122.418527,47.274293],[-122.418408,47.274317],[-122.418394,47.274382],[-122.418262,47.274382],[-122.418263,47.274155],[-122.418223,47.274118],[-122.418133,47.274111],[-122.418134,47.274021],[-122.418243,47.274006],[-122.418267,47.273932],[-122.418386,47.273909],[-122.4184,47.273843],[-122.418664,47.273844]]]}},{"type":"Feature","properties":{"id":9,"area_m2":1300,"px":13,"rank":9},"geometry":{"type":"Polygon","coordinates":[[[-122.41297,47.274625],[-122.412968,47.274805],[-122.412836,47.274804],[-122.412831,47.274747],[-122.412781,47.274716],[-122.412573,47.274713],[-122.412574,47.274582],[-122.41254,47.274542],[-122.412178,47.274531],[-122.41218,47.274351],[-122.412577,47.274353],[-122.412599,47.274427],[-122.412708,47.274444],[-122.412721,47.27451],[-122.412839,47.274534],[-122.412867,47.274612],[-122.41297,47.274625]]]}},{"type":"Feature","properties":{"id":1,"area_m2":1200,"px":12,"rank":10},"geometry":{"type":"Polygon","coordinates":[[[-122.415072,47.275895],[-122.41507,47.276075],[-122.414806,47.276074],[-122.414803,47.276022],[-122.414765,47.27599],[-122.414542,47.275983],[-122.41452,47.275908],[-122.414411,47.275892],[-122.414414,47.275622],[-122.414678,47.275623],[-122.414676,47.275845],[-122.414711,47.275884],[-122.415072,47.275895]]]}},{"type":"Feature","properties":{"id":6,"area_m2":1200,"px":12,"rank":11},"geometry":{"type":"Polygon","coordinates":[[[-122.412965,47.275075],[-122.412961,47.275435],[-122.412697,47.275433],[-122.412675,47.275359],[-122.412566,47.275343],[-122.412532,47.275262],[-122.412435,47.275252],[-122.412436,47.275162],[-122.412545,47.275147],[-122.412569,47.275073],[-122.412965,47.275075]]]}},{"type":"Feature","properties":{"id":21,"area_m2":1100,"px":11,"rank":12},"geometry":{"type":"Polygon","coordinates":[[[-122.411274,47.272637],[-122.411271,47.272906],[-122.410742,47.272904],[-122.410744,47.272724],[-122.410853,47.272709],[-122.410877,47.272635],[-122.411274,47.272637]]]}},{"type":"Feature","properties":{"id":3,"area_m2":1000,"px":10,"rank":13},"geometry":{"type":"Polygon","coordinates":[[[-122.412431,47.275612],[-122.412429,47.275792],[-122.412164,47.27579],[-122.412142,47.275716],[-122.412033,47.2757],[-122.411999,47.275619],[-122.411902,47.275609],[-122.411904,47.275429],[-122.412168,47.275431],[-122.412191,47.275505],[-122.412299,47.275521],[-122.412334,47.275602],[-122.412431,47.275612]]]}},{"type":"Feature","properties":{"id":17,"area_m2":900,"px":9,"rank":14},"geometry":{"type":"Polygon","coordinates":[[[-122.417746,47.27321],[-122.417742,47.273569],[-122.417666,47.273571],[-122.417619,47.273597],[-122.417608,47.273749],[-122.417343,47.273747],[-122.417345,47.273567],[-122.417546,47.273567],[-122.417609,47.273525],[-122.417605,47.273422],[-122.417563,47.273393],[-122.417479,47.273388],[-122.41748,47.273298],[-122.41759,47.273283],[-122.417614,47.273209],[-122.417746,47.27321]]]}},{"type":"Feature","properties":{"id":7,"area_m2":800,"px":8,"rank":15},"geometry":{"type":"Polygon","coordinates":[[[-122.413627,47.275078],[-122.413624,47.275348],[-122.413492,47.275347],[-122.413469,47.275273],[-122.41336,47.275257],[-122.413326,47.275176],[-122.413229,47.275166],[-122.413231,47.274986],[-122.413495,47.274988],[-122.413518,47.275062],[-122.413627,47.275078]]]}},{"type":"Feature","properties":{"id":22,"area_m2":800,"px":8,"rank":16},"geometry":{"type":"Polygon","coordinates":[[[-122.410746,47.272544],[-122.410745,47.272634],[-122.410613,47.272633],[-122.410551,47.272609],[-122.410481,47.272632],[-122.410216,47.272631],[-122.410219,47.272361],[-122.410484,47.272363],[-122.410506,47.272437],[-122.410615,47.272453],[-122.410649,47.272534],[-122.410746,47.272544]]]}},{"type":"Feature","properties":{"id":15,"area_m2":700,"px":7,"rank":17},"geometry":{"type":"Polygon","coordinates":[[[-122.419193,47.273578],[-122.41916,47.273624],[-122.419195,47.273667],[-122.419194,47.273757],[-122.419085,47.273772],[-122.419061,47.273846],[-122.418929,47.273845],[-122.418923,47.273789],[-122.418873,47.273757],[-122.418665,47.273754],[-122.418666,47.273664],[-122.418896,47.273656],[-122.418932,47.273575],[-122.419051,47.273552],[-122.419065,47.273486],[-122.419197,47.273487],[-122.419193,47.273578]]]}},{"type":"Feature","properties":{"id":11,"area_m2":600,"px":6,"rank":18},"geometry":{"type":"Polygon","coordinates":[[[-122.413633,47.274448],[-122.413631,47.274628],[-122.413522,47.274643],[-122.413498,47.274717],[-122.413366,47.274717],[-122.41337,47.274357],[-122.413502,47.274358],[-122.413525,47.274432],[-122.413633,47.274448]]]}},{"type":"Feature","properties":{"id":4,"area_m2":500,"px":5,"rank":19},"geometry":{"type":"Polygon","coordinates":[[[-122.414284,47.275441],[-122.414281,47.275711],[-122.414149,47.275711],[-122.414141,47.275559],[-122.414094,47.275533],[-122.414018,47.27553],[-122.41402,47.27535],[-122.414152,47.275351],[-122.414175,47.275425],[-122.414284,47.275441]]]}},{"type":"Feature","properties":{"id":20,"area_m2":500,"px":5,"rank":20},"geometry":{"type":"Polygon","coordinates":[[[-122.415767,47.27284],[-122.415766,47.272929],[-122.415657,47.272945],[-122.415632,47.273019],[-122.415368,47.273017],[-122.415371,47.272748],[-122.415503,47.272748],[-122.415508,47.272818],[-122.415556,47.272849],[-122.415767,47.27284]]]}},{"type":"Feature","properties":{"id":23,"area_m2":500,"px":5,"rank":21},"geometry":{"type":"Polygon","coordinates":[[[-122.40653,47.271262],[-122.406528,47.271442],[-122.406418,47.271457],[-122.406394,47.271531],[-122.406262,47.271531],[-122.406265,47.271261],[-122.40653,47.271262]]]}},{"type":"Feature","properties":{"id":8,"area_m2":400,"px":4,"rank":22},"geometry":{"type":"Polygon","coordinates":[[[-122.415217,47.274726],[-122.415215,47.274906],[-122.415106,47.274922],[-122.415082,47.274996],[-122.41495,47.274995],[-122.414952,47.274815],[-122.415061,47.2748],[-122.415085,47.274726],[-122.415217,47.274726]]]}},{"type":"Feature","properties":{"id":10,"area_m2":400,"px":4,"rank":23},"geometry":{"type":"Polygon","coordinates":[[[-122.414557,47.274633],[-122.414556,47.274723],[-122.414292,47.274722],[-122.414269,47.274647],[-122.41416,47.274631],[-122.414161,47.274541],[-122.414426,47.274542],[-122.414448,47.274617],[-122.414557,47.274633]]]}},{"type":"Feature","properties":{"id":24,"area_m2":400,"px":4,"rank":24},"geometry":{"type":"Polygon","coordinates":[[[-122.407339,47.269827],[-122.407337,47.270007],[-122.40694,47.270005],[-122.406941,47.269915],[-122.407149,47.269913],[-122.4072,47.269883],[-122.407207,47.269826],[-122.407339,47.269827]]]}}]}