{"type":"FeatureCollection","features":[{"type":"Feature","properties":{"id":2,"area_m2":1826100,"px":18261,"rank":1,"persistent":true},"geometry":{"type":"Polygon","coordinates":[[[-122.423634,47.26667],[-122.423624,47.26757],[-122.42336,47.267569],[-122.423355,47.267422],[-122.423313,47.267393],[-122.42323,47.267388],[-122.423195,47.267307],[-122.423099,47.267298],[-122.423098,47.267161],[-122.423058,47.267124],[-122.422906,47.267093],[-122.422836,47.267116],[-122.422643,47.267116],[-122.422595,47.267131],[-122.422571,47.267169],[-122.422574,47.267442],[-122.422617,47.267471],[-122.4227,47.267476],[-122.422708,47.267627],[-122.422754,47.267653],[-122.42283,47.267656],[-122.422865,47.267737],[-122.422961,47.267747],[-122.422988,47.267838],[-122.423293,47.267837],[-122.423348,47.26781],[-122.423358,47.267749],[-122.423622,47.26775],[-122.423618,47.26811],[-122.423504,47.268129],[-122.423449,47.268242],[-122.423484,47.268289],[-122.423492,47.268441],[-122.423539,47.268467],[-122.423614,47.26847],[-122.423611,47.26883],[-122.423478,47.268829],[-122.423456,47.268755],[-122.423347,47.268739],[-122.423348,47.268607],[-122.42332,47.268571],[-122.423085,47.268557],[-122.423062,47.268483],[-122.422954,47.268467],[-122.422937,47.268306],[-122.422823,47.268286],[-122.422789,47.268205],[-122.422692,47.268195],[-122.422664,47.268118],[-122.422561,47.268105],[-122.422533,47.268027],[-122.42243,47.268014],[-122.422402,47.267936],[-122.422299,47.267923],[-122.42227,47.267846],[-122.421806,47.26784],[-122.42177,47.267921],[-122.421673,47.267929],[-122.421636,47.26801],[-122.421553,47.268014],[-122.42151,47.268043],[-122.421501,47.268279],[-122.421411,47.268285],[-122.42137,47.268322],[-122.421367,47.268595],[-122.421407,47.268632],[-122.421497,47.268639],[-122.421514,47.2688],[-122.421628,47.26882],[-122.421639,47.268976],[-122.421758,47.269001],[-122.421792,47.269082],[-122.421889,47.269091],[-122.421893,47.269328],[-122.421935,47.269357],[-122.422018,47.269362],[-122.422035,47.269522],[-122.422149,47.269542],[-122.422183,47.269623],[-122.42228,47.269633],[-122.422288,47.269785],[-122.422334,47.269811],[-122.42241,47.269814],[-122.422408,47.269994],[-122.422299,47.270009],[-122.422275,47.270083],[-122.422046,47.270091],[-122.42201,47.270172],[-122.421677,47.270171],[-122.421622,47.270198],[-122.421612,47.27026],[-122.421257,47.270264],[-122.421218,47.270296],[-122.421214,47.270347],[-122.421095,47.270371],[-122.421081,47.270437],[-122.42036,47.270433],[-122.420297,47.270461],[-122.420287,47.270523],[-122.420155,47.270522],[-122.420127,47.270444],[-122.419892,47.270431],[-122.419883,47.270369],[-122.419829,47.270342],[-122.419677,47.270344],[-122.419634,47.270373],[-122.419627,47.270429],[-122.419495,47.270429],[-122.419473,47.270355],[-122.419364,47.270338],[-122.419329,47.270257],[-122.419233,47.270247],[-122.419211,47.270083],[-122.419102,47.270067],[-122.41908,47.269993],[-122.418971,47.269976],[-122.418949,47.269902],[-122.41884,47.269886],[-122.418817,47.269811],[-122.418709,47.269795],[-122.418686,47.269721],[-122.418578,47.269704],[-122.41856,47.269634],[-122.418446,47.269614],[-122.418412,47.269533],[-122.418315,47.269523],[-122.418287,47.269445],[-122.418184,47.269432],[-122.418156,47.269354],[-122.418053,47.269342],[-122.418024,47.269264],[-122.417921,47.269251],[-122.417893,47.269173],[-122.41779,47.26916],[-122.417782,47.269009],[-122.417736,47.268983],[-122.41766,47.26898],[-122.417662,47.2688],[-122.417698,47.268752],[-122.417641,47.268636],[-122.417532,47.268619],[-122.417523,47.268558],[-122.417469,47.26853],[-122.417004,47.268526],[-122.416982,47.268452],[-122.416873,47.268436],[-122.416856,47.268366],[-122.416742,47.268345],[-122.416707,47.268264],[-122.41661,47.268255],[-122.416582,47.268177],[-122.416479,47.268164],[-122.416451,47.268086],[-122.416348,47.268073],[-122.41632,47.267995],[-122.416217,47.267983],[-122.416195,47.267818],[-122.415954,47.267801],[-122.415954,47.267665],[-122.415914,47.267628],[-122.415692,47.26762],[-122.415676,47.26746],[-122.415562,47.267439],[-122.415527,47.267358],[-122.415431,47.267349],[-122.415402,47.267271],[-122.415299,47.267258],[-122.415271,47.26718],[-122.415168,47.267167],[-122.41517,47.266988],[-122.415246,47.266986],[-122.415293,47.26696],[-122.415291,47.266832],[-122.415172,47.266807],[-122.415138,47.266726],[-122.415041,47.266717],[-122.415013,47.266639],[-122.41491,47.266626],[-122.414882,47.266548],[-122.414779,47.266535],[-122.414757,47.266371],[-122.414648,47.266355],[-122.414631,47.266285],[-122.414517,47.266264],[-122.414483,47.266183],[-122.414386,47.266174],[-122.414358,47.266096],[-122.414255,47.266083],[-122.414227,47.266005],[-122.414124,47.265992],[-122.414095,47.265914],[-122.413992,47.265902],[-122.413964,47.265824],[-122.413861,47.265811],[-122.413863,47.265631],[-122.414099,47.26562],[-122.414128,47.265584],[-122.414126,47.265491],[-122.41408,47.265456],[-122.413997,47.265452],[-122.413963,47.265371],[-122.413866,47.265361],[-122.413838,47.265283],[-122.413735,47.26527],[-122.413707,47.265193],[-122.413604,47.26518],[-122.413576,47.265102],[-122.41341,47.265065],[-122.413237,47.2651],[-122.413207,47.265178],[-122.413124,47.265181],[-122.413081,47.26521],[-122.413073,47.265357],[-122.412964,47.265372],[-122.41294,47.265446],[-122.412837,47.265458],[-122.412807,47.265536],[-122.412703,47.265547],[-122.412673,47.265625],[-122.41257,47.265637],[-122.41254,47.265714],[-122.412437,47.265726],[-122.412407,47.265803],[-122.412304,47.265815],[-122.412274,47.265893],[-122.412177,47.265901],[-122.412141,47.265982],[-122.412026,47.266001],[-122.412013,47.266128],[-122.412056,47.266158],[-122.412139,47.266162],[-122.412143,47.266309],[-122.412186,47.266338],[-122.412269,47.266343],[-122.412297,47.266421],[-122.412532,47.266434],[-122.41256,47.266512],[-122.412718,47.266549],[-122.412796,47.266525],[-122.413192,47.266527],[-122.413215,47.266602],[-122.413323,47.266618],[-122.413345,47.266782],[-122.413586,47.266799],[-122.413608,47.266874],[-122.413717,47.26689],[-122.413729,47.267046],[-122.413847,47.267071],[-122.413882,47.267152],[-122.413978,47.267161],[-122.414007,47.267239],[-122.41411,47.267252],[-122.414138,47.26733],[-122.414241,47.267343],[-122.414257,47.267503],[-122.41431,47.267523],[-122.414503,47.267524],[-122.414526,47.267598],[-122.414634,47.267615],[-122.414621,47.267765],[-122.414668,47.267792],[-122.414765,47.267795],[-122.414769,47.268217],[-122.414816,47.268243],[-122.414892,47.268246],[-122.414926,47.268327],[-122.415023,47.268337],[-122.415051,47.268414],[-122.415154,47.268427],[-122.415182,47.268505],[-122.415285,47.268518],[-122.415314,47.268596],[-122.415417,47.268608],[-122.415433,47.268769],[-122.415547,47.268789],[-122.415581,47.26887],[-122.415678,47.26888],[-122.415706,47.268958],[-122.415809,47.26897],[-122.415837,47.269048],[-122.41594,47.269061],[-122.415969,47.269139],[-122.416072,47.269152],[-122.4161,47.26923],[-122.416203,47.269242],[-122.416231,47.26932],[-122.416334,47.269333],[-122.416356,47.269407],[-122.416465,47.269424],[-122.416488,47.269498],[-122.416596,47.269514],[-122.416619,47.269589],[-122.416728,47.269605],[-122.41675,47.269679],[-122.416859,47.269696],[-122.41688,47.26986],[-122.417121,47.269877],[-122.417143,47.270041],[-122.417384,47.270058],[-122.417405,47.270222],[-122.417646,47.27024],[-122.417669,47.270314],[-122.417777,47.27033],[-122.417799,47.270494],[-122.41804,47.270512],[-122.41806,47.270766],[-122.418169,47.270782],[-122.418186,47.270852],[-122.4183,47.270873],[-122.418335,47.270954],[-122.418431,47.270963],[-122.41846,47.271041],[-122.418563,47.271054],[-122.418591,47.271132],[-122.418694,47.271145],[-122.418722,47.271223],[-122.418825,47.271235],[-122.418853,47.271313],[-122.419088,47.271327],[-122.419092,47.271563],[-122.419135,47.271593],[-122.419218,47.271597],[-122.419252,47.271678],[-122.419349,47.271688],[-122.419377,47.271766],[-122.41948,47.271779],[-122.419488,47.27193],[-122.419535,47.271956],[-122.41961,47.271959],[-122.419611,47.272191],[-122.419656,47.272225],[-122.41974,47.27223],[-122.419756,47.27239],[-122.41987,47.27241],[-122.419878,47.272562],[-122.419924,47.272588],[-122.42,47.272591],[-122.420034,47.272672],[-122.420131,47.272682],[-122.420159,47.27276],[-122.420262,47.272772],[-122.42026,47.273042],[-122.420184,47.273044],[-122.420136,47.27307],[-122.420125,47.273221],[-122.42005,47.273223],[-122.420002,47.273249],[-122.419991,47.273401],[-122.419915,47.273403],[-122.419868,47.273429],[-122.419857,47.27358],[-122.419781,47.273582],[-122.419734,47.273608],[-122.419723,47.273759],[-122.419647,47.273761],[-122.4196,47.273787],[-122.419589,47.273939],[-122.419513,47.273941],[-122.419466,47.273967],[-122.419454,47.274118],[-122.419335,47.274141],[-122.41932,47.274297],[-122.419237,47.274301],[-122.419191,47.274335],[-122.419186,47.274476],[-122.419103,47.27448],[-122.41906,47.274509],[-122.419052,47.274656],[-122.418976,47.274658],[-122.418929,47.274684],[-122.418917,47.274925],[-122.41882,47.274934],[-122.418784,47.275014],[-122.4187,47.275018],[-122.418657,47.275047],[-122.418648,47.275284],[-122.418558,47.27529],[-122.418517,47.275326],[-122.418513,47.275553],[-122.418394,47.275576],[-122.418379,47.275732],[-122.418296,47.275736],[-122.41825,47.27577],[-122.418245,47.275911],[-122.418136,47.275927],[-122.418112,47.276001],[-122.417993,47.276024],[-122.417979,47.27609],[-122.417714,47.276089],[-122.417693,47.275925],[-122.417584,47.275908],[-122.417571,47.275842],[-122.417453,47.275817],[-122.41745,47.275766],[-122.417412,47.275734],[-122.417189,47.275726],[-122.417167,47.275652],[-122.417058,47.275635],[-122.417041,47.275565],[-122.416927,47.275545],[-122.416892,47.275464],[-122.416796,47.275454],[-122.416767,47.275376],[-122.416665,47.275364],[-122.416636,47.275286],[-122.416533,47.275273],[-122.416505,47.275195],[-122.416402,47.275182],[-122.416374,47.275104],[-122.416271,47.275092],[-122.416243,47.275014],[-122.416007,47.275],[-122.416002,47.274944],[-122.415952,47.274912],[-122.415691,47.274909],[-122.415635,47.274924],[-122.415612,47.274957],[-122.415602,47.275754],[-122.415637,47.275799],[-122.415734,47.275809],[-122.415729,47.276259],[-122.413483,47.276247],[-122.413419,47.276223],[-122.413347,47.276246],[-122.411632,47.276238],[-122.411568,47.276213],[-122.411498,47.276237],[-122.411102,47.276235],[-122.411108,47.275986],[-122.410973,47.275964],[-122.410967,47.275908],[-122.410924,47.275878],[-122.410709,47.275873],[-122.41071,47.275783],[-122.4108,47.275777],[-122.410841,47.27574],[-122.410833,47.275448],[-122.410775,47.275424],[-122.41049,47.275415],[-122.410451,47.275452],[-122.410448,47.275602],[-122.410338,47.275617],[-122.410314,47.275691],[-122.410182,47.27569],[-122.410173,47.275354],[-122.410115,47.27533],[-122.409922,47.275329],[-122.409899,47.275255],[-122.409791,47.275238],[-122.409794,47.274968],[-122.409829,47.274926],[-122.409795,47.274878],[-122.409796,47.27479],[-122.409832,47.274741],[-122.409791,47.274642],[-122.409749,47.274612],[-122.409665,47.274608],[-122.409631,47.274527],[-122.409534,47.274517],[-122.409506,47.274439],[-122.409403,47.274426],[-122.409375,47.274349],[-122.409272,47.274336],[-122.409249,47.274262],[-122.409008,47.274244],[-122.40898,47.274167],[-122.4088,47.27413],[-122.408745,47.274153],[-122.408522,47.274158],[-122.408484,47.27419],[-122.408479,47.274242],[-122.40836,47.274265],[-122.408346,47.274331],[-122.408214,47.27433],[-122.408197,47.27426],[-122.408083,47.27424],[-122.40807,47.274174],[-122.407952,47.274149],[-122.407917,47.274068],[-122.407688,47.274058],[-122.407683,47.274001],[-122.407633,47.27397],[-122.407425,47.273966],[-122.407402,47.273892],[-122.407294,47.273876],[-122.407259,47.273795],[-122.407163,47.273785],[-122.407141,47.273621],[-122.4069,47.273604],[-122.406878,47.273529],[-122.406769,47.273513],[-122.406753,47.273353],[-122.406639,47.273332],[-122.406604,47.273251],[-122.406508,47.273242],[-122.406479,47.273164],[-122.406376,47.273151],[-122.406348,47.273073],[-122.406245,47.27306],[-122.406217,47.272983],[-122.406114,47.27297],[-122.406086,47.272892],[-122.405983,47.272879],[-122.405955,47.272801],[-122.405852,47.272788],[-122.405823,47.272711],[-122.405588,47.272697],[-122.405589,47.272566],[-122.405561,47.272529],[-122.405396,47.272492],[-122.405326,47.272516],[-122.405194,47.272515],[-122.405188,47.272184],[-122.405134,47.272156],[-122.404933,47.272154],[-122.404936,47.271884],[-122.404972,47.271842],[-122.404937,47.271794],[-122.404941,47.271434],[-122.405017,47.271432],[-122.405064,47.271406],[-122.405095,47.271311],[-122.405073,47.271271],[-122.405016,47.271254],[-122.403754,47.271248],[-122.403736,47.271178],[-122.403622,47.271157],[-122.403588,47.271076],[-122.403491,47.271066],[-122.403463,47.270989],[-122.403228,47.270975],[-122.403205,47.270901],[-122.403097,47.270884],[-122.403079,47.270814],[-122.402965,47.270794],[-122.402931,47.270713],[-122.402834,47.270703],[-122.402806,47.270625],[-122.402703,47.270612],[-122.402706,47.270343],[-122.402782,47.270341],[-122.402829,47.270315],[-122.40284,47.270163],[-122.402944,47.270152],[-122.402974,47.270074],[-122.40307,47.270065],[-122.403107,47.269985],[-122.403183,47.269983],[-122.40323,47.269957],[-122.403242,47.269716],[-122.403278,47.269668],[-122.403209,47.269544],[-122.40298,47.269534],[-122.402917,47.26951],[-122.402847,47.269533],[-122.402632,47.269536],[-122.402589,47.269565],[-122.402582,47.269622],[-122.40245,47.269621],[-122.402459,47.268813],[-122.402495,47.268769],[-122.40246,47.26872],[-122.402518,47.263594],[-122.402615,47.263584],[-122.402651,47.263504],[-122.40276,47.263488],[-122.402784,47.263414],[-122.403025,47.2634],[-122.40305,47.263236],[-122.403147,47.263227],[-122.403184,47.263146],[-122.403298,47.263127],[-122.403317,47.263021],[-122.403282,47.262976],[-122.403186,47.262966],[-122.403183,47.262915],[-122.403145,47.262883],[-122.402922,47.262875],[-122.4029,47.262801],[-122.402791,47.262784],[-122.402778,47.262718],[-122.40266,47.262694],[-122.402632,47.262616],[-122.402529,47.262603],[-122.402538,47.261793],[-122.407294,47.261818],[-122.407358,47.261842],[-122.40743,47.261819],[-122.418927,47.261878],[-122.418939,47.262034],[-122.419058,47.262058],[-122.419092,47.262139],[-122.419189,47.262149],[-122.419217,47.262227],[-122.41932,47.262239],[-122.419342,47.262404],[-122.41945,47.26242],[-122.419463,47.262486],[-122.419581,47.262511],[-122.41961,47.262589],[-122.419713,47.262601],[-122.419724,47.262757],[-122.419843,47.262782],[-122.419877,47.262863],[-122.419974,47.262873],[-122.419982,47.263024],[-122.420028,47.263051],[-122.420104,47.263053],[-122.420139,47.263134],[-122.420235,47.263144],[-122.420243,47.263295],[-122.42029,47.263322],[-122.420366,47.263325],[-122.4204,47.263406],[-122.420497,47.263415],[-122.420501,47.263562],[-122.420544,47.263591],[-122.420627,47.263596],[-122.420661,47.263677],[-122.420758,47.263687],[-122.420775,47.263847],[-122.420888,47.263867],[-122.420923,47.263948],[-122.42102,47.263958],[-122.421048,47.264036],[-122.421151,47.264048],[-122.421163,47.264204],[-122.421281,47.264229],[-122.421316,47.26431],[-122.421412,47.26432],[-122.421424,47.264476],[-122.421542,47.2645],[-122.421577,47.264581],[-122.421674,47.264591],[-122.421685,47.264747],[-122.421804,47.264772],[-122.421838,47.264853],[-122.421935,47.264862],[-122.421947,47.265018],[-122.422065,47.265043],[-122.4221,47.265124],[-122.422197,47.265134],[-122.422208,47.265289],[-122.422327,47.265314],[-122.422361,47.265395],[-122.422458,47.265405],[-122.42247,47.265561],[-122.422588,47.265585],[-122.422623,47.265666],[-122.422719,47.265676],[-122.422731,47.265832],[-122.42285,47.265857],[-122.422884,47.265938],[-122.422981,47.265947],[-122.422993,47.266103],[-122.423111,47.266128],[-122.423146,47.266209],[-122.423242,47.266219],[-122.423254,47.266375],[-122.423373,47.266399],[-122.423407,47.26648],[-122.423504,47.26649],[-122.423512,47.266641],[-122.423558,47.266668],[-122.423634,47.26667]],[[-122.403308,47.268546],[-122.403386,47.268503],[-122.403386,47.268315],[-122.403334,47.268279],[-122.403182,47.268278],[-122.403132,47.268308],[-122.403125,47.268365],[-122.403006,47.268388],[-122.402974,47.268505],[-122.403034,47.268544],[-122.403308,47.268546]],[[-122.403397,47.269401],[-122.403365,47.26929],[-122.403247,47.269266],[-122.403244,47.269214],[-122.403206,47.269182],[-122.403047,47.269176],[-122.402993,47.269203],[-122.40297,47.269324],[-122.403017,47.269352],[-122.403114,47.269355],[-122.403117,47.269407],[-122.403155,47.269439],[-122.403356,47.269439],[-122.403397,47.269401]],[[-122.403731,47.269544],[-122.403563,47.269526],[-122.403511,47.269562],[-122.403504,47.269897],[-122.403407,47.269905],[-122.403371,47.269986],[-122.403252,47.270009],[-122.403253,47.270158],[-122.40314,47.270174],[-122.403104,47.270255],[-122.40302,47.270258],[-122.402977,47.270287],[-122.402971,47.270404],[-122.403016,47.270443],[-122.403211,47.270419],[-122.403235,47.270345],[-122.403318,47.270342],[-122.403361,47.270313],[-122.403353,47.270174],[-122.403472,47.270154],[-122.403502,47.270077],[-122.403599,47.270068],[-122.403636,47.269988],[-122.403719,47.269984],[-122.403762,47.269955],[-122.403771,47.269582],[-122.403731,47.269544]],[[-122.404215,47.265491],[-122.404298,47.265488],[-122.404344,47.265454],[-122.404345,47.26535],[-122.404293,47.265314],[-122.404009,47.265313],[-122.403958,47.265343],[-122.403951,47.2654],[-122.403716,47.265411],[-122.403687,47.265447],[-122.403685,47.265578],[-122.403576,47.265594],[-122.403552,47.265668],[-122.403351,47.265668],[-122.403293,47.2657],[-122.403285,47.265846],[-122.403249,47.265894],[-122.403302,47.266007],[-122.403363,47.266027],[-122.403651,47.266016],[-122.403681,47.265938],[-122.403784,47.265927],[-122.403814,47.265849],[-122.403911,47.265841],[-122.403947,47.26576],[-122.404066,47.265736],[-122.404082,47.265581],[-122.404191,47.265565],[-122.404215,47.265491]],[[-122.405826,47.26325],[-122.405909,47.263246],[-122.405955,47.263212],[-122.405956,47.263109],[-122.405904,47.263073],[-122.405488,47.263071],[-122.405437,47.263101],[-122.40543,47.263158],[-122.405311,47.263181],[-122.405297,47.263247],[-122.404901,47.263245],[-122.404903,47.263024],[-122.404875,47.262987],[-122.404507,47.262973],[-122.404479,47.262895],[-122.404244,47.262882],[-122.404235,47.26282],[-122.404173,47.262792],[-122.404009,47.262803],[-122.40398,47.26288],[-122.403876,47.262892],[-122.403846,47.26297],[-122.403743,47.262982],[-122.403713,47.263059],[-122.403623,47.263065],[-122.403581,47.263107],[-122.403596,47.263309],[-122.40371,47.263329],[-122.403723,47.263395],[-122.403841,47.26342],[-122.403844,47.263471],[-122.403882,47.263504],[-122.404105,47.263511],[-122.404127,47.263585],[-122.404236,47.263602],[-122.404253,47.263672],[-122.404367,47.263692],[-122.404384,47.263763],[-122.404498,47.263783],[-122.404515,47.263853],[-122.404629,47.263874],[-122.404638,47.263935],[-122.4047,47.263964],[-122.405212,47.263981],[-122.405267,47.263964],[-122.40529,47.263927],[-122.405293,47.263607],[-122.405535,47.263593],[-122.405559,47.263519],[-122.405635,47.263517],[-122.405682,47.263491],[-122.405693,47.263339],[-122.405802,47.263324],[-122.405826,47.26325]],[[-122.406145,47.263072],[-122.406222,47.263034],[-122.406217,47.262921],[-122.406163,47.262893],[-122.406004,47.262897],[-122.405963,47.262934],[-122.40597,47.263042],[-122.406024,47.26307],[-122.406145,47.263072]],[[-122.408478,47.262494],[-122.408417,47.262441],[-122.408263,47.262457],[-122.40822,47.262486],[-122.408213,47.262542],[-122.408094,47.262566],[-122.40808,47.262632],[-122.407966,47.262651],[-122.407946,47.262847],[-122.407974,47.262889],[-122.408162,47.262925],[-122.408306,47.262894],[-122.408343,47.262813],[-122.408457,47.262794],[-122.408478,47.262494]],[[-122.409124,47.263897],[-122.409207,47.263893],[-122.409253,47.263859],[-122.409253,47.263571],[-122.409196,47.263538],[-122.408995,47.263536],[-122.408967,47.263459],[-122.408802,47.263421],[-122.408635,47.263454],[-122.408599,47.263534],[-122.408484,47.263554],[-122.408465,47.263714],[-122.40835,47.263733],[-122.408296,47.263845],[-122.408348,47.263963],[-122.408462,47.263984],[-122.408479,47.264054],[-122.408593,47.264074],[-122.408601,47.264136],[-122.408663,47.264164],[-122.408827,47.264153],[-122.408857,47.264076],[-122.408954,47.264067],[-122.40899,47.263986],[-122.409105,47.263967],[-122.409124,47.263897]],[[-122.408913,47.262267],[-122.40908,47.26229],[-122.409133,47.262262],[-122.409134,47.262126],[-122.409087,47.262099],[-122.409011,47.262097],[-122.409009,47.262045],[-122.40897,47.262013],[-122.40879,47.262012],[-122.408749,47.262049],[-122.408756,47.262157],[-122.408802,47.262183],[-122.408878,47.262186],[-122.408913,47.262267]],[[-122.408966,47.270915],[-122.409042,47.270877],[-122.409038,47.270764],[-122.408984,47.270736],[-122.408825,47.270741],[-122.408784,47.270777],[-122.408791,47.270885],[-122.408845,47.270913],[-122.408966,47.270915]],[[-122.40966,47.267432],[-122.409865,47.267386],[-122.409876,47.267269],[-122.409823,47.267232],[-122.409671,47.267232],[-122.409621,47.267262],[-122.409581,47.267377],[-122.40966,47.267432]],[[-122.409927,47.274879],[-122.409892,47.274916],[-122.409906,47.274956],[-122.409966,47.274982],[-122.410024,47.274974],[-122.410057,47.27494],[-122.410046,47.27489],[-122.40999,47.274866],[-122.409927,47.274879]],[[-122.412147,47.270211],[-122.41222,47.270178],[-122.412226,47.270075],[-122.412186,47.270038],[-122.412096,47.270031],[-122.412068,47.269953],[-122.41178,47.26994],[-122.411718,47.269959],[-122.411705,47.270086],[-122.411747,47.270115],[-122.41183,47.27012],[-122.411859,47.270198],[-122.412147,47.270211]],[[-122.412934,47.270755],[-122.41301,47.270717],[-122.412997,47.270595],[-122.412883,47.270575],[-122.412866,47.270505],[-122.412752,47.270484],[-122.412739,47.270418],[-122.412621,47.270394],[-122.412586,47.270313],[-122.412435,47.270279],[-122.41237,47.270292],[-122.412321,47.27035],[-122.412374,47.270463],[-122.412487,47.270483],[-122.412522,47.270564],[-122.412619,47.270574],[-122.412647,47.270652],[-122.41275,47.270664],[-122.412778,47.270742],[-122.412934,47.270755]],[[-122.415206,47.263566],[-122.415153,47.263544],[-122.415094,47.263554],[-122.415056,47.263596],[-122.415072,47.263637],[-122.415126,47.263658],[-122.415199,47.263645],[-122.415227,47.263608],[-122.415206,47.263566]],[[-122.415605,47.263752],[-122.415603,47.263619],[-122.415575,47.263582],[-122.41541,47.263545],[-122.415325,47.263578],[-122.415304,47.263617],[-122.415339,47.263659],[-122.415337,47.263894],[-122.415364,47.26393],[-122.415428,47.263942],[-122.415577,47.263914],[-122.415636,47.263803],[-122.415605,47.263752]],[[-122.418788,47.264261],[-122.418757,47.26415],[-122.418639,47.264126],[-122.418604,47.264045],[-122.418452,47.264021],[-122.418388,47.264045],[-122.41838,47.264181],[-122.418422,47.26421],[-122.418505,47.264215],[-122.41854,47.264296],[-122.418748,47.2643],[-122.418788,47.264261]],[[-122.419179,47.264629],[-122.419141,47.264414],[-122.418959,47.264397],[-122.418902,47.264413],[-122.418879,47.264453],[-122.41892,47.264651],[-122.419133,47.264664],[-122.419179,47.264629]],[[-122.419265,47.272137],[-122.419341,47.272099],[-122.419336,47.271986],[-122.419282,47.271959],[-122.419123,47.271963],[-122.419083,47.272],[-122.419089,47.272108],[-122.419143,47.272136],[-122.419265,47.272137]],[[-122.419835,47.265082],[-122.419801,47.264961],[-122.419687,47.264941],[-122.419653,47.26486],[-122.419556,47.26485],[-122.419528,47.264772],[-122.419377,47.264746],[-122.41931,47.264765],[-122.4193,47.26491],[-122.419347,47.264937],[-122.419423,47.26494],[-122.419457,47.265021],[-122.419554,47.26503],[-122.419582,47.265108],[-122.419789,47.265117],[-122.419835,47.265082]],[[-122.420263,47.265484],[-122.420339,47.265446],[-122.420334,47.265333],[-122.42028,47.265305],[-122.42012,47.265296],[-122.42008,47.265338],[-122.420087,47.265454],[-122.420142,47.265482],[-122.420263,47.265484]],[[-122.421182,47.268822],[-122.421029,47.268793],[-122.420967,47.268817],[-122.42057,47.268815],[-122.420568,47.268749],[-122.420524,47.268715],[-122.420336,47.268736],[-122.420286,47.268858],[-122.420333,47.268899],[-122.420437,47.268904],[-122.420431,47.269153],[-122.420485,47.269174],[-122.420774,47.269173],[-122.420825,47.269142],[-122.420832,47.269086],[-122.420951,47.269062],[-122.420965,47.268997],[-122.4212,47.268985],[-122.421229,47.268949],[-122.421225,47.268851],[-122.421182,47.268822]],[[-122.421622,47.26936],[-122.421606,47.269199],[-122.421552,47.26918],[-122.421416,47.269181],[-122.421365,47.269212],[-122.421358,47.269268],[-122.420991,47.269279],[-122.420961,47.269356],[-122.420885,47.269358],[-122.420838,47.269384],[-122.42081,47.269496],[-122.420878,47.269536],[-122.421223,47.269538],[-122.421246,47.269612],[-122.421401,47.269651],[-122.421487,47.269629],[-122.421695,47.269628],[-122.42175,47.269587],[-122.421752,47.269404],[-122.421712,47.269367],[-122.421622,47.26936]]]}},{"type":"Feature","properties":{"id":3,"area_m2":69100,"px":691,"rank":2,"persistent":true},"geometry":{"type":"Polygon","coordinates":[[[-122.407533,47.276127],[-122.40753,47.276217],[-122.402376,47.27619],[-122.402411,47.273041],[-122.402543,47.273041],[-122.402561,47.273112],[-122.402675,47.273132],[-122.402687,47.273198],[-122.402806,47.273223],[-122.40284,47.273304],[-122.403069,47.273314],[-122.403092,47.273388],[-122.4032,47.273405],[-122.403222,47.273569],[-122.403463,47.273586],[-122.403485,47.27366],[-122.403594,47.273677],[-122.403628,47.273758],[-122.403725,47.273767],[-122.403723,47.273988],[-122.403751,47.274025],[-122.404383,47.274041],[-122.404405,47.274205],[-122.404645,47.274222],[-122.404643,47.274402],[-122.404553,47.274408],[-122.404512,47.274445],[-122.404511,47.274538],[-122.404538,47.274569],[-122.404727,47.274605],[-122.404883,47.274567],[-122.404907,47.274493],[-122.405039,47.274494],[-122.405062,47.274568],[-122.40517,47.274585],[-122.405168,47.274806],[-122.405196,47.274842],[-122.405696,47.274857],[-122.405694,47.275037],[-122.405604,47.275043],[-122.405563,47.27508],[-122.405562,47.275173],[-122.405589,47.275204],[-122.405777,47.27524],[-122.405933,47.275203],[-122.405958,47.275129],[-122.40609,47.275129],[-122.406112,47.275204],[-122.406221,47.27522],[-122.406255,47.275301],[-122.406352,47.275311],[-122.406374,47.275475],[-122.406614,47.275492],[-122.406616,47.275634],[-122.406662,47.275668],[-122.406745,47.275673],[-122.406766,47.275837],[-122.407007,47.275854],[-122.407013,47.275911],[-122.407062,47.275942],[-122.40727,47.275945],[-122.407293,47.27602],[-122.407402,47.276036],[-122.407436,47.276117],[-122.407533,47.276127]],[[-122.404418,47.275661],[-122.404494,47.275623],[-122.40449,47.275509],[-122.404435,47.275482],[-122.404277,47.275486],[-122.404236,47.275523],[-122.404242,47.275631],[-122.404297,47.275659],[-122.404418,47.275661]]]}},{"type":"Feature","properties":{"id":4,"area_m2":13800,"px":138,"rank":3,"persistent":true},"geometry":{"type":"Polygon","coordinates":[[[-122.423686,47.261902],[-122.423669,47.263431],[-122.423537,47.26343],[-122.423515,47.263356],[-122.423406,47.26334],[-122.423384,47.263176],[-122.423276,47.263159],[-122.423253,47.263085],[-122.423144,47.263069],[-122.423122,47.262994],[-122.423013,47.262978],[-122.422996,47.262908],[-122.422882,47.262887],[-122.422848,47.262806],[-122.422751,47.262797],[-122.422723,47.262719],[-122.42262,47.262706],[-122.422591,47.262628],[-122.422488,47.262615],[-122.42246,47.262538],[-122.422357,47.262525],[-122.422329,47.262447],[-122.422226,47.262434],[-122.422198,47.262356],[-122.421963,47.262343],[-122.421951,47.262187],[-122.421833,47.262162],[-122.421798,47.262081],[-122.421701,47.262071],[-122.421703,47.261892],[-122.423686,47.261902]]]}},{"type":"Feature","properties":{"id":1,"area_m2":7600,"px":76,"rank":4,"persistent":false},"geometry":{"type":"Polygon","coordinates":[[[-122.421415,47.276198],[-122.421414,47.276287],[-122.419299,47.276277],[-122.419301,47.276097],[-122.419565,47.276098],[-122.419574,47.27616],[-122.419628,47.276187],[-122.419912,47.276186],[-122.41996,47.276147],[-122.419961,47.276054],[-122.419921,47.276016],[-122.419831,47.276009],[-122.419832,47.27592],[-122.419928,47.275918],[-122.419976,47.275891],[-122.419966,47.27574],[-122.420159,47.275741],[-122.420212,47.275722],[-122.420232,47.275562],[-122.420364,47.275562],[-122.420377,47.275628],[-122.420443,47.275653],[-122.420593,47.275644],[-122.420629,47.275564],[-122.421025,47.275566],[-122.421048,47.27564],[-122.421156,47.275656],[-122.421159,47.275983],[-122.421202,47.276012],[-122.421285,47.276017],[-122.421301,47.276177],[-122.421415,47.276198]]]}}]}