{"type":"FeatureCollection","features":[{"type":"Feature","properties":{"id":1,"area_m2":1959900,"px":19599,"rank":1,"persistent":true},"geometry":{"type":"Polygon","coordinates":[[[-122.423686,47.261902],[-122.423618,47.268109],[-122.423504,47.268129],[-122.423449,47.268242],[-122.423502,47.26836],[-122.423615,47.26838],[-122.423596,47.27018],[-122.422742,47.270176],[-122.42268,47.270204],[-122.42267,47.270265],[-122.421933,47.270264],[-122.421882,47.270294],[-122.421875,47.270351],[-122.42164,47.270362],[-122.42161,47.270439],[-122.421513,47.270448],[-122.421477,47.270529],[-122.421362,47.270548],[-122.421344,47.270618],[-122.420815,47.270615],[-122.420798,47.270545],[-122.420684,47.270525],[-122.420675,47.270463],[-122.420621,47.270436],[-122.420024,47.270431],[-122.420006,47.270361],[-122.419893,47.270341],[-122.419858,47.27026],[-122.419761,47.27025],[-122.419733,47.270172],[-122.419498,47.270159],[-122.4195,47.269938],[-122.419472,47.269901],[-122.419307,47.269864],[-122.419236,47.269888],[-122.419104,47.269887],[-122.419094,47.269641],[-122.418975,47.269616],[-122.418962,47.26955],[-122.418844,47.269526],[-122.418841,47.269474],[-122.418803,47.269442],[-122.41858,47.269434],[-122.418569,47.269278],[-122.41845,47.269254],[-122.418416,47.269173],[-122.418319,47.269163],[-122.418291,47.269085],[-122.418188,47.269072],[-122.41816,47.268995],[-122.418057,47.268982],[-122.418035,47.268818],[-122.417926,47.268801],[-122.417914,47.268735],[-122.417795,47.26871],[-122.41779,47.268654],[-122.417747,47.268624],[-122.417602,47.268595],[-122.417532,47.268619],[-122.4174,47.268618],[-122.417389,47.268373],[-122.41727,47.268348],[-122.417236,47.268267],[-122.417139,47.268257],[-122.417111,47.268179],[-122.417008,47.268167],[-122.41698,47.268089],[-122.416877,47.268076],[-122.416849,47.267998],[-122.416746,47.267985],[-122.416717,47.267907],[-122.416614,47.267895],[-122.416592,47.26782],[-122.416536,47.267804],[-122.416087,47.267802],[-122.416064,47.267728],[-122.415955,47.267711],[-122.415938,47.267641],[-122.415824,47.267621],[-122.41579,47.26754],[-122.415693,47.26753],[-122.415665,47.267452],[-122.415562,47.267439],[-122.415534,47.267362],[-122.415431,47.267349],[-122.415409,47.267184],[-122.4153,47.267168],[-122.415295,47.267111],[-122.415252,47.267082],[-122.415037,47.267077],[-122.415025,47.266921],[-122.414907,47.266896],[-122.414872,47.266815],[-122.414776,47.266805],[-122.414747,47.266728],[-122.414644,47.266715],[-122.414616,47.266637],[-122.414513,47.266624],[-122.414505,47.266473],[-122.414459,47.266446],[-122.414383,47.266443],[-122.414373,47.266108],[-122.414255,47.266083],[-122.41422,47.266002],[-122.414124,47.265992],[-122.414095,47.265914],[-122.413992,47.265902],[-122.413991,47.26567],[-122.413946,47.265636],[-122.413863,47.26563],[-122.413864,47.265541],[-122.413947,47.265537],[-122.413993,47.265503],[-122.413989,47.26539],[-122.413942,47.265364],[-122.413866,47.265361],[-122.413832,47.26528],[-122.413735,47.26527],[-122.413707,47.265193],[-122.413604,47.26518],[-122.413601,47.265128],[-122.413563,47.265096],[-122.413369,47.265101],[-122.413339,47.265178],[-122.413243,47.26518],[-122.413199,47.265203],[-122.413205,47.265358],[-122.413096,47.265373],[-122.413072,47.265447],[-122.412843,47.265455],[-122.412807,47.265536],[-122.412688,47.265559],[-122.412673,47.265625],[-122.412559,47.265644],[-122.41254,47.265714],[-122.412431,47.265729],[-122.412406,47.265893],[-122.412309,47.265902],[-122.412273,47.265983],[-122.412164,47.265998],[-122.412106,47.266104],[-122.412161,47.266236],[-122.41227,47.266253],[-122.412292,47.266327],[-122.412401,47.266343],[-122.412418,47.266414],[-122.412532,47.266434],[-122.412567,47.266515],[-122.412663,47.266525],[-122.412692,47.266603],[-122.412795,47.266615],[-122.412823,47.266693],[-122.412926,47.266706],[-122.412954,47.266784],[-122.413057,47.266797],[-122.413085,47.266875],[-122.413188,47.266887],[-122.41321,47.267052],[-122.413318,47.267068],[-122.413336,47.267138],[-122.41345,47.267159],[-122.413484,47.26724],[-122.413581,47.267249],[-122.413609,47.267327],[-122.413712,47.26734],[-122.41374,47.267418],[-122.413843,47.267431],[-122.413871,47.267508],[-122.413974,47.267521],[-122.413996,47.267686],[-122.414105,47.267702],[-122.414127,47.267776],[-122.414236,47.267793],[-122.414258,47.267867],[-122.414367,47.267883],[-122.414389,47.267957],[-122.414498,47.267974],[-122.414515,47.268044],[-122.414629,47.268065],[-122.414664,47.268146],[-122.414761,47.268155],[-122.414789,47.268233],[-122.414892,47.268246],[-122.41492,47.268324],[-122.415023,47.268337],[-122.415051,47.268414],[-122.415154,47.268427],[-122.415182,47.268505],[-122.415285,47.268518],[-122.415307,47.268682],[-122.415416,47.268698],[-122.415438,47.268773],[-122.415547,47.268789],[-122.415569,47.268863],[-122.415678,47.26888],[-122.4157,47.268954],[-122.415809,47.26897],[-122.415832,47.269045],[-122.41594,47.269061],[-122.415963,47.269135],[-122.416072,47.269152],[-122.416094,47.269226],[-122.416203,47.269242],[-122.41622,47.269313],[-122.416334,47.269333],[-122.416368,47.269414],[-122.416465,47.269424],[-122.416493,47.269502],[-122.416596,47.269514],[-122.416625,47.269592],[-122.416728,47.269605],[-122.416756,47.269683],[-122.416859,47.269696],[-122.416887,47.269773],[-122.41699,47.269786],[-122.417002,47.269942],[-122.41712,47.269967],[-122.417155,47.270048],[-122.417251,47.270058],[-122.41728,47.270135],[-122.417383,47.270148],[-122.417411,47.270226],[-122.417514,47.270239],[-122.417535,47.270403],[-122.417776,47.27042],[-122.417793,47.27058],[-122.417907,47.270601],[-122.417941,47.270682],[-122.418038,47.270691],[-122.418066,47.270769],[-122.418169,47.270782],[-122.418197,47.27086],[-122.4183,47.270873],[-122.418328,47.270951],[-122.418431,47.270963],[-122.41846,47.271041],[-122.418563,47.271054],[-122.418591,47.271132],[-122.418694,47.271145],[-122.418716,47.271219],[-122.418825,47.271235],[-122.418847,47.27131],[-122.418956,47.271326],[-122.418973,47.271486],[-122.419086,47.271507],[-122.419121,47.271588],[-122.419218,47.271597],[-122.419246,47.271675],[-122.419349,47.271688],[-122.419377,47.271766],[-122.41948,47.271779],[-122.419478,47.271958],[-122.419221,47.27197],[-122.419193,47.272013],[-122.419225,47.272113],[-122.419276,47.272136],[-122.41942,47.272136],[-122.419471,47.272105],[-122.419489,47.272038],[-122.419609,47.272049],[-122.41962,47.272295],[-122.419739,47.27232],[-122.419773,47.272401],[-122.41987,47.27241],[-122.419898,47.272488],[-122.420001,47.272501],[-122.420029,47.272579],[-122.420132,47.272592],[-122.42016,47.27267],[-122.420263,47.272682],[-122.42026,47.273042],[-122.420141,47.273066],[-122.420125,47.273221],[-122.420042,47.273225],[-122.419996,47.273259],[-122.419991,47.273401],[-122.419908,47.273405],[-122.419865,47.273434],[-122.419857,47.27358],[-122.419774,47.273584],[-122.419731,47.273613],[-122.419722,47.273849],[-122.419646,47.273851],[-122.419599,47.273877],[-122.419588,47.274029],[-122.419512,47.274031],[-122.419465,47.274057],[-122.419454,47.274208],[-122.419334,47.274231],[-122.419319,47.274387],[-122.419236,47.274391],[-122.41919,47.274425],[-122.419185,47.274566],[-122.419102,47.27457],[-122.419059,47.274599],[-122.419051,47.274746],[-122.418968,47.274749],[-122.418925,47.274778],[-122.418916,47.275015],[-122.418819,47.275024],[-122.418783,47.275104],[-122.418699,47.275108],[-122.418656,47.275137],[-122.418647,47.275374],[-122.418533,47.275393],[-122.418513,47.275553],[-122.41843,47.275557],[-122.418387,47.275586],[-122.418378,47.275822],[-122.418302,47.275824],[-122.418255,47.27585],[-122.418244,47.276001],[-122.418135,47.276017],[-122.418111,47.276091],[-122.418014,47.276099],[-122.417978,47.27618],[-122.417863,47.276199],[-122.417844,47.276269],[-122.417712,47.276269],[-122.41769,47.276194],[-122.417581,47.276178],[-122.417561,47.275924],[-122.41732,47.275907],[-122.417297,47.275833],[-122.417188,47.275816],[-122.417166,47.275742],[-122.417057,47.275725],[-122.41704,47.275655],[-122.416926,47.275635],[-122.416892,47.275554],[-122.416795,47.275544],[-122.416767,47.275466],[-122.416664,47.275453],[-122.416635,47.275376],[-122.416532,47.275363],[-122.416504,47.275285],[-122.416401,47.275272],[-122.416373,47.275194],[-122.41627,47.275182],[-122.416242,47.275104],[-122.416006,47.27509],[-122.415944,47.275066],[-122.415784,47.275096],[-122.415741,47.275143],[-122.415742,47.275411],[-122.415787,47.275445],[-122.41587,47.27545],[-122.415861,47.276259],[-122.412426,47.276242],[-122.412411,47.276176],[-122.412345,47.276151],[-122.412196,47.27616],[-122.412159,47.27624],[-122.411895,47.276239],[-122.411882,47.276173],[-122.411817,47.276149],[-122.411667,47.276157],[-122.41163,47.276238],[-122.411498,47.276237],[-122.411496,47.276172],[-122.411452,47.276138],[-122.411235,47.276146],[-122.411232,47.276094],[-122.411194,47.276062],[-122.410972,47.276054],[-122.41095,47.27589],[-122.410709,47.275873],[-122.410709,47.275736],[-122.410669,47.275699],[-122.410447,47.275692],[-122.410449,47.275512],[-122.410546,47.275503],[-122.410582,47.275422],[-122.410665,47.275419],[-122.410711,47.275385],[-122.410751,47.275286],[-122.410711,47.275186],[-122.410668,47.275157],[-122.410585,47.275152],[-122.41055,47.275071],[-122.410454,47.275062],[-122.410419,47.274981],[-122.41019,47.27497],[-122.410191,47.274839],[-122.410163,47.274803],[-122.40997,47.274796],[-122.409931,47.274828],[-122.409927,47.274879],[-122.409808,47.274903],[-122.409793,47.274968],[-122.409679,47.274988],[-122.40966,47.275058],[-122.409528,47.275057],[-122.409534,47.274476],[-122.409464,47.274427],[-122.4093,47.274438],[-122.40927,47.274516],[-122.409173,47.274524],[-122.409136,47.274605],[-122.409022,47.274624],[-122.409003,47.274694],[-122.408739,47.274693],[-122.408742,47.274423],[-122.408977,47.274412],[-122.409007,47.274335],[-122.409083,47.274333],[-122.409131,47.274307],[-122.409141,47.274209],[-122.409106,47.274164],[-122.409009,47.274154],[-122.408981,47.274077],[-122.408878,47.274064],[-122.40885,47.273986],[-122.408747,47.273973],[-122.408719,47.273895],[-122.408525,47.273888],[-122.408487,47.27392],[-122.408482,47.273972],[-122.408363,47.273995],[-122.408349,47.274061],[-122.40824,47.274076],[-122.408214,47.27433],[-122.408105,47.274346],[-122.408081,47.27442],[-122.407949,47.274419],[-122.407952,47.274149],[-122.408066,47.27413],[-122.408086,47.27397],[-122.408169,47.273966],[-122.408212,47.273937],[-122.40822,47.273749],[-122.408179,47.273707],[-122.408089,47.2737],[-122.408086,47.273648],[-122.408048,47.273616],[-122.407882,47.273611],[-122.407831,47.273642],[-122.407824,47.273698],[-122.407741,47.273702],[-122.407698,47.273731],[-122.407689,47.273968],[-122.407613,47.27397],[-122.407566,47.273996],[-122.407555,47.274147],[-122.407423,47.274146],[-122.407426,47.273835],[-122.407385,47.273793],[-122.407295,47.273786],[-122.407298,47.273516],[-122.407539,47.273501],[-122.407563,47.273463],[-122.40755,47.273361],[-122.407347,47.273314],[-122.407191,47.273351],[-122.407166,47.273425],[-122.406958,47.273426],[-122.406908,47.273457],[-122.406901,47.273514],[-122.406769,47.273513],[-122.406773,47.273153],[-122.407002,47.273145],[-122.407072,47.273033],[-122.407012,47.272807],[-122.406429,47.272796],[-122.406381,47.272835],[-122.406378,47.272971],[-122.406156,47.272976],[-122.406117,47.273008],[-122.406113,47.27306],[-122.405994,47.273083],[-122.40598,47.273149],[-122.405848,47.273148],[-122.40585,47.272968],[-122.406065,47.272965],[-122.406108,47.272936],[-122.406115,47.27288],[-122.406191,47.272878],[-122.406238,47.272852],[-122.406249,47.272701],[-122.406339,47.272695],[-122.40638,47.272658],[-122.406381,47.27247],[-122.406321,47.272432],[-122.406162,47.272437],[-122.406123,47.272468],[-122.406119,47.27252],[-122.406,47.272543],[-122.405986,47.272609],[-122.405871,47.272628],[-122.405852,47.272698],[-122.405738,47.272718],[-122.405719,47.272788],[-122.405455,47.272786],[-122.405434,47.272622],[-122.405193,47.272604],[-122.405194,47.272515],[-122.405297,47.272503],[-122.405327,47.272426],[-122.405417,47.27242],[-122.405458,47.272383],[-122.405447,47.271906],[-122.405393,47.271887],[-122.40511,47.271891],[-122.405071,47.271923],[-122.405067,47.271974],[-122.404948,47.271998],[-122.404934,47.272064],[-122.40482,47.272083],[-122.404801,47.272153],[-122.404669,47.272152],[-122.404646,47.272078],[-122.404538,47.272062],[-122.40454,47.271882],[-122.404643,47.27187],[-122.404673,47.271793],[-122.404776,47.271781],[-122.404806,47.271703],[-122.404903,47.271695],[-122.404939,47.271614],[-122.405015,47.271612],[-122.405062,47.271586],[-122.405074,47.271393],[-122.405045,47.271357],[-122.403753,47.271338],[-122.403735,47.271267],[-122.403621,47.271247],[-122.403604,47.271177],[-122.40349,47.271156],[-122.403473,47.271086],[-122.403359,47.271066],[-122.403346,47.271],[-122.403228,47.270975],[-122.403193,47.270894],[-122.402964,47.270884],[-122.402902,47.270859],[-122.402832,47.270883],[-122.4027,47.270882],[-122.402693,47.270641],[-122.402647,47.270615],[-122.402571,47.270612],[-122.402536,47.270531],[-122.40244,47.27052],[-122.402441,47.270431],[-122.402531,47.270425],[-122.402572,47.270388],[-122.402577,47.270072],[-122.402674,47.270063],[-122.40271,47.269983],[-122.402829,47.269959],[-122.402865,47.269769],[-122.402817,47.269718],[-122.402652,47.269713],[-122.40259,47.269741],[-122.40258,47.269802],[-122.402448,47.269801],[-122.402519,47.263504],[-122.402616,47.263494],[-122.402652,47.263414],[-122.402761,47.263398],[-122.402785,47.263324],[-122.403026,47.26331],[-122.403051,47.263146],[-122.403166,47.263127],[-122.40322,47.263009],[-122.403173,47.2629],[-122.403054,47.262876],[-122.403026,47.262798],[-122.402791,47.262784],[-122.402769,47.26271],[-122.40266,47.262694],[-122.402626,47.262613],[-122.402529,47.262603],[-122.402538,47.261793],[-122.407294,47.261818],[-122.407358,47.261842],[-122.40743,47.261819],[-122.423686,47.261902]],[[-122.404082,47.265581],[-122.404165,47.265577],[-122.404211,47.265543],[-122.404216,47.26536],[-122.404181,47.26532],[-122.404009,47.265313],[-122.403958,47.265343],[-122.403951,47.2654],[-122.403716,47.265411],[-122.403687,47.265447],[-122.403685,47.265578],[-122.403576,47.265594],[-122.403552,47.265668],[-122.403351,47.265668],[-122.403293,47.2657],[-122.403285,47.265846],[-122.403249,47.265894],[-122.403302,47.266007],[-122.403355,47.266026],[-122.403519,47.266015],[-122.403549,47.265938],[-122.403652,47.265926],[-122.403682,47.265849],[-122.403785,47.265837],[-122.403815,47.265759],[-122.403912,47.265751],[-122.403948,47.26567],[-122.404063,47.265651],[-122.404082,47.265581]],[[-122.403636,47.269938],[-122.403567,47.269884],[-122.403401,47.269909],[-122.403372,47.269945],[-122.403387,47.27007],[-122.403454,47.27009],[-122.403606,47.270065],[-122.403633,47.270034],[-122.403636,47.269938]],[[-122.405695,47.263159],[-122.405661,47.263078],[-122.405495,47.263069],[-122.405441,47.263097],[-122.40543,47.263158],[-122.405316,47.263177],[-122.405297,47.263247],[-122.404901,47.263245],[-122.404903,47.263024],[-122.404875,47.262987],[-122.40464,47.262974],[-122.404631,47.262912],[-122.404577,47.262885],[-122.404244,47.262882],[-122.40421,47.262801],[-122.404052,47.262791],[-122.40399,47.262819],[-122.40398,47.26288],[-122.403865,47.2629],[-122.403846,47.26297],[-122.403732,47.262989],[-122.403713,47.263059],[-122.403594,47.263082],[-122.403579,47.26328],[-122.403634,47.263326],[-122.403842,47.26333],[-122.403864,47.263494],[-122.404105,47.263511],[-122.404122,47.263581],[-122.404236,47.263602],[-122.40427,47.263683],[-122.404367,47.263692],[-122.404395,47.26377],[-122.404498,47.263783],[-122.404526,47.263861],[-122.404629,47.263874],[-122.404652,47.263948],[-122.404821,47.263964],[-122.404884,47.263937],[-122.404894,47.263875],[-122.405135,47.263861],[-122.40516,47.263697],[-122.405263,47.263685],[-122.405293,47.263607],[-122.405397,47.263596],[-122.405427,47.263518],[-122.40553,47.263506],[-122.40556,47.263429],[-122.405657,47.26342],[-122.405693,47.263339],[-122.405812,47.263316],[-122.405817,47.263189],[-122.405771,47.263162],[-122.405695,47.263159]],[[-122.408347,47.262635],[-122.408275,47.262609],[-122.408103,47.262648],[-122.408079,47.262722],[-122.407996,47.262725],[-122.407953,47.262754],[-122.407968,47.262885],[-122.408024,47.262902],[-122.408186,47.262887],[-122.40821,47.262813],[-122.408294,47.262809],[-122.408337,47.26278],[-122.408379,47.262681],[-122.408347,47.262635]],[[-122.409127,47.263627],[-122.409114,47.263561],[-122.408995,47.263536],[-122.408993,47.263485],[-122.408954,47.263453],[-122.408794,47.263421],[-122.408635,47.263454],[-122.4086,47.263493],[-122.408598,47.263624],[-122.408501,47.263633],[-122.408465,47.263714],[-122.408381,47.263717],[-122.408338,47.263746],[-122.408343,47.263959],[-122.408401,47.263983],[-122.408594,47.263984],[-122.408599,47.264041],[-122.408649,47.264072],[-122.408822,47.264066],[-122.408858,47.263986],[-122.408961,47.263974],[-122.408991,47.263896],[-122.409088,47.263888],[-122.409125,47.263807],[-122.409208,47.263803],[-122.409251,47.263774],[-122.409249,47.263656],[-122.409202,47.26363],[-122.409127,47.263627]],[[-122.40966,47.267432],[-122.409865,47.267386],[-122.409876,47.267269],[-122.409823,47.267232],[-122.409671,47.267232],[-122.409621,47.267262],[-122.409581,47.267377],[-122.40966,47.267432]],[[-122.412131,47.270079],[-122.412087,47.26997],[-122.412033,47.269942],[-122.411764,47.269941],[-122.411701,47.269983],[-122.411708,47.270091],[-122.411755,47.270117],[-122.41183,47.27012],[-122.411839,47.270181],[-122.411893,47.270209],[-122.41203,47.27021],[-122.412076,47.270191],[-122.412131,47.270079]],[[-122.412639,47.270439],[-122.412615,47.270337],[-122.412565,47.270306],[-122.412414,47.270305],[-122.41236,47.270341],[-122.412359,47.270444],[-122.412412,47.27048],[-122.412606,47.270474],[-122.412639,47.270439]],[[-122.412902,47.27062],[-122.412878,47.270518],[-122.412835,47.270489],[-122.412689,47.270471],[-122.412625,47.270504],[-122.41262,47.27062],[-122.412667,47.27066],[-122.412861,47.270658],[-122.412902,47.27062]],[[-122.415111,47.263525],[-122.415048,47.2634],[-122.414868,47.263363],[-122.414813,47.263386],[-122.414584,47.263394],[-122.414527,47.263514],[-122.414568,47.263558],[-122.414679,47.263566],[-122.4147,47.26373],[-122.41487,47.263746],[-122.414932,47.263718],[-122.414943,47.263657],[-122.415018,47.263655],[-122.415066,47.263629],[-122.415111,47.263525]],[[-122.415864,47.264021],[-122.415859,47.263875],[-122.415817,47.263845],[-122.415734,47.263841],[-122.415728,47.263784],[-122.415686,47.263755],[-122.415512,47.263756],[-122.415473,47.263788],[-122.415469,47.263839],[-122.415386,47.263843],[-122.415343,47.263872],[-122.415315,47.263963],[-122.415343,47.264006],[-122.415599,47.26402],[-122.415598,47.26411],[-122.415508,47.264116],[-122.415467,47.264153],[-122.415466,47.264246],[-122.415513,47.264286],[-122.415666,47.264315],[-122.415729,47.264291],[-122.415921,47.264292],[-122.415975,47.264272],[-122.415992,47.264061],[-122.415947,47.264026],[-122.415864,47.264021]],[[-122.421182,47.268822],[-122.421029,47.268793],[-122.420876,47.268822],[-122.420838,47.268854],[-122.420833,47.268906],[-122.420611,47.268911],[-122.420572,47.268943],[-122.420568,47.268994],[-122.420332,47.268992],[-122.420303,47.269033],[-122.420319,47.269243],[-122.420372,47.269263],[-122.420516,47.26926],[-122.42056,47.269231],[-122.420566,47.269175],[-122.420802,47.269163],[-122.420832,47.269086],[-122.420951,47.269062],[-122.420965,47.268997],[-122.4212,47.268985],[-122.421229,47.268949],[-122.421225,47.268851],[-122.421182,47.268822]],[[-122.421622,47.26936],[-122.421622,47.269223],[-122.42156,47.269181],[-122.421395,47.269188],[-122.421358,47.269268],[-122.420886,47.269268],[-122.420831,47.269309],[-122.42081,47.269496],[-122.420855,47.269532],[-122.420959,47.269536],[-122.42098,47.269701],[-122.421174,47.26974],[-122.42133,47.269702],[-122.421355,47.269628],[-122.42168,47.26963],[-122.421733,47.269611],[-122.42175,47.269399],[-122.421705,47.269364],[-122.421622,47.26936]],[[-122.423363,47.26757],[-122.423355,47.267422],[-122.423313,47.267393],[-122.42323,47.267388],[-122.423195,47.267307],[-122.423099,47.267298],[-122.423077,47.267133],[-122.422763,47.267116],[-122.422706,47.267132],[-122.422683,47.267171],[-122.422702,47.267296],[-122.422583,47.267319],[-122.422572,47.267437],[-122.422632,47.267474],[-122.422832,47.267476],[-122.422831,47.267566],[-122.422795,47.267614],[-122.422833,47.267708],[-122.422878,47.267742],[-122.422961,47.267747],[-122.422984,47.267821],[-122.42304,47.267837],[-122.423334,47.267823],[-122.423359,47.267659],[-122.423395,47.267617],[-122.423363,47.26757]]]}},{"type":"Feature","properties":{"id":3,"area_m2":72200,"px":722,"rank":2,"persistent":true},"geometry":{"type":"Polygon","coordinates":[[[-122.407665,47.276127],[-122.407662,47.276217],[-122.402376,47.27619],[-122.402412,47.272951],[-122.402677,47.272952],[-122.402699,47.273026],[-122.402808,47.273043],[-122.40283,47.273117],[-122.402939,47.273133],[-122.402961,47.273208],[-122.40307,47.273224],[-122.403087,47.273294],[-122.403201,47.273315],[-122.403236,47.273396],[-122.403333,47.273405],[-122.403361,47.273483],[-122.403464,47.273496],[-122.403492,47.273574],[-122.403595,47.273587],[-122.403623,47.273664],[-122.403726,47.273677],[-122.403754,47.273755],[-122.403857,47.273768],[-122.403862,47.273915],[-122.403904,47.273944],[-122.403987,47.273949],[-122.404016,47.274026],[-122.404383,47.274041],[-122.404406,47.274115],[-122.404514,47.274131],[-122.404549,47.274212],[-122.404645,47.274222],[-122.404642,47.274533],[-122.404671,47.27457],[-122.404864,47.274577],[-122.404903,47.274545],[-122.404907,47.274493],[-122.405171,47.274495],[-122.405191,47.274762],[-122.405245,47.274779],[-122.405433,47.274766],[-122.405436,47.274818],[-122.405474,47.27485],[-122.405696,47.274857],[-122.405693,47.275163],[-122.405716,47.275202],[-122.405771,47.275218],[-122.406221,47.27522],[-122.406233,47.275376],[-122.406351,47.275401],[-122.406386,47.275482],[-122.406482,47.275491],[-122.40651,47.275569],[-122.406613,47.275582],[-122.406642,47.27566],[-122.406745,47.275673],[-122.406766,47.275837],[-122.407139,47.275855],[-122.407168,47.275932],[-122.407403,47.275946],[-122.407425,47.27602],[-122.407534,47.276037],[-122.407568,47.276118],[-122.407665,47.276127]]]}},{"type":"Feature","properties":{"id":2,"area_m2":4600,"px":46,"rank":3,"persistent":false},"geometry":{"type":"Polygon","coordinates":[[[-122.41745,47.276087],[-122.417448,47.276267],[-122.41639,47.276262],[-122.416393,47.275992],[-122.416512,47.275969],[-122.416525,47.275856],[-122.416485,47.275819],[-122.416395,47.275812],[-122.416392,47.27576],[-122.416354,47.275728],[-122.416132,47.275721],[-122.416136,47.275361],[-122.416268,47.275362],[-122.416273,47.275418],[-122.416323,47.275449],[-122.416531,47.275453],[-122.416554,47.275527],[-122.416662,47.275544],[-122.416675,47.27561],[-122.416794,47.275634],[-122.416822,47.275712],[-122.416925,47.275725],[-122.416946,47.275889],[-122.417055,47.275906],[-122.417068,47.275972],[-122.417186,47.275996],[-122.417189,47.276048],[-122.417227,47.27608],[-122.41745,47.276087]]]}}]}