{"type":"FeatureCollection","features":[{"type":"Feature","properties":{"id":33,"area_m2":27400,"px":274,"rank":1},"geometry":{"type":"Polygon","coordinates":[[[-122.416979,47.270776],[-122.416978,47.270866],[-122.416869,47.270881],[-122.416845,47.270955],[-122.416713,47.270955],[-122.416707,47.270898],[-122.416658,47.270867],[-122.416526,47.27085],[-122.416472,47.270866],[-122.416447,47.271043],[-122.416255,47.271043],[-122.416201,47.271062],[-122.416181,47.271222],[-122.416077,47.271226],[-122.416031,47.271261],[-122.416047,47.271401],[-122.415938,47.271416],[-122.415914,47.27149],[-122.415795,47.271514],[-122.41578,47.27158],[-122.415384,47.271578],[-122.415362,47.271503],[-122.415253,47.271487],[-122.415218,47.271406],[-122.415122,47.271396],[-122.4151,47.271232],[-122.414859,47.271215],[-122.414837,47.271141],[-122.414728,47.271124],[-122.414741,47.270974],[-122.414694,47.270947],[-122.414598,47.270944],[-122.414575,47.27087],[-122.414467,47.270853],[-122.414432,47.270772],[-122.414335,47.270762],[-122.414314,47.270598],[-122.414073,47.270581],[-122.414065,47.27043],[-122.414019,47.270403],[-122.413943,47.270401],[-122.413946,47.270131],[-122.414055,47.270115],[-122.414079,47.270041],[-122.414314,47.27003],[-122.414343,47.269994],[-122.414345,47.269863],[-122.414581,47.269852],[-122.414611,47.269774],[-122.414714,47.269762],[-122.414744,47.269685],[-122.414841,47.269676],[-122.414877,47.269596],[-122.414991,47.269576],[-122.41501,47.269506],[-122.415407,47.269508],[-122.415429,47.269583],[-122.415538,47.269599],[-122.415554,47.269759],[-122.415608,47.269779],[-122.4158,47.26978],[-122.415812,47.269936],[-122.41593,47.269961],[-122.415965,47.270042],[-122.416062,47.270052],[-122.41609,47.270129],[-122.416193,47.270142],[-122.416221,47.27022],[-122.416456,47.270234],[-122.416467,47.270479],[-122.416586,47.270504],[-122.416591,47.270561],[-122.416634,47.27059],[-122.416849,47.270595],[-122.416857,47.270747],[-122.416903,47.270773],[-122.416979,47.270776]]]}},{"type":"Feature","properties":{"id":3,"area_m2":22200,"px":222,"rank":2},"geometry":{"type":"Polygon","coordinates":[[[-122.414947,47.275265],[-122.414944,47.275535],[-122.41484,47.275546],[-122.41481,47.275624],[-122.414713,47.275633],[-122.414678,47.275677],[-122.414678,47.275945],[-122.414723,47.275979],[-122.414806,47.275984],[-122.414841,47.276065],[-122.414938,47.276075],[-122.414936,47.276255],[-122.414671,47.276253],[-122.414659,47.276187],[-122.41454,47.276163],[-122.414532,47.276088],[-122.414465,47.276058],[-122.414269,47.276096],[-122.414275,47.276251],[-122.414143,47.27625],[-122.41413,47.276184],[-122.414064,47.27616],[-122.413914,47.276168],[-122.413878,47.276249],[-122.413746,47.276248],[-122.413747,47.276159],[-122.413783,47.276111],[-122.413729,47.276055],[-122.413484,47.276067],[-122.413471,47.276001],[-122.413352,47.275976],[-122.413318,47.275895],[-122.413089,47.275885],[-122.41309,47.275795],[-122.413126,47.275748],[-122.413063,47.275627],[-122.412695,47.275613],[-122.412673,47.275539],[-122.412564,47.275523],[-122.41253,47.275442],[-122.412433,47.275432],[-122.412437,47.275072],[-122.412569,47.275073],[-122.412591,47.275147],[-122.412716,47.275171],[-122.412679,47.275293],[-122.412741,47.275342],[-122.41331,47.275342],[-122.413358,47.275303],[-122.413348,47.275191],[-122.413229,47.275166],[-122.41322,47.275105],[-122.413158,47.275076],[-122.413001,47.275084],[-122.412964,47.275165],[-122.412816,47.275156],[-122.412833,47.275074],[-122.412917,47.27507],[-122.41296,47.275041],[-122.412954,47.274919],[-122.412896,47.274895],[-122.412703,47.274893],[-122.412703,47.274757],[-122.412656,47.274717],[-122.412176,47.274711],[-122.412154,47.274636],[-122.412045,47.27462],[-122.412011,47.274539],[-122.411914,47.274529],[-122.411906,47.274378],[-122.41186,47.274352],[-122.411784,47.274349],[-122.411786,47.274169],[-122.411895,47.274154],[-122.411919,47.27408],[-122.412051,47.27408],[-122.412053,47.274407],[-122.412096,47.274436],[-122.412249,47.274465],[-122.412312,47.274442],[-122.412644,47.274442],[-122.412705,47.274405],[-122.412706,47.274117],[-122.412648,47.274084],[-122.412448,47.274082],[-122.412449,47.273992],[-122.412713,47.273994],[-122.412722,47.274055],[-122.412784,47.274084],[-122.413109,47.274086],[-122.413171,47.27411],[-122.413241,47.274086],[-122.413505,47.274088],[-122.413528,47.274162],[-122.413636,47.274178],[-122.413648,47.274334],[-122.413706,47.274358],[-122.413899,47.27436],[-122.413903,47.274506],[-122.413946,47.274536],[-122.414029,47.27454],[-122.414064,47.274621],[-122.414251,47.274625],[-122.41429,47.274593],[-122.414294,47.274542],[-122.414558,47.274543],[-122.414555,47.274813],[-122.414458,47.274822],[-122.414422,47.274902],[-122.414303,47.274926],[-122.414294,47.275062],[-122.414364,47.275096],[-122.414684,47.275084],[-122.414707,47.275158],[-122.414815,47.275174],[-122.41485,47.275255],[-122.414947,47.275265]],[[-122.413763,47.274968],[-122.413758,47.274847],[-122.41372,47.274815],[-122.413497,47.274807],[-122.413499,47.274628],[-122.413535,47.27458],[-122.413483,47.274467],[-122.413322,47.274424],[-122.413256,47.274433],[-122.413201,47.274488],[-122.413236,47.274536],[-122.413235,47.274626],[-122.413145,47.274632],[-122.413104,47.274669],[-122.413117,47.274966],[-122.41317,47.274986],[-122.413363,47.274987],[-122.413398,47.275068],[-122.413563,47.275077],[-122.413618,47.27505],[-122.413628,47.274988],[-122.413763,47.274968]],[[-122.413753,47.27557],[-122.413773,47.275389],[-122.413728,47.275353],[-122.413499,47.27536],[-122.413471,47.275398],[-122.413474,47.275609],[-122.413558,47.275642],[-122.413724,47.275606],[-122.413753,47.27557]],[[-122.414154,47.275211],[-122.414085,47.275157],[-122.413786,47.275173],[-122.413737,47.275219],[-122.413762,47.275329],[-122.413832,47.275363],[-122.414104,47.275346],[-122.414151,47.275307],[-122.414154,47.275211]],[[-122.414068,47.2758],[-122.414144,47.275762],[-122.41414,47.275649],[-122.414086,47.275621],[-122.413927,47.275626],[-122.413886,47.275663],[-122.413893,47.275771],[-122.413947,47.275799],[-122.414068,47.2758]]]}},{"type":"Feature","properties":{"id":19,"area_m2":22000,"px":220,"rank":3},"geometry":{"type":"Polygon","coordinates":[[[-122.418154,47.272132],[-122.418153,47.272222],[-122.417958,47.272207],[-122.417898,47.272236],[-122.417886,47.27249],[-122.41767,47.272493],[-122.417627,47.272522],[-122.41762,47.272579],[-122.417501,47.272602],[-122.417486,47.272758],[-122.417354,47.272757],[-122.41732,47.272676],[-122.417138,47.272657],[-122.417092,47.272696],[-122.417089,47.272846],[-122.41698,47.272861],[-122.416955,47.272935],[-122.416232,47.272918],[-122.416171,47.272947],[-122.416159,47.273021],[-122.416029,47.273021],[-122.416024,47.272964],[-122.415981,47.272935],[-122.41583,47.272931],[-122.415775,47.272958],[-122.415765,47.273019],[-122.41565,47.273039],[-122.41563,47.273109],[-122.415367,47.273107],[-122.415345,47.273033],[-122.415236,47.273017],[-122.415202,47.272936],[-122.415105,47.272926],[-122.415107,47.272746],[-122.415143,47.272704],[-122.415108,47.272656],[-122.41511,47.272476],[-122.415345,47.272465],[-122.415374,47.272429],[-122.415376,47.272298],[-122.415485,47.272282],[-122.415509,47.272208],[-122.415613,47.272197],[-122.415643,47.272119],[-122.415739,47.27211],[-122.415776,47.27203],[-122.41589,47.27201],[-122.415909,47.27194],[-122.416044,47.27192],[-122.416044,47.271671],[-122.416176,47.271672],[-122.416182,47.271728],[-122.416231,47.27176],[-122.416398,47.271756],[-122.416439,47.27172],[-122.416442,47.271583],[-122.416551,47.271568],[-122.416575,47.271494],[-122.417103,47.271497],[-122.417107,47.271733],[-122.41715,47.271763],[-122.417233,47.271767],[-122.417238,47.271824],[-122.417288,47.271855],[-122.417461,47.271849],[-122.417497,47.271769],[-122.417761,47.27177],[-122.41776,47.27186],[-122.417664,47.271868],[-122.417627,47.271949],[-122.417531,47.271951],[-122.41748,47.271983],[-122.417497,47.27209],[-122.417535,47.272122],[-122.417834,47.272128],[-122.417884,47.272097],[-122.417891,47.27204],[-122.418021,47.272041],[-122.418045,47.272115],[-122.418154,47.272132]]]}},{"type":"Feature","properties":{"id":7,"area_m2":16500,"px":165,"rank":4},"geometry":{"type":"Polygon","coordinates":[[[-122.41933,47.273398],[-122.419328,47.273577],[-122.419245,47.273581],[-122.419202,47.27361],[-122.419193,47.273847],[-122.41911,47.27385],[-122.419067,47.273879],[-122.419058,47.274116],[-122.418982,47.274118],[-122.418935,47.274144],[-122.418924,47.274295],[-122.418792,47.274295],[-122.418722,47.27427],[-122.418569,47.2743],[-122.41853,47.274332],[-122.418526,47.274383],[-122.418407,47.274407],[-122.418393,47.274472],[-122.418129,47.274471],[-122.418121,47.27432],[-122.418074,47.274293],[-122.417998,47.274289],[-122.417999,47.274201],[-122.418083,47.274197],[-122.418129,47.274163],[-122.418135,47.273931],[-122.418357,47.273926],[-122.418396,47.273894],[-122.4184,47.273843],[-122.418483,47.273839],[-122.418529,47.273805],[-122.418533,47.273698],[-122.418506,47.273662],[-122.41827,47.273662],[-122.418271,47.273572],[-122.418354,47.273568],[-122.4184,47.273534],[-122.418404,47.273441],[-122.418376,47.273405],[-122.418043,47.2734],[-122.418007,47.273481],[-122.417888,47.273504],[-122.417874,47.27357],[-122.41776,47.273589],[-122.417741,47.273659],[-122.417548,47.273659],[-122.417494,47.273678],[-122.417474,47.273838],[-122.41721,47.273837],[-122.417197,47.273771],[-122.417079,47.273746],[-122.417044,47.273665],[-122.416816,47.273655],[-122.416817,47.273475],[-122.416908,47.273469],[-122.416949,47.273432],[-122.416953,47.273205],[-122.417062,47.27319],[-122.417086,47.273116],[-122.417205,47.273093],[-122.417219,47.273027],[-122.41746,47.273012],[-122.417485,47.272848],[-122.417702,47.272859],[-122.417747,47.272825],[-122.417751,47.27276],[-122.417973,47.272754],[-122.418012,47.272723],[-122.418016,47.272671],[-122.41828,47.272672],[-122.418303,47.272747],[-122.418412,47.272763],[-122.418424,47.272829],[-122.418543,47.272854],[-122.418571,47.272931],[-122.418674,47.272944],[-122.418673,47.273034],[-122.41859,47.273038],[-122.418544,47.273072],[-122.41854,47.273179],[-122.418567,47.273215],[-122.418936,47.273216],[-122.418968,47.27331],[-122.419199,47.273307],[-122.419221,47.273381],[-122.41933,47.273398]]]}},{"type":"Feature","properties":{"id":42,"area_m2":14900,"px":149,"rank":5},"geometry":{"type":"Polygon","coordinates":[[[-122.414755,47.268695],[-122.414754,47.268785],[-122.414663,47.268791],[-122.414621,47.268833],[-122.414625,47.269021],[-122.414668,47.26905],[-122.414751,47.269055],[-122.414749,47.269234],[-122.414658,47.269241],[-122.414618,47.269278],[-122.414612,47.269594],[-122.414371,47.269609],[-122.414346,47.269773],[-122.414124,47.269778],[-122.414085,47.26981],[-122.414081,47.269861],[-122.413962,47.269885],[-122.413948,47.269951],[-122.413816,47.26995],[-122.413813,47.269898],[-122.413774,47.269866],[-122.413552,47.269859],[-122.41353,47.269784],[-122.413421,47.269768],[-122.413388,47.269674],[-122.413158,47.269677],[-122.413135,47.269602],[-122.413026,47.269586],[-122.413025,47.269354],[-122.41298,47.26932],[-122.412897,47.269315],[-122.412899,47.269135],[-122.412935,47.269093],[-122.4129,47.269045],[-122.412901,47.268956],[-122.413089,47.26897],[-122.413143,47.268954],[-122.413166,47.268867],[-122.413263,47.268865],[-122.413311,47.268838],[-122.413301,47.268688],[-122.41341,47.268672],[-122.413434,47.268598],[-122.413656,47.268593],[-122.413695,47.268561],[-122.413699,47.26851],[-122.413818,47.268486],[-122.413832,47.26842],[-122.41404,47.268419],[-122.414091,47.268388],[-122.414098,47.268332],[-122.41423,47.268332],[-122.414233,47.268384],[-122.414271,47.268416],[-122.414493,47.268424],[-122.414516,47.268498],[-122.414624,47.268514],[-122.414615,47.268669],[-122.414658,47.268692],[-122.414755,47.268695]],[[-122.413691,47.26927],[-122.413669,47.269232],[-122.413607,47.269215],[-122.413544,47.269238],[-122.413523,47.269276],[-122.413549,47.269314],[-122.413613,47.269333],[-122.413673,47.269313],[-122.413691,47.26927]]]}},{"type":"Feature","properties":{"id":14,"area_m2":11900,"px":119,"rank":6},"geometry":{"type":"Polygon","coordinates":[[[-122.412723,47.273094],[-122.412721,47.273274],[-122.412612,47.273289],[-122.412588,47.273363],[-122.412364,47.273355],[-122.412326,47.273387],[-122.412322,47.273452],[-122.412247,47.273454],[-122.412199,47.27348],[-122.412187,47.273721],[-122.411923,47.27372],[-122.411918,47.273573],[-122.411876,47.273544],[-122.411793,47.273539],[-122.411765,47.273461],[-122.411265,47.273446],[-122.411243,47.273282],[-122.411003,47.273265],[-122.411002,47.273128],[-122.410962,47.273091],[-122.41074,47.273084],[-122.410741,47.272994],[-122.410824,47.27299],[-122.41087,47.272956],[-122.410862,47.272838],[-122.410804,47.272814],[-122.410611,47.272813],[-122.410605,47.272756],[-122.410555,47.272725],[-122.410347,47.272722],[-122.410346,47.27258],[-122.4103,47.272546],[-122.410217,47.272541],[-122.410206,47.272385],[-122.410148,47.272361],[-122.409955,47.27236],[-122.409956,47.27227],[-122.410289,47.27227],[-122.410343,47.272243],[-122.410353,47.272182],[-122.410618,47.272183],[-122.410627,47.272519],[-122.410746,47.272544],[-122.410759,47.27261],[-122.410877,47.272635],[-122.41088,47.272686],[-122.410918,47.272718],[-122.411141,47.272726],[-122.41114,47.272857],[-122.411168,47.272894],[-122.411403,47.272907],[-122.411425,47.272981],[-122.411534,47.272998],[-122.411569,47.273079],[-122.411665,47.273088],[-122.411665,47.273239],[-122.411711,47.273278],[-122.411872,47.273267],[-122.411919,47.273241],[-122.411965,47.273138],[-122.411921,47.273028],[-122.411875,47.273002],[-122.411799,47.272999],[-122.411764,47.272918],[-122.411668,47.272908],[-122.411639,47.272831],[-122.411536,47.272818],[-122.411508,47.27274],[-122.411405,47.272727],[-122.411377,47.272649],[-122.411274,47.272636],[-122.411246,47.272559],[-122.411143,47.272546],[-122.41112,47.272472],[-122.411011,47.272455],[-122.411013,47.272275],[-122.41141,47.272277],[-122.411413,47.272342],[-122.411456,47.272377],[-122.411673,47.272369],[-122.411696,47.272443],[-122.411805,47.272459],[-122.411839,47.27254],[-122.411936,47.27255],[-122.411957,47.272714],[-122.412066,47.272731],[-122.412071,47.272787],[-122.412114,47.272817],[-122.412329,47.272822],[-122.412352,47.272896],[-122.412461,47.272913],[-122.412473,47.272979],[-122.412592,47.273003],[-122.41262,47.273081],[-122.412723,47.273094]]]}},{"type":"Feature","properties":{"id":37,"area_m2":8300,"px":83,"rank":7},"geometry":{"type":"Polygon","coordinates":[[[-122.408255,47.270641],[-122.408253,47.270821],[-122.408149,47.270825],[-122.408101,47.270866],[-122.408118,47.27109],[-122.408009,47.271106],[-122.407985,47.27118],[-122.407853,47.271179],[-122.40784,47.271113],[-122.407722,47.271088],[-122.407719,47.271037],[-122.40768,47.271005],[-122.407458,47.270997],[-122.40743,47.270919],[-122.407195,47.270906],[-122.407189,47.270849],[-122.407147,47.27082],[-122.406931,47.270814],[-122.406909,47.27074],[-122.4068,47.270724],[-122.406798,47.270659],[-122.406761,47.270627],[-122.406405,47.270632],[-122.406402,47.27058],[-122.406363,47.270548],[-122.406141,47.27054],[-122.406119,47.270466],[-122.40601,47.27045],[-122.40601,47.270313],[-122.40597,47.270276],[-122.405483,47.270267],[-122.405485,47.270087],[-122.405604,47.270064],[-122.405619,47.269908],[-122.405729,47.269893],[-122.405753,47.269819],[-122.406017,47.26982],[-122.406079,47.269844],[-122.406149,47.269821],[-122.406281,47.269821],[-122.406286,47.269968],[-122.406328,47.269997],[-122.406411,47.270002],[-122.406444,47.270096],[-122.406807,47.270094],[-122.406806,47.270184],[-122.406723,47.270188],[-122.406677,47.270222],[-122.406682,47.270335],[-122.406728,47.270361],[-122.406804,47.270364],[-122.406809,47.270421],[-122.406852,47.27045],[-122.407067,47.270455],[-122.407073,47.270512],[-122.407115,47.270541],[-122.407331,47.270547],[-122.407346,47.270629],[-122.407294,47.270684],[-122.407341,47.270733],[-122.407439,47.270724],[-122.407446,47.270645],[-122.407571,47.270622],[-122.407595,47.270548],[-122.40786,47.270549],[-122.407882,47.270624],[-122.408038,47.270663],[-122.408123,47.270641],[-122.408255,47.270641]],[[-122.406426,47.270407],[-122.406402,47.270292],[-122.406354,47.27026],[-122.4062,47.270273],[-122.406147,47.270309],[-122.406146,47.270412],[-122.406198,47.270448],[-122.406393,47.270442],[-122.406426,47.270407]]]}},{"type":"Feature","properties":{"id":40,"area_m2":4400,"px":44,"rank":8},"geometry":{"type":"Polygon","coordinates":[[[-122.407866,47.270009],[-122.407864,47.270189],[-122.407599,47.270188],[-122.407591,47.270127],[-122.407536,47.270099],[-122.407204,47.270096],[-122.407191,47.27003],[-122.407073,47.270005],[-122.40707,47.269954],[-122.407032,47.269921],[-122.406677,47.269913],[-122.406655,47.269839],[-122.406546,47.269823],[-122.406513,47.269728],[-122.406282,47.269731],[-122.40626,47.269657],[-122.406151,47.269641],[-122.406117,47.26956],[-122.40602,47.26955],[-122.406021,47.26946],[-122.40613,47.269445],[-122.406154,47.269371],[-122.406273,47.269347],[-122.406287,47.269281],[-122.406419,47.269282],[-122.406432,47.269348],[-122.406498,47.269372],[-122.406648,47.269364],[-122.406684,47.269283],[-122.406816,47.269284],[-122.406814,47.269464],[-122.406778,47.269512],[-122.406813,47.269554],[-122.406833,47.269732],[-122.406888,47.269748],[-122.40734,47.269737],[-122.407368,47.269815],[-122.407603,47.269828],[-122.407626,47.269902],[-122.407734,47.269919],[-122.407769,47.27],[-122.407866,47.270009]]]}},{"type":"Feature","properties":{"id":17,"area_m2":3100,"px":31,"rank":9},"geometry":{"type":"Polygon","coordinates":[[[-122.41087,47.273264],[-122.410868,47.273444],[-122.410759,47.27346],[-122.410735,47.273533],[-122.410471,47.273532],[-122.410462,47.273471],[-122.410408,47.273443],[-122.410075,47.27344],[-122.410076,47.27335],[-122.410112,47.273303],[-122.410068,47.273199],[-122.410014,47.273171],[-122.409814,47.273169],[-122.409814,47.273032],[-122.409774,47.272995],[-122.409551,47.272988],[-122.409553,47.272808],[-122.409662,47.272792],[-122.409686,47.272718],[-122.410083,47.27272],[-122.410091,47.272872],[-122.410137,47.272898],[-122.410213,47.272901],[-122.410191,47.273115],[-122.410212,47.273154],[-122.410342,47.273172],[-122.410351,47.273233],[-122.410405,47.273261],[-122.41087,47.273264]]]}},{"type":"Feature","properties":{"id":8,"area_m2":1700,"px":17,"rank":10},"geometry":{"type":"Polygon","coordinates":[[[-122.414826,47.274184],[-122.414823,47.274454],[-122.414691,47.274454],[-122.414674,47.274383],[-122.41456,47.274363],[-122.414526,47.274282],[-122.414429,47.274272],[-122.414401,47.274194],[-122.414165,47.274181],[-122.414143,47.274107],[-122.414034,47.27409],[-122.414037,47.273821],[-122.414301,47.273822],[-122.414324,47.273896],[-122.414433,47.273913],[-122.414411,47.274036],[-122.414433,47.274076],[-122.414695,47.274094],[-122.414718,47.274168],[-122.414826,47.274184]]]}},{"type":"Feature","properties":{"id":5,"area_m2":1400,"px":14,"rank":11},"geometry":{"type":"Polygon","coordinates":[[[-122.416012,47.27455],[-122.416011,47.27464],[-122.415803,47.274642],[-122.415753,47.274672],[-122.415746,47.274729],[-122.415553,47.274728],[-122.415499,47.274747],[-122.415478,47.274998],[-122.415369,47.275013],[-122.415345,47.275087],[-122.415213,47.275086],[-122.415151,47.275062],[-122.415081,47.275085],[-122.414949,47.275085],[-122.414926,47.275011],[-122.414818,47.274994],[-122.414819,47.274904],[-122.414928,47.274889],[-122.414952,47.274815],[-122.415084,47.274816],[-122.415089,47.274872],[-122.415132,47.274902],[-122.415263,47.27492],[-122.415319,47.274908],[-122.415347,47.274872],[-122.415349,47.274727],[-122.415458,47.274712],[-122.415483,47.274638],[-122.415602,47.274614],[-122.415616,47.274548],[-122.416012,47.27455]]]}},{"type":"Feature","properties":{"id":36,"area_m2":1400,"px":14,"rank":12},"geometry":{"type":"Polygon","coordinates":[[[-122.406928,47.271084],[-122.406926,47.271264],[-122.406662,47.271263],[-122.406649,47.271197],[-122.406531,47.271172],[-122.406528,47.271121],[-122.40649,47.271088],[-122.406135,47.27108],[-122.406136,47.27099],[-122.406372,47.270979],[-122.406401,47.270943],[-122.406403,47.270812],[-122.406512,47.270796],[-122.406536,47.270722],[-122.406668,47.270723],[-122.406667,47.270813],[-122.406631,47.270861],[-122.406675,47.270965],[-122.406721,47.270991],[-122.406797,47.270994],[-122.406831,47.271075],[-122.406928,47.271084]]]}},{"type":"Feature","properties":{"id":25,"area_m2":1200,"px":12,"rank":13},"geometry":{"type":"Polygon","coordinates":[[[-122.406648,47.272254],[-122.406615,47.2723],[-122.40665,47.272343],[-122.406649,47.272433],[-122.406517,47.272432],[-122.406494,47.272358],[-122.406385,47.272341],[-122.406368,47.272271],[-122.406254,47.272251],[-122.40622,47.27217],[-122.406123,47.27216],[-122.406095,47.272082],[-122.405992,47.272069],[-122.405994,47.271889],[-122.406126,47.27189],[-122.406131,47.271947],[-122.406181,47.271978],[-122.406389,47.271981],[-122.406412,47.272056],[-122.40652,47.272072],[-122.406555,47.272153],[-122.406652,47.272163],[-122.406648,47.272254]]]}},{"type":"Feature","properties":{"id":47,"area_m2":1100,"px":11,"rank":14},"geometry":{"type":"Polygon","coordinates":[[[-122.410524,47.268673],[-122.410523,47.268763],[-122.410294,47.268771],[-122.410258,47.268852],[-122.410139,47.268875],[-122.410125,47.268941],[-122.410011,47.26896],[-122.409992,47.26903],[-122.40986,47.26903],[-122.409862,47.26885],[-122.409965,47.268838],[-122.409995,47.268761],[-122.410106,47.268755],[-122.410148,47.268706],[-122.410111,47.268601],[-122.409997,47.268581],[-122.409962,47.2685],[-122.409866,47.26849],[-122.409867,47.2684],[-122.409999,47.268401],[-122.410011,47.268467],[-122.41013,47.268491],[-122.410158,47.268569],[-122.410393,47.268583],[-122.410416,47.268657],[-122.410524,47.268673]]]}},{"type":"Feature","properties":{"id":1,"area_m2":1000,"px":10,"rank":15},"geometry":{"type":"Polygon","coordinates":[[[-122.414934,47.276435],[-122.414931,47.276704],[-122.414534,47.276702],[-122.414531,47.276651],[-122.414493,47.276619],[-122.414271,47.276611],[-122.414272,47.276521],[-122.414605,47.276522],[-122.414659,47.276495],[-122.414669,47.276433],[-122.414934,47.276435]]]}},{"type":"Feature","properties":{"id":6,"area_m2":900,"px":9,"rank":16},"geometry":{"type":"Polygon","coordinates":[[[-122.410591,47.274613],[-122.410588,47.274882],[-122.410323,47.274881],[-122.410308,47.274631],[-122.410255,47.274611],[-122.40993,47.274609],[-122.409931,47.274519],[-122.410327,47.274521],[-122.41033,47.274573],[-122.410368,47.274605],[-122.410591,47.274613]]]}},{"type":"Feature","properties":{"id":10,"area_m2":900,"px":9,"rank":17},"geometry":{"type":"Polygon","coordinates":[[[-122.411125,47.274166],[-122.411124,47.274255],[-122.411014,47.274271],[-122.41099,47.274345],[-122.410726,47.274343],[-122.410704,47.274269],[-122.410595,47.274253],[-122.410597,47.274073],[-122.410993,47.274075],[-122.411016,47.274149],[-122.411125,47.274166]]]}},{"type":"Feature","properties":{"id":15,"area_m2":900,"px":9,"rank":18},"geometry":{"type":"Polygon","coordinates":[[[-122.419863,47.27304],[-122.41986,47.27331],[-122.419784,47.273312],[-122.419737,47.273338],[-122.419726,47.273489],[-122.419643,47.273493],[-122.419597,47.273527],[-122.419592,47.273669],[-122.41946,47.273668],[-122.419463,47.273398],[-122.419538,47.273396],[-122.419586,47.27337],[-122.419597,47.273219],[-122.41968,47.273215],[-122.419726,47.273181],[-122.419731,47.27304],[-122.419863,47.27304]]]}},{"type":"Feature","properties":{"id":27,"area_m2":900,"px":9,"rank":19},"geometry":{"type":"Polygon","coordinates":[[[-122.410756,47.271644],[-122.410754,47.271824],[-122.410645,47.271839],[-122.410621,47.271913],[-122.410502,47.271937],[-122.410488,47.272003],[-122.410223,47.272001],[-122.410225,47.271821],[-122.410334,47.271806],[-122.410358,47.271732],[-122.410567,47.271731],[-122.410617,47.2717],[-122.410624,47.271643],[-122.410756,47.271644]]]}},{"type":"Feature","properties":{"id":13,"area_m2":800,"px":8,"rank":20},"geometry":{"type":"Polygon","coordinates":[[[-122.411396,47.273537],[-122.411393,47.273807],[-122.410864,47.273804],[-122.410865,47.273714],[-122.411058,47.273715],[-122.411117,47.273691],[-122.411132,47.273536],[-122.411396,47.273537]]]}},{"type":"Feature","properties":{"id":44,"area_m2":800,"px":8,"rank":21},"geometry":{"type":"Polygon","coordinates":[[[-122.410781,47.269395],[-122.410778,47.269664],[-122.410646,47.269664],[-122.410623,47.26959],[-122.410515,47.269573],[-122.410503,47.269417],[-122.410384,47.269392],[-122.41035,47.269311],[-122.410253,47.269302],[-122.410225,47.269224],[-122.410122,47.269211],[-122.410123,47.269121],[-122.410255,47.269122],[-122.410272,47.269192],[-122.410386,47.269213],[-122.410399,47.269279],[-122.410517,47.269303],[-122.410552,47.269384],[-122.410781,47.269395]]]}},{"type":"Feature","properties":{"id":2,"area_m2":700,"px":7,"rank":22},"geometry":{"type":"Polygon","coordinates":[[[-122.412821,47.276154],[-122.412819,47.276334],[-122.412689,47.276333],[-122.412675,47.276267],[-122.412556,47.276242],[-122.412534,47.276168],[-122.412425,47.276152],[-122.412427,47.275972],[-122.412536,47.275957],[-122.41256,47.275883],[-122.412692,47.275883],[-122.412675,47.276118],[-122.412725,47.276151],[-122.412821,47.276154]]]}},{"type":"Feature","properties":{"id":18,"area_m2":700,"px":7,"rank":23},"geometry":{"type":"Polygon","coordinates":[[[-122.416292,47.273112],[-122.416289,47.273382],[-122.416025,47.273381],[-122.416003,47.273306],[-122.415894,47.27329],[-122.415895,47.2732],[-122.416004,47.273185],[-122.416028,47.273111],[-122.416292,47.273112]]]}},{"type":"Feature","properties":{"id":23,"area_m2":700,"px":7,"rank":24},"geometry":{"type":"Polygon","coordinates":[[[-122.408764,47.272444],[-122.408763,47.272534],[-122.408389,47.272547],[-122.408364,47.272711],[-122.4081,47.27271],[-122.408102,47.27253],[-122.408325,47.272525],[-122.408363,47.272493],[-122.408367,47.272442],[-122.408764,47.272444]]]}},{"type":"Feature","properties":{"id":26,"area_m2":700,"px":7,"rank":25},"geometry":{"type":"Polygon","coordinates":[[[-122.418949,47.271956],[-122.418947,47.272136],[-122.418815,47.272135],[-122.418753,47.272111],[-122.418683,47.272134],[-122.418419,47.272133],[-122.418421,47.271953],[-122.418949,47.271956]]]}},{"type":"Feature","properties":{"id":31,"area_m2":700,"px":7,"rank":26},"geometry":{"type":"Polygon","coordinates":[[[-122.411021,47.271555],[-122.41102,47.271645],[-122.410888,47.271645],[-122.410866,47.27157],[-122.410757,47.271554],[-122.410723,47.271473],[-122.410626,47.271463],[-122.410618,47.271312],[-122.410571,47.271285],[-122.410496,47.271283],[-122.410461,47.271202],[-122.410364,47.271192],[-122.410365,47.271102],[-122.410497,47.271103],[-122.41052,47.271177],[-122.410629,47.271193],[-122.410641,47.271259],[-122.41076,47.271284],[-122.410788,47.271362],[-122.410891,47.271375],[-122.410899,47.271526],[-122.410946,47.271553],[-122.411021,47.271555]]]}},{"type":"Feature","properties":{"id":48,"area_m2":700,"px":7,"rank":27},"geometry":{"type":"Polygon","coordinates":[[[-122.409865,47.26858],[-122.409864,47.26867],[-122.409335,47.268667],[-122.409312,47.268593],[-122.409204,47.268577],[-122.409205,47.268487],[-122.409314,47.268471],[-122.409338,47.268397],[-122.40947,47.268398],[-122.409503,47.268492],[-122.409733,47.268489],[-122.409756,47.268564],[-122.409865,47.26858]]]}},{"type":"Feature","properties":{"id":9,"area_m2":600,"px":6,"rank":28},"geometry":{"type":"Polygon","coordinates":[[[-122.410197,47.274341],[-122.410196,47.274431],[-122.409667,47.274428],[-122.409668,47.274338],[-122.409778,47.274323],[-122.409802,47.274249],[-122.410066,47.27425],[-122.410088,47.274324],[-122.410197,47.274341]]]}},{"type":"Feature","properties":{"id":29,"area_m2":600,"px":6,"rank":29},"geometry":{"type":"Polygon","coordinates":[[[-122.407188,47.271536],[-122.407185,47.271805],[-122.407075,47.271821],[-122.407051,47.271895],[-122.406919,47.271894],[-122.406921,47.271714],[-122.406957,47.271672],[-122.406922,47.271624],[-122.406923,47.271534],[-122.407188,47.271536]]]}},{"type":"Feature","properties":{"id":32,"area_m2":600,"px":6,"rank":30},"geometry":{"type":"Polygon","coordinates":[[[-122.405603,47.271348],[-122.405602,47.271437],[-122.405519,47.271441],[-122.405473,47.271475],[-122.405468,47.271617],[-122.405336,47.271616],[-122.405313,47.271542],[-122.405205,47.271525],[-122.405207,47.271345],[-122.405603,47.271348]]]}},{"type":"Feature","properties":{"id":43,"area_m2":600,"px":6,"rank":31},"geometry":{"type":"Polygon","coordinates":[[[-122.410909,47.269755],[-122.410908,47.269845],[-122.410379,47.269842],[-122.410357,47.269768],[-122.410248,47.269752],[-122.410249,47.269662],[-122.410513,47.269663],[-122.410522,47.269725],[-122.410576,47.269752],[-122.410909,47.269755]]]}},{"type":"Feature","properties":{"id":21,"area_m2":500,"px":5,"rank":32},"geometry":{"type":"Polygon","coordinates":[[[-122.413124,47.272736],[-122.413123,47.272826],[-122.412991,47.272825],[-122.412978,47.272759],[-122.412859,47.272735],[-122.412825,47.272654],[-122.412596,47.272643],[-122.412598,47.272463],[-122.41273,47.272464],[-122.412752,47.272538],[-122.412861,47.272555],[-122.412874,47.272621],[-122.412992,47.272645],[-122.413021,47.272723],[-122.413124,47.272736]]]}},{"type":"Feature","properties":{"id":24,"area_m2":500,"px":5,"rank":33},"geometry":{"type":"Polygon","coordinates":[[[-122.414978,47.272386],[-122.414975,47.272655],[-122.414711,47.272654],[-122.414713,47.272474],[-122.414822,47.272459],[-122.414846,47.272385],[-122.414978,47.272386]]]}},{"type":"Feature","properties":{"id":38,"area_m2":500,"px":5,"rank":34},"geometry":{"type":"Polygon","coordinates":[[[-122.405477,47.270807],[-122.405474,47.271077],[-122.40521,47.271075],[-122.405212,47.270896],[-122.405321,47.27088],[-122.405345,47.270806],[-122.405477,47.270807]]]}},{"type":"Feature","properties":{"id":4,"area_m2":400,"px":4,"rank":35},"geometry":{"type":"Polygon","coordinates":[[[-122.412429,47.275792],[-122.412428,47.275882],[-122.412319,47.275897],[-122.412294,47.275971],[-122.412162,47.27597],[-122.412197,47.275822],[-122.412142,47.275716],[-122.412033,47.2757],[-122.412034,47.27561],[-122.412166,47.275611],[-122.412189,47.275685],[-122.412297,47.275701],[-122.412332,47.275782],[-122.412429,47.275792]]]}},{"type":"Feature","properties":{"id":11,"area_m2":400,"px":4,"rank":36},"geometry":{"type":"Polygon","coordinates":[[[-122.409671,47.274068],[-122.409669,47.274248],[-122.409537,47.274247],[-122.409515,47.274173],[-122.409406,47.274157],[-122.409408,47.273977],[-122.40954,47.273977],[-122.409563,47.274052],[-122.409671,47.274068]]]}},{"type":"Feature","properties":{"id":12,"area_m2":400,"px":4,"rank":37},"geometry":{"type":"Polygon","coordinates":[[[-122.413907,47.27364],[-122.413905,47.27382],[-122.413641,47.273818],[-122.413643,47.273639],[-122.413907,47.27364]]]}},{"type":"Feature","properties":{"id":16,"area_m2":400,"px":4,"rank":38},"geometry":{"type":"Polygon","coordinates":[[[-122.408489,47.273342],[-122.408486,47.273612],[-122.408354,47.273611],[-122.408332,47.273537],[-122.408223,47.273521],[-122.408224,47.273431],[-122.408333,47.273415],[-122.408357,47.273341],[-122.408489,47.273342]]]}},{"type":"Feature","properties":{"id":39,"area_m2":400,"px":4,"rank":39},"geometry":{"type":"Polygon","coordinates":[[[-122.411567,47.270029],[-122.411565,47.270208],[-122.411169,47.270206],[-122.41117,47.270116],[-122.411378,47.270115],[-122.411428,47.270084],[-122.411435,47.270028],[-122.411567,47.270029]]]}},{"type":"Feature","properties":{"id":45,"area_m2":400,"px":4,"rank":40},"geometry":{"type":"Polygon","coordinates":[[[-122.40721,47.269556],[-122.407209,47.269646],[-122.406944,47.269645],[-122.406947,47.269375],[-122.407079,47.269376],[-122.407087,47.269527],[-122.407134,47.269553],[-122.40721,47.269556]]]}},{"type":"Feature","properties":{"id":46,"area_m2":400,"px":4,"rank":41},"geometry":{"type":"Polygon","coordinates":[[[-122.411838,47.2694],[-122.411836,47.26958],[-122.411704,47.269579],[-122.411682,47.269505],[-122.411573,47.269489],[-122.411539,47.269408],[-122.411442,47.269398],[-122.411443,47.269308],[-122.411575,47.269309],[-122.411581,47.269365],[-122.41163,47.269397],[-122.411838,47.2694]]]}},{"type":"Feature","properties":{"id":20,"area_m2":300,"px":3,"rank":42},"geometry":{"type":"Polygon","coordinates":[[[-122.408892,47.272804],[-122.40889,47.272984],[-122.408626,47.272983],[-122.408627,47.272893],[-122.408736,47.272878],[-122.40876,47.272804],[-122.408892,47.272804]]]}},{"type":"Feature","properties":{"id":22,"area_m2":300,"px":3,"rank":43},"geometry":{"type":"Polygon","coordinates":[[[-122.407175,47.272615],[-122.407173,47.272795],[-122.407041,47.272795],[-122.407019,47.27272],[-122.40691,47.272704],[-122.406911,47.272614],[-122.407175,47.272615]]]}},{"type":"Feature","properties":{"id":28,"area_m2":300,"px":3,"rank":44},"geometry":{"type":"Polygon","coordinates":[[[-122.408373,47.271902],[-122.408372,47.271992],[-122.40824,47.271991],[-122.408237,47.271939],[-122.408199,47.271907],[-122.407977,47.2719],[-122.407978,47.27181],[-122.408242,47.271811],[-122.408265,47.271885],[-122.408373,47.271902]]]}},{"type":"Feature","properties":{"id":30,"area_m2":300,"px":3,"rank":45},"geometry":{"type":"Polygon","coordinates":[[[-122.405996,47.271709],[-122.405995,47.271799],[-122.40573,47.271798],[-122.405733,47.271618],[-122.405865,47.271619],[-122.405887,47.271693],[-122.405996,47.271709]]]}},{"type":"Feature","properties":{"id":34,"area_m2":300,"px":3,"rank":46},"geometry":{"type":"Polygon","coordinates":[[[-122.408643,47.271453],[-122.408642,47.271543],[-122.408245,47.271541],[-122.408246,47.271451],[-122.408643,47.271453]]]}},{"type":"Feature","properties":{"id":35,"area_m2":300,"px":3,"rank":47},"geometry":{"type":"Polygon","coordinates":[[[-122.406134,47.27117],[-122.406133,47.27126],[-122.406024,47.271275],[-122.406,47.271349],[-122.405736,47.271348],[-122.405737,47.271258],[-122.405945,47.271257],[-122.405995,47.271226],[-122.406002,47.27117],[-122.406134,47.27117]]]}},{"type":"Feature","properties":{"id":41,"area_m2":300,"px":3,"rank":48},"geometry":{"type":"Polygon","coordinates":[[[-122.411038,47.270026],[-122.411037,47.270116],[-122.410773,47.270114],[-122.410775,47.269934],[-122.410907,47.269935],[-122.41093,47.270009],[-122.411038,47.270026]]]}},{"type":"Feature","properties":{"id":49,"area_m2":300,"px":3,"rank":49},"geometry":{"type":"Polygon","coordinates":[[[-122.40921,47.268037],[-122.409209,47.268127],[-122.409001,47.268128],[-122.40895,47.268159],[-122.408943,47.268215],[-122.408811,47.268215],[-122.408812,47.268125],[-122.408921,47.268109],[-122.408945,47.268035],[-122.40921,47.268037]]]}},{"type":"Feature","properties":{"id":50,"area_m2":300,"px":3,"rank":50},"geometry":{"type":"Polygon","coordinates":[[[-122.408949,47.267675],[-122.408947,47.267855],[-122.408683,47.267854],[-122.408684,47.267764],[-122.408793,47.267749],[-122.408817,47.267675],[-122.408949,47.267675]]]}}]}