{"type":"FeatureCollection","features":[{"type":"Feature","properties":{"id":1,"area_m2":8400,"px":84,"rank":1},"geometry":{"type":"Polygon","coordinates":[[[-122.414807,47.275894],[-122.414805,47.276074],[-122.414696,47.276089],[-122.414672,47.276163],[-122.414347,47.276162],[-122.414289,47.276185],[-122.414273,47.276431],[-122.414008,47.27643],[-122.413986,47.276356],[-122.413877,47.276339],[-122.413843,47.276258],[-122.413746,47.276248],[-122.413724,47.276084],[-122.413484,47.276067],[-122.413505,47.275943],[-122.413483,47.275904],[-122.413434,47.275887],[-122.413089,47.275885],[-122.413066,47.275811],[-122.412958,47.275794],[-122.412941,47.275634],[-122.412888,47.275614],[-122.412695,47.275613],[-122.412673,47.275539],[-122.412564,47.275523],[-122.412565,47.275433],[-122.412773,47.275431],[-122.412824,47.275401],[-122.41283,47.275344],[-122.412962,47.275345],[-122.412962,47.275476],[-122.41299,47.275513],[-122.413293,47.275525],[-122.413356,47.275483],[-122.413359,47.275347],[-122.413468,47.275331],[-122.413492,47.275257],[-122.413757,47.275259],[-122.413765,47.27541],[-122.413811,47.275437],[-122.413887,47.275439],[-122.4139,47.275702],[-122.41378,47.275713],[-122.413736,47.275743],[-122.413778,47.27589],[-122.413842,47.275902],[-122.413991,47.275874],[-122.414015,47.275836],[-122.414,47.275718],[-122.414125,47.275695],[-122.414151,47.275621],[-122.414414,47.275622],[-122.414436,47.275696],[-122.414545,47.275713],[-122.414558,47.275779],[-122.414676,47.275803],[-122.414704,47.275881],[-122.414807,47.275894]]]}},{"type":"Feature","properties":{"id":17,"area_m2":7500,"px":75,"rank":2},"geometry":{"type":"Polygon","coordinates":[[[-122.412323,47.273362],[-122.412322,47.273452],[-122.412213,47.273467],[-122.412189,47.273541],[-122.411972,47.273531],[-122.411928,47.273564],[-122.411924,47.27363],[-122.41166,47.273628],[-122.411657,47.273577],[-122.411618,47.273544],[-122.411396,47.273537],[-122.411374,47.273463],[-122.411265,47.273446],[-122.41123,47.273365],[-122.411134,47.273356],[-122.411112,47.273191],[-122.410871,47.273174],[-122.41085,47.27301],[-122.410741,47.272994],[-122.410736,47.272937],[-122.410693,47.272908],[-122.410478,47.272902],[-122.410455,47.272828],[-122.410346,47.272812],[-122.410312,47.272731],[-122.410215,47.272721],[-122.410208,47.27257],[-122.410161,47.272543],[-122.410085,47.27254],[-122.410051,47.272459],[-122.409954,47.27245],[-122.409955,47.27236],[-122.410219,47.272361],[-122.410228,47.272423],[-122.410282,47.27245],[-122.410747,47.272454],[-122.410746,47.272585],[-122.410774,47.272622],[-122.411009,47.272635],[-122.411015,47.272692],[-122.411065,47.272723],[-122.411273,47.272727],[-122.411251,47.272856],[-122.411292,47.2729],[-122.411535,47.272908],[-122.411514,47.273037],[-122.411541,47.273075],[-122.411798,47.273089],[-122.41181,47.273155],[-122.411929,47.27318],[-122.411957,47.273258],[-122.412192,47.273271],[-122.412215,47.273345],[-122.412323,47.273362]]]}},{"type":"Feature","properties":{"id":19,"area_m2":5000,"px":50,"rank":3},"geometry":{"type":"Polygon","coordinates":[[[-122.417091,47.272666],[-122.417088,47.272936],[-122.416956,47.272935],[-122.416943,47.272869],[-122.416824,47.272845],[-122.41679,47.272764],[-122.416561,47.272753],[-122.416539,47.272589],[-122.416299,47.272572],[-122.41629,47.272511],[-122.416236,47.272483],[-122.416035,47.272481],[-122.415965,47.272456],[-122.415903,47.27248],[-122.415555,47.272483],[-122.415512,47.272512],[-122.415505,47.272568],[-122.415422,47.272572],[-122.415379,47.272601],[-122.415371,47.272747],[-122.415239,47.272747],[-122.415242,47.272477],[-122.415351,47.272462],[-122.415375,47.272388],[-122.415494,47.272364],[-122.415508,47.272298],[-122.415745,47.2723],[-122.415773,47.272265],[-122.415775,47.27212],[-122.416004,47.272112],[-122.416039,47.272072],[-122.416041,47.271941],[-122.416173,47.271942],[-122.416173,47.272092],[-122.416218,47.272131],[-122.416436,47.272123],[-122.416505,47.272147],[-122.416568,47.272124],[-122.4167,47.272124],[-122.416699,47.272214],[-122.416663,47.272262],[-122.416707,47.272366],[-122.416753,47.272392],[-122.416829,47.272395],[-122.416864,47.272476],[-122.41696,47.272486],[-122.416968,47.272637],[-122.417015,47.272664],[-122.417091,47.272666]]]}},{"type":"Feature","properties":{"id":16,"area_m2":4800,"px":48,"rank":4},"geometry":{"type":"Polygon","coordinates":[[[-122.411262,47.273716],[-122.411261,47.273806],[-122.411129,47.273805],[-122.4111,47.273728],[-122.410865,47.273714],[-122.41086,47.273658],[-122.410817,47.273628],[-122.41047,47.273622],[-122.410452,47.273552],[-122.410338,47.273531],[-122.410304,47.27345],[-122.410207,47.273441],[-122.410179,47.273363],[-122.410076,47.27335],[-122.410048,47.273272],[-122.409813,47.273259],[-122.409805,47.273107],[-122.409758,47.273081],[-122.409682,47.273078],[-122.409685,47.272808],[-122.40995,47.27281],[-122.409953,47.272861],[-122.409991,47.272893],[-122.410213,47.272901],[-122.41023,47.272971],[-122.410344,47.272992],[-122.410379,47.273073],[-122.410476,47.273082],[-122.410504,47.27316],[-122.410607,47.273173],[-122.410635,47.273251],[-122.41087,47.273264],[-122.410893,47.273339],[-122.411001,47.273355],[-122.411036,47.273436],[-122.411133,47.273446],[-122.411133,47.273677],[-122.411179,47.273712],[-122.411262,47.273716]]]}},{"type":"Feature","properties":{"id":9,"area_m2":4400,"px":44,"rank":5},"geometry":{"type":"Polygon","coordinates":[[[-122.415221,47.274366],[-122.415219,47.274546],[-122.41511,47.274562],[-122.415086,47.274636],[-122.414822,47.274634],[-122.414819,47.274583],[-122.41478,47.27455],[-122.414558,47.274543],[-122.414546,47.274387],[-122.414428,47.274362],[-122.414422,47.274306],[-122.41438,47.274276],[-122.414164,47.274271],[-122.414165,47.27414],[-122.414137,47.274103],[-122.413902,47.27409],[-122.413897,47.27402],[-122.413849,47.273988],[-122.413639,47.273998],[-122.413631,47.273847],[-122.413584,47.27382],[-122.413508,47.273818],[-122.413474,47.273737],[-122.413377,47.273727],[-122.413369,47.273576],[-122.413323,47.273549],[-122.413247,47.273546],[-122.413231,47.273386],[-122.413117,47.273366],[-122.413119,47.273186],[-122.413251,47.273187],[-122.413273,47.273261],[-122.413382,47.273277],[-122.413416,47.273358],[-122.413513,47.273368],[-122.413518,47.273515],[-122.41356,47.273544],[-122.413643,47.273549],[-122.413648,47.273695],[-122.413691,47.273725],[-122.413774,47.273729],[-122.413796,47.273803],[-122.413967,47.273844],[-122.414037,47.273821],[-122.414169,47.273821],[-122.414192,47.273895],[-122.4143,47.273912],[-122.414318,47.273982],[-122.414432,47.274002],[-122.414466,47.274083],[-122.414563,47.274093],[-122.414591,47.274171],[-122.414694,47.274184],[-122.414722,47.274262],[-122.414825,47.274274],[-122.414824,47.274406],[-122.414853,47.274442],[-122.415032,47.274453],[-122.415082,47.274422],[-122.415089,47.274366],[-122.415221,47.274366]]]}},{"type":"Feature","properties":{"id":5,"area_m2":4100,"px":41,"rank":6},"geometry":{"type":"Polygon","coordinates":[[[-122.414162,47.274451],[-122.41416,47.274631],[-122.413925,47.274642],[-122.413895,47.274719],[-122.413798,47.274728],[-122.413762,47.274809],[-122.413686,47.274811],[-122.413639,47.274837],[-122.413628,47.274988],[-122.413495,47.274987],[-122.413473,47.274913],[-122.413364,47.274897],[-122.41333,47.274816],[-122.413233,47.274806],[-122.413214,47.274539],[-122.413159,47.274522],[-122.412972,47.274535],[-122.412969,47.274483],[-122.412931,47.274451],[-122.412708,47.274443],[-122.412714,47.273904],[-122.412846,47.273904],[-122.412852,47.273961],[-122.412902,47.273992],[-122.41311,47.273996],[-122.413113,47.274232],[-122.413156,47.274262],[-122.413239,47.274266],[-122.413243,47.274413],[-122.413286,47.274442],[-122.413369,47.274447],[-122.413372,47.274512],[-122.413408,47.274544],[-122.413731,47.274543],[-122.413765,47.274504],[-122.413767,47.274359],[-122.414031,47.27436],[-122.414054,47.274435],[-122.414162,47.274451]]]}},{"type":"Feature","properties":{"id":15,"area_m2":3900,"px":39,"rank":7},"geometry":{"type":"Polygon","coordinates":[[[-122.418936,47.273216],[-122.418934,47.273395],[-122.418824,47.273411],[-122.4188,47.273485],[-122.418559,47.273499],[-122.418535,47.273573],[-122.418459,47.273575],[-122.418412,47.273601],[-122.418401,47.273753],[-122.418292,47.273768],[-122.418268,47.273842],[-122.417739,47.273839],[-122.417741,47.273659],[-122.417817,47.273657],[-122.417864,47.273631],[-122.417875,47.27348],[-122.417996,47.27347],[-122.418077,47.273505],[-122.418152,47.273468],[-122.418133,47.273404],[-122.418008,47.273391],[-122.41801,47.273211],[-122.418252,47.273196],[-122.418277,47.273032],[-122.418409,47.273033],[-122.418414,47.273103],[-122.418469,47.273136],[-122.418804,47.273125],[-122.418827,47.273199],[-122.418936,47.273216]]]}},{"type":"Feature","properties":{"id":28,"area_m2":3900,"px":39,"rank":8},"geometry":{"type":"Polygon","coordinates":[[[-122.407335,47.269918],[-122.407302,47.269964],[-122.407337,47.270007],[-122.407336,47.270097],[-122.406869,47.270082],[-122.406813,47.270114],[-122.406806,47.270184],[-122.406674,47.270183],[-122.406658,47.270023],[-122.406544,47.270003],[-122.406538,47.269946],[-122.406496,47.269916],[-122.40628,47.269911],[-122.406258,47.269837],[-122.406149,47.26982],[-122.406115,47.269739],[-122.406018,47.26973],[-122.406019,47.26964],[-122.406128,47.269625],[-122.406152,47.269551],[-122.406271,47.269527],[-122.406285,47.269461],[-122.40655,47.269463],[-122.406552,47.269528],[-122.406596,47.269562],[-122.406813,47.269554],[-122.406816,47.269606],[-122.406854,47.269638],[-122.407076,47.269645],[-122.407099,47.26972],[-122.407208,47.269736],[-122.407242,47.269817],[-122.407339,47.269827],[-122.407335,47.269918]]]}},{"type":"Feature","properties":{"id":13,"area_m2":2400,"px":24,"rank":9},"geometry":{"type":"Polygon","coordinates":[[[-122.419329,47.273488],[-122.419328,47.273577],[-122.419245,47.273581],[-122.419199,47.273615],[-122.419194,47.273757],[-122.419111,47.27376],[-122.419065,47.273794],[-122.419059,47.274026],[-122.41895,47.274041],[-122.418926,47.274115],[-122.418703,47.274121],[-122.418664,47.274152],[-122.418658,47.274204],[-122.418528,47.274203],[-122.418523,47.274133],[-122.418475,47.274102],[-122.418265,47.274112],[-122.418266,47.274022],[-122.418375,47.274007],[-122.418399,47.273933],[-122.418502,47.273921],[-122.418532,47.273843],[-122.418635,47.273832],[-122.418665,47.273754],[-122.418769,47.273742],[-122.418799,47.273665],[-122.418896,47.273656],[-122.418932,47.273575],[-122.419046,47.273556],[-122.419065,47.273486],[-122.419329,47.273488]]]}},{"type":"Feature","properties":{"id":23,"area_m2":1900,"px":19,"rank":10},"geometry":{"type":"Polygon","coordinates":[[[-122.417495,47.271948],[-122.417494,47.272038],[-122.41723,47.272037],[-122.417217,47.271971],[-122.417099,47.271946],[-122.417093,47.27189],[-122.417043,47.271858],[-122.416835,47.271855],[-122.416773,47.271831],[-122.416703,47.271854],[-122.416439,47.271853],[-122.416441,47.271673],[-122.416663,47.271668],[-122.416702,47.271636],[-122.416706,47.271585],[-122.416825,47.271561],[-122.416839,47.271495],[-122.416971,47.271496],[-122.416994,47.27157],[-122.417102,47.271587],[-122.417137,47.271668],[-122.417234,47.271677],[-122.41725,47.271837],[-122.417364,47.271858],[-122.417398,47.271939],[-122.417495,47.271948]]]}},{"type":"Feature","properties":{"id":11,"area_m2":1600,"px":16,"rank":11},"geometry":{"type":"Polygon","coordinates":[[[-122.410992,47.274165],[-122.41099,47.274345],[-122.410726,47.274343],[-122.410723,47.274292],[-122.410685,47.27426],[-122.410463,47.274252],[-122.410452,47.274083],[-122.410388,47.274058],[-122.4102,47.274071],[-122.410201,47.273981],[-122.41031,47.273965],[-122.410334,47.273891],[-122.410454,47.273868],[-122.410468,47.273802],[-122.4106,47.273803],[-122.410616,47.273963],[-122.410669,47.273983],[-122.410862,47.273984],[-122.41087,47.274136],[-122.410917,47.274162],[-122.410992,47.274165]]]}},{"type":"Feature","properties":{"id":7,"area_m2":1400,"px":14,"rank":12},"geometry":{"type":"Polygon","coordinates":[[[-122.412838,47.274624],[-122.412835,47.274894],[-122.412439,47.274892],[-122.412416,47.274818],[-122.412308,47.274801],[-122.412273,47.27472],[-122.412176,47.274711],[-122.412178,47.274531],[-122.412443,47.274532],[-122.412505,47.274557],[-122.412575,47.274533],[-122.412707,47.274534],[-122.41273,47.274608],[-122.412838,47.274624]]]}},{"type":"Feature","properties":{"id":2,"area_m2":1200,"px":12,"rank":13},"geometry":{"type":"Polygon","coordinates":[[[-122.414813,47.275354],[-122.414812,47.275444],[-122.414284,47.275441],[-122.414288,47.275082],[-122.414552,47.275083],[-122.414574,47.275157],[-122.414683,47.275174],[-122.414695,47.27533],[-122.414813,47.275354]]]}},{"type":"Feature","properties":{"id":26,"area_m2":1200,"px":12,"rank":14},"geometry":{"type":"Polygon","coordinates":[[[-122.408655,47.270373],[-122.408653,47.270553],[-122.408577,47.270555],[-122.40853,47.270581],[-122.408519,47.270733],[-122.408254,47.270731],[-122.408256,47.270551],[-122.408292,47.270504],[-122.408257,47.270461],[-122.408257,47.270325],[-122.408217,47.270288],[-122.408127,47.270281],[-122.408128,47.270191],[-122.40826,47.270191],[-122.408266,47.270248],[-122.408316,47.270279],[-122.408524,47.270283],[-122.408546,47.270357],[-122.408655,47.270373]]]}},{"type":"Feature","properties":{"id":27,"area_m2":1200,"px":12,"rank":15},"geometry":{"type":"Polygon","coordinates":[[[-122.407996,47.27019],[-122.407994,47.27037],[-122.407918,47.270372],[-122.407871,47.270398],[-122.40786,47.270549],[-122.407595,47.270548],[-122.407588,47.270396],[-122.407541,47.27037],[-122.407465,47.270367],[-122.407467,47.270187],[-122.407684,47.270198],[-122.407728,47.270164],[-122.407734,47.270099],[-122.407865,47.270099],[-122.407887,47.270174],[-122.407996,47.27019]]]}},{"type":"Feature","properties":{"id":18,"area_m2":1100,"px":11,"rank":16},"geometry":{"type":"Polygon","coordinates":[[[-122.415895,47.2732],[-122.415894,47.27329],[-122.41563,47.273289],[-122.415607,47.273214],[-122.415498,47.273198],[-122.415486,47.273132],[-122.415367,47.273107],[-122.415339,47.273029],[-122.415236,47.273017],[-122.415238,47.272837],[-122.415502,47.272838],[-122.415519,47.272998],[-122.415572,47.273018],[-122.415765,47.273019],[-122.415772,47.273171],[-122.415819,47.273197],[-122.415895,47.2732]]]}},{"type":"Feature","properties":{"id":3,"area_m2":900,"px":9,"rank":17},"geometry":{"type":"Polygon","coordinates":[[[-122.413494,47.275078],[-122.413493,47.275167],[-122.413285,47.275169],[-122.413235,47.275199],[-122.413228,47.275256],[-122.413096,47.275255],[-122.413073,47.275181],[-122.412965,47.275165],[-122.412968,47.274895],[-122.413232,47.274896],[-122.413253,47.27506],[-122.413494,47.275078]]]}},{"type":"Feature","properties":{"id":6,"area_m2":800,"px":8,"rank":18},"geometry":{"type":"Polygon","coordinates":[[[-122.414688,47.274724],[-122.414686,47.274904],[-122.41429,47.274901],[-122.414267,47.274827],[-122.414159,47.274811],[-122.414159,47.274721],[-122.414382,47.274716],[-122.414421,47.274684],[-122.414425,47.274632],[-122.414557,47.274633],[-122.414579,47.274707],[-122.414688,47.274724]]]}},{"type":"Feature","properties":{"id":12,"area_m2":800,"px":8,"rank":19},"geometry":{"type":"Polygon","coordinates":[[[-122.409539,47.274067],[-122.409537,47.274247],[-122.409405,47.274247],[-122.409384,47.274082],[-122.409275,47.274066],[-122.409269,47.274009],[-122.409227,47.27398],[-122.409011,47.273975],[-122.409013,47.273795],[-122.409278,47.273796],[-122.4093,47.27387],[-122.409409,47.273887],[-122.409421,47.274043],[-122.409539,47.274067]]]}},{"type":"Feature","properties":{"id":4,"area_m2":700,"px":7,"rank":20},"geometry":{"type":"Polygon","coordinates":[[[-122.411379,47.275067],[-122.411377,47.275246],[-122.410981,47.275244],[-122.410958,47.27517],[-122.410849,47.275154],[-122.41085,47.275064],[-122.411067,47.275074],[-122.411112,47.27504],[-122.411116,47.274975],[-122.411248,47.274976],[-122.41127,47.27505],[-122.411379,47.275067]]]}},{"type":"Feature","properties":{"id":25,"area_m2":700,"px":7,"rank":21},"geometry":{"type":"Polygon","coordinates":[[[-122.406665,47.270993],[-122.406663,47.271173],[-122.406455,47.271174],[-122.406404,47.271205],[-122.406397,47.271262],[-122.406265,47.271261],[-122.406268,47.270991],[-122.406665,47.270993]]]}},{"type":"Feature","properties":{"id":30,"area_m2":600,"px":6,"rank":22},"geometry":{"type":"Polygon","coordinates":[[[-122.410391,47.268763],[-122.41039,47.268853],[-122.410198,47.268852],[-122.410144,47.268871],[-122.410124,47.269031],[-122.410015,47.269046],[-122.409991,47.26912],[-122.409859,47.26912],[-122.409861,47.26894],[-122.40997,47.268925],[-122.409994,47.268851],[-122.410113,47.268827],[-122.410127,47.268761],[-122.410391,47.268763]]]}},{"type":"Feature","properties":{"id":20,"area_m2":500,"px":5,"rank":23},"geometry":{"type":"Polygon","coordinates":[[[-122.408365,47.272622],[-122.408363,47.272801],[-122.408231,47.272801],[-122.408209,47.272727],[-122.4081,47.27271],[-122.408066,47.272629],[-122.407969,47.272619],[-122.407971,47.27244],[-122.408103,47.27244],[-122.408102,47.272571],[-122.408136,47.272611],[-122.408365,47.272622]]]}},{"type":"Feature","properties":{"id":21,"area_m2":500,"px":5,"rank":24},"geometry":{"type":"Polygon","coordinates":[[[-122.414977,47.272476],[-122.414974,47.272745],[-122.414842,47.272745],[-122.41482,47.27267],[-122.414711,47.272654],[-122.414713,47.272474],[-122.414977,47.272476]]]}},{"type":"Feature","properties":{"id":24,"area_m2":500,"px":5,"rank":25},"geometry":{"type":"Polygon","coordinates":[[[-122.406134,47.27117],[-122.406132,47.27135],[-122.405868,47.271349],[-122.405845,47.271275],[-122.405737,47.271258],[-122.405738,47.271168],[-122.406134,47.27117]]]}},{"type":"Feature","properties":{"id":8,"area_m2":400,"px":4,"rank":26},"geometry":{"type":"Polygon","coordinates":[[[-122.411646,47.274798],[-122.411645,47.274888],[-122.411249,47.274886],[-122.41125,47.274796],[-122.411359,47.274781],[-122.411383,47.274707],[-122.411515,47.274707],[-122.411538,47.274782],[-122.411646,47.274798]]]}},{"type":"Feature","properties":{"id":14,"area_m2":400,"px":4,"rank":27},"geometry":{"type":"Polygon","coordinates":[[[-122.412318,47.273812],[-122.412316,47.273992],[-122.412207,47.274007],[-122.412183,47.274081],[-122.412051,47.27408],[-122.412053,47.2739],[-122.412162,47.273885],[-122.412186,47.273811],[-122.412318,47.273812]]]}},{"type":"Feature","properties":{"id":31,"area_m2":400,"px":4,"rank":28},"geometry":{"type":"Polygon","coordinates":[[[-122.409865,47.26858],[-122.409863,47.26876],[-122.409598,47.268759],[-122.4096,47.268579],[-122.409865,47.26858]]]}},{"type":"Feature","properties":{"id":10,"area_m2":300,"px":3,"rank":29},"geometry":{"type":"Polygon","coordinates":[[[-122.41218,47.274351],[-122.412179,47.274441],[-122.41207,47.274456],[-122.412046,47.27453],[-122.411914,47.274529],[-122.411916,47.27435],[-122.41218,47.274351]]]}},{"type":"Feature","properties":{"id":22,"area_m2":300,"px":3,"rank":30},"geometry":{"type":"Polygon","coordinates":[[[-122.418816,47.272045],[-122.418815,47.272135],[-122.418706,47.27215],[-122.418682,47.272224],[-122.41855,47.272224],[-122.418552,47.272044],[-122.418816,47.272045]]]}},{"type":"Feature","properties":{"id":29,"area_m2":300,"px":3,"rank":31},"geometry":{"type":"Polygon","coordinates":[[[-122.404301,47.269541],[-122.4043,47.269631],[-122.404191,47.269646],[-122.404167,47.26972],[-122.404035,47.26972],[-122.404037,47.26954],[-122.404301,47.269541]]]}}]}