{"type":"FeatureCollection","features":[{"type":"Feature","properties":{"id":25,"area_m2":8400,"px":84,"rank":1},"geometry":{"type":"Polygon","coordinates":[[[-122.417621,47.272489],[-122.417619,47.272669],[-122.417355,47.272668],[-122.417342,47.272602],[-122.417277,47.272577],[-122.417127,47.272586],[-122.417091,47.272666],[-122.416959,47.272665],[-122.416942,47.272505],[-122.416889,47.272485],[-122.416696,47.272484],[-122.416701,47.272325],[-122.416481,47.272294],[-122.416439,47.272323],[-122.416433,47.272393],[-122.416398,47.27243],[-122.416432,47.272483],[-122.416431,47.272573],[-122.416209,47.272573],[-122.416147,47.272616],[-122.41617,47.272808],[-122.416212,47.272838],[-122.416295,47.272842],[-122.416293,47.273022],[-122.416029,47.273021],[-122.416007,47.272946],[-122.415898,47.27293],[-122.415881,47.27286],[-122.415767,47.272839],[-122.415732,47.272758],[-122.415636,47.272749],[-122.415607,47.272671],[-122.415504,47.272658],[-122.415476,47.27258],[-122.415373,47.272567],[-122.415375,47.272388],[-122.415639,47.272389],[-122.415709,47.272413],[-122.415772,47.27239],[-122.416001,47.272382],[-122.416037,47.272301],[-122.416156,47.272278],[-122.416204,47.27218],[-122.416171,47.272122],[-122.416174,47.271852],[-122.416283,47.271836],[-122.416307,47.271762],[-122.416704,47.271764],[-122.416726,47.271839],[-122.416835,47.271855],[-122.41687,47.271936],[-122.416966,47.271946],[-122.416983,47.272106],[-122.417097,47.272126],[-122.417102,47.272183],[-122.417145,47.272212],[-122.41736,47.272218],[-122.417372,47.272374],[-122.41749,47.272398],[-122.417525,47.272479],[-122.417621,47.272489]]]}},{"type":"Feature","properties":{"id":7,"area_m2":6600,"px":66,"rank":2},"geometry":{"type":"Polygon","coordinates":[[[-122.414814,47.275264],[-122.414812,47.275444],[-122.414152,47.275441],[-122.414129,47.275366],[-122.41402,47.27535],[-122.414021,47.27526],[-122.414057,47.275218],[-122.414037,47.275179],[-122.41396,47.275146],[-122.41389,47.275169],[-122.413626,47.275168],[-122.41361,47.274918],[-122.413496,47.274897],[-122.413484,47.274831],[-122.413365,47.274807],[-122.413362,47.274755],[-122.413324,47.274723],[-122.413102,47.274715],[-122.413103,47.274584],[-122.413075,47.274548],[-122.412839,47.274534],[-122.412817,47.27446],[-122.412708,47.274443],[-122.412674,47.274362],[-122.412577,47.274353],[-122.412579,47.274173],[-122.412688,47.274158],[-122.412712,47.274084],[-122.412948,47.274073],[-122.412977,47.274036],[-122.412979,47.273905],[-122.413111,47.273906],[-122.413109,47.274086],[-122.413033,47.274088],[-122.412986,47.274114],[-122.412993,47.274245],[-122.413046,47.274265],[-122.413239,47.274266],[-122.413241,47.274408],[-122.413316,47.274447],[-122.413472,47.274435],[-122.413502,47.274399],[-122.413503,47.274268],[-122.413635,47.274268],[-122.413633,47.274448],[-122.413558,47.27445],[-122.41351,47.274476],[-122.413518,47.274608],[-122.413571,47.274628],[-122.413764,47.274629],[-122.413786,47.274703],[-122.413895,47.27472],[-122.413929,47.274801],[-122.414026,47.27481],[-122.414031,47.274957],[-122.414073,47.274986],[-122.414156,47.274991],[-122.414191,47.275072],[-122.41442,47.275082],[-122.414454,47.275163],[-122.414683,47.275174],[-122.414706,47.275248],[-122.414814,47.275264]]]}},{"type":"Feature","properties":{"id":1,"area_m2":6000,"px":60,"rank":3},"geometry":{"type":"Polygon","coordinates":[[[-122.415064,47.276615],[-122.415061,47.276885],[-122.414665,47.276883],[-122.414665,47.276752],[-122.414631,47.276712],[-122.414472,47.276678],[-122.414402,47.276702],[-122.41427,47.276701],[-122.414249,47.276447],[-122.414008,47.27643],[-122.414008,47.276293],[-122.413961,47.276254],[-122.413614,47.276248],[-122.413592,47.276084],[-122.413351,47.276066],[-122.413347,47.27592],[-122.413304,47.27589],[-122.413221,47.275886],[-122.413187,47.275805],[-122.412958,47.275794],[-122.412979,47.275665],[-122.412945,47.275624],[-122.412563,47.275613],[-122.412542,47.275448],[-122.412301,47.275431],[-122.412303,47.275251],[-122.412412,47.275236],[-122.412436,47.275162],[-122.412568,47.275163],[-122.412585,47.275233],[-122.412699,47.275253],[-122.412712,47.275319],[-122.41283,47.275344],[-122.412865,47.275425],[-122.413094,47.275435],[-122.413099,47.275492],[-122.413149,47.275523],[-122.413357,47.275527],[-122.413373,47.2757],[-122.413432,47.275721],[-122.41362,47.275708],[-122.413642,47.275782],[-122.413751,47.275799],[-122.413762,47.276045],[-122.413819,47.276069],[-122.414012,47.27607],[-122.41402,47.276221],[-122.414067,47.276248],[-122.414142,47.276251],[-122.414177,47.276332],[-122.414274,47.276341],[-122.414296,47.276415],[-122.414537,47.276433],[-122.414542,47.276503],[-122.414598,47.276535],[-122.414933,47.276525],[-122.414955,47.276599],[-122.415064,47.276615]]]}},{"type":"Feature","properties":{"id":37,"area_m2":5300,"px":53,"rank":4},"geometry":{"type":"Polygon","coordinates":[[[-122.40852,47.270643],[-122.408519,47.270733],[-122.408254,47.270731],[-122.408249,47.270675],[-122.408199,47.270643],[-122.407859,47.270639],[-122.40785,47.270578],[-122.407796,47.27055],[-122.407463,47.270547],[-122.407441,47.270473],[-122.407332,47.270457],[-122.407332,47.27032],[-122.40727,47.270277],[-122.407118,47.27028],[-122.407075,47.270309],[-122.407068,47.270365],[-122.406936,47.270364],[-122.406914,47.27029],[-122.406805,47.270274],[-122.406771,47.270193],[-122.406674,47.270183],[-122.406658,47.270023],[-122.406544,47.270003],[-122.406545,47.269913],[-122.406628,47.269909],[-122.406674,47.269875],[-122.406679,47.269733],[-122.407075,47.269735],[-122.407074,47.269825],[-122.406978,47.269827],[-122.406927,47.269859],[-122.406954,47.269981],[-122.407012,47.270005],[-122.407469,47.270007],[-122.407447,47.270137],[-122.407495,47.270183],[-122.407661,47.270212],[-122.407732,47.270189],[-122.408128,47.270191],[-122.40814,47.270347],[-122.408258,47.270371],[-122.408293,47.270452],[-122.408389,47.270462],[-122.408397,47.270613],[-122.408444,47.27064],[-122.40852,47.270643]]]}},{"type":"Feature","properties":{"id":18,"area_m2":4900,"px":49,"rank":5},"geometry":{"type":"Polygon","coordinates":[[[-122.412058,47.27345],[-122.412056,47.27363],[-122.41166,47.273628],[-122.411643,47.273468],[-122.411529,47.273448],[-122.411526,47.273396],[-122.411488,47.273364],[-122.411266,47.273356],[-122.411243,47.273282],[-122.411135,47.273266],[-122.411127,47.273114],[-122.41108,47.273088],[-122.411005,47.273085],[-122.41097,47.273004],[-122.410873,47.272994],[-122.410846,47.272903],[-122.41079,47.27289],[-122.410659,47.272907],[-122.410615,47.272936],[-122.410609,47.272993],[-122.410477,47.272992],[-122.410473,47.272756],[-122.410431,47.272726],[-122.410347,47.272722],[-122.410313,47.272641],[-122.410216,47.272631],[-122.410217,47.272541],[-122.410326,47.272526],[-122.410352,47.272452],[-122.410483,47.272453],[-122.410488,47.272509],[-122.410538,47.27254],[-122.410878,47.272545],[-122.410901,47.272619],[-122.411009,47.272635],[-122.411021,47.272791],[-122.41114,47.272816],[-122.411174,47.272897],[-122.411271,47.272906],[-122.411299,47.272984],[-122.411534,47.272998],[-122.41154,47.273054],[-122.41159,47.273086],[-122.411798,47.273089],[-122.411804,47.273331],[-122.411851,47.273357],[-122.411927,47.27336],[-122.411961,47.273441],[-122.412058,47.27345]]]}},{"type":"Feature","properties":{"id":39,"area_m2":4000,"px":40,"rank":6},"geometry":{"type":"Polygon","coordinates":[[[-122.41408,47.269951],[-122.414079,47.270041],[-122.413871,47.270043],[-122.41382,47.270073],[-122.413813,47.27013],[-122.413681,47.270129],[-122.413659,47.270055],[-122.41355,47.270039],[-122.413529,47.269874],[-122.41342,47.269858],[-122.413414,47.269801],[-122.413372,47.269772],[-122.413157,47.269767],[-122.413134,47.269692],[-122.413025,47.269676],[-122.412991,47.269595],[-122.412894,47.269585],[-122.412896,47.269269],[-122.412856,47.269232],[-122.412766,47.269223],[-122.412767,47.269135],[-122.412876,47.26912],[-122.4129,47.269046],[-122.413032,47.269046],[-122.413055,47.26912],[-122.413163,47.269137],[-122.413176,47.269203],[-122.413295,47.269228],[-122.413323,47.269305],[-122.413426,47.269318],[-122.413442,47.269478],[-122.413556,47.269499],[-122.41359,47.26958],[-122.413687,47.269589],[-122.413715,47.269667],[-122.413818,47.26968],[-122.413834,47.26993],[-122.413887,47.26995],[-122.41408,47.269951]]]}},{"type":"Feature","properties":{"id":15,"area_m2":3000,"px":30,"rank":7},"geometry":{"type":"Polygon","coordinates":[[[-122.414168,47.273911],[-122.414167,47.274001],[-122.413771,47.273999],[-122.413748,47.273925],[-122.41364,47.273908],[-122.413618,47.273744],[-122.413377,47.273727],[-122.413378,47.273596],[-122.413344,47.273556],[-122.413185,47.273522],[-122.413115,47.273546],[-122.41285,47.273544],[-122.412853,47.273275],[-122.412962,47.273259],[-122.412987,47.273185],[-122.413251,47.273187],[-122.413268,47.273257],[-122.413382,47.273277],[-122.413416,47.273358],[-122.413513,47.273368],[-122.413541,47.273446],[-122.413777,47.273459],[-122.413776,47.273686],[-122.413816,47.273723],[-122.413906,47.27373],[-122.413922,47.27389],[-122.413975,47.27391],[-122.414168,47.273911]]]}},{"type":"Feature","properties":{"id":38,"area_m2":2900,"px":29,"rank":8},"geometry":{"type":"Polygon","coordinates":[[[-122.40655,47.269463],[-122.406546,47.269823],[-122.406462,47.269826],[-122.406417,47.26986],[-122.40641,47.270092],[-122.406291,47.270115],[-122.406276,47.270271],[-122.406167,47.270286],[-122.406143,47.27036],[-122.405879,47.270359],[-122.40588,47.270269],[-122.405916,47.270222],[-122.405881,47.270179],[-122.405881,47.270043],[-122.405841,47.270005],[-122.405751,47.269998],[-122.405753,47.269819],[-122.406003,47.26981],[-122.406038,47.26977],[-122.406019,47.26964],[-122.406128,47.269625],[-122.406152,47.269551],[-122.40636,47.269549],[-122.406411,47.269519],[-122.406418,47.269462],[-122.40655,47.269463]],[[-122.406151,47.269909],[-122.406183,47.269874],[-122.406169,47.269833],[-122.406109,47.269807],[-122.406045,47.269819],[-122.406017,47.269855],[-122.406033,47.269903],[-122.406093,47.269924],[-122.406151,47.269909]]]}},{"type":"Feature","properties":{"id":22,"area_m2":1700,"px":17,"rank":9},"geometry":{"type":"Polygon","coordinates":[[[-122.416028,47.273111],[-122.416026,47.273291],[-122.41563,47.273289],[-122.415607,47.273214],[-122.415498,47.273198],[-122.415486,47.273132],[-122.415367,47.273107],[-122.415339,47.273029],[-122.415236,47.273017],[-122.415239,47.272747],[-122.415503,47.272748],[-122.415525,47.272912],[-122.415633,47.272929],[-122.415646,47.272995],[-122.415765,47.273019],[-122.415768,47.273071],[-122.415806,47.273103],[-122.416028,47.273111]]]}},{"type":"Feature","properties":{"id":12,"area_m2":1600,"px":16,"rank":10},"geometry":{"type":"Polygon","coordinates":[[[-122.41522,47.274456],[-122.415219,47.274546],[-122.41511,47.274562],[-122.415086,47.274636],[-122.414822,47.274634],[-122.414799,47.27456],[-122.41469,47.274544],[-122.414678,47.274478],[-122.414559,47.274453],[-122.414531,47.274375],[-122.414428,47.274362],[-122.414412,47.274202],[-122.414358,47.274182],[-122.414165,47.274181],[-122.414166,47.274091],[-122.414431,47.274092],[-122.414434,47.274144],[-122.414472,47.274176],[-122.414694,47.274184],[-122.414693,47.274315],[-122.414721,47.274352],[-122.415089,47.274366],[-122.415111,47.27444],[-122.41522,47.274456]]]}},{"type":"Feature","properties":{"id":14,"area_m2":1600,"px":16,"rank":11},"geometry":{"type":"Polygon","coordinates":[[[-122.411392,47.273897],[-122.41139,47.274077],[-122.411258,47.274076],[-122.411241,47.274006],[-122.411127,47.273985],[-122.411092,47.273904],[-122.410996,47.273895],[-122.410967,47.273817],[-122.410864,47.273804],[-122.410836,47.273726],[-122.410601,47.273713],[-122.410602,47.273582],[-122.410574,47.273545],[-122.410338,47.273531],[-122.410339,47.273442],[-122.410423,47.273438],[-122.410469,47.273404],[-122.410474,47.273262],[-122.410606,47.273263],[-122.410608,47.273405],[-122.410653,47.273439],[-122.410736,47.273444],[-122.410757,47.273608],[-122.410998,47.273625],[-122.411021,47.273699],[-122.41113,47.273716],[-122.411142,47.273782],[-122.411261,47.273806],[-122.411289,47.273884],[-122.411392,47.273897]]]}},{"type":"Feature","properties":{"id":44,"area_m2":1400,"px":14,"rank":12},"geometry":{"type":"Polygon","coordinates":[[[-122.410655,47.268854],[-122.410654,47.268944],[-122.410522,47.268943],[-122.410509,47.268877],[-122.410443,47.268853],[-122.410293,47.268861],[-122.410257,47.268942],[-122.410125,47.268941],[-122.410126,47.268851],[-122.410162,47.268804],[-122.410099,47.268683],[-122.409925,47.268658],[-122.409869,47.26869],[-122.409863,47.26876],[-122.409598,47.268759],[-122.409587,47.268603],[-122.409529,47.268579],[-122.409336,47.268577],[-122.409337,47.268487],[-122.409601,47.268489],[-122.409614,47.268555],[-122.40968,47.268579],[-122.409829,47.268571],[-122.409866,47.26849],[-122.409998,47.268491],[-122.41001,47.268557],[-122.410129,47.268581],[-122.410157,47.268659],[-122.410392,47.268673],[-122.410415,47.268747],[-122.410523,47.268763],[-122.410558,47.268844],[-122.410655,47.268854]]]}},{"type":"Feature","properties":{"id":3,"area_m2":1200,"px":12,"rank":13},"geometry":{"type":"Polygon","coordinates":[[[-122.415332,47.276257],[-122.415331,47.276347],[-122.415222,47.276362],[-122.415198,47.276436],[-122.415066,47.276435],[-122.415004,47.276411],[-122.414934,47.276434],[-122.414802,47.276434],[-122.414798,47.276197],[-122.414756,47.276168],[-122.414672,47.276163],[-122.414638,47.276082],[-122.414541,47.276073],[-122.414542,47.275983],[-122.414806,47.275984],[-122.414805,47.276115],[-122.414834,47.276152],[-122.415201,47.276166],[-122.415224,47.27624],[-122.415332,47.276257]]]}},{"type":"Feature","properties":{"id":16,"area_m2":1100,"px":11,"rank":14},"geometry":{"type":"Polygon","coordinates":[[[-122.408883,47.273614],[-122.408882,47.273704],[-122.408486,47.273702],[-122.408469,47.273542],[-122.408416,47.273522],[-122.408223,47.273521],[-122.408201,47.273446],[-122.408092,47.27343],[-122.408058,47.273349],[-122.407961,47.273339],[-122.407962,47.273249],[-122.408094,47.27325],[-122.408103,47.273311],[-122.408157,47.273339],[-122.408489,47.273342],[-122.408512,47.273416],[-122.408621,47.273433],[-122.408642,47.273597],[-122.408883,47.273614]]]}},{"type":"Feature","properties":{"id":27,"area_m2":1000,"px":10,"rank":15},"geometry":{"type":"Polygon","coordinates":[[[-122.407307,47.272706],[-122.407305,47.272886],[-122.407173,47.272885],[-122.40715,47.272811],[-122.407041,47.272795],[-122.407024,47.272724],[-122.40691,47.272704],[-122.406876,47.272623],[-122.406779,47.272613],[-122.406751,47.272535],[-122.406648,47.272523],[-122.40662,47.272445],[-122.406517,47.272432],[-122.406518,47.272342],[-122.406782,47.272343],[-122.406804,47.272418],[-122.406913,47.272434],[-122.406948,47.272515],[-122.407044,47.272525],[-122.407066,47.272689],[-122.407307,47.272706]]]}},{"type":"Feature","properties":{"id":35,"area_m2":1000,"px":10,"rank":16},"geometry":{"type":"Polygon","coordinates":[[[-122.40706,47.271085],[-122.407059,47.271175],[-122.406976,47.271179],[-122.40693,47.271213],[-122.406925,47.271354],[-122.406661,47.271353],[-122.406638,47.271279],[-122.40653,47.271262],[-122.406531,47.271172],[-122.406614,47.271169],[-122.40666,47.271135],[-122.406665,47.270993],[-122.406929,47.270994],[-122.406952,47.271069],[-122.40706,47.271085]]]}},{"type":"Feature","properties":{"id":8,"area_m2":900,"px":9,"rank":17},"geometry":{"type":"Polygon","coordinates":[[[-122.413362,47.275077],[-122.413361,47.275167],[-122.413278,47.27517],[-122.413232,47.275204],[-122.413227,47.275346],[-122.413095,47.275345],[-122.413072,47.275271],[-122.412964,47.275255],[-122.412929,47.275174],[-122.412832,47.275164],[-122.412833,47.275074],[-122.412917,47.27507],[-122.412963,47.275036],[-122.412968,47.274895],[-122.4131,47.274896],[-122.413099,47.275027],[-122.413133,47.275066],[-122.413362,47.275077]]]}},{"type":"Feature","properties":{"id":23,"area_m2":800,"px":8,"rank":18},"geometry":{"type":"Polygon","coordinates":[[[-122.412456,47.273094],[-122.412423,47.27314],[-122.412458,47.273183],[-122.412457,47.273272],[-122.412192,47.273271],[-122.412181,47.273115],[-122.412123,47.273091],[-122.41193,47.27309],[-122.411931,47.273],[-122.41204,47.272985],[-122.412064,47.272911],[-122.412196,47.272911],[-122.412199,47.272963],[-122.412237,47.272995],[-122.41246,47.273003],[-122.412456,47.273094]]]}},{"type":"Feature","properties":{"id":17,"area_m2":700,"px":7,"rank":19},"geometry":{"type":"Polygon","coordinates":[[[-122.419066,47.273396],[-122.419064,47.273576],[-122.418856,47.273577],[-122.418805,47.273608],[-122.418798,47.273665],[-122.418666,47.273664],[-122.418668,47.273484],[-122.418744,47.273482],[-122.418791,47.273456],[-122.418803,47.273305],[-122.418935,47.273306],[-122.418957,47.27338],[-122.419066,47.273396]]]}},{"type":"Feature","properties":{"id":5,"area_m2":600,"px":6,"rank":20},"geometry":{"type":"Polygon","coordinates":[[[-122.412296,47.275791],[-122.412294,47.275971],[-122.412162,47.27597],[-122.412157,47.275914],[-122.412107,47.275883],[-122.411899,47.275879],[-122.411877,47.275805],[-122.411768,47.275788],[-122.41177,47.275609],[-122.411902,47.275609],[-122.411902,47.275746],[-122.411942,47.275783],[-122.412296,47.275791]]]}},{"type":"Feature","properties":{"id":19,"area_m2":600,"px":6,"rank":21},"geometry":{"type":"Polygon","coordinates":[[[-122.409547,47.273348],[-122.409545,47.273527],[-122.409413,47.273527],[-122.409391,47.273452],[-122.409282,47.273436],[-122.409247,47.273355],[-122.409151,47.273345],[-122.409153,47.273166],[-122.409285,47.273166],[-122.409307,47.27324],[-122.409416,47.273257],[-122.40945,47.273338],[-122.409547,47.273348]]]}},{"type":"Feature","properties":{"id":20,"area_m2":600,"px":6,"rank":22},"geometry":{"type":"Polygon","coordinates":[[[-122.410341,47.273262],[-122.41034,47.273352],[-122.410076,47.27335],[-122.410073,47.273299],[-122.410035,47.273266],[-122.409813,47.273259],[-122.409814,47.273169],[-122.409923,47.273154],[-122.409947,47.27308],[-122.410079,47.27308],[-122.410101,47.273155],[-122.41021,47.273171],[-122.410245,47.273252],[-122.410341,47.273262]]]}},{"type":"Feature","properties":{"id":31,"area_m2":600,"px":6,"rank":23},"geometry":{"type":"Polygon","coordinates":[[[-122.410755,47.271734],[-122.410753,47.271914],[-122.410644,47.271929],[-122.41062,47.272003],[-122.410355,47.272002],[-122.410357,47.271822],[-122.410566,47.271821],[-122.410616,47.27179],[-122.410623,47.271733],[-122.410755,47.271734]]]}},{"type":"Feature","properties":{"id":34,"area_m2":600,"px":6,"rank":24},"geometry":{"type":"Polygon","coordinates":[[[-122.406134,47.27117],[-122.406131,47.27144],[-122.405867,47.271439],[-122.405865,47.271297],[-122.40582,47.271263],[-122.405737,47.271258],[-122.405738,47.271168],[-122.40587,47.271169],[-122.405932,47.271193],[-122.406002,47.27117],[-122.406134,47.27117]]]}},{"type":"Feature","properties":{"id":4,"area_m2":500,"px":5,"rank":25},"geometry":{"type":"Polygon","coordinates":[[[-122.414412,47.275802],[-122.41441,47.275982],[-122.414146,47.275981],[-122.414149,47.275711],[-122.414281,47.275711],[-122.414303,47.275786],[-122.414412,47.275802]]]}},{"type":"Feature","properties":{"id":13,"area_m2":500,"px":5,"rank":26},"geometry":{"type":"Polygon","coordinates":[[[-122.411124,47.274255],[-122.411123,47.274345],[-122.410726,47.274343],[-122.410728,47.274163],[-122.410992,47.274165],[-122.411015,47.274239],[-122.411124,47.274255]]]}},{"type":"Feature","properties":{"id":28,"area_m2":500,"px":5,"rank":27},"geometry":{"type":"Polygon","coordinates":[[[-122.414977,47.272476],[-122.414974,47.272745],[-122.414842,47.272745],[-122.41482,47.27267],[-122.414711,47.272654],[-122.414713,47.272474],[-122.414977,47.272476]]]}},{"type":"Feature","properties":{"id":36,"area_m2":500,"px":5,"rank":28},"geometry":{"type":"Polygon","coordinates":[[[-122.407856,47.270909],[-122.407855,47.270999],[-122.407745,47.271014],[-122.407721,47.271088],[-122.407589,47.271088],[-122.407567,47.271013],[-122.407458,47.270997],[-122.407459,47.270907],[-122.407568,47.270892],[-122.407592,47.270818],[-122.407724,47.270819],[-122.407747,47.270893],[-122.407856,47.270909]]]}},{"type":"Feature","properties":{"id":42,"area_m2":500,"px":5,"rank":29},"geometry":{"type":"Polygon","coordinates":[[[-122.411838,47.2694],[-122.411837,47.26949],[-122.411441,47.269488],[-122.411442,47.269398],[-122.411478,47.269356],[-122.411443,47.269308],[-122.411444,47.269218],[-122.411576,47.269219],[-122.411599,47.269293],[-122.411707,47.269309],[-122.411742,47.26939],[-122.411838,47.2694]]]}},{"type":"Feature","properties":{"id":2,"area_m2":400,"px":4,"rank":30},"geometry":{"type":"Polygon","coordinates":[[[-122.413349,47.276247],[-122.413348,47.276336],[-122.413265,47.27634],[-122.413219,47.276374],[-122.413214,47.276516],[-122.413082,47.276515],[-122.413059,47.276441],[-122.412951,47.276424],[-122.412952,47.276334],[-122.41316,47.276333],[-122.41321,47.276302],[-122.413217,47.276246],[-122.413349,47.276247]]]}},{"type":"Feature","properties":{"id":10,"area_m2":400,"px":4,"rank":31},"geometry":{"type":"Polygon","coordinates":[[[-122.412705,47.274714],[-122.412703,47.274893],[-122.412307,47.274891],[-122.412308,47.274801],[-122.412516,47.2748],[-122.412566,47.274769],[-122.412573,47.274713],[-122.412705,47.274714]]]}},{"type":"Feature","properties":{"id":24,"area_m2":400,"px":4,"rank":32},"geometry":{"type":"Polygon","coordinates":[[[-122.419598,47.273039],[-122.419598,47.273129],[-122.419488,47.273144],[-122.419464,47.273218],[-122.419332,47.273217],[-122.41931,47.273143],[-122.419201,47.273127],[-122.419202,47.273037],[-122.419598,47.273039]]]}},{"type":"Feature","properties":{"id":29,"area_m2":400,"px":4,"rank":33},"geometry":{"type":"Polygon","coordinates":[[[-122.408497,47.272622],[-122.408496,47.272712],[-122.4081,47.27271],[-122.408101,47.27262],[-122.40821,47.272605],[-122.408234,47.272531],[-122.408366,47.272532],[-122.408389,47.272606],[-122.408497,47.272622]]]}},{"type":"Feature","properties":{"id":30,"area_m2":400,"px":4,"rank":34},"geometry":{"type":"Polygon","coordinates":[[[-122.418948,47.272046],[-122.418947,47.272136],[-122.418838,47.272151],[-122.418814,47.272225],[-122.41855,47.272224],[-122.418551,47.272134],[-122.41866,47.272118],[-122.418684,47.272044],[-122.418948,47.272046]]]}},{"type":"Feature","properties":{"id":32,"area_m2":400,"px":4,"rank":35},"geometry":{"type":"Polygon","coordinates":[[[-122.411285,47.271647],[-122.411284,47.271737],[-122.411074,47.271725],[-122.411025,47.271755],[-122.411018,47.271825],[-122.410886,47.271825],[-122.410888,47.271645],[-122.410997,47.271629],[-122.411021,47.271555],[-122.411153,47.271556],[-122.411176,47.27163],[-122.411285,47.271647]]]}},{"type":"Feature","properties":{"id":41,"area_m2":400,"px":4,"rank":36},"geometry":{"type":"Polygon","coordinates":[[[-122.414086,47.269412],[-122.414084,47.269591],[-122.41382,47.26959],[-122.413822,47.26941],[-122.414086,47.269412]]]}},{"type":"Feature","properties":{"id":45,"area_m2":400,"px":4,"rank":37},"geometry":{"type":"Polygon","coordinates":[[[-122.408948,47.267765],[-122.408945,47.268035],[-122.408836,47.268051],[-122.408812,47.268125],[-122.40868,47.268124],[-122.408681,47.268034],[-122.408771,47.268028],[-122.408812,47.267991],[-122.408816,47.267765],[-122.408948,47.267765]]]}},{"type":"Feature","properties":{"id":6,"area_m2":300,"px":3,"rank":38},"geometry":{"type":"Polygon","coordinates":[[[-122.413887,47.275439],[-122.413884,47.275709],[-122.413752,47.275709],[-122.413755,47.275439],[-122.413887,47.275439]]]}},{"type":"Feature","properties":{"id":9,"area_m2":300,"px":3,"rank":39},"geometry":{"type":"Polygon","coordinates":[[[-122.414555,47.274813],[-122.414553,47.274993],[-122.414289,47.274991],[-122.41429,47.274902],[-122.414399,47.274886],[-122.414423,47.274812],[-122.414555,47.274813]]]}},{"type":"Feature","properties":{"id":11,"area_m2":300,"px":3,"rank":40},"geometry":{"type":"Polygon","coordinates":[[[-122.410722,47.274703],[-122.410721,47.274793],[-122.410612,47.274809],[-122.410588,47.274882],[-122.410323,47.274881],[-122.410324,47.274791],[-122.410533,47.27479],[-122.410583,47.274759],[-122.41059,47.274703],[-122.410722,47.274703]]]}},{"type":"Feature","properties":{"id":21,"area_m2":300,"px":3,"rank":41},"geometry":{"type":"Polygon","coordinates":[[[-122.416557,47.273113],[-122.416555,47.273293],[-122.416423,47.273293],[-122.4164,47.273218],[-122.416292,47.273202],[-122.416293,47.273112],[-122.416557,47.273113]]]}},{"type":"Feature","properties":{"id":26,"area_m2":300,"px":3,"rank":42},"geometry":{"type":"Polygon","coordinates":[[[-122.412066,47.272731],[-122.412065,47.27282],[-122.411956,47.272836],[-122.411932,47.27291],[-122.4118,47.272909],[-122.411802,47.272729],[-122.412066,47.272731]]]}},{"type":"Feature","properties":{"id":33,"area_m2":300,"px":3,"rank":43},"geometry":{"type":"Polygon","coordinates":[[[-122.405602,47.271437],[-122.4056,47.271617],[-122.405468,47.271617],[-122.405446,47.271542],[-122.405337,47.271526],[-122.405338,47.271436],[-122.405602,47.271437]]]}},{"type":"Feature","properties":{"id":40,"area_m2":300,"px":3,"rank":44},"geometry":{"type":"Polygon","coordinates":[[[-122.414215,47.269682],[-122.414214,47.269772],[-122.414105,47.269787],[-122.414081,47.269861],[-122.413949,47.269861],[-122.413951,47.269681],[-122.414215,47.269682]]]}},{"type":"Feature","properties":{"id":43,"area_m2":300,"px":3,"rank":45},"geometry":{"type":"Polygon","coordinates":[[[-122.411312,47.269217],[-122.411311,47.269307],[-122.411103,47.269309],[-122.411052,47.269339],[-122.411045,47.269396],[-122.410913,47.269395],[-122.410914,47.269305],[-122.411023,47.26929],[-122.411047,47.269216],[-122.411312,47.269217]]]}}]}