{"type":"FeatureCollection","features":[{"type":"Feature","properties":{"id":38,"area_m2":12000,"px":120,"rank":1},"geometry":{"type":"Polygon","coordinates":[[[-122.416322,47.270413],[-122.416321,47.270503],[-122.416128,47.270502],[-122.416075,47.270521],[-122.416055,47.270681],[-122.415946,47.270697],[-122.415922,47.270771],[-122.415699,47.270776],[-122.41566,47.270808],[-122.415656,47.270859],[-122.415537,47.270883],[-122.415523,47.270948],[-122.415409,47.270968],[-122.415389,47.271128],[-122.41528,47.271143],[-122.415256,47.271217],[-122.41504,47.27122],[-122.414997,47.271249],[-122.41499,47.271306],[-122.414881,47.271321],[-122.414856,47.271485],[-122.414648,47.271486],[-122.414597,47.271517],[-122.414591,47.271574],[-122.414459,47.271573],[-122.414461,47.271257],[-122.414421,47.271219],[-122.41433,47.271212],[-122.414332,47.271033],[-122.414429,47.271024],[-122.414466,47.270943],[-122.41458,47.270924],[-122.4146,47.270764],[-122.414709,47.270749],[-122.414733,47.270675],[-122.415013,47.270684],[-122.414997,47.270812],[-122.415059,47.270855],[-122.415231,47.270845],[-122.415279,47.270744],[-122.415247,47.270687],[-122.415113,47.270669],[-122.415166,47.270539],[-122.415114,47.270426],[-122.415,47.270406],[-122.414995,47.270349],[-122.414952,47.27032],[-122.414737,47.270315],[-122.414738,47.270225],[-122.41496,47.270219],[-122.414999,47.270188],[-122.415003,47.270136],[-122.415086,47.270132],[-122.415132,47.270098],[-122.41514,47.269977],[-122.415005,47.269956],[-122.414983,47.269882],[-122.414874,47.269865],[-122.414875,47.269776],[-122.414984,47.26976],[-122.415008,47.269686],[-122.415272,47.269688],[-122.415295,47.269762],[-122.415404,47.269778],[-122.415438,47.269859],[-122.415535,47.269869],[-122.415568,47.269963],[-122.415798,47.26996],[-122.415815,47.27012],[-122.415868,47.27014],[-122.416061,47.270142],[-122.416083,47.270216],[-122.416192,47.270232],[-122.416204,47.270388],[-122.416322,47.270413]]]}},{"type":"Feature","properties":{"id":43,"area_m2":5200,"px":52,"rank":2},"geometry":{"type":"Polygon","coordinates":[[[-122.408522,47.270463],[-122.408521,47.270553],[-122.408256,47.270551],[-122.408244,47.270485],[-122.408125,47.270461],[-122.408091,47.27038],[-122.407862,47.270369],[-122.407839,47.270295],[-122.407731,47.270279],[-122.407728,47.270213],[-122.407691,47.270182],[-122.407203,47.270186],[-122.40719,47.27012],[-122.407072,47.270095],[-122.407037,47.270014],[-122.406808,47.270004],[-122.406803,47.269947],[-122.406753,47.269916],[-122.406545,47.269913],[-122.406522,47.269838],[-122.406414,47.269822],[-122.406379,47.269741],[-122.406282,47.269731],[-122.406283,47.269641],[-122.406319,47.269599],[-122.406284,47.269551],[-122.406285,47.269461],[-122.40655,47.269463],[-122.406562,47.269529],[-122.406681,47.269553],[-122.406686,47.26961],[-122.406736,47.269641],[-122.407076,47.269645],[-122.407081,47.269792],[-122.407124,47.269821],[-122.407207,47.269826],[-122.407212,47.269883],[-122.407255,47.269912],[-122.407602,47.269918],[-122.40763,47.269996],[-122.407866,47.270009],[-122.407871,47.270066],[-122.407921,47.270097],[-122.408261,47.270101],[-122.408284,47.270176],[-122.408392,47.270192],[-122.408399,47.270434],[-122.408446,47.27046],[-122.408522,47.270463]]]}},{"type":"Feature","properties":{"id":19,"area_m2":5000,"px":50,"rank":3},"geometry":{"type":"Polygon","coordinates":[[[-122.418935,47.273306],[-122.418934,47.273395],[-122.41885,47.273399],[-122.418804,47.273433],[-122.418799,47.273575],[-122.41869,47.27359],[-122.418666,47.273664],[-122.418569,47.273673],[-122.418533,47.273753],[-122.418419,47.273773],[-122.4184,47.273843],[-122.418212,47.273828],[-122.418158,47.273844],[-122.418134,47.273931],[-122.418051,47.273935],[-122.418008,47.273964],[-122.418,47.274111],[-122.417604,47.274109],[-122.417596,47.273957],[-122.417549,47.273931],[-122.417474,47.273928],[-122.417476,47.273748],[-122.417585,47.273733],[-122.417609,47.273659],[-122.417712,47.273647],[-122.417742,47.273569],[-122.417839,47.273561],[-122.417875,47.27348],[-122.417989,47.273461],[-122.418008,47.273391],[-122.418231,47.273386],[-122.41827,47.273354],[-122.418274,47.273302],[-122.418621,47.2733],[-122.418665,47.273271],[-122.418671,47.273214],[-122.418803,47.273215],[-122.418826,47.273289],[-122.418935,47.273306]]]}},{"type":"Feature","properties":{"id":15,"area_m2":3700,"px":37,"rank":4},"geometry":{"type":"Polygon","coordinates":[[[-122.414563,47.274093],[-122.414559,47.274453],[-122.414295,47.274452],[-122.414284,47.274206],[-122.414226,47.274182],[-122.414033,47.27418],[-122.414029,47.274034],[-122.413986,47.274004],[-122.413903,47.274],[-122.413882,47.273912],[-122.413827,47.273896],[-122.41364,47.273908],[-122.413617,47.273834],[-122.413508,47.273818],[-122.413474,47.273737],[-122.413377,47.273727],[-122.413356,47.273563],[-122.4133,47.273547],[-122.41285,47.273544],[-122.412851,47.273455],[-122.412948,47.273446],[-122.412985,47.273365],[-122.41306,47.273363],[-122.413108,47.273337],[-122.413119,47.273186],[-122.413383,47.273187],[-122.413385,47.273329],[-122.41343,47.273363],[-122.413513,47.273368],[-122.41353,47.273528],[-122.413643,47.273549],[-122.413661,47.273619],[-122.413775,47.273639],[-122.413787,47.273705],[-122.413906,47.27373],[-122.41394,47.273811],[-122.414169,47.273821],[-122.414174,47.273968],[-122.414216,47.273997],[-122.414299,47.274002],[-122.414326,47.274093],[-122.414563,47.274093]]]}},{"type":"Feature","properties":{"id":24,"area_m2":3700,"px":37,"rank":5},"geometry":{"type":"Polygon","coordinates":[[[-122.411927,47.27336],[-122.411924,47.27363],[-122.411792,47.273629],[-122.411783,47.273567],[-122.411729,47.27354],[-122.411396,47.273537],[-122.411374,47.273463],[-122.411265,47.273446],[-122.41123,47.273365],[-122.411134,47.273356],[-122.411112,47.273191],[-122.410871,47.273174],[-122.410875,47.272814],[-122.411536,47.272818],[-122.41152,47.273238],[-122.411574,47.273267],[-122.411796,47.273269],[-122.411818,47.273343],[-122.411927,47.27336]]]}},{"type":"Feature","properties":{"id":2,"area_m2":3300,"px":33,"rank":6},"geometry":{"type":"Polygon","coordinates":[[[-122.414414,47.275622],[-122.414411,47.275892],[-122.414314,47.275901],[-122.414278,47.275981],[-122.414159,47.276005],[-122.414143,47.276161],[-122.414034,47.276176],[-122.41401,47.27625],[-122.413746,47.276248],[-122.413747,47.276159],[-122.413844,47.27615],[-122.41388,47.276069],[-122.413963,47.276066],[-122.414007,47.276037],[-122.414049,47.275938],[-122.414011,47.275838],[-122.413951,47.275801],[-122.413751,47.275799],[-122.413728,47.275724],[-122.41362,47.275708],[-122.413621,47.275577],[-122.413586,47.275537],[-122.413357,47.275527],[-122.413359,47.275347],[-122.413468,47.275331],[-122.413492,47.275257],[-122.413757,47.275259],[-122.413756,47.275404],[-122.413783,47.27544],[-122.414019,47.27544],[-122.414032,47.275506],[-122.41415,47.275531],[-122.414185,47.275612],[-122.414414,47.275622]]]}},{"type":"Feature","properties":{"id":4,"area_m2":2900,"px":29,"rank":7},"geometry":{"type":"Polygon","coordinates":[[[-122.413619,47.275798],[-122.413616,47.276068],[-122.413507,47.276083],[-122.413482,47.276157],[-122.41335,47.276156],[-122.41334,47.275897],[-122.413277,47.275872],[-122.413089,47.275885],[-122.41309,47.275795],[-122.413173,47.275792],[-122.413219,47.275758],[-122.413206,47.275636],[-122.41303,47.275591],[-122.41296,47.275615],[-122.412695,47.275613],[-122.412683,47.275547],[-122.412564,47.275523],[-122.41253,47.275442],[-122.412301,47.275431],[-122.412303,47.275251],[-122.412963,47.275255],[-122.412986,47.275329],[-122.413095,47.275345],[-122.413111,47.275506],[-122.413225,47.275526],[-122.413259,47.275607],[-122.413356,47.275617],[-122.413384,47.275695],[-122.413487,47.275707],[-122.413516,47.275785],[-122.413619,47.275798]]]}},{"type":"Feature","properties":{"id":25,"area_m2":2800,"px":28,"rank":8},"geometry":{"type":"Polygon","coordinates":[[[-122.410738,47.273264],[-122.410735,47.273533],[-122.410338,47.273531],[-122.410321,47.273461],[-122.410207,47.273441],[-122.410173,47.27336],[-122.410076,47.27335],[-122.410048,47.273272],[-122.409945,47.273259],[-122.409917,47.273182],[-122.409814,47.273169],[-122.409785,47.273091],[-122.40955,47.273077],[-122.409552,47.272898],[-122.409816,47.272899],[-122.409825,47.27296],[-122.409879,47.272988],[-122.410344,47.272992],[-122.410366,47.273156],[-122.410475,47.273172],[-122.41048,47.273229],[-122.410523,47.273258],[-122.410738,47.273264]]]}},{"type":"Feature","properties":{"id":11,"area_m2":2400,"px":24,"rank":9},"geometry":{"type":"Polygon","coordinates":[[[-122.412705,47.274714],[-122.412703,47.274893],[-122.412307,47.274891],[-122.412284,47.274817],[-122.412175,47.274801],[-122.412154,47.274636],[-122.411913,47.274619],[-122.411913,47.274483],[-122.411873,47.274446],[-122.411651,47.274438],[-122.411652,47.274348],[-122.411735,47.274344],[-122.411781,47.27431],[-122.411786,47.274169],[-122.411918,47.27417],[-122.411931,47.274236],[-122.412049,47.27426],[-122.412052,47.274312],[-122.41209,47.274344],[-122.412312,47.274352],[-122.412328,47.274602],[-122.412381,47.274622],[-122.412574,47.274623],[-122.412596,47.274697],[-122.412705,47.274714]]]}},{"type":"Feature","properties":{"id":21,"area_m2":1700,"px":17,"rank":10},"geometry":{"type":"Polygon","coordinates":[[[-122.411526,47.273718],[-122.411523,47.273987],[-122.411127,47.273985],[-122.411124,47.273934],[-122.411086,47.273902],[-122.410863,47.273894],[-122.410865,47.273714],[-122.410974,47.273699],[-122.410999,47.273625],[-122.411118,47.273602],[-122.411132,47.273536],[-122.411264,47.273536],[-122.411286,47.273611],[-122.411395,47.273627],[-122.411429,47.273708],[-122.411526,47.273718]]]}},{"type":"Feature","properties":{"id":5,"area_m2":1600,"px":16,"rank":11},"geometry":{"type":"Polygon","coordinates":[[[-122.414941,47.275536],[-122.414908,47.275582],[-122.414943,47.275625],[-122.414941,47.275805],[-122.414809,47.275804],[-122.414786,47.27573],[-122.414677,47.275713],[-122.414662,47.275463],[-122.414609,47.275443],[-122.414416,47.275442],[-122.414393,47.275368],[-122.414285,47.275351],[-122.414287,47.275172],[-122.414683,47.275174],[-122.414705,47.275338],[-122.414946,47.275355],[-122.414941,47.275536]]]}},{"type":"Feature","properties":{"id":20,"area_m2":1400,"px":14,"rank":12},"geometry":{"type":"Polygon","coordinates":[[[-122.409409,47.273887],[-122.409407,47.274067],[-122.409275,47.274066],[-122.409269,47.274009],[-122.409219,47.273978],[-122.409011,47.273975],[-122.409007,47.273828],[-122.408964,47.273799],[-122.408881,47.273794],[-122.408853,47.273716],[-122.408486,47.273702],[-122.408484,47.27356],[-122.408439,47.273526],[-122.408355,47.273521],[-122.408356,47.273431],[-122.408621,47.273433],[-122.408624,47.273484],[-122.408662,47.273517],[-122.408884,47.273524],[-122.408906,47.273688],[-122.409014,47.273705],[-122.409027,47.273771],[-122.409145,47.273795],[-122.409148,47.273847],[-122.409187,47.273879],[-122.409409,47.273887]]]}},{"type":"Feature","properties":{"id":27,"area_m2":1300,"px":13,"rank":13},"geometry":{"type":"Polygon","coordinates":[[[-122.415896,47.27311],[-122.415894,47.27329],[-122.41563,47.273289],[-122.415607,47.273214],[-122.415498,47.273198],[-122.415486,47.273132],[-122.415367,47.273107],[-122.415339,47.273029],[-122.415236,47.273017],[-122.415238,47.272837],[-122.41537,47.272837],[-122.415398,47.272915],[-122.415557,47.272942],[-122.415625,47.272914],[-122.415635,47.272839],[-122.415767,47.27284],[-122.415768,47.273071],[-122.415813,47.273106],[-122.415896,47.27311]]]}},{"type":"Feature","properties":{"id":32,"area_m2":1300,"px":13,"rank":14},"geometry":{"type":"Polygon","coordinates":[[[-122.407044,47.272525],[-122.407043,47.272615],[-122.406913,47.272614],[-122.406908,47.272562],[-122.40687,47.27253],[-122.406648,47.272523],[-122.406625,47.272448],[-122.406517,47.272432],[-122.4065,47.272272],[-122.406386,47.272251],[-122.406381,47.272195],[-122.406338,47.272165],[-122.406123,47.27216],[-122.406101,47.272086],[-122.405992,47.272069],[-122.405993,47.271979],[-122.406102,47.271964],[-122.406126,47.27189],[-122.406258,47.271891],[-122.406281,47.271965],[-122.406389,47.271981],[-122.406411,47.272146],[-122.406652,47.272163],[-122.406667,47.272413],[-122.40672,47.272433],[-122.406913,47.272434],[-122.406936,47.272508],[-122.407044,47.272525]]]}},{"type":"Feature","properties":{"id":10,"area_m2":1100,"px":11,"rank":15},"geometry":{"type":"Polygon","coordinates":[[[-122.413632,47.274538],[-122.413629,47.274898],[-122.413232,47.274896],[-122.413235,47.274626],[-122.413344,47.274611],[-122.413368,47.274537],[-122.413632,47.274538]]]}},{"type":"Feature","properties":{"id":7,"area_m2":1000,"px":10,"rank":16},"geometry":{"type":"Polygon","coordinates":[[[-122.414158,47.274811],[-122.414156,47.274991],[-122.41408,47.274993],[-122.414033,47.275019],[-122.414022,47.27517],[-122.413758,47.275169],[-122.413762,47.274809],[-122.414158,47.274811]]]}},{"type":"Feature","properties":{"id":17,"area_m2":1000,"px":10,"rank":17},"geometry":{"type":"Polygon","coordinates":[[[-122.412582,47.273903],[-122.412578,47.274263],[-122.412446,47.274262],[-122.41244,47.274206],[-122.41239,47.274174],[-122.412182,47.274171],[-122.412185,47.273901],[-122.412582,47.273903]]]}},{"type":"Feature","properties":{"id":47,"area_m2":1000,"px":10,"rank":18},"geometry":{"type":"Polygon","coordinates":[[[-122.411038,47.270026],[-122.411037,47.270116],[-122.410773,47.270114],[-122.410756,47.270044],[-122.410642,47.270024],[-122.410607,47.269943],[-122.410511,47.269933],[-122.410482,47.269855],[-122.410379,47.269842],[-122.410351,47.269765],[-122.410116,47.269751],[-122.410118,47.269571],[-122.41025,47.269572],[-122.410263,47.269638],[-122.410381,47.269663],[-122.410384,47.269714],[-122.410422,47.269746],[-122.410645,47.269754],[-122.410666,47.269918],[-122.410907,47.269935],[-122.41093,47.270009],[-122.411038,47.270026]]]}},{"type":"Feature","properties":{"id":12,"area_m2":900,"px":9,"rank":19},"geometry":{"type":"Polygon","coordinates":[[[-122.411647,47.274708],[-122.411645,47.274888],[-122.411249,47.274886],[-122.411247,47.274744],[-122.411202,47.27471],[-122.411119,47.274705],[-122.41112,47.274615],[-122.411516,47.274617],[-122.411539,47.274692],[-122.411647,47.274708]]]}},{"type":"Feature","properties":{"id":34,"area_m2":900,"px":9,"rank":20},"geometry":{"type":"Polygon","coordinates":[[[-122.410887,47.271735],[-122.410885,47.271915],[-122.410776,47.27193],[-122.410752,47.272004],[-122.410542,47.271992],[-122.410493,47.272022],[-122.410487,47.272092],[-122.410354,47.272092],[-122.410358,47.271732],[-122.41049,47.271733],[-122.410503,47.271799],[-122.410569,47.271823],[-122.410719,47.271815],[-122.410755,47.271734],[-122.410887,47.271735]]]}},{"type":"Feature","properties":{"id":37,"area_m2":800,"px":8,"rank":21},"geometry":{"type":"Polygon","coordinates":[[[-122.411153,47.271556],[-122.411151,47.271736],[-122.411019,47.271735],[-122.410998,47.271571],[-122.410757,47.271554],[-122.410735,47.27148],[-122.410626,47.271463],[-122.410591,47.271382],[-122.410495,47.271373],[-122.410497,47.271193],[-122.410629,47.271193],[-122.410628,47.271325],[-122.410656,47.271361],[-122.410891,47.271375],[-122.410914,47.271449],[-122.411022,47.271465],[-122.411057,47.271546],[-122.411153,47.271556]]]}},{"type":"Feature","properties":{"id":13,"area_m2":700,"px":7,"rank":22},"geometry":{"type":"Polygon","coordinates":[[[-122.414029,47.27454],[-122.414028,47.27463],[-122.413896,47.27463],[-122.413874,47.274555],[-122.413765,47.274539],[-122.41373,47.274458],[-122.413634,47.274448],[-122.413637,47.274178],[-122.413769,47.274179],[-122.413791,47.274253],[-122.4139,47.27427],[-122.413901,47.274501],[-122.413946,47.274536],[-122.414029,47.27454]]]}},{"type":"Feature","properties":{"id":29,"area_m2":700,"px":7,"rank":23},"geometry":{"type":"Polygon","coordinates":[[[-122.408497,47.272622],[-122.408496,47.272712],[-122.408387,47.272727],[-122.408363,47.272801],[-122.408231,47.272801],[-122.408209,47.272727],[-122.4081,47.27271],[-122.408066,47.272629],[-122.407969,47.272619],[-122.407971,47.27244],[-122.408103,47.27244],[-122.408116,47.272506],[-122.408234,47.272531],[-122.408237,47.272583],[-122.408275,47.272615],[-122.408497,47.272622]]]}},{"type":"Feature","properties":{"id":44,"area_m2":700,"px":7,"rank":24},"geometry":{"type":"Polygon","coordinates":[[[-122.405614,47.270358],[-122.405613,47.270448],[-122.405504,47.270463],[-122.40548,47.270537],[-122.405348,47.270536],[-122.405335,47.27047],[-122.405217,47.270446],[-122.405182,47.270365],[-122.404953,47.270354],[-122.404954,47.270264],[-122.405063,47.270249],[-122.405088,47.270175],[-122.40522,47.270176],[-122.405219,47.270307],[-122.405253,47.270347],[-122.405614,47.270358]]]}},{"type":"Feature","properties":{"id":57,"area_m2":700,"px":7,"rank":25},"geometry":{"type":"Polygon","coordinates":[[[-122.409865,47.26858],[-122.409863,47.26876],[-122.409598,47.268759],[-122.409596,47.268693],[-122.409552,47.268659],[-122.409335,47.268667],[-122.409337,47.268487],[-122.409601,47.268489],[-122.409604,47.26854],[-122.409642,47.268572],[-122.409865,47.26858]]]}},{"type":"Feature","properties":{"id":6,"area_m2":600,"px":6,"rank":26},"geometry":{"type":"Polygon","coordinates":[[[-122.413362,47.275077],[-122.41336,47.275257],[-122.413096,47.275255],[-122.413073,47.275181],[-122.412965,47.275165],[-122.412967,47.274985],[-122.413099,47.274985],[-122.413104,47.275042],[-122.413154,47.275073],[-122.413362,47.275077]]]}},{"type":"Feature","properties":{"id":26,"area_m2":600,"px":6,"rank":27},"geometry":{"type":"Polygon","coordinates":[[[-122.409548,47.273258],[-122.409546,47.273437],[-122.409282,47.273436],[-122.409259,47.273362],[-122.409151,47.273345],[-122.409153,47.273166],[-122.409285,47.273166],[-122.40929,47.273223],[-122.40934,47.273254],[-122.409548,47.273258]]]}},{"type":"Feature","properties":{"id":28,"area_m2":600,"px":6,"rank":28},"geometry":{"type":"Polygon","coordinates":[[[-122.415108,47.272656],[-122.415106,47.272836],[-122.414974,47.272835],[-122.414951,47.272761],[-122.414842,47.272745],[-122.414808,47.272664],[-122.414711,47.272654],[-122.414712,47.272564],[-122.414821,47.272549],[-122.414845,47.272475],[-122.414977,47.272476],[-122.414985,47.272627],[-122.415032,47.272653],[-122.415108,47.272656]]]}},{"type":"Feature","properties":{"id":40,"area_m2":600,"px":6,"rank":29},"geometry":{"type":"Polygon","coordinates":[[[-122.405738,47.271078],[-122.405736,47.271258],[-122.405604,47.271257],[-122.405582,47.271183],[-122.405473,47.271167],[-122.405439,47.271086],[-122.405342,47.271076],[-122.405344,47.270896],[-122.405476,47.270897],[-122.405498,47.270971],[-122.405607,47.270988],[-122.405642,47.271069],[-122.405738,47.271078]]]}},{"type":"Feature","properties":{"id":54,"area_m2":600,"px":6,"rank":30},"geometry":{"type":"Polygon","coordinates":[[[-122.414224,47.268872],[-122.414222,47.269052],[-122.413958,47.269051],[-122.41395,47.268899],[-122.413903,47.268873],[-122.413827,47.26887],[-122.413793,47.268789],[-122.413696,47.26878],[-122.413697,47.26869],[-122.413829,47.26869],[-122.413842,47.268756],[-122.41396,47.268781],[-122.413963,47.268833],[-122.414002,47.268865],[-122.414224,47.268872]]]}},{"type":"Feature","properties":{"id":1,"area_m2":500,"px":5,"rank":31},"geometry":{"type":"Polygon","coordinates":[[[-122.415063,47.276705],[-122.415061,47.276885],[-122.414665,47.276883],[-122.414666,47.276793],[-122.414775,47.276778],[-122.414799,47.276704],[-122.415063,47.276705]]]}},{"type":"Feature","properties":{"id":3,"area_m2":500,"px":5,"rank":32},"geometry":{"type":"Polygon","coordinates":[[[-122.414675,47.275893],[-122.414672,47.276163],[-122.414408,47.276162],[-122.41441,47.275982],[-122.414519,47.275967],[-122.414543,47.275893],[-122.414675,47.275893]]]}},{"type":"Feature","properties":{"id":9,"area_m2":500,"px":5,"rank":33},"geometry":{"type":"Polygon","coordinates":[[[-122.414686,47.274904],[-122.414685,47.274993],[-122.414555,47.274993],[-122.41455,47.274941],[-122.414512,47.274909],[-122.41429,47.274901],[-122.414292,47.274722],[-122.414556,47.274723],[-122.414564,47.274874],[-122.41461,47.274901],[-122.414686,47.274904]]]}},{"type":"Feature","properties":{"id":30,"area_m2":500,"px":5,"rank":34},"geometry":{"type":"Polygon","coordinates":[[[-122.410877,47.272635],[-122.410876,47.272724],[-122.41048,47.272722],[-122.410482,47.272542],[-122.410746,47.272544],[-122.410768,47.272618],[-122.410877,47.272635]]]}},{"type":"Feature","properties":{"id":33,"area_m2":500,"px":5,"rank":35},"geometry":{"type":"Polygon","coordinates":[[[-122.418948,47.272046],[-122.418946,47.272226],[-122.41855,47.272224],[-122.418551,47.272134],[-122.41866,47.272118],[-122.418684,47.272044],[-122.418948,47.272046]]]}},{"type":"Feature","properties":{"id":42,"area_m2":500,"px":5,"rank":36},"geometry":{"type":"Polygon","coordinates":[[[-122.40601,47.27045],[-122.406008,47.27063],[-122.405744,47.270628],[-122.405747,47.270358],[-122.405879,47.270359],[-122.405901,47.270433],[-122.40601,47.27045]]]}},{"type":"Feature","properties":{"id":49,"area_m2":500,"px":5,"rank":37},"geometry":{"type":"Polygon","coordinates":[[[-122.414481,47.269504],[-122.41448,47.269593],[-122.414371,47.269609],[-122.414347,47.269683],[-122.414083,47.269681],[-122.414084,47.269592],[-122.414167,47.269588],[-122.414213,47.269554],[-122.414218,47.269412],[-122.41435,47.269413],[-122.414373,47.269487],[-122.414481,47.269504]]]}},{"type":"Feature","properties":{"id":51,"area_m2":500,"px":5,"rank":38},"geometry":{"type":"Polygon","coordinates":[[[-122.411838,47.2694],[-122.411837,47.26949],[-122.411441,47.269488],[-122.411442,47.269398],[-122.411478,47.269356],[-122.411443,47.269308],[-122.411444,47.269218],[-122.411576,47.269219],[-122.411599,47.269293],[-122.411707,47.269309],[-122.411742,47.26939],[-122.411838,47.2694]]]}},{"type":"Feature","properties":{"id":53,"area_m2":500,"px":5,"rank":39},"geometry":{"type":"Polygon","coordinates":[[[-122.410126,47.268851],[-122.410123,47.269121],[-122.409859,47.26912],[-122.409861,47.26894],[-122.40997,47.268925],[-122.409994,47.268851],[-122.410126,47.268851]]]}},{"type":"Feature","properties":{"id":59,"area_m2":500,"px":5,"rank":40},"geometry":{"type":"Polygon","coordinates":[[[-122.410526,47.268493],[-122.410525,47.268583],[-122.410395,47.268583],[-122.410391,47.268531],[-122.410352,47.268499],[-122.41013,47.268491],[-122.410108,47.268417],[-122.409999,47.268401],[-122.41,47.268311],[-122.410264,47.268312],[-122.410287,47.268386],[-122.410395,47.268403],[-122.41043,47.268484],[-122.410526,47.268493]]]}},{"type":"Feature","properties":{"id":16,"area_m2":400,"px":4,"rank":41},"geometry":{"type":"Polygon","coordinates":[[[-122.412974,47.274265],[-122.412972,47.274445],[-122.412708,47.274443],[-122.41271,47.274264],[-122.412974,47.274265]]]}},{"type":"Feature","properties":{"id":18,"area_m2":400,"px":4,"rank":42},"geometry":{"type":"Polygon","coordinates":[[[-122.413506,47.273998],[-122.413504,47.274178],[-122.41324,47.274176],[-122.413242,47.273996],[-122.413506,47.273998]]]}},{"type":"Feature","properties":{"id":22,"area_m2":400,"px":4,"rank":43},"geometry":{"type":"Polygon","coordinates":[[[-122.410469,47.273712],[-122.410467,47.273892],[-122.410334,47.273891],[-122.410329,47.273835],[-122.410279,47.273803],[-122.410071,47.2738],[-122.410072,47.27371],[-122.410469,47.273712]]]}},{"type":"Feature","properties":{"id":23,"area_m2":400,"px":4,"rank":44},"geometry":{"type":"Polygon","coordinates":[[[-122.412849,47.273634],[-122.412847,47.273814],[-122.412583,47.273813],[-122.412585,47.273633],[-122.412849,47.273634]]]}},{"type":"Feature","properties":{"id":31,"area_m2":400,"px":4,"rank":45},"geometry":{"type":"Polygon","coordinates":[[[-122.41035,47.272452],[-122.410348,47.272632],[-122.410216,47.272631],[-122.410194,47.272557],[-122.410085,47.27254],[-122.410051,47.272459],[-122.409954,47.27245],[-122.409955,47.27236],[-122.410087,47.27236],[-122.410092,47.272417],[-122.410142,47.272448],[-122.41035,47.272452]]]}},{"type":"Feature","properties":{"id":46,"area_m2":400,"px":4,"rank":46},"geometry":{"type":"Polygon","coordinates":[[[-122.414609,47.269954],[-122.414608,47.270044],[-122.414498,47.270059],[-122.414474,47.270133],[-122.41421,47.270132],[-122.414211,47.270042],[-122.41432,47.270027],[-122.414344,47.269953],[-122.414609,47.269954]]]}},{"type":"Feature","properties":{"id":48,"area_m2":400,"px":4,"rank":47},"geometry":{"type":"Polygon","coordinates":[[[-122.406152,47.269551],[-122.406151,47.269641],[-122.405943,47.269642],[-122.405892,47.269673],[-122.405886,47.269729],[-122.405754,47.269728],[-122.405756,47.269549],[-122.406152,47.269551]]]}},{"type":"Feature","properties":{"id":50,"area_m2":400,"px":4,"rank":48},"geometry":{"type":"Polygon","coordinates":[[[-122.410913,47.269395],[-122.410912,47.269485],[-122.410829,47.269489],[-122.410783,47.269523],[-122.410778,47.269664],[-122.410646,47.269664],[-122.410623,47.26959],[-122.410515,47.269573],[-122.410516,47.269483],[-122.410724,47.269482],[-122.410774,47.269451],[-122.410781,47.269395],[-122.410913,47.269395]]]}},{"type":"Feature","properties":{"id":56,"area_m2":400,"px":4,"rank":49},"geometry":{"type":"Polygon","coordinates":[[[-122.410391,47.268763],[-122.41039,47.268853],[-122.410258,47.268852],[-122.410236,47.268778],[-122.410127,47.268761],[-122.410093,47.26868],[-122.409996,47.268671],[-122.409997,47.268581],[-122.410261,47.268582],[-122.410269,47.268733],[-122.410315,47.26876],[-122.410391,47.268763]]]}},{"type":"Feature","properties":{"id":58,"area_m2":400,"px":4,"rank":50},"geometry":{"type":"Polygon","coordinates":[[[-122.408677,47.268394],[-122.408674,47.268664],[-122.408542,47.268663],[-122.40854,47.268521],[-122.408495,47.268487],[-122.408412,47.268482],[-122.408413,47.268393],[-122.408677,47.268394]]]}},{"type":"Feature","properties":{"id":8,"area_m2":300,"px":3,"rank":51},"geometry":{"type":"Polygon","coordinates":[[[-122.415479,47.274908],[-122.415478,47.274998],[-122.415369,47.275013],[-122.415345,47.275087],[-122.415213,47.275086],[-122.415191,47.275012],[-122.415082,47.274996],[-122.415083,47.274906],[-122.415215,47.274906],[-122.415277,47.274931],[-122.415347,47.274907],[-122.415479,47.274908]]]}},{"type":"Feature","properties":{"id":14,"area_m2":300,"px":3,"rank":52},"geometry":{"type":"Polygon","coordinates":[[[-122.41522,47.274456],[-122.415219,47.274546],[-122.414955,47.274545],[-122.414957,47.274365],[-122.415089,47.274366],[-122.415111,47.27444],[-122.41522,47.274456]]]}},{"type":"Feature","properties":{"id":35,"area_m2":300,"px":3,"rank":53},"geometry":{"type":"Polygon","coordinates":[[[-122.414324,47.271752],[-122.414321,47.272022],[-122.414189,47.272021],[-122.414192,47.271752],[-122.414324,47.271752]]]}},{"type":"Feature","properties":{"id":36,"area_m2":300,"px":3,"rank":54},"geometry":{"type":"Polygon","coordinates":[[[-122.408244,47.271631],[-122.408241,47.271901],[-122.408109,47.2719],[-122.408112,47.27163],[-122.408244,47.271631]]]}},{"type":"Feature","properties":{"id":39,"area_m2":300,"px":3,"rank":55},"geometry":{"type":"Polygon","coordinates":[[[-122.406265,47.271261],[-122.406264,47.271351],[-122.406155,47.271366],[-122.406131,47.27144],[-122.405999,47.271439],[-122.406001,47.27126],[-122.406265,47.271261]]]}},{"type":"Feature","properties":{"id":41,"area_m2":300,"px":3,"rank":56},"geometry":{"type":"Polygon","coordinates":[[[-122.403627,47.270707],[-122.403625,47.270887],[-122.403493,47.270887],[-122.403491,47.270745],[-122.403446,47.27071],[-122.403363,47.270706],[-122.403364,47.270616],[-122.403496,47.270617],[-122.403519,47.270691],[-122.403627,47.270707]]]}},{"type":"Feature","properties":{"id":45,"area_m2":300,"px":3,"rank":57},"geometry":{"type":"Polygon","coordinates":[[[-122.411961,47.270301],[-122.41196,47.27039],[-122.411828,47.27039],[-122.411825,47.270338],[-122.411787,47.270306],[-122.411564,47.270298],[-122.411565,47.270208],[-122.411829,47.27021],[-122.411852,47.270284],[-122.411961,47.270301]]]}},{"type":"Feature","properties":{"id":52,"area_m2":300,"px":3,"rank":58},"geometry":{"type":"Polygon","coordinates":[[[-122.411314,47.269037],[-122.411313,47.269127],[-122.411229,47.269131],[-122.411184,47.269165],[-122.411178,47.269307],[-122.411046,47.269306],[-122.411048,47.269126],[-122.411157,47.269111],[-122.411182,47.269037],[-122.411314,47.269037]]]}},{"type":"Feature","properties":{"id":55,"area_m2":300,"px":3,"rank":59},"geometry":{"type":"Polygon","coordinates":[[[-122.411051,47.268856],[-122.41105,47.268946],[-122.410918,47.268945],[-122.410896,47.268871],[-122.410787,47.268855],[-122.410753,47.268774],[-122.410656,47.268764],[-122.410657,47.268674],[-122.410789,47.268675],[-122.410811,47.268749],[-122.41092,47.268765],[-122.410954,47.268846],[-122.411051,47.268856]]]}},{"type":"Feature","properties":{"id":60,"area_m2":300,"px":3,"rank":60},"geometry":{"type":"Polygon","coordinates":[[[-122.409477,47.267768],[-122.409476,47.267858],[-122.409367,47.267873],[-122.409343,47.267947],[-122.409211,47.267947],[-122.409213,47.267767],[-122.409477,47.267768]]]}}]}