{"type":"FeatureCollection","features":[{"type":"Feature","properties":{"id":1,"area_m2":2041600,"px":20416,"rank":1,"persistent":true},"geometry":{"type":"Polygon","coordinates":[[[-122.423686,47.261902],[-122.423622,47.267749],[-122.423387,47.267761],[-122.423358,47.267798],[-122.423356,47.267929],[-122.423259,47.267937],[-122.423223,47.267982],[-122.423231,47.26817],[-122.423277,47.268196],[-122.423353,47.268199],[-122.423387,47.26828],[-122.423484,47.268289],[-122.423492,47.268441],[-122.423539,47.268467],[-122.423614,47.26847],[-122.42359,47.270719],[-122.423326,47.270718],[-122.423291,47.270637],[-122.423113,47.270627],[-122.423043,47.270672],[-122.42306,47.270807],[-122.422928,47.270806],[-122.422919,47.270745],[-122.422865,47.270717],[-122.42234,47.270713],[-122.422277,47.270741],[-122.422267,47.270803],[-122.422032,47.270814],[-122.422002,47.270891],[-122.421628,47.270905],[-122.421605,47.270943],[-122.421627,47.271054],[-122.422,47.271071],[-122.421997,47.271161],[-122.421602,47.271159],[-122.42158,47.271085],[-122.421471,47.271069],[-122.421437,47.270988],[-122.42134,47.270978],[-122.42134,47.270842],[-122.421293,47.270802],[-122.420945,47.270796],[-122.420883,47.270772],[-122.420813,47.270795],[-122.420549,47.270794],[-122.42055,47.270704],[-122.420585,47.270657],[-122.420528,47.27054],[-122.420472,47.270524],[-122.419891,47.270521],[-122.419869,47.270357],[-122.419628,47.270339],[-122.419647,47.270199],[-122.419602,47.270164],[-122.419498,47.270159],[-122.419482,47.269999],[-122.419428,47.269979],[-122.419236,47.269978],[-122.419219,47.269817],[-122.419105,47.269797],[-122.419071,47.269716],[-122.418974,47.269706],[-122.418946,47.269628],[-122.418843,47.269616],[-122.418815,47.269538],[-122.418712,47.269525],[-122.418683,47.269447],[-122.41858,47.269434],[-122.418552,47.269357],[-122.418449,47.269344],[-122.418421,47.269266],[-122.418318,47.269253],[-122.418296,47.269179],[-122.418187,47.269162],[-122.418164,47.269088],[-122.418056,47.269072],[-122.418033,47.268998],[-122.417924,47.268981],[-122.417902,47.268907],[-122.417793,47.26889],[-122.417766,47.268799],[-122.417265,47.268798],[-122.417203,47.268773],[-122.417133,47.268797],[-122.417001,47.268796],[-122.416988,47.26873],[-122.41687,47.268706],[-122.416835,47.268625],[-122.416606,47.268614],[-122.416607,47.268525],[-122.416691,47.268521],[-122.416734,47.268492],[-122.416735,47.268379],[-122.416693,47.268349],[-122.416609,47.268344],[-122.416602,47.268193],[-122.416555,47.268167],[-122.416479,47.268164],[-122.416445,47.268083],[-122.416348,47.268073],[-122.41632,47.267995],[-122.416085,47.267982],[-122.416106,47.267858],[-122.416084,47.267818],[-122.415878,47.267803],[-122.415828,47.267834],[-122.415821,47.267891],[-122.415689,47.26789],[-122.415688,47.267658],[-122.415643,47.267624],[-122.41556,47.267619],[-122.415561,47.267529],[-122.415597,47.267482],[-122.415562,47.267439],[-122.415559,47.267113],[-122.415517,47.267083],[-122.415379,47.267055],[-122.415301,47.267078],[-122.415169,47.267077],[-122.41517,47.266851],[-122.41513,47.266814],[-122.41504,47.266807],[-122.415024,47.266647],[-122.4147,47.266602],[-122.414645,47.266625],[-122.41443,47.266628],[-122.414387,47.266657],[-122.41438,47.266713],[-122.414248,47.266713],[-122.41425,47.266533],[-122.414286,47.266491],[-122.414251,47.266443],[-122.414252,47.266353],[-122.414371,47.26633],[-122.414382,47.266212],[-122.414337,47.266177],[-122.414254,47.266173],[-122.414219,47.266092],[-122.414123,47.266082],[-122.414121,47.265941],[-122.414076,47.265906],[-122.413992,47.265902],[-122.413976,47.265741],[-122.413862,47.265721],[-122.413828,47.26564],[-122.413731,47.26563],[-122.413734,47.265319],[-122.413706,47.265283],[-122.413471,47.265269],[-122.413465,47.265212],[-122.413415,47.265181],[-122.413236,47.26519],[-122.413207,47.265226],[-122.413204,47.265448],[-122.413095,47.265463],[-122.413071,47.265537],[-122.41283,47.265552],[-122.412805,47.265716],[-122.4127,47.265719],[-122.412655,47.265755],[-122.41267,47.265895],[-122.412453,47.265885],[-122.412409,47.265918],[-122.412405,47.265983],[-122.412322,47.265987],[-122.412276,47.266021],[-122.412259,47.266133],[-122.412306,47.266161],[-122.412403,47.266164],[-122.412406,47.266215],[-122.412444,47.266247],[-122.413063,47.266257],[-122.413084,47.266421],[-122.413325,47.266438],[-122.413324,47.266528],[-122.413289,47.266576],[-122.413329,47.266675],[-122.413371,47.266704],[-122.413455,47.266709],[-122.41345,47.266868],[-122.413585,47.266889],[-122.413587,47.267216],[-122.41363,47.267245],[-122.413713,47.26725],[-122.413718,47.267307],[-122.413761,47.267336],[-122.413976,47.267341],[-122.413992,47.267592],[-122.414106,47.267612],[-122.414111,47.267669],[-122.414154,47.267698],[-122.414369,47.267703],[-122.414381,47.267859],[-122.414499,47.267884],[-122.414534,47.267965],[-122.41463,47.267975],[-122.414659,47.268052],[-122.414762,47.268065],[-122.41479,47.268143],[-122.414893,47.268156],[-122.414914,47.26832],[-122.415023,47.268337],[-122.41504,47.268407],[-122.415154,47.268427],[-122.415171,47.268497],[-122.415285,47.268518],[-122.415298,47.268584],[-122.415417,47.268608],[-122.415451,47.268689],[-122.41568,47.2687],[-122.415684,47.268846],[-122.415727,47.268876],[-122.41581,47.26888],[-122.415838,47.268958],[-122.416074,47.268972],[-122.416096,47.269046],[-122.416205,47.269062],[-122.416217,47.269128],[-122.416336,47.269153],[-122.416364,47.269231],[-122.416467,47.269244],[-122.416466,47.269334],[-122.416383,47.269337],[-122.416337,47.269371],[-122.416356,47.269497],[-122.416411,47.269513],[-122.416861,47.269516],[-122.416875,47.269856],[-122.416928,47.269876],[-122.417121,47.269877],[-122.417144,47.269951],[-122.417252,47.269968],[-122.417251,47.270099],[-122.417286,47.270139],[-122.417515,47.270149],[-122.417531,47.270309],[-122.417645,47.27033],[-122.41768,47.270411],[-122.417776,47.27042],[-122.417805,47.270498],[-122.417907,47.270511],[-122.417936,47.270589],[-122.418039,47.270601],[-122.418067,47.270679],[-122.41817,47.270692],[-122.418198,47.27077],[-122.418301,47.270783],[-122.418329,47.270861],[-122.418432,47.270873],[-122.418455,47.270948],[-122.418564,47.270964],[-122.418586,47.271038],[-122.418695,47.271055],[-122.418717,47.271129],[-122.418826,47.271145],[-122.41883,47.271292],[-122.418873,47.271321],[-122.418956,47.271326],[-122.418979,47.2714],[-122.41922,47.271417],[-122.419231,47.271573],[-122.41935,47.271598],[-122.419384,47.271679],[-122.419481,47.271689],[-122.419489,47.27184],[-122.419535,47.271866],[-122.419611,47.271869],[-122.41961,47.272096],[-122.41965,47.272133],[-122.419741,47.27214],[-122.419752,47.272296],[-122.41981,47.27232],[-122.420003,47.272321],[-122.420025,47.272395],[-122.420134,47.272412],[-122.420151,47.272572],[-122.420264,47.272592],[-122.420299,47.272673],[-122.420396,47.272683],[-122.420424,47.272761],[-122.420527,47.272774],[-122.420525,47.272954],[-122.420324,47.272954],[-122.420266,47.272986],[-122.420258,47.273222],[-122.420143,47.273241],[-122.420123,47.273401],[-122.42004,47.273405],[-122.419994,47.273439],[-122.419988,47.273671],[-122.419891,47.273679],[-122.419855,47.27376],[-122.419772,47.273764],[-122.419729,47.273793],[-122.41972,47.274029],[-122.41963,47.274035],[-122.419589,47.274072],[-122.419585,47.274299],[-122.419481,47.27431],[-122.419452,47.274388],[-122.419355,47.274397],[-122.419318,47.274477],[-122.419204,47.274496],[-122.419184,47.274656],[-122.419101,47.27466],[-122.419058,47.274689],[-122.419048,47.275016],[-122.418848,47.275016],[-122.418789,47.275048],[-122.418799,47.275188],[-122.418858,47.275209],[-122.419046,47.275196],[-122.419045,47.275286],[-122.418936,47.275301],[-122.418912,47.275375],[-122.418793,47.275398],[-122.418779,47.275464],[-122.418586,47.275464],[-122.418527,47.275487],[-122.41851,47.275823],[-122.418434,47.275825],[-122.418387,47.275851],[-122.418375,47.276092],[-122.418266,47.276107],[-122.418242,47.276181],[-122.418019,47.276187],[-122.417981,47.276218],[-122.417975,47.27627],[-122.416128,47.276261],[-122.416064,47.276236],[-122.415992,47.27626],[-122.410971,47.276234],[-122.410907,47.27621],[-122.410837,47.276234],[-122.410443,47.276232],[-122.410439,47.27609],[-122.410363,47.276051],[-122.410213,47.27606],[-122.410177,47.27614],[-122.409781,47.276138],[-122.409758,47.276064],[-122.409649,47.276047],[-122.409628,47.275883],[-122.409519,47.275867],[-122.409514,47.27581],[-122.409471,47.275781],[-122.409256,47.275775],[-122.409257,47.275686],[-122.40936,47.275674],[-122.40939,47.275596],[-122.409501,47.27559],[-122.409543,47.275541],[-122.409489,47.275426],[-122.40926,47.275416],[-122.409266,47.275166],[-122.409131,47.275145],[-122.409118,47.275079],[-122.409052,47.275055],[-122.408902,47.275063],[-122.408866,47.275144],[-122.408602,47.275142],[-122.408604,47.274962],[-122.408723,47.274939],[-122.408737,47.274837],[-122.408703,47.274792],[-122.408606,47.274782],[-122.408607,47.274651],[-122.408579,47.274615],[-122.408378,47.27461],[-122.408342,47.274691],[-122.408223,47.274714],[-122.408209,47.27478],[-122.407945,47.274779],[-122.407955,47.274534],[-122.407897,47.274509],[-122.407683,47.274508],[-122.407684,47.274418],[-122.40772,47.27437],[-122.407685,47.274328],[-122.407687,47.274183],[-122.407659,47.274147],[-122.407291,47.274146],[-122.407268,47.274071],[-122.40716,47.274055],[-122.407148,47.273899],[-122.406983,47.273852],[-122.406794,47.273885],[-122.406764,47.273963],[-122.406632,47.273962],[-122.406633,47.273872],[-122.406716,47.273869],[-122.406759,47.27384],[-122.406765,47.273737],[-122.406703,47.273694],[-122.406503,47.273692],[-122.406524,47.273562],[-122.406497,47.273524],[-122.406172,47.273511],[-122.406117,47.273538],[-122.406107,47.2736],[-122.405843,47.273598],[-122.405865,47.273384],[-122.405843,47.273345],[-122.405794,47.273328],[-122.405449,47.273326],[-122.40545,47.273236],[-122.405554,47.273233],[-122.405602,47.273192],[-122.405568,47.273065],[-122.405619,47.273004],[-122.405567,47.272958],[-122.40547,47.272973],[-122.405452,47.273056],[-122.405236,47.273059],[-122.405193,47.273088],[-122.405186,47.273145],[-122.404978,47.273146],[-122.404928,47.273177],[-122.404921,47.273234],[-122.404789,47.273233],[-122.404791,47.273053],[-122.404895,47.273049],[-122.404943,47.273009],[-122.404909,47.272713],[-122.404856,47.272694],[-122.404712,47.272697],[-122.404668,47.272726],[-122.404662,47.272782],[-122.40453,47.272782],[-122.404467,47.272757],[-122.404397,47.272781],[-122.404265,47.27278],[-122.404267,47.2726],[-122.404303,47.272558],[-122.404268,47.27251],[-122.40427,47.27233],[-122.404499,47.272329],[-122.404555,47.272281],[-122.404541,47.271751],[-122.4045,47.271708],[-122.40441,47.271701],[-122.404431,47.271572],[-122.404404,47.271534],[-122.404181,47.271516],[-122.404146,47.27161],[-122.404037,47.271625],[-122.404013,47.271699],[-122.403748,47.271698],[-122.403686,47.271673],[-122.403616,47.271697],[-122.403352,47.271696],[-122.403317,47.271615],[-122.403136,47.271595],[-122.403094,47.271624],[-122.403052,47.271737],[-122.403086,47.271784],[-122.403084,47.271964],[-122.402952,47.271963],[-122.402947,47.271893],[-122.402899,47.271862],[-122.402689,47.271872],[-122.402686,47.271807],[-122.402643,47.271773],[-122.402426,47.271781],[-122.402429,47.271511],[-122.402464,47.271469],[-122.402429,47.27142],[-122.402433,47.271151],[-122.402468,47.271109],[-122.402434,47.27106],[-122.402518,47.263593],[-122.402759,47.263578],[-122.402784,47.263414],[-122.403019,47.263403],[-122.403049,47.263326],[-122.403133,47.263322],[-122.403176,47.263293],[-122.403184,47.263146],[-122.403281,47.263138],[-122.403316,47.263093],[-122.403304,47.262991],[-122.403186,47.262966],[-122.403151,47.262885],[-122.403054,47.262876],[-122.403026,47.262798],[-122.402791,47.262784],[-122.402769,47.26271],[-122.40266,47.262694],[-122.402626,47.262613],[-122.402529,47.262603],[-122.402537,47.261883],[-122.402646,47.261868],[-122.40267,47.261794],[-122.404783,47.261805],[-122.404847,47.261829],[-122.404919,47.261806],[-122.407294,47.261818],[-122.407358,47.261842],[-122.40743,47.261819],[-122.421701,47.261892],[-122.421765,47.261916],[-122.421837,47.261892],[-122.423686,47.261902]],[[-122.403264,47.269316],[-122.403213,47.269185],[-122.40304,47.269177],[-122.402989,47.269208],[-122.402964,47.269314],[-122.403025,47.269353],[-122.40321,47.269353],[-122.403264,47.269316]],[[-122.403225,47.271514],[-122.403257,47.271478],[-122.403242,47.271438],[-122.403183,47.271412],[-122.403118,47.271424],[-122.40309,47.271459],[-122.403107,47.271508],[-122.403166,47.271529],[-122.403225,47.271514]],[[-122.404215,47.265491],[-122.404298,47.265488],[-122.404344,47.265454],[-122.404345,47.26535],[-122.404293,47.265314],[-122.404009,47.265313],[-122.403958,47.265343],[-122.403951,47.2654],[-122.403716,47.265411],[-122.403687,47.265447],[-122.403685,47.265578],[-122.403449,47.26559],[-122.40342,47.265626],[-122.403418,47.265757],[-122.403335,47.265761],[-122.403292,47.26579],[-122.403249,47.265894],[-122.403302,47.266007],[-122.403477,47.266051],[-122.403651,47.266016],[-122.403681,47.265938],[-122.403784,47.265927],[-122.403814,47.265849],[-122.403917,47.265837],[-122.403947,47.26576],[-122.404044,47.265751],[-122.404081,47.265671],[-122.4042,47.265647],[-122.404215,47.265491]],[[-122.403502,47.270117],[-122.403433,47.270063],[-122.403267,47.270088],[-122.403238,47.270124],[-122.403253,47.270249],[-122.40332,47.27027],[-122.403471,47.270244],[-122.403499,47.270213],[-122.403502,47.270117]],[[-122.403582,47.271598],[-122.403636,47.271467],[-122.403584,47.271429],[-122.403409,47.271402],[-122.403321,47.271457],[-122.403359,47.271572],[-122.403409,47.271604],[-122.403582,47.271598]],[[-122.403769,47.269848],[-122.403701,47.269794],[-122.403534,47.269819],[-122.403505,47.269856],[-122.403521,47.26998],[-122.403587,47.270001],[-122.403739,47.269976],[-122.403767,47.269945],[-122.403769,47.269848]],[[-122.405826,47.26325],[-122.405909,47.263246],[-122.405955,47.263212],[-122.405956,47.263109],[-122.405904,47.263073],[-122.405356,47.26307],[-122.405305,47.263101],[-122.405298,47.263157],[-122.405179,47.263181],[-122.405165,47.263247],[-122.405033,47.263246],[-122.405029,47.263099],[-122.404986,47.26307],[-122.404903,47.263065],[-122.404875,47.262987],[-122.40464,47.262974],[-122.404611,47.262896],[-122.404376,47.262883],[-122.404364,47.262817],[-122.404298,47.262792],[-122.404009,47.262803],[-122.40398,47.26288],[-122.403896,47.262884],[-122.403853,47.262913],[-122.403845,47.26306],[-122.403742,47.263072],[-122.403712,47.263149],[-122.403615,47.263158],[-122.403579,47.263202],[-122.403592,47.263304],[-122.40371,47.263329],[-122.403745,47.26341],[-122.403841,47.26342],[-122.40387,47.263498],[-122.404105,47.263511],[-122.404127,47.263585],[-122.404236,47.263602],[-122.40424,47.263748],[-122.404283,47.263778],[-122.404366,47.263782],[-122.404394,47.26386],[-122.404629,47.263874],[-122.404638,47.263935],[-122.404692,47.263963],[-122.405157,47.263967],[-122.40517,47.264033],[-122.405235,47.264057],[-122.405372,47.264053],[-122.405421,47.264009],[-122.405409,47.263902],[-122.40529,47.263877],[-122.405292,47.263697],[-122.405396,47.263685],[-122.405426,47.263608],[-122.405529,47.263596],[-122.405559,47.263519],[-122.405656,47.26351],[-122.405692,47.263429],[-122.405806,47.26341],[-122.405826,47.26325]],[[-122.406145,47.263072],[-122.406222,47.263034],[-122.406217,47.262921],[-122.406163,47.262893],[-122.406004,47.262897],[-122.405963,47.262934],[-122.40597,47.263042],[-122.406024,47.26307],[-122.406145,47.263072]],[[-122.407728,47.26335],[-122.407807,47.263307],[-122.407807,47.263119],[-122.407754,47.263082],[-122.407603,47.263082],[-122.407555,47.263108],[-122.40751,47.263206],[-122.407547,47.263311],[-122.4076,47.263347],[-122.407728,47.26335]],[[-122.409102,47.262104],[-122.408942,47.262072],[-122.408776,47.262108],[-122.408746,47.262185],[-122.408643,47.262197],[-122.408613,47.262275],[-122.40851,47.262286],[-122.40848,47.262364],[-122.408376,47.262376],[-122.408346,47.262453],[-122.408243,47.262465],[-122.408213,47.262542],[-122.408116,47.262551],[-122.40808,47.262632],[-122.407966,47.262651],[-122.407945,47.262937],[-122.407973,47.262979],[-122.408305,47.262984],[-122.408342,47.262903],[-122.408461,47.26288],[-122.408475,47.262814],[-122.408589,47.262795],[-122.408608,47.262725],[-122.408722,47.262705],[-122.408741,47.262635],[-122.408855,47.262616],[-122.408874,47.262546],[-122.408989,47.262527],[-122.409007,47.262457],[-122.409122,47.262438],[-122.409142,47.262141],[-122.409102,47.262104]],[[-122.409257,47.263808],[-122.409333,47.263806],[-122.40938,47.26378],[-122.409373,47.263648],[-122.409319,47.263628],[-122.409127,47.263627],[-122.409114,47.263561],[-122.408995,47.263536],[-122.408967,47.263459],[-122.408804,47.263446],[-122.408741,47.263474],[-122.408731,47.263535],[-122.408617,47.263554],[-122.408598,47.263624],[-122.408483,47.263643],[-122.408465,47.263714],[-122.40835,47.263733],[-122.408296,47.26385],[-122.408348,47.263963],[-122.408462,47.263984],[-122.408496,47.264065],[-122.408593,47.264074],[-122.408615,47.264149],[-122.408785,47.264165],[-122.408847,47.264137],[-122.408857,47.264076],[-122.408972,47.264056],[-122.40899,47.263986],[-122.409105,47.263967],[-122.409124,47.263897],[-122.409238,47.263878],[-122.409257,47.263808]],[[-122.409848,47.27169],[-122.409818,47.271573],[-122.409699,47.271549],[-122.409694,47.271492],[-122.409651,47.271462],[-122.409436,47.271457],[-122.409374,47.271433],[-122.409304,47.271457],[-122.409172,47.271456],[-122.409167,47.271386],[-122.409104,47.271352],[-122.408957,47.271369],[-122.408914,47.271398],[-122.408906,47.271586],[-122.408954,47.271631],[-122.409434,47.271637],[-122.409447,47.271703],[-122.409512,47.271728],[-122.409802,47.271725],[-122.409848,47.27169]],[[-122.40966,47.267432],[-122.409865,47.267386],[-122.409876,47.267269],[-122.409823,47.267232],[-122.409671,47.267232],[-122.409621,47.267262],[-122.409581,47.267377],[-122.40966,47.267432]],[[-122.409918,47.275689],[-122.409938,47.275644],[-122.409905,47.275608],[-122.40983,47.2756],[-122.409778,47.275623],[-122.409768,47.275665],[-122.409804,47.275702],[-122.409863,47.275712],[-122.409918,47.275689]],[[-122.4101,47.27596],[-122.410176,47.275922],[-122.410172,47.275809],[-122.410117,47.275781],[-122.409959,47.275786],[-122.409918,47.275822],[-122.409924,47.27593],[-122.409979,47.275958],[-122.4101,47.27596]],[[-122.412147,47.270211],[-122.41222,47.270178],[-122.412226,47.270075],[-122.412186,47.270038],[-122.412096,47.270031],[-122.412068,47.269953],[-122.41178,47.26994],[-122.411718,47.269959],[-122.411705,47.270086],[-122.411747,47.270115],[-122.41183,47.27012],[-122.411859,47.270198],[-122.412147,47.270211]],[[-122.412902,47.27062],[-122.41287,47.270509],[-122.412752,47.270484],[-122.412749,47.270433],[-122.412711,47.270401],[-122.412552,47.270394],[-122.412498,47.270422],[-122.412496,47.270545],[-122.412543,47.270571],[-122.412619,47.270574],[-122.412622,47.270625],[-122.41266,47.270658],[-122.412861,47.270658],[-122.412902,47.27062]],[[-122.413146,47.273954],[-122.413098,47.27384],[-122.41298,47.273815],[-122.412977,47.273763],[-122.412938,47.273731],[-122.41278,47.273725],[-122.412725,47.273752],[-122.412679,47.273856],[-122.412717,47.273955],[-122.412762,47.27399],[-122.412845,47.273994],[-122.412848,47.274046],[-122.412886,47.274078],[-122.413024,47.274099],[-122.413086,47.274083],[-122.413146,47.273954]],[[-122.414056,47.273865],[-122.414032,47.273764],[-122.413989,47.273734],[-122.413843,47.273716],[-122.413779,47.273749],[-122.413774,47.273866],[-122.413821,47.273905],[-122.414015,47.273904],[-122.414056,47.273865]],[[-122.415375,47.263617],[-122.415318,47.263495],[-122.415209,47.263478],[-122.415207,47.263337],[-122.415139,47.263298],[-122.414863,47.263301],[-122.41482,47.26333],[-122.414813,47.263386],[-122.414694,47.26341],[-122.41468,47.263476],[-122.414472,47.263477],[-122.414416,47.263523],[-122.414427,47.26363],[-122.414546,47.263655],[-122.414563,47.263725],[-122.414677,47.263746],[-122.414686,47.263807],[-122.414748,47.263836],[-122.41517,47.263829],[-122.415206,47.263748],[-122.415289,47.263745],[-122.415332,47.263716],[-122.415375,47.263617]],[[-122.414723,47.264376],[-122.414799,47.264338],[-122.414795,47.264225],[-122.41474,47.264197],[-122.414582,47.264201],[-122.414541,47.264238],[-122.414548,47.264346],[-122.414602,47.264374],[-122.414723,47.264376]],[[-122.416263,47.264449],[-122.41624,47.264223],[-122.416187,47.264203],[-122.416043,47.264207],[-122.416,47.264236],[-122.415993,47.264292],[-122.415874,47.264316],[-122.41586,47.264381],[-122.415741,47.264405],[-122.415711,47.264526],[-122.415769,47.26456],[-122.416075,47.264572],[-122.416119,47.264538],[-122.416123,47.264473],[-122.41622,47.264471],[-122.416263,47.264449]],[[-122.416192,47.263033],[-122.416268,47.262995],[-122.416259,47.262878],[-122.416202,47.262854],[-122.416023,47.262862],[-122.415988,47.262908],[-122.41602,47.263009],[-122.416071,47.263032],[-122.416192,47.263033]],[[-122.41642,47.266364],[-122.416496,47.266326],[-122.416487,47.266208],[-122.416429,47.266184],[-122.41625,47.266193],[-122.416216,47.266239],[-122.416248,47.266339],[-122.416298,47.266362],[-122.41642,47.266364]],[[-122.41667,47.266629],[-122.416823,47.266649],[-122.41688,47.266626],[-122.416892,47.2665],[-122.416845,47.26646],[-122.416692,47.266443],[-122.416633,47.26648],[-122.41663,47.266592],[-122.41667,47.266629]],[[-122.417691,47.266462],[-122.417632,47.266446],[-122.417573,47.266466],[-122.417555,47.266515],[-122.417582,47.266551],[-122.417646,47.266563],[-122.417707,47.266538],[-122.417722,47.266498],[-122.417691,47.266462]],[[-122.418952,47.264487],[-122.419028,47.264449],[-122.419019,47.264332],[-122.418962,47.264308],[-122.418783,47.264316],[-122.418748,47.264362],[-122.41878,47.264462],[-122.418831,47.264486],[-122.418952,47.264487]],[[-122.42123,47.268908],[-122.421218,47.268842],[-122.421099,47.268817],[-122.421094,47.268761],[-122.421044,47.268729],[-122.42089,47.268703],[-122.420835,47.268726],[-122.420627,47.268727],[-122.420574,47.268763],[-122.420569,47.26896],[-122.420622,47.269006],[-122.420797,47.268987],[-122.420834,47.268906],[-122.420966,47.268907],[-122.420988,47.268981],[-122.421097,47.268997],[-122.42113,47.269091],[-122.421304,47.269086],[-122.421357,47.26905],[-122.421359,47.268947],[-122.421313,47.268912],[-122.42123,47.268908]],[[-122.422969,47.267298],[-122.422967,47.26707],[-122.422898,47.267027],[-122.42274,47.267035],[-122.422704,47.267116],[-122.422601,47.267127],[-122.422571,47.267205],[-122.42248,47.267211],[-122.422438,47.267253],[-122.422455,47.267365],[-122.422569,47.267385],[-122.422603,47.267466],[-122.422754,47.267499],[-122.422951,47.267453],[-122.423001,47.267345],[-122.422969,47.267298]]]}},{"type":"Feature","properties":{"id":2,"area_m2":99800,"px":998,"rank":2,"persistent":true},"geometry":{"type":"Polygon","coordinates":[[[-122.408458,47.276131],[-122.408456,47.276221],[-122.403568,47.276196],[-122.403538,47.276118],[-122.403379,47.276091],[-122.403311,47.27612],[-122.403301,47.276195],[-122.402376,47.27619],[-122.40239,47.274931],[-122.402426,47.274888],[-122.402391,47.274839],[-122.402415,47.272682],[-122.402451,47.272638],[-122.402416,47.272591],[-122.402418,47.272411],[-122.402815,47.272413],[-122.402818,47.272464],[-122.402856,47.272497],[-122.403078,47.272504],[-122.403101,47.272578],[-122.403209,47.272595],[-122.403188,47.272719],[-122.40321,47.272758],[-122.403472,47.272776],[-122.403493,47.27294],[-122.403734,47.272958],[-122.403733,47.273047],[-122.403697,47.27309],[-122.403732,47.273137],[-122.403712,47.273272],[-122.403758,47.273313],[-122.403862,47.273318],[-122.403874,47.273474],[-122.403932,47.273498],[-122.404257,47.2735],[-122.404261,47.273647],[-122.404304,47.273676],[-122.404387,47.273681],[-122.404415,47.273759],[-122.404594,47.273769],[-122.404645,47.273739],[-122.404652,47.273682],[-122.404784,47.273683],[-122.404788,47.273829],[-122.404831,47.273859],[-122.404914,47.273863],[-122.404942,47.273941],[-122.40531,47.273956],[-122.405332,47.27403],[-122.405441,47.274046],[-122.40544,47.274191],[-122.405473,47.27423],[-122.405703,47.274228],[-122.405706,47.274279],[-122.405744,47.274311],[-122.405967,47.274319],[-122.405972,47.274375],[-122.406022,47.274407],[-122.40623,47.27441],[-122.406235,47.27448],[-122.406283,47.274511],[-122.406493,47.274502],[-122.406491,47.274681],[-122.406456,47.274734],[-122.406508,47.274842],[-122.406622,47.274862],[-122.406633,47.275018],[-122.406752,47.275043],[-122.406757,47.275099],[-122.4068,47.275129],[-122.407015,47.275134],[-122.407038,47.275208],[-122.407146,47.275225],[-122.407181,47.275306],[-122.407278,47.275315],[-122.40731,47.27541],[-122.407541,47.275407],[-122.407611,47.275431],[-122.407673,47.275407],[-122.407896,47.275402],[-122.407935,47.27537],[-122.407939,47.275319],[-122.408022,47.275315],[-122.408068,47.275281],[-122.408074,47.27505],[-122.408338,47.275051],[-122.408336,47.275231],[-122.408239,47.275239],[-122.408203,47.27532],[-122.40812,47.275324],[-122.408074,47.275358],[-122.408068,47.275589],[-122.407867,47.275589],[-122.407809,47.275621],[-122.4078,47.275858],[-122.407764,47.275906],[-122.407812,47.276014],[-122.407931,47.276039],[-122.407936,47.276095],[-122.407979,47.276125],[-122.408458,47.276131]],[[-122.404018,47.275928],[-122.404095,47.27589],[-122.40409,47.275777],[-122.404036,47.27575],[-122.403877,47.275754],[-122.403838,47.275786],[-122.403822,47.275898],[-122.403876,47.275927],[-122.404018,47.275928]],[[-122.406643,47.275488],[-122.40681,47.275506],[-122.406866,47.275483],[-122.406877,47.275352],[-122.406825,47.275315],[-122.406673,47.275315],[-122.406622,47.275345],[-122.406597,47.275452],[-122.406643,47.275488]],[[-122.407539,47.275627],[-122.407478,47.275574],[-122.407289,47.275595],[-122.407254,47.275641],[-122.407286,47.275741],[-122.407344,47.275765],[-122.407502,47.275757],[-122.407536,47.275723],[-122.407539,47.275627]],[[-122.40767,47.275495],[-122.407618,47.275474],[-122.407559,47.275483],[-122.40752,47.275525],[-122.407536,47.275566],[-122.40759,47.275587],[-122.407664,47.275575],[-122.407692,47.275537],[-122.40767,47.275495]]]}},{"type":"Feature","properties":{"id":7,"area_m2":1400,"px":14,"rank":3,"persistent":false},"geometry":{"type":"Polygon","coordinates":[[[-122.404405,47.272061],[-122.404404,47.272151],[-122.404295,47.272166],[-122.404271,47.27224],[-122.403875,47.272238],[-122.403876,47.272107],[-122.403841,47.272067],[-122.403612,47.272057],[-122.40355,47.272033],[-122.40348,47.272056],[-122.403216,47.272055],[-122.403217,47.271965],[-122.403439,47.27196],[-122.403478,47.271928],[-122.403482,47.271876],[-122.403746,47.271878],[-122.403775,47.271956],[-122.40401,47.271969],[-122.404015,47.272026],[-122.404058,47.272055],[-122.404405,47.272061]]]}},{"type":"Feature","properties":{"id":6,"area_m2":1000,"px":10,"rank":4,"persistent":false},"geometry":{"type":"Polygon","coordinates":[[[-122.40295,47.272144],[-122.402949,47.272233],[-122.40284,47.272249],[-122.402816,47.272323],[-122.402419,47.272321],[-122.402424,47.271871],[-122.402557,47.271872],[-122.402561,47.272018],[-122.402604,47.272048],[-122.402687,47.272052],[-122.40272,47.272146],[-122.40295,47.272144]]]}},{"type":"Feature","properties":{"id":8,"area_m2":1000,"px":10,"rank":5,"persistent":false},"geometry":{"type":"Polygon","coordinates":[[[-122.422661,47.271075],[-122.422657,47.271435],[-122.42226,47.271433],[-122.422262,47.271253],[-122.422338,47.271251],[-122.422385,47.271225],[-122.422396,47.271073],[-122.422661,47.271075]]]}},{"type":"Feature","properties":{"id":4,"area_m2":700,"px":7,"rank":6,"persistent":false},"geometry":{"type":"Polygon","coordinates":[[[-122.405051,47.273414],[-122.40505,47.273504],[-122.404828,47.273509],[-122.404789,47.273541],[-122.404785,47.273593],[-122.404521,47.273591],[-122.404523,47.273412],[-122.404745,47.273406],[-122.404784,47.273375],[-122.404788,47.273323],[-122.40492,47.273324],[-122.404942,47.273398],[-122.405051,47.273414]]]}},{"type":"Feature","properties":{"id":5,"area_m2":400,"px":4,"rank":7,"persistent":false},"geometry":{"type":"Polygon","coordinates":[[[-122.404136,47.27251],[-122.404134,47.27269],[-122.404002,47.272689],[-122.403996,47.272632],[-122.403946,47.272601],[-122.403738,47.272597],[-122.403739,47.272508],[-122.404136,47.27251]]]}},{"type":"Feature","properties":{"id":9,"area_m2":400,"px":4,"rank":8,"persistent":true},"geometry":{"type":"Polygon","coordinates":[[[-122.408877,47.262276],[-122.408875,47.262456],[-122.408766,47.262471],[-122.408742,47.262545],[-122.408478,47.262544],[-122.408479,47.262454],[-122.408671,47.262455],[-122.40873,47.262431],[-122.408745,47.262275],[-122.408877,47.262276]]]}},{"type":"Feature","properties":{"id":3,"area_m2":300,"px":3,"rank":9,"persistent":false},"geometry":{"type":"Polygon","coordinates":[[[-122.40781,47.274958],[-122.407809,47.275048],[-122.4077,47.275063],[-122.407676,47.275137],[-122.407544,47.275137],[-122.407546,47.274957],[-122.40781,47.274958]]]}}]}