{"type":"FeatureCollection","features":[{"type":"Feature","properties":{"id":1,"area_m2":29300,"px":293,"rank":1},"geometry":{"type":"Polygon","coordinates":[[[-122.415332,47.276257],[-122.415331,47.276347],[-122.415136,47.276332],[-122.415068,47.276375],[-122.415065,47.276662],[-122.415105,47.276699],[-122.415195,47.276706],[-122.415194,47.276796],[-122.415062,47.276795],[-122.415045,47.276725],[-122.414931,47.276704],[-122.414922,47.276643],[-122.414868,47.276615],[-122.414703,47.276622],[-122.414666,47.276703],[-122.414402,47.276702],[-122.414403,47.276612],[-122.414507,47.276608],[-122.414553,47.276573],[-122.414528,47.276371],[-122.414482,47.276345],[-122.414406,47.276342],[-122.414401,47.276285],[-122.414358,47.276256],[-122.414143,47.27625],[-122.414144,47.276119],[-122.414109,47.27608],[-122.413748,47.276068],[-122.413725,47.275994],[-122.413617,47.275978],[-122.413582,47.275897],[-122.413486,47.275887],[-122.413508,47.275673],[-122.413486,47.275634],[-122.413437,47.275617],[-122.413092,47.275615],[-122.413093,47.275484],[-122.413058,47.275444],[-122.412829,47.275434],[-122.412821,47.275372],[-122.412767,47.275345],[-122.412434,47.275342],[-122.412411,47.275268],[-122.412303,47.275251],[-122.412304,47.275161],[-122.412413,47.275146],[-122.412437,47.275072],[-122.412762,47.275073],[-122.412824,47.275045],[-122.412836,47.274804],[-122.412872,47.274762],[-122.412837,47.274714],[-122.412838,47.274624],[-122.413074,47.274613],[-122.413104,47.274536],[-122.413201,47.274527],[-122.413237,47.274446],[-122.413351,47.274427],[-122.41337,47.274357],[-122.413827,47.274359],[-122.413886,47.274336],[-122.413901,47.27418],[-122.414026,47.274168],[-122.414047,47.274104],[-122.413972,47.274066],[-122.413891,47.274101],[-122.413638,47.274088],[-122.413639,47.273998],[-122.413839,47.273998],[-122.413897,47.273966],[-122.413899,47.273853],[-122.413856,47.273824],[-122.413773,47.273819],[-122.413774,47.273729],[-122.413871,47.273721],[-122.413907,47.27364],[-122.414004,47.273638],[-122.414051,47.273611],[-122.414042,47.273371],[-122.414174,47.273371],[-122.414197,47.273446],[-122.414305,47.273462],[-122.414323,47.273532],[-122.414437,47.273553],[-122.414471,47.273634],[-122.414568,47.273643],[-122.414596,47.273721],[-122.414699,47.273734],[-122.414678,47.273863],[-122.414705,47.273901],[-122.414891,47.273939],[-122.414962,47.273915],[-122.415094,47.273916],[-122.415116,47.27399],[-122.415225,47.274007],[-122.415224,47.274096],[-122.415188,47.274139],[-122.415223,47.274186],[-122.415222,47.274276],[-122.415029,47.274276],[-122.414975,47.274295],[-122.414955,47.274545],[-122.414843,47.274551],[-122.414802,47.274595],[-122.414856,47.274715],[-122.415085,47.274726],[-122.415084,47.274816],[-122.414969,47.274835],[-122.41495,47.274995],[-122.414841,47.27501],[-122.414816,47.275084],[-122.414697,47.275108],[-122.414683,47.275173],[-122.414442,47.275188],[-122.414417,47.275298],[-122.414452,47.275343],[-122.414549,47.275353],[-122.414514,47.275501],[-122.41457,47.275607],[-122.414678,47.275623],[-122.41469,47.275779],[-122.414748,47.275803],[-122.414941,47.275805],[-122.414963,47.275879],[-122.415072,47.275895],[-122.415106,47.275976],[-122.415203,47.275986],[-122.415204,47.276218],[-122.415249,47.276252],[-122.415332,47.276257]],[[-122.413281,47.275256],[-122.413357,47.275218],[-122.413353,47.275105],[-122.413298,47.275077],[-122.41314,47.275082],[-122.413101,47.275114],[-122.413084,47.275226],[-122.413139,47.275255],[-122.413281,47.275256]],[[-122.413765,47.27481],[-122.413707,47.274785],[-122.413648,47.274795],[-122.413596,47.27484],[-122.413609,47.274885],[-122.413675,47.274921],[-122.413742,47.274912],[-122.413796,47.274862],[-122.413765,47.27481]],[[-122.414136,47.274705],[-122.414179,47.274491],[-122.414134,47.274455],[-122.413921,47.274466],[-122.413861,47.274582],[-122.413918,47.274704],[-122.413974,47.27472],[-122.414136,47.274705]],[[-122.414452,47.273783],[-122.414407,47.273655],[-122.414233,47.273629],[-122.414177,47.273661],[-122.414152,47.273781],[-122.414213,47.27382],[-122.414398,47.27382],[-122.414452,47.273783]],[[-122.414934,47.276253],[-122.414881,47.276231],[-122.414822,47.276241],[-122.414784,47.276283],[-122.4148,47.276323],[-122.414854,47.276344],[-122.414927,47.276332],[-122.414956,47.276294],[-122.414934,47.276253]]]}},{"type":"Feature","properties":{"id":40,"area_m2":22100,"px":221,"rank":2},"geometry":{"type":"Polygon","coordinates":[[[-122.408658,47.270104],[-122.408654,47.270463],[-122.408539,47.270483],[-122.40852,47.270643],[-122.408436,47.270646],[-122.408393,47.270675],[-122.408384,47.270912],[-122.408143,47.270926],[-122.408118,47.27109],[-122.407895,47.271096],[-122.407857,47.271127],[-122.407853,47.271179],[-122.407588,47.271178],[-122.407607,47.271038],[-122.407562,47.271002],[-122.407458,47.270997],[-122.407459,47.270866],[-122.407431,47.270829],[-122.407266,47.270792],[-122.407196,47.270816],[-122.407064,47.270815],[-122.407051,47.270749],[-122.406932,47.270724],[-122.406898,47.270643],[-122.406669,47.270633],[-122.406664,47.270486],[-122.406622,47.270457],[-122.406539,47.270452],[-122.406533,47.270396],[-122.406491,47.270366],[-122.406317,47.270368],[-122.406278,47.270399],[-122.406274,47.270451],[-122.40601,47.27045],[-122.405988,47.270375],[-122.405879,47.270359],[-122.405857,47.270195],[-122.405616,47.270178],[-122.405594,47.270103],[-122.405485,47.270087],[-122.405487,47.269907],[-122.405563,47.269905],[-122.40561,47.269879],[-122.405621,47.269728],[-122.405814,47.269729],[-122.405873,47.269705],[-122.405889,47.269459],[-122.406153,47.269461],[-122.406186,47.269555],[-122.406353,47.269551],[-122.406416,47.269509],[-122.406419,47.269372],[-122.406551,47.269373],[-122.406551,47.269523],[-122.406596,47.269562],[-122.40721,47.269556],[-122.407232,47.26963],[-122.407341,47.269647],[-122.407354,47.269713],[-122.407472,47.269737],[-122.4075,47.269815],[-122.407603,47.269828],[-122.407603,47.269965],[-122.407643,47.270002],[-122.407832,47.270013],[-122.407866,47.269974],[-122.407868,47.26983],[-122.408,47.26983],[-122.408017,47.2699],[-122.408131,47.269921],[-122.408144,47.269987],[-122.408262,47.270012],[-122.408297,47.270093],[-122.408658,47.270104]],[[-122.406172,47.269895],[-122.406483,47.269925],[-122.406539,47.269893],[-122.406523,47.269748],[-122.406467,47.269732],[-122.406173,47.269747],[-122.40615,47.269785],[-122.406172,47.269895]]]}},{"type":"Feature","properties":{"id":10,"area_m2":18800,"px":188,"rank":3},"geometry":{"type":"Polygon","coordinates":[[[-122.413238,47.274088],[-122.413205,47.274134],[-122.41324,47.274176],[-122.413238,47.274356],[-122.413129,47.274372],[-122.413105,47.274445],[-122.412973,47.274445],[-122.41291,47.27442],[-122.41284,47.274444],[-122.412708,47.274443],[-122.412698,47.274108],[-122.412518,47.274059],[-122.412448,47.274082],[-122.412316,47.274082],[-122.412293,47.274007],[-122.412184,47.273991],[-122.412164,47.273813],[-122.41211,47.273797],[-122.411922,47.27381],[-122.411899,47.273735],[-122.411791,47.273719],[-122.411811,47.273584],[-122.411742,47.273539],[-122.411536,47.27355],[-122.411508,47.273588],[-122.411526,47.273718],[-122.411417,47.273733],[-122.411393,47.273807],[-122.411274,47.27383],[-122.41126,47.273896],[-122.411128,47.273895],[-122.411105,47.273821],[-122.410997,47.273805],[-122.410962,47.273724],[-122.410865,47.273714],[-122.410844,47.27355],[-122.410603,47.273533],[-122.410597,47.273476],[-122.410547,47.273445],[-122.410339,47.273441],[-122.410317,47.273367],[-122.410208,47.273351],[-122.410191,47.273281],[-122.410077,47.27326],[-122.410043,47.273179],[-122.409946,47.27317],[-122.409918,47.273092],[-122.409815,47.273079],[-122.409786,47.273001],[-122.409683,47.272988],[-122.409684,47.272898],[-122.409775,47.272892],[-122.409816,47.272855],[-122.40982,47.272629],[-122.410061,47.272614],[-122.410085,47.27254],[-122.410168,47.272537],[-122.410214,47.272503],[-122.41022,47.272271],[-122.410443,47.272266],[-122.410482,47.272234],[-122.410486,47.272183],[-122.410618,47.272183],[-122.41063,47.272249],[-122.410749,47.272274],[-122.410752,47.272326],[-122.41079,47.272358],[-122.411012,47.272365],[-122.411018,47.272422],[-122.411068,47.272453],[-122.411276,47.272457],[-122.411292,47.272617],[-122.411406,47.272637],[-122.41144,47.272718],[-122.411537,47.272728],[-122.411565,47.272806],[-122.411668,47.272819],[-122.41167,47.27296],[-122.411715,47.272995],[-122.411799,47.272999],[-122.41182,47.273163],[-122.411876,47.273179],[-122.412325,47.273182],[-122.412322,47.273452],[-122.412218,47.273455],[-122.412171,47.273496],[-122.412205,47.273701],[-122.412397,47.273733],[-122.412446,47.273702],[-122.412453,47.273632],[-122.412661,47.273631],[-122.412711,47.2736],[-122.412718,47.273544],[-122.41285,47.273544],[-122.412873,47.273619],[-122.412981,47.273635],[-122.413016,47.273716],[-122.413113,47.273726],[-122.413112,47.273952],[-122.413152,47.27399],[-122.413242,47.273996],[-122.413238,47.274088]],[[-122.411476,47.273346],[-122.411266,47.273356],[-122.411263,47.27303],[-122.411206,47.272997],[-122.411006,47.272995],[-122.411006,47.272864],[-122.410978,47.272827],[-122.410743,47.272814],[-122.410673,47.272789],[-122.410475,47.272833],[-122.410458,47.272868],[-122.410486,47.272964],[-122.410533,47.27299],[-122.410609,47.272993],[-122.41062,47.273149],[-122.410739,47.273174],[-122.410742,47.273239],[-122.410785,47.273273],[-122.411002,47.273265],[-122.411001,47.27341],[-122.411028,47.273446],[-122.411085,47.273459],[-122.411254,47.273435],[-122.411293,47.273524],[-122.411474,47.273548],[-122.411527,47.273508],[-122.411527,47.273382],[-122.411476,47.273346]]]}},{"type":"Feature","properties":{"id":11,"area_m2":12200,"px":122,"rank":4},"geometry":{"type":"Polygon","coordinates":[[[-122.418932,47.273307],[-122.418899,47.273353],[-122.418934,47.273395],[-122.418931,47.273665],[-122.418799,47.273665],[-122.418793,47.273595],[-122.418745,47.273563],[-122.418271,47.273572],[-122.418238,47.273478],[-122.418172,47.27347],[-122.418115,47.273499],[-122.418108,47.273545],[-122.418154,47.273579],[-122.418143,47.273718],[-122.418185,47.273747],[-122.418269,47.273752],[-122.418285,47.273912],[-122.418399,47.273934],[-122.418398,47.274023],[-122.418205,47.274022],[-122.418147,47.274045],[-122.418131,47.274201],[-122.417999,47.274201],[-122.417991,47.274139],[-122.417936,47.274111],[-122.417604,47.274109],[-122.417602,47.273967],[-122.417557,47.273932],[-122.417474,47.273928],[-122.417458,47.273754],[-122.417399,47.273734],[-122.417211,47.273747],[-122.41719,47.273582],[-122.416949,47.273565],[-122.416951,47.273385],[-122.417027,47.273383],[-122.417074,47.273357],[-122.417085,47.273206],[-122.417194,47.273191],[-122.417218,47.273117],[-122.417315,47.273115],[-122.417358,47.273093],[-122.417352,47.272938],[-122.417484,47.272938],[-122.417519,47.273019],[-122.417676,47.273029],[-122.417739,47.273001],[-122.417749,47.27294],[-122.417868,47.272916],[-122.417879,47.272799],[-122.417834,47.272764],[-122.417751,47.27276],[-122.417752,47.272671],[-122.417861,47.272654],[-122.417885,47.27258],[-122.418017,47.272581],[-122.418026,47.272642],[-122.41808,47.27267],[-122.418413,47.272673],[-122.418435,47.272747],[-122.418544,47.272764],[-122.418552,47.272915],[-122.418598,47.272942],[-122.418674,47.272944],[-122.41866,47.273184],[-122.418714,47.273213],[-122.418936,47.273216],[-122.418932,47.273307]],[[-122.417905,47.273782],[-122.417867,47.27368],[-122.417819,47.273649],[-122.417665,47.273661],[-122.417612,47.273697],[-122.41762,47.273815],[-122.417786,47.273862],[-122.417839,47.273859],[-122.417895,47.273823],[-122.417905,47.273782]]]}},{"type":"Feature","properties":{"id":38,"area_m2":7300,"px":73,"rank":5},"geometry":{"type":"Polygon","coordinates":[[[-122.415529,47.270409],[-122.415528,47.270499],[-122.415419,47.270514],[-122.415395,47.270588],[-122.415276,47.270611],[-122.415262,47.270677],[-122.415045,47.270667],[-122.415,47.270701],[-122.414996,47.270766],[-122.414913,47.27077],[-122.414867,47.270804],[-122.414866,47.270907],[-122.414926,47.270944],[-122.415078,47.270942],[-122.415121,47.270913],[-122.415128,47.270857],[-122.41526,47.270857],[-122.415258,47.271174],[-122.415298,47.271211],[-122.415388,47.271218],[-122.415387,47.271308],[-122.415123,47.271306],[-122.4151,47.271232],[-122.414991,47.271216],[-122.414975,47.271055],[-122.414861,47.271035],[-122.414827,47.270954],[-122.41473,47.270944],[-122.414702,47.270867],[-122.414599,47.270854],[-122.414589,47.270518],[-122.414531,47.270494],[-122.414338,47.270493],[-122.414316,47.270418],[-122.414207,47.270402],[-122.414173,47.270321],[-122.414076,47.270311],[-122.414079,47.270041],[-122.414303,47.270049],[-122.41434,47.270018],[-122.414344,47.269953],[-122.414453,47.269937],[-122.414478,47.269863],[-122.414597,47.26984],[-122.414611,47.269774],[-122.414743,47.269775],[-122.414755,47.269841],[-122.414874,47.269865],[-122.414908,47.269946],[-122.415137,47.269957],[-122.415152,47.270297],[-122.415205,47.270317],[-122.415398,47.270318],[-122.41542,47.270392],[-122.415529,47.270409]]]}},{"type":"Feature","properties":{"id":37,"area_m2":4900,"px":49,"rank":6},"geometry":{"type":"Polygon","coordinates":[[[-122.407457,47.271087],[-122.407454,47.271357],[-122.407345,47.271372],[-122.407321,47.271446],[-122.407189,47.271446],[-122.40718,47.271384],[-122.407126,47.271356],[-122.406793,47.271354],[-122.406791,47.271212],[-122.406723,47.271174],[-122.406315,47.271175],[-122.406267,47.271214],[-122.406264,47.271351],[-122.406,47.271349],[-122.405977,47.271275],[-122.405869,47.271258],[-122.40587,47.271169],[-122.405966,47.271167],[-122.406017,47.271135],[-122.40599,47.271014],[-122.40594,47.27099],[-122.405796,47.270991],[-122.405745,47.271022],[-122.405738,47.271078],[-122.405606,47.271077],[-122.405608,47.270898],[-122.405705,47.270896],[-122.405753,47.270869],[-122.405743,47.270718],[-122.406075,47.270719],[-122.40613,47.270692],[-122.40614,47.27063],[-122.406272,47.270631],[-122.406295,47.270705],[-122.406403,47.270722],[-122.40638,47.271031],[-122.40642,47.271075],[-122.406656,47.27107],[-122.406685,47.271033],[-122.406666,47.270903],[-122.406775,47.270888],[-122.406799,47.270814],[-122.406929,47.270814],[-122.406948,47.270885],[-122.407062,47.270905],[-122.407097,47.270986],[-122.407194,47.270996],[-122.407222,47.271074],[-122.407457,47.271087]]]}},{"type":"Feature","properties":{"id":30,"area_m2":4000,"px":40,"rank":7},"geometry":{"type":"Polygon","coordinates":[[[-122.418024,47.271951],[-122.418023,47.272041],[-122.417794,47.272049],[-122.417758,47.27213],[-122.417639,47.272153],[-122.417624,47.272219],[-122.417228,47.272217],[-122.417212,47.272057],[-122.417098,47.272036],[-122.417095,47.271971],[-122.417052,47.271937],[-122.416834,47.271945],[-122.416826,47.271794],[-122.41678,47.271767],[-122.416704,47.271764],[-122.416709,47.271315],[-122.416841,47.271315],[-122.416841,47.271452],[-122.416881,47.271489],[-122.417236,47.271497],[-122.417226,47.271652],[-122.417285,47.271677],[-122.417498,47.271679],[-122.417521,47.271753],[-122.417629,47.271769],[-122.417628,47.2719],[-122.417663,47.27194],[-122.418024,47.271951]]]}},{"type":"Feature","properties":{"id":44,"area_m2":3700,"px":37,"rank":8},"geometry":{"type":"Polygon","coordinates":[[[-122.416717,47.270595],[-122.416715,47.270775],[-122.416451,47.270773],[-122.416439,47.270617],[-122.41632,47.270593],[-122.416286,47.270512],[-122.416189,47.270502],[-122.416161,47.270424],[-122.416058,47.270411],[-122.41603,47.270334],[-122.415927,47.270321],[-122.415892,47.27024],[-122.415719,47.270232],[-122.415669,47.270263],[-122.415662,47.270319],[-122.41553,47.270319],[-122.415531,47.270229],[-122.415614,47.270225],[-122.415658,47.270196],[-122.415659,47.270083],[-122.415601,47.27005],[-122.415401,47.270048],[-122.415396,47.269901],[-122.415354,47.269872],[-122.415271,47.269867],[-122.415236,47.269786],[-122.415007,47.269776],[-122.415008,47.26955],[-122.414968,47.269512],[-122.414878,47.269505],[-122.41488,47.269326],[-122.415012,47.269326],[-122.415011,47.269458],[-122.415039,47.269494],[-122.415274,47.269508],[-122.415297,47.269582],[-122.415406,47.269598],[-122.41544,47.269679],[-122.415537,47.269689],[-122.415536,47.26982],[-122.415564,47.269857],[-122.415799,47.26987],[-122.415822,47.269944],[-122.41593,47.269961],[-122.415951,47.270215],[-122.416192,47.270232],[-122.416197,47.270289],[-122.416247,47.27032],[-122.416455,47.270323],[-122.416446,47.270478],[-122.416489,47.270501],[-122.416586,47.270504],[-122.416608,47.270578],[-122.416717,47.270595]]]}},{"type":"Feature","properties":{"id":26,"area_m2":2800,"px":28,"rank":9},"geometry":{"type":"Polygon","coordinates":[[[-122.406652,47.272163],[-122.406649,47.272433],[-122.406517,47.272432],[-122.406494,47.272358],[-122.406385,47.272341],[-122.406368,47.272271],[-122.406254,47.272251],[-122.40622,47.27217],[-122.406123,47.27216],[-122.406095,47.272082],[-122.405992,47.272069],[-122.405964,47.271991],[-122.405861,47.271979],[-122.405862,47.271889],[-122.405897,47.271836],[-122.405845,47.271728],[-122.405732,47.271708],[-122.405735,47.271438],[-122.405867,47.271439],[-122.405872,47.271509],[-122.40592,47.27154],[-122.40613,47.27153],[-122.406129,47.271661],[-122.406163,47.271701],[-122.406392,47.271712],[-122.406396,47.271948],[-122.406438,47.271978],[-122.406521,47.271982],[-122.406538,47.272142],[-122.406652,47.272163]]]}},{"type":"Feature","properties":{"id":2,"area_m2":2500,"px":25,"rank":10},"geometry":{"type":"Polygon","coordinates":[[[-122.414141,47.276341],[-122.414138,47.27661],[-122.414006,47.27661],[-122.414001,47.276553],[-122.413958,47.276524],[-122.413743,47.276518],[-122.413681,47.276494],[-122.413507,47.276529],[-122.413477,47.276607],[-122.413213,47.276606],[-122.413214,47.276516],[-122.413297,47.276512],[-122.413343,47.276478],[-122.413369,47.276302],[-122.413328,47.276253],[-122.413217,47.276246],[-122.41322,47.275976],[-122.413352,47.275977],[-122.413358,47.276033],[-122.413408,47.276064],[-122.413616,47.276068],[-122.413633,47.276138],[-122.413747,47.276159],[-122.41376,47.276225],[-122.413878,47.276249],[-122.413881,47.276301],[-122.413919,47.276333],[-122.414141,47.276341]]]}},{"type":"Feature","properties":{"id":20,"area_m2":2400,"px":24,"rank":11},"geometry":{"type":"Polygon","coordinates":[[[-122.412461,47.272913],[-122.41246,47.273002],[-122.412065,47.273],[-122.41206,47.272935],[-122.412017,47.272901],[-122.4118,47.272909],[-122.411803,47.272639],[-122.4119,47.272631],[-122.411935,47.272586],[-122.411923,47.272484],[-122.411805,47.272459],[-122.411806,47.272369],[-122.412334,47.272372],[-122.41233,47.272868],[-122.41237,47.272906],[-122.412461,47.272913]]]}},{"type":"Feature","properties":{"id":13,"area_m2":2300,"px":23,"rank":12},"geometry":{"type":"Polygon","coordinates":[[[-122.419461,47.273488],[-122.419458,47.273758],[-122.419258,47.273758],[-122.419197,47.273795],[-122.419192,47.273937],[-122.419156,47.273979],[-122.419191,47.274027],[-122.41919,47.274117],[-122.418794,47.274115],[-122.418797,47.273845],[-122.4189,47.273833],[-122.41893,47.273755],[-122.41902,47.273749],[-122.419061,47.273713],[-122.419068,47.273216],[-122.4192,47.273217],[-122.419212,47.273373],[-122.41933,47.273398],[-122.419365,47.273479],[-122.419461,47.273488]]]}},{"type":"Feature","properties":{"id":18,"area_m2":2000,"px":20,"rank":13},"geometry":{"type":"Polygon","coordinates":[[[-122.416823,47.272935],[-122.416822,47.273025],[-122.416601,47.273025],[-122.416546,47.273053],[-122.416555,47.273293],[-122.416423,47.273293],[-122.4164,47.273218],[-122.416292,47.273202],[-122.416292,47.273066],[-122.416237,47.273024],[-122.416064,47.27303],[-122.416028,47.273111],[-122.415764,47.273109],[-122.415767,47.27284],[-122.415843,47.272838],[-122.41589,47.272812],[-122.415901,47.27266],[-122.416033,47.272661],[-122.416033,47.272797],[-122.41608,47.272837],[-122.416225,47.272866],[-122.416296,47.272842],[-122.416428,47.272843],[-122.416436,47.272904],[-122.416491,47.272932],[-122.416823,47.272935]]]}},{"type":"Feature","properties":{"id":29,"area_m2":1800,"px":18,"rank":14},"geometry":{"type":"Polygon","coordinates":[[[-122.416576,47.271404],[-122.416574,47.271584],[-122.416483,47.27159],[-122.416441,47.271632],[-122.416446,47.27173],[-122.416489,47.271759],[-122.416572,47.271764],[-122.416571,47.271852],[-122.416467,47.271857],[-122.416419,47.271898],[-122.416434,47.272303],[-122.416169,47.272302],[-122.416165,47.272155],[-122.416122,47.272126],[-122.416039,47.272121],[-122.416037,47.271979],[-122.415992,47.271945],[-122.415909,47.27194],[-122.41591,47.27185],[-122.416042,47.271851],[-122.416112,47.271875],[-122.416283,47.271836],[-122.416309,47.271583],[-122.416385,47.271581],[-122.416432,47.271555],[-122.416444,47.271403],[-122.416576,47.271404]]]}},{"type":"Feature","properties":{"id":19,"area_m2":1500,"px":15,"rank":15},"geometry":{"type":"Polygon","coordinates":[[[-122.408231,47.272801],[-122.40823,47.272891],[-122.408126,47.272895],[-122.408078,47.272935],[-122.408094,47.27325],[-122.40783,47.273249],[-122.407807,47.273174],[-122.407698,47.273158],[-122.407664,47.273077],[-122.407567,47.273067],[-122.407568,47.272977],[-122.407665,47.272969],[-122.407701,47.272924],[-122.407689,47.272822],[-122.40757,47.272797],[-122.407571,47.272707],[-122.407703,47.272708],[-122.407726,47.272782],[-122.407881,47.272822],[-122.407967,47.272799],[-122.408231,47.272801]]]}},{"type":"Feature","properties":{"id":14,"area_m2":1200,"px":12,"rank":16},"geometry":{"type":"Polygon","coordinates":[[[-122.408884,47.273524],[-122.408883,47.273614],[-122.408675,47.273615],[-122.408624,47.273646],[-122.408618,47.273703],[-122.408486,47.273702],[-122.408463,47.273628],[-122.408354,47.273611],[-122.408364,47.273456],[-122.408321,47.273434],[-122.408224,47.273431],[-122.408226,47.273251],[-122.408623,47.273253],[-122.408634,47.273409],[-122.408753,47.273433],[-122.408787,47.273514],[-122.408884,47.273524]]]}},{"type":"Feature","properties":{"id":33,"area_m2":1100,"px":11,"rank":17},"geometry":{"type":"Polygon","coordinates":[[[-122.411283,47.271827],[-122.411282,47.271917],[-122.411017,47.271915],[-122.410955,47.271891],[-122.410885,47.271915],[-122.410621,47.271913],[-122.410598,47.271839],[-122.41049,47.271823],[-122.410492,47.271643],[-122.410624,47.271643],[-122.410629,47.2717],[-122.410672,47.271729],[-122.410823,47.271733],[-122.410886,47.271691],[-122.410889,47.271555],[-122.411021,47.271555],[-122.411032,47.271801],[-122.41109,47.271825],[-122.411283,47.271827]]]}},{"type":"Feature","properties":{"id":23,"area_m2":1000,"px":10,"rank":18},"geometry":{"type":"Polygon","coordinates":[[[-122.411674,47.272279],[-122.411671,47.272548],[-122.411407,47.272547],[-122.411395,47.272391],[-122.411277,47.272366],[-122.411242,47.272285],[-122.411146,47.272276],[-122.411148,47.272096],[-122.41128,47.272097],[-122.411292,47.272163],[-122.411411,47.272187],[-122.411414,47.272239],[-122.411452,47.272271],[-122.411674,47.272279]]]}},{"type":"Feature","properties":{"id":32,"area_m2":1000,"px":10,"rank":19},"geometry":{"type":"Polygon","coordinates":[[[-122.413794,47.27184],[-122.413793,47.272019],[-122.41366,47.272019],[-122.413643,47.271949],[-122.413529,47.271928],[-122.413495,47.271847],[-122.413398,47.271837],[-122.41337,47.27176],[-122.413267,47.271747],[-122.413239,47.271669],[-122.413003,47.271655],[-122.412981,47.271581],[-122.412872,47.271565],[-122.41286,47.271499],[-122.412741,47.271474],[-122.412713,47.271396],[-122.41261,47.271384],[-122.412611,47.271294],[-122.412743,47.271294],[-122.41276,47.271365],[-122.412874,47.271385],[-122.412887,47.271451],[-122.413005,47.271476],[-122.41304,47.271557],[-122.413269,47.271567],[-122.413286,47.271637],[-122.4134,47.271658],[-122.413413,47.271724],[-122.413531,47.271748],[-122.413566,47.271829],[-122.413794,47.27184]]]}},{"type":"Feature","properties":{"id":3,"area_m2":900,"px":9,"rank":20},"geometry":{"type":"Polygon","coordinates":[[[-122.413216,47.276336],[-122.413215,47.276426],[-122.413085,47.276425],[-122.41308,47.276373],[-122.413042,47.276341],[-122.41282,47.276334],[-122.412808,47.276178],[-122.41275,47.276154],[-122.412557,47.276152],[-122.412558,47.276063],[-122.412766,47.276061],[-122.412817,47.27603],[-122.412823,47.275974],[-122.412956,47.275975],[-122.412963,47.276126],[-122.41301,47.276152],[-122.413086,47.276155],[-122.413102,47.276315],[-122.413216,47.276336]]]}},{"type":"Feature","properties":{"id":22,"area_m2":900,"px":9,"rank":21},"geometry":{"type":"Polygon","coordinates":[[[-122.408499,47.272442],[-122.408496,47.272712],[-122.408232,47.272711],[-122.40821,47.272637],[-122.408101,47.27262],[-122.408104,47.27235],[-122.408236,47.272351],[-122.408242,47.272408],[-122.408291,47.272439],[-122.408499,47.272442]]]}},{"type":"Feature","properties":{"id":55,"area_m2":900,"px":9,"rank":22},"geometry":{"type":"Polygon","coordinates":[[[-122.406164,47.268471],[-122.406161,47.268741],[-122.406052,47.268756],[-122.406028,47.26883],[-122.405896,47.268829],[-122.405888,47.268678],[-122.405842,47.268651],[-122.405766,47.268649],[-122.405768,47.268469],[-122.406164,47.268471]]]}},{"type":"Feature","properties":{"id":6,"area_m2":800,"px":8,"rank":23},"geometry":{"type":"Polygon","coordinates":[[[-122.415211,47.275266],[-122.41521,47.275356],[-122.414988,47.275361],[-122.414949,47.275393],[-122.414945,47.275445],[-122.41468,47.275443],[-122.414682,47.275264],[-122.414791,47.275248],[-122.414816,47.275174],[-122.41508,47.275176],[-122.415102,47.27525],[-122.415211,47.275266]]]}},{"type":"Feature","properties":{"id":12,"area_m2":800,"px":8,"rank":24},"geometry":{"type":"Polygon","coordinates":[[[-122.41073,47.273984],[-122.410728,47.274163],[-122.410596,47.274163],[-122.410583,47.274097],[-122.410465,47.274072],[-122.41043,47.273991],[-122.410201,47.273981],[-122.410203,47.273801],[-122.410468,47.273802],[-122.41049,47.273876],[-122.410599,47.273893],[-122.410633,47.273974],[-122.41073,47.273984]]]}},{"type":"Feature","properties":{"id":42,"area_m2":800,"px":8,"rank":25},"geometry":{"type":"Polygon","coordinates":[[[-122.415921,47.270861],[-122.41592,47.270951],[-122.415523,47.270948],[-122.415501,47.270874],[-122.415392,47.270858],[-122.415394,47.270678],[-122.415658,47.270679],[-122.415681,47.270754],[-122.415789,47.27077],[-122.415824,47.270851],[-122.415921,47.270861]]]}},{"type":"Feature","properties":{"id":4,"area_m2":700,"px":7,"rank":26},"geometry":{"type":"Polygon","coordinates":[[[-122.412168,47.275431],[-122.412165,47.2757],[-122.412033,47.2757],[-122.412028,47.275643],[-122.411978,47.275612],[-122.41177,47.275608],[-122.411772,47.275429],[-122.412168,47.275431]]]}},{"type":"Feature","properties":{"id":9,"area_m2":700,"px":7,"rank":27},"geometry":{"type":"Polygon","coordinates":[[[-122.410329,47.274341],[-122.410327,47.274521],[-122.409931,47.274519],[-122.409933,47.274339],[-122.410042,47.274324],[-122.410066,47.27425],[-122.410198,47.274251],[-122.410221,47.274325],[-122.410329,47.274341]]]}},{"type":"Feature","properties":{"id":21,"area_m2":700,"px":7,"rank":28},"geometry":{"type":"Polygon","coordinates":[[[-122.415637,47.272569],[-122.415634,47.272839],[-122.415502,47.272838],[-122.415503,47.272707],[-122.415469,47.272667],[-122.41524,47.272657],[-122.415241,47.272567],[-122.415324,47.272563],[-122.41537,47.272529],[-122.415375,47.272388],[-122.415507,47.272388],[-122.415515,47.27254],[-122.415562,47.272566],[-122.415637,47.272569]]]}},{"type":"Feature","properties":{"id":46,"area_m2":700,"px":7,"rank":29},"geometry":{"type":"Polygon","coordinates":[[[-122.404561,47.269992],[-122.404558,47.270262],[-122.404426,47.270261],[-122.40442,47.270205],[-122.40437,47.270174],[-122.404162,47.27017],[-122.404164,47.26999],[-122.404561,47.269992]]]}},{"type":"Feature","properties":{"id":7,"area_m2":600,"px":6,"rank":30},"geometry":{"type":"Polygon","coordinates":[[[-122.411912,47.274709],[-122.411911,47.274799],[-122.411514,47.274797],[-122.411492,47.274723],[-122.411383,47.274707],[-122.411384,47.274617],[-122.411781,47.274619],[-122.411803,47.274693],[-122.411912,47.274709]]]}},{"type":"Feature","properties":{"id":8,"area_m2":600,"px":6,"rank":31},"geometry":{"type":"Polygon","coordinates":[[[-122.412707,47.274534],[-122.412705,47.274713],[-122.412441,47.274712],[-122.412379,47.274688],[-122.412308,47.274711],[-122.412176,47.274711],[-122.412177,47.274621],[-122.412286,47.274606],[-122.412311,47.274532],[-122.412707,47.274534]]]}},{"type":"Feature","properties":{"id":16,"area_m2":600,"px":6,"rank":32},"geometry":{"type":"Polygon","coordinates":[[[-122.413248,47.273188],[-122.413215,47.273234],[-122.41325,47.273277],[-122.413249,47.273366],[-122.413117,47.273366],[-122.413094,47.273292],[-122.412986,47.273275],[-122.412974,47.273119],[-122.412855,47.273094],[-122.412857,47.272915],[-122.412989,47.272915],[-122.412988,47.273047],[-122.413023,47.273086],[-122.413252,47.273097],[-122.413248,47.273188]]]}},{"type":"Feature","properties":{"id":56,"area_m2":600,"px":6,"rank":33},"geometry":{"type":"Polygon","coordinates":[[[-122.408807,47.268306],[-122.408774,47.268352],[-122.408809,47.268395],[-122.408808,47.268484],[-122.408544,47.268483],[-122.408521,47.268409],[-122.408413,47.268392],[-122.408414,47.268303],[-122.408523,47.268287],[-122.408547,47.268213],[-122.408811,47.268215],[-122.408807,47.268306]]]}},{"type":"Feature","properties":{"id":31,"area_m2":500,"px":5,"rank":34},"geometry":{"type":"Polygon","coordinates":[[[-122.410488,47.271913],[-122.410487,47.272092],[-122.410354,47.272092],[-122.410332,47.272018],[-122.410223,47.272001],[-122.410226,47.271731],[-122.410358,47.271732],[-122.410366,47.271883],[-122.410413,47.27191],[-122.410488,47.271913]]]}},{"type":"Feature","properties":{"id":15,"area_m2":400,"px":4,"rank":35},"geometry":{"type":"Polygon","coordinates":[[[-122.413912,47.27319],[-122.41391,47.27337],[-122.413801,47.273385],[-122.413777,47.273459],[-122.413645,47.273458],[-122.413622,47.273384],[-122.413513,47.273368],[-122.413514,47.273278],[-122.413724,47.27329],[-122.413773,47.273259],[-122.41378,47.273189],[-122.413912,47.27319]]]}},{"type":"Feature","properties":{"id":34,"area_m2":400,"px":4,"rank":36},"geometry":{"type":"Polygon","coordinates":[[[-122.407318,47.271716],[-122.407317,47.271806],[-122.407208,47.271821],[-122.407184,47.271895],[-122.406919,47.271894],[-122.40692,47.271804],[-122.407029,47.271789],[-122.407053,47.271715],[-122.407318,47.271716]]]}},{"type":"Feature","properties":{"id":35,"area_m2":400,"px":4,"rank":37},"geometry":{"type":"Polygon","coordinates":[[[-122.406924,47.271444],[-122.406923,47.271534],[-122.406715,47.271536],[-122.406664,47.271566],[-122.406658,47.271623],[-122.406526,47.271622],[-122.406528,47.271442],[-122.406924,47.271444]]]}},{"type":"Feature","properties":{"id":36,"area_m2":400,"px":4,"rank":38},"geometry":{"type":"Polygon","coordinates":[[[-122.407851,47.271359],[-122.40785,47.271449],[-122.40774,47.271464],[-122.407716,47.271538],[-122.407584,47.271538],[-122.407587,47.271268],[-122.407719,47.271268],[-122.407742,47.271343],[-122.407851,47.271359]]]}},{"type":"Feature","properties":{"id":45,"area_m2":400,"px":4,"rank":39},"geometry":{"type":"Polygon","coordinates":[[[-122.405217,47.270446],[-122.405215,47.270625],[-122.405106,47.270641],[-122.405081,47.270715],[-122.404949,47.270714],[-122.404951,47.270534],[-122.40506,47.270519],[-122.405085,47.270445],[-122.405217,47.270446]]]}},{"type":"Feature","properties":{"id":49,"area_m2":400,"px":4,"rank":40},"geometry":{"type":"Polygon","coordinates":[[[-122.410781,47.269395],[-122.41078,47.269484],[-122.410516,47.269483],[-122.410514,47.269342],[-122.410469,47.269307],[-122.410385,47.269302],[-122.410386,47.269213],[-122.410518,47.269213],[-122.410541,47.269288],[-122.41065,47.269304],[-122.410684,47.269385],[-122.410781,47.269395]]]}},{"type":"Feature","properties":{"id":54,"area_m2":400,"px":4,"rank":41},"geometry":{"type":"Polygon","coordinates":[[[-122.414489,47.268784],[-122.414487,47.268964],[-122.414223,47.268962],[-122.414225,47.268782],[-122.414489,47.268784]]]}},{"type":"Feature","properties":{"id":53,"area_m2":400,"px":4,"rank":42},"geometry":{"type":"Polygon","coordinates":[[[-122.404708,47.268643],[-122.404706,47.268823],[-122.404597,47.268838],[-122.404573,47.268912],[-122.404454,47.268936],[-122.40444,47.269002],[-122.404308,47.269001],[-122.404309,47.268911],[-122.404406,47.268903],[-122.404442,47.268822],[-122.404518,47.26882],[-122.404565,47.268794],[-122.404576,47.268643],[-122.404708,47.268643]]]}},{"type":"Feature","properties":{"id":57,"area_m2":400,"px":4,"rank":43},"geometry":{"type":"Polygon","coordinates":[[[-122.409209,47.268127],[-122.409208,47.268217],[-122.408943,47.268215],[-122.408921,47.268141],[-122.408812,47.268125],[-122.408814,47.267945],[-122.408946,47.267945],[-122.408945,47.268077],[-122.40898,47.268116],[-122.409209,47.268127]]]}},{"type":"Feature","properties":{"id":5,"area_m2":300,"px":3,"rank":44},"geometry":{"type":"Polygon","coordinates":[[[-122.41534,47.275537],[-122.415339,47.275627],[-122.414943,47.275625],[-122.414944,47.275535],[-122.41534,47.275537]]]}},{"type":"Feature","properties":{"id":17,"area_m2":300,"px":3,"rank":45},"geometry":{"type":"Polygon","coordinates":[[[-122.419995,47.273041],[-122.419994,47.273131],[-122.419911,47.273135],[-122.419865,47.273169],[-122.41986,47.27331],[-122.419728,47.273309],[-122.41973,47.27313],[-122.419839,47.273114],[-122.419863,47.27304],[-122.419995,47.273041]]]}},{"type":"Feature","properties":{"id":24,"area_m2":300,"px":3,"rank":46},"geometry":{"type":"Polygon","coordinates":[[[-122.409293,47.272446],[-122.409292,47.272536],[-122.408895,47.272534],[-122.408896,47.272444],[-122.409293,47.272446]]]}},{"type":"Feature","properties":{"id":25,"area_m2":300,"px":3,"rank":47},"geometry":{"type":"Polygon","coordinates":[[[-122.415905,47.2723],[-122.415903,47.27248],[-122.415639,47.272479],[-122.41564,47.272389],[-122.415749,47.272374],[-122.415773,47.2723],[-122.415905,47.2723]]]}},{"type":"Feature","properties":{"id":27,"area_m2":300,"px":3,"rank":48},"geometry":{"type":"Polygon","coordinates":[[[-122.408898,47.272264],[-122.408897,47.272354],[-122.408501,47.272352],[-122.408502,47.272262],[-122.408898,47.272264]]]}},{"type":"Feature","properties":{"id":28,"area_m2":300,"px":3,"rank":49},"geometry":{"type":"Polygon","coordinates":[[[-122.408107,47.27208],[-122.408106,47.27217],[-122.408023,47.272174],[-122.407977,47.272208],[-122.407972,47.272349],[-122.40784,47.272349],[-122.407842,47.272169],[-122.407951,47.272154],[-122.407975,47.27208],[-122.408107,47.27208]]]}},{"type":"Feature","properties":{"id":39,"area_m2":300,"px":3,"rank":50},"geometry":{"type":"Polygon","coordinates":[[[-122.413274,47.271117],[-122.413273,47.271207],[-122.412876,47.271205],[-122.412877,47.271115],[-122.413274,47.271117]]]}},{"type":"Feature","properties":{"id":41,"area_m2":300,"px":3,"rank":51},"geometry":{"type":"Polygon","coordinates":[[[-122.405474,47.271077],[-122.405473,47.271167],[-122.405209,47.271165],[-122.405186,47.271091],[-122.405078,47.271075],[-122.405079,47.270985],[-122.405211,47.270986],[-122.405216,47.271042],[-122.405266,47.271073],[-122.405474,47.271077]]]}},{"type":"Feature","properties":{"id":43,"area_m2":300,"px":3,"rank":52},"geometry":{"type":"Polygon","coordinates":[[[-122.409181,47.270646],[-122.409179,47.270826],[-122.408914,47.270825],[-122.408915,47.270735],[-122.409024,47.270719],[-122.409049,47.270645],[-122.409181,47.270646]]]}},{"type":"Feature","properties":{"id":47,"area_m2":300,"px":3,"rank":53},"geometry":{"type":"Polygon","coordinates":[[[-122.411304,47.269937],[-122.411303,47.270027],[-122.410906,47.270025],[-122.410907,47.269935],[-122.411304,47.269937]]]}},{"type":"Feature","properties":{"id":48,"area_m2":300,"px":3,"rank":54},"geometry":{"type":"Polygon","coordinates":[[[-122.410777,47.269755],[-122.410776,47.269844],[-122.410512,47.269843],[-122.410514,47.269663],[-122.410646,47.269664],[-122.410668,47.269738],[-122.410777,47.269755]]]}},{"type":"Feature","properties":{"id":50,"area_m2":300,"px":3,"rank":55},"geometry":{"type":"Polygon","coordinates":[[[-122.415413,47.268968],[-122.415412,47.269058],[-122.415328,47.269062],[-122.415282,47.269096],[-122.415277,47.269238],[-122.415145,47.269237],[-122.415147,47.269057],[-122.415256,47.269042],[-122.415281,47.268968],[-122.415413,47.268968]]]}},{"type":"Feature","properties":{"id":51,"area_m2":300,"px":3,"rank":56},"geometry":{"type":"Polygon","coordinates":[[[-122.411181,47.269037],[-122.41118,47.269127],[-122.410916,47.269125],[-122.410918,47.268945],[-122.41105,47.268946],[-122.411073,47.26902],[-122.411181,47.269037]]]}},{"type":"Feature","properties":{"id":52,"area_m2":300,"px":3,"rank":57},"geometry":{"type":"Polygon","coordinates":[[[-122.410256,47.269032],[-122.410255,47.269122],[-122.410123,47.269121],[-122.410101,47.269047],[-122.409992,47.26903],[-122.409957,47.268949],[-122.409861,47.26894],[-122.409862,47.26885],[-122.409994,47.268851],[-122.410016,47.268925],[-122.410125,47.268941],[-122.410159,47.269022],[-122.410256,47.269032]]]}}]}