{"type":"FeatureCollection","features":[{"type":"Feature","properties":{"id":5,"area_m2":2061300,"px":20613,"rank":1,"persistent":true},"geometry":{"type":"Polygon","coordinates":[[[-122.42362,47.267662],[-122.423587,47.267708],[-122.423622,47.26775],[-122.423619,47.26802],[-122.42339,47.268028],[-122.423318,47.268151],[-122.423387,47.26828],[-122.423616,47.26829],[-122.423611,47.26883],[-122.423478,47.268829],[-122.423456,47.268755],[-122.423347,47.268739],[-122.423326,47.268574],[-122.423217,47.268558],[-122.423212,47.268501],[-122.423169,47.268472],[-122.422954,47.268467],[-122.422937,47.268306],[-122.422823,47.268286],[-122.422811,47.26822],[-122.422692,47.268195],[-122.422689,47.268144],[-122.422651,47.268112],[-122.422429,47.268104],[-122.422416,47.268038],[-122.422298,47.268013],[-122.422263,47.267932],[-122.422034,47.267922],[-122.421964,47.267898],[-122.421902,47.267921],[-122.421701,47.267921],[-122.421651,47.267944],[-122.421635,47.2681],[-122.421545,47.268106],[-122.421504,47.268143],[-122.4215,47.268369],[-122.421417,47.268373],[-122.421371,47.268407],[-122.421369,47.2686],[-122.421414,47.268635],[-122.421497,47.268639],[-122.421532,47.26872],[-122.421629,47.26873],[-122.421632,47.268967],[-122.421675,47.268996],[-122.421758,47.269001],[-122.421792,47.269082],[-122.421889,47.269091],[-122.421897,47.269243],[-122.421944,47.269269],[-122.422019,47.269272],[-122.422023,47.269508],[-122.422065,47.269538],[-122.422149,47.269542],[-122.422183,47.269623],[-122.42228,47.269633],[-122.422282,47.269775],[-122.422327,47.269809],[-122.42241,47.269814],[-122.422409,47.269904],[-122.4223,47.269919],[-122.422276,47.269993],[-122.422179,47.270002],[-122.422143,47.270082],[-122.422028,47.270101],[-122.42201,47.270172],[-122.421677,47.270171],[-122.421622,47.270198],[-122.421612,47.27026],[-122.421264,47.270262],[-122.421221,47.270291],[-122.421214,47.270347],[-122.421095,47.270371],[-122.421081,47.270437],[-122.420609,47.270437],[-122.420558,47.270468],[-122.420531,47.270558],[-122.420571,47.270608],[-122.420683,47.270615],[-122.420692,47.270951],[-122.42075,47.270975],[-122.420943,47.270976],[-122.420942,47.271066],[-122.420859,47.27107],[-122.420813,47.271104],[-122.420831,47.27123],[-122.421205,47.271247],[-122.421239,47.271328],[-122.421468,47.271339],[-122.42149,47.271413],[-122.421646,47.271452],[-122.421732,47.27143],[-122.421864,47.271431],[-122.421871,47.271582],[-122.421918,47.271609],[-122.421994,47.271611],[-122.42197,47.271921],[-122.422004,47.271962],[-122.422254,47.271973],[-122.422289,47.272054],[-122.422462,47.272061],[-122.422518,47.272015],[-122.422521,47.271794],[-122.422785,47.271795],[-122.422788,47.271847],[-122.422826,47.271879],[-122.423048,47.271887],[-122.423061,47.271953],[-122.42318,47.271977],[-122.423183,47.272029],[-122.423221,47.272061],[-122.423575,47.272069],[-122.423562,47.273329],[-122.42343,47.273328],[-122.423409,47.273074],[-122.423168,47.273057],[-122.423164,47.27291],[-122.423121,47.272881],[-122.423038,47.272876],[-122.423036,47.272735],[-122.422991,47.2727],[-122.422908,47.272696],[-122.422891,47.272535],[-122.422838,47.272516],[-122.422645,47.272514],[-122.422623,47.27244],[-122.422514,47.272424],[-122.422514,47.272287],[-122.422474,47.27225],[-122.422293,47.272249],[-122.422254,47.272281],[-122.42225,47.272332],[-122.421986,47.272331],[-122.42197,47.272171],[-122.421924,47.272152],[-122.421787,47.272151],[-122.421733,47.272178],[-122.421723,47.27224],[-122.421375,47.272242],[-122.421332,47.272271],[-122.421325,47.272328],[-122.421206,47.272351],[-122.421192,47.272417],[-122.42106,47.272416],[-122.421061,47.272326],[-122.421144,47.272323],[-122.42119,47.272289],[-122.421214,47.272198],[-122.421174,47.272154],[-122.420987,47.272148],[-122.420936,47.272179],[-122.420929,47.272236],[-122.420797,47.272235],[-122.420794,47.272183],[-122.420756,47.272151],[-122.420402,47.272143],[-122.420375,47.272052],[-122.420138,47.272052],[-122.420133,47.271995],[-122.42009,47.271966],[-122.419937,47.271937],[-122.419778,47.271969],[-122.419742,47.272009],[-122.419741,47.272181],[-122.419782,47.272224],[-122.419872,47.27223],[-122.419871,47.27232],[-122.419835,47.272368],[-122.419875,47.272467],[-122.419918,47.272496],[-122.420001,47.272501],[-122.420035,47.272582],[-122.420132,47.272592],[-122.42016,47.27267],[-122.420263,47.272682],[-122.42026,47.273042],[-122.420184,47.273044],[-122.420136,47.27307],[-122.420125,47.273221],[-122.42005,47.273223],[-122.420002,47.273249],[-122.419991,47.273401],[-122.419915,47.273403],[-122.419868,47.273429],[-122.419857,47.27358],[-122.419738,47.273603],[-122.419723,47.273759],[-122.41964,47.273763],[-122.419594,47.273797],[-122.419589,47.273939],[-122.419505,47.273942],[-122.419462,47.273971],[-122.419454,47.274118],[-122.419371,47.274122],[-122.419328,47.274151],[-122.419319,47.274387],[-122.419222,47.274396],[-122.419186,47.274476],[-122.41911,47.274478],[-122.419063,47.274504],[-122.419052,47.274656],[-122.418938,47.274675],[-122.418918,47.274835],[-122.418835,47.274839],[-122.418789,47.274873],[-122.418783,47.275104],[-122.418707,47.275106],[-122.41866,47.275132],[-122.418648,47.275284],[-122.418573,47.275286],[-122.418525,47.275312],[-122.418514,47.275463],[-122.418438,47.275465],[-122.418391,47.275491],[-122.41838,47.275642],[-122.418261,47.275666],[-122.418246,47.275821],[-122.418127,47.275845],[-122.418112,47.276001],[-122.418003,47.276016],[-122.417979,47.27609],[-122.417714,47.276089],[-122.417693,47.275925],[-122.417584,47.275908],[-122.417567,47.275838],[-122.417453,47.275817],[-122.417418,47.275736],[-122.417322,47.275727],[-122.417293,47.275649],[-122.41719,47.275636],[-122.417162,47.275558],[-122.417059,47.275545],[-122.417031,47.275468],[-122.416796,47.275454],[-122.416778,47.275384],[-122.416665,47.275364],[-122.41663,47.275283],[-122.416533,47.275273],[-122.416505,47.275195],[-122.416402,47.275182],[-122.416374,47.275104],[-122.416271,47.275092],[-122.416243,47.275014],[-122.41614,47.275001],[-122.416111,47.274923],[-122.415691,47.274909],[-122.415635,47.274924],[-122.415611,47.274962],[-122.415597,47.276258],[-122.410707,47.276233],[-122.410692,47.276167],[-122.410627,47.276143],[-122.410358,47.276145],[-122.410315,47.276174],[-122.410306,47.276231],[-122.40978,47.276228],[-122.409717,47.276204],[-122.409645,47.276227],[-122.408459,47.276221],[-122.408395,47.276197],[-122.408323,47.276221],[-122.402376,47.27619],[-122.402412,47.272951],[-122.402544,47.272951],[-122.402607,47.272976],[-122.402677,47.272952],[-122.403073,47.272954],[-122.403086,47.273384],[-122.40314,47.273404],[-122.403465,47.273406],[-122.403485,47.273583],[-122.403539,47.2736],[-122.403727,47.273587],[-122.403739,47.273743],[-122.403857,47.273768],[-122.403863,47.273825],[-122.403905,47.273854],[-122.404121,47.273859],[-122.404142,47.274024],[-122.404383,47.274041],[-122.404406,47.274115],[-122.404561,47.274154],[-122.40475,47.27412],[-122.40478,47.274043],[-122.404912,47.274043],[-122.404974,47.274068],[-122.405044,47.274044],[-122.405176,47.274045],[-122.405246,47.274069],[-122.405423,47.274026],[-122.405443,47.27373],[-122.405403,47.273692],[-122.405313,47.273685],[-122.405314,47.273596],[-122.405578,47.273597],[-122.405583,47.273654],[-122.405626,47.273683],[-122.405902,47.273688],[-122.405965,47.27366],[-122.406011,47.273557],[-122.405958,47.273439],[-122.405845,47.273418],[-122.405846,47.273328],[-122.40595,47.273325],[-122.405996,47.273289],[-122.405952,47.273148],[-122.405896,47.273135],[-122.405757,47.273154],[-122.405718,47.273186],[-122.405714,47.273238],[-122.40545,47.273236],[-122.405451,47.273146],[-122.405487,47.273104],[-122.405452,47.273056],[-122.405453,47.272966],[-122.405536,47.272963],[-122.405579,47.272934],[-122.405607,47.272838],[-122.405573,47.272797],[-122.405372,47.27279],[-122.405328,47.272819],[-122.405322,47.272876],[-122.405207,47.272895],[-122.405185,47.273235],[-122.405055,47.273234],[-122.405042,47.273078],[-122.404923,47.273054],[-122.404889,47.272973],[-122.404792,47.272963],[-122.404814,47.272839],[-122.404792,47.272799],[-122.404743,47.272783],[-122.404397,47.272781],[-122.404399,47.272601],[-122.404496,47.272592],[-122.404533,47.272512],[-122.404642,47.272496],[-122.404699,47.272391],[-122.404667,47.272332],[-122.404665,47.272191],[-122.40462,47.272156],[-122.404537,47.272152],[-122.404538,47.272062],[-122.404614,47.27206],[-122.404661,47.272034],[-122.404672,47.271883],[-122.404769,47.271881],[-122.404819,47.271849],[-122.404806,47.271703],[-122.404842,47.271656],[-122.404807,47.271613],[-122.404809,47.271433],[-122.404885,47.271431],[-122.404932,47.271405],[-122.404963,47.27131],[-122.404946,47.271275],[-122.404892,47.271254],[-122.404618,47.271253],[-122.404556,47.271281],[-122.404546,47.271342],[-122.404281,47.271341],[-122.404219,47.271316],[-122.404149,47.27134],[-122.404017,47.271339],[-122.404014,47.271288],[-122.403976,47.271255],[-122.403754,47.271248],[-122.403748,47.271191],[-122.403698,47.27116],[-122.40349,47.271156],[-122.403468,47.271082],[-122.403359,47.271066],[-122.403325,47.270985],[-122.403228,47.270975],[-122.403228,47.270839],[-122.403181,47.270799],[-122.402994,47.270806],[-122.402965,47.270843],[-122.402963,47.270974],[-122.402831,47.270973],[-122.402833,47.270793],[-122.402867,47.270735],[-122.402812,47.270629],[-122.402703,47.270612],[-122.402708,47.270163],[-122.402896,47.270177],[-122.402955,47.270157],[-122.402975,47.269984],[-122.403065,47.269978],[-122.403106,47.269941],[-122.40311,47.269715],[-122.403221,47.269709],[-122.403263,47.26966],[-122.403234,47.269564],[-122.403172,47.269535],[-122.402647,47.269533],[-122.402592,47.269561],[-122.402582,47.269622],[-122.40245,47.269621],[-122.402518,47.263594],[-122.402615,47.263584],[-122.402651,47.263504],[-122.40276,47.263488],[-122.402784,47.263414],[-122.402893,47.263399],[-122.402917,47.263325],[-122.403026,47.26331],[-122.40305,47.263236],[-122.403165,47.263216],[-122.403185,47.263056],[-122.40322,47.263009],[-122.403173,47.2629],[-122.403054,47.262876],[-122.403026,47.262798],[-122.402791,47.262784],[-122.402769,47.26271],[-122.40266,47.262694],[-122.402626,47.262613],[-122.402529,47.262603],[-122.402538,47.261793],[-122.407294,47.261818],[-122.407358,47.261842],[-122.40743,47.261819],[-122.418927,47.261878],[-122.41895,47.261952],[-122.419059,47.261968],[-122.419075,47.262128],[-122.419189,47.262149],[-122.419223,47.26223],[-122.41932,47.262239],[-122.419332,47.262395],[-122.41945,47.26242],[-122.419485,47.262501],[-122.419581,47.262511],[-122.41961,47.262589],[-122.419713,47.262601],[-122.419724,47.262757],[-122.419843,47.262782],[-122.419877,47.262863],[-122.419974,47.262873],[-122.419996,47.263037],[-122.420104,47.263053],[-122.420139,47.263134],[-122.420235,47.263144],[-122.420247,47.2633],[-122.420366,47.263325],[-122.4204,47.263406],[-122.420497,47.263415],[-122.420509,47.263571],[-122.420627,47.263596],[-122.420661,47.263677],[-122.420758,47.263687],[-122.42077,47.263842],[-122.420888,47.263867],[-122.420923,47.263948],[-122.42102,47.263958],[-122.421031,47.264114],[-122.42115,47.264138],[-122.421184,47.264219],[-122.421281,47.264229],[-122.421309,47.264307],[-122.421412,47.26432],[-122.421414,47.264461],[-122.421459,47.264496],[-122.421542,47.2645],[-122.42155,47.264652],[-122.421597,47.264678],[-122.421673,47.264681],[-122.421707,47.264762],[-122.421804,47.264772],[-122.421825,47.264936],[-122.421934,47.264952],[-122.421969,47.265033],[-122.422065,47.265043],[-122.422077,47.265199],[-122.422196,47.265223],[-122.42223,47.265304],[-122.422327,47.265314],[-122.422355,47.265392],[-122.422458,47.265405],[-122.42247,47.265561],[-122.422588,47.265585],[-122.422623,47.265666],[-122.422719,47.265676],[-122.422721,47.265818],[-122.422767,47.265852],[-122.42285,47.265857],[-122.422857,47.266008],[-122.422904,47.266035],[-122.42298,47.266037],[-122.423014,47.266118],[-122.423111,47.266128],[-122.423133,47.266292],[-122.423241,47.266309],[-122.423276,47.26639],[-122.423373,47.266399],[-122.423384,47.266555],[-122.423503,47.26658],[-122.423537,47.266661],[-122.423634,47.26667],[-122.42362,47.267662]],[[-122.403167,47.269355],[-122.403243,47.269317],[-122.403238,47.269204],[-122.403184,47.269176],[-122.403025,47.269181],[-122.402985,47.269218],[-122.402991,47.269326],[-122.403045,47.269353],[-122.403167,47.269355]],[[-122.404082,47.265581],[-122.404165,47.265577],[-122.404211,47.265543],[-122.404207,47.26534],[-122.404145,47.265311],[-122.403862,47.265316],[-122.403823,47.265348],[-122.403819,47.265399],[-122.403716,47.265411],[-122.403686,47.265488],[-122.403583,47.2655],[-122.403553,47.265578],[-122.403456,47.265586],[-122.403419,47.265667],[-122.403344,47.265669],[-122.403296,47.265695],[-122.403285,47.265846],[-122.403249,47.265894],[-122.403302,47.266007],[-122.403355,47.266026],[-122.403519,47.266015],[-122.403549,47.265938],[-122.403652,47.265926],[-122.403682,47.265849],[-122.403785,47.265837],[-122.403815,47.265759],[-122.403912,47.265751],[-122.403948,47.26567],[-122.404063,47.265651],[-122.404082,47.265581]],[[-122.403723,47.269632],[-122.403562,47.269616],[-122.40351,47.269652],[-122.40352,47.269889],[-122.403407,47.269905],[-122.403371,47.269986],[-122.403288,47.26999],[-122.403245,47.270019],[-122.403239,47.270136],[-122.403284,47.270175],[-122.403478,47.270151],[-122.403502,47.270077],[-122.403586,47.270073],[-122.403629,47.270044],[-122.40362,47.269905],[-122.40372,47.269894],[-122.403763,47.269865],[-122.403765,47.269662],[-122.403723,47.269632]],[[-122.405826,47.26325],[-122.405909,47.263246],[-122.405955,47.263212],[-122.405956,47.263109],[-122.405904,47.263073],[-122.405356,47.26307],[-122.4053,47.263111],[-122.405297,47.263247],[-122.404901,47.263245],[-122.404903,47.263024],[-122.404875,47.262987],[-122.404507,47.262973],[-122.404479,47.262895],[-122.404244,47.262882],[-122.404231,47.262816],[-122.404166,47.262792],[-122.404022,47.262797],[-122.403984,47.262829],[-122.40398,47.26288],[-122.40387,47.262896],[-122.403845,47.26306],[-122.403742,47.263072],[-122.403712,47.263149],[-122.403615,47.263158],[-122.403579,47.263202],[-122.40358,47.263285],[-122.403613,47.263319],[-122.403842,47.26333],[-122.403864,47.263494],[-122.404105,47.263511],[-122.404127,47.263585],[-122.404236,47.263602],[-122.404253,47.263672],[-122.404367,47.263692],[-122.404384,47.263763],[-122.404498,47.263783],[-122.404515,47.263853],[-122.404629,47.263874],[-122.404642,47.26394],[-122.404708,47.263964],[-122.404961,47.263964],[-122.405016,47.263937],[-122.405026,47.263876],[-122.405213,47.263891],[-122.405268,47.263874],[-122.405293,47.263607],[-122.405402,47.263592],[-122.405427,47.263518],[-122.40553,47.263506],[-122.40556,47.263429],[-122.405657,47.26342],[-122.405693,47.263339],[-122.405807,47.26332],[-122.405826,47.26325]],[[-122.405144,47.272609],[-122.404975,47.272581],[-122.404895,47.272635],[-122.404927,47.272695],[-122.404906,47.272829],[-122.404968,47.272873],[-122.405133,47.272872],[-122.405188,47.272832],[-122.405186,47.272638],[-122.405144,47.272609]],[[-122.405193,47.27427],[-122.405152,47.27415],[-122.404997,47.274111],[-122.40493,47.27412],[-122.404877,47.274165],[-122.404915,47.274293],[-122.404963,47.274325],[-122.405159,47.274305],[-122.405193,47.27427]],[[-122.406489,47.274378],[-122.406527,47.274258],[-122.406442,47.274208],[-122.406362,47.274231],[-122.405968,47.274229],[-122.405906,47.274204],[-122.405835,47.274228],[-122.405573,47.274227],[-122.405501,47.274202],[-122.405342,47.274228],[-122.405287,47.27427],[-122.405304,47.274405],[-122.405185,47.274429],[-122.405174,47.274546],[-122.405234,47.274584],[-122.405495,47.274586],[-122.405558,47.274558],[-122.405568,47.274497],[-122.4057,47.274497],[-122.405699,47.274587],[-122.405616,47.274591],[-122.405573,47.27462],[-122.405567,47.274723],[-122.405621,47.274765],[-122.405773,47.274765],[-122.405824,47.274735],[-122.40583,47.274678],[-122.406219,47.274667],[-122.406248,47.27463],[-122.40623,47.27441],[-122.406453,47.274405],[-122.406489,47.274378]],[[-122.406024,47.273959],[-122.4061,47.273921],[-122.406095,47.273808],[-122.406041,47.27378],[-122.405882,47.273785],[-122.405843,47.273817],[-122.405827,47.273928],[-122.405882,47.273957],[-122.406024,47.273959]],[[-122.406322,47.273605],[-122.406176,47.273587],[-122.40612,47.27361],[-122.406109,47.273741],[-122.406161,47.273778],[-122.406313,47.273778],[-122.406366,47.273743],[-122.406367,47.273639],[-122.406322,47.273605]],[[-122.408226,47.275005],[-122.408173,47.274879],[-122.407944,47.274869],[-122.407921,47.274795],[-122.407813,47.274778],[-122.407814,47.274647],[-122.407785,47.27461],[-122.40755,47.274597],[-122.407551,47.274466],[-122.407523,47.274429],[-122.407156,47.274415],[-122.40715,47.274358],[-122.4071,47.274327],[-122.406927,47.274333],[-122.406891,47.274414],[-122.406668,47.274419],[-122.40663,47.274451],[-122.406626,47.274502],[-122.406403,47.274507],[-122.406327,47.274622],[-122.406359,47.274681],[-122.406364,47.274827],[-122.406406,47.274857],[-122.406489,47.274861],[-122.406488,47.274951],[-122.406405,47.274955],[-122.406359,47.274989],[-122.406367,47.27512],[-122.406431,47.275145],[-122.406562,47.275129],[-122.406613,47.275099],[-122.40662,47.275042],[-122.406752,47.275043],[-122.406751,47.275133],[-122.40666,47.275139],[-122.40662,47.275175],[-122.40662,47.275287],[-122.406678,47.275325],[-122.407091,47.275326],[-122.40714,47.275295],[-122.407147,47.275225],[-122.407237,47.275219],[-122.407278,47.275182],[-122.407271,47.275074],[-122.407224,47.275048],[-122.407149,47.275045],[-122.40712,47.274967],[-122.406885,47.274953],[-122.406887,47.274774],[-122.407105,47.274797],[-122.407261,47.27476],[-122.407285,47.274686],[-122.407417,47.274686],[-122.407415,47.274866],[-122.407379,47.274914],[-122.407414,47.274956],[-122.407413,47.275196],[-122.407472,47.275239],[-122.40764,47.275218],[-122.407676,47.275138],[-122.407906,47.27513],[-122.407942,47.275049],[-122.408185,47.275043],[-122.408226,47.275005]],[[-122.408065,47.275859],[-122.408063,47.275443],[-122.408021,47.275413],[-122.407938,47.275409],[-122.407939,47.275278],[-122.407911,47.275241],[-122.407724,47.275232],[-122.407675,47.275276],[-122.407671,47.275587],[-122.407635,47.27563],[-122.40767,47.275677],[-122.407669,47.275767],[-122.407593,47.275769],[-122.407546,47.275795],[-122.407541,47.275927],[-122.407604,47.27596],[-122.407743,47.275945],[-122.407794,47.275915],[-122.407801,47.275858],[-122.407933,47.275859],[-122.407928,47.276018],[-122.407982,47.276039],[-122.408139,47.276037],[-122.408192,47.276002],[-122.408193,47.275898],[-122.408148,47.275864],[-122.408065,47.275859]],[[-122.408344,47.262673],[-122.408276,47.262619],[-122.408109,47.262644],[-122.40808,47.262681],[-122.408095,47.262805],[-122.408162,47.262826],[-122.408314,47.262801],[-122.408341,47.26277],[-122.408344,47.262673]],[[-122.409127,47.263627],[-122.409114,47.263561],[-122.408995,47.263536],[-122.408993,47.263485],[-122.408954,47.263453],[-122.408794,47.263421],[-122.408635,47.263454],[-122.408599,47.263534],[-122.408516,47.263538],[-122.408472,47.263567],[-122.408465,47.263714],[-122.408381,47.263717],[-122.408338,47.263746],[-122.408296,47.26385],[-122.408343,47.263959],[-122.408462,47.263984],[-122.408467,47.26404],[-122.408517,47.264072],[-122.408663,47.264099],[-122.408822,47.264066],[-122.408858,47.263986],[-122.408961,47.263974],[-122.408991,47.263896],[-122.409088,47.263888],[-122.409125,47.263807],[-122.409208,47.263803],[-122.409251,47.263774],[-122.409249,47.263656],[-122.409202,47.26363],[-122.409127,47.263627]],[[-122.408931,47.262186],[-122.409007,47.262148],[-122.409003,47.262035],[-122.408949,47.262007],[-122.40879,47.262012],[-122.408749,47.262049],[-122.408756,47.262157],[-122.40881,47.262185],[-122.408931,47.262186]],[[-122.40966,47.267432],[-122.409865,47.267386],[-122.409876,47.267269],[-122.409823,47.267232],[-122.409671,47.267232],[-122.409621,47.267262],[-122.409581,47.267377],[-122.40966,47.267432]],[[-122.412147,47.270211],[-122.41222,47.270178],[-122.412226,47.270075],[-122.412186,47.270038],[-122.412096,47.270031],[-122.412068,47.269953],[-122.41178,47.26994],[-122.411718,47.269959],[-122.411705,47.270086],[-122.411747,47.270115],[-122.41183,47.27012],[-122.411859,47.270198],[-122.412147,47.270211]],[[-122.416084,47.268343],[-122.416065,47.268092],[-122.416012,47.268072],[-122.415687,47.26807],[-122.415679,47.267918],[-122.415633,47.267892],[-122.415557,47.267889],[-122.415558,47.267799],[-122.415648,47.267793],[-122.415689,47.267757],[-122.415675,47.26755],[-122.415621,47.26753],[-122.415429,47.267529],[-122.415366,47.267504],[-122.415296,47.267528],[-122.415032,47.267527],[-122.415034,47.26721],[-122.414994,47.267173],[-122.414904,47.267166],[-122.414897,47.266925],[-122.41485,47.266898],[-122.414775,47.266895],[-122.41477,47.266749],[-122.414728,47.266719],[-122.414644,47.266715],[-122.414616,47.266637],[-122.414381,47.266623],[-122.414382,47.266534],[-122.414465,47.26653],[-122.414511,47.266496],[-122.414507,47.266293],[-122.414461,47.266266],[-122.414385,47.266264],[-122.414351,47.266183],[-122.414254,47.266173],[-122.414226,47.266095],[-122.414123,47.266082],[-122.414118,47.265936],[-122.414076,47.265906],[-122.413992,47.265902],[-122.413964,47.265824],[-122.413729,47.26581],[-122.413734,47.265319],[-122.413693,47.265277],[-122.413603,47.26527],[-122.413591,47.265114],[-122.413533,47.26509],[-122.413243,47.265097],[-122.413171,47.26522],[-122.413206,47.265268],[-122.413205,47.265358],[-122.413096,47.265373],[-122.413072,47.265447],[-122.412953,47.26547],[-122.412939,47.265536],[-122.412751,47.265522],[-122.412697,47.265538],[-122.412673,47.265625],[-122.41259,47.265629],[-122.412547,47.265658],[-122.412539,47.265804],[-122.412324,47.265807],[-122.412281,47.265836],[-122.412274,47.265893],[-122.412155,47.265916],[-122.412105,47.266024],[-122.41214,47.266072],[-122.412151,47.266228],[-122.41227,47.266253],[-122.412275,47.266309],[-122.412318,47.266339],[-122.412533,47.266344],[-122.41255,47.266504],[-122.412663,47.266525],[-122.412698,47.266606],[-122.412795,47.266615],[-122.412823,47.266693],[-122.412926,47.266706],[-122.412954,47.266784],[-122.413057,47.266797],[-122.413085,47.266875],[-122.413188,47.266887],[-122.413216,47.266965],[-122.413319,47.266978],[-122.413348,47.267056],[-122.413451,47.267069],[-122.413473,47.267143],[-122.413582,47.267159],[-122.413586,47.267306],[-122.413629,47.267335],[-122.413712,47.26734],[-122.41374,47.267418],[-122.413975,47.267431],[-122.413988,47.267497],[-122.414107,47.267522],[-122.414109,47.267587],[-122.414153,47.267621],[-122.41437,47.267613],[-122.414369,47.267703],[-122.414333,47.267751],[-122.414385,47.267864],[-122.414499,47.267884],[-122.414512,47.26795],[-122.41463,47.267975],[-122.414633,47.268026],[-122.414671,47.268058],[-122.414894,47.268066],[-122.414892,47.268287],[-122.41492,47.268324],[-122.415155,47.268337],[-122.415161,47.268394],[-122.415211,47.268425],[-122.415419,47.268429],[-122.415423,47.268575],[-122.415466,47.268605],[-122.415549,47.268609],[-122.415577,47.268687],[-122.415756,47.268698],[-122.415807,47.268667],[-122.415813,47.268611],[-122.416055,47.268596],[-122.41608,47.268432],[-122.416115,47.26839],[-122.416084,47.268343]],[[-122.415222,47.263624],[-122.415192,47.263395],[-122.415133,47.263374],[-122.415009,47.263388],[-122.414954,47.263416],[-122.414944,47.263477],[-122.414868,47.263479],[-122.414821,47.263505],[-122.414812,47.263626],[-122.414879,47.26367],[-122.415164,47.263657],[-122.415222,47.263624]],[[-122.416436,47.268874],[-122.41649,47.268744],[-122.416438,47.268706],[-122.416252,47.268704],[-122.416191,47.268742],[-122.416213,47.268849],[-122.416263,47.26888],[-122.416436,47.268874]],[[-122.417527,47.269019],[-122.417459,47.268965],[-122.417131,47.268977],[-122.417123,47.268916],[-122.417061,47.268887],[-122.416903,47.268895],[-122.416867,47.268976],[-122.416526,47.268976],[-122.416476,47.269007],[-122.416469,47.269064],[-122.416373,47.269066],[-122.416322,47.269098],[-122.416338,47.269295],[-122.416383,47.269329],[-122.416466,47.269334],[-122.416501,47.269415],[-122.416597,47.269424],[-122.416603,47.269481],[-122.416645,47.26951],[-122.416861,47.269516],[-122.416923,47.26954],[-122.417069,47.269514],[-122.41712,47.269484],[-122.417126,47.269427],[-122.417342,47.269424],[-122.417385,47.269395],[-122.417392,47.269338],[-122.417511,47.269315],[-122.417527,47.269019]],[[-122.417529,47.268889],[-122.417548,47.268844],[-122.417516,47.268809],[-122.417441,47.2688],[-122.417389,47.268823],[-122.417379,47.268865],[-122.417415,47.268902],[-122.417474,47.268912],[-122.417529,47.268889]],[[-122.42,47.265302],[-122.420077,47.265264],[-122.420072,47.265151],[-122.420018,47.265123],[-122.419858,47.265115],[-122.419817,47.265156],[-122.419825,47.265273],[-122.419879,47.265301],[-122.42,47.265302]],[[-122.421197,47.271967],[-122.421552,47.271963],[-122.421592,47.271926],[-122.421586,47.271818],[-122.421524,47.271789],[-122.420871,47.271772],[-122.420808,47.271805],[-122.420801,47.271875],[-122.42069,47.271881],[-122.420648,47.271925],[-122.420677,47.272026],[-122.420739,47.272055],[-122.42114,47.272055],[-122.42119,47.272024],[-122.421197,47.271967]],[[-122.422649,47.267194],[-122.422452,47.267228],[-122.422439,47.267341],[-122.422486,47.26738],[-122.422639,47.267398],[-122.4227,47.267356],[-122.422699,47.26723],[-122.422649,47.267194]]]}},{"type":"Feature","properties":{"id":14,"area_m2":13800,"px":138,"rank":2,"persistent":true},"geometry":{"type":"Polygon","coordinates":[[[-122.423686,47.261902],[-122.423669,47.263431],[-122.423537,47.26343],[-122.423515,47.263356],[-122.423406,47.26334],[-122.423371,47.263259],[-122.423275,47.263249],[-122.423253,47.263085],[-122.423144,47.263069],[-122.423122,47.262994],[-122.423013,47.262978],[-122.422991,47.262904],[-122.422882,47.262887],[-122.42286,47.262813],[-122.422751,47.262797],[-122.422728,47.262722],[-122.42262,47.262706],[-122.422597,47.262632],[-122.422488,47.262615],[-122.422471,47.262545],[-122.422357,47.262525],[-122.422323,47.262444],[-122.422226,47.262434],[-122.422198,47.262356],[-122.422095,47.262343],[-122.422067,47.262266],[-122.421964,47.262253],[-122.421935,47.262175],[-122.421833,47.262162],[-122.421804,47.262084],[-122.421701,47.262071],[-122.421703,47.261892],[-122.423686,47.261902]]]}},{"type":"Feature","properties":{"id":1,"area_m2":9900,"px":99,"rank":3,"persistent":false},"geometry":{"type":"Polygon","coordinates":[[[-122.423531,47.276118],[-122.423529,47.276298],[-122.422474,47.276293],[-122.42241,47.276268],[-122.42234,47.276292],[-122.421943,47.27629],[-122.421935,47.276139],[-122.421889,47.276112],[-122.421813,47.276109],[-122.421778,47.276028],[-122.421682,47.276019],[-122.421655,47.275928],[-122.421286,47.275927],[-122.421291,47.275477],[-122.421513,47.275472],[-122.421552,47.27544],[-122.421558,47.275388],[-122.42182,47.27539],[-122.421826,47.27546],[-122.421881,47.275492],[-122.42216,47.275479],[-122.422215,47.275438],[-122.422218,47.275302],[-122.422327,47.275286],[-122.422351,47.275212],[-122.422483,47.275213],[-122.422506,47.275287],[-122.422615,47.275304],[-122.422614,47.275394],[-122.422517,47.275402],[-122.422481,47.275447],[-122.422493,47.275549],[-122.422612,47.275574],[-122.422626,47.275746],[-122.422576,47.275785],[-122.422589,47.275831],[-122.422649,47.275857],[-122.422713,47.275845],[-122.422741,47.275809],[-122.422726,47.275762],[-122.422825,47.275751],[-122.422869,47.275722],[-122.422876,47.275575],[-122.423008,47.275576],[-122.423016,47.275727],[-122.423063,47.275754],[-122.423139,47.275758],[-122.423138,47.275846],[-122.423047,47.275852],[-122.423007,47.275889],[-122.423016,47.276105],[-122.423079,47.27613],[-122.423531,47.276118]]]}},{"type":"Feature","properties":{"id":8,"area_m2":1400,"px":14,"rank":4,"persistent":false},"geometry":{"type":"Polygon","coordinates":[[[-122.420636,47.274844],[-122.420635,47.275024],[-122.420544,47.27503],[-122.420503,47.275067],[-122.420498,47.275383],[-122.420389,47.275398],[-122.420365,47.275472],[-122.420233,47.275472],[-122.420234,47.275382],[-122.42027,47.275339],[-122.420235,47.27529],[-122.42024,47.274842],[-122.420636,47.274844]]]}},{"type":"Feature","properties":{"id":3,"area_m2":1300,"px":13,"rank":5,"persistent":false},"geometry":{"type":"Polygon","coordinates":[[[-122.421019,47.276106],[-122.421017,47.276285],[-122.420885,47.276285],[-122.420883,47.276143],[-122.420808,47.276104],[-122.420666,47.276105],[-122.420615,47.276128],[-122.420621,47.276283],[-122.420489,47.276283],[-122.420427,47.276258],[-122.420356,47.276282],[-122.41996,47.27628],[-122.419958,47.276138],[-122.419913,47.276104],[-122.41983,47.276099],[-122.419831,47.27601],[-122.419963,47.27601],[-122.419975,47.276076],[-122.420094,47.276101],[-122.420097,47.276153],[-122.420135,47.276185],[-122.420286,47.276192],[-122.420348,47.276164],[-122.420358,47.276102],[-122.420473,47.276083],[-122.420492,47.276013],[-122.420606,47.275994],[-122.420625,47.275924],[-122.420757,47.275924],[-122.420779,47.275999],[-122.420888,47.276015],[-122.420923,47.276096],[-122.421019,47.276106]]]}},{"type":"Feature","properties":{"id":6,"area_m2":1200,"px":12,"rank":6,"persistent":false},"geometry":{"type":"Polygon","coordinates":[[[-122.421159,47.275386],[-122.421158,47.275476],[-122.421068,47.275482],[-122.421027,47.275519],[-122.421023,47.275746],[-122.420891,47.275745],[-122.420892,47.2756],[-122.420859,47.275561],[-122.420629,47.275564],[-122.420631,47.275384],[-122.420707,47.275382],[-122.420754,47.275356],[-122.420765,47.275204],[-122.421029,47.275206],[-122.421037,47.275357],[-122.421084,47.275384],[-122.421159,47.275386]]]}},{"type":"Feature","properties":{"id":9,"area_m2":1200,"px":12,"rank":7,"persistent":false},"geometry":{"type":"Polygon","coordinates":[[[-122.422885,47.274765],[-122.422882,47.275035],[-122.422806,47.275037],[-122.422759,47.275063],[-122.422748,47.275214],[-122.422616,47.275214],[-122.422593,47.275139],[-122.422485,47.275123],[-122.422489,47.274763],[-122.422885,47.274765]]]}},{"type":"Feature","properties":{"id":4,"area_m2":600,"px":6,"rank":8,"persistent":false},"geometry":{"type":"Polygon","coordinates":[[[-122.419696,47.276189],[-122.419695,47.276279],[-122.419167,47.276276],[-122.419104,47.276252],[-122.419034,47.276275],[-122.418902,47.276275],[-122.418903,47.276185],[-122.419012,47.27617],[-122.419036,47.276096],[-122.419168,47.276096],[-122.419177,47.276158],[-122.419231,47.276185],[-122.419696,47.276189]]]}},{"type":"Feature","properties":{"id":2,"area_m2":400,"px":4,"rank":9,"persistent":false},"geometry":{"type":"Polygon","coordinates":[[[-122.421417,47.276018],[-122.421414,47.276287],[-122.421282,47.276287],[-122.42128,47.276145],[-122.421235,47.276111],[-122.421152,47.276106],[-122.421153,47.276016],[-122.421417,47.276018]]]}},{"type":"Feature","properties":{"id":12,"area_m2":400,"px":4,"rank":10,"persistent":false},"geometry":{"type":"Polygon","coordinates":[[[-122.404791,47.273053],[-122.40479,47.273143],[-122.404393,47.273141],[-122.404395,47.272961],[-122.404527,47.272962],[-122.404533,47.273018],[-122.404583,47.27305],[-122.404791,47.273053]]]}},{"type":"Feature","properties":{"id":7,"area_m2":300,"px":3,"rank":11,"persistent":false},"geometry":{"type":"Polygon","coordinates":[[[-122.423276,47.275307],[-122.423274,47.275487],[-122.423142,47.275486],[-122.423119,47.275412],[-122.423011,47.275396],[-122.423012,47.275306],[-122.423276,47.275307]]]}},{"type":"Feature","properties":{"id":10,"area_m2":300,"px":3,"rank":12,"persistent":false},"geometry":{"type":"Polygon","coordinates":[[[-122.42316,47.273777],[-122.423158,47.273957],[-122.423026,47.273956],[-122.423004,47.273882],[-122.422895,47.273865],[-122.422896,47.273775],[-122.42316,47.273777]]]}},{"type":"Feature","properties":{"id":11,"area_m2":300,"px":3,"rank":13,"persistent":false},"geometry":{"type":"Polygon","coordinates":[[[-122.423166,47.273237],[-122.423165,47.273327],[-122.423056,47.273342],[-122.423032,47.273416],[-122.4229,47.273415],[-122.422902,47.273236],[-122.423166,47.273237]]]}},{"type":"Feature","properties":{"id":13,"area_m2":300,"px":3,"rank":14,"persistent":false},"geometry":{"type":"Polygon","coordinates":[[[-122.421721,47.27242],[-122.42172,47.27251],[-122.421323,47.272508],[-122.421324,47.272418],[-122.421721,47.27242]]]}}]}