{"type":"FeatureCollection","features":[{"type":"Feature","properties":{"id":1,"area_m2":26200,"px":262,"rank":1},"geometry":{"type":"Polygon","coordinates":[[[-122.415083,47.274906],[-122.415082,47.274996],[-122.41497,47.275002],[-122.414929,47.275051],[-122.41495,47.275317],[-122.414995,47.275351],[-122.415078,47.275356],[-122.415077,47.275445],[-122.414737,47.275446],[-122.414686,47.275477],[-122.414679,47.275533],[-122.414458,47.275533],[-122.414395,47.275577],[-122.414431,47.275692],[-122.414545,47.275713],[-122.414544,47.275844],[-122.414572,47.275881],[-122.414807,47.275894],[-122.414813,47.275951],[-122.414863,47.275982],[-122.415071,47.275985],[-122.41507,47.276075],[-122.41498,47.276081],[-122.414939,47.276118],[-122.414935,47.276345],[-122.414852,47.276348],[-122.414806,47.276382],[-122.4148,47.276614],[-122.414724,47.276616],[-122.414676,47.276642],[-122.414665,47.276793],[-122.414533,47.276792],[-122.414531,47.276651],[-122.414486,47.276616],[-122.414403,47.276612],[-122.414382,47.276448],[-122.414273,47.276431],[-122.414267,47.276374],[-122.414225,47.276345],[-122.414009,47.27634],[-122.413997,47.276274],[-122.413878,47.276249],[-122.413875,47.276198],[-122.413837,47.276165],[-122.413615,47.276158],[-122.413592,47.276084],[-122.413484,47.276067],[-122.413462,47.275903],[-122.413221,47.275886],[-122.413199,47.275812],[-122.41309,47.275795],[-122.413073,47.275725],[-122.412959,47.275705],[-122.412924,47.275624],[-122.412827,47.275614],[-122.412799,47.275536],[-122.412696,47.275523],[-122.412698,47.275343],[-122.413178,47.275342],[-122.413221,47.275313],[-122.413263,47.275203],[-122.413175,47.275142],[-122.413097,47.275165],[-122.412965,47.275165],[-122.412942,47.27509],[-122.412833,47.275074],[-122.412833,47.274938],[-122.412793,47.2749],[-122.412439,47.274892],[-122.41244,47.274802],[-122.412523,47.274798],[-122.412569,47.274764],[-122.412574,47.274623],[-122.412677,47.274611],[-122.412707,47.274534],[-122.412804,47.274525],[-122.41284,47.27448],[-122.412837,47.274208],[-122.412794,47.274178],[-122.412711,47.274174],[-122.412712,47.274042],[-122.412684,47.274006],[-122.412449,47.273992],[-122.41245,47.273902],[-122.412714,47.273904],[-122.412717,47.273955],[-122.412755,47.273987],[-122.412977,47.273995],[-122.412978,47.274131],[-122.413039,47.274174],[-122.413462,47.274171],[-122.413503,47.274134],[-122.413506,47.273998],[-122.413638,47.273998],[-122.413644,47.274055],[-122.413694,47.274086],[-122.413902,47.27409],[-122.413918,47.27425],[-122.413972,47.27427],[-122.414164,47.274271],[-122.414172,47.274422],[-122.414219,47.274449],[-122.414295,47.274452],[-122.414272,47.274666],[-122.414294,47.274705],[-122.414351,47.274722],[-122.41482,47.274724],[-122.414843,47.274799],[-122.414952,47.274815],[-122.414986,47.274896],[-122.415083,47.274906]],[[-122.413551,47.275075],[-122.413829,47.275092],[-122.413885,47.27506],[-122.41389,47.274848],[-122.413845,47.274813],[-122.413762,47.274809],[-122.413727,47.274728],[-122.413631,47.274718],[-122.413602,47.27464],[-122.413409,47.274633],[-122.41337,47.274665],[-122.413364,47.274717],[-122.413234,47.274716],[-122.413229,47.274659],[-122.413179,47.274628],[-122.413042,47.274625],[-122.412988,47.274645],[-122.41295,47.274855],[-122.412996,47.274891],[-122.4131,47.274896],[-122.413099,47.27504],[-122.413126,47.275076],[-122.413182,47.27509],[-122.41332,47.27507],[-122.413359,47.275038],[-122.413365,47.274987],[-122.413495,47.274988],[-122.413501,47.275044],[-122.413551,47.275075]],[[-122.413753,47.275618],[-122.413773,47.275574],[-122.41374,47.275538],[-122.413673,47.275529],[-122.413618,47.275549],[-122.413601,47.275589],[-122.413639,47.275632],[-122.413698,47.275642],[-122.413753,47.275618]],[[-122.413886,47.275801],[-122.413828,47.275785],[-122.413768,47.275805],[-122.413751,47.275854],[-122.413778,47.27589],[-122.413842,47.275902],[-122.413902,47.275877],[-122.413917,47.275837],[-122.413886,47.275801]],[[-122.414364,47.275251],[-122.414189,47.275263],[-122.414145,47.275286],[-122.414153,47.275397],[-122.4142,47.275437],[-122.414354,47.275454],[-122.414415,47.275412],[-122.414414,47.275287],[-122.414364,47.275251]]]}},{"type":"Feature","properties":{"id":6,"area_m2":14600,"px":146,"rank":2},"geometry":{"type":"Polygon","coordinates":[[[-122.41933,47.273398],[-122.419329,47.273487],[-122.419239,47.273493],[-122.419198,47.27353],[-122.419193,47.273847],[-122.419117,47.273849],[-122.41907,47.273875],[-122.419059,47.274026],[-122.418962,47.274035],[-122.418926,47.274115],[-122.418842,47.274119],[-122.418797,47.274153],[-122.418757,47.274247],[-122.418791,47.274295],[-122.41879,47.274474],[-122.418693,47.274476],[-122.418645,47.274503],[-122.418655,47.274654],[-122.418391,47.274652],[-122.418391,47.274331],[-122.418331,47.274293],[-122.418131,47.274291],[-122.418153,47.274072],[-122.418126,47.274034],[-122.417605,47.274019],[-122.417584,47.273841],[-122.41753,47.273824],[-122.417342,47.273837],[-122.417344,47.273657],[-122.417459,47.273638],[-122.417478,47.273478],[-122.417562,47.273474],[-122.417608,47.27344],[-122.417614,47.273209],[-122.417723,47.273194],[-122.417747,47.27312],[-122.417866,47.273096],[-122.41788,47.27303],[-122.418121,47.273016],[-122.418146,47.272852],[-122.418255,47.272836],[-122.41828,47.272762],[-122.418544,47.272764],[-122.418566,47.272838],[-122.418675,47.272854],[-122.41871,47.272935],[-122.418806,47.272945],[-122.418823,47.273105],[-122.418936,47.273126],[-122.418971,47.273207],[-122.419068,47.273216],[-122.419084,47.273376],[-122.419137,47.273396],[-122.41933,47.273398]],[[-122.418471,47.273831],[-122.418317,47.273846],[-122.418273,47.273875],[-122.418246,47.273971],[-122.418294,47.274018],[-122.418466,47.274022],[-122.418524,47.27399],[-122.418523,47.273858],[-122.418471,47.273831]],[[-122.418792,47.273721],[-122.418818,47.27362],[-122.418785,47.273584],[-122.418591,47.273576],[-122.418541,47.273607],[-122.418516,47.273714],[-122.418576,47.273752],[-122.418741,47.273752],[-122.418792,47.273721]]]}},{"type":"Feature","properties":{"id":12,"area_m2":3300,"px":33,"rank":3},"geometry":{"type":"Polygon","coordinates":[[[-122.412724,47.273004],[-122.412721,47.273274],[-122.412457,47.273272],[-122.412444,47.273206],[-122.412326,47.273182],[-122.412291,47.273101],[-122.412062,47.27309],[-122.412064,47.272869],[-122.412036,47.272833],[-122.411669,47.272818],[-122.411646,47.272744],[-122.411537,47.272728],[-122.411538,47.272638],[-122.411629,47.272632],[-122.411669,47.272595],[-122.411674,47.272279],[-122.411784,47.272263],[-122.411808,47.272189],[-122.41194,47.27219],[-122.411951,47.272346],[-122.41207,47.272371],[-122.412104,47.272452],[-122.412201,47.272461],[-122.4122,47.272551],[-122.412007,47.272551],[-122.411949,47.272574],[-122.411952,47.27271],[-122.412066,47.272731],[-122.412071,47.272787],[-122.412114,47.272817],[-122.412329,47.272822],[-122.412342,47.272888],[-122.412461,47.272913],[-122.412463,47.272964],[-122.412502,47.272996],[-122.412724,47.273004]]]}},{"type":"Feature","properties":{"id":7,"area_m2":1600,"px":16,"rank":4},"geometry":{"type":"Polygon","coordinates":[[[-122.415222,47.274276],[-122.415219,47.274546],[-122.415087,47.274546],[-122.415078,47.274484],[-122.415024,47.274456],[-122.414559,47.274453],[-122.414537,47.274379],[-122.414428,47.274362],[-122.414432,47.274002],[-122.414564,47.274003],[-122.414568,47.27415],[-122.414611,47.274179],[-122.414694,47.274184],[-122.414697,47.274249],[-122.41474,47.274283],[-122.414922,47.274266],[-122.414961,47.274185],[-122.415091,47.274186],[-122.415113,47.27426],[-122.415222,47.274276]]]}},{"type":"Feature","properties":{"id":14,"area_m2":1400,"px":14,"rank":5},"geometry":{"type":"Polygon","coordinates":[[[-122.415634,47.272839],[-122.415631,47.273109],[-122.415499,47.273108],[-122.415494,47.273051],[-122.415444,47.27302],[-122.415236,47.273017],[-122.415224,47.272861],[-122.415106,47.272836],[-122.415071,47.272755],[-122.414975,47.272745],[-122.414977,47.272566],[-122.415241,47.272567],[-122.415263,47.272641],[-122.415372,47.272658],[-122.415393,47.272822],[-122.415634,47.272839]]]}},{"type":"Feature","properties":{"id":33,"area_m2":1400,"px":14,"rank":6},"geometry":{"type":"Polygon","coordinates":[[[-122.410524,47.268673],[-122.410523,47.268763],[-122.410308,47.268766],[-122.410265,47.268795],[-122.410258,47.268852],[-122.410175,47.268856],[-122.410132,47.268885],[-122.41013,47.268998],[-122.410173,47.269027],[-122.410256,47.269032],[-122.410255,47.269122],[-122.410123,47.269121],[-122.410118,47.269065],[-122.410068,47.269033],[-122.40986,47.26903],[-122.409861,47.26894],[-122.409958,47.268931],[-122.409994,47.268851],[-122.41007,47.268849],[-122.410117,47.268823],[-122.410149,47.268637],[-122.410101,47.268585],[-122.409934,47.268567],[-122.40987,47.2686],[-122.409864,47.26867],[-122.409732,47.268669],[-122.409734,47.268489],[-122.409843,47.268474],[-122.409867,47.2684],[-122.409999,47.268401],[-122.410004,47.268457],[-122.410054,47.268489],[-122.410262,47.268492],[-122.410285,47.268566],[-122.410393,47.268583],[-122.410428,47.268664],[-122.410524,47.268673]]]}},{"type":"Feature","properties":{"id":20,"area_m2":1300,"px":13,"rank":7},"geometry":{"type":"Polygon","coordinates":[[[-122.407055,47.271535],[-122.407054,47.271625],[-122.406722,47.271624],[-122.406667,47.271651],[-122.406657,47.271713],[-122.406525,47.271712],[-122.406502,47.271638],[-122.406394,47.271621],[-122.406359,47.27154],[-122.406262,47.271531],[-122.406265,47.271261],[-122.406397,47.271262],[-122.40641,47.271328],[-122.406529,47.271352],[-122.406531,47.271417],[-122.406575,47.271452],[-122.406924,47.271444],[-122.406947,47.271519],[-122.407055,47.271535]]]}},{"type":"Feature","properties":{"id":29,"area_m2":1300,"px":13,"rank":8},"geometry":{"type":"Polygon","coordinates":[[[-122.406679,47.269465],[-122.406646,47.269511],[-122.406681,47.269553],[-122.40668,47.269643],[-122.406457,47.269649],[-122.406419,47.26968],[-122.406414,47.269732],[-122.406282,47.269731],[-122.406274,47.26967],[-122.40622,47.269642],[-122.405887,47.269639],[-122.405888,47.269549],[-122.405997,47.269534],[-122.406021,47.26946],[-122.406361,47.269459],[-122.406412,47.269429],[-122.406419,47.269372],[-122.406683,47.269373],[-122.406679,47.269465]]]}},{"type":"Feature","properties":{"id":11,"area_m2":1100,"px":11,"rank":9},"geometry":{"type":"Polygon","coordinates":[[[-122.414302,47.273732],[-122.414301,47.273822],[-122.414192,47.273837],[-122.414168,47.273911],[-122.414036,47.27391],[-122.414031,47.273854],[-122.413981,47.273822],[-122.413773,47.273819],[-122.413776,47.273549],[-122.414172,47.273551],[-122.41418,47.273703],[-122.414227,47.273729],[-122.414302,47.273732]]]}},{"type":"Feature","properties":{"id":24,"area_m2":1100,"px":11,"rank":10},"geometry":{"type":"Polygon","coordinates":[[[-122.408129,47.270101],[-122.408127,47.270281],[-122.407863,47.270279],[-122.407778,47.270256],[-122.407621,47.270294],[-122.407597,47.270368],[-122.407465,47.270367],[-122.407466,47.270277],[-122.40758,47.270258],[-122.40762,47.270154],[-122.407579,47.270105],[-122.407468,47.270097],[-122.407469,47.270007],[-122.407578,47.269992],[-122.407602,47.269918],[-122.407734,47.269919],[-122.40774,47.269975],[-122.40779,47.270007],[-122.407998,47.27001],[-122.40802,47.270084],[-122.408129,47.270101]]]}},{"type":"Feature","properties":{"id":34,"area_m2":1000,"px":10,"rank":11},"geometry":{"type":"Polygon","coordinates":[[[-122.408811,47.268215],[-122.408807,47.268574],[-122.408543,47.268573],[-122.408535,47.268422],[-122.408488,47.268395],[-122.408413,47.268392],[-122.408415,47.268213],[-122.408811,47.268215]]]}},{"type":"Feature","properties":{"id":21,"area_m2":800,"px":8,"rank":12},"geometry":{"type":"Polygon","coordinates":[[[-122.406005,47.2709],[-122.406003,47.27108],[-122.40578,47.271085],[-122.405741,47.271117],[-122.405737,47.271168],[-122.405605,47.271167],[-122.405583,47.271093],[-122.405474,47.271077],[-122.40544,47.270996],[-122.405343,47.270986],[-122.405344,47.270896],[-122.405608,47.270898],[-122.405621,47.270964],[-122.405687,47.270988],[-122.405837,47.27098],[-122.405873,47.270899],[-122.406005,47.2709]]]}},{"type":"Feature","properties":{"id":3,"area_m2":600,"px":6,"rank":13},"geometry":{"type":"Polygon","coordinates":[[[-122.41243,47.275702],[-122.412429,47.275792],[-122.412032,47.27579],[-122.41201,47.275716],[-122.411901,47.275699],[-122.411902,47.275609],[-122.412011,47.275594],[-122.412035,47.27552],[-122.412167,47.275521],[-122.412189,47.275685],[-122.41243,47.275702]]]}},{"type":"Feature","properties":{"id":8,"area_m2":600,"px":6,"rank":14},"geometry":{"type":"Polygon","coordinates":[[[-122.412181,47.274261],[-122.41218,47.274351],[-122.412071,47.274366],[-122.412047,47.27444],[-122.411783,47.274439],[-122.411785,47.274259],[-122.411894,47.274244],[-122.411918,47.27417],[-122.41205,47.27417],[-122.412072,47.274244],[-122.412181,47.274261]]]}},{"type":"Feature","properties":{"id":13,"area_m2":600,"px":6,"rank":15},"geometry":{"type":"Polygon","coordinates":[[[-122.410213,47.272901],[-122.410209,47.273261],[-122.410077,47.27326],[-122.410069,47.273109],[-122.410023,47.273082],[-122.409947,47.27308],[-122.409949,47.2729],[-122.410213,47.272901]]]}},{"type":"Feature","properties":{"id":16,"area_m2":600,"px":6,"rank":16},"geometry":{"type":"Polygon","coordinates":[[[-122.408498,47.272532],[-122.408496,47.272712],[-122.408232,47.272711],[-122.408221,47.272555],[-122.408163,47.272531],[-122.40797,47.272529],[-122.407971,47.27244],[-122.408235,47.272441],[-122.408238,47.272493],[-122.408276,47.272525],[-122.408498,47.272532]]]}},{"type":"Feature","properties":{"id":2,"area_m2":500,"px":5,"rank":17},"geometry":{"type":"Polygon","coordinates":[[[-122.413479,47.276427],[-122.413477,47.276607],[-122.413345,47.276606],[-122.413323,47.276532],[-122.413214,47.276516],[-122.413217,47.276246],[-122.413349,47.276247],[-122.413357,47.276398],[-122.413404,47.276424],[-122.413479,47.276427]]]}},{"type":"Feature","properties":{"id":9,"area_m2":500,"px":5,"rank":18},"geometry":{"type":"Polygon","coordinates":[[[-122.411126,47.274076],[-122.411124,47.274255],[-122.410859,47.274254],[-122.410837,47.27418],[-122.410728,47.274163],[-122.410729,47.274073],[-122.411126,47.274076]]]}},{"type":"Feature","properties":{"id":25,"area_m2":500,"px":5,"rank":19},"geometry":{"type":"Polygon","coordinates":[[[-122.407204,47.270096],[-122.407203,47.270186],[-122.406806,47.270184],[-122.406808,47.270004],[-122.407072,47.270005],[-122.407095,47.27008],[-122.407204,47.270096]]]}},{"type":"Feature","properties":{"id":26,"area_m2":500,"px":5,"rank":20},"geometry":{"type":"Polygon","coordinates":[[[-122.404562,47.269902],[-122.404561,47.269992],[-122.404478,47.269996],[-122.404432,47.27003],[-122.404426,47.270171],[-122.404162,47.27017],[-122.404164,47.26999],[-122.404372,47.269989],[-122.404423,47.269958],[-122.40443,47.269902],[-122.404562,47.269902]]]}},{"type":"Feature","properties":{"id":4,"area_m2":400,"px":4,"rank":21},"geometry":{"type":"Polygon","coordinates":[[[-122.412568,47.275163],[-122.412565,47.275433],[-122.412433,47.275432],[-122.412431,47.27529],[-122.412386,47.275256],[-122.412303,47.275251],[-122.412304,47.275161],[-122.412568,47.275163]]]}},{"type":"Feature","properties":{"id":19,"area_m2":400,"px":4,"rank":22},"geometry":{"type":"Polygon","coordinates":[[[-122.410624,47.271643],[-122.410622,47.271823],[-122.410546,47.271825],[-122.410499,47.271851],[-122.410488,47.272003],[-122.410355,47.272002],[-122.410357,47.271822],[-122.410433,47.27182],[-122.410481,47.271794],[-122.410492,47.271643],[-122.410624,47.271643]]]}},{"type":"Feature","properties":{"id":23,"area_m2":400,"px":4,"rank":23},"geometry":{"type":"Polygon","coordinates":[[[-122.40654,47.270363],[-122.406538,47.270542],[-122.406273,47.270541],[-122.406275,47.270361],[-122.40654,47.270363]]]}},{"type":"Feature","properties":{"id":27,"area_m2":400,"px":4,"rank":24},"geometry":{"type":"Polygon","coordinates":[[[-122.412231,47.269762],[-122.41223,47.269852],[-122.412098,47.269851],[-122.412075,47.269777],[-122.411967,47.269761],[-122.411932,47.26968],[-122.411836,47.26967],[-122.411837,47.26958],[-122.412101,47.269581],[-122.412109,47.269733],[-122.412155,47.269759],[-122.412231,47.269762]]]}},{"type":"Feature","properties":{"id":5,"area_m2":300,"px":3,"rank":25},"geometry":{"type":"Polygon","coordinates":[[[-122.411649,47.274528],[-122.411647,47.274708],[-122.411383,47.274707],[-122.411384,47.274617],[-122.411493,47.274601],[-122.411517,47.274527],[-122.411649,47.274528]]]}},{"type":"Feature","properties":{"id":10,"area_m2":300,"px":3,"rank":26},"geometry":{"type":"Polygon","coordinates":[[[-122.415356,47.274097],[-122.415355,47.274187],[-122.415223,47.274186],[-122.41522,47.274135],[-122.415182,47.274103],[-122.41496,47.274095],[-122.414961,47.274005],[-122.415225,47.274007],[-122.415247,47.274081],[-122.415356,47.274097]]]}},{"type":"Feature","properties":{"id":15,"area_m2":300,"px":3,"rank":27},"geometry":{"type":"Polygon","coordinates":[[[-122.41577,47.27257],[-122.415768,47.272749],[-122.415636,47.272749],[-122.415613,47.272675],[-122.415504,47.272658],[-122.415505,47.272568],[-122.41577,47.27257]]]}},{"type":"Feature","properties":{"id":17,"area_m2":300,"px":3,"rank":28},"geometry":{"type":"Polygon","coordinates":[[[-122.417093,47.272486],[-122.417091,47.272666],[-122.416959,47.272665],[-122.416936,47.272591],[-122.416827,47.272575],[-122.416828,47.272485],[-122.417093,47.272486]]]}},{"type":"Feature","properties":{"id":18,"area_m2":300,"px":3,"rank":29},"geometry":{"type":"Polygon","coordinates":[[[-122.416699,47.272214],[-122.416697,47.272394],[-122.416565,47.272394],[-122.416542,47.272319],[-122.416434,47.272303],[-122.416435,47.272213],[-122.416699,47.272214]]]}},{"type":"Feature","properties":{"id":22,"area_m2":300,"px":3,"rank":30},"geometry":{"type":"Polygon","coordinates":[[[-122.407066,47.270545],[-122.407065,47.270635],[-122.406956,47.27065],[-122.406932,47.270724],[-122.406668,47.270723],[-122.406669,47.270633],[-122.406877,47.270632],[-122.406928,47.270601],[-122.406934,47.270545],[-122.407066,47.270545]]]}},{"type":"Feature","properties":{"id":28,"area_m2":300,"px":3,"rank":31},"geometry":{"type":"Polygon","coordinates":[[[-122.410777,47.269755],[-122.410776,47.269844],[-122.410512,47.269843],[-122.410489,47.269769],[-122.41038,47.269752],[-122.410381,47.269663],[-122.410513,47.269663],[-122.410519,47.26972],[-122.410569,47.269751],[-122.410777,47.269755]]]}},{"type":"Feature","properties":{"id":30,"area_m2":300,"px":3,"rank":32},"geometry":{"type":"Polygon","coordinates":[[[-122.407077,47.269555],[-122.407076,47.269645],[-122.406812,47.269644],[-122.406814,47.269464],[-122.406946,47.269465],[-122.406969,47.269539],[-122.407077,47.269555]]]}},{"type":"Feature","properties":{"id":31,"area_m2":300,"px":3,"rank":33},"geometry":{"type":"Polygon","coordinates":[[[-122.404305,47.269181],[-122.404303,47.269361],[-122.404171,47.26936],[-122.404169,47.269219],[-122.404124,47.269184],[-122.404041,47.26918],[-122.404042,47.26909],[-122.404174,47.26909],[-122.404197,47.269165],[-122.404305,47.269181]]]}},{"type":"Feature","properties":{"id":32,"area_m2":300,"px":3,"rank":34},"geometry":{"type":"Polygon","coordinates":[[[-122.410918,47.268945],[-122.410916,47.269125],[-122.410784,47.269125],[-122.410782,47.268983],[-122.410737,47.268949],[-122.410654,47.268944],[-122.410655,47.268854],[-122.410787,47.268855],[-122.410809,47.268929],[-122.410918,47.268945]]]}},{"type":"Feature","properties":{"id":35,"area_m2":300,"px":3,"rank":35},"geometry":{"type":"Polygon","coordinates":[[[-122.409211,47.267947],[-122.409209,47.268127],[-122.4091,47.268142],[-122.409075,47.268216],[-122.408943,47.268215],[-122.408944,47.268125],[-122.409028,47.268122],[-122.409073,47.268088],[-122.409079,47.267946],[-122.409211,47.267947]]]}},{"type":"Feature","properties":{"id":36,"area_m2":300,"px":3,"rank":36},"geometry":{"type":"Polygon","coordinates":[[[-122.409346,47.267678],[-122.409345,47.267767],[-122.409213,47.267767],[-122.40921,47.267715],[-122.409172,47.267683],[-122.408949,47.267675],[-122.40895,47.267586],[-122.409215,47.267587],[-122.409237,47.267661],[-122.409346,47.267678]]]}}]}