{"type":"FeatureCollection","features":[{"type":"Feature","properties":{"id":1,"area_m2":1853500,"px":18535,"rank":1,"persistent":true},"geometry":{"type":"Polygon","coordinates":[[[-122.42362,47.267662],[-122.423587,47.267708],[-122.423622,47.26775],[-122.42362,47.26793],[-122.423511,47.267945],[-122.423487,47.268019],[-122.423252,47.268031],[-122.423221,47.268144],[-122.423256,47.268189],[-122.423353,47.268199],[-122.423381,47.268277],[-122.423484,47.268289],[-122.423501,47.26845],[-122.423614,47.26847],[-122.423599,47.26991],[-122.423484,47.269929],[-122.423465,47.270089],[-122.423368,47.270098],[-122.423332,47.270142],[-122.423333,47.270225],[-122.423366,47.270259],[-122.423595,47.27027],[-122.423592,47.270539],[-122.423483,47.270555],[-122.423457,47.270629],[-122.422005,47.270621],[-122.42197,47.27054],[-122.421813,47.270531],[-122.42175,47.270559],[-122.42174,47.27062],[-122.421505,47.270631],[-122.421475,47.270709],[-122.420946,47.270706],[-122.420943,47.270654],[-122.420905,47.270622],[-122.420683,47.270615],[-122.42067,47.270549],[-122.420552,47.270524],[-122.420546,47.270467],[-122.420503,47.270438],[-122.420024,47.270431],[-122.420001,47.270357],[-122.419893,47.270341],[-122.41988,47.270275],[-122.419761,47.27025],[-122.419733,47.270172],[-122.41963,47.27016],[-122.419609,47.269995],[-122.4195,47.269979],[-122.419477,47.269905],[-122.419369,47.269888],[-122.419346,47.269814],[-122.419238,47.269798],[-122.419215,47.269723],[-122.419106,47.269707],[-122.419084,47.269633],[-122.418975,47.269616],[-122.418958,47.269546],[-122.418844,47.269526],[-122.418809,47.269445],[-122.418713,47.269435],[-122.418684,47.269357],[-122.418581,47.269344],[-122.418553,47.269267],[-122.41845,47.269254],[-122.418422,47.269176],[-122.418319,47.269163],[-122.418291,47.269085],[-122.418188,47.269072],[-122.418172,47.268912],[-122.418058,47.268892],[-122.418023,47.268811],[-122.417926,47.268801],[-122.417898,47.268723],[-122.417795,47.26871],[-122.417767,47.268633],[-122.417664,47.26862],[-122.417636,47.268542],[-122.417533,47.268529],[-122.417505,47.268451],[-122.417402,47.268439],[-122.417373,47.268361],[-122.41727,47.268348],[-122.417248,47.268274],[-122.417139,47.268257],[-122.417117,47.268183],[-122.417008,47.268167],[-122.416985,47.268092],[-122.416877,47.268076],[-122.416854,47.268002],[-122.416746,47.267985],[-122.416729,47.267825],[-122.416615,47.267805],[-122.416581,47.267724],[-122.416484,47.267714],[-122.416456,47.267636],[-122.416353,47.267623],[-122.416325,47.267546],[-122.416222,47.267533],[-122.416194,47.267455],[-122.416091,47.267442],[-122.416062,47.267364],[-122.415959,47.267351],[-122.415931,47.267274],[-122.415828,47.267261],[-122.415806,47.267186],[-122.415697,47.26717],[-122.415675,47.267006],[-122.415567,47.266989],[-122.415549,47.266919],[-122.415436,47.266899],[-122.415401,47.266818],[-122.415304,47.266808],[-122.415276,47.26673],[-122.415173,47.266717],[-122.415145,47.26664],[-122.415042,47.266627],[-122.415014,47.266549],[-122.414911,47.266536],[-122.414883,47.266458],[-122.414647,47.266445],[-122.414636,47.266289],[-122.414517,47.266264],[-122.414483,47.266183],[-122.414386,47.266174],[-122.414358,47.266096],[-122.414255,47.266083],[-122.414247,47.265931],[-122.4142,47.265905],[-122.414125,47.265902],[-122.414126,47.265812],[-122.414209,47.265809],[-122.414255,47.265775],[-122.414241,47.265653],[-122.414065,47.265608],[-122.413995,47.265632],[-122.413731,47.26563],[-122.413733,47.26545],[-122.413852,47.265427],[-122.413865,47.265315],[-122.413825,47.265277],[-122.413735,47.26527],[-122.413707,47.265193],[-122.413604,47.26518],[-122.413581,47.265106],[-122.413272,47.265089],[-122.413217,47.265116],[-122.413207,47.265178],[-122.413014,47.265177],[-122.412961,47.265196],[-122.412941,47.265356],[-122.412838,47.265368],[-122.412808,47.265446],[-122.412704,47.265457],[-122.412674,47.265535],[-122.412577,47.265544],[-122.412541,47.265624],[-122.412427,47.265643],[-122.412408,47.265714],[-122.412299,47.265729],[-122.412274,47.265893],[-122.412177,47.265901],[-122.412141,47.265982],[-122.412022,47.266006],[-122.411972,47.266114],[-122.412019,47.266227],[-122.412138,47.266252],[-122.412172,47.266333],[-122.412269,47.266343],[-122.412297,47.266421],[-122.4124,47.266433],[-122.412428,47.266511],[-122.412531,47.266524],[-122.412559,47.266602],[-122.412662,47.266615],[-122.412691,47.266693],[-122.412794,47.266705],[-122.412815,47.26687],[-122.412924,47.266886],[-122.412946,47.26696],[-122.413055,47.266977],[-122.413078,47.267051],[-122.413186,47.267067],[-122.413209,47.267142],[-122.413317,47.267158],[-122.413335,47.267228],[-122.413449,47.267249],[-122.413483,47.26733],[-122.41358,47.267339],[-122.413608,47.267417],[-122.413711,47.26743],[-122.413739,47.267508],[-122.413842,47.267521],[-122.41387,47.267598],[-122.413973,47.267611],[-122.414002,47.267689],[-122.414105,47.267702],[-122.414126,47.267866],[-122.414235,47.267883],[-122.414257,47.267957],[-122.414366,47.267973],[-122.414388,47.268047],[-122.414497,47.268064],[-122.41452,47.268138],[-122.414628,47.268155],[-122.414651,47.268229],[-122.41476,47.268245],[-122.414777,47.268315],[-122.414891,47.268336],[-122.414925,47.268417],[-122.415022,47.268427],[-122.41505,47.268504],[-122.415153,47.268517],[-122.415181,47.268595],[-122.415284,47.268608],[-122.415313,47.268686],[-122.415416,47.268698],[-122.415444,47.268776],[-122.415547,47.268789],[-122.415568,47.268953],[-122.415677,47.26897],[-122.41568,47.269021],[-122.415718,47.269054],[-122.41594,47.269061],[-122.415963,47.269135],[-122.416072,47.269152],[-122.416079,47.269303],[-122.416126,47.26933],[-122.416202,47.269332],[-122.416236,47.269413],[-122.416333,47.269423],[-122.416356,47.269497],[-122.416411,47.269513],[-122.416861,47.269516],[-122.416883,47.26959],[-122.416992,47.269606],[-122.417001,47.270032],[-122.417119,47.270057],[-122.417154,47.270138],[-122.41725,47.270148],[-122.417279,47.270225],[-122.417382,47.270238],[-122.41741,47.270316],[-122.417513,47.270329],[-122.417541,47.270407],[-122.417644,47.27042],[-122.417672,47.270497],[-122.417775,47.27051],[-122.417798,47.270584],[-122.417907,47.270601],[-122.417929,47.270675],[-122.418038,47.270691],[-122.41806,47.270766],[-122.418169,47.270782],[-122.418177,47.270934],[-122.418223,47.27096],[-122.418299,47.270963],[-122.418334,47.271044],[-122.41843,47.271053],[-122.418453,47.271128],[-122.418694,47.271145],[-122.41871,47.271305],[-122.418824,47.271325],[-122.418858,47.271406],[-122.418955,47.271416],[-122.418983,47.271494],[-122.419086,47.271507],[-122.419115,47.271584],[-122.419218,47.271597],[-122.419246,47.271675],[-122.419349,47.271688],[-122.419346,47.271958],[-122.419221,47.27197],[-122.4192,47.272034],[-122.419275,47.272072],[-122.419356,47.272037],[-122.419477,47.272049],[-122.4195,47.272123],[-122.419608,47.272139],[-122.419625,47.272299],[-122.419739,47.27232],[-122.419773,47.272401],[-122.41987,47.27241],[-122.419898,47.272488],[-122.420001,47.272501],[-122.420029,47.272579],[-122.420132,47.272592],[-122.42016,47.27267],[-122.420263,47.272682],[-122.42026,47.273041],[-122.420145,47.273061],[-122.420125,47.273221],[-122.42005,47.273223],[-122.420002,47.273249],[-122.419991,47.273401],[-122.419915,47.273403],[-122.419868,47.273429],[-122.419857,47.27358],[-122.419781,47.273582],[-122.419734,47.273608],[-122.419723,47.273759],[-122.419647,47.273761],[-122.4196,47.273787],[-122.419589,47.273939],[-122.419513,47.273941],[-122.419466,47.273967],[-122.419454,47.274118],[-122.419379,47.27412],[-122.419331,47.274146],[-122.41932,47.274297],[-122.419244,47.274299],[-122.419197,47.274325],[-122.419186,47.274476],[-122.419103,47.27448],[-122.41906,47.274509],[-122.419051,47.274746],[-122.418932,47.274769],[-122.418917,47.274925],[-122.418834,47.274929],[-122.418788,47.274963],[-122.418783,47.275104],[-122.418699,47.275108],[-122.418656,47.275137],[-122.418648,47.275284],[-122.418565,47.275287],[-122.418522,47.275316],[-122.418513,47.275553],[-122.418399,47.275572],[-122.418379,47.275732],[-122.418296,47.275736],[-122.41825,47.27577],[-122.418244,47.276001],[-122.418003,47.276016],[-122.417979,47.27609],[-122.417895,47.276094],[-122.417852,47.276123],[-122.417844,47.276269],[-122.416126,47.276261],[-122.416128,47.276081],[-122.416225,47.276072],[-122.416261,47.275991],[-122.416375,47.275972],[-122.416393,47.275856],[-122.416331,47.275813],[-122.416131,47.275811],[-122.416118,47.275745],[-122.415983,47.275712],[-122.415994,47.27565],[-122.415924,47.275616],[-122.415859,47.275634],[-122.415832,47.275672],[-122.415883,47.275727],[-122.415861,47.276259],[-122.412424,47.276242],[-122.412407,47.276171],[-122.412293,47.276151],[-122.412275,47.276081],[-122.412161,47.27606],[-122.412144,47.27599],[-122.41203,47.27597],[-122.412018,47.275904],[-122.411899,47.275879],[-122.411896,47.275827],[-122.411858,47.275795],[-122.411503,47.275787],[-122.411491,47.275721],[-122.411425,47.275697],[-122.411275,47.275705],[-122.411239,47.275786],[-122.411107,47.275785],[-122.411097,47.275526],[-122.411033,47.275501],[-122.410845,47.275514],[-122.410846,47.275424],[-122.41093,47.27542],[-122.410975,47.275386],[-122.410971,47.275273],[-122.410924,47.275247],[-122.410848,47.275244],[-122.410814,47.275163],[-122.410717,47.275153],[-122.410689,47.275075],[-122.410586,47.275062],[-122.410551,47.274981],[-122.410322,47.274971],[-122.410305,47.274901],[-122.410191,47.27488],[-122.410179,47.274814],[-122.410113,47.27479],[-122.409957,47.274802],[-122.409927,47.274879],[-122.409808,47.274903],[-122.409793,47.274968],[-122.409661,47.274968],[-122.409662,47.274878],[-122.409746,47.274874],[-122.409792,47.27484],[-122.409788,47.274637],[-122.409734,47.274609],[-122.409533,47.274607],[-122.409523,47.274361],[-122.409404,47.274336],[-122.40937,47.274255],[-122.409273,47.274246],[-122.409245,47.274168],[-122.409142,47.274155],[-122.409113,47.274077],[-122.40901,47.274065],[-122.408982,47.273987],[-122.408879,47.273974],[-122.408851,47.273896],[-122.408645,47.273895],[-122.408615,47.273972],[-122.408518,47.273981],[-122.408481,47.274062],[-122.408367,47.274081],[-122.408348,47.274151],[-122.408084,47.27415],[-122.408067,47.274079],[-122.407953,47.274059],[-122.407918,47.273978],[-122.407822,47.273968],[-122.407793,47.273891],[-122.407558,47.273877],[-122.407537,47.273713],[-122.407428,47.273696],[-122.407423,47.27364],[-122.40738,47.27361],[-122.407165,47.273605],[-122.407142,47.273531],[-122.407033,47.273514],[-122.407011,47.27344],[-122.406902,47.273424],[-122.406885,47.273353],[-122.406771,47.273333],[-122.406737,47.273252],[-122.40664,47.273242],[-122.406612,47.273165],[-122.406509,47.273152],[-122.40648,47.273074],[-122.406377,47.273061],[-122.406349,47.272983],[-122.406246,47.27297],[-122.406218,47.272893],[-122.406115,47.27288],[-122.406087,47.272802],[-122.405852,47.272788],[-122.405829,47.272714],[-122.40572,47.272698],[-122.405703,47.272627],[-122.405589,47.272607],[-122.405555,47.272526],[-122.405458,47.272516],[-122.40543,47.272439],[-122.405327,47.272426],[-122.405299,47.272348],[-122.405196,47.272335],[-122.405189,47.272094],[-122.405142,47.272067],[-122.405066,47.272064],[-122.405032,47.271983],[-122.404935,47.271974],[-122.404937,47.271794],[-122.405028,47.271788],[-122.40507,47.271746],[-122.405074,47.271385],[-122.405047,47.271344],[-122.404678,47.271343],[-122.404616,47.271318],[-122.404544,47.271342],[-122.403885,47.271338],[-122.403882,47.271287],[-122.403844,47.271255],[-122.403621,47.271247],[-122.403604,47.271177],[-122.40349,47.271156],[-122.403456,47.271075],[-122.403359,47.271066],[-122.403331,47.270988],[-122.403228,47.270975],[-122.4032,47.270897],[-122.403097,47.270884],[-122.403068,47.270807],[-122.402965,47.270794],[-122.402937,47.270716],[-122.402834,47.270703],[-122.402806,47.270625],[-122.402571,47.270612],[-122.402563,47.27046],[-122.402516,47.270434],[-122.402441,47.270431],[-122.402444,47.270161],[-122.402558,47.270142],[-122.402578,47.269982],[-122.402675,47.269973],[-122.402711,47.269929],[-122.40271,47.269846],[-122.402677,47.269812],[-122.402448,47.2698],[-122.402518,47.263593],[-122.402621,47.263581],[-122.402651,47.263504],[-122.402754,47.263492],[-122.402784,47.263414],[-122.402887,47.263402],[-122.402917,47.263325],[-122.403014,47.263316],[-122.40305,47.263236],[-122.403165,47.263216],[-122.403185,47.263056],[-122.40322,47.263014],[-122.403173,47.2629],[-122.403054,47.262876],[-122.403026,47.262798],[-122.402791,47.262784],[-122.402769,47.26271],[-122.40266,47.262694],[-122.402652,47.262542],[-122.402606,47.262516],[-122.40253,47.262513],[-122.402538,47.261793],[-122.407294,47.261818],[-122.407358,47.261842],[-122.40743,47.261819],[-122.418927,47.261878],[-122.41895,47.261952],[-122.419059,47.261968],[-122.419071,47.262034],[-122.41919,47.262059],[-122.419218,47.262137],[-122.419321,47.26215],[-122.419337,47.26231],[-122.419451,47.26233],[-122.419486,47.262411],[-122.419582,47.262421],[-122.419611,47.262499],[-122.419714,47.262511],[-122.419721,47.262663],[-122.419768,47.262689],[-122.419844,47.262692],[-122.419878,47.262773],[-122.419975,47.262783],[-122.419997,47.262947],[-122.420105,47.262963],[-122.42014,47.263044],[-122.420236,47.263054],[-122.420248,47.26321],[-122.420367,47.263235],[-122.420401,47.263316],[-122.420498,47.263325],[-122.420526,47.263403],[-122.420629,47.263416],[-122.420641,47.263572],[-122.420759,47.263597],[-122.420794,47.263678],[-122.42089,47.263687],[-122.420895,47.263834],[-122.420938,47.263863],[-122.421021,47.263868],[-122.421055,47.263949],[-122.421152,47.263958],[-122.421168,47.264119],[-122.421282,47.264139],[-122.421316,47.26422],[-122.421413,47.26423],[-122.421441,47.264308],[-122.421544,47.26432],[-122.421546,47.264462],[-122.421592,47.264496],[-122.421675,47.264501],[-122.421682,47.264652],[-122.421729,47.264679],[-122.421805,47.264682],[-122.421839,47.264763],[-122.421936,47.264772],[-122.421958,47.264936],[-122.422066,47.264953],[-122.422101,47.265034],[-122.422198,47.265044],[-122.422209,47.2652],[-122.422328,47.265224],[-122.422362,47.265305],[-122.422459,47.265315],[-122.422487,47.265393],[-122.42259,47.265405],[-122.422602,47.265561],[-122.42272,47.265586],[-122.422755,47.265667],[-122.422852,47.265677],[-122.422859,47.265828],[-122.422906,47.265855],[-122.422982,47.265857],[-122.423016,47.265938],[-122.423113,47.265948],[-122.423118,47.266095],[-122.42316,47.266124],[-122.423243,47.266129],[-122.423278,47.26621],[-122.423374,47.266219],[-122.423391,47.26638],[-122.423505,47.2664],[-122.423539,47.266481],[-122.423636,47.266491],[-122.42362,47.267662]],[[-122.403264,47.269316],[-122.403238,47.269204],[-122.403184,47.269176],[-122.402915,47.269175],[-122.402852,47.269217],[-122.402853,47.269315],[-122.402913,47.269353],[-122.403218,47.269351],[-122.403264,47.269316]],[[-122.404196,47.265561],[-122.404234,47.265351],[-122.404181,47.265314],[-122.403892,47.26531],[-122.403843,47.265325],[-122.403819,47.265399],[-122.403716,47.265411],[-122.403686,47.265488],[-122.403583,47.2655],[-122.403553,47.265578],[-122.403456,47.265586],[-122.403419,47.265667],[-122.403344,47.265669],[-122.403296,47.265695],[-122.403285,47.265846],[-122.403249,47.265894],[-122.403307,47.266011],[-122.403363,47.266027],[-122.403525,47.266012],[-122.403549,47.265938],[-122.403652,47.265926],[-122.403682,47.265849],[-122.403785,47.265837],[-122.403815,47.265759],[-122.403918,47.265747],[-122.403948,47.26567],[-122.404045,47.265661],[-122.404082,47.265581],[-122.404196,47.265561]],[[-122.403724,47.269542],[-122.403563,47.269526],[-122.403509,47.269567],[-122.40352,47.269889],[-122.403407,47.269905],[-122.403371,47.269986],[-122.403288,47.26999],[-122.403245,47.270019],[-122.403239,47.270136],[-122.403291,47.270177],[-122.403478,47.270151],[-122.403502,47.270077],[-122.403586,47.270073],[-122.403629,47.270044],[-122.40362,47.269905],[-122.40372,47.269894],[-122.403763,47.269865],[-122.403769,47.269577],[-122.403724,47.269542]],[[-122.405826,47.26325],[-122.405909,47.263246],[-122.405955,47.263212],[-122.405956,47.263109],[-122.405904,47.263073],[-122.405356,47.26307],[-122.4053,47.263111],[-122.405297,47.263247],[-122.404901,47.263245],[-122.404903,47.263024],[-122.404875,47.262987],[-122.40464,47.262974],[-122.404631,47.262912],[-122.404577,47.262885],[-122.404244,47.262882],[-122.404235,47.26282],[-122.404173,47.262792],[-122.404009,47.262803],[-122.40398,47.26288],[-122.403876,47.262892],[-122.403846,47.26297],[-122.403743,47.262982],[-122.403713,47.263059],[-122.403623,47.263065],[-122.403581,47.263107],[-122.403596,47.263309],[-122.40365,47.263328],[-122.403842,47.26333],[-122.403864,47.263494],[-122.404105,47.263511],[-122.404127,47.263585],[-122.404236,47.263602],[-122.404253,47.263672],[-122.404367,47.263692],[-122.404384,47.263763],[-122.404498,47.263783],[-122.404515,47.263853],[-122.404629,47.263874],[-122.404638,47.263935],[-122.4047,47.263964],[-122.404858,47.263956],[-122.404894,47.263875],[-122.405135,47.263861],[-122.405159,47.263787],[-122.405242,47.263783],[-122.405286,47.263754],[-122.405293,47.263607],[-122.405402,47.263592],[-122.405427,47.263518],[-122.40553,47.263506],[-122.40556,47.263429],[-122.405657,47.26342],[-122.405693,47.263339],[-122.405807,47.26332],[-122.405826,47.26325]],[[-122.408462,47.26279],[-122.40848,47.262654],[-122.408345,47.262633],[-122.408333,47.262554],[-122.408254,47.26253],[-122.408116,47.262551],[-122.40808,47.262632],[-122.407971,47.262647],[-122.407912,47.262774],[-122.407974,47.262889],[-122.408155,47.262926],[-122.408318,47.262887],[-122.408343,47.262813],[-122.408462,47.26279]],[[-122.409127,47.263627],[-122.409114,47.263561],[-122.408995,47.263536],[-122.408993,47.263485],[-122.408954,47.263453],[-122.408794,47.263421],[-122.408635,47.263454],[-122.408599,47.263534],[-122.408502,47.263543],[-122.408466,47.263624],[-122.408382,47.263627],[-122.408339,47.263656],[-122.408331,47.263803],[-122.408296,47.26385],[-122.408343,47.263959],[-122.408462,47.263984],[-122.408467,47.26404],[-122.408517,47.264072],[-122.408663,47.264099],[-122.408822,47.264066],[-122.408858,47.263986],[-122.408961,47.263974],[-122.408991,47.263896],[-122.409088,47.263888],[-122.409125,47.263807],[-122.409208,47.263803],[-122.409251,47.263774],[-122.409249,47.263656],[-122.409202,47.26363],[-122.409127,47.263627]],[[-122.408913,47.262267],[-122.40908,47.26229],[-122.409133,47.262262],[-122.409134,47.262126],[-122.409087,47.262099],[-122.409011,47.262097],[-122.409009,47.262045],[-122.40897,47.262013],[-122.40879,47.262012],[-122.408749,47.262049],[-122.408756,47.262157],[-122.408802,47.262183],[-122.408878,47.262186],[-122.408913,47.262267]],[[-122.409065,47.27087],[-122.409041,47.270769],[-122.408991,47.270737],[-122.408839,47.270737],[-122.408786,47.270772],[-122.408785,47.270876],[-122.408837,47.270912],[-122.409031,47.270906],[-122.409065,47.27087]],[[-122.409322,47.271592],[-122.409297,47.27149],[-122.409247,47.271459],[-122.409083,47.271457],[-122.409021,47.271495],[-122.409044,47.271602],[-122.409094,47.271633],[-122.409288,47.271627],[-122.409322,47.271592]],[[-122.40966,47.267432],[-122.409865,47.267386],[-122.409876,47.267269],[-122.409823,47.267232],[-122.409671,47.267232],[-122.409621,47.267262],[-122.409581,47.267377],[-122.40966,47.267432]],[[-122.409961,47.27182],[-122.410044,47.271816],[-122.410087,47.271787],[-122.410072,47.271656],[-122.409831,47.271639],[-122.409825,47.271583],[-122.409775,47.271551],[-122.409569,47.271564],[-122.409546,47.271604],[-122.409569,47.27169],[-122.409614,47.271724],[-122.409697,47.271729],[-122.409719,47.271893],[-122.409911,47.271906],[-122.409954,47.271877],[-122.409961,47.27182]],[[-122.412147,47.270211],[-122.41222,47.270178],[-122.412226,47.270075],[-122.412186,47.270038],[-122.412096,47.270031],[-122.412068,47.269953],[-122.41178,47.26994],[-122.411718,47.269959],[-122.411705,47.270086],[-122.411747,47.270115],[-122.41183,47.27012],[-122.411859,47.270198],[-122.412147,47.270211]],[[-122.413162,47.274086],[-122.413238,47.274048],[-122.413233,47.273935],[-122.413179,47.273907],[-122.41302,47.273912],[-122.41298,47.273948],[-122.412986,47.274056],[-122.41304,47.274084],[-122.413162,47.274086]],[[-122.415211,47.26357],[-122.415208,47.263432],[-122.415174,47.263397],[-122.414945,47.263387],[-122.414937,47.263325],[-122.414883,47.263298],[-122.414746,47.263297],[-122.414695,47.26332],[-122.414663,47.263436],[-122.414708,47.263471],[-122.414812,47.263476],[-122.41481,47.263698],[-122.414845,47.263737],[-122.415171,47.263739],[-122.415242,47.263621],[-122.415211,47.26357]],[[-122.416288,47.275317],[-122.416256,47.275206],[-122.416138,47.275181],[-122.416135,47.275129],[-122.416097,47.275097],[-122.415777,47.275098],[-122.415741,47.275143],[-122.415751,47.275515],[-122.415909,47.275553],[-122.415967,47.275544],[-122.416001,47.275505],[-122.416003,47.27536],[-122.416247,47.275355],[-122.416288,47.275317]],[[-122.41694,47.262268],[-122.416919,47.26223],[-122.416857,47.262213],[-122.416794,47.262235],[-122.416773,47.262274],[-122.416799,47.262312],[-122.416863,47.262331],[-122.416923,47.262311],[-122.41694,47.262268]],[[-122.417338,47.275952],[-122.417314,47.27585],[-122.417264,47.275819],[-122.417099,47.275817],[-122.417038,47.275855],[-122.417061,47.275962],[-122.41711,47.275993],[-122.417305,47.275987],[-122.417338,47.275952]],[[-122.417505,47.263486],[-122.417651,47.263504],[-122.417707,47.26348],[-122.417718,47.263349],[-122.417666,47.263313],[-122.417514,47.263312],[-122.417461,47.263348],[-122.41746,47.263451],[-122.417505,47.263486]],[[-122.418821,47.264397],[-122.418897,47.264359],[-122.418892,47.264245],[-122.418838,47.264218],[-122.418678,47.264209],[-122.418638,47.264251],[-122.418645,47.264367],[-122.418699,47.264395],[-122.418821,47.264397]],[[-122.421099,47.268817],[-122.421096,47.268766],[-122.421058,47.268733],[-122.420871,47.268735],[-122.420834,47.268816],[-122.420738,47.268825],[-122.420701,47.268905],[-122.420582,47.268929],[-122.42056,47.26906],[-122.420618,47.269084],[-122.420832,47.269086],[-122.420837,47.269156],[-122.420885,47.269187],[-122.42106,47.269168],[-122.421096,47.269087],[-122.421186,47.269081],[-122.421228,47.269039],[-122.421225,47.268851],[-122.421182,47.268822],[-122.421099,47.268817]],[[-122.423084,47.267364],[-122.423119,47.267258],[-122.423092,47.26722],[-122.422835,47.267206],[-122.42283,47.267136],[-122.422767,47.267103],[-122.422607,47.267124],[-122.422571,47.267205],[-122.422459,47.267211],[-122.422418,47.267255],[-122.42245,47.26736],[-122.422569,47.267385],[-122.422577,47.267446],[-122.422639,47.267475],[-122.422922,47.26747],[-122.422961,47.267439],[-122.422965,47.267387],[-122.423084,47.267364]],[[-122.423469,47.269679],[-122.423401,47.269625],[-122.423234,47.26965],[-122.423204,47.269728],[-122.423121,47.269731],[-122.423078,47.26976],[-122.423088,47.269887],[-122.423149,47.269907],[-122.423438,47.269897],[-122.423467,47.26986],[-122.423469,47.269679]]]}},{"type":"Feature","properties":{"id":2,"area_m2":68200,"px":682,"rank":2,"persistent":true},"geometry":{"type":"Polygon","coordinates":[[[-122.407665,47.276127],[-122.407662,47.276217],[-122.402376,47.27619],[-122.402412,47.272951],[-122.402544,47.272951],[-122.402562,47.273022],[-122.402676,47.273042],[-122.40271,47.273123],[-122.402807,47.273133],[-122.402835,47.27321],[-122.402938,47.273223],[-122.402966,47.273301],[-122.403069,47.273314],[-122.403097,47.273392],[-122.403333,47.273405],[-122.403355,47.27348],[-122.403464,47.273496],[-122.403475,47.273652],[-122.403594,47.273677],[-122.403628,47.273758],[-122.403725,47.273767],[-122.403723,47.273988],[-122.403751,47.274025],[-122.404251,47.27404],[-122.404273,47.274114],[-122.404382,47.274131],[-122.404417,47.274212],[-122.404513,47.274221],[-122.404511,47.274401],[-122.404475,47.274449],[-122.404538,47.274569],[-122.404704,47.274606],[-122.404774,47.274583],[-122.405038,47.274584],[-122.405053,47.274834],[-122.405229,47.274879],[-122.4053,47.274855],[-122.405564,47.274857],[-122.405562,47.275037],[-122.405526,47.275084],[-122.405578,47.275197],[-122.405754,47.275242],[-122.405824,47.275218],[-122.406089,47.275219],[-122.406111,47.275294],[-122.40622,47.27531],[-122.406231,47.275556],[-122.406349,47.275581],[-122.406383,47.275662],[-122.40648,47.275671],[-122.406508,47.275749],[-122.406611,47.275762],[-122.40664,47.27584],[-122.407139,47.275855],[-122.407168,47.275932],[-122.407403,47.275946],[-122.407425,47.27602],[-122.407534,47.276037],[-122.407568,47.276118],[-122.407665,47.276127]]]}},{"type":"Feature","properties":{"id":3,"area_m2":37100,"px":371,"rank":3,"persistent":false},"geometry":{"type":"Polygon","coordinates":[[[-122.423686,47.261902],[-122.423662,47.264061],[-122.423398,47.26406],[-122.423385,47.263994],[-122.423267,47.263969],[-122.423232,47.263888],[-122.422871,47.263877],[-122.422859,47.263811],[-122.42274,47.263786],[-122.422706,47.263705],[-122.422477,47.263695],[-122.422464,47.263629],[-122.422346,47.263604],[-122.42234,47.263548],[-122.422297,47.263518],[-122.422082,47.263513],[-122.422065,47.263443],[-122.421951,47.263422],[-122.421938,47.263356],[-122.42182,47.263332],[-122.421785,47.263251],[-122.421424,47.26324],[-122.421413,47.262994],[-122.421295,47.262969],[-122.421261,47.262888],[-122.421164,47.262879],[-122.421142,47.262714],[-122.421034,47.262698],[-122.421021,47.262632],[-122.420902,47.262607],[-122.420874,47.26253],[-122.420771,47.262517],[-122.420775,47.262116],[-122.420734,47.262073],[-122.420644,47.262066],[-122.420646,47.261886],[-122.421701,47.261892],[-122.421765,47.261916],[-122.421837,47.261892],[-122.423686,47.261902]]]}}]}