{"type":"FeatureCollection","features":[{"type":"Feature","properties":{"id":3,"area_m2":23100,"px":231,"rank":1},"geometry":{"type":"Polygon","coordinates":[[[-122.414959,47.274185],[-122.414957,47.274365],[-122.414296,47.274362],[-122.414273,47.274287],[-122.414148,47.274263],[-122.414165,47.27414],[-122.414137,47.274103],[-122.413953,47.27409],[-122.413887,47.274124],[-122.413914,47.274246],[-122.414048,47.274278],[-122.413995,47.274403],[-122.41403,47.27445],[-122.414009,47.274574],[-122.41403,47.274614],[-122.41416,47.274631],[-122.414173,47.274697],[-122.414292,47.274722],[-122.414297,47.274778],[-122.41434,47.274808],[-122.414819,47.274814],[-122.414798,47.275039],[-122.414845,47.27508],[-122.414949,47.275085],[-122.414946,47.275355],[-122.414738,47.275356],[-122.414687,47.275387],[-122.41468,47.275443],[-122.414548,47.275443],[-122.414526,47.275368],[-122.414417,47.275352],[-122.414383,47.275271],[-122.414286,47.275261],[-122.414288,47.27504],[-122.414232,47.274994],[-122.414079,47.274979],[-122.41403,47.27501],[-122.414023,47.27508],[-122.413761,47.275095],[-122.413738,47.275135],[-122.413761,47.27522],[-122.413806,47.275255],[-122.413889,47.275259],[-122.41391,47.275424],[-122.414284,47.275441],[-122.414306,47.275516],[-122.414415,47.275532],[-122.414413,47.275849],[-122.414453,47.275886],[-122.414543,47.275893],[-122.414541,47.276073],[-122.414288,47.276082],[-122.414277,47.275935],[-122.41425,47.275903],[-122.413936,47.275878],[-122.413883,47.275919],[-122.41389,47.276041],[-122.413936,47.276067],[-122.414012,47.27607],[-122.414018,47.276127],[-122.41406,47.276156],[-122.414265,47.27615],[-122.414274,47.276341],[-122.414009,47.27634],[-122.414001,47.276278],[-122.413946,47.276251],[-122.413614,47.276248],[-122.413592,47.276084],[-122.413351,47.276066],[-122.413351,47.27593],[-122.413311,47.275893],[-122.413089,47.275885],[-122.41309,47.275795],[-122.413187,47.275787],[-122.413223,47.275706],[-122.413306,47.275702],[-122.41335,47.275673],[-122.413345,47.275461],[-122.413287,47.275437],[-122.413094,47.275435],[-122.413071,47.275361],[-122.412963,47.275345],[-122.412972,47.27519],[-122.412929,47.275167],[-122.412832,47.275164],[-122.412815,47.275094],[-122.412701,47.275073],[-122.412667,47.274992],[-122.41257,47.274983],[-122.412542,47.274905],[-122.412307,47.274891],[-122.412305,47.27475],[-122.412259,47.274715],[-122.412176,47.274711],[-122.412177,47.274621],[-122.412385,47.27462],[-122.412436,47.274589],[-122.412443,47.274532],[-122.412636,47.274533],[-122.412694,47.274509],[-122.41271,47.274264],[-122.4128,47.274258],[-122.412841,47.274221],[-122.412845,47.273994],[-122.412977,47.273995],[-122.413,47.274069],[-122.413109,47.274086],[-122.413116,47.274237],[-122.413163,47.274264],[-122.413239,47.274266],[-122.413254,47.274349],[-122.413155,47.27436],[-122.413109,47.274394],[-122.413117,47.274512],[-122.413175,47.274536],[-122.413339,47.274524],[-122.413368,47.274488],[-122.413354,47.274364],[-122.413453,47.274353],[-122.413499,47.274319],[-122.413505,47.274088],[-122.413721,47.274085],[-122.413764,47.274056],[-122.413771,47.273999],[-122.413847,47.273997],[-122.413894,47.273971],[-122.413906,47.27373],[-122.414302,47.273732],[-122.414324,47.273896],[-122.414565,47.273913],[-122.414587,47.273987],[-122.414696,47.274004],[-122.414675,47.274128],[-122.414696,47.274167],[-122.414959,47.274185]],[[-122.41323,47.274781],[-122.413252,47.274666],[-122.413207,47.27463],[-122.41304,47.274612],[-122.412976,47.274645],[-122.412971,47.274761],[-122.413018,47.274801],[-122.413193,47.274813],[-122.41323,47.274781]],[[-122.413753,47.275059],[-122.413778,47.274939],[-122.413733,47.274903],[-122.413428,47.274898],[-122.413367,47.274935],[-122.413364,47.275033],[-122.413419,47.275075],[-122.41369,47.275092],[-122.413753,47.275059]],[[-122.413754,47.2758],[-122.413696,47.275785],[-122.413636,47.275805],[-122.413618,47.275853],[-122.413646,47.275889],[-122.413709,47.275902],[-122.41377,47.275876],[-122.413785,47.275836],[-122.413754,47.2758]]]}},{"type":"Feature","properties":{"id":7,"area_m2":16100,"px":161,"rank":2},"geometry":{"type":"Polygon","coordinates":[[[-122.419198,47.273397],[-122.419196,47.273577],[-122.419106,47.273583],[-122.419064,47.273625],[-122.419058,47.274116],[-122.418982,47.274118],[-122.418935,47.274144],[-122.418924,47.274295],[-122.418827,47.274304],[-122.418791,47.274384],[-122.418671,47.274408],[-122.418656,47.274564],[-122.41826,47.274562],[-122.418247,47.274496],[-122.418129,47.274471],[-122.4181,47.274393],[-122.417865,47.27438],[-122.417843,47.274306],[-122.417734,47.274289],[-122.417735,47.274158],[-122.417707,47.274121],[-122.417472,47.274108],[-122.417449,47.274034],[-122.41734,47.274017],[-122.417306,47.273936],[-122.417209,47.273927],[-122.417211,47.273747],[-122.417287,47.273745],[-122.417334,47.273719],[-122.417345,47.273567],[-122.417454,47.273552],[-122.417478,47.273478],[-122.417575,47.273469],[-122.417612,47.273389],[-122.417726,47.27337],[-122.417745,47.2733],[-122.417986,47.273285],[-122.418011,47.273121],[-122.418212,47.273121],[-122.418267,47.273094],[-122.418278,47.272942],[-122.418542,47.272944],[-122.418562,47.273198],[-122.418936,47.273216],[-122.418958,47.27329],[-122.419067,47.273306],[-122.419101,47.273387],[-122.419198,47.273397]]]}},{"type":"Feature","properties":{"id":26,"area_m2":13000,"px":130,"rank":3},"geometry":{"type":"Polygon","coordinates":[[[-122.408522,47.270463],[-122.408521,47.270553],[-122.408437,47.270556],[-122.408391,47.27059],[-122.408386,47.270732],[-122.408156,47.270727],[-122.408122,47.270766],[-122.40812,47.27091],[-122.407988,47.27091],[-122.40796,47.270832],[-122.407725,47.270818],[-122.407719,47.270762],[-122.407676,47.270732],[-122.407329,47.270726],[-122.407329,47.270576],[-122.407291,47.270539],[-122.406802,47.270544],[-122.406824,47.270414],[-122.40679,47.270373],[-122.40654,47.270362],[-122.406537,47.270311],[-122.406499,47.270279],[-122.406276,47.270271],[-122.406261,47.270189],[-122.406368,47.270175],[-122.406408,47.270138],[-122.40641,47.270045],[-122.40637,47.270008],[-122.406219,47.270001],[-122.406165,47.27002],[-122.406145,47.27018],[-122.405881,47.270179],[-122.405883,47.269999],[-122.405918,47.269946],[-122.405867,47.269839],[-122.405753,47.269818],[-122.405754,47.269729],[-122.405863,47.269713],[-122.405887,47.269639],[-122.406236,47.26965],[-122.40628,47.269616],[-122.406284,47.269551],[-122.406681,47.269553],[-122.406686,47.26961],[-122.406736,47.269641],[-122.407076,47.269645],[-122.407089,47.269711],[-122.407208,47.269736],[-122.407242,47.269817],[-122.407471,47.269827],[-122.407476,47.269884],[-122.407526,47.269915],[-122.407734,47.269919],[-122.407747,47.269985],[-122.407866,47.270009],[-122.407871,47.270066],[-122.407914,47.270096],[-122.408129,47.270101],[-122.408151,47.270175],[-122.40826,47.270191],[-122.408275,47.270442],[-122.408329,47.270461],[-122.408522,47.270463]],[[-122.407519,47.270278],[-122.407597,47.270235],[-122.407592,47.270037],[-122.407545,47.27001],[-122.407469,47.270007],[-122.407466,47.269956],[-122.407428,47.269924],[-122.407248,47.269923],[-122.407207,47.269959],[-122.407206,47.270053],[-122.407246,47.27009],[-122.407336,47.270097],[-122.407344,47.270248],[-122.407398,47.270276],[-122.407519,47.270278]]]}},{"type":"Feature","properties":{"id":19,"area_m2":10300,"px":103,"rank":4},"geometry":{"type":"Polygon","coordinates":[[[-122.418023,47.272041],[-122.418019,47.272401],[-122.41791,47.272416],[-122.417886,47.27249],[-122.417767,47.272514],[-122.417753,47.27258],[-122.417488,47.272578],[-122.417483,47.272522],[-122.417433,47.27249],[-122.417093,47.272486],[-122.417075,47.272416],[-122.416962,47.272396],[-122.416949,47.27233],[-122.41683,47.272305],[-122.416827,47.272253],[-122.416789,47.272221],[-122.416637,47.27219],[-122.416567,47.272214],[-122.416435,47.272213],[-122.416412,47.272139],[-122.416304,47.272122],[-122.416304,47.272032],[-122.41634,47.27199],[-122.416305,47.271942],[-122.416307,47.271762],[-122.416417,47.271747],[-122.416441,47.271673],[-122.416538,47.271664],[-122.416574,47.271584],[-122.416688,47.271565],[-122.416707,47.271495],[-122.416929,47.271489],[-122.416968,47.271458],[-122.416972,47.271406],[-122.417237,47.271407],[-122.417259,47.271481],[-122.417368,47.271498],[-122.417402,47.271579],[-122.417499,47.271589],[-122.417515,47.271749],[-122.417629,47.271769],[-122.417664,47.27185],[-122.41776,47.27186],[-122.417789,47.271938],[-122.417892,47.27195],[-122.41792,47.272028],[-122.418023,47.272041]]]}},{"type":"Feature","properties":{"id":14,"area_m2":8600,"px":86,"rank":5},"geometry":{"type":"Polygon","coordinates":[[[-122.412988,47.273005],[-122.412987,47.273095],[-122.41289,47.273104],[-122.412854,47.273184],[-122.412778,47.273186],[-122.412731,47.273212],[-122.41272,47.273364],[-122.412456,47.273362],[-122.412433,47.273288],[-122.412325,47.273272],[-122.412317,47.27312],[-122.41227,47.273094],[-122.412194,47.273091],[-122.412166,47.273013],[-122.411931,47.273],[-122.411918,47.272934],[-122.4118,47.272909],[-122.411765,47.272828],[-122.411536,47.272818],[-122.411502,47.272737],[-122.411335,47.272714],[-122.411278,47.272746],[-122.411272,47.272816],[-122.411196,47.272818],[-122.411149,47.272844],[-122.411141,47.272957],[-122.411201,47.272995],[-122.411402,47.272997],[-122.411424,47.273071],[-122.411533,47.273088],[-122.411532,47.273178],[-122.41131,47.273183],[-122.411271,47.273215],[-122.411267,47.273266],[-122.411003,47.273265],[-122.41098,47.273191],[-122.410871,47.273174],[-122.410876,47.273015],[-122.410741,47.272994],[-122.410719,47.272919],[-122.41061,47.272903],[-122.410612,47.272723],[-122.410945,47.272724],[-122.410999,47.272697],[-122.411009,47.272635],[-122.411245,47.272624],[-122.411274,47.272588],[-122.411276,47.272457],[-122.411359,47.272453],[-122.411405,47.272419],[-122.411411,47.272187],[-122.411675,47.272189],[-122.411688,47.272255],[-122.411807,47.272279],[-122.411835,47.272357],[-122.41207,47.272371],[-122.412092,47.272445],[-122.412201,47.272461],[-122.412214,47.272527],[-122.412332,47.272552],[-122.412361,47.27263],[-122.412464,47.272643],[-122.412468,47.272789],[-122.412511,47.272819],[-122.412594,47.272823],[-122.412621,47.272914],[-122.412857,47.272915],[-122.41288,47.272989],[-122.412988,47.273005]]]}},{"type":"Feature","properties":{"id":25,"area_m2":7300,"px":73,"rank":6},"geometry":{"type":"Polygon","coordinates":[[[-122.416848,47.270685],[-122.416844,47.271045],[-122.416448,47.271043],[-122.416425,47.270969],[-122.416316,47.270953],[-122.416282,47.270872],[-122.416185,47.270862],[-122.416164,47.270698],[-122.415923,47.270681],[-122.4159,47.270606],[-122.415792,47.27059],[-122.415771,47.270336],[-122.41553,47.270319],[-122.415508,47.270244],[-122.415399,47.270228],[-122.415364,47.270147],[-122.415268,47.270137],[-122.415263,47.269991],[-122.415221,47.269961],[-122.415137,47.269957],[-122.415109,47.269879],[-122.414874,47.269865],[-122.414875,47.269776],[-122.414958,47.269772],[-122.415004,47.269738],[-122.415009,47.269596],[-122.415118,47.269581],[-122.415142,47.269507],[-122.415274,47.269508],[-122.415297,47.269582],[-122.415406,47.269598],[-122.415427,47.269762],[-122.415536,47.269779],[-122.415558,47.269853],[-122.415667,47.26987],[-122.41569,47.269944],[-122.415798,47.26996],[-122.415821,47.270034],[-122.415929,47.270051],[-122.415952,47.270125],[-122.416061,47.270142],[-122.416078,47.270212],[-122.416192,47.270232],[-122.416226,47.270313],[-122.416323,47.270323],[-122.416351,47.270401],[-122.416454,47.270413],[-122.416483,47.270491],[-122.416586,47.270504],[-122.416614,47.270582],[-122.416717,47.270595],[-122.416745,47.270673],[-122.416848,47.270685]]]}},{"type":"Feature","properties":{"id":15,"area_m2":3000,"px":30,"rank":7},"geometry":{"type":"Polygon","coordinates":[[[-122.416292,47.273112],[-122.416291,47.273202],[-122.416083,47.273203],[-122.416033,47.273234],[-122.416026,47.273291],[-122.415896,47.27329],[-122.415894,47.273154],[-122.415854,47.273116],[-122.415686,47.273098],[-122.415637,47.273129],[-122.41563,47.273199],[-122.4155,47.273198],[-122.415476,47.273124],[-122.415367,47.273107],[-122.415368,47.273017],[-122.415404,47.27297],[-122.415366,47.272876],[-122.415321,47.272841],[-122.415238,47.272835],[-122.41524,47.272657],[-122.415316,47.272655],[-122.415363,47.272629],[-122.415374,47.272478],[-122.415638,47.272479],[-122.41564,47.272621],[-122.415685,47.272655],[-122.415769,47.27266],[-122.41578,47.272816],[-122.415838,47.27284],[-122.416031,47.272841],[-122.416043,47.272997],[-122.416161,47.273021],[-122.416196,47.273102],[-122.416292,47.273112]]]}},{"type":"Feature","properties":{"id":10,"area_m2":1900,"px":19,"rank":8},"geometry":{"type":"Polygon","coordinates":[[[-122.411526,47.273718],[-122.411525,47.273808],[-122.411442,47.273811],[-122.411396,47.273845],[-122.411391,47.273987],[-122.411127,47.273985],[-122.411104,47.273911],[-122.410996,47.273895],[-122.410983,47.273829],[-122.410864,47.273804],[-122.410836,47.273726],[-122.410733,47.273713],[-122.410731,47.273572],[-122.410686,47.273537],[-122.410603,47.273533],[-122.410604,47.273443],[-122.410736,47.273444],[-122.410745,47.273505],[-122.410799,47.273533],[-122.411132,47.273536],[-122.411166,47.273617],[-122.411395,47.273627],[-122.411417,47.273701],[-122.411526,47.273718]]]}},{"type":"Feature","properties":{"id":17,"area_m2":1800,"px":18,"rank":9},"geometry":{"type":"Polygon","coordinates":[[[-122.41828,47.272672],[-122.418278,47.272852],[-122.418169,47.272867],[-122.418145,47.272941],[-122.418048,47.27295],[-122.418012,47.273031],[-122.417898,47.27305],[-122.417879,47.27312],[-122.417482,47.273118],[-122.417484,47.272938],[-122.417593,47.272923],[-122.417618,47.272849],[-122.417715,47.27284],[-122.417751,47.27276],[-122.417865,47.27274],[-122.417884,47.27267],[-122.41828,47.272672]]]}},{"type":"Feature","properties":{"id":11,"area_m2":1300,"px":13,"rank":10},"geometry":{"type":"Polygon","coordinates":[[[-122.417481,47.273208],[-122.41748,47.273298],[-122.417371,47.273313],[-122.417347,47.273387],[-122.41725,47.273396],[-122.417214,47.273477],[-122.4171,47.273496],[-122.417081,47.273566],[-122.416684,47.273564],[-122.416685,47.273474],[-122.416794,47.273459],[-122.416818,47.273385],[-122.416922,47.273373],[-122.416952,47.273295],[-122.417049,47.273287],[-122.417085,47.273206],[-122.417199,47.273187],[-122.417218,47.273117],[-122.41735,47.273118],[-122.417373,47.273192],[-122.417481,47.273208]]]}},{"type":"Feature","properties":{"id":21,"area_m2":1100,"px":11,"rank":11},"geometry":{"type":"Polygon","coordinates":[[[-122.407455,47.271267],[-122.407453,47.271447],[-122.407321,47.271446],[-122.407259,47.271422],[-122.407189,47.271446],[-122.406792,47.271444],[-122.406793,47.271354],[-122.406876,47.27135],[-122.406922,47.271316],[-122.406927,47.271174],[-122.407324,47.271176],[-122.407346,47.271251],[-122.407455,47.271267]]]}},{"type":"Feature","properties":{"id":18,"area_m2":900,"px":9,"rank":12},"geometry":{"type":"Polygon","coordinates":[[[-122.410483,47.272453],[-122.41048,47.272722],[-122.410215,47.272721],[-122.410208,47.27257],[-122.410161,47.272543],[-122.410085,47.27254],[-122.410087,47.272361],[-122.410351,47.272362],[-122.410374,47.272436],[-122.410483,47.272453]]]}},{"type":"Feature","properties":{"id":2,"area_m2":700,"px":7,"rank":13},"geometry":{"type":"Polygon","coordinates":[[[-122.415201,47.276166],[-122.4152,47.276256],[-122.415091,47.276271],[-122.415067,47.276345],[-122.414948,47.276369],[-122.414934,47.276434],[-122.414802,47.276434],[-122.414779,47.27636],[-122.41467,47.276343],[-122.414671,47.276253],[-122.414781,47.276238],[-122.414805,47.276164],[-122.415201,47.276166]]]}},{"type":"Feature","properties":{"id":12,"area_m2":600,"px":6,"rank":14},"geometry":{"type":"Polygon","coordinates":[[[-122.411927,47.27336],[-122.411925,47.27354],[-122.411793,47.273539],[-122.41178,47.273473],[-122.411662,47.273448],[-122.411627,47.273367],[-122.411398,47.273357],[-122.411399,47.273267],[-122.411796,47.273269],[-122.411818,47.273343],[-122.411927,47.27336]]]}},{"type":"Feature","properties":{"id":13,"area_m2":600,"px":6,"rank":15},"geometry":{"type":"Polygon","coordinates":[[[-122.410471,47.273264],[-122.410438,47.27331],[-122.410473,47.273352],[-122.410472,47.273442],[-122.410207,47.273441],[-122.410205,47.273299],[-122.41016,47.273265],[-122.410077,47.27326],[-122.410078,47.27317],[-122.410475,47.273172],[-122.410471,47.273264]]]}},{"type":"Feature","properties":{"id":16,"area_m2":600,"px":6,"rank":16},"geometry":{"type":"Polygon","coordinates":[[[-122.410344,47.272992],[-122.410343,47.273082],[-122.410011,47.273081],[-122.409956,47.273108],[-122.409946,47.27317],[-122.409814,47.273169],[-122.409816,47.272989],[-122.410038,47.272984],[-122.410077,47.272952],[-122.410081,47.2729],[-122.410213,47.272901],[-122.410236,47.272975],[-122.410344,47.272992]]]}},{"type":"Feature","properties":{"id":1,"area_m2":500,"px":5,"rank":17},"geometry":{"type":"Polygon","coordinates":[[[-122.414796,47.276974],[-122.414795,47.277064],[-122.41453,47.277062],[-122.414508,47.276988],[-122.414399,47.276972],[-122.4144,47.276882],[-122.414509,47.276866],[-122.414533,47.276793],[-122.414665,47.276793],[-122.414673,47.276945],[-122.41472,47.276971],[-122.414796,47.276974]]]}},{"type":"Feature","properties":{"id":22,"area_m2":500,"px":5,"rank":18},"geometry":{"type":"Polygon","coordinates":[[[-122.418825,47.271235],[-122.418824,47.271325],[-122.418694,47.271325],[-122.418689,47.271273],[-122.418651,47.271241],[-122.418429,47.271233],[-122.418427,47.271092],[-122.418381,47.271057],[-122.418298,47.271053],[-122.418299,47.270963],[-122.418431,47.270963],[-122.418454,47.271038],[-122.418563,47.271054],[-122.418575,47.27112],[-122.418694,47.271145],[-122.418722,47.271223],[-122.418825,47.271235]]]}},{"type":"Feature","properties":{"id":4,"area_m2":400,"px":4,"rank":19},"geometry":{"type":"Polygon","coordinates":[[[-122.412822,47.276064],[-122.41282,47.276244],[-122.412688,47.276243],[-122.412666,47.276169],[-122.412557,47.276152],[-122.412559,47.275973],[-122.412691,47.275973],[-122.412714,47.276047],[-122.412822,47.276064]]]}},{"type":"Feature","properties":{"id":5,"area_m2":400,"px":4,"rank":20},"geometry":{"type":"Polygon","coordinates":[[[-122.415209,47.275446],[-122.415207,47.275626],[-122.414943,47.275625],[-122.414945,47.275445],[-122.415209,47.275446]]]}},{"type":"Feature","properties":{"id":20,"area_m2":400,"px":4,"rank":21},"geometry":{"type":"Polygon","coordinates":[[[-122.406528,47.271442],[-122.406526,47.271622],[-122.406261,47.271621],[-122.406263,47.271441],[-122.406528,47.271442]]]}},{"type":"Feature","properties":{"id":6,"area_m2":300,"px":3,"rank":22},"geometry":{"type":"Polygon","coordinates":[[[-122.411647,47.274708],[-122.411645,47.274888],[-122.411513,47.274887],[-122.411491,47.274813],[-122.411382,47.274797],[-122.411383,47.274707],[-122.411647,47.274708]]]}},{"type":"Feature","properties":{"id":8,"area_m2":300,"px":3,"rank":23},"geometry":{"type":"Polygon","coordinates":[[[-122.411917,47.27426],[-122.411914,47.274529],[-122.411782,47.274529],[-122.411785,47.274259],[-122.411917,47.27426]]]}},{"type":"Feature","properties":{"id":9,"area_m2":300,"px":3,"rank":24},"geometry":{"type":"Polygon","coordinates":[[[-122.412715,47.273814],[-122.412713,47.273994],[-122.412449,47.273992],[-122.41245,47.273902],[-122.412559,47.273887],[-122.412583,47.273813],[-122.412715,47.273814]]]}},{"type":"Feature","properties":{"id":23,"area_m2":300,"px":3,"rank":25},"geometry":{"type":"Polygon","coordinates":[[[-122.406796,47.271084],[-122.406794,47.271264],[-122.40653,47.271262],[-122.406531,47.271172],[-122.40664,47.271157],[-122.406664,47.271083],[-122.406796,47.271084]]]}},{"type":"Feature","properties":{"id":24,"area_m2":300,"px":3,"rank":26},"geometry":{"type":"Polygon","coordinates":[[[-122.40627,47.270811],[-122.406267,47.271081],[-122.406135,47.27108],[-122.406138,47.27081],[-122.40627,47.270811]]]}},{"type":"Feature","properties":{"id":27,"area_m2":300,"px":3,"rank":27},"geometry":{"type":"Polygon","coordinates":[[[-122.410392,47.268673],[-122.410391,47.268763],[-122.410282,47.268778],[-122.410258,47.268852],[-122.410139,47.268875],[-122.410125,47.268941],[-122.409993,47.268941],[-122.409994,47.268851],[-122.410103,47.268835],[-122.410127,47.268761],[-122.410246,47.268738],[-122.41026,47.268672],[-122.410392,47.268673]]]}}]}