{"type":"FeatureCollection","features":[{"type":"Feature","properties":{"id":4,"area_m2":19800,"px":198,"rank":1},"geometry":{"type":"Polygon","coordinates":[[[-122.415225,47.274007],[-122.415224,47.274096],[-122.41511,47.274116],[-122.415055,47.274228],[-122.415107,47.274346],[-122.415221,47.274366],[-122.415219,47.274546],[-122.414879,47.274547],[-122.414828,47.274578],[-122.414821,47.274634],[-122.414626,47.27462],[-122.414558,47.274663],[-122.414555,47.274813],[-122.414519,47.27486],[-122.414554,47.274903],[-122.414558,47.275063],[-122.414621,47.275097],[-122.414816,47.275084],[-122.414824,47.275236],[-122.414871,47.275262],[-122.414947,47.275265],[-122.414945,47.275445],[-122.414836,47.27546],[-122.414811,47.275534],[-122.414415,47.275532],[-122.414398,47.275462],[-122.414284,47.275441],[-122.414249,47.27536],[-122.414153,47.275351],[-122.414124,47.275273],[-122.413889,47.275259],[-122.413868,47.275095],[-122.413627,47.275078],[-122.413604,47.275004],[-122.413495,47.274987],[-122.413518,47.274768],[-122.41347,47.274722],[-122.413131,47.274728],[-122.413102,47.274764],[-122.4131,47.274895],[-122.412991,47.274911],[-122.412966,47.274985],[-122.41257,47.274983],[-122.412563,47.274818],[-122.412503,47.274789],[-122.412308,47.274801],[-122.412309,47.27467],[-122.41228,47.274634],[-122.411913,47.274619],[-122.41189,47.274545],[-122.411782,47.274529],[-122.411784,47.274349],[-122.411893,47.274334],[-122.411917,47.27426],[-122.412181,47.274261],[-122.41218,47.274392],[-122.412215,47.274432],[-122.412374,47.274466],[-122.412444,47.274442],[-122.412708,47.274444],[-122.412713,47.274514],[-122.412769,47.274546],[-122.413055,47.274531],[-122.413098,47.274502],[-122.413105,47.274446],[-122.413219,47.274426],[-122.41323,47.274281],[-122.41317,47.274253],[-122.412975,47.274265],[-122.412976,47.274134],[-122.412947,47.274097],[-122.41258,47.274083],[-122.412581,47.273993],[-122.412664,47.273989],[-122.41271,47.273955],[-122.412715,47.273814],[-122.412824,47.273798],[-122.412848,47.273724],[-122.413113,47.273726],[-122.413125,47.273792],[-122.413244,47.273816],[-122.413278,47.273897],[-122.413507,47.273908],[-122.413515,47.274059],[-122.413562,47.274086],[-122.413637,47.274088],[-122.413672,47.274169],[-122.413769,47.274179],[-122.413769,47.274316],[-122.413831,47.274358],[-122.413988,47.274359],[-122.414047,47.274326],[-122.414036,47.27391],[-122.414112,47.273908],[-122.414159,47.273883],[-122.41417,47.273731],[-122.414302,47.273732],[-122.414325,47.273806],[-122.414434,47.273823],[-122.414436,47.273964],[-122.414481,47.273999],[-122.41458,47.274011],[-122.414563,47.274148],[-122.414616,47.274194],[-122.414895,47.274184],[-122.414958,47.274142],[-122.414942,47.274025],[-122.414889,47.274005],[-122.414696,47.274004],[-122.414697,47.273914],[-122.414961,47.273915],[-122.414964,47.273967],[-122.415003,47.273999],[-122.415225,47.274007]],[[-122.414479,47.274543],[-122.414557,47.2745],[-122.414558,47.274406],[-122.414531,47.274375],[-122.414243,47.274361],[-122.414181,47.274381],[-122.414162,47.274492],[-122.414191,47.274529],[-122.414479,47.274543]]]}},{"type":"Feature","properties":{"id":25,"area_m2":19800,"px":198,"rank":2},"geometry":{"type":"Polygon","coordinates":[[[-122.408656,47.270283],[-122.408654,47.270463],[-122.40855,47.270467],[-122.408502,47.270508],[-122.408519,47.270733],[-122.408318,47.270733],[-122.40826,47.270765],[-122.408251,47.271001],[-122.407987,47.271],[-122.407974,47.270934],[-122.407909,47.270909],[-122.40764,47.270912],[-122.407597,47.270941],[-122.40759,47.270998],[-122.407326,47.270996],[-122.407327,47.270907],[-122.407446,47.270883],[-122.40746,47.270776],[-122.407419,47.270733],[-122.407329,47.270726],[-122.407301,47.270649],[-122.407107,47.270642],[-122.407068,47.270673],[-122.407064,47.270725],[-122.406802,47.270724],[-122.406791,47.270662],[-122.406737,47.270634],[-122.406272,47.270631],[-122.406294,47.270502],[-122.406266,47.270464],[-122.405878,47.270449],[-122.405856,47.270285],[-122.405615,47.270268],[-122.405593,47.270193],[-122.405484,47.270177],[-122.405486,47.269997],[-122.405583,47.269988],[-122.405619,47.269908],[-122.405738,47.269884],[-122.405755,47.269639],[-122.405996,47.269624],[-122.406021,47.26946],[-122.406417,47.269462],[-122.40642,47.269514],[-122.406459,47.269546],[-122.406681,47.269553],[-122.406715,47.269634],[-122.406944,47.269645],[-122.40695,47.269701],[-122.407,47.269733],[-122.407208,47.269736],[-122.407213,47.269793],[-122.407256,47.269822],[-122.407471,47.269827],[-122.407476,47.269884],[-122.407519,47.269914],[-122.407734,47.269919],[-122.407724,47.270164],[-122.407783,47.270189],[-122.408128,47.270191],[-122.408128,47.270327],[-122.408168,47.270365],[-122.408329,47.270384],[-122.408385,47.270352],[-122.408392,47.270282],[-122.408656,47.270283]],[[-122.407598,47.270096],[-122.407546,47.270074],[-122.407487,47.270084],[-122.407448,47.270126],[-122.407464,47.270167],[-122.407518,47.270187],[-122.407592,47.270175],[-122.40762,47.270138],[-122.407598,47.270096]]]}},{"type":"Feature","properties":{"id":6,"area_m2":18000,"px":180,"rank":3},"geometry":{"type":"Polygon","coordinates":[[[-122.419329,47.273488],[-122.419328,47.273577],[-122.419231,47.273586],[-122.419195,47.273667],[-122.419112,47.27367],[-122.419069,47.273699],[-122.41906,47.273936],[-122.418956,47.27394],[-122.418908,47.27398],[-122.418924,47.274295],[-122.418827,47.274304],[-122.418791,47.274384],[-122.418671,47.274408],[-122.418656,47.274564],[-122.418392,47.274562],[-122.418394,47.274328],[-122.418341,47.274281],[-122.418166,47.2743],[-122.418129,47.274381],[-122.417865,47.27438],[-122.417846,47.274112],[-122.417792,47.274096],[-122.417604,47.274109],[-122.417601,47.274057],[-122.417563,47.274025],[-122.41734,47.274017],[-122.417319,47.273853],[-122.417078,47.273836],[-122.417055,47.273762],[-122.416947,47.273745],[-122.416912,47.273664],[-122.416816,47.273655],[-122.416818,47.273385],[-122.417055,47.273387],[-122.417083,47.273351],[-122.417085,47.273206],[-122.417194,47.273191],[-122.417218,47.273117],[-122.41735,47.273118],[-122.41742,47.273142],[-122.417601,47.273095],[-122.417618,47.272849],[-122.417958,47.272848],[-122.418008,47.272818],[-122.418015,47.272761],[-122.418279,47.272762],[-122.418282,47.272814],[-122.418321,47.272846],[-122.418543,47.272854],[-122.418564,47.273018],[-122.418805,47.273035],[-122.41882,47.273298],[-122.418879,47.273319],[-122.419067,47.273306],[-122.419089,47.27338],[-122.419198,47.273397],[-122.419232,47.273478],[-122.419329,47.273488]],[[-122.418273,47.273663],[-122.4182,47.273638],[-122.418034,47.273673],[-122.417984,47.273779],[-122.418005,47.273824],[-122.418062,47.273841],[-122.418239,47.27383],[-122.418304,47.273715],[-122.418273,47.273663]],[[-122.418787,47.273461],[-122.418821,47.27335],[-122.418781,47.273311],[-122.41858,47.27331],[-122.418541,47.273342],[-122.418537,47.273393],[-122.418461,47.273395],[-122.418414,47.273421],[-122.418391,47.273543],[-122.418454,47.273573],[-122.418625,47.273567],[-122.418664,47.273536],[-122.418668,47.273484],[-122.418787,47.273461]]]}},{"type":"Feature","properties":{"id":19,"area_m2":11600,"px":116,"rank":4},"geometry":{"type":"Polygon","coordinates":[[[-122.418153,47.272222],[-122.418152,47.272312],[-122.417827,47.27231],[-122.417773,47.27233],[-122.417753,47.27258],[-122.417644,47.272595],[-122.417619,47.272669],[-122.4175,47.272692],[-122.417486,47.272758],[-122.41709,47.272756],[-122.417067,47.272682],[-122.416959,47.272665],[-122.41696,47.272534],[-122.416931,47.272498],[-122.416766,47.272461],[-122.416696,47.272484],[-122.416564,47.272484],[-122.416542,47.272319],[-122.416302,47.272302],[-122.416279,47.272228],[-122.41617,47.272212],[-122.416136,47.272131],[-122.416039,47.272121],[-122.416041,47.271941],[-122.41615,47.271926],[-122.416174,47.271852],[-122.416403,47.271844],[-122.41644,47.271763],[-122.41669,47.271755],[-122.416725,47.271714],[-122.416706,47.271585],[-122.416815,47.271569],[-122.416839,47.271495],[-122.416958,47.271472],[-122.416972,47.271406],[-122.417104,47.271407],[-122.417127,47.271481],[-122.417236,47.271497],[-122.417253,47.271568],[-122.417367,47.271588],[-122.417401,47.271669],[-122.417498,47.271679],[-122.417526,47.271756],[-122.417629,47.271769],[-122.417646,47.271929],[-122.417699,47.271949],[-122.417892,47.27195],[-122.417914,47.272025],[-122.418023,47.272041],[-122.418035,47.272197],[-122.418153,47.272222]]]}},{"type":"Feature","properties":{"id":24,"area_m2":7500,"px":75,"rank":5},"geometry":{"type":"Polygon","coordinates":[[[-122.416717,47.270595],[-122.416714,47.270865],[-122.416638,47.270867],[-122.416591,47.270893],[-122.41658,47.271044],[-122.416448,47.271043],[-122.416425,47.270969],[-122.416316,47.270953],[-122.416304,47.270887],[-122.416185,47.270862],[-122.416157,47.270784],[-122.416054,47.270771],[-122.416032,47.270607],[-122.415792,47.27059],[-122.415769,47.270516],[-122.41566,47.270499],[-122.415643,47.270429],[-122.415529,47.270409],[-122.415495,47.270328],[-122.415398,47.270318],[-122.41537,47.27024],[-122.415267,47.270227],[-122.415238,47.27015],[-122.415136,47.270137],[-122.415107,47.270059],[-122.415004,47.270046],[-122.414976,47.269968],[-122.414873,47.269955],[-122.414876,47.269686],[-122.414985,47.26967],[-122.415009,47.269596],[-122.415406,47.269598],[-122.415428,47.269672],[-122.415537,47.269689],[-122.41555,47.269755],[-122.415668,47.26978],[-122.415696,47.269857],[-122.415799,47.26987],[-122.41582,47.270048],[-122.415874,47.270064],[-122.416062,47.270052],[-122.416084,47.270126],[-122.416193,47.270142],[-122.416189,47.270538],[-122.416211,47.270576],[-122.416267,47.270592],[-122.416717,47.270595]]]}},{"type":"Feature","properties":{"id":3,"area_m2":6000,"px":60,"rank":6},"geometry":{"type":"Polygon","coordinates":[[[-122.415071,47.275985],[-122.415066,47.276435],[-122.414934,47.276434],[-122.414899,47.276353],[-122.41467,47.276343],[-122.414648,47.276269],[-122.414539,47.276253],[-122.41454,47.276121],[-122.414512,47.276085],[-122.414277,47.276071],[-122.414254,47.275997],[-122.414146,47.275981],[-122.414147,47.275849],[-122.414118,47.275813],[-122.413894,47.27581],[-122.413883,47.275663],[-122.413843,47.275625],[-122.413656,47.275621],[-122.4136,47.275674],[-122.413636,47.275868],[-122.413689,47.275888],[-122.413882,47.275889],[-122.413879,47.276159],[-122.413483,47.276157],[-122.413461,47.275993],[-122.41322,47.275976],[-122.413198,47.275902],[-122.413089,47.275885],[-122.413091,47.275705],[-122.4132,47.27569],[-122.413224,47.275616],[-122.413465,47.275601],[-122.413491,47.275437],[-122.4136,47.275422],[-122.413624,47.275348],[-122.413888,47.275349],[-122.413889,47.275581],[-122.413934,47.275615],[-122.414017,47.27562],[-122.414045,47.275698],[-122.414545,47.275713],[-122.41455,47.275859],[-122.414592,47.275889],[-122.414675,47.275893],[-122.414703,47.275971],[-122.415071,47.275985]]]}},{"type":"Feature","properties":{"id":16,"area_m2":5300,"px":53,"rank":7},"geometry":{"type":"Polygon","coordinates":[[[-122.411929,47.27318],[-122.411928,47.27327],[-122.411699,47.273278],[-122.411662,47.273358],[-122.411543,47.273382],[-122.411529,47.273448],[-122.411397,47.273447],[-122.411392,47.27339],[-122.411342,47.273359],[-122.411134,47.273356],[-122.411111,47.273281],[-122.411003,47.273265],[-122.410991,47.273109],[-122.410872,47.273084],[-122.410861,47.272928],[-122.410742,47.272904],[-122.410737,47.272847],[-122.410694,47.272818],[-122.410479,47.272812],[-122.410492,47.272662],[-122.410445,47.272635],[-122.410348,47.272632],[-122.410314,47.272551],[-122.410217,47.272541],[-122.410218,47.272451],[-122.410879,47.272455],[-122.410902,47.272529],[-122.41101,47.272545],[-122.410989,47.272669],[-122.411011,47.272709],[-122.411059,47.272725],[-122.411405,47.272727],[-122.411421,47.272887],[-122.411475,47.272907],[-122.411667,47.272909],[-122.411679,47.273064],[-122.411798,47.273089],[-122.411832,47.27317],[-122.411929,47.27318]]]}},{"type":"Feature","properties":{"id":23,"area_m2":4700,"px":47,"rank":8},"geometry":{"type":"Polygon","coordinates":[[[-122.416314,47.271133],[-122.416313,47.271222],[-122.416049,47.271221],[-122.416036,47.271155],[-122.415918,47.27113],[-122.415912,47.271074],[-122.415862,47.271043],[-122.415695,47.271033],[-122.415657,47.271064],[-122.415653,47.271129],[-122.415391,47.271128],[-122.415386,47.271076],[-122.415348,47.271044],[-122.415126,47.271036],[-122.415118,47.270885],[-122.415071,47.270859],[-122.414995,47.270856],[-122.414961,47.270775],[-122.414864,47.270765],[-122.414836,47.270687],[-122.414733,47.270675],[-122.414717,47.270514],[-122.414663,47.270495],[-122.414471,47.270493],[-122.414472,47.270403],[-122.414804,47.270404],[-122.414869,47.270351],[-122.414857,47.270159],[-122.414799,47.270135],[-122.414607,47.270134],[-122.414584,47.27006],[-122.414476,47.270043],[-122.414477,47.269953],[-122.414741,47.269955],[-122.414763,47.270029],[-122.414872,47.270045],[-122.414885,47.270111],[-122.415003,47.270136],[-122.415031,47.270214],[-122.415134,47.270227],[-122.415156,47.270391],[-122.415397,47.270408],[-122.415419,47.270482],[-122.415528,47.270499],[-122.415562,47.27058],[-122.415659,47.270589],[-122.41568,47.270844],[-122.416053,47.270861],[-122.416075,47.270936],[-122.416184,47.270952],[-122.416196,47.271108],[-122.416314,47.271133]],[[-122.415177,47.270763],[-122.415331,47.27078],[-122.415384,47.270753],[-122.415388,47.270621],[-122.415331,47.270589],[-122.415158,47.270591],[-122.41511,47.270637],[-122.415135,47.270733],[-122.415177,47.270763]]]}},{"type":"Feature","properties":{"id":17,"area_m2":4300,"px":43,"rank":9},"geometry":{"type":"Polygon","coordinates":[[[-122.412988,47.273005],[-122.412986,47.273185],[-122.41259,47.273183],[-122.412584,47.273126],[-122.412535,47.273095],[-122.412194,47.273091],[-122.412183,47.272935],[-122.412125,47.272911],[-122.411932,47.27291],[-122.411933,47.27282],[-122.411969,47.272772],[-122.411925,47.272668],[-122.411871,47.272641],[-122.411671,47.272638],[-122.411669,47.272497],[-122.411623,47.272462],[-122.41154,47.272458],[-122.411541,47.272368],[-122.41165,47.272353],[-122.411674,47.272279],[-122.411939,47.27228],[-122.411961,47.272354],[-122.41207,47.272371],[-122.412092,47.272445],[-122.412201,47.272461],[-122.412218,47.272532],[-122.412332,47.272552],[-122.412367,47.272633],[-122.412464,47.272643],[-122.412492,47.27272],[-122.412595,47.272733],[-122.412623,47.272811],[-122.412726,47.272824],[-122.412754,47.272902],[-122.412857,47.272915],[-122.412885,47.272992],[-122.412988,47.273005]]]}},{"type":"Feature","properties":{"id":30,"area_m2":3300,"px":33,"rank":10},"geometry":{"type":"Polygon","coordinates":[[[-122.414095,47.268602],[-122.414094,47.268692],[-122.413871,47.268697],[-122.413832,47.268729],[-122.413828,47.26878],[-122.413745,47.268784],[-122.413699,47.268818],[-122.4137,47.269016],[-122.413757,47.269049],[-122.413957,47.269051],[-122.413956,47.26923],[-122.413846,47.269246],[-122.413822,47.26932],[-122.413726,47.269322],[-122.413678,47.269349],[-122.413702,47.269476],[-122.41382,47.269501],[-122.413819,47.26959],[-122.413687,47.269589],[-122.413684,47.269538],[-122.413646,47.269506],[-122.413424,47.269498],[-122.413416,47.269347],[-122.41337,47.26932],[-122.413294,47.269317],[-122.413259,47.269236],[-122.413163,47.269227],[-122.413164,47.269137],[-122.413247,47.269133],[-122.413293,47.269099],[-122.413299,47.268868],[-122.413402,47.268856],[-122.413432,47.268778],[-122.413529,47.26877],[-122.413565,47.268689],[-122.413641,47.268687],[-122.413688,47.268661],[-122.413699,47.26851],[-122.413831,47.26851],[-122.413837,47.268567],[-122.413887,47.268598],[-122.414095,47.268602]]]}},{"type":"Feature","properties":{"id":13,"area_m2":3000,"px":30,"rank":11},"geometry":{"type":"Polygon","coordinates":[[[-122.410739,47.273174],[-122.410735,47.273533],[-122.410338,47.273531],[-122.410325,47.273178],[-122.410266,47.273157],[-122.409814,47.273169],[-122.409811,47.273117],[-122.409773,47.273085],[-122.40955,47.273077],[-122.409552,47.272898],[-122.409661,47.272882],[-122.409687,47.272808],[-122.40995,47.27281],[-122.409955,47.27288],[-122.41001,47.272912],[-122.410345,47.272902],[-122.410368,47.272976],[-122.410477,47.272992],[-122.410498,47.273157],[-122.410739,47.273174]]]}},{"type":"Feature","properties":{"id":7,"area_m2":1900,"px":19,"rank":12},"geometry":{"type":"Polygon","coordinates":[[[-122.411657,47.273808],[-122.411654,47.274078],[-122.411522,47.274077],[-122.411517,47.274007],[-122.411469,47.273976],[-122.411127,47.273985],[-122.41111,47.273825],[-122.411057,47.273805],[-122.410864,47.273804],[-122.410842,47.27373],[-122.410733,47.273713],[-122.410734,47.273624],[-122.410843,47.273608],[-122.410867,47.273534],[-122.411132,47.273536],[-122.411144,47.273602],[-122.411263,47.273626],[-122.411291,47.273704],[-122.411526,47.273718],[-122.411549,47.273792],[-122.411657,47.273808]]]}},{"type":"Feature","properties":{"id":18,"area_m2":1800,"px":18,"rank":13},"geometry":{"type":"Polygon","coordinates":[[[-122.4159,47.27275],[-122.415899,47.27284],[-122.415767,47.272839],[-122.415705,47.272815],[-122.415634,47.272839],[-122.415238,47.272837],[-122.415215,47.272762],[-122.415107,47.272746],[-122.41511,47.272476],[-122.415638,47.272479],[-122.415661,47.272553],[-122.41577,47.27257],[-122.415781,47.272726],[-122.4159,47.27275]]]}},{"type":"Feature","properties":{"id":1,"area_m2":1500,"px":15,"rank":14},"geometry":{"type":"Polygon","coordinates":[[[-122.414933,47.276525],[-122.41493,47.276794],[-122.414533,47.276792],[-122.414511,47.276718],[-122.414402,47.276702],[-122.414389,47.276636],[-122.414271,47.276611],[-122.414243,47.276533],[-122.41414,47.27652],[-122.414141,47.276431],[-122.414537,47.276433],[-122.414543,47.276489],[-122.414593,47.27652],[-122.414933,47.276525]]]}},{"type":"Feature","properties":{"id":22,"area_m2":1200,"px":12,"rank":15},"geometry":{"type":"Polygon","coordinates":[[[-122.406265,47.271261],[-122.406263,47.271441],[-122.405999,47.271439],[-122.405996,47.271388],[-122.405958,47.271356],[-122.405736,47.271348],[-122.405728,47.271197],[-122.405681,47.27117],[-122.405605,47.271167],[-122.405571,47.271086],[-122.405474,47.271077],[-122.405475,47.270987],[-122.405607,47.270988],[-122.405613,47.271044],[-122.405663,47.271075],[-122.405871,47.271079],[-122.405876,47.271136],[-122.405919,47.271165],[-122.406134,47.27117],[-122.406156,47.271245],[-122.406265,47.271261]]]}},{"type":"Feature","properties":{"id":20,"area_m2":1000,"px":10,"rank":16},"geometry":{"type":"Polygon","coordinates":[[[-122.407316,47.271896],[-122.407314,47.272076],[-122.407182,47.272075],[-122.407164,47.272005],[-122.40705,47.271985],[-122.407016,47.271904],[-122.406919,47.271894],[-122.406891,47.271816],[-122.406656,47.271803],[-122.40665,47.271746],[-122.4066,47.271715],[-122.406393,47.271711],[-122.406394,47.271622],[-122.406503,47.271606],[-122.406527,47.271532],[-122.406659,47.271533],[-122.406676,47.271603],[-122.40679,47.271624],[-122.406824,47.271705],[-122.406921,47.271714],[-122.406949,47.271792],[-122.407052,47.271805],[-122.407081,47.271883],[-122.407316,47.271896]]]}},{"type":"Feature","properties":{"id":11,"area_m2":900,"px":9,"rank":17},"geometry":{"type":"Polygon","coordinates":[[[-122.412189,47.273541],[-122.412186,47.273811],[-122.412054,47.27381],[-122.412032,47.273736],[-122.411923,47.27372],[-122.41191,47.273654],[-122.411792,47.273629],[-122.411764,47.273551],[-122.411661,47.273538],[-122.411662,47.273448],[-122.412058,47.27345],[-122.41208,47.273525],[-122.412189,47.273541]]]}},{"type":"Feature","properties":{"id":29,"area_m2":800,"px":8,"rank":18},"geometry":{"type":"Polygon","coordinates":[[[-122.413816,47.26986],[-122.413815,47.26995],[-122.413706,47.269965],[-122.413682,47.270039],[-122.413552,47.270039],[-122.413529,47.269874],[-122.413288,47.269857],[-122.413289,47.269767],[-122.413372,47.269764],[-122.413418,47.26973],[-122.413423,47.269588],[-122.413555,47.269589],[-122.413567,47.269745],[-122.413685,47.269769],[-122.41372,47.26985],[-122.413816,47.26986]]]}},{"type":"Feature","properties":{"id":5,"area_m2":600,"px":6,"rank":19},"geometry":{"type":"Polygon","coordinates":[[[-122.413492,47.275257],[-122.413491,47.275347],[-122.413227,47.275346],[-122.413219,47.275195],[-122.413173,47.275168],[-122.413097,47.275164],[-122.413098,47.275075],[-122.413207,47.27506],[-122.413231,47.274986],[-122.413363,47.274987],[-122.413364,47.275218],[-122.413409,47.275253],[-122.413492,47.275257]]]}},{"type":"Feature","properties":{"id":12,"area_m2":500,"px":5,"rank":20},"geometry":{"type":"Polygon","coordinates":[[[-122.410073,47.27362],[-122.410071,47.2738],[-122.409807,47.273799],[-122.409805,47.273657],[-122.40976,47.273623],[-122.409676,47.273618],[-122.409677,47.273528],[-122.409809,47.273529],[-122.409815,47.273585],[-122.409865,47.273617],[-122.410073,47.27362]]]}},{"type":"Feature","properties":{"id":26,"area_m2":500,"px":5,"rank":21},"geometry":{"type":"Polygon","coordinates":[[[-122.414732,47.270765],[-122.414731,47.270854],[-122.414467,47.270853],[-122.414444,47.270779],[-122.414335,47.270762],[-122.414337,47.270583],[-122.414469,47.270583],[-122.414492,47.270658],[-122.414601,47.270674],[-122.414635,47.270755],[-122.414732,47.270765]]]}},{"type":"Feature","properties":{"id":8,"area_m2":400,"px":4,"rank":22},"geometry":{"type":"Polygon","coordinates":[[[-122.40954,47.273977],[-122.409539,47.274067],[-122.409275,47.274066],[-122.409252,47.273992],[-122.409144,47.273975],[-122.409146,47.273795],[-122.409278,47.273796],[-122.409277,47.273927],[-122.409311,47.273967],[-122.40954,47.273977]]]}},{"type":"Feature","properties":{"id":21,"area_m2":400,"px":4,"rank":23},"geometry":{"type":"Polygon","coordinates":[[[-122.411153,47.271556],[-122.411152,47.271646],[-122.411022,47.271645],[-122.411018,47.271594],[-122.410979,47.271562],[-122.410757,47.271554],[-122.410759,47.271374],[-122.410891,47.271375],[-122.410914,47.271449],[-122.411022,47.271465],[-122.411057,47.271546],[-122.411153,47.271556]]]}},{"type":"Feature","properties":{"id":28,"area_m2":400,"px":4,"rank":24},"geometry":{"type":"Polygon","coordinates":[[[-122.414474,47.270133],[-122.414472,47.270313],[-122.414208,47.270312],[-122.41421,47.270132],[-122.414474,47.270133]]]}},{"type":"Feature","properties":{"id":2,"area_m2":300,"px":3,"rank":25},"geometry":{"type":"Polygon","coordinates":[[[-122.413873,47.276699],[-122.413872,47.276789],[-122.413608,47.276788],[-122.41361,47.276608],[-122.413742,47.276608],[-122.413764,47.276683],[-122.413873,47.276699]]]}},{"type":"Feature","properties":{"id":9,"area_m2":300,"px":3,"rank":26},"geometry":{"type":"Polygon","coordinates":[[[-122.410467,47.273892],[-122.410466,47.273982],[-122.410201,47.273981],[-122.410203,47.273801],[-122.410335,47.273802],[-122.410358,47.273876],[-122.410467,47.273892]]]}},{"type":"Feature","properties":{"id":10,"area_m2":300,"px":3,"rank":27},"geometry":{"type":"Polygon","coordinates":[[[-122.414039,47.273641],[-122.414038,47.27373],[-122.413929,47.273746],[-122.413905,47.27382],[-122.413786,47.273843],[-122.413772,47.273909],[-122.41364,47.273908],[-122.413641,47.273818],[-122.41375,47.273803],[-122.413774,47.273729],[-122.413893,47.273706],[-122.413907,47.27364],[-122.414039,47.273641]]]}},{"type":"Feature","properties":{"id":14,"area_m2":300,"px":3,"rank":28},"geometry":{"type":"Polygon","coordinates":[[[-122.414043,47.273281],[-122.414041,47.27346],[-122.413777,47.273459],[-122.413778,47.273369],[-122.413887,47.273354],[-122.413911,47.27328],[-122.414043,47.273281]]]}},{"type":"Feature","properties":{"id":15,"area_m2":300,"px":3,"rank":29},"geometry":{"type":"Polygon","coordinates":[[[-122.413514,47.273278],[-122.413512,47.273458],[-122.41338,47.273457],[-122.413358,47.273383],[-122.413249,47.273366],[-122.41325,47.273277],[-122.413514,47.273278]]]}},{"type":"Feature","properties":{"id":27,"area_m2":300,"px":3,"rank":30},"geometry":{"type":"Polygon","coordinates":[[[-122.405611,47.270628],[-122.40561,47.270718],[-122.405346,47.270716],[-122.405348,47.270536],[-122.40548,47.270537],[-122.405503,47.270611],[-122.405611,47.270628]]]}}]}