{"type":"FeatureCollection","features":[{"type":"Feature","properties":{"id":2,"area_m2":1941500,"px":19415,"rank":1,"persistent":true},"geometry":{"type":"Polygon","coordinates":[[[-122.423682,47.261993],[-122.423649,47.262039],[-122.423684,47.262083],[-122.423671,47.26325],[-122.423635,47.263293],[-122.42367,47.263343],[-122.42363,47.267029],[-122.423519,47.267036],[-122.423477,47.267085],[-122.423514,47.26719],[-122.423628,47.26721],[-122.423622,47.26775],[-122.42349,47.267749],[-122.423468,47.267675],[-122.423359,47.267659],[-122.423355,47.267422],[-122.423313,47.267393],[-122.42323,47.267388],[-122.423225,47.267242],[-122.423183,47.267212],[-122.4231,47.267208],[-122.423094,47.267151],[-122.423051,47.267122],[-122.422898,47.267093],[-122.422836,47.267116],[-122.422607,47.267124],[-122.422571,47.267205],[-122.422487,47.267209],[-122.422444,47.267238],[-122.422436,47.26742],[-122.422471,47.267465],[-122.422568,47.267475],[-122.422596,47.267553],[-122.422699,47.267566],[-122.422733,47.267647],[-122.422892,47.267681],[-122.422962,47.267657],[-122.423094,47.267658],[-122.423117,47.267732],[-122.423226,47.267748],[-122.42326,47.267829],[-122.423357,47.267839],[-122.423355,47.268019],[-122.423236,47.268042],[-122.423222,47.268149],[-122.423263,47.268192],[-122.423353,47.268199],[-122.423369,47.268359],[-122.423483,47.268379],[-122.423518,47.26846],[-122.423614,47.26847],[-122.423604,47.26946],[-122.423472,47.269459],[-122.423449,47.269385],[-122.42334,47.269368],[-122.423329,47.269212],[-122.42321,47.269188],[-122.423176,47.269107],[-122.423079,47.269097],[-122.423071,47.268946],[-122.423025,47.268919],[-122.422949,47.268916],[-122.422914,47.268836],[-122.422818,47.268826],[-122.422783,47.268745],[-122.422193,47.268742],[-122.422156,47.268823],[-122.422081,47.268825],[-122.422033,47.268851],[-122.422029,47.268969],[-122.422071,47.268998],[-122.422154,47.269003],[-122.422189,47.269084],[-122.422286,47.269093],[-122.422314,47.269171],[-122.422417,47.269184],[-122.422445,47.269262],[-122.422548,47.269275],[-122.422546,47.269454],[-122.422456,47.26946],[-122.422414,47.269502],[-122.422415,47.269685],[-122.42246,47.26972],[-122.422543,47.269724],[-122.422542,47.269813],[-122.422459,47.269818],[-122.422413,47.269852],[-122.422407,47.270084],[-122.422192,47.270087],[-122.422148,47.270116],[-122.422142,47.270172],[-122.421926,47.270175],[-122.421883,47.270204],[-122.421876,47.270261],[-122.421668,47.270262],[-122.421618,47.270293],[-122.421611,47.270349],[-122.421382,47.270357],[-122.421346,47.270438],[-122.421227,47.270462],[-122.421212,47.270527],[-122.421098,47.270547],[-122.421079,47.270617],[-122.420815,47.270615],[-122.420798,47.270545],[-122.420684,47.270525],[-122.420675,47.270463],[-122.420621,47.270436],[-122.420024,47.270431],[-122.420001,47.270357],[-122.419893,47.270341],[-122.419875,47.270271],[-122.419761,47.27025],[-122.419727,47.270169],[-122.41963,47.27016],[-122.419602,47.270082],[-122.419499,47.270069],[-122.419483,47.269909],[-122.419429,47.269889],[-122.419237,47.269888],[-122.419225,47.269732],[-122.419106,47.269707],[-122.419089,47.269637],[-122.418975,47.269616],[-122.418958,47.269546],[-122.418844,47.269526],[-122.418831,47.26946],[-122.418713,47.269435],[-122.41871,47.269383],[-122.418672,47.269351],[-122.418504,47.26932],[-122.418346,47.269355],[-122.418316,47.269433],[-122.418052,47.269432],[-122.418053,47.269342],[-122.41815,47.269333],[-122.418186,47.269252],[-122.4183,47.269233],[-122.418319,47.269127],[-122.418285,47.269082],[-122.418188,47.269072],[-122.41816,47.268995],[-122.418057,47.268982],[-122.418045,47.268826],[-122.417926,47.268801],[-122.417892,47.26872],[-122.417795,47.26871],[-122.417767,47.268633],[-122.417664,47.26862],[-122.417636,47.268542],[-122.417533,47.268529],[-122.417505,47.268451],[-122.417402,47.268439],[-122.417373,47.268361],[-122.41727,47.268348],[-122.417248,47.268274],[-122.417139,47.268257],[-122.417117,47.268183],[-122.417008,47.268167],[-122.416985,47.268092],[-122.416877,47.268076],[-122.416854,47.268002],[-122.416746,47.267985],[-122.416723,47.267911],[-122.416614,47.267895],[-122.416592,47.26782],[-122.416483,47.267804],[-122.416475,47.267653],[-122.416429,47.267626],[-122.416353,47.267623],[-122.416319,47.267542],[-122.416222,47.267533],[-122.416199,47.267458],[-122.415958,47.267441],[-122.415937,47.267277],[-122.415828,47.267261],[-122.415806,47.267186],[-122.415697,47.26717],[-122.415674,47.267096],[-122.415566,47.267079],[-122.415543,47.267005],[-122.415435,47.266989],[-122.415417,47.266918],[-122.415303,47.266898],[-122.415269,47.266817],[-122.415172,47.266807],[-122.415144,47.26673],[-122.415041,47.266717],[-122.415013,47.266639],[-122.41491,47.266626],[-122.414882,47.266548],[-122.414779,47.266535],[-122.41475,47.266458],[-122.414647,47.266445],[-122.414631,47.266285],[-122.414517,47.266264],[-122.414483,47.266183],[-122.414386,47.266174],[-122.414358,47.266096],[-122.414255,47.266083],[-122.414227,47.266005],[-122.414124,47.265992],[-122.414126,47.265812],[-122.414201,47.26581],[-122.414249,47.265784],[-122.414241,47.265653],[-122.414128,47.265632],[-122.414122,47.265562],[-122.414067,47.26553],[-122.413899,47.26555],[-122.413861,47.265631],[-122.413731,47.26563],[-122.413709,47.265556],[-122.4136,47.26554],[-122.413601,47.26545],[-122.413715,47.265431],[-122.41377,47.265313],[-122.413722,47.265204],[-122.413604,47.26518],[-122.413569,47.265099],[-122.413403,47.265065],[-122.413231,47.265104],[-122.413207,47.265178],[-122.41311,47.265186],[-122.413074,47.265267],[-122.412998,47.265269],[-122.412951,47.265295],[-122.41294,47.265446],[-122.412724,47.265449],[-122.412681,47.265478],[-122.412674,47.265535],[-122.412565,47.26555],[-122.41254,47.265714],[-122.412437,47.265726],[-122.412407,47.265803],[-122.41231,47.265812],[-122.412274,47.265893],[-122.41216,47.265912],[-122.412141,47.265982],[-122.412032,47.265997],[-122.411974,47.266103],[-122.412015,47.266223],[-122.412062,47.266249],[-122.412138,47.266252],[-122.412172,47.266333],[-122.412665,47.266345],[-122.412678,47.266411],[-122.412797,47.266435],[-122.412825,47.266513],[-122.41306,47.266527],[-122.413082,47.266601],[-122.413191,47.266617],[-122.413226,47.266698],[-122.413322,47.266708],[-122.413323,47.26694],[-122.413368,47.266974],[-122.413452,47.266979],[-122.413457,47.26731],[-122.413504,47.267337],[-122.41358,47.267339],[-122.413614,47.26742],[-122.413711,47.26743],[-122.413739,47.267508],[-122.413842,47.267521],[-122.41387,47.267598],[-122.413973,47.267611],[-122.414002,47.267689],[-122.414105,47.267702],[-122.414109,47.267849],[-122.414152,47.267878],[-122.414235,47.267883],[-122.414257,47.267957],[-122.414567,47.267973],[-122.414621,47.267946],[-122.414632,47.267885],[-122.414896,47.267886],[-122.414918,47.26796],[-122.415027,47.267977],[-122.415061,47.268058],[-122.415158,47.268067],[-122.41518,47.268231],[-122.415288,47.268248],[-122.415311,47.268322],[-122.41542,47.268339],[-122.415437,47.268409],[-122.415551,47.268429],[-122.415585,47.26851],[-122.415682,47.26852],[-122.41571,47.268598],[-122.415813,47.268611],[-122.415841,47.268688],[-122.415944,47.268701],[-122.415973,47.268779],[-122.416076,47.268792],[-122.416104,47.26887],[-122.416207,47.268882],[-122.416217,47.269128],[-122.416275,47.269152],[-122.416468,47.269154],[-122.416465,47.269424],[-122.41643,47.269476],[-122.416482,47.269584],[-122.416595,47.269604],[-122.416617,47.269769],[-122.416726,47.269785],[-122.416743,47.269855],[-122.416857,47.269876],[-122.41687,47.269942],[-122.416988,47.269966],[-122.417022,47.270047],[-122.417251,47.270058],[-122.417257,47.270114],[-122.417307,47.270145],[-122.41748,47.27014],[-122.417516,47.270059],[-122.417912,47.270061],[-122.417935,47.270135],[-122.418044,47.270152],[-122.41806,47.270312],[-122.418113,47.270332],[-122.418306,47.270333],[-122.418305,47.270423],[-122.418041,47.270421],[-122.418038,47.27037],[-122.418,47.270338],[-122.417821,47.270331],[-122.417758,47.270375],[-122.417782,47.270477],[-122.417824,47.270506],[-122.417907,47.270511],[-122.417942,47.270592],[-122.418039,47.270601],[-122.418067,47.270679],[-122.41817,47.270692],[-122.418204,47.270773],[-122.418433,47.270783],[-122.418449,47.271034],[-122.418563,47.271054],[-122.418568,47.271111],[-122.418618,47.271142],[-122.418756,47.271169],[-122.418826,47.271145],[-122.418958,47.271146],[-122.418958,47.271283],[-122.419005,47.271322],[-122.419172,47.271323],[-122.419215,47.271294],[-122.419222,47.271237],[-122.419352,47.271238],[-122.419376,47.271312],[-122.419485,47.271329],[-122.419483,47.271509],[-122.41938,47.27152],[-122.41935,47.271598],[-122.41926,47.271604],[-122.419218,47.271646],[-122.419229,47.271753],[-122.419348,47.271778],[-122.419346,47.271958],[-122.41911,47.271969],[-122.419081,47.272005],[-122.419083,47.272098],[-122.419129,47.272133],[-122.419212,47.272137],[-122.419221,47.272199],[-122.419282,47.272227],[-122.41944,47.272219],[-122.419476,47.272138],[-122.419608,47.272139],[-122.419615,47.272381],[-122.419662,47.272407],[-122.419738,47.27241],[-122.419772,47.272491],[-122.419869,47.2725],[-122.419897,47.272578],[-122.42,47.272591],[-122.420028,47.272669],[-122.420131,47.272682],[-122.420133,47.272823],[-122.420178,47.272858],[-122.420261,47.272862],[-122.42026,47.272952],[-122.420185,47.272954],[-122.420137,47.27298],[-122.420126,47.273131],[-122.420007,47.273155],[-122.419992,47.273311],[-122.419909,47.273315],[-122.419863,47.273349],[-122.419858,47.27349],[-122.419775,47.273494],[-122.419732,47.273523],[-122.419724,47.273669],[-122.419641,47.273673],[-122.419597,47.273702],[-122.419589,47.273939],[-122.419492,47.273947],[-122.419455,47.274028],[-122.41938,47.27403],[-122.419332,47.274056],[-122.41932,47.274297],[-122.419244,47.274299],[-122.419197,47.274325],[-122.419186,47.274476],[-122.419067,47.2745],[-122.419052,47.274656],[-122.418969,47.27466],[-122.418923,47.274693],[-122.418918,47.274835],[-122.418835,47.274839],[-122.418791,47.274868],[-122.418784,47.275014],[-122.4187,47.275018],[-122.418657,47.275047],[-122.418648,47.275284],[-122.418534,47.275303],[-122.418514,47.275463],[-122.418431,47.275467],[-122.418385,47.275501],[-122.418379,47.275732],[-122.418265,47.275751],[-122.418245,47.275911],[-122.418136,47.275927],[-122.418112,47.276001],[-122.418015,47.276009],[-122.417979,47.27609],[-122.417864,47.276109],[-122.417845,47.276179],[-122.417713,47.276179],[-122.417712,47.275947],[-122.417667,47.275913],[-122.417584,47.275908],[-122.417562,47.275834],[-122.417321,47.275817],[-122.417303,47.275746],[-122.417189,47.275726],[-122.417155,47.275645],[-122.417058,47.275635],[-122.41703,47.275558],[-122.416927,47.275545],[-122.416899,47.275467],[-122.416796,47.275454],[-122.416767,47.275376],[-122.416665,47.275364],[-122.416636,47.275286],[-122.416401,47.275272],[-122.416384,47.275202],[-122.41627,47.275182],[-122.416235,47.275101],[-122.416139,47.275091],[-122.416116,47.275017],[-122.415945,47.274976],[-122.415875,47.275],[-122.415667,47.275001],[-122.415611,47.275047],[-122.415603,47.275759],[-122.415644,47.275802],[-122.415734,47.275809],[-122.415729,47.276259],[-122.412426,47.276242],[-122.412411,47.276176],[-122.412345,47.276151],[-122.412196,47.27616],[-122.412159,47.27624],[-122.411498,47.276237],[-122.411486,47.276171],[-122.411367,47.276146],[-122.411339,47.276068],[-122.411104,47.276055],[-122.411098,47.275998],[-122.411048,47.275967],[-122.410889,47.275968],[-122.410846,47.275997],[-122.410839,47.276054],[-122.410707,47.276053],[-122.410727,47.275823],[-122.410682,47.275787],[-122.410578,47.275782],[-122.410562,47.275622],[-122.410448,47.275602],[-122.410435,47.275536],[-122.410317,47.275511],[-122.410311,47.275454],[-122.410268,47.275425],[-122.409921,47.275419],[-122.40991,47.275173],[-122.409852,47.275149],[-122.409659,47.275148],[-122.409637,47.275073],[-122.409528,47.275057],[-122.409512,47.274897],[-122.409398,47.274876],[-122.409364,47.274795],[-122.409267,47.274786],[-122.409271,47.274426],[-122.409307,47.274378],[-122.409266,47.274279],[-122.409224,47.27425],[-122.409141,47.274245],[-122.409106,47.274164],[-122.409009,47.274154],[-122.408981,47.274077],[-122.408878,47.274064],[-122.40885,47.273986],[-122.408747,47.273973],[-122.408725,47.273899],[-122.408669,47.273883],[-122.408519,47.273891],[-122.408482,47.273972],[-122.408363,47.273995],[-122.408349,47.274061],[-122.407821,47.274058],[-122.407808,47.273992],[-122.407689,47.273968],[-122.407655,47.273887],[-122.407426,47.273876],[-122.40741,47.273716],[-122.407296,47.273696],[-122.407278,47.273625],[-122.407165,47.273605],[-122.407147,47.273535],[-122.407033,47.273514],[-122.407016,47.273444],[-122.406902,47.273424],[-122.406889,47.273358],[-122.406771,47.273333],[-122.406737,47.273252],[-122.406439,47.273242],[-122.406384,47.27327],[-122.406374,47.273331],[-122.40611,47.27333],[-122.406087,47.273255],[-122.405979,47.273239],[-122.405962,47.273079],[-122.405849,47.273058],[-122.405814,47.272977],[-122.405717,47.272968],[-122.405689,47.27289],[-122.405586,47.272877],[-122.405558,47.272799],[-122.405455,47.272786],[-122.405448,47.272545],[-122.405394,47.272517],[-122.405194,47.272515],[-122.405186,47.272364],[-122.405139,47.272337],[-122.405063,47.272334],[-122.405062,47.272193],[-122.405016,47.272158],[-122.404933,47.272154],[-122.404922,47.271998],[-122.404803,47.271973],[-122.404804,47.271883],[-122.404918,47.271864],[-122.404972,47.271757],[-122.404938,47.271704],[-122.404924,47.271364],[-122.404863,47.271344],[-122.403885,47.271338],[-122.403882,47.271287],[-122.403844,47.271255],[-122.403621,47.271247],[-122.403604,47.271177],[-122.40349,47.271156],[-122.403456,47.271075],[-122.403359,47.271066],[-122.403331,47.270988],[-122.403228,47.270975],[-122.4032,47.270897],[-122.403097,47.270884],[-122.403068,47.270807],[-122.402833,47.270793],[-122.402811,47.270719],[-122.402702,47.270702],[-122.402668,47.270621],[-122.402571,47.270612],[-122.402575,47.270252],[-122.402672,47.270243],[-122.402708,47.270163],[-122.402827,47.270139],[-122.402842,47.269983],[-122.402957,47.269964],[-122.402996,47.26986],[-122.402956,47.269811],[-122.402844,47.269803],[-122.402839,47.269747],[-122.402796,47.269717],[-122.402449,47.269711],[-122.402518,47.263593],[-122.402747,47.263585],[-122.402782,47.263545],[-122.402784,47.263414],[-122.402999,47.263411],[-122.403043,47.263382],[-122.403049,47.263326],[-122.403158,47.26331],[-122.403184,47.263146],[-122.403303,47.263123],[-122.403317,47.263021],[-122.403282,47.262976],[-122.403186,47.262966],[-122.403157,47.262889],[-122.403054,47.262876],[-122.403026,47.262798],[-122.402791,47.262784],[-122.402769,47.26271],[-122.40266,47.262694],[-122.402626,47.262613],[-122.402529,47.262603],[-122.402538,47.261793],[-122.407162,47.261817],[-122.407169,47.261874],[-122.407212,47.261903],[-122.40748,47.261909],[-122.407546,47.261885],[-122.407562,47.261819],[-122.42342,47.2619],[-122.423484,47.261925],[-122.423554,47.261901],[-122.423684,47.261902],[-122.423682,47.261993]],[[-122.403397,47.269401],[-122.403365,47.26929],[-122.403247,47.269266],[-122.403244,47.269214],[-122.403206,47.269182],[-122.403047,47.269176],[-122.402993,47.269203],[-122.40297,47.269324],[-122.403017,47.269352],[-122.403114,47.269355],[-122.403117,47.269407],[-122.403155,47.269439],[-122.403356,47.269439],[-122.403397,47.269401]],[[-122.403731,47.269544],[-122.403563,47.269526],[-122.403511,47.269562],[-122.403504,47.269897],[-122.403421,47.2699],[-122.403378,47.269929],[-122.403386,47.270069],[-122.403267,47.270088],[-122.403237,47.270165],[-122.40314,47.270174],[-122.403104,47.270255],[-122.40302,47.270258],[-122.402977,47.270287],[-122.402971,47.270404],[-122.403016,47.270443],[-122.403211,47.270419],[-122.403235,47.270345],[-122.403332,47.270337],[-122.403368,47.270256],[-122.403444,47.270254],[-122.403491,47.270228],[-122.403486,47.270084],[-122.403599,47.270068],[-122.403636,47.269988],[-122.403719,47.269984],[-122.403762,47.269955],[-122.403771,47.269582],[-122.403731,47.269544]],[[-122.404082,47.265581],[-122.404165,47.265577],[-122.404208,47.265548],[-122.404192,47.265417],[-122.404136,47.265401],[-122.403854,47.265409],[-122.403818,47.265489],[-122.403699,47.265513],[-122.403685,47.265578],[-122.403571,47.265598],[-122.403552,47.265668],[-122.403437,47.265687],[-122.403418,47.265757],[-122.403304,47.265776],[-122.403285,47.265846],[-122.403171,47.265866],[-122.403165,47.266002],[-122.403215,47.266025],[-122.403415,47.266027],[-122.403477,47.266051],[-122.403645,47.266019],[-122.403681,47.265938],[-122.403784,47.265927],[-122.403814,47.265849],[-122.403911,47.265841],[-122.403947,47.26576],[-122.404066,47.265736],[-122.404082,47.265581]],[[-122.405801,47.263414],[-122.405835,47.263185],[-122.405792,47.263162],[-122.405695,47.263159],[-122.405667,47.263082],[-122.405511,47.263068],[-122.405445,47.263092],[-122.40543,47.263158],[-122.405316,47.263177],[-122.405297,47.263247],[-122.405033,47.263246],[-122.405029,47.263099],[-122.404986,47.26307],[-122.404903,47.263065],[-122.404869,47.262984],[-122.404507,47.262973],[-122.404504,47.262922],[-122.404466,47.262889],[-122.404244,47.262882],[-122.40421,47.262801],[-122.40406,47.262791],[-122.403984,47.262829],[-122.403979,47.26297],[-122.403875,47.262982],[-122.403845,47.26306],[-122.403748,47.263068],[-122.403712,47.263149],[-122.403598,47.263168],[-122.403579,47.263274],[-122.403613,47.263319],[-122.40371,47.263329],[-122.403738,47.263407],[-122.403841,47.26342],[-122.40387,47.263498],[-122.403972,47.26351],[-122.404001,47.263588],[-122.404236,47.263602],[-122.404258,47.263676],[-122.404367,47.263692],[-122.404371,47.263839],[-122.404414,47.263869],[-122.404497,47.263873],[-122.404532,47.263954],[-122.405212,47.263981],[-122.405289,47.263932],[-122.405293,47.263607],[-122.405516,47.263602],[-122.405555,47.26357],[-122.405559,47.263519],[-122.405678,47.263495],[-122.405692,47.263429],[-122.405801,47.263414]],[[-122.406145,47.263072],[-122.406222,47.263034],[-122.406217,47.262921],[-122.406163,47.262893],[-122.406004,47.262897],[-122.405963,47.262934],[-122.40597,47.263042],[-122.406024,47.26307],[-122.406145,47.263072]],[[-122.409293,47.263766],[-122.40924,47.263647],[-122.409127,47.263627],[-122.409092,47.263546],[-122.408995,47.263536],[-122.408967,47.263459],[-122.408796,47.263446],[-122.408741,47.263474],[-122.408731,47.263535],[-122.408617,47.263554],[-122.408598,47.263624],[-122.408483,47.263643],[-122.408465,47.263714],[-122.40835,47.263733],[-122.408298,47.263861],[-122.408348,47.263963],[-122.408462,47.263984],[-122.408496,47.264065],[-122.408593,47.264074],[-122.408621,47.264152],[-122.408792,47.264164],[-122.408847,47.264137],[-122.408857,47.264076],[-122.408972,47.264056],[-122.40899,47.263986],[-122.409105,47.263967],[-122.409124,47.263897],[-122.409243,47.263874],[-122.409293,47.263766]],[[-122.409065,47.27087],[-122.409041,47.270769],[-122.408991,47.270737],[-122.408839,47.270737],[-122.408786,47.270772],[-122.408785,47.270876],[-122.408837,47.270912],[-122.409031,47.270906],[-122.409065,47.27087]],[[-122.40966,47.267432],[-122.409865,47.267386],[-122.409876,47.267269],[-122.409823,47.267232],[-122.409671,47.267232],[-122.409621,47.267262],[-122.409581,47.267377],[-122.40966,47.267432]],[[-122.409828,47.271727],[-122.409775,47.271705],[-122.409716,47.271715],[-122.409677,47.271757],[-122.409693,47.271798],[-122.409747,47.271819],[-122.409821,47.271806],[-122.409849,47.271769],[-122.409828,47.271727]],[[-122.412147,47.270211],[-122.41222,47.270178],[-122.412226,47.270075],[-122.412186,47.270038],[-122.412096,47.270031],[-122.412068,47.269953],[-122.41178,47.26994],[-122.411718,47.269959],[-122.411705,47.270086],[-122.411747,47.270115],[-122.41183,47.27012],[-122.411859,47.270198],[-122.412147,47.270211]],[[-122.415206,47.263698],[-122.415138,47.263645],[-122.414839,47.263669],[-122.41481,47.26371],[-122.414825,47.263907],[-122.414879,47.263926],[-122.415043,47.263915],[-122.415073,47.263838],[-122.415149,47.263836],[-122.415196,47.26381],[-122.415206,47.263698]],[[-122.415116,47.264738],[-122.415192,47.2647],[-122.415187,47.264587],[-122.415133,47.264559],[-122.414973,47.26455],[-122.414932,47.264592],[-122.41494,47.264708],[-122.414994,47.264736],[-122.415116,47.264738]],[[-122.415897,47.262717],[-122.415873,47.262615],[-122.415823,47.262584],[-122.415671,47.262583],[-122.415618,47.262619],[-122.415617,47.262722],[-122.41567,47.262758],[-122.415864,47.262752],[-122.415897,47.262717]],[[-122.417084,47.262993],[-122.41706,47.262891],[-122.41701,47.26286],[-122.416858,47.262859],[-122.416805,47.262895],[-122.416804,47.262998],[-122.416856,47.263034],[-122.41705,47.263028],[-122.417084,47.262993]],[[-122.418172,47.263313],[-122.418248,47.263275],[-122.418239,47.263158],[-122.418121,47.263133],[-122.418118,47.263082],[-122.41808,47.263049],[-122.417935,47.263019],[-122.417876,47.263029],[-122.417821,47.263084],[-122.417869,47.263198],[-122.417987,47.263223],[-122.41799,47.263274],[-122.418028,47.263306],[-122.418172,47.263313]],[[-122.419333,47.264071],[-122.419295,47.263982],[-122.419245,47.263951],[-122.419093,47.26395],[-122.41904,47.263986],[-122.419049,47.264104],[-122.419214,47.264151],[-122.419267,47.264148],[-122.419324,47.264112],[-122.419333,47.264071]],[[-122.420971,47.268728],[-122.420898,47.268702],[-122.420835,47.268726],[-122.420613,47.268731],[-122.420572,47.268768],[-122.420579,47.268876],[-122.420763,47.26893],[-122.420924,47.2689],[-122.421002,47.26878],[-122.420971,47.268728]]]}},{"type":"Feature","properties":{"id":3,"area_m2":77300,"px":773,"rank":2,"persistent":true},"geometry":{"type":"Polygon","coordinates":[[[-122.407533,47.276127],[-122.40753,47.276217],[-122.406344,47.27621],[-122.40628,47.276186],[-122.406208,47.27621],[-122.402376,47.27619],[-122.402411,47.273041],[-122.402543,47.273041],[-122.402561,47.273112],[-122.402675,47.273132],[-122.402692,47.273202],[-122.402806,47.273223],[-122.402818,47.273289],[-122.402937,47.273313],[-122.402971,47.273394],[-122.4032,47.273405],[-122.403223,47.273479],[-122.403332,47.273495],[-122.403349,47.273566],[-122.403463,47.273586],[-122.403497,47.273667],[-122.403594,47.273677],[-122.403622,47.273754],[-122.403725,47.273767],[-122.40373,47.273914],[-122.403772,47.273943],[-122.403855,47.273948],[-122.403858,47.274],[-122.403896,47.274032],[-122.404195,47.274037],[-122.404245,47.274007],[-122.404252,47.27395],[-122.40446,47.273949],[-122.404511,47.273918],[-122.404517,47.273861],[-122.40465,47.273862],[-122.404667,47.273932],[-122.404781,47.273953],[-122.404815,47.274034],[-122.404912,47.274043],[-122.40494,47.274121],[-122.405175,47.274135],[-122.405183,47.274286],[-122.40523,47.274313],[-122.405305,47.274315],[-122.40534,47.274396],[-122.405437,47.274406],[-122.405459,47.27448],[-122.4057,47.274497],[-122.405717,47.274568],[-122.405831,47.274588],[-122.405866,47.274669],[-122.405962,47.274679],[-122.405991,47.274757],[-122.406094,47.274769],[-122.406122,47.274847],[-122.406357,47.274861],[-122.406356,47.274992],[-122.406384,47.275029],[-122.40662,47.275042],[-122.406642,47.275116],[-122.406751,47.275133],[-122.406763,47.275199],[-122.406882,47.275223],[-122.40691,47.275301],[-122.407013,47.275314],[-122.407009,47.275674],[-122.406491,47.275682],[-122.406463,47.275601],[-122.406349,47.27558],[-122.406337,47.275514],[-122.406271,47.27549],[-122.40615,47.275491],[-122.406099,47.275513],[-122.406102,47.27565],[-122.406216,47.27567],[-122.406221,47.275727],[-122.406264,47.275756],[-122.406468,47.27575],[-122.40652,47.275845],[-122.406875,47.275853],[-122.406909,47.275934],[-122.407138,47.275945],[-122.407173,47.276026],[-122.407402,47.276036],[-122.407424,47.27611],[-122.407533,47.276127]],[[-122.405788,47.275299],[-122.405842,47.275168],[-122.40579,47.27513],[-122.405604,47.275128],[-122.405543,47.275166],[-122.405565,47.275273],[-122.405615,47.275304],[-122.405788,47.275299]],[[-122.406643,47.275488],[-122.40681,47.275506],[-122.406866,47.275483],[-122.406877,47.275352],[-122.406825,47.275315],[-122.406673,47.275315],[-122.406622,47.275345],[-122.406597,47.275452],[-122.406643,47.275488]]]}},{"type":"Feature","properties":{"id":4,"area_m2":700,"px":7,"rank":3,"persistent":false},"geometry":{"type":"Polygon","coordinates":[[[-122.419224,47.271057],[-122.419223,47.271147],[-122.419091,47.271147],[-122.419068,47.271072],[-122.418959,47.271056],[-122.418942,47.270986],[-122.418828,47.270965],[-122.418794,47.270884],[-122.418697,47.270875],[-122.418669,47.270797],[-122.418566,47.270784],[-122.418537,47.270706],[-122.418434,47.270693],[-122.418406,47.270616],[-122.418303,47.270603],[-122.418304,47.270513],[-122.418436,47.270514],[-122.418459,47.270588],[-122.418567,47.270604],[-122.418585,47.270674],[-122.418699,47.270695],[-122.418733,47.270776],[-122.41883,47.270785],[-122.418858,47.270863],[-122.418961,47.270876],[-122.418989,47.270954],[-122.419092,47.270967],[-122.419121,47.271045],[-122.419224,47.271057]]]}},{"type":"Feature","properties":{"id":1,"area_m2":400,"px":4,"rank":4,"persistent":false},"geometry":{"type":"Polygon","coordinates":[[[-122.417316,47.276177],[-122.417315,47.276267],[-122.417051,47.276265],[-122.417029,47.276191],[-122.41692,47.276175],[-122.416921,47.276085],[-122.417185,47.276086],[-122.417208,47.27616],[-122.417316,47.276177]]]}}]}