{"type":"FeatureCollection","features":[{"type":"Feature","properties":{"id":29,"area_m2":20000,"px":200,"rank":1},"geometry":{"type":"Polygon","coordinates":[[[-122.408655,47.270373],[-122.408653,47.270553],[-122.408544,47.270569],[-122.40852,47.270643],[-122.408401,47.270666],[-122.408386,47.270732],[-122.40829,47.270734],[-122.408239,47.270766],[-122.408252,47.270911],[-122.408216,47.270959],[-122.408251,47.271001],[-122.40825,47.271091],[-122.408141,47.271106],[-122.408117,47.27118],[-122.407721,47.271178],[-122.407713,47.271027],[-122.407666,47.271001],[-122.40759,47.270998],[-122.407556,47.270917],[-122.407459,47.270907],[-122.407456,47.270842],[-122.40742,47.27081],[-122.407064,47.270815],[-122.407058,47.270758],[-122.407008,47.270727],[-122.406668,47.270723],[-122.406669,47.270633],[-122.406704,47.27058],[-122.406629,47.270459],[-122.406407,47.270452],[-122.406344,47.270427],[-122.406274,47.270451],[-122.406074,47.270451],[-122.406019,47.270478],[-122.406009,47.27054],[-122.405877,47.270539],[-122.405854,47.270465],[-122.405746,47.270448],[-122.405734,47.270292],[-122.405615,47.270268],[-122.405619,47.269908],[-122.405812,47.269909],[-122.405866,47.269889],[-122.405886,47.269729],[-122.405922,47.269687],[-122.405887,47.269639],[-122.405888,47.269549],[-122.405997,47.269534],[-122.406021,47.26946],[-122.40614,47.269437],[-122.406154,47.269371],[-122.406286,47.269371],[-122.406309,47.269446],[-122.406417,47.269462],[-122.406415,47.269683],[-122.40645,47.269723],[-122.406645,47.269737],[-122.406679,47.269698],[-122.406681,47.269553],[-122.406813,47.269554],[-122.406816,47.269606],[-122.406854,47.269638],[-122.407076,47.269645],[-122.407089,47.269711],[-122.407208,47.269736],[-122.407211,47.269788],[-122.407249,47.26982],[-122.407471,47.269827],[-122.407476,47.269884],[-122.407526,47.269915],[-122.407734,47.269919],[-122.407733,47.270064],[-122.407766,47.270103],[-122.408261,47.270101],[-122.408284,47.270176],[-122.408392,47.270192],[-122.408371,47.270316],[-122.408393,47.270356],[-122.408655,47.270373]]]}},{"type":"Feature","properties":{"id":10,"area_m2":11000,"px":110,"rank":2},"geometry":{"type":"Polygon","coordinates":[[[-122.419198,47.273397],[-122.419195,47.273667],[-122.419086,47.273682],[-122.419062,47.273756],[-122.418833,47.273764],[-122.418797,47.273803],[-122.418795,47.273935],[-122.41858,47.273938],[-122.418537,47.273967],[-122.41853,47.274023],[-122.418416,47.274042],[-122.418361,47.274155],[-122.418396,47.274203],[-122.418395,47.274293],[-122.418286,47.274308],[-122.418262,47.274382],[-122.41813,47.274381],[-122.418125,47.274311],[-122.418076,47.27428],[-122.417866,47.27429],[-122.41787,47.27393],[-122.418002,47.273931],[-122.418008,47.273987],[-122.418058,47.274019],[-122.418231,47.274013],[-122.418266,47.273973],[-122.418269,47.273752],[-122.418359,47.273746],[-122.4184,47.273709],[-122.418415,47.273512],[-122.418361,47.273484],[-122.41814,47.273481],[-122.418161,47.273352],[-122.418127,47.273311],[-122.417924,47.273291],[-122.41788,47.273325],[-122.417876,47.27339],[-122.417744,47.273389],[-122.417674,47.273365],[-122.417612,47.273389],[-122.417382,47.273397],[-122.417346,47.273477],[-122.417263,47.273481],[-122.417217,47.273515],[-122.417177,47.273609],[-122.417212,47.273657],[-122.417211,47.273747],[-122.417079,47.273746],[-122.417073,47.273689],[-122.417023,47.273658],[-122.416816,47.273655],[-122.416818,47.273385],[-122.416922,47.273373],[-122.416952,47.273295],[-122.417049,47.273287],[-122.417085,47.273206],[-122.417199,47.273187],[-122.417219,47.273027],[-122.417454,47.273016],[-122.417484,47.272938],[-122.417588,47.272926],[-122.417618,47.272849],[-122.417715,47.27284],[-122.417751,47.27276],[-122.417865,47.27274],[-122.417884,47.27267],[-122.41828,47.272672],[-122.418295,47.272936],[-122.418354,47.272956],[-122.418542,47.272944],[-122.418562,47.273121],[-122.418617,47.273138],[-122.418804,47.273125],[-122.418825,47.273302],[-122.418879,47.273319],[-122.419067,47.273306],[-122.419089,47.27338],[-122.419198,47.273397]],[[-122.418802,47.273394],[-122.418821,47.27335],[-122.418788,47.273314],[-122.418713,47.273305],[-122.418662,47.273329],[-122.418651,47.273371],[-122.418688,47.273408],[-122.418747,47.273418],[-122.418802,47.273394]]]}},{"type":"Feature","properties":{"id":6,"area_m2":8500,"px":85,"rank":3},"geometry":{"type":"Polygon","coordinates":[[[-122.414301,47.273822],[-122.414298,47.274092],[-122.414076,47.274097],[-122.414037,47.274129],[-122.414033,47.27418],[-122.413816,47.27417],[-122.413772,47.274204],[-122.413768,47.274269],[-122.413684,47.274273],[-122.413641,47.274302],[-122.413631,47.274628],[-122.413541,47.274634],[-122.413499,47.274676],[-122.413495,47.274987],[-122.413363,47.274987],[-122.413363,47.27485],[-122.413316,47.274811],[-122.412776,47.274804],[-122.412713,47.274832],[-122.412668,47.27493],[-122.412702,47.274983],[-122.412701,47.275073],[-122.412569,47.275073],[-122.412547,47.274998],[-122.412438,47.274982],[-122.412416,47.274818],[-122.412175,47.274801],[-122.412178,47.274531],[-122.412401,47.274526],[-122.41244,47.274494],[-122.412444,47.274442],[-122.412724,47.274451],[-122.412707,47.274575],[-122.412755,47.27462],[-122.413026,47.274639],[-122.413086,47.274619],[-122.413104,47.2745],[-122.413081,47.274461],[-122.412824,47.274437],[-122.412841,47.274218],[-122.412801,47.27418],[-122.412711,47.274174],[-122.412712,47.274084],[-122.413061,47.274095],[-122.413106,47.274061],[-122.41311,47.273996],[-122.413229,47.273972],[-122.413243,47.273906],[-122.413375,47.273907],[-122.41338,47.273977],[-122.413428,47.274008],[-122.413625,47.273989],[-122.413659,47.273948],[-122.413643,47.273639],[-122.413775,47.273639],[-122.41378,47.273709],[-122.413835,47.273742],[-122.41417,47.273731],[-122.414193,47.273805],[-122.414301,47.273822]]]}},{"type":"Feature","properties":{"id":19,"area_m2":8200,"px":82,"rank":4},"geometry":{"type":"Polygon","coordinates":[[[-122.41802,47.272311],[-122.418019,47.272401],[-122.41791,47.272416],[-122.417886,47.27249],[-122.417767,47.272514],[-122.417753,47.27258],[-122.417356,47.272578],[-122.417344,47.272422],[-122.417171,47.272383],[-122.417097,47.272421],[-122.417092,47.272576],[-122.416827,47.272575],[-122.416805,47.272501],[-122.416696,47.272484],[-122.416675,47.27232],[-122.416566,47.272304],[-122.416563,47.272252],[-122.416525,47.27222],[-122.416303,47.272212],[-122.41628,47.272138],[-122.416171,47.272122],[-122.416173,47.271942],[-122.416387,47.271943],[-122.416441,47.271923],[-122.416441,47.271673],[-122.41655,47.271658],[-122.416574,47.271584],[-122.417235,47.271587],[-122.417234,47.271677],[-122.417198,47.271725],[-122.41725,47.271837],[-122.417303,47.271857],[-122.417496,47.271858],[-122.417519,47.271933],[-122.417627,47.271949],[-122.417622,47.272108],[-122.417758,47.27213],[-122.41778,47.272204],[-122.417889,47.27222],[-122.417923,47.272301],[-122.41802,47.272311]]]}},{"type":"Feature","properties":{"id":14,"area_m2":6700,"px":67,"rank":5},"geometry":{"type":"Polygon","coordinates":[[[-122.416561,47.272754],[-122.416558,47.273023],[-122.41637,47.273009],[-122.416316,47.273025],[-122.41629,47.273292],[-122.416158,47.273291],[-122.416156,47.27324],[-122.416117,47.273208],[-122.415895,47.2732],[-122.41589,47.273143],[-122.41584,47.273112],[-122.415632,47.273109],[-122.415619,47.273043],[-122.4155,47.273018],[-122.415497,47.272966],[-122.415459,47.272934],[-122.415105,47.272926],[-122.415109,47.272566],[-122.415218,47.272551],[-122.415242,47.272477],[-122.415499,47.272465],[-122.415527,47.272428],[-122.415508,47.272298],[-122.415617,47.272283],[-122.415642,47.272209],[-122.415774,47.27221],[-122.415776,47.272261],[-122.415815,47.272293],[-122.416037,47.272301],[-122.416053,47.272461],[-122.416167,47.272482],[-122.416202,47.272563],[-122.416298,47.272572],[-122.416327,47.27265],[-122.41643,47.272663],[-122.416458,47.272741],[-122.416561,47.272754]]]}},{"type":"Feature","properties":{"id":4,"area_m2":5100,"px":51,"rank":6},"geometry":{"type":"Polygon","coordinates":[[[-122.415078,47.275356],[-122.415075,47.275625],[-122.414966,47.275641],[-122.414942,47.275715],[-122.414823,47.275738],[-122.414808,47.275804],[-122.414676,47.275803],[-122.414669,47.275652],[-122.414622,47.275625],[-122.414546,47.275623],[-122.414549,47.275353],[-122.414639,47.275347],[-122.41468,47.27531],[-122.414681,47.275217],[-122.414648,47.275182],[-122.414489,47.275148],[-122.414322,47.275181],[-122.414286,47.275261],[-122.414202,47.275265],[-122.414159,47.275294],[-122.414151,47.275441],[-122.414019,47.27544],[-122.414021,47.275124],[-122.413981,47.275086],[-122.413891,47.275079],[-122.413892,47.27499],[-122.414121,47.274982],[-122.414155,47.274947],[-122.414157,47.27486],[-122.414102,47.274813],[-122.413894,47.274809],[-122.413895,47.27472],[-122.414014,47.274696],[-122.414029,47.27454],[-122.414138,47.274525],[-122.414162,47.274451],[-122.414295,47.274452],[-122.414304,47.274788],[-122.414362,47.274812],[-122.414687,47.274814],[-122.41471,47.274888],[-122.414818,47.274904],[-122.414826,47.275056],[-122.414873,47.275082],[-122.414949,47.275085],[-122.414952,47.275322],[-122.414995,47.275351],[-122.415078,47.275356]]]}},{"type":"Feature","properties":{"id":13,"area_m2":3900,"px":39,"rank":7},"geometry":{"type":"Polygon","coordinates":[[[-122.41219,47.273451],[-122.412187,47.273721],[-122.412055,47.27372],[-122.412042,47.273654],[-122.411977,47.27363],[-122.411827,47.273638],[-122.411791,47.273719],[-122.411659,47.273718],[-122.411636,47.273644],[-122.411527,47.273628],[-122.411518,47.273292],[-122.41146,47.273268],[-122.411267,47.273266],[-122.411261,47.27321],[-122.411211,47.273178],[-122.410871,47.273174],[-122.410874,47.272904],[-122.411082,47.272903],[-122.411133,47.272872],[-122.41114,47.272816],[-122.411272,47.272817],[-122.411293,47.272981],[-122.411534,47.272998],[-122.411533,47.273143],[-122.411566,47.273182],[-122.412061,47.27318],[-122.412062,47.273412],[-122.412107,47.273447],[-122.41219,47.273451]]]}},{"type":"Feature","properties":{"id":30,"area_m2":3800,"px":38,"rank":8},"geometry":{"type":"Polygon","coordinates":[[[-122.406534,47.270902],[-122.406532,47.271082],[-122.406423,47.271098],[-122.406398,47.271172],[-122.406266,47.271171],[-122.406249,47.271101],[-122.406135,47.27108],[-122.406118,47.27101],[-122.406004,47.27099],[-122.405991,47.270924],[-122.405926,47.270899],[-122.405637,47.27091],[-122.405608,47.270946],[-122.405605,47.271167],[-122.405473,47.271167],[-122.405451,47.271093],[-122.405342,47.271076],[-122.405343,47.270986],[-122.405462,47.270963],[-122.405476,47.270861],[-122.405442,47.270816],[-122.405345,47.270806],[-122.405337,47.270655],[-122.405283,47.270627],[-122.405083,47.270625],[-122.405071,47.270469],[-122.405013,47.270445],[-122.40482,47.270443],[-122.404821,47.270354],[-122.405154,47.270354],[-122.405209,47.270327],[-122.405219,47.270266],[-122.405483,47.270267],[-122.405482,47.270357],[-122.405392,47.270363],[-122.405351,47.2704],[-122.405348,47.270578],[-122.405376,47.270614],[-122.405541,47.270651],[-122.405611,47.270628],[-122.406008,47.27063],[-122.406011,47.270681],[-122.406049,47.270713],[-122.406271,47.270721],[-122.40627,47.270852],[-122.406298,47.270889],[-122.406534,47.270902]]]}},{"type":"Feature","properties":{"id":8,"area_m2":2100,"px":21,"rank":9},"geometry":{"type":"Polygon","coordinates":[[[-122.415221,47.274366],[-122.415218,47.274636],[-122.415109,47.274652],[-122.415085,47.274726],[-122.414821,47.274724],[-122.414798,47.27465],[-122.414689,47.274634],[-122.414678,47.274478],[-122.414559,47.274453],[-122.414562,47.274183],[-122.414959,47.274185],[-122.41498,47.274349],[-122.415221,47.274366]]]}},{"type":"Feature","properties":{"id":16,"area_m2":2100,"px":21,"rank":10},"geometry":{"type":"Polygon","coordinates":[[[-122.410878,47.272545],[-122.410875,47.272814],[-122.410611,47.272813],[-122.410549,47.272789],[-122.410479,47.272812],[-122.410082,47.27281],[-122.410084,47.27263],[-122.410187,47.272619],[-122.410217,47.272541],[-122.410314,47.272532],[-122.41035,47.272452],[-122.410465,47.272433],[-122.410485,47.272273],[-122.410617,47.272273],[-122.410628,47.272429],[-122.410747,47.272454],[-122.410781,47.272535],[-122.410878,47.272545]]]}},{"type":"Feature","properties":{"id":2,"area_m2":1900,"px":19,"rank":11},"geometry":{"type":"Polygon","coordinates":[[[-122.413874,47.276609],[-122.413873,47.276699],[-122.413764,47.276714],[-122.41374,47.276788],[-122.413621,47.276812],[-122.413607,47.276878],[-122.413475,47.276877],[-122.413452,47.276803],[-122.413343,47.276786],[-122.413322,47.276622],[-122.413213,47.276606],[-122.413208,47.276549],[-122.413165,47.27652],[-122.41295,47.276514],[-122.412952,47.276334],[-122.413061,47.276319],[-122.413085,47.276245],[-122.413217,47.276246],[-122.413234,47.276316],[-122.413348,47.276337],[-122.413383,47.276418],[-122.413479,47.276427],[-122.413508,47.276505],[-122.413611,47.276518],[-122.413639,47.276596],[-122.413874,47.276609]]]}},{"type":"Feature","properties":{"id":39,"area_m2":1700,"px":17,"rank":12},"geometry":{"type":"Polygon","coordinates":[[[-122.409342,47.268037],[-122.409341,47.268127],[-122.409148,47.268127],[-122.40909,47.26815],[-122.409074,47.268306],[-122.408942,47.268305],[-122.408873,47.268281],[-122.408786,47.268322],[-122.408806,47.268664],[-122.40841,47.268662],[-122.408411,47.268573],[-122.408515,47.268569],[-122.408562,47.268528],[-122.408526,47.268413],[-122.408413,47.268391],[-122.408415,47.268213],[-122.408524,47.268197],[-122.408548,47.268123],[-122.40868,47.268124],[-122.40875,47.268148],[-122.408812,47.268125],[-122.409013,47.268125],[-122.409067,47.268097],[-122.409078,47.268036],[-122.409342,47.268037]]]}},{"type":"Feature","properties":{"id":3,"area_m2":1500,"px":15,"rank":13},"geometry":{"type":"Polygon","coordinates":[[[-122.415071,47.275985],[-122.415067,47.276345],[-122.414958,47.276361],[-122.414934,47.276434],[-122.414802,47.276434],[-122.414779,47.27636],[-122.41467,47.276343],[-122.414669,47.276202],[-122.414623,47.276167],[-122.41454,47.276163],[-122.414541,47.276073],[-122.414617,47.276071],[-122.414664,47.276045],[-122.414675,47.275893],[-122.414807,47.275894],[-122.414813,47.275951],[-122.414863,47.275982],[-122.415071,47.275985]]]}},{"type":"Feature","properties":{"id":1,"area_m2":1400,"px":14,"rank":14},"geometry":{"type":"Polygon","coordinates":[[[-122.414795,47.276795],[-122.414762,47.276841],[-122.414797,47.276884],[-122.414796,47.276974],[-122.414686,47.276989],[-122.414662,47.277063],[-122.41453,47.277062],[-122.414508,47.276988],[-122.414399,47.276972],[-122.4144,47.276882],[-122.414497,47.276873],[-122.414533,47.276828],[-122.414521,47.276726],[-122.414402,47.276702],[-122.414405,47.276432],[-122.414669,47.276433],[-122.414677,47.276585],[-122.414724,47.276611],[-122.4148,47.276614],[-122.414795,47.276795]]]}},{"type":"Feature","properties":{"id":12,"area_m2":1200,"px":12,"rank":15},"geometry":{"type":"Polygon","coordinates":[[[-122.411263,47.273626],[-122.411261,47.273806],[-122.411152,47.273821],[-122.411128,47.273895],[-122.410996,47.273895],[-122.41099,47.273838],[-122.41094,47.273807],[-122.410732,47.273803],[-122.410735,47.273534],[-122.411132,47.273536],[-122.411154,47.27361],[-122.411263,47.273626]]]}},{"type":"Feature","properties":{"id":5,"area_m2":1000,"px":10,"rank":16},"geometry":{"type":"Polygon","coordinates":[[[-122.413357,47.275527],[-122.413354,47.275797],[-122.412958,47.275794],[-122.412959,47.275568],[-122.412919,47.275531],[-122.412828,47.275524],[-122.412829,47.275434],[-122.413094,47.275435],[-122.413099,47.275505],[-122.413154,47.275538],[-122.413357,47.275527]]]}},{"type":"Feature","properties":{"id":37,"area_m2":900,"px":9,"rank":17},"geometry":{"type":"Polygon","coordinates":[[[-122.41197,47.269491],[-122.411967,47.269761],[-122.411702,47.269759],[-122.411695,47.269608],[-122.411648,47.269581],[-122.411572,47.269579],[-122.411538,47.269498],[-122.411441,47.269488],[-122.411442,47.269398],[-122.411551,47.269383],[-122.411575,47.269309],[-122.411707,47.269309],[-122.411686,47.269433],[-122.411707,47.269473],[-122.41197,47.269491]]]}},{"type":"Feature","properties":{"id":7,"area_m2":700,"px":7,"rank":18},"geometry":{"type":"Polygon","coordinates":[[[-122.411779,47.274799],[-122.411777,47.274979],[-122.411645,47.274978],[-122.411632,47.274912],[-122.411513,47.274887],[-122.411479,47.274806],[-122.41125,47.274796],[-122.411252,47.274616],[-122.411516,47.274617],[-122.411538,47.274782],[-122.411779,47.274799]]]}},{"type":"Feature","properties":{"id":32,"area_m2":700,"px":7,"rank":19},"geometry":{"type":"Polygon","coordinates":[[[-122.415267,47.270227],[-122.415266,47.270317],[-122.415134,47.270317],[-122.415111,47.270242],[-122.415002,47.270226],[-122.41499,47.27016],[-122.414871,47.270135],[-122.414843,47.270058],[-122.41474,47.270045],[-122.414741,47.269955],[-122.415137,47.269957],[-122.415138,47.270188],[-122.415183,47.270223],[-122.415267,47.270227]]]}},{"type":"Feature","properties":{"id":11,"area_m2":600,"px":6,"rank":20},"geometry":{"type":"Polygon","coordinates":[[[-122.411789,47.273899],[-122.411787,47.274079],[-122.41139,47.274077],[-122.411392,47.273897],[-122.411789,47.273899]]]}},{"type":"Feature","properties":{"id":15,"area_m2":600,"px":6,"rank":21},"geometry":{"type":"Polygon","coordinates":[[[-122.410081,47.2729],[-122.410078,47.27317],[-122.409814,47.273169],[-122.409817,47.272899],[-122.410081,47.2729]]]}},{"type":"Feature","properties":{"id":21,"area_m2":600,"px":6,"rank":22},"geometry":{"type":"Polygon","coordinates":[[[-122.419082,47.271867],[-122.419081,47.272046],[-122.418684,47.272044],[-122.418686,47.271865],[-122.419082,47.271867]]]}},{"type":"Feature","properties":{"id":23,"area_m2":600,"px":6,"rank":23},"geometry":{"type":"Polygon","coordinates":[[[-122.410492,47.271553],[-122.410491,47.271643],[-122.410401,47.271649],[-122.41036,47.271685],[-122.410355,47.272002],[-122.410223,47.272001],[-122.410228,47.271551],[-122.410492,47.271553]]]}},{"type":"Feature","properties":{"id":25,"area_m2":600,"px":6,"rank":24},"geometry":{"type":"Polygon","coordinates":[[[-122.40547,47.271437],[-122.405467,47.271707],[-122.405335,47.271706],[-122.405312,47.271632],[-122.405204,47.271615],[-122.405207,47.271345],[-122.405339,47.271346],[-122.405361,47.27142],[-122.40547,47.271437]]]}},{"type":"Feature","properties":{"id":40,"area_m2":600,"px":6,"rank":25},"geometry":{"type":"Polygon","coordinates":[[[-122.408283,47.268122],[-122.40828,47.268392],[-122.408171,47.268407],[-122.408147,47.268481],[-122.408015,47.26848],[-122.408018,47.268211],[-122.408127,47.268195],[-122.408151,47.268121],[-122.408283,47.268122]]]}},{"type":"Feature","properties":{"id":9,"area_m2":500,"px":5,"rank":26},"geometry":{"type":"Polygon","coordinates":[[[-122.412045,47.274352],[-122.412012,47.274398],[-122.412047,47.27444],[-122.412046,47.27453],[-122.411782,47.274529],[-122.411785,47.274259],[-122.412049,47.27426],[-122.412045,47.274352]]]}},{"type":"Feature","properties":{"id":24,"area_m2":500,"px":5,"rank":27},"geometry":{"type":"Polygon","coordinates":[[[-122.406789,47.271714],[-122.406788,47.271803],[-122.406658,47.271803],[-122.406653,47.271751],[-122.406615,47.271719],[-122.406393,47.271711],[-122.406395,47.271532],[-122.406659,47.271533],[-122.406666,47.271684],[-122.406713,47.271711],[-122.406789,47.271714]]]}},{"type":"Feature","properties":{"id":35,"area_m2":500,"px":5,"rank":28},"geometry":{"type":"Polygon","coordinates":[[[-122.41593,47.269961],[-122.415929,47.270051],[-122.41582,47.270066],[-122.415796,47.27014],[-122.415664,47.270139],[-122.415662,47.269998],[-122.415617,47.269963],[-122.415534,47.269959],[-122.415535,47.269869],[-122.415799,47.26987],[-122.415822,47.269944],[-122.41593,47.269961]]]}},{"type":"Feature","properties":{"id":17,"area_m2":400,"px":4,"rank":29},"geometry":{"type":"Polygon","coordinates":[[[-122.408497,47.272622],[-122.408496,47.272712],[-122.408387,47.272727],[-122.408363,47.272801],[-122.408231,47.272801],[-122.408234,47.272531],[-122.408366,47.272532],[-122.408389,47.272606],[-122.408497,47.272622]]]}},{"type":"Feature","properties":{"id":20,"area_m2":400,"px":4,"rank":30},"geometry":{"type":"Polygon","coordinates":[[[-122.4085,47.272352],[-122.408499,47.272442],[-122.408235,47.272441],[-122.408213,47.272367],[-122.408104,47.27235],[-122.408106,47.27217],[-122.408238,47.272171],[-122.408237,47.272302],[-122.408272,47.272342],[-122.4085,47.272352]]]}},{"type":"Feature","properties":{"id":22,"area_m2":400,"px":4,"rank":31},"geometry":{"type":"Polygon","coordinates":[[[-122.410885,47.271915],[-122.410884,47.272005],[-122.41062,47.272003],[-122.410618,47.271862],[-122.410573,47.271827],[-122.41049,47.271823],[-122.410491,47.271733],[-122.410623,47.271733],[-122.410645,47.271808],[-122.410754,47.271824],[-122.410788,47.271905],[-122.410885,47.271915]]]}},{"type":"Feature","properties":{"id":26,"area_m2":400,"px":4,"rank":32},"geometry":{"type":"Polygon","coordinates":[[[-122.406265,47.271261],[-122.406263,47.271441],[-122.405999,47.271439],[-122.406001,47.27126],[-122.406265,47.271261]]]}},{"type":"Feature","properties":{"id":31,"area_m2":400,"px":4,"rank":33},"geometry":{"type":"Polygon","coordinates":[[[-122.414468,47.270673],[-122.414467,47.270763],[-122.414335,47.270762],[-122.414313,47.270688],[-122.414204,47.270672],[-122.41417,47.270591],[-122.414073,47.270581],[-122.414074,47.270491],[-122.414338,47.270493],[-122.414346,47.270644],[-122.414393,47.270671],[-122.414468,47.270673]]]}},{"type":"Feature","properties":{"id":38,"area_m2":400,"px":4,"rank":34},"geometry":{"type":"Polygon","coordinates":[[[-122.410523,47.268763],[-122.410522,47.268853],[-122.410313,47.268841],[-122.410264,47.268872],[-122.410257,47.268942],[-122.410125,47.268941],[-122.410127,47.268761],[-122.410236,47.268746],[-122.41026,47.268672],[-122.410392,47.268673],[-122.410415,47.268747],[-122.410523,47.268763]]]}},{"type":"Feature","properties":{"id":18,"area_m2":300,"px":3,"rank":35},"geometry":{"type":"Polygon","coordinates":[[[-122.414976,47.272566],[-122.414975,47.272655],[-122.414711,47.272654],[-122.414713,47.272474],[-122.414845,47.272475],[-122.414868,47.272549],[-122.414976,47.272566]]]}},{"type":"Feature","properties":{"id":27,"area_m2":300,"px":3,"rank":36},"geometry":{"type":"Polygon","coordinates":[[[-122.407059,47.271175],[-122.407058,47.271265],[-122.406662,47.271263],[-122.406663,47.271173],[-122.407059,47.271175]]]}},{"type":"Feature","properties":{"id":28,"area_m2":300,"px":3,"rank":37},"geometry":{"type":"Polygon","coordinates":[[[-122.415124,47.271127],[-122.415123,47.271216],[-122.414859,47.271215],[-122.414861,47.271035],[-122.414993,47.271036],[-122.415016,47.27111],[-122.415124,47.271127]]]}},{"type":"Feature","properties":{"id":33,"area_m2":300,"px":3,"rank":38},"geometry":{"type":"Polygon","coordinates":[[[-122.411038,47.270026],[-122.411036,47.270206],[-122.410904,47.270205],[-122.410882,47.270131],[-122.410773,47.270114],[-122.410774,47.270024],[-122.411038,47.270026]]]}},{"type":"Feature","properties":{"id":34,"area_m2":300,"px":3,"rank":39},"geometry":{"type":"Polygon","coordinates":[[[-122.416459,47.269964],[-122.416458,47.270053],[-122.41625,47.270055],[-122.4162,47.270085],[-122.416193,47.270142],[-122.416061,47.270141],[-122.416062,47.270052],[-122.416171,47.270036],[-122.416195,47.269962],[-122.416459,47.269964]]]}},{"type":"Feature","properties":{"id":36,"area_m2":300,"px":3,"rank":40},"geometry":{"type":"Polygon","coordinates":[[[-122.410776,47.269844],[-122.410775,47.269934],[-122.410511,47.269933],[-122.410488,47.269859],[-122.410379,47.269842],[-122.41038,47.269752],[-122.410512,47.269753],[-122.410518,47.26981],[-122.410568,47.269841],[-122.410776,47.269844]]]}}]}