{"type":"FeatureCollection","features":[{"type":"Feature","properties":{"id":1,"area_m2":1928300,"px":19283,"rank":1,"persistent":true},"geometry":{"type":"Polygon","coordinates":[[[-122.423628,47.266942],[-122.423595,47.266988],[-122.42363,47.267032],[-122.423622,47.26775],[-122.423429,47.267749],[-122.423371,47.267773],[-122.423355,47.268019],[-122.423319,47.268061],[-122.423371,47.268179],[-122.423485,47.268199],[-122.42352,47.26828],[-122.423616,47.26829],[-122.423604,47.26946],[-122.423489,47.269479],[-122.42345,47.269583],[-122.423491,47.269633],[-122.423602,47.26964],[-122.423599,47.26991],[-122.42337,47.269918],[-122.423298,47.270041],[-122.423332,47.270088],[-122.423349,47.270249],[-122.423402,47.270268],[-122.423595,47.27027],[-122.423592,47.270539],[-122.423351,47.270554],[-122.423324,47.270718],[-122.423194,47.270717],[-122.423185,47.270656],[-122.423123,47.270627],[-122.422269,47.270623],[-122.42226,47.270561],[-122.422199,47.270533],[-122.422041,47.270541],[-122.422005,47.270621],[-122.42174,47.27062],[-122.421706,47.270539],[-122.421548,47.270529],[-122.421486,47.270557],[-122.421476,47.270619],[-122.421362,47.270638],[-122.421343,47.270708],[-122.420883,47.270692],[-122.42082,47.270725],[-122.420813,47.270795],[-122.420549,47.270794],[-122.420526,47.27072],[-122.420417,47.270703],[-122.420406,47.270547],[-122.420287,47.270523],[-122.420278,47.270461],[-122.420217,47.270433],[-122.420059,47.270441],[-122.420023,47.270521],[-122.419904,47.270545],[-122.419889,47.270611],[-122.419775,47.27063],[-122.419756,47.2707],[-122.419624,47.270699],[-122.419627,47.27043],[-122.419742,47.27041],[-122.419795,47.270303],[-122.419744,47.27018],[-122.41963,47.27016],[-122.419617,47.270094],[-122.419499,47.270069],[-122.419493,47.270012],[-122.419444,47.269981],[-122.419306,47.269954],[-122.419235,47.269978],[-122.418839,47.269976],[-122.418822,47.269905],[-122.418708,47.269885],[-122.418673,47.269804],[-122.418577,47.269794],[-122.418548,47.269716],[-122.418445,47.269704],[-122.418417,47.269626],[-122.418314,47.269613],[-122.418286,47.269535],[-122.418051,47.269522],[-122.418046,47.269375],[-122.418004,47.269346],[-122.41792,47.269341],[-122.417886,47.26926],[-122.417789,47.26925],[-122.417773,47.26909],[-122.417659,47.26907],[-122.417646,47.269004],[-122.417528,47.268979],[-122.417525,47.268927],[-122.417487,47.268895],[-122.417264,47.268888],[-122.417253,47.268732],[-122.417134,47.268707],[-122.4171,47.268626],[-122.417003,47.268616],[-122.417004,47.268527],[-122.417094,47.268521],[-122.417135,47.268484],[-122.417138,47.268347],[-122.417174,47.2683],[-122.417122,47.268187],[-122.417008,47.268167],[-122.416995,47.268101],[-122.416877,47.268076],[-122.416871,47.268019],[-122.416829,47.26799],[-122.416349,47.267983],[-122.416327,47.267909],[-122.416218,47.267893],[-122.4162,47.267822],[-122.416087,47.267802],[-122.416052,47.267721],[-122.415955,47.267711],[-122.415927,47.267633],[-122.415824,47.267621],[-122.415796,47.267543],[-122.415693,47.26753],[-122.415665,47.267452],[-122.415562,47.267439],[-122.41554,47.267275],[-122.415432,47.267259],[-122.415414,47.267188],[-122.4153,47.267168],[-122.415283,47.267098],[-122.415169,47.267077],[-122.415156,47.267011],[-122.415038,47.266987],[-122.415004,47.266906],[-122.414775,47.266895],[-122.414763,47.266739],[-122.414644,47.266715],[-122.41461,47.266634],[-122.414513,47.266624],[-122.414516,47.266354],[-122.414552,47.266307],[-122.414508,47.266203],[-122.414462,47.266176],[-122.414386,47.266174],[-122.414352,47.266093],[-122.414255,47.266083],[-122.414227,47.266005],[-122.414124,47.265992],[-122.414127,47.265722],[-122.414162,47.265675],[-122.414122,47.265576],[-122.414057,47.265542],[-122.413732,47.26554],[-122.413731,47.265309],[-122.413686,47.265274],[-122.413603,47.26527],[-122.413604,47.265139],[-122.413576,47.265102],[-122.413237,47.2651],[-122.413208,47.265136],[-122.413206,47.265268],[-122.413097,47.265283],[-122.413073,47.265357],[-122.412964,47.265372],[-122.41294,47.265446],[-122.412837,47.265458],[-122.412807,47.265536],[-122.412703,47.265547],[-122.412673,47.265625],[-122.41257,47.265637],[-122.41254,47.265714],[-122.412437,47.265726],[-122.412407,47.265803],[-122.412304,47.265815],[-122.412274,47.265893],[-122.412177,47.265901],[-122.412141,47.265982],[-122.412026,47.266001],[-122.41202,47.266137],[-122.412139,47.266162],[-122.412173,47.266243],[-122.41227,47.266253],[-122.412298,47.266331],[-122.412401,47.266343],[-122.412429,47.266421],[-122.412532,47.266434],[-122.412549,47.266594],[-122.412602,47.266614],[-122.412795,47.266615],[-122.412811,47.266776],[-122.412925,47.266796],[-122.412959,47.266877],[-122.413056,47.266887],[-122.413084,47.266965],[-122.413187,47.266977],[-122.413215,47.267055],[-122.413318,47.267068],[-122.413347,47.267146],[-122.41345,47.267159],[-122.413478,47.267237],[-122.413581,47.267249],[-122.413609,47.267327],[-122.413712,47.26734],[-122.413734,47.267414],[-122.413843,47.267431],[-122.413866,47.267505],[-122.413974,47.267521],[-122.413991,47.267682],[-122.414105,47.267702],[-122.414139,47.267783],[-122.414236,47.267793],[-122.414264,47.26787],[-122.414367,47.267883],[-122.414395,47.267961],[-122.414498,47.267974],[-122.414526,47.268052],[-122.414629,47.268065],[-122.414658,47.268142],[-122.414761,47.268155],[-122.414789,47.268233],[-122.414892,47.268246],[-122.414914,47.26832],[-122.415023,47.268337],[-122.415045,47.268411],[-122.415154,47.268427],[-122.415177,47.268501],[-122.415285,47.268518],[-122.415302,47.268678],[-122.415416,47.268698],[-122.41545,47.268779],[-122.415547,47.268789],[-122.415575,47.268867],[-122.415678,47.26888],[-122.415706,47.268958],[-122.415809,47.26897],[-122.415837,47.269048],[-122.41594,47.269061],[-122.415969,47.269139],[-122.416072,47.269152],[-122.4161,47.26923],[-122.416203,47.269242],[-122.416225,47.269317],[-122.416334,47.269333],[-122.416356,47.269407],[-122.416465,47.269424],[-122.416488,47.269498],[-122.416596,47.269514],[-122.416613,47.269675],[-122.416727,47.269695],[-122.416761,47.269776],[-122.416858,47.269786],[-122.416886,47.269863],[-122.416989,47.269876],[-122.417017,47.269954],[-122.41712,47.269967],[-122.417148,47.270045],[-122.417251,47.270058],[-122.41728,47.270135],[-122.417383,47.270148],[-122.417411,47.270226],[-122.417514,47.270239],[-122.417535,47.270403],[-122.417776,47.27042],[-122.417799,47.270494],[-122.417907,47.270511],[-122.417915,47.270662],[-122.417962,47.270689],[-122.418038,47.270691],[-122.418072,47.270772],[-122.418169,47.270782],[-122.418191,47.270856],[-122.418247,47.270872],[-122.418409,47.270857],[-122.418434,47.270693],[-122.418831,47.270695],[-122.418835,47.270842],[-122.418878,47.270872],[-122.418961,47.270876],[-122.418977,47.271036],[-122.419091,47.271057],[-122.419099,47.271208],[-122.419146,47.271235],[-122.419222,47.271237],[-122.419256,47.271318],[-122.419353,47.271328],[-122.419354,47.27156],[-122.419399,47.271594],[-122.419482,47.271599],[-122.41948,47.271778],[-122.419446,47.271837],[-122.419502,47.271943],[-122.41961,47.271959],[-122.419616,47.272291],[-122.419663,47.272317],[-122.419739,47.27232],[-122.419773,47.272401],[-122.41987,47.27241],[-122.419898,47.272488],[-122.420001,47.272501],[-122.420029,47.272579],[-122.420132,47.272592],[-122.42016,47.27267],[-122.420263,47.272682],[-122.42026,47.273041],[-122.420176,47.273046],[-122.42013,47.27308],[-122.420124,47.273311],[-122.420027,47.27332],[-122.419991,47.273401],[-122.419915,47.273403],[-122.419868,47.273429],[-122.419856,47.27367],[-122.41978,47.273672],[-122.419733,47.273698],[-122.419722,47.273849],[-122.419646,47.273851],[-122.419599,47.273877],[-122.419588,47.274029],[-122.419469,47.274052],[-122.419454,47.274208],[-122.41937,47.274212],[-122.419324,47.274246],[-122.419319,47.274387],[-122.419236,47.274391],[-122.419193,47.27442],[-122.419185,47.274566],[-122.419102,47.27457],[-122.419059,47.274599],[-122.419051,47.274746],[-122.418968,47.274749],[-122.418925,47.274778],[-122.418916,47.275015],[-122.418819,47.275024],[-122.418783,47.275104],[-122.418699,47.275108],[-122.418656,47.275137],[-122.418647,47.275374],[-122.418557,47.27538],[-122.418516,47.275416],[-122.418512,47.275643],[-122.418436,47.275645],[-122.418389,47.275671],[-122.418378,47.275822],[-122.418295,47.275826],[-122.418249,47.27586],[-122.418244,47.276001],[-122.418135,47.276017],[-122.418111,47.276091],[-122.418014,47.276099],[-122.417978,47.27618],[-122.417863,47.276199],[-122.417844,47.276269],[-122.416258,47.276261],[-122.41626,47.276081],[-122.41635,47.276075],[-122.416391,47.276039],[-122.416389,47.275845],[-122.416331,47.275813],[-122.416131,47.275811],[-122.416102,47.275733],[-122.415944,47.275706],[-122.415867,47.275754],[-122.415861,47.276259],[-122.411498,47.276237],[-122.411481,47.276167],[-122.411367,47.276146],[-122.41135,47.276076],[-122.411236,47.276056],[-122.411223,47.27599],[-122.411105,47.275965],[-122.411102,47.275913],[-122.411064,47.275881],[-122.410577,47.275872],[-122.410576,47.275641],[-122.410531,47.275606],[-122.410448,47.275602],[-122.410413,47.275521],[-122.410052,47.27551],[-122.410041,47.275264],[-122.409923,47.275239],[-122.409888,47.275158],[-122.409792,47.275148],[-122.409763,47.275071],[-122.40966,47.275058],[-122.409632,47.27498],[-122.409529,47.274967],[-122.409521,47.274816],[-122.409475,47.274789],[-122.409399,47.274786],[-122.409402,47.274517],[-122.409438,47.274469],[-122.409375,47.274349],[-122.409194,47.274312],[-122.409036,47.274347],[-122.409006,47.274424],[-122.408744,47.274423],[-122.408737,47.274366],[-122.408687,47.274335],[-122.408346,47.274331],[-122.408329,47.274261],[-122.408215,47.27424],[-122.408181,47.274159],[-122.408084,47.27415],[-122.408056,47.274072],[-122.407821,47.274058],[-122.407803,47.273988],[-122.407689,47.273968],[-122.407655,47.273887],[-122.407558,47.273877],[-122.40753,47.273799],[-122.407427,47.273786],[-122.407399,47.273709],[-122.407164,47.273695],[-122.407141,47.273621],[-122.407032,47.273604],[-122.406998,47.273523],[-122.406901,47.273514],[-122.406902,47.273383],[-122.406874,47.273346],[-122.406507,47.273332],[-122.406503,47.273095],[-122.406446,47.273063],[-122.406245,47.27306],[-122.406246,47.272929],[-122.406218,47.272893],[-122.405851,47.272878],[-122.405834,47.272718],[-122.40572,47.272698],[-122.405686,47.272617],[-122.405589,47.272607],[-122.405561,47.272529],[-122.405458,47.272516],[-122.40543,47.272439],[-122.405327,47.272426],[-122.405299,47.272348],[-122.405196,47.272335],[-122.405198,47.272019],[-122.405158,47.271981],[-122.405067,47.271974],[-122.405068,47.271885],[-122.405298,47.271877],[-122.405332,47.271842],[-122.405334,47.271755],[-122.405293,47.271712],[-122.405203,47.271705],[-122.405174,47.271627],[-122.405072,47.271615],[-122.405074,47.271435],[-122.405109,47.271387],[-122.405052,47.27127],[-122.404735,47.271255],[-122.404685,47.271286],[-122.404678,47.271343],[-122.403885,47.271338],[-122.403882,47.271287],[-122.403844,47.271255],[-122.403621,47.271247],[-122.403599,47.271173],[-122.40349,47.271156],[-122.403468,47.271082],[-122.403359,47.271066],[-122.403342,47.270995],[-122.403228,47.270975],[-122.403193,47.270894],[-122.403097,47.270884],[-122.403068,47.270807],[-122.402965,47.270794],[-122.402937,47.270716],[-122.402834,47.270703],[-122.402806,47.270625],[-122.402703,47.270612],[-122.402675,47.270535],[-122.402572,47.270522],[-122.402576,47.270162],[-122.40269,47.270143],[-122.40271,47.269983],[-122.402793,47.269979],[-122.402837,47.26995],[-122.402845,47.269767],[-122.402781,47.269714],[-122.402449,47.26971],[-122.402538,47.261793],[-122.407294,47.261818],[-122.407358,47.261842],[-122.40743,47.261819],[-122.41906,47.261878],[-122.419082,47.261952],[-122.419191,47.261969],[-122.419207,47.262129],[-122.41926,47.262149],[-122.419453,47.26215],[-122.419455,47.262292],[-122.4195,47.262326],[-122.419583,47.262331],[-122.419595,47.262487],[-122.419714,47.262511],[-122.419748,47.262592],[-122.419845,47.262602],[-122.419873,47.26268],[-122.419976,47.262693],[-122.419988,47.262849],[-122.420106,47.262873],[-122.420141,47.262954],[-122.420237,47.262964],[-122.420254,47.263124],[-122.420368,47.263145],[-122.420402,47.263226],[-122.420499,47.263235],[-122.420527,47.263313],[-122.42063,47.263326],[-122.420646,47.263486],[-122.42076,47.263507],[-122.420795,47.263588],[-122.420891,47.263597],[-122.42092,47.263675],[-122.421023,47.263688],[-122.421051,47.263766],[-122.421154,47.263778],[-122.421165,47.264024],[-122.421222,47.264048],[-122.421415,47.26405],[-122.42142,47.264196],[-122.421462,47.264226],[-122.421545,47.26423],[-122.421562,47.264391],[-122.421676,47.264411],[-122.42171,47.264492],[-122.421807,47.264502],[-122.421809,47.264643],[-122.421854,47.264678],[-122.421937,47.264682],[-122.421949,47.264838],[-122.422067,47.264863],[-122.422102,47.264944],[-122.422198,47.264954],[-122.42222,47.265118],[-122.422329,47.265134],[-122.422346,47.265204],[-122.42246,47.265225],[-122.422494,47.265306],[-122.422591,47.265315],[-122.422619,47.265393],[-122.422722,47.265406],[-122.422734,47.265562],[-122.422853,47.265587],[-122.422887,47.265668],[-122.422984,47.265677],[-122.422995,47.265923],[-122.423113,47.265948],[-122.423147,47.266029],[-122.423244,47.266039],[-122.423272,47.266116],[-122.423375,47.266129],[-122.423387,47.266285],[-122.423506,47.26631],[-122.42354,47.266391],[-122.423637,47.266401],[-122.423628,47.266942]],[[-122.404086,47.265402],[-122.404014,47.265376],[-122.403854,47.265409],[-122.403818,47.265489],[-122.403699,47.265513],[-122.403685,47.265578],[-122.403571,47.265598],[-122.403552,47.265668],[-122.403437,47.265687],[-122.403418,47.265757],[-122.403304,47.265776],[-122.403249,47.265894],[-122.403312,47.266014],[-122.403513,47.266018],[-122.403549,47.265938],[-122.403668,47.265914],[-122.403682,47.265849],[-122.403796,47.265829],[-122.403815,47.265759],[-122.40393,47.26574],[-122.403948,47.26567],[-122.404063,47.265651],[-122.404083,47.265491],[-122.404118,47.265448],[-122.404086,47.265402]],[[-122.403769,47.269848],[-122.403701,47.269794],[-122.403534,47.269819],[-122.403504,47.269897],[-122.403421,47.2699],[-122.403378,47.269929],[-122.403387,47.27007],[-122.403454,47.27009],[-122.403606,47.270065],[-122.403636,47.269988],[-122.403711,47.269986],[-122.403759,47.26996],[-122.403769,47.269848]],[[-122.409127,47.263627],[-122.409114,47.263561],[-122.408995,47.263536],[-122.408961,47.263455],[-122.408761,47.263457],[-122.408731,47.263535],[-122.408634,47.263544],[-122.408598,47.263624],[-122.408515,47.263628],[-122.408471,47.263657],[-122.408464,47.263804],[-122.408428,47.263851],[-122.40848,47.263964],[-122.408656,47.264009],[-122.408726,47.263985],[-122.408961,47.263974],[-122.408991,47.263896],[-122.409088,47.263888],[-122.409125,47.263807],[-122.409208,47.263803],[-122.409254,47.263769],[-122.409245,47.263652],[-122.409127,47.263627]],[[-122.409667,47.26742],[-122.409865,47.267386],[-122.409876,47.267269],[-122.409823,47.267232],[-122.409671,47.267232],[-122.409616,47.267272],[-122.409617,47.267384],[-122.409667,47.26742]],[[-122.412095,47.270121],[-122.412115,47.270076],[-122.412082,47.270041],[-122.412007,47.270032],[-122.411956,47.270055],[-122.411945,47.270097],[-122.411981,47.270134],[-122.41204,47.270144],[-122.412095,47.270121]],[[-122.415734,47.264022],[-122.415731,47.263789],[-122.415686,47.263755],[-122.415602,47.26375],[-122.415568,47.263669],[-122.415339,47.263659],[-122.415311,47.263581],[-122.415153,47.263544],[-122.415076,47.263568],[-122.414854,47.263568],[-122.414803,47.263591],[-122.414817,47.263898],[-122.414871,47.263925],[-122.415072,47.263928],[-122.415094,47.264002],[-122.415203,47.264018],[-122.415207,47.264165],[-122.41525,47.264194],[-122.415333,47.264199],[-122.415367,47.26428],[-122.415547,47.264286],[-122.415591,47.264257],[-122.415597,47.2642],[-122.415706,47.264185],[-122.415766,47.264074],[-122.415734,47.264022]],[[-122.416288,47.275317],[-122.416256,47.275206],[-122.416138,47.275181],[-122.416132,47.275124],[-122.41609,47.275095],[-122.415813,47.27509],[-122.415748,47.275122],[-122.415739,47.2754],[-122.415787,47.275445],[-122.415948,47.275461],[-122.415997,47.27543],[-122.416003,47.27536],[-122.416247,47.275355],[-122.416288,47.275317]],[[-122.417338,47.275952],[-122.417314,47.27585],[-122.417264,47.275819],[-122.417112,47.275818],[-122.417059,47.275854],[-122.417058,47.275957],[-122.41711,47.275993],[-122.417305,47.275987],[-122.417338,47.275952]],[[-122.420971,47.268728],[-122.420968,47.26859],[-122.420934,47.268556],[-122.420615,47.268551],[-122.420573,47.268593],[-122.420558,47.268875],[-122.42062,47.268905],[-122.420924,47.2689],[-122.421002,47.26878],[-122.420971,47.268728]],[[-122.422971,47.267118],[-122.422898,47.267093],[-122.422753,47.26712],[-122.42271,47.267149],[-122.422703,47.267206],[-122.422572,47.267221],[-122.42255,47.267266],[-122.422592,47.267369],[-122.422648,47.267385],[-122.42281,47.26737],[-122.422834,47.267296],[-122.422917,47.267293],[-122.422961,47.267264],[-122.423003,47.267165],[-122.422971,47.267118]]]}},{"type":"Feature","properties":{"id":2,"area_m2":68800,"px":688,"rank":2,"persistent":true},"geometry":{"type":"Polygon","coordinates":[[[-122.407665,47.276127],[-122.407662,47.276217],[-122.402376,47.27619],[-122.402412,47.272951],[-122.402544,47.272951],[-122.402562,47.273022],[-122.402676,47.273042],[-122.40271,47.273123],[-122.402807,47.273133],[-122.402835,47.27321],[-122.402938,47.273223],[-122.402966,47.273301],[-122.403069,47.273314],[-122.403097,47.273392],[-122.4032,47.273405],[-122.403229,47.273482],[-122.403464,47.273496],[-122.403486,47.27357],[-122.403595,47.273587],[-122.403599,47.273733],[-122.403642,47.273763],[-122.403725,47.273767],[-122.40373,47.273914],[-122.403772,47.273943],[-122.403855,47.273948],[-122.403883,47.274026],[-122.404251,47.27404],[-122.404273,47.274114],[-122.404382,47.274131],[-122.404395,47.274197],[-122.404513,47.274221],[-122.404541,47.274299],[-122.404644,47.274312],[-122.404643,47.274402],[-122.40456,47.274406],[-122.404514,47.27444],[-122.40451,47.274532],[-122.404538,47.274569],[-122.404727,47.274605],[-122.404883,47.274567],[-122.404907,47.274493],[-122.405039,47.274494],[-122.405047,47.274645],[-122.405093,47.274672],[-122.405169,47.274675],[-122.405168,47.274765],[-122.405132,47.274807],[-122.405153,47.274846],[-122.405229,47.274879],[-122.4053,47.274855],[-122.405564,47.274857],[-122.405562,47.275037],[-122.405526,47.275084],[-122.405589,47.275204],[-122.405754,47.275242],[-122.405824,47.275218],[-122.406089,47.275219],[-122.406092,47.275271],[-122.40613,47.275303],[-122.406352,47.275311],[-122.40635,47.275491],[-122.40626,47.275496],[-122.406219,47.275533],[-122.406218,47.275626],[-122.406245,47.275658],[-122.40648,47.275671],[-122.406493,47.275737],[-122.406611,47.275762],[-122.406617,47.275819],[-122.406667,47.27585],[-122.407139,47.275855],[-122.407168,47.275932],[-122.407403,47.275946],[-122.407425,47.27602],[-122.407534,47.276037],[-122.407568,47.276118],[-122.407665,47.276127]]]}},{"type":"Feature","properties":{"id":3,"area_m2":54000,"px":540,"rank":3,"persistent":false},"geometry":{"type":"Polygon","coordinates":[[[-122.423686,47.261902],[-122.423649,47.265319],[-122.423518,47.26532],[-122.423509,47.265169],[-122.423462,47.265142],[-122.423386,47.265139],[-122.423379,47.264988],[-122.423332,47.264962],[-122.423256,47.264959],[-122.423248,47.264807],[-122.423202,47.264781],[-122.423126,47.264778],[-122.423118,47.264627],[-122.423071,47.2646],[-122.422996,47.264598],[-122.422988,47.264446],[-122.422941,47.26442],[-122.422865,47.264417],[-122.422831,47.264336],[-122.422734,47.264326],[-122.422706,47.264248],[-122.422603,47.264236],[-122.422575,47.264158],[-122.422472,47.264145],[-122.422444,47.264067],[-122.422341,47.264054],[-122.422324,47.263894],[-122.422271,47.263874],[-122.422078,47.263873],[-122.422056,47.263799],[-122.421947,47.263782],[-122.42193,47.263712],[-122.421816,47.263692],[-122.421781,47.263611],[-122.421685,47.263601],[-122.421656,47.263523],[-122.421553,47.26351],[-122.421525,47.263433],[-122.421422,47.26342],[-122.421423,47.263289],[-122.421395,47.263252],[-122.42116,47.263238],[-122.421147,47.263173],[-122.421029,47.263148],[-122.421023,47.263091],[-122.420981,47.263062],[-122.420765,47.263057],[-122.420754,47.262901],[-122.420635,47.262876],[-122.420601,47.262795],[-122.420504,47.262785],[-122.420504,47.262464],[-122.420459,47.262429],[-122.420376,47.262425],[-122.420375,47.262193],[-122.420329,47.262159],[-122.420246,47.262154],[-122.420244,47.262012],[-122.420199,47.261978],[-122.420116,47.261973],[-122.420117,47.261885],[-122.423686,47.261902]]]}}]}