{"type":"FeatureCollection","features":[{"type":"Feature","properties":{"id":2,"area_m2":1871400,"px":18714,"rank":1,"persistent":true},"geometry":{"type":"Polygon","coordinates":[[[-122.423634,47.26667],[-122.423631,47.26694],[-122.42352,47.266946],[-122.423478,47.266995],[-122.423515,47.2671],[-122.423629,47.26712],[-122.423623,47.26766],[-122.423526,47.267669],[-122.42349,47.267749],[-122.423376,47.267769],[-122.423356,47.267929],[-122.423259,47.267937],[-122.423223,47.267982],[-122.423231,47.26817],[-122.423277,47.268196],[-122.423353,47.268199],[-122.423387,47.26828],[-122.423484,47.268289],[-122.423492,47.268441],[-122.423539,47.268467],[-122.423614,47.26847],[-122.423608,47.2691],[-122.423476,47.269099],[-122.423454,47.268935],[-122.423345,47.268918],[-122.423328,47.268848],[-122.423214,47.268828],[-122.423197,47.268758],[-122.423083,47.268737],[-122.42307,47.268671],[-122.422952,47.268647],[-122.422917,47.268566],[-122.422688,47.268555],[-122.422676,47.268489],[-122.422557,47.268465],[-122.422554,47.268413],[-122.422516,47.268381],[-122.422225,47.268374],[-122.42217,47.268401],[-122.42216,47.268463],[-122.421925,47.268474],[-122.421895,47.268551],[-122.421812,47.268555],[-122.421766,47.268589],[-122.421761,47.268867],[-122.421801,47.268904],[-122.421891,47.268911],[-122.421919,47.268989],[-122.422022,47.269002],[-122.422039,47.269162],[-122.422152,47.269183],[-122.422187,47.269264],[-122.422284,47.269273],[-122.422282,47.26959],[-122.422322,47.269627],[-122.422412,47.269634],[-122.422407,47.270084],[-122.422192,47.270087],[-122.422148,47.270116],[-122.422142,47.270172],[-122.421926,47.270175],[-122.421883,47.270204],[-122.421876,47.270261],[-122.421668,47.270262],[-122.421618,47.270293],[-122.421611,47.270349],[-122.421382,47.270357],[-122.421346,47.270438],[-122.421227,47.270462],[-122.421212,47.270527],[-122.420997,47.270531],[-122.420954,47.27056],[-122.420947,47.270616],[-122.420828,47.27064],[-122.420812,47.270885],[-122.420548,47.270884],[-122.420525,47.27081],[-122.420416,47.270793],[-122.420416,47.270657],[-122.420376,47.27062],[-122.420208,47.270601],[-122.42016,47.270632],[-122.420153,47.270702],[-122.420023,47.270701],[-122.420018,47.27065],[-122.41998,47.270618],[-122.419757,47.27061],[-122.419755,47.270468],[-122.41971,47.270434],[-122.419627,47.270429],[-122.419611,47.270269],[-122.419497,47.270249],[-122.419484,47.270183],[-122.419366,47.270158],[-122.419363,47.270107],[-122.419325,47.270074],[-122.419102,47.270067],[-122.419103,47.269977],[-122.419139,47.269929],[-122.419085,47.269873],[-122.41884,47.269886],[-122.418817,47.269811],[-122.418709,47.269795],[-122.418688,47.269541],[-122.418447,47.269524],[-122.418442,47.269467],[-122.418392,47.269436],[-122.418184,47.269432],[-122.4182,47.269287],[-122.41815,47.269255],[-122.418054,47.269252],[-122.418049,47.269105],[-122.418007,47.269076],[-122.417923,47.269071],[-122.417922,47.268929],[-122.417876,47.268895],[-122.417793,47.26889],[-122.417777,47.26873],[-122.417724,47.26871],[-122.417531,47.268709],[-122.417525,47.268653],[-122.417475,47.268621],[-122.417135,47.268617],[-122.417121,47.268277],[-122.417007,47.268257],[-122.41699,47.268186],[-122.416876,47.268166],[-122.416858,47.268096],[-122.416745,47.268075],[-122.416732,47.268009],[-122.416613,47.267985],[-122.416579,47.267904],[-122.41635,47.267893],[-122.416351,47.267748],[-122.416324,47.267712],[-122.416088,47.267712],[-122.416065,47.267638],[-122.415956,47.267621],[-122.415944,47.267555],[-122.415825,47.267531],[-122.415797,47.267453],[-122.415694,47.26744],[-122.41569,47.267203],[-122.415648,47.267174],[-122.415565,47.267169],[-122.41553,47.267088],[-122.415434,47.267079],[-122.415417,47.266918],[-122.415364,47.266899],[-122.415171,47.266897],[-122.415149,47.266823],[-122.41504,47.266807],[-122.415006,47.266726],[-122.414909,47.266716],[-122.414892,47.266556],[-122.414779,47.266535],[-122.414744,47.266454],[-122.414647,47.266445],[-122.414619,47.266367],[-122.414516,47.266354],[-122.414488,47.266276],[-122.414385,47.266264],[-122.414357,47.266186],[-122.414254,47.266173],[-122.414226,47.266095],[-122.414123,47.266082],[-122.414125,47.265581],[-122.414072,47.265544],[-122.413928,47.265542],[-122.413873,47.26557],[-122.413863,47.265631],[-122.413731,47.26563],[-122.413718,47.2652],[-122.413604,47.26518],[-122.413591,47.265114],[-122.413525,47.265089],[-122.413257,47.265092],[-122.413214,47.265121],[-122.413207,47.265178],[-122.413098,47.265193],[-122.413072,47.265447],[-122.412831,47.265462],[-122.412807,47.265536],[-122.412703,47.265547],[-122.412673,47.265625],[-122.41257,47.265637],[-122.41254,47.265714],[-122.412437,47.265726],[-122.412407,47.265803],[-122.412304,47.265815],[-122.412274,47.265893],[-122.412177,47.265901],[-122.412141,47.265982],[-122.412026,47.266001],[-122.41202,47.266137],[-122.412139,47.266162],[-122.412173,47.266243],[-122.41227,47.266253],[-122.412298,47.266331],[-122.412401,47.266343],[-122.412406,47.26649],[-122.412448,47.26652],[-122.412531,47.266524],[-122.412554,47.266598],[-122.412795,47.266615],[-122.412798,47.266667],[-122.412836,47.266699],[-122.413016,47.2667],[-122.413055,47.266668],[-122.413059,47.266617],[-122.413456,47.266619],[-122.413478,47.266693],[-122.413587,47.266709],[-122.413621,47.26679],[-122.413718,47.2668],[-122.413739,47.266964],[-122.41398,47.266981],[-122.414003,47.267056],[-122.414112,47.267072],[-122.414133,47.267236],[-122.414242,47.267253],[-122.414245,47.267304],[-122.414283,47.267336],[-122.414505,47.267344],[-122.414528,47.267418],[-122.414636,47.267435],[-122.414653,47.267595],[-122.414767,47.267615],[-122.414801,47.267696],[-122.414898,47.267706],[-122.414926,47.267784],[-122.415029,47.267797],[-122.415027,47.268113],[-122.415067,47.26815],[-122.415157,47.268159],[-122.415156,47.268247],[-122.415073,47.268251],[-122.415027,47.268285],[-122.41504,47.268407],[-122.415154,47.268427],[-122.415189,47.268508],[-122.415285,47.268518],[-122.415314,47.268596],[-122.415417,47.268608],[-122.415445,47.268686],[-122.415548,47.268699],[-122.415576,47.268777],[-122.415679,47.26879],[-122.415707,47.268868],[-122.41581,47.26888],[-122.415838,47.268958],[-122.415941,47.268971],[-122.415953,47.269127],[-122.416072,47.269152],[-122.416106,47.269233],[-122.416203,47.269242],[-122.416231,47.26932],[-122.416334,47.269333],[-122.416362,47.269411],[-122.416465,47.269424],[-122.416493,47.269502],[-122.416993,47.269516],[-122.417001,47.269668],[-122.417047,47.269694],[-122.417123,47.269697],[-122.417117,47.269946],[-122.417252,47.269968],[-122.417275,47.270042],[-122.417384,47.270058],[-122.417418,47.270139],[-122.417515,47.270149],[-122.417514,47.27028],[-122.417542,47.270317],[-122.417777,47.27033],[-122.41781,47.270424],[-122.418041,47.270422],[-122.418063,47.270496],[-122.418172,47.270512],[-122.418171,47.270602],[-122.418135,47.27065],[-122.418183,47.270758],[-122.418301,47.270783],[-122.418336,47.270864],[-122.418432,47.270873],[-122.418461,47.270951],[-122.418564,47.270964],[-122.418592,47.271042],[-122.418695,47.271055],[-122.418723,47.271133],[-122.418826,47.271145],[-122.418848,47.27122],[-122.419041,47.271232],[-122.419084,47.271203],[-122.419091,47.271147],[-122.419487,47.271149],[-122.419486,47.271239],[-122.419271,47.271242],[-122.419227,47.271271],[-122.419221,47.271327],[-122.419106,47.271346],[-122.41909,47.271468],[-122.41915,47.271506],[-122.419351,47.271508],[-122.419373,47.271582],[-122.419482,47.271599],[-122.41949,47.27175],[-122.419536,47.271776],[-122.419612,47.271779],[-122.419612,47.272101],[-122.419657,47.272135],[-122.419741,47.27214],[-122.41974,47.27223],[-122.419704,47.272277],[-122.419744,47.272376],[-122.419787,47.272406],[-122.41987,47.27241],[-122.419904,47.272491],[-122.420001,47.272501],[-122.420029,47.272579],[-122.420132,47.272592],[-122.42014,47.272743],[-122.420187,47.27277],[-122.420262,47.272772],[-122.42026,47.273042],[-122.420184,47.273044],[-122.420136,47.27307],[-122.420125,47.273221],[-122.420035,47.273227],[-122.419994,47.273264],[-122.41999,47.273491],[-122.419893,47.273499],[-122.419857,47.27358],[-122.419781,47.273582],[-122.419734,47.273608],[-122.419722,47.273849],[-122.419625,47.273858],[-122.419589,47.273939],[-122.419513,47.273941],[-122.419466,47.273967],[-122.419454,47.274208],[-122.419378,47.27421],[-122.41933,47.274236],[-122.419319,47.274387],[-122.419243,47.274389],[-122.419196,47.274415],[-122.419185,47.274566],[-122.419066,47.27459],[-122.419051,47.274746],[-122.418968,47.274749],[-122.418922,47.274783],[-122.418917,47.274925],[-122.418834,47.274929],[-122.41879,47.274958],[-122.418783,47.275104],[-122.418699,47.275108],[-122.418656,47.275137],[-122.418647,47.275374],[-122.418533,47.275393],[-122.418513,47.275553],[-122.418423,47.275559],[-122.418382,47.275596],[-122.418377,47.275912],[-122.418136,47.275927],[-122.418111,47.276091],[-122.418002,47.276106],[-122.417978,47.27618],[-122.417859,47.276203],[-122.417844,47.276269],[-122.417712,47.276269],[-122.41765,47.276244],[-122.417578,47.276268],[-122.417051,47.276265],[-122.416989,47.276241],[-122.416919,47.276265],[-122.416522,47.276263],[-122.416523,47.276173],[-122.416632,47.276157],[-122.416657,47.276083],[-122.416849,47.276084],[-122.416903,47.276065],[-122.416923,47.275905],[-122.417055,47.275906],[-122.417089,47.275987],[-122.417318,47.275997],[-122.417347,47.276075],[-122.417497,47.276101],[-122.417576,47.276068],[-122.41758,47.275946],[-122.417535,47.275912],[-122.417452,47.275907],[-122.417417,47.275826],[-122.417321,47.275817],[-122.417292,47.275739],[-122.417189,47.275726],[-122.417155,47.275645],[-122.416926,47.275635],[-122.416904,47.275471],[-122.416796,47.275454],[-122.416783,47.275388],[-122.416665,47.275364],[-122.416662,47.275312],[-122.416623,47.27528],[-122.416401,47.275272],[-122.416384,47.275202],[-122.41627,47.275182],[-122.416253,47.275111],[-122.416139,47.275091],[-122.416126,47.275025],[-122.41606,47.275001],[-122.415924,47.275004],[-122.415881,47.275033],[-122.415874,47.27509],[-122.415674,47.27509],[-122.415611,47.275132],[-122.415621,47.275244],[-122.41574,47.275269],[-122.415733,47.276035],[-122.415773,47.276073],[-122.415863,47.276079],[-122.415862,47.276169],[-122.415753,47.276185],[-122.415729,47.276259],[-122.410044,47.276229],[-122.410046,47.275913],[-122.410006,47.275876],[-122.409916,47.275868],[-122.409919,47.275599],[-122.410023,47.275595],[-122.410071,47.275555],[-122.410048,47.275363],[-122.40999,47.27533],[-122.40979,47.275328],[-122.409768,47.275164],[-122.409527,47.275147],[-122.409505,47.275073],[-122.409396,47.275056],[-122.409388,47.274905],[-122.409342,47.274878],[-122.409266,47.274876],[-122.40925,47.274715],[-122.409136,47.274695],[-122.409157,47.274571],[-122.409135,47.274532],[-122.408922,47.274518],[-122.408879,47.274547],[-122.408872,47.274604],[-122.408343,47.274601],[-122.408326,47.274531],[-122.408212,47.27451],[-122.408178,47.274429],[-122.408081,47.27442],[-122.408053,47.274342],[-122.407818,47.274328],[-122.407802,47.274155],[-122.407743,47.274134],[-122.407555,47.274147],[-122.407543,47.273991],[-122.407425,47.273966],[-122.407391,47.273885],[-122.407294,47.273876],[-122.407286,47.273724],[-122.407239,47.273698],[-122.407164,47.273695],[-122.407165,47.273605],[-122.4072,47.273558],[-122.407153,47.273449],[-122.407095,47.273425],[-122.406902,47.273424],[-122.406905,47.273017],[-122.406865,47.27298],[-122.406775,47.272973],[-122.406763,47.272817],[-122.406645,47.272793],[-122.406642,47.272741],[-122.406604,47.272709],[-122.406381,47.272701],[-122.406359,47.272627],[-122.40625,47.272611],[-122.406246,47.272464],[-122.406203,47.272434],[-122.40612,47.27243],[-122.406092,47.272352],[-122.405857,47.272339],[-122.405834,47.272264],[-122.405725,47.272248],[-122.405726,47.272117],[-122.405698,47.27208],[-122.405463,47.272067],[-122.405441,47.271992],[-122.405332,47.271976],[-122.405333,47.271845],[-122.405305,47.271808],[-122.405069,47.271795],[-122.405047,47.27172],[-122.404938,47.271704],[-122.404918,47.27145],[-122.404809,47.271433],[-122.4048,47.271372],[-122.404739,47.271343],[-122.403753,47.271338],[-122.403735,47.271267],[-122.403621,47.271247],[-122.403587,47.271166],[-122.40349,47.271156],[-122.403462,47.271079],[-122.403359,47.271066],[-122.403331,47.270988],[-122.403228,47.270975],[-122.4032,47.270897],[-122.403097,47.270884],[-122.403068,47.270807],[-122.402833,47.270793],[-122.402811,47.270719],[-122.402702,47.270702],[-122.40269,47.270546],[-122.402572,47.270522],[-122.402575,47.270252],[-122.402672,47.270243],[-122.402708,47.270163],[-122.402827,47.270139],[-122.402842,47.269983],[-122.403058,47.26998],[-122.403101,47.269951],[-122.403108,47.269895],[-122.403217,47.269879],[-122.403241,47.269769],[-122.403207,47.269724],[-122.40311,47.269715],[-122.403082,47.269637],[-122.402932,47.269601],[-122.402846,47.269623],[-122.40245,47.269621],[-122.402538,47.261793],[-122.407294,47.261818],[-122.407309,47.261884],[-122.407374,47.261908],[-122.407524,47.2619],[-122.407562,47.261819],[-122.418927,47.261878],[-122.41895,47.261952],[-122.419059,47.261968],[-122.419093,47.262049],[-122.41919,47.262059],[-122.419206,47.262219],[-122.41932,47.262239],[-122.419354,47.26232],[-122.419451,47.26233],[-122.419479,47.262408],[-122.419582,47.262421],[-122.419594,47.262577],[-122.419713,47.262601],[-122.419747,47.262682],[-122.419844,47.262692],[-122.419856,47.262848],[-122.419974,47.262873],[-122.420008,47.262954],[-122.420105,47.262963],[-122.420117,47.263119],[-122.420235,47.263144],[-122.42027,47.263225],[-122.420367,47.263235],[-122.420378,47.263391],[-122.420497,47.263415],[-122.420531,47.263496],[-122.420628,47.263506],[-122.42064,47.263662],[-122.420758,47.263687],[-122.420793,47.263768],[-122.420889,47.263777],[-122.420901,47.263933],[-122.42102,47.263958],[-122.421054,47.264039],[-122.421151,47.264048],[-122.421163,47.264204],[-122.421281,47.264229],[-122.421316,47.26431],[-122.421412,47.26432],[-122.421424,47.264476],[-122.421542,47.2645],[-122.421577,47.264581],[-122.421674,47.264591],[-122.421685,47.264747],[-122.421804,47.264772],[-122.421838,47.264853],[-122.421935,47.264862],[-122.421947,47.265018],[-122.422065,47.265043],[-122.4221,47.265124],[-122.422197,47.265134],[-122.422208,47.265289],[-122.422327,47.265314],[-122.422361,47.265395],[-122.422458,47.265405],[-122.42247,47.265561],[-122.422588,47.265585],[-122.422623,47.265666],[-122.422719,47.265676],[-122.422731,47.265832],[-122.42285,47.265857],[-122.422884,47.265938],[-122.422981,47.265947],[-122.422993,47.266103],[-122.423111,47.266128],[-122.423146,47.266209],[-122.423242,47.266219],[-122.423254,47.266375],[-122.423373,47.266399],[-122.423407,47.26648],[-122.423504,47.26649],[-122.423512,47.266641],[-122.423558,47.266668],[-122.423634,47.26667]],[[-122.403397,47.269401],[-122.403365,47.26929],[-122.403247,47.269266],[-122.403244,47.269214],[-122.403206,47.269182],[-122.403047,47.269176],[-122.402993,47.269203],[-122.40297,47.269324],[-122.403017,47.269352],[-122.403114,47.269355],[-122.403117,47.269407],[-122.403155,47.269439],[-122.403356,47.269439],[-122.403397,47.269401]],[[-122.403731,47.269544],[-122.403563,47.269526],[-122.403511,47.269562],[-122.403504,47.269897],[-122.403407,47.269905],[-122.403371,47.269986],[-122.403252,47.270009],[-122.403253,47.270158],[-122.40314,47.270174],[-122.403104,47.270255],[-122.40302,47.270258],[-122.402977,47.270287],[-122.402971,47.270404],[-122.403016,47.270443],[-122.403211,47.270419],[-122.403235,47.270345],[-122.403318,47.270342],[-122.403361,47.270313],[-122.403353,47.270174],[-122.403472,47.270154],[-122.403502,47.270077],[-122.403599,47.270068],[-122.403636,47.269988],[-122.403719,47.269984],[-122.403762,47.269955],[-122.403771,47.269582],[-122.403731,47.269544]],[[-122.404215,47.265491],[-122.404298,47.265488],[-122.404341,47.265459],[-122.404348,47.265361],[-122.404314,47.265321],[-122.403855,47.265319],[-122.403819,47.265399],[-122.403716,47.265411],[-122.403686,47.265488],[-122.403589,47.265497],[-122.403553,47.265578],[-122.403434,47.265601],[-122.403418,47.265757],[-122.403322,47.265766],[-122.403285,47.265846],[-122.403166,47.26587],[-122.403165,47.266002],[-122.403215,47.266025],[-122.403415,47.266027],[-122.403477,47.266051],[-122.403645,47.266019],[-122.403681,47.265938],[-122.403784,47.265927],[-122.403814,47.265849],[-122.403917,47.265837],[-122.403947,47.26576],[-122.404044,47.265751],[-122.404081,47.265671],[-122.4042,47.265647],[-122.404215,47.265491]],[[-122.409293,47.263766],[-122.40924,47.263647],[-122.409127,47.263627],[-122.409114,47.263561],[-122.408995,47.263536],[-122.408961,47.263455],[-122.408664,47.263446],[-122.408601,47.263488],[-122.408598,47.263624],[-122.408501,47.263633],[-122.408465,47.263714],[-122.40835,47.263733],[-122.408298,47.263861],[-122.408343,47.263959],[-122.408462,47.263984],[-122.408464,47.264035],[-122.408503,47.264067],[-122.408655,47.264099],[-122.408725,47.264075],[-122.408926,47.264075],[-122.40898,47.264048],[-122.40899,47.263986],[-122.409105,47.263967],[-122.409124,47.263897],[-122.409243,47.263874],[-122.409293,47.263766]],[[-122.409207,47.271414],[-122.409164,47.271304],[-122.40911,47.271277],[-122.408841,47.271275],[-122.408778,47.271317],[-122.408793,47.271434],[-122.408907,47.271455],[-122.408942,47.271536],[-122.409079,47.271559],[-122.409168,47.271521],[-122.409207,47.271414]],[[-122.40966,47.267432],[-122.409865,47.267386],[-122.409876,47.267269],[-122.409823,47.267232],[-122.409671,47.267232],[-122.409621,47.267262],[-122.409581,47.267377],[-122.40966,47.267432]],[[-122.412147,47.270211],[-122.41222,47.270178],[-122.412226,47.270075],[-122.412186,47.270038],[-122.412096,47.270031],[-122.412068,47.269953],[-122.41178,47.26994],[-122.411718,47.269959],[-122.411705,47.270086],[-122.411747,47.270115],[-122.41183,47.27012],[-122.411859,47.270198],[-122.412147,47.270211]],[[-122.414587,47.264371],[-122.414741,47.264388],[-122.414793,47.264361],[-122.414798,47.264229],[-122.41474,47.264197],[-122.414568,47.264199],[-122.414519,47.264245],[-122.414544,47.264341],[-122.414587,47.264371]],[[-122.415731,47.264111],[-122.415814,47.264107],[-122.41586,47.264073],[-122.415842,47.263857],[-122.415601,47.26384],[-122.415584,47.26377],[-122.41547,47.26375],[-122.415453,47.263679],[-122.415339,47.263659],[-122.415322,47.263589],[-122.415208,47.263568],[-122.415195,47.263502],[-122.415077,47.263478],[-122.415074,47.263426],[-122.415036,47.263394],[-122.414876,47.263363],[-122.414704,47.263402],[-122.414644,47.263518],[-122.414679,47.263566],[-122.414678,47.263656],[-122.414642,47.263703],[-122.41468,47.263797],[-122.414725,47.263832],[-122.414808,47.263836],[-122.414843,47.263917],[-122.414939,47.263927],[-122.414968,47.264005],[-122.415071,47.264018],[-122.415092,47.264182],[-122.415201,47.264198],[-122.415204,47.26425],[-122.415242,47.264282],[-122.415409,47.264313],[-122.415573,47.264274],[-122.415597,47.2642],[-122.415716,47.264177],[-122.415731,47.264111]],[[-122.416448,47.262758],[-122.416601,47.262779],[-122.416658,47.262755],[-122.416671,47.262629],[-122.416624,47.26259],[-122.41647,47.262572],[-122.416411,47.262609],[-122.416408,47.262721],[-122.416448,47.262758]],[[-122.417465,47.26263],[-122.417404,47.262577],[-122.417236,47.262598],[-122.417201,47.262637],[-122.417213,47.262745],[-122.417372,47.262783],[-122.41743,47.262774],[-122.417463,47.26274],[-122.417465,47.26263]],[[-122.417759,47.263122],[-122.417927,47.263145],[-122.41798,47.263117],[-122.417981,47.262981],[-122.417934,47.262955],[-122.417858,47.262952],[-122.417855,47.2629],[-122.417817,47.262868],[-122.417637,47.262867],[-122.417596,47.262904],[-122.417603,47.263012],[-122.417649,47.263038],[-122.417725,47.263041],[-122.417759,47.263122]],[[-122.419064,47.264546],[-122.419009,47.264413],[-122.4189,47.264397],[-122.418901,47.264266],[-122.418867,47.264226],[-122.418577,47.264216],[-122.418518,47.264239],[-122.418513,47.264366],[-122.41856,47.264393],[-122.418635,47.264396],[-122.41867,47.264477],[-122.418767,47.264486],[-122.418801,47.264567],[-122.418998,47.264596],[-122.419064,47.264546]],[[-122.419706,47.264986],[-122.419665,47.264867],[-122.419509,47.264827],[-122.419443,47.264836],[-122.41939,47.264881],[-122.419428,47.264996],[-122.419478,47.265027],[-122.419672,47.265021],[-122.419706,47.264986]],[[-122.420132,47.265507],[-122.420286,47.265481],[-122.420333,47.265455],[-122.420326,47.265324],[-122.42028,47.265305],[-122.420064,47.265295],[-122.420063,47.265142],[-122.41995,47.265122],[-122.419947,47.26507],[-122.419909,47.265038],[-122.41972,47.265027],[-122.419686,47.265066],[-122.419691,47.265177],[-122.419733,47.265207],[-122.419816,47.265211],[-122.419851,47.265292],[-122.419964,47.26531],[-122.419964,47.265462],[-122.420132,47.265507]],[[-122.420171,47.269082],[-122.420136,47.269119],[-122.42015,47.26916],[-122.42021,47.269186],[-122.420268,47.269177],[-122.420301,47.269143],[-122.42029,47.269094],[-122.420234,47.269069],[-122.420171,47.269082]],[[-122.421076,47.269247],[-122.421117,47.269048],[-122.421095,47.269014],[-122.420965,47.268996],[-122.420967,47.268817],[-122.421003,47.268769],[-122.420968,47.268727],[-122.420956,47.268571],[-122.420775,47.268522],[-122.420608,47.268554],[-122.420574,47.268588],[-122.42057,47.268815],[-122.420534,47.268857],[-122.420582,47.268971],[-122.4207,47.268995],[-122.420735,47.269076],[-122.420832,47.269086],[-122.420832,47.269222],[-122.420886,47.269264],[-122.421022,47.269267],[-122.421076,47.269247]],[[-122.421574,47.269274],[-122.421413,47.269245],[-122.421249,47.269284],[-122.421226,47.269322],[-122.421248,47.269432],[-122.421419,47.269473],[-122.421598,47.269434],[-122.421616,47.269303],[-122.421574,47.269274]],[[-122.423003,47.267165],[-122.422963,47.26706],[-122.422927,47.267033],[-122.42274,47.267035],[-122.422704,47.267116],[-122.422607,47.267124],[-122.422571,47.267205],[-122.422495,47.267207],[-122.422448,47.267233],[-122.42245,47.26736],[-122.422631,47.267409],[-122.422798,47.267377],[-122.422834,47.267296],[-122.422917,47.267293],[-122.422961,47.267264],[-122.423003,47.267165]],[[-122.423222,47.267535],[-122.423248,47.267433],[-122.423215,47.267398],[-122.423022,47.26739],[-122.422971,47.26742],[-122.422946,47.267527],[-122.423007,47.267566],[-122.423171,47.267566],[-122.423222,47.267535]]]}},{"type":"Feature","properties":{"id":3,"area_m2":70000,"px":700,"rank":2,"persistent":true},"geometry":{"type":"Polygon","coordinates":[[[-122.407533,47.276127],[-122.40753,47.276217],[-122.406344,47.27621],[-122.40628,47.276186],[-122.406208,47.27621],[-122.402376,47.27619],[-122.402412,47.272951],[-122.402544,47.272951],[-122.402543,47.273083],[-122.402578,47.273122],[-122.402807,47.273133],[-122.402806,47.273264],[-122.402834,47.2733],[-122.403069,47.273314],[-122.403086,47.273384],[-122.4032,47.273405],[-122.403218,47.273475],[-122.403332,47.273495],[-122.403344,47.273561],[-122.403463,47.273586],[-122.403497,47.273667],[-122.403726,47.273677],[-122.403728,47.273819],[-122.403773,47.273853],[-122.403856,47.273858],[-122.403855,47.274003],[-122.403882,47.274039],[-122.404383,47.274041],[-122.404406,47.274115],[-122.404514,47.274131],[-122.404549,47.274212],[-122.404645,47.274222],[-122.404644,47.274312],[-122.404609,47.274359],[-122.404643,47.274402],[-122.404622,47.274531],[-122.404649,47.274569],[-122.40485,47.274581],[-122.4049,47.27455],[-122.404907,47.274493],[-122.405039,47.274494],[-122.405062,47.274568],[-122.40517,47.274585],[-122.405168,47.274806],[-122.405196,47.274842],[-122.405696,47.274857],[-122.405672,47.275161],[-122.405694,47.275201],[-122.405751,47.275218],[-122.406221,47.27522],[-122.406243,47.275294],[-122.406352,47.275311],[-122.406364,47.275467],[-122.406482,47.275491],[-122.406504,47.275656],[-122.406612,47.275672],[-122.406625,47.275738],[-122.406744,47.275763],[-122.406749,47.275819],[-122.406792,47.275849],[-122.407139,47.275855],[-122.407162,47.275929],[-122.40727,47.275945],[-122.407283,47.276011],[-122.407402,47.276036],[-122.40743,47.276114],[-122.407533,47.276127]]]}},{"type":"Feature","properties":{"id":4,"area_m2":16000,"px":160,"rank":3,"persistent":true},"geometry":{"type":"Polygon","coordinates":[[[-122.423684,47.262082],[-122.423667,47.263611],[-122.423535,47.26361],[-122.423514,47.263446],[-122.423405,47.26343],[-122.423382,47.263356],[-122.423274,47.263339],[-122.423251,47.263265],[-122.423143,47.263248],[-122.42312,47.263174],[-122.423011,47.263158],[-122.422989,47.263084],[-122.42288,47.263067],[-122.422858,47.262993],[-122.422749,47.262977],[-122.422726,47.262902],[-122.422618,47.262886],[-122.4226,47.262816],[-122.422487,47.262795],[-122.422452,47.262714],[-122.422355,47.262705],[-122.422327,47.262627],[-122.422224,47.262614],[-122.422196,47.262536],[-122.422093,47.262523],[-122.422065,47.262446],[-122.421962,47.262433],[-122.421933,47.262355],[-122.421831,47.262342],[-122.421819,47.262186],[-122.4217,47.262161],[-122.421666,47.26208],[-122.421569,47.262071],[-122.421571,47.261891],[-122.423421,47.2619],[-122.423444,47.261974],[-122.423553,47.261991],[-122.423587,47.262072],[-122.423684,47.262082]]]}},{"type":"Feature","properties":{"id":1,"area_m2":500,"px":5,"rank":4,"persistent":false},"geometry":{"type":"Polygon","coordinates":[[[-122.419564,47.276188],[-122.419563,47.276278],[-122.418902,47.276275],[-122.418903,47.276185],[-122.419564,47.276188]]]}}]}