{"type":"FeatureCollection","features":[{"type":"Feature","properties":{"id":33,"area_m2":34800,"px":348,"rank":1},"geometry":{"type":"Polygon","coordinates":[[[-122.408656,47.270283],[-122.408654,47.270463],[-122.408545,47.270479],[-122.408487,47.270584],[-122.408519,47.270733],[-122.408422,47.270741],[-122.408385,47.270822],[-122.408266,47.270845],[-122.408251,47.271001],[-122.407987,47.271],[-122.407978,47.270938],[-122.407924,47.270911],[-122.407787,47.27091],[-122.407729,47.270942],[-122.407721,47.271088],[-122.407686,47.271131],[-122.40772,47.271178],[-122.407718,47.2714],[-122.407759,47.271442],[-122.40785,47.271449],[-122.407848,47.271629],[-122.407715,47.271628],[-122.407653,47.271604],[-122.407583,47.271628],[-122.407319,47.271626],[-122.407291,47.271548],[-122.407056,47.271535],[-122.407047,47.271473],[-122.406985,47.271445],[-122.406827,47.271453],[-122.406791,47.271534],[-122.406567,47.271526],[-122.40653,47.271557],[-122.406526,47.271622],[-122.406394,47.271621],[-122.406385,47.27156],[-122.406331,47.271532],[-122.405998,47.271529],[-122.405999,47.27144],[-122.406035,47.271392],[-122.405994,47.271293],[-122.405937,47.27126],[-122.405737,47.271258],[-122.405739,47.271078],[-122.405871,47.271079],[-122.405876,47.271136],[-122.405926,47.271167],[-122.40607,47.271169],[-122.406121,47.271146],[-122.406144,47.271015],[-122.406101,47.270993],[-122.406004,47.27099],[-122.405981,47.270915],[-122.405873,47.270899],[-122.405859,47.270637],[-122.405997,47.270619],[-122.406041,47.270724],[-122.406215,47.270718],[-122.406266,47.270688],[-122.406292,47.270602],[-122.406245,47.270545],[-122.40602,47.270551],[-122.405968,47.270456],[-122.405774,47.270461],[-122.405745,47.270497],[-122.40576,47.270621],[-122.40566,47.270632],[-122.405614,47.270666],[-122.405608,47.270897],[-122.405476,47.270897],[-122.405472,47.27075],[-122.405429,47.270721],[-122.405346,47.270716],[-122.405343,47.270665],[-122.405305,47.270632],[-122.404818,47.270623],[-122.404819,47.270534],[-122.404916,47.270532],[-122.404967,47.2705],[-122.404953,47.270354],[-122.405218,47.270356],[-122.405288,47.27038],[-122.40535,47.270356],[-122.40555,47.270356],[-122.405601,47.270334],[-122.405615,47.270131],[-122.405575,47.270094],[-122.405485,47.270087],[-122.405487,47.269907],[-122.405606,47.269884],[-122.405621,47.269728],[-122.405705,47.269724],[-122.405751,47.26969],[-122.405756,47.269549],[-122.405865,47.269533],[-122.405889,47.269459],[-122.406008,47.269436],[-122.406022,47.26937],[-122.406286,47.269371],[-122.406348,47.269396],[-122.406419,47.269372],[-122.406551,47.269373],[-122.40655,47.269463],[-122.406514,47.26951],[-122.406583,47.269634],[-122.407076,47.269645],[-122.407079,47.269697],[-122.407118,47.269729],[-122.40734,47.269737],[-122.407374,47.269818],[-122.407603,47.269828],[-122.407609,47.269885],[-122.407659,47.269916],[-122.407867,47.269919],[-122.407872,47.269976],[-122.407915,47.270006],[-122.40813,47.270011],[-122.408135,47.270067],[-122.408178,47.270097],[-122.408393,47.270102],[-122.408416,47.270176],[-122.408525,47.270193],[-122.408559,47.270274],[-122.408656,47.270283]],[[-122.406663,47.271442],[-122.406695,47.271406],[-122.40668,47.271366],[-122.406621,47.27134],[-122.406557,47.271351],[-122.406529,47.271387],[-122.406545,47.271436],[-122.406604,47.271456],[-122.406663,47.271442]],[[-122.407026,47.270986],[-122.407081,47.270855],[-122.407028,47.270817],[-122.406842,47.270815],[-122.406781,47.270853],[-122.406803,47.27096],[-122.406853,47.270992],[-122.407026,47.270986]],[[-122.407199,47.270364],[-122.407146,47.270342],[-122.407087,47.270352],[-122.407049,47.270394],[-122.407064,47.270435],[-122.407119,47.270455],[-122.407192,47.270443],[-122.40722,47.270406],[-122.407199,47.270364]],[[-122.40746,47.271089],[-122.407402,47.271073],[-122.407342,47.271093],[-122.407325,47.271141],[-122.407352,47.271177],[-122.407416,47.27119],[-122.407476,47.271164],[-122.407491,47.271124],[-122.40746,47.271089]]]}},{"type":"Feature","properties":{"id":20,"area_m2":20700,"px":207,"rank":2},"geometry":{"type":"Polygon","coordinates":[[[-122.418021,47.272221],[-122.41802,47.272311],[-122.417937,47.272315],[-122.417891,47.272349],[-122.417886,47.27249],[-122.417622,47.272489],[-122.417619,47.272424],[-122.417575,47.27239],[-122.417226,47.272397],[-122.417199,47.272306],[-122.417143,47.272293],[-122.417085,47.272311],[-122.417059,47.272354],[-122.41711,47.272404],[-122.417098,47.272543],[-122.417156,47.272576],[-122.417356,47.272578],[-122.417354,47.272757],[-122.416991,47.272752],[-122.416957,47.272791],[-122.416955,47.272935],[-122.416691,47.272934],[-122.416692,47.272708],[-122.416652,47.27267],[-122.416562,47.272663],[-122.416555,47.272422],[-122.416493,47.272393],[-122.416324,47.272408],[-122.416264,47.272535],[-122.416298,47.272572],[-122.416306,47.272724],[-122.416353,47.27275],[-122.416429,47.272753],[-122.416428,47.272843],[-122.416392,47.27289],[-122.416427,47.272933],[-122.416428,47.273164],[-122.416488,47.273202],[-122.416688,47.273204],[-122.416687,47.273293],[-122.416458,47.273302],[-122.416422,47.273383],[-122.416303,47.273406],[-122.416288,47.273472],[-122.416156,47.273471],[-122.416151,47.273415],[-122.416101,47.273383],[-122.415893,47.27338],[-122.415893,47.273243],[-122.415853,47.273206],[-122.415498,47.273198],[-122.415476,47.273124],[-122.415367,47.273107],[-122.41535,47.273037],[-122.415236,47.273017],[-122.415202,47.272936],[-122.415105,47.272926],[-122.415077,47.272848],[-122.414974,47.272835],[-122.414975,47.272745],[-122.415196,47.272745],[-122.415254,47.272712],[-122.415243,47.272387],[-122.415825,47.27239],[-122.415886,47.27237],[-122.415896,47.272239],[-122.41585,47.272212],[-122.415774,47.27221],[-122.415776,47.27203],[-122.415976,47.27203],[-122.416031,47.272002],[-122.416044,47.271671],[-122.416308,47.271672],[-122.41637,47.271697],[-122.416441,47.271673],[-122.416665,47.271681],[-122.416705,47.271639],[-122.416708,47.271405],[-122.41684,47.271405],[-122.416849,47.271467],[-122.416903,47.271494],[-122.417236,47.271497],[-122.417251,47.271747],[-122.417365,47.271768],[-122.41737,47.271824],[-122.41742,47.271856],[-122.41776,47.27186],[-122.417766,47.272191],[-122.41782,47.272219],[-122.418021,47.272221]],[[-122.416165,47.27248],[-122.416113,47.272458],[-122.416054,47.272468],[-122.416015,47.27251],[-122.416031,47.27255],[-122.416085,47.272571],[-122.416159,47.272559],[-122.416187,47.272521],[-122.416165,47.27248]]]}},{"type":"Feature","properties":{"id":5,"area_m2":15100,"px":151,"rank":3},"geometry":{"type":"Polygon","coordinates":[[[-122.41521,47.275356],[-122.415207,47.275626],[-122.415098,47.275641],[-122.415074,47.275715],[-122.414851,47.275721],[-122.414813,47.275752],[-122.414808,47.275804],[-122.414544,47.275803],[-122.414545,47.275713],[-122.414635,47.275707],[-122.414676,47.27567],[-122.41468,47.275443],[-122.414764,47.27544],[-122.41481,47.275406],[-122.414801,47.275288],[-122.414751,47.275265],[-122.41455,47.275263],[-122.414488,47.275238],[-122.414418,47.275262],[-122.414286,47.275261],[-122.414283,47.27521],[-122.414245,47.275178],[-122.414022,47.27517],[-122.41401,47.275104],[-122.413891,47.275079],[-122.413863,47.275002],[-122.413628,47.274988],[-122.413605,47.274914],[-122.413496,47.274897],[-122.413497,47.274747],[-122.413458,47.27471],[-122.413236,47.274733],[-122.413213,47.274772],[-122.413232,47.274896],[-122.413123,47.274911],[-122.413099,47.274985],[-122.41298,47.275009],[-122.412965,47.275075],[-122.412701,47.275073],[-122.412679,47.274999],[-122.41257,47.274983],[-122.412571,47.274893],[-122.412806,47.274882],[-122.412836,47.274804],[-122.412912,47.274802],[-122.412959,47.274776],[-122.412969,47.274668],[-122.412929,47.274631],[-122.412838,47.274624],[-122.41286,47.274495],[-122.412826,47.274454],[-122.412646,47.274419],[-122.412576,47.274443],[-122.412444,47.274442],[-122.412445,47.274352],[-122.412528,47.274349],[-122.412574,47.274315],[-122.412579,47.274118],[-122.412518,47.27407],[-122.412316,47.274082],[-122.412319,47.273812],[-122.412581,47.273797],[-122.412604,47.273757],[-122.412585,47.273633],[-122.412717,47.273634],[-122.412726,47.273695],[-122.41278,47.273723],[-122.413113,47.273726],[-122.413135,47.2738],[-122.413244,47.273816],[-122.413257,47.273882],[-122.413375,47.273907],[-122.413403,47.273985],[-122.413506,47.273998],[-122.413511,47.274144],[-122.413553,47.274174],[-122.413636,47.274178],[-122.413665,47.274256],[-122.414032,47.27427],[-122.414055,47.274345],[-122.414163,47.274361],[-122.414165,47.274503],[-122.41421,47.274537],[-122.414294,47.274542],[-122.414293,47.274632],[-122.4141,47.274631],[-122.414041,47.274654],[-122.414043,47.274881],[-122.414097,47.2749],[-122.414366,47.2749],[-122.414421,47.274859],[-122.414424,47.274722],[-122.41482,47.274724],[-122.414819,47.274814],[-122.414736,47.274818],[-122.414693,47.274847],[-122.414692,47.27496],[-122.414734,47.27499],[-122.414817,47.274994],[-122.41482,47.275059],[-122.414864,47.275094],[-122.415081,47.275086],[-122.415082,47.275317],[-122.415127,47.275352],[-122.41521,47.275356]],[[-122.412973,47.274445],[-122.412937,47.274482],[-122.412952,47.274522],[-122.413012,47.274548],[-122.41307,47.274539],[-122.413103,47.274506],[-122.413092,47.274456],[-122.413036,47.274432],[-122.412973,47.274445]],[[-122.413703,47.274526],[-122.413549,47.274542],[-122.413506,47.274571],[-122.413479,47.274667],[-122.413526,47.274713],[-122.413699,47.274718],[-122.413757,47.274686],[-122.413756,47.274554],[-122.413703,47.274526]]]}},{"type":"Feature","properties":{"id":15,"area_m2":15000,"px":150,"rank":4},"geometry":{"type":"Polygon","coordinates":[[[-122.419329,47.273488],[-122.419327,47.273667],[-122.418938,47.273678],[-122.41891,47.273716],[-122.418929,47.273845],[-122.418853,47.273847],[-122.418806,47.273873],[-122.418794,47.274025],[-122.418572,47.27403],[-122.418533,47.274062],[-122.418529,47.274113],[-122.418299,47.274108],[-122.418265,47.274147],[-122.418263,47.274292],[-122.418131,47.274291],[-122.418118,47.274225],[-122.418052,47.274201],[-122.417902,47.274209],[-122.417866,47.27429],[-122.417734,47.274289],[-122.417713,47.274035],[-122.417473,47.274018],[-122.417438,47.273937],[-122.417209,47.273927],[-122.417187,47.273852],[-122.417078,47.273836],[-122.41708,47.273656],[-122.417156,47.273654],[-122.417203,47.273628],[-122.417214,47.273477],[-122.417323,47.273461],[-122.417347,47.273387],[-122.417589,47.273373],[-122.417614,47.273209],[-122.417723,47.273194],[-122.417747,47.27312],[-122.417866,47.273096],[-122.41788,47.27303],[-122.418073,47.273031],[-122.418131,47.273007],[-122.418146,47.272852],[-122.418543,47.272854],[-122.418565,47.272928],[-122.418674,47.272944],[-122.418687,47.27301],[-122.418805,47.273035],[-122.418834,47.273113],[-122.418936,47.273126],[-122.418953,47.273286],[-122.419067,47.273306],[-122.419101,47.273387],[-122.419198,47.273397],[-122.419226,47.273475],[-122.419329,47.273488]]]}},{"type":"Feature","properties":{"id":38,"area_m2":9900,"px":99,"rank":5},"geometry":{"type":"Polygon","coordinates":[[[-122.416584,47.270684],[-122.416583,47.270774],[-122.416486,47.270783],[-122.41645,47.270827],[-122.416462,47.270929],[-122.416581,47.270954],[-122.41658,47.271044],[-122.416471,47.271059],[-122.416446,47.271133],[-122.416182,47.271132],[-122.416169,47.271066],[-122.416051,47.271041],[-122.416045,47.270985],[-122.415996,47.270953],[-122.415655,47.270949],[-122.415633,47.270875],[-122.415524,47.270859],[-122.415525,47.270727],[-122.415497,47.270691],[-122.415262,47.270677],[-122.415257,47.270607],[-122.415208,47.270576],[-122.414998,47.270586],[-122.414992,47.270344],[-122.414937,47.270317],[-122.414737,47.270315],[-122.414714,47.27024],[-122.414606,47.270224],[-122.414598,47.270073],[-122.414551,47.270046],[-122.414476,47.270043],[-122.414478,47.269863],[-122.414587,47.269848],[-122.414611,47.269774],[-122.41473,47.269751],[-122.414744,47.269685],[-122.414966,47.26968],[-122.415005,47.269648],[-122.415009,47.269596],[-122.415273,47.269598],[-122.415272,47.269687],[-122.415237,47.269735],[-122.415284,47.269844],[-122.415342,47.269868],[-122.415535,47.269869],[-122.415533,47.270049],[-122.415457,47.270051],[-122.41541,47.270077],[-122.415417,47.270208],[-122.41547,47.270228],[-122.415663,47.270229],[-122.415725,47.270254],[-122.415795,47.27023],[-122.415928,47.270231],[-122.415929,47.270372],[-122.415975,47.270407],[-122.416058,47.270411],[-122.416078,47.270589],[-122.416132,47.270606],[-122.41632,47.270593],[-122.416325,47.270663],[-122.416381,47.270695],[-122.416584,47.270684]]]}},{"type":"Feature","properties":{"id":43,"area_m2":9200,"px":92,"rank":6},"geometry":{"type":"Polygon","coordinates":[[[-122.414748,47.269325],[-122.414745,47.269595],[-122.41448,47.269593],[-122.414388,47.269572],[-122.414313,47.26963],[-122.414347,47.269683],[-122.414346,47.269773],[-122.414082,47.269771],[-122.414065,47.269701],[-122.413951,47.269681],[-122.413916,47.2696],[-122.41382,47.26959],[-122.413791,47.269512],[-122.413688,47.269499],[-122.41366,47.269422],[-122.413557,47.269409],[-122.413529,47.269331],[-122.413426,47.269318],[-122.413398,47.26924],[-122.413163,47.269227],[-122.413155,47.269075],[-122.413108,47.269049],[-122.413032,47.269046],[-122.413034,47.268866],[-122.413263,47.268858],[-122.4133,47.268778],[-122.413419,47.268754],[-122.413433,47.268688],[-122.413547,47.268669],[-122.413566,47.268599],[-122.41368,47.26858],[-122.413699,47.26851],[-122.413916,47.26852],[-122.413961,47.268486],[-122.413965,47.268421],[-122.414084,47.268398],[-122.414098,47.268332],[-122.41423,47.268332],[-122.414229,47.268422],[-122.414146,47.268426],[-122.414102,47.268455],[-122.414101,47.268568],[-122.414144,47.268598],[-122.414227,47.268602],[-122.414261,47.268683],[-122.414358,47.268693],[-122.414386,47.268771],[-122.414489,47.268784],[-122.414488,47.268874],[-122.414452,47.268916],[-122.414487,47.268964],[-122.414486,47.269054],[-122.41445,47.269101],[-122.414485,47.269144],[-122.414493,47.269295],[-122.414547,47.269323],[-122.414748,47.269325]]]}},{"type":"Feature","properties":{"id":19,"area_m2":8700,"px":87,"rank":7},"geometry":{"type":"Polygon","coordinates":[[[-122.412187,47.273452],[-122.412154,47.273499],[-122.412189,47.273541],[-122.412187,47.273721],[-122.412078,47.273736],[-122.412054,47.27381],[-122.411924,47.27381],[-122.411924,47.273575],[-122.411891,47.273535],[-122.411528,47.273538],[-122.411523,47.273481],[-122.411473,47.27345],[-122.411133,47.273446],[-122.411128,47.273299],[-122.411086,47.27327],[-122.411003,47.273265],[-122.410968,47.273184],[-122.410871,47.273174],[-122.41085,47.27301],[-122.410477,47.272992],[-122.410469,47.272841],[-122.410422,47.272814],[-122.410346,47.272812],[-122.410312,47.272731],[-122.410215,47.272721],[-122.410194,47.272634],[-122.41014,47.272617],[-122.409952,47.27263],[-122.409929,47.272555],[-122.409821,47.272539],[-122.409822,47.272449],[-122.409912,47.272443],[-122.409953,47.272406],[-122.409957,47.27218],[-122.410221,47.272181],[-122.410238,47.272251],[-122.410352,47.272272],[-122.41037,47.272342],[-122.410484,47.272363],[-122.410501,47.272433],[-122.410615,47.272453],[-122.410627,47.272519],[-122.410746,47.272544],[-122.410749,47.272595],[-122.410787,47.272628],[-122.411142,47.272636],[-122.411164,47.27271],[-122.411273,47.272727],[-122.41125,47.272946],[-122.411284,47.272987],[-122.411666,47.272999],[-122.411679,47.273064],[-122.411798,47.273089],[-122.4118,47.273141],[-122.411839,47.273173],[-122.412193,47.273181],[-122.412187,47.273452]],[[-122.41022,47.27254],[-122.410252,47.272504],[-122.410238,47.272464],[-122.410178,47.272438],[-122.410114,47.27245],[-122.410086,47.272485],[-122.410102,47.272534],[-122.410162,47.272555],[-122.41022,47.27254]]]}},{"type":"Feature","properties":{"id":21,"area_m2":7700,"px":77,"rank":8},"geometry":{"type":"Polygon","coordinates":[[[-122.413253,47.273007],[-122.413251,47.273186],[-122.413175,47.273188],[-122.413128,47.273214],[-122.413117,47.273366],[-122.413008,47.273381],[-122.412983,47.273455],[-122.412719,47.273454],[-122.412706,47.273388],[-122.412588,47.273363],[-122.412554,47.273282],[-122.412325,47.273272],[-122.412326,47.273127],[-122.412293,47.273088],[-122.412062,47.27309],[-122.412057,47.27302],[-122.412002,47.272988],[-122.411799,47.272999],[-122.411786,47.272933],[-122.411668,47.272908],[-122.411633,47.272827],[-122.411404,47.272817],[-122.4114,47.27267],[-122.411357,47.272641],[-122.411274,47.272636],[-122.411246,47.272559],[-122.41101,47.272545],[-122.411014,47.272185],[-122.411147,47.272186],[-122.411209,47.27221],[-122.411279,47.272187],[-122.411411,47.272187],[-122.411473,47.272212],[-122.411543,47.272188],[-122.411675,47.272189],[-122.411691,47.272271],[-122.411555,47.272302],[-122.411541,47.272409],[-122.411582,47.272452],[-122.411713,47.272472],[-122.411802,47.272434],[-122.41179,47.272287],[-122.411939,47.27228],[-122.411951,47.272346],[-122.41207,47.272371],[-122.412104,47.272452],[-122.412333,47.272462],[-122.412332,47.272607],[-122.412359,47.272643],[-122.412596,47.272643],[-122.412618,47.272718],[-122.412727,47.272734],[-122.412761,47.272815],[-122.412858,47.272825],[-122.412856,47.27306],[-122.412883,47.273096],[-122.412939,47.273109],[-122.413071,47.273092],[-122.413114,47.273063],[-122.413121,47.273006],[-122.413253,47.273007]],[[-122.412986,47.273225],[-122.412964,47.273188],[-122.412902,47.273171],[-122.412839,47.273193],[-122.412818,47.273232],[-122.412844,47.27327],[-122.412909,47.273289],[-122.412968,47.273269],[-122.412986,47.273225]]]}},{"type":"Feature","properties":{"id":16,"area_m2":7100,"px":71,"rank":9},"geometry":{"type":"Polygon","coordinates":[[[-122.411655,47.273988],[-122.411654,47.274078],[-122.411545,47.274093],[-122.411521,47.274167],[-122.411389,47.274167],[-122.411367,47.274093],[-122.411258,47.274076],[-122.411259,47.273945],[-122.411231,47.273908],[-122.410927,47.273896],[-122.410866,47.273932],[-122.410863,47.274031],[-122.410903,47.274068],[-122.410993,47.274075],[-122.410992,47.274165],[-122.410464,47.274162],[-122.410441,47.274088],[-122.410332,47.274071],[-122.410298,47.27399],[-122.410201,47.273981],[-122.410194,47.273829],[-122.410147,47.273803],[-122.410071,47.2738],[-122.410037,47.273719],[-122.40994,47.273709],[-122.409941,47.27362],[-122.410205,47.273621],[-122.410233,47.273699],[-122.410469,47.273712],[-122.410471,47.273764],[-122.41051,47.273796],[-122.41078,47.273817],[-122.410861,47.273779],[-122.41086,47.273658],[-122.410802,47.273625],[-122.410602,47.273623],[-122.410589,47.273557],[-122.410471,47.273532],[-122.410468,47.273481],[-122.41043,47.273448],[-122.410207,47.273441],[-122.410208,47.27331],[-122.410174,47.27327],[-122.409945,47.273259],[-122.409933,47.273104],[-122.409815,47.273079],[-122.40978,47.272998],[-122.409683,47.272988],[-122.409685,47.272808],[-122.409817,47.272809],[-122.40983,47.272875],[-122.409949,47.2729],[-122.409952,47.272951],[-122.40999,47.272983],[-122.410212,47.272991],[-122.410229,47.273061],[-122.410343,47.273082],[-122.410361,47.273152],[-122.410475,47.273172],[-122.410492,47.273243],[-122.410606,47.273263],[-122.410618,47.273329],[-122.410737,47.273354],[-122.410771,47.273435],[-122.411,47.273445],[-122.411005,47.273515],[-122.411061,47.273548],[-122.411396,47.273537],[-122.411404,47.273688],[-122.41145,47.273715],[-122.411526,47.273718],[-122.41153,47.273954],[-122.411572,47.273984],[-122.411655,47.273988]]]}},{"type":"Feature","properties":{"id":3,"area_m2":4500,"px":45,"rank":10},"geometry":{"type":"Polygon","coordinates":[[[-122.413347,47.276427],[-122.413346,47.276516],[-122.413082,47.276515],[-122.413059,47.276441],[-122.412951,47.276424],[-122.412929,47.27626],[-122.412556,47.276242],[-122.412539,47.276172],[-122.412425,47.276152],[-122.41239,47.276071],[-122.412294,47.276061],[-122.412265,47.275983],[-122.412162,47.27597],[-122.412134,47.275893],[-122.411899,47.275879],[-122.411883,47.275719],[-122.411829,47.275699],[-122.411637,47.275698],[-122.411614,47.275624],[-122.411505,47.275607],[-122.411471,47.275526],[-122.411374,47.275516],[-122.411375,47.275427],[-122.411598,47.275421],[-122.411637,47.27539],[-122.411642,47.275338],[-122.411773,47.275339],[-122.411778,47.275395],[-122.411828,47.275427],[-122.412036,47.27543],[-122.412058,47.275594],[-122.412298,47.275611],[-122.412321,47.275685],[-122.41243,47.275702],[-122.412447,47.275772],[-122.412561,47.275793],[-122.412595,47.275874],[-122.412692,47.275883],[-122.41272,47.275961],[-122.412823,47.275974],[-122.41284,47.276134],[-122.412893,47.276154],[-122.413086,47.276155],[-122.413108,47.276229],[-122.413217,47.276246],[-122.413229,47.276402],[-122.413347,47.276427]]]}},{"type":"Feature","properties":{"id":9,"area_m2":4000,"px":40,"rank":11},"geometry":{"type":"Polygon","coordinates":[[[-122.411512,47.274709],[-122.411479,47.274755],[-122.411514,47.274797],[-122.411512,47.274977],[-122.411403,47.274993],[-122.411379,47.275067],[-122.411282,47.275075],[-122.411246,47.275156],[-122.411131,47.275175],[-122.411113,47.275245],[-122.410981,47.275244],[-122.410963,47.275174],[-122.410849,47.275154],[-122.410832,47.275084],[-122.410718,47.275063],[-122.410705,47.274997],[-122.410587,47.274972],[-122.410552,47.274891],[-122.410323,47.274881],[-122.410301,47.274807],[-122.410192,47.27479],[-122.410193,47.274701],[-122.410513,47.274716],[-122.410573,47.274696],[-122.410593,47.274433],[-122.410857,47.274434],[-122.41088,47.274508],[-122.410988,47.274525],[-122.410986,47.274705],[-122.410951,47.274752],[-122.410991,47.274851],[-122.411033,47.274881],[-122.411185,47.274885],[-122.411243,47.274853],[-122.411253,47.274526],[-122.411517,47.274527],[-122.411512,47.274709]]]}},{"type":"Feature","properties":{"id":17,"area_m2":3200,"px":32,"rank":12},"geometry":{"type":"Polygon","coordinates":[[[-122.414437,47.273553],[-122.414436,47.273642],[-122.414241,47.273628],[-122.414177,47.273661],[-122.414167,47.274001],[-122.414058,47.274016],[-122.414034,47.27409],[-122.413902,47.27409],[-122.413891,47.273844],[-122.413773,47.273819],[-122.413767,47.273762],[-122.413717,47.273731],[-122.413377,47.273727],[-122.413378,47.273501],[-122.413338,47.273463],[-122.413248,47.273456],[-122.413249,47.273367],[-122.413381,47.273367],[-122.413451,47.273392],[-122.413618,47.273364],[-122.413666,47.273318],[-122.413648,47.273189],[-122.413912,47.27319],[-122.413934,47.273264],[-122.414043,47.273281],[-122.41406,47.273351],[-122.414174,47.273371],[-122.414209,47.273452],[-122.414305,47.273462],[-122.414334,47.27354],[-122.414437,47.273553]],[[-122.413742,47.273553],[-122.413812,47.273422],[-122.413797,47.273382],[-122.413738,47.273356],[-122.413679,47.273365],[-122.413645,47.273403],[-122.413661,47.273451],[-122.413611,47.27349],[-122.413624,47.273536],[-122.413684,47.273562],[-122.413742,47.273553]]]}},{"type":"Feature","properties":{"id":18,"area_m2":3200,"px":32,"rank":13},"geometry":{"type":"Polygon","coordinates":[[[-122.409147,47.273615],[-122.409144,47.273885],[-122.408748,47.273883],[-122.408726,47.273809],[-122.408617,47.273793],[-122.408604,47.273727],[-122.408486,47.273702],[-122.408457,47.273624],[-122.408354,47.273611],[-122.408333,47.273447],[-122.408092,47.27343],[-122.40807,47.273356],[-122.407961,47.273339],[-122.407926,47.273258],[-122.40783,47.273249],[-122.407832,47.273069],[-122.407964,47.273069],[-122.407972,47.273131],[-122.408027,47.273159],[-122.408359,47.273161],[-122.408358,47.273293],[-122.408386,47.273329],[-122.408622,47.273343],[-122.408627,47.273399],[-122.408677,47.273431],[-122.408885,47.273434],[-122.408907,47.273598],[-122.409147,47.273615]]]}},{"type":"Feature","properties":{"id":11,"area_m2":3100,"px":31,"rank":14},"geometry":{"type":"Polygon","coordinates":[[[-122.415085,47.274457],[-122.415052,47.274503],[-122.415087,47.274546],[-122.415086,47.274636],[-122.414956,47.274635],[-122.414925,47.274557],[-122.41469,47.274544],[-122.414687,47.274492],[-122.414649,47.27446],[-122.414427,47.274452],[-122.414404,47.274378],[-122.414296,47.274362],[-122.414261,47.274281],[-122.414164,47.274271],[-122.414166,47.274091],[-122.414389,47.274086],[-122.414428,47.274054],[-122.414432,47.274002],[-122.414774,47.274015],[-122.414823,47.273985],[-122.414829,47.273915],[-122.414961,47.273915],[-122.414984,47.273989],[-122.415093,47.274006],[-122.415092,47.274096],[-122.414995,47.274104],[-122.414959,47.274149],[-122.414971,47.274251],[-122.41509,47.274276],[-122.415085,47.274457]]]}},{"type":"Feature","properties":{"id":37,"area_m2":2100,"px":21,"rank":15},"geometry":{"type":"Polygon","coordinates":[[[-122.415653,47.271129],[-122.415652,47.271219],[-122.41552,47.271218],[-122.415503,47.271148],[-122.415389,47.271128],[-122.415355,47.271047],[-122.415258,47.271037],[-122.415235,47.270963],[-122.415086,47.270933],[-122.415007,47.270957],[-122.414993,47.271036],[-122.414597,47.271034],[-122.414589,47.270882],[-122.414542,47.270856],[-122.414467,47.270853],[-122.414469,47.270673],[-122.414698,47.270665],[-122.414733,47.270626],[-122.414735,47.270495],[-122.414867,47.270495],[-122.414883,47.270656],[-122.414997,47.270676],[-122.415003,47.270733],[-122.415045,47.270762],[-122.415261,47.270767],[-122.415277,47.270928],[-122.415391,47.270948],[-122.415425,47.271029],[-122.415522,47.271039],[-122.41555,47.271116],[-122.415653,47.271129]]]}},{"type":"Feature","properties":{"id":32,"area_m2":1800,"px":18,"rank":16},"geometry":{"type":"Polygon","coordinates":[[[-122.405996,47.271709],[-122.405993,47.271979],[-122.405861,47.271979],[-122.405832,47.271901],[-122.405597,47.271887],[-122.405575,47.271813],[-122.405466,47.271797],[-122.405432,47.271716],[-122.405335,47.271706],[-122.405351,47.271561],[-122.405301,47.271528],[-122.405205,47.271525],[-122.405206,47.271435],[-122.405602,47.271437],[-122.405664,47.271462],[-122.405735,47.271438],[-122.405867,47.271439],[-122.405867,47.27167],[-122.405913,47.271705],[-122.405996,47.271709]]]}},{"type":"Feature","properties":{"id":42,"area_m2":1800,"px":18,"rank":17},"geometry":{"type":"Polygon","coordinates":[[[-122.411037,47.270116],[-122.411035,47.270296],[-122.410903,47.270295],[-122.410886,47.270225],[-122.410772,47.270204],[-122.410738,47.270123],[-122.410641,47.270114],[-122.410613,47.270036],[-122.41051,47.270023],[-122.410481,47.269945],[-122.410246,47.269932],[-122.410224,47.269857],[-122.410115,47.269841],[-122.410098,47.269771],[-122.409984,47.26975],[-122.409949,47.269669],[-122.409853,47.26966],[-122.409824,47.269582],[-122.409721,47.269569],[-122.409693,47.269491],[-122.40959,47.269478],[-122.409591,47.269388],[-122.409723,47.269389],[-122.409741,47.269459],[-122.409855,47.26948],[-122.409867,47.269546],[-122.409986,47.26957],[-122.409991,47.269627],[-122.410034,47.269657],[-122.410513,47.269663],[-122.410512,47.269753],[-122.410477,47.269801],[-122.410529,47.269913],[-122.410582,47.269933],[-122.410907,47.269935],[-122.410894,47.270085],[-122.410941,47.270113],[-122.411037,47.270116]]]}},{"type":"Feature","properties":{"id":23,"area_m2":1600,"px":16,"rank":18},"geometry":{"type":"Polygon","coordinates":[[[-122.407571,47.272707],[-122.40757,47.272797],[-122.407362,47.272799],[-122.407311,47.272829],[-122.407305,47.272886],[-122.407173,47.272885],[-122.40715,47.272811],[-122.407041,47.272795],[-122.407029,47.272729],[-122.40691,47.272704],[-122.406882,47.272626],[-122.406779,47.272613],[-122.40678,47.272523],[-122.406877,47.272521],[-122.406928,47.272489],[-122.406914,47.272344],[-122.407023,47.272329],[-122.407047,47.272255],[-122.407179,47.272256],[-122.407166,47.272406],[-122.407213,47.272433],[-122.40731,47.272436],[-122.407325,47.272686],[-122.407378,47.272706],[-122.407571,47.272707]]]}},{"type":"Feature","properties":{"id":40,"area_m2":1200,"px":12,"rank":19},"geometry":{"type":"Polygon","coordinates":[[[-122.414604,47.270404],[-122.414603,47.270494],[-122.414074,47.270491],[-122.414078,47.270131],[-122.414342,47.270133],[-122.414365,47.270207],[-122.414473,47.270223],[-122.414485,47.270379],[-122.414604,47.270404]]]}},{"type":"Feature","properties":{"id":2,"area_m2":1100,"px":11,"rank":20},"geometry":{"type":"Polygon","coordinates":[[[-122.414539,47.276253],[-122.414535,47.276612],[-122.414271,47.276611],[-122.414263,47.27646],[-122.414216,47.276433],[-122.414141,47.27643],[-122.414106,47.276349],[-122.414009,47.27634],[-122.41401,47.27625],[-122.414539,47.276253]]]}},{"type":"Feature","properties":{"id":41,"area_m2":1000,"px":10,"rank":21},"geometry":{"type":"Polygon","coordinates":[[[-122.404558,47.269994],[-122.404525,47.27004],[-122.40456,47.270082],[-122.404557,47.270352],[-122.404425,47.270351],[-122.404402,47.270277],[-122.404293,47.270261],[-122.404259,47.27018],[-122.404162,47.27017],[-122.404164,47.26999],[-122.404273,47.269975],[-122.404298,47.269901],[-122.40456,47.269902],[-122.404558,47.269994]]]}},{"type":"Feature","properties":{"id":6,"area_m2":800,"px":8,"rank":22},"geometry":{"type":"Polygon","coordinates":[[[-122.413094,47.275435],[-122.413092,47.275615],[-122.412827,47.275614],[-122.412825,47.275562],[-122.412786,47.27553],[-122.412564,47.275523],[-122.412565,47.275433],[-122.412674,47.275417],[-122.412698,47.275343],[-122.412962,47.275345],[-122.412985,47.275419],[-122.413094,47.275435]]]}},{"type":"Feature","properties":{"id":8,"area_m2":800,"px":8,"rank":23},"geometry":{"type":"Polygon","coordinates":[[[-122.41402,47.27535],[-122.414019,47.27544],[-122.41391,47.275455],[-122.413886,47.275529],[-122.41349,47.275527],[-122.413467,47.275453],[-122.413358,47.275437],[-122.413359,47.275347],[-122.413582,47.275341],[-122.413621,47.27531],[-122.413625,47.275258],[-122.413757,47.275259],[-122.413762,47.275329],[-122.41381,47.27536],[-122.41402,47.27535]]]}},{"type":"Feature","properties":{"id":1,"area_m2":700,"px":7,"rank":24},"geometry":{"type":"Polygon","coordinates":[[[-122.414797,47.276884],[-122.414796,47.276974],[-122.414686,47.276989],[-122.414662,47.277063],[-122.41453,47.277062],[-122.414508,47.276988],[-122.414399,47.276972],[-122.414402,47.276702],[-122.414534,47.276703],[-122.414557,47.276777],[-122.414665,47.276793],[-122.4147,47.276874],[-122.414797,47.276884]]]}},{"type":"Feature","properties":{"id":36,"area_m2":700,"px":7,"rank":25},"geometry":{"type":"Polygon","coordinates":[[[-122.414596,47.271124],[-122.414594,47.271304],[-122.414462,47.271303],[-122.41444,47.271139],[-122.414199,47.271122],[-122.414177,47.271047],[-122.414068,47.271031],[-122.41407,47.270851],[-122.414202,47.270852],[-122.414225,47.270926],[-122.414333,47.270943],[-122.414346,47.271009],[-122.414464,47.271033],[-122.414493,47.271111],[-122.414596,47.271124]]]}},{"type":"Feature","properties":{"id":45,"area_m2":700,"px":7,"rank":26},"geometry":{"type":"Polygon","coordinates":[[[-122.410781,47.269395],[-122.41078,47.269484],[-122.410671,47.2695],[-122.410647,47.269574],[-122.410382,47.269572],[-122.410399,47.269427],[-122.410349,47.269395],[-122.410252,47.269392],[-122.410253,47.269302],[-122.41065,47.269304],[-122.410672,47.269378],[-122.410781,47.269395]]]}},{"type":"Feature","properties":{"id":4,"area_m2":600,"px":6,"rank":27},"geometry":{"type":"Polygon","coordinates":[[[-122.41494,47.275895],[-122.414937,47.276165],[-122.414828,47.27618],[-122.414803,47.276254],[-122.414671,47.276253],[-122.414674,47.275983],[-122.414783,47.275968],[-122.414808,47.275894],[-122.41494,47.275895]]]}},{"type":"Feature","properties":{"id":10,"area_m2":600,"px":6,"rank":28},"geometry":{"type":"Polygon","coordinates":[[[-122.413627,47.275078],[-122.413626,47.275168],[-122.413097,47.275165],[-122.413098,47.275075],[-122.413207,47.27506],[-122.413231,47.274986],[-122.413495,47.274988],[-122.413518,47.275062],[-122.413627,47.275078]]]}},{"type":"Feature","properties":{"id":14,"area_m2":600,"px":6,"rank":29},"geometry":{"type":"Polygon","coordinates":[[[-122.410197,47.274341],[-122.410196,47.274431],[-122.409667,47.274428],[-122.409668,47.274338],[-122.409765,47.274336],[-122.409816,47.274304],[-122.409803,47.274159],[-122.409935,47.274159],[-122.409957,47.274234],[-122.410066,47.27425],[-122.4101,47.274331],[-122.410197,47.274341]]]}},{"type":"Feature","properties":{"id":24,"area_m2":600,"px":6,"rank":30},"geometry":{"type":"Polygon","coordinates":[[[-122.408498,47.272532],[-122.408495,47.272802],[-122.408231,47.272801],[-122.408248,47.272656],[-122.408198,47.272623],[-122.408101,47.27262],[-122.408102,47.27253],[-122.408498,47.272532]]]}},{"type":"Feature","properties":{"id":26,"area_m2":600,"px":6,"rank":31},"geometry":{"type":"Polygon","coordinates":[[[-122.408104,47.27235],[-122.408103,47.27244],[-122.407994,47.272455],[-122.40797,47.272529],[-122.407838,47.272529],[-122.407815,47.272455],[-122.407706,47.272438],[-122.407672,47.272357],[-122.407575,47.272347],[-122.407576,47.272258],[-122.40784,47.272259],[-122.407843,47.272311],[-122.407882,47.272343],[-122.408104,47.27235]]]}},{"type":"Feature","properties":{"id":44,"area_m2":600,"px":6,"rank":32},"geometry":{"type":"Polygon","coordinates":[[[-122.41197,47.269491],[-122.411967,47.269761],[-122.411835,47.26976],[-122.411827,47.269608],[-122.41178,47.269582],[-122.411704,47.269579],[-122.41167,47.269498],[-122.411573,47.269489],[-122.411574,47.269399],[-122.411838,47.2694],[-122.411861,47.269474],[-122.41197,47.269491]]]}},{"type":"Feature","properties":{"id":46,"area_m2":500,"px":5,"rank":33},"geometry":{"type":"Polygon","coordinates":[[[-122.410392,47.268673],[-122.410391,47.268763],[-122.410282,47.268778],[-122.410258,47.268852],[-122.410161,47.268861],[-122.410125,47.268941],[-122.410011,47.26896],[-122.409992,47.26903],[-122.40986,47.26903],[-122.409861,47.26894],[-122.409958,47.268931],[-122.409994,47.268851],[-122.41007,47.268849],[-122.410117,47.268823],[-122.410128,47.268671],[-122.410392,47.268673]]]}},{"type":"Feature","properties":{"id":48,"area_m2":500,"px":5,"rank":34},"geometry":{"type":"Polygon","coordinates":[[[-122.405898,47.26865],[-122.405896,47.268829],[-122.405632,47.268828],[-122.405635,47.268558],[-122.405767,47.268559],[-122.405789,47.268633],[-122.405898,47.26865]]]}},{"type":"Feature","properties":{"id":12,"area_m2":400,"px":4,"rank":35},"geometry":{"type":"Polygon","coordinates":[[[-122.412311,47.274442],[-122.412309,47.274621],[-122.412045,47.27462],[-122.412047,47.27444],[-122.412311,47.274442]]]}},{"type":"Feature","properties":{"id":13,"area_m2":400,"px":4,"rank":36},"geometry":{"type":"Polygon","coordinates":[[[-122.418394,47.274383],[-122.418392,47.274562],[-122.418128,47.274561],[-122.41813,47.274381],[-122.418394,47.274383]]]}},{"type":"Feature","properties":{"id":25,"area_m2":400,"px":4,"rank":37},"geometry":{"type":"Polygon","coordinates":[[[-122.409424,47.272537],[-122.409423,47.272627],[-122.409026,47.272625],[-122.409028,47.272445],[-122.40916,47.272446],[-122.409166,47.272502],[-122.409216,47.272534],[-122.409424,47.272537]]]}},{"type":"Feature","properties":{"id":39,"area_m2":400,"px":4,"rank":38},"geometry":{"type":"Polygon","coordinates":[[[-122.413941,47.270581],[-122.413938,47.27085],[-122.413806,47.27085],[-122.413804,47.270708],[-122.413758,47.270674],[-122.413675,47.270669],[-122.413676,47.270579],[-122.413941,47.270581]]]}},{"type":"Feature","properties":{"id":47,"area_m2":400,"px":4,"rank":39},"geometry":{"type":"Polygon","coordinates":[[[-122.404838,47.268824],[-122.404837,47.268914],[-122.404728,47.268929],[-122.404704,47.269003],[-122.404572,47.269002],[-122.404549,47.268928],[-122.404441,47.268912],[-122.404442,47.268822],[-122.404838,47.268824]]]}},{"type":"Feature","properties":{"id":49,"area_m2":400,"px":4,"rank":40},"geometry":{"type":"Polygon","coordinates":[[[-122.408809,47.268395],[-122.408807,47.268574],[-122.408698,47.26859],[-122.408674,47.268664],[-122.408542,47.268663],[-122.408544,47.268483],[-122.408653,47.268468],[-122.408677,47.268394],[-122.408809,47.268395]]]}},{"type":"Feature","properties":{"id":7,"area_m2":300,"px":3,"rank":41},"geometry":{"type":"Polygon","coordinates":[[[-122.414549,47.275353],[-122.414548,47.275443],[-122.41434,47.275444],[-122.414289,47.275475],[-122.414283,47.275531],[-122.414151,47.275531],[-122.414152,47.275441],[-122.414261,47.275425],[-122.414285,47.275351],[-122.414549,47.275353]]]}},{"type":"Feature","properties":{"id":22,"area_m2":300,"px":3,"rank":42},"geometry":{"type":"Polygon","coordinates":[[[-122.419995,47.273041],[-122.419994,47.273131],[-122.419911,47.273135],[-122.419865,47.273169],[-122.41986,47.27331],[-122.419728,47.273309],[-122.41973,47.27313],[-122.419839,47.273114],[-122.419863,47.27304],[-122.419995,47.273041]]]}},{"type":"Feature","properties":{"id":27,"area_m2":300,"px":3,"rank":43},"geometry":{"type":"Polygon","coordinates":[[[-122.406653,47.272073],[-122.406652,47.272163],[-122.406543,47.272178],[-122.406518,47.272252],[-122.406254,47.272251],[-122.406255,47.272161],[-122.406463,47.272159],[-122.406514,47.272129],[-122.406521,47.272072],[-122.406653,47.272073]]]}},{"type":"Feature","properties":{"id":28,"area_m2":300,"px":3,"rank":44},"geometry":{"type":"Polygon","coordinates":[[[-122.414056,47.272111],[-122.414055,47.272201],[-122.413923,47.2722],[-122.4139,47.272126],[-122.413792,47.272109],[-122.413757,47.272028],[-122.41366,47.272019],[-122.413661,47.271929],[-122.413793,47.27193],[-122.413816,47.272004],[-122.413925,47.27202],[-122.413959,47.272101],[-122.414056,47.272111]]]}},{"type":"Feature","properties":{"id":29,"area_m2":300,"px":3,"rank":45},"geometry":{"type":"Polygon","coordinates":[[[-122.409299,47.271907],[-122.409298,47.271996],[-122.409189,47.272012],[-122.409164,47.272086],[-122.409032,47.272085],[-122.409034,47.271905],[-122.409299,47.271907]]]}},{"type":"Feature","properties":{"id":30,"area_m2":300,"px":3,"rank":46},"geometry":{"type":"Polygon","coordinates":[[[-122.410886,47.271825],[-122.410884,47.272005],[-122.410752,47.272004],[-122.41073,47.27193],[-122.410621,47.271913],[-122.410622,47.271823],[-122.410886,47.271825]]]}},{"type":"Feature","properties":{"id":31,"area_m2":300,"px":3,"rank":47},"geometry":{"type":"Polygon","coordinates":[[[-122.410489,47.271823],[-122.410489,47.271913],[-122.410379,47.271928],[-122.410355,47.272002],[-122.410223,47.272001],[-122.410201,47.271927],[-122.410092,47.27191],[-122.410093,47.271821],[-122.410225,47.271821],[-122.410287,47.271846],[-122.410357,47.271822],[-122.410489,47.271823]]]}},{"type":"Feature","properties":{"id":34,"area_m2":300,"px":3,"rank":48},"geometry":{"type":"Polygon","coordinates":[[[-122.416048,47.271311],[-122.416047,47.271401],[-122.415938,47.271416],[-122.415914,47.27149],[-122.415782,47.27149],[-122.415784,47.27131],[-122.416048,47.271311]]]}},{"type":"Feature","properties":{"id":35,"area_m2":300,"px":3,"rank":49},"geometry":{"type":"Polygon","coordinates":[[[-122.412743,47.271294],[-122.412742,47.271384],[-122.41261,47.271384],[-122.412587,47.271309],[-122.412479,47.271293],[-122.412444,47.271212],[-122.412347,47.271202],[-122.412348,47.271112],[-122.41248,47.271113],[-122.412503,47.271187],[-122.412612,47.271204],[-122.412646,47.271285],[-122.412743,47.271294]]]}}]}