{"type":"FeatureCollection","features":[{"type":"Feature","properties":{"id":25,"area_m2":19900,"px":199,"rank":1},"geometry":{"type":"Polygon","coordinates":[[[-122.408656,47.270283],[-122.408653,47.270553],[-122.408522,47.270569],[-122.4085,47.270608],[-122.408519,47.270733],[-122.408422,47.270741],[-122.408385,47.270822],[-122.408309,47.270824],[-122.408262,47.27085],[-122.408251,47.271001],[-122.408168,47.271005],[-122.408122,47.271039],[-122.408117,47.27118],[-122.407721,47.271178],[-122.407698,47.271104],[-122.407589,47.271088],[-122.407574,47.270837],[-122.40746,47.270817],[-122.407447,47.270751],[-122.407329,47.270726],[-122.407323,47.27067],[-122.407281,47.27064],[-122.406933,47.270634],[-122.406911,47.27056],[-122.406802,47.270544],[-122.406802,47.270407],[-122.406762,47.27037],[-122.406582,47.270369],[-122.406543,47.270401],[-122.406539,47.270452],[-122.406407,47.270452],[-122.406344,47.270427],[-122.406274,47.270451],[-122.405878,47.270449],[-122.405855,47.270375],[-122.405747,47.270358],[-122.40574,47.270117],[-122.405693,47.27009],[-122.405617,47.270088],[-122.40562,47.269818],[-122.405862,47.269803],[-122.405886,47.269729],[-122.405962,47.269727],[-122.406009,47.269701],[-122.40602,47.26955],[-122.406129,47.269535],[-122.406153,47.269461],[-122.406417,47.269462],[-122.406423,47.269519],[-122.406466,47.269548],[-122.406611,47.269577],[-122.406681,47.269553],[-122.406813,47.269554],[-122.406816,47.269606],[-122.406854,47.269638],[-122.407076,47.269645],[-122.407094,47.269716],[-122.407208,47.269736],[-122.40722,47.269802],[-122.407339,47.269827],[-122.407344,47.269883],[-122.407387,47.269913],[-122.407602,47.269918],[-122.407664,47.269942],[-122.407735,47.269919],[-122.407867,47.269919],[-122.407869,47.269985],[-122.407913,47.270019],[-122.40813,47.270011],[-122.408113,47.270156],[-122.408164,47.270188],[-122.40826,47.270191],[-122.408263,47.270257],[-122.4083,47.270288],[-122.408656,47.270283]]]}},{"type":"Feature","properties":{"id":11,"area_m2":12300,"px":123,"rank":2},"geometry":{"type":"Polygon","coordinates":[[[-122.419198,47.273397],[-122.419195,47.273667],[-122.419086,47.273682],[-122.419062,47.273756],[-122.418737,47.273755],[-122.418671,47.273787],[-122.418682,47.273914],[-122.418735,47.273934],[-122.418928,47.273935],[-122.418927,47.274024],[-122.41883,47.274034],[-122.418793,47.274115],[-122.418684,47.27413],[-122.41866,47.274204],[-122.418396,47.274203],[-122.418381,47.27412],[-122.418487,47.274107],[-122.418529,47.274065],[-122.418525,47.273953],[-122.418455,47.273919],[-122.41828,47.273956],[-122.418265,47.274112],[-122.418116,47.274104],[-122.418134,47.27398],[-122.418099,47.27394],[-122.417912,47.273937],[-122.417871,47.273973],[-122.41787,47.274066],[-122.41791,47.274104],[-122.418016,47.274118],[-122.417999,47.274201],[-122.417603,47.274198],[-122.41758,47.274124],[-122.417472,47.274108],[-122.417462,47.273759],[-122.417399,47.273734],[-122.417079,47.273746],[-122.417056,47.273672],[-122.416948,47.273655],[-122.41694,47.273504],[-122.416893,47.273477],[-122.416817,47.273475],[-122.416819,47.273295],[-122.417037,47.273318],[-122.417193,47.273281],[-122.417217,47.273207],[-122.417446,47.273199],[-122.417482,47.273118],[-122.417566,47.273114],[-122.417609,47.273085],[-122.417617,47.272939],[-122.417809,47.27294],[-122.417868,47.272916],[-122.417883,47.27276],[-122.417992,47.272745],[-122.418016,47.272671],[-122.41828,47.272672],[-122.418292,47.272828],[-122.418411,47.272853],[-122.418445,47.272934],[-122.418542,47.272944],[-122.418539,47.273213],[-122.418463,47.273215],[-122.418416,47.273241],[-122.418385,47.273337],[-122.418407,47.273376],[-122.418537,47.273394],[-122.41855,47.273459],[-122.418615,47.273484],[-122.419001,47.273485],[-122.419056,47.273458],[-122.419066,47.273396],[-122.419198,47.273397]],[[-122.417663,47.273569],[-122.417739,47.273531],[-122.417734,47.273418],[-122.41768,47.27339],[-122.417521,47.273395],[-122.41748,47.273432],[-122.417487,47.27354],[-122.417541,47.273567],[-122.417663,47.273569]],[[-122.418421,47.273792],[-122.418422,47.273623],[-122.418395,47.273585],[-122.418139,47.273571],[-122.418133,47.273515],[-122.41809,47.273485],[-122.417939,47.273481],[-122.417881,47.273513],[-122.417879,47.273627],[-122.417922,47.273656],[-122.418005,47.273661],[-122.418005,47.273797],[-122.418052,47.273837],[-122.418205,47.273866],[-122.418386,47.273833],[-122.418421,47.273792]],[[-122.418277,47.273304],[-122.418218,47.273288],[-122.418159,47.273308],[-122.418141,47.273356],[-122.418168,47.273393],[-122.418232,47.273405],[-122.418293,47.273379],[-122.418308,47.273339],[-122.418277,47.273304]]]}},{"type":"Feature","properties":{"id":7,"area_m2":7900,"px":79,"rank":3},"geometry":{"type":"Polygon","coordinates":[[[-122.414552,47.275083],[-122.414551,47.275173],[-122.414419,47.275172],[-122.414357,47.275148],[-122.414287,47.275171],[-122.413892,47.275169],[-122.413887,47.275118],[-122.413849,47.275086],[-122.413627,47.275078],[-122.413618,47.274652],[-122.413499,47.274627],[-122.413465,47.274546],[-122.413321,47.274514],[-122.413236,47.274536],[-122.412839,47.274534],[-122.412817,47.27446],[-122.412708,47.274443],[-122.412709,47.274354],[-122.412745,47.274311],[-122.41271,47.274264],[-122.412712,47.274084],[-122.412821,47.274068],[-122.412845,47.273994],[-122.41311,47.273996],[-122.413115,47.274052],[-122.413165,47.274084],[-122.413637,47.274088],[-122.41364,47.27414],[-122.413679,47.274172],[-122.413901,47.27418],[-122.413907,47.274434],[-122.413967,47.274463],[-122.414162,47.274451],[-122.414185,47.274525],[-122.414294,47.274542],[-122.414301,47.274693],[-122.414348,47.27472],[-122.414424,47.274722],[-122.414423,47.274812],[-122.414387,47.27486],[-122.414422,47.274902],[-122.414424,47.275044],[-122.414469,47.275078],[-122.414552,47.275083]]]}},{"type":"Feature","properties":{"id":19,"area_m2":7900,"px":79,"rank":4},"geometry":{"type":"Polygon","coordinates":[[[-122.41789,47.27213],[-122.417888,47.27231],[-122.4177,47.272296],[-122.417646,47.272312],[-122.417621,47.272489],[-122.417489,47.272488],[-122.417472,47.272418],[-122.417358,47.272398],[-122.417345,47.272332],[-122.417227,47.272307],[-122.417224,47.272255],[-122.417186,47.272223],[-122.417014,47.272216],[-122.416965,47.272232],[-122.416943,47.272271],[-122.416964,47.272447],[-122.417009,47.272482],[-122.417093,47.272486],[-122.417092,47.272575],[-122.416995,47.272578],[-122.416947,47.272605],[-122.416957,47.272755],[-122.416825,47.272755],[-122.41682,47.272698],[-122.41677,47.272667],[-122.416562,47.272663],[-122.416584,47.272444],[-122.416551,47.272403],[-122.416301,47.272392],[-122.416298,47.272341],[-122.416259,47.272308],[-122.416037,47.272301],[-122.416039,47.272121],[-122.416129,47.272115],[-122.41617,47.272078],[-122.416174,47.271852],[-122.416494,47.271867],[-122.416548,47.271851],[-122.416574,47.271584],[-122.417102,47.271587],[-122.417125,47.271661],[-122.417234,47.271677],[-122.417267,47.271771],[-122.417497,47.271769],[-122.417513,47.271929],[-122.417627,47.271949],[-122.417662,47.27203],[-122.417759,47.27204],[-122.417787,47.272118],[-122.41789,47.27213]],[[-122.416701,47.272034],[-122.416666,47.272071],[-122.41668,47.272112],[-122.41674,47.272138],[-122.416798,47.272129],[-122.416831,47.272095],[-122.41682,47.272046],[-122.416764,47.272021],[-122.416701,47.272034]]]}},{"type":"Feature","properties":{"id":15,"area_m2":7400,"px":74,"rank":5},"geometry":{"type":"Polygon","coordinates":[[[-122.412984,47.273365],[-122.412983,47.273455],[-122.412874,47.27347],[-122.41285,47.273544],[-122.412718,47.273544],[-122.412706,47.273388],[-122.412649,47.273364],[-122.412456,47.273362],[-122.412433,47.273288],[-122.412325,47.273272],[-122.412326,47.273141],[-122.412297,47.273104],[-122.41193,47.27309],[-122.411913,47.273019],[-122.411799,47.272999],[-122.411764,47.272918],[-122.411668,47.272908],[-122.411639,47.272831],[-122.411536,47.272818],[-122.411508,47.27274],[-122.411405,47.272727],[-122.411377,47.272649],[-122.411142,47.272636],[-122.411144,47.272456],[-122.411241,47.272447],[-122.411277,47.272367],[-122.411396,47.272343],[-122.411411,47.272187],[-122.411543,47.272188],[-122.411556,47.272254],[-122.411674,47.272279],[-122.411677,47.27233],[-122.411715,47.272362],[-122.411938,47.27237],[-122.411943,47.272427],[-122.411993,47.272458],[-122.412201,47.272461],[-122.412224,47.272536],[-122.412332,47.272552],[-122.41235,47.272622],[-122.412464,47.272643],[-122.412498,47.272724],[-122.412595,47.272733],[-122.412623,47.272811],[-122.412726,47.272824],[-122.412727,47.273056],[-122.412772,47.27309],[-122.412855,47.273096],[-122.412854,47.273184],[-122.412771,47.273188],[-122.412728,47.273217],[-122.412724,47.273325],[-122.412784,47.273363],[-122.412984,47.273365]]]}},{"type":"Feature","properties":{"id":17,"area_m2":6000,"px":60,"rank":6},"geometry":{"type":"Polygon","coordinates":[[[-122.416427,47.272933],[-122.416425,47.273113],[-122.416349,47.273115],[-122.416302,47.273141],[-122.41629,47.273292],[-122.416026,47.273291],[-122.415964,47.273266],[-122.415894,47.27329],[-122.415762,47.273289],[-122.415739,47.273215],[-122.415631,47.273199],[-122.415609,47.273034],[-122.415236,47.273017],[-122.415213,47.272942],[-122.415105,47.272926],[-122.41507,47.272845],[-122.414974,47.272835],[-122.414975,47.272745],[-122.415094,47.272722],[-122.415109,47.272566],[-122.415218,47.272551],[-122.415242,47.272477],[-122.415575,47.272478],[-122.415629,47.27245],[-122.41564,47.272389],[-122.415772,47.27239],[-122.415794,47.272464],[-122.415903,47.27248],[-122.415919,47.272641],[-122.415972,47.27266],[-122.416165,47.272662],[-122.416188,47.272736],[-122.416296,47.272752],[-122.416308,47.272908],[-122.416427,47.272933]]]}},{"type":"Feature","properties":{"id":2,"area_m2":3700,"px":37,"rank":7},"geometry":{"type":"Polygon","coordinates":[[[-122.413875,47.276519],[-122.413874,47.276609],[-122.413784,47.276615],[-122.413743,47.276652],[-122.413739,47.276878],[-122.413607,47.276878],[-122.413589,47.276807],[-122.413476,47.276787],[-122.413441,47.276706],[-122.413344,47.276696],[-122.413316,47.276619],[-122.413081,47.276605],[-122.413058,47.276531],[-122.41295,47.276514],[-122.412932,47.276444],[-122.412819,47.276424],[-122.412784,47.276343],[-122.412687,47.276333],[-122.412659,47.276255],[-122.412556,47.276242],[-122.41254,47.276082],[-122.412486,47.276062],[-122.412294,47.276061],[-122.412271,47.275987],[-122.412162,47.27597],[-122.41215,47.275904],[-122.412031,47.27588],[-122.412003,47.275802],[-122.4119,47.275789],[-122.411901,47.275699],[-122.41201,47.275684],[-122.412034,47.27561],[-122.412166,47.275611],[-122.412179,47.275677],[-122.412297,47.275701],[-122.412332,47.275782],[-122.412561,47.275793],[-122.412583,47.275867],[-122.412692,47.275883],[-122.412691,47.275973],[-122.412655,47.276021],[-122.41269,47.276063],[-122.412702,47.276219],[-122.412752,47.276242],[-122.412896,47.276242],[-122.412947,47.276211],[-122.412954,47.276155],[-122.413086,47.276155],[-122.413084,47.276376],[-122.413118,47.276416],[-122.413479,47.276427],[-122.413508,47.276505],[-122.413665,47.276542],[-122.413743,47.276519],[-122.413875,47.276519]]]}},{"type":"Feature","properties":{"id":24,"area_m2":3600,"px":36,"rank":8},"geometry":{"type":"Polygon","coordinates":[[[-122.407715,47.27136],[-122.407682,47.271406],[-122.407717,47.271448],[-122.407714,47.271718],[-122.40745,47.271717],[-122.407416,47.271636],[-122.407243,47.271628],[-122.407188,47.271669],[-122.407185,47.271805],[-122.407075,47.271821],[-122.407051,47.271895],[-122.406787,47.271893],[-122.406788,47.271804],[-122.406871,47.2718],[-122.406917,47.271766],[-122.406922,47.271624],[-122.406957,47.271571],[-122.406923,47.271534],[-122.406912,47.271378],[-122.406793,47.271354],[-122.406759,47.271273],[-122.406662,47.271263],[-122.406664,47.271083],[-122.406928,47.271084],[-122.406937,47.271146],[-122.406991,47.271174],[-122.407192,47.271176],[-122.407254,47.2712],[-122.407324,47.271176],[-122.407456,47.271177],[-122.407459,47.271242],[-122.407502,47.271277],[-122.407719,47.271268],[-122.407715,47.27136]]]}},{"type":"Feature","properties":{"id":9,"area_m2":3200,"px":32,"rank":9},"geometry":{"type":"Polygon","coordinates":[[[-122.415221,47.274366],[-122.415219,47.274546],[-122.41511,47.274562],[-122.415086,47.274636],[-122.414822,47.274634],[-122.414823,47.274413],[-122.414795,47.274376],[-122.41456,47.274363],[-122.414498,47.274339],[-122.414428,47.274362],[-122.414296,47.274362],[-122.414273,47.274287],[-122.414164,47.274271],[-122.414157,47.27412],[-122.41411,47.274093],[-122.414034,47.27409],[-122.414037,47.273821],[-122.414301,47.273822],[-122.414304,47.273873],[-122.414343,47.273906],[-122.414565,47.273913],[-122.414587,47.273987],[-122.414696,47.274004],[-122.414731,47.274085],[-122.414827,47.274094],[-122.414825,47.274316],[-122.41486,47.274355],[-122.415221,47.274366]]]}},{"type":"Feature","properties":{"id":4,"area_m2":2100,"px":21,"rank":10},"geometry":{"type":"Polygon","coordinates":[[[-122.413617,47.275978],[-122.413616,47.276068],[-122.413484,47.276067],[-122.413466,47.275997],[-122.413352,47.275976],[-122.413335,47.275906],[-122.413221,47.275886],[-122.413208,47.27582],[-122.41309,47.275795],[-122.413055,47.275714],[-122.412826,47.275704],[-122.412821,47.275647],[-122.412771,47.275616],[-122.412563,47.275613],[-122.412555,47.275461],[-122.412509,47.275435],[-122.412433,47.275432],[-122.412398,47.275351],[-122.412302,47.275341],[-122.412303,47.275251],[-122.412435,47.275252],[-122.41244,47.275309],[-122.41249,47.27534],[-122.412698,47.275343],[-122.412711,47.275409],[-122.412829,47.275434],[-122.412858,47.275512],[-122.413093,47.275525],[-122.413098,47.275582],[-122.413148,47.275613],[-122.413307,47.275612],[-122.413351,47.275583],[-122.413357,47.275527],[-122.413489,47.275527],[-122.413488,47.275617],[-122.413453,47.275665],[-122.413487,47.275707],[-122.413486,47.275934],[-122.413526,47.275971],[-122.413617,47.275978]]]}},{"type":"Feature","properties":{"id":26,"area_m2":1900,"px":19,"rank":11},"geometry":{"type":"Polygon","coordinates":[[[-122.406534,47.270902],[-122.406531,47.271172],[-122.406266,47.271171],[-122.406258,47.271109],[-122.406203,47.271082],[-122.405871,47.271079],[-122.405875,47.270719],[-122.406271,47.270721],[-122.406294,47.270795],[-122.406402,47.270812],[-122.406437,47.270893],[-122.406534,47.270902]]]}},{"type":"Feature","properties":{"id":27,"area_m2":1400,"px":14,"rank":12},"geometry":{"type":"Polygon","coordinates":[[[-122.405744,47.270538],[-122.405739,47.270988],[-122.405475,47.270987],[-122.405453,47.270913],[-122.405344,47.270896],[-122.405331,47.27083],[-122.405213,47.270805],[-122.405185,47.270728],[-122.405082,47.270715],[-122.405083,47.270625],[-122.405347,47.270626],[-122.405425,47.27065],[-122.405582,47.270615],[-122.405612,47.270538],[-122.405744,47.270538]]]}},{"type":"Feature","properties":{"id":10,"area_m2":1300,"px":13,"rank":13},"geometry":{"type":"Polygon","coordinates":[[[-122.409934,47.274249],[-122.409933,47.274339],[-122.40967,47.274338],[-122.409666,47.274286],[-122.409627,47.274254],[-122.409405,47.274247],[-122.409384,47.274082],[-122.409143,47.274065],[-122.40912,47.273991],[-122.409011,47.273975],[-122.408977,47.273894],[-122.40888,47.273884],[-122.408882,47.273704],[-122.409014,47.273705],[-122.409037,47.273779],[-122.409145,47.273795],[-122.409144,47.273927],[-122.409173,47.273963],[-122.40954,47.273977],[-122.409562,47.274142],[-122.409802,47.274159],[-122.409825,47.274233],[-122.409934,47.274249]]]}},{"type":"Feature","properties":{"id":16,"area_m2":1200,"px":12,"rank":14},"geometry":{"type":"Polygon","coordinates":[[[-122.411664,47.273178],[-122.411661,47.273448],[-122.411397,47.273447],[-122.411375,47.273373],[-122.411266,47.273356],[-122.411231,47.273275],[-122.411135,47.273266],[-122.411138,47.272996],[-122.41127,47.272996],[-122.411282,47.273062],[-122.411401,47.273087],[-122.411404,47.273139],[-122.411442,47.273171],[-122.411664,47.273178]]]}},{"type":"Feature","properties":{"id":6,"area_m2":1000,"px":10,"rank":15},"geometry":{"type":"Polygon","coordinates":[[[-122.415078,47.275356],[-122.415076,47.275535],[-122.414967,47.275551],[-122.414943,47.275625],[-122.414678,47.275623],[-122.414673,47.275553],[-122.414618,47.275521],[-122.414415,47.275532],[-122.414416,47.275442],[-122.414525,47.275427],[-122.414549,47.275353],[-122.415078,47.275356]]]}},{"type":"Feature","properties":{"id":30,"area_m2":900,"px":9,"rank":16},"geometry":{"type":"Polygon","coordinates":[[[-122.410391,47.268763],[-122.41039,47.268853],[-122.410198,47.268852],[-122.410139,47.268875],[-122.410124,47.269031],[-122.40986,47.26903],[-122.409861,47.26894],[-122.409964,47.268928],[-122.409994,47.268851],[-122.410091,47.268842],[-122.410127,47.268797],[-122.410126,47.268715],[-122.410093,47.26868],[-122.409864,47.26867],[-122.409866,47.26849],[-122.409998,47.268491],[-122.41002,47.268565],[-122.410129,47.268581],[-122.410142,47.268647],[-122.41026,47.268672],[-122.410288,47.26875],[-122.410391,47.268763]]]}},{"type":"Feature","properties":{"id":1,"area_m2":600,"px":6,"rank":17},"geometry":{"type":"Polygon","coordinates":[[[-122.414796,47.276974],[-122.414795,47.277064],[-122.41453,47.277062],[-122.414508,47.276988],[-122.414399,47.276972],[-122.414401,47.276792],[-122.414665,47.276793],[-122.414673,47.276945],[-122.41472,47.276971],[-122.414796,47.276974]]]}},{"type":"Feature","properties":{"id":5,"area_m2":600,"px":6,"rank":18},"geometry":{"type":"Polygon","coordinates":[[[-122.414018,47.27553],[-122.414017,47.27562],[-122.413908,47.275635],[-122.413884,47.275709],[-122.413752,47.275709],[-122.413729,47.275634],[-122.413621,47.275618],[-122.413622,47.275528],[-122.413658,47.275486],[-122.413623,47.275438],[-122.413624,47.275348],[-122.413756,47.275349],[-122.413778,47.275423],[-122.413887,47.275439],[-122.413921,47.27552],[-122.414018,47.27553]]]}},{"type":"Feature","properties":{"id":12,"area_m2":500,"px":5,"rank":19},"geometry":{"type":"Polygon","coordinates":[[[-122.411524,47.273898],[-122.411522,47.274077],[-122.411258,47.274076],[-122.411235,47.274002],[-122.411127,47.273985],[-122.411129,47.273806],[-122.411261,47.273806],[-122.411266,47.273876],[-122.411314,47.273908],[-122.411524,47.273898]]]}},{"type":"Feature","properties":{"id":14,"area_m2":500,"px":5,"rank":20},"geometry":{"type":"Polygon","coordinates":[[[-122.410736,47.273444],[-122.410734,47.273623],[-122.410602,47.273623],[-122.410579,47.273549],[-122.410471,47.273532],[-122.410436,47.273451],[-122.410339,47.273441],[-122.41034,47.273352],[-122.410605,47.273353],[-122.410627,47.273427],[-122.410736,47.273444]]]}},{"type":"Feature","properties":{"id":20,"area_m2":500,"px":5,"rank":21},"geometry":{"type":"Polygon","coordinates":[[[-122.408234,47.272531],[-122.408233,47.272621],[-122.408124,47.272636],[-122.4081,47.27271],[-122.407968,47.272709],[-122.407966,47.272568],[-122.407921,47.272533],[-122.407838,47.272529],[-122.407839,47.272439],[-122.408103,47.27244],[-122.408125,47.272514],[-122.408234,47.272531]]]}},{"type":"Feature","properties":{"id":21,"area_m2":500,"px":5,"rank":22},"geometry":{"type":"Polygon","coordinates":[[[-122.410615,47.272453],[-122.410613,47.272633],[-122.410348,47.272632],[-122.410351,47.272362],[-122.410484,47.272363],[-122.410506,47.272437],[-122.410615,47.272453]]]}},{"type":"Feature","properties":{"id":3,"area_m2":400,"px":4,"rank":23},"geometry":{"type":"Polygon","coordinates":[[[-122.414537,47.276433],[-122.414535,47.276612],[-122.414271,47.276611],[-122.414273,47.276431],[-122.414537,47.276433]]]}},{"type":"Feature","properties":{"id":8,"area_m2":400,"px":4,"rank":24},"geometry":{"type":"Polygon","coordinates":[[[-122.418658,47.274384],[-122.418656,47.274564],[-122.418547,47.274579],[-122.418523,47.274653],[-122.418391,47.274652],[-122.418393,47.274473],[-122.418502,47.274457],[-122.418526,47.274383],[-122.418658,47.274384]]]}},{"type":"Feature","properties":{"id":13,"area_m2":400,"px":4,"rank":25},"geometry":{"type":"Polygon","coordinates":[[[-122.412057,47.27354],[-122.412055,47.27372],[-122.411791,47.273719],[-122.411793,47.273539],[-122.412057,47.27354]]]}},{"type":"Feature","properties":{"id":18,"area_m2":400,"px":4,"rank":26},"geometry":{"type":"Polygon","coordinates":[[[-122.407306,47.272796],[-122.407305,47.272886],[-122.407173,47.272885],[-122.40715,47.272811],[-122.407041,47.272795],[-122.407029,47.272729],[-122.40691,47.272704],[-122.406882,47.272626],[-122.406779,47.272613],[-122.40678,47.272523],[-122.406912,47.272524],[-122.406935,47.272598],[-122.407043,47.272615],[-122.407056,47.272681],[-122.407174,47.272705],[-122.407203,47.272783],[-122.407306,47.272796]]]}},{"type":"Feature","properties":{"id":22,"area_m2":400,"px":4,"rank":27},"geometry":{"type":"Polygon","coordinates":[[[-122.408105,47.27226],[-122.408104,47.27235],[-122.407974,47.27235],[-122.407969,47.272298],[-122.407931,47.272266],[-122.407708,47.272258],[-122.40771,47.272078],[-122.407842,47.272079],[-122.407865,47.272153],[-122.407974,47.27217],[-122.408008,47.272251],[-122.408105,47.27226]]]}},{"type":"Feature","properties":{"id":23,"area_m2":400,"px":4,"rank":28},"geometry":{"type":"Polygon","coordinates":[[[-122.406518,47.272252],[-122.406517,47.272342],[-122.406385,47.272341],[-122.406363,47.272267],[-122.406254,47.272251],[-122.40622,47.27217],[-122.406123,47.27216],[-122.406125,47.27198],[-122.406257,47.271981],[-122.406269,47.272137],[-122.406387,47.272161],[-122.406422,47.272242],[-122.406518,47.272252]]]}},{"type":"Feature","properties":{"id":28,"area_m2":400,"px":4,"rank":29},"geometry":{"type":"Polygon","coordinates":[[[-122.41197,47.269491],[-122.411968,47.269671],[-122.411703,47.269669],[-122.411705,47.269489],[-122.41197,47.269491]]]}},{"type":"Feature","properties":{"id":29,"area_m2":300,"px":3,"rank":30},"geometry":{"type":"Polygon","coordinates":[[[-122.404305,47.269181],[-122.404302,47.269451],[-122.40417,47.26945],[-122.404173,47.26918],[-122.404305,47.269181]]]}},{"type":"Feature","properties":{"id":31,"area_m2":300,"px":3,"rank":31},"geometry":{"type":"Polygon","coordinates":[[[-122.404707,47.268733],[-122.404706,47.268823],[-122.404623,47.268827],[-122.404577,47.268861],[-122.404572,47.269002],[-122.40444,47.269002],[-122.404442,47.268822],[-122.404551,47.268807],[-122.404575,47.268733],[-122.404707,47.268733]]]}},{"type":"Feature","properties":{"id":32,"area_m2":300,"px":3,"rank":32},"geometry":{"type":"Polygon","coordinates":[[[-122.40603,47.26865],[-122.406029,47.26874],[-122.405899,47.268739],[-122.405874,47.268665],[-122.405766,47.268649],[-122.405768,47.268469],[-122.4059,47.26847],[-122.405908,47.268621],[-122.405954,47.268647],[-122.40603,47.26865]]]}}]}