{"type":"FeatureCollection","features":[{"type":"Feature","properties":{"id":5,"area_m2":3000,"px":30,"rank":1,"persistent":false},"geometry":{"type":"Polygon","coordinates":[[[-123.843726,46.962029],[-123.843727,46.962119],[-123.843499,46.96213],[-123.843465,46.962211],[-123.843348,46.962236],[-123.843335,46.962302],[-123.84281,46.962306],[-123.842796,46.96224],[-123.84273,46.962216],[-123.842463,46.962222],[-123.842421,46.962252],[-123.842414,46.962309],[-123.842153,46.96231],[-123.842116,46.96223],[-123.84196,46.962222],[-123.841898,46.962251],[-123.84189,46.962312],[-123.841759,46.962313],[-123.841756,46.962134],[-123.842349,46.962128],[-123.842403,46.9621],[-123.842411,46.962039],[-123.843263,46.962046],[-123.843322,46.962017],[-123.843332,46.961942],[-123.843461,46.961941],[-123.843468,46.961998],[-123.843519,46.962028],[-123.843726,46.962029]]]}},{"type":"Feature","properties":{"id":1,"area_m2":1100,"px":11,"rank":2,"persistent":false},"geometry":{"type":"Polygon","coordinates":[[[-123.848941,46.96766],[-123.848944,46.96784],[-123.848613,46.967843],[-123.848559,46.967871],[-123.848551,46.967933],[-123.84842,46.967934],[-123.848415,46.967664],[-123.848523,46.967647],[-123.848545,46.967573],[-123.848808,46.967571],[-123.848832,46.967645],[-123.848941,46.96766]]]}},{"type":"Feature","properties":{"id":6,"area_m2":600,"px":6,"rank":3,"persistent":false},"geometry":{"type":"Polygon","coordinates":[[[-123.840968,46.962229],[-123.84097,46.962319],[-123.840313,46.962324],[-123.840288,46.96225],[-123.84018,46.962235],[-123.840179,46.962145],[-123.84031,46.962144],[-123.84032,46.962205],[-123.840375,46.962233],[-123.840968,46.962229]]]}},{"type":"Feature","properties":{"id":2,"area_m2":500,"px":5,"rank":4,"persistent":false},"geometry":{"type":"Polygon","coordinates":[[[-123.85589,46.966528],[-123.855891,46.966618],[-123.85567,46.966626],[-123.855633,46.966658],[-123.85563,46.96671],[-123.855367,46.966712],[-123.855366,46.966622],[-123.855474,46.966605],[-123.855496,46.966531],[-123.85589,46.966528]]]}},{"type":"Feature","properties":{"id":4,"area_m2":400,"px":4,"rank":5,"persistent":false},"geometry":{"type":"Polygon","coordinates":[[[-123.843994,46.962387],[-123.843997,46.962567],[-123.843734,46.962569],[-123.843731,46.962389],[-123.843994,46.962387]]]}},{"type":"Feature","properties":{"id":3,"area_m2":300,"px":3,"rank":6,"persistent":false},"geometry":{"type":"Polygon","coordinates":[[[-123.841518,46.963755],[-123.841519,46.963845],[-123.841125,46.963848],[-123.841124,46.963758],[-123.841518,46.963755]]]}}]}