{"type":"FeatureCollection","features":[{"type":"Feature","properties":{"id":10,"area_m2":24100,"px":241,"rank":1,"persistent":false},"geometry":{"type":"Polygon","coordinates":[[[-123.841495,46.962315],[-123.841497,46.962405],[-123.841407,46.962412],[-123.841367,46.962455],[-123.841374,46.962728],[-123.84142,46.962762],[-123.841503,46.962765],[-123.84151,46.963214],[-123.841427,46.96322],[-123.841382,46.963254],[-123.841364,46.96361],[-123.841406,46.963659],[-123.841517,46.963665],[-123.841527,46.964295],[-123.841395,46.964296],[-123.841333,46.964272],[-123.841264,46.964297],[-123.840738,46.964301],[-123.840724,46.964235],[-123.840658,46.964211],[-123.840509,46.964222],[-123.840475,46.964303],[-123.840212,46.964305],[-123.840208,46.964253],[-123.840169,46.964221],[-123.839948,46.964216],[-123.839944,46.963947],[-123.839978,46.963904],[-123.839942,46.963855],[-123.839941,46.963767],[-123.839976,46.963724],[-123.83994,46.963677],[-123.839935,46.963407],[-123.840053,46.963382],[-123.840064,46.963226],[-123.840172,46.963209],[-123.840194,46.963135],[-123.840457,46.963133],[-123.840535,46.963156],[-123.840623,46.963089],[-123.84058,46.962985],[-123.84053,46.962955],[-123.839928,46.962957],[-123.839921,46.962508],[-123.839956,46.962464],[-123.83992,46.962417],[-123.839916,46.962147],[-123.840024,46.96213],[-123.840046,46.962056],[-123.840177,46.962055],[-123.840191,46.962121],[-123.84031,46.962144],[-123.840317,46.962201],[-123.840367,46.962231],[-123.841363,46.962226],[-123.841387,46.9623],[-123.841495,46.962315]],[[-123.84059,46.963262],[-123.840562,46.963221],[-123.840506,46.963209],[-123.840443,46.963232],[-123.840424,46.963271],[-123.84045,46.963308],[-123.840515,46.963326],[-123.840574,46.963306],[-123.84059,46.963262]]]}},{"type":"Feature","properties":{"id":14,"area_m2":23100,"px":231,"rank":2,"persistent":false},"geometry":{"type":"Polygon","coordinates":[[[-123.84438,46.961844],[-123.844391,46.962564],[-123.844309,46.962569],[-123.844264,46.962603],[-123.844264,46.962835],[-123.84387,46.962838],[-123.8438,46.962814],[-123.843656,46.962844],[-123.843609,46.962883],[-123.843608,46.96302],[-123.84269,46.963026],[-123.842675,46.962961],[-123.842609,46.962937],[-123.842461,46.962947],[-123.842427,46.963028],[-123.842296,46.963029],[-123.842291,46.962978],[-123.842252,46.962946],[-123.8419,46.962942],[-123.841875,46.962868],[-123.841767,46.962853],[-123.84176,46.962403],[-123.841849,46.962396],[-123.84189,46.962354],[-123.84188,46.961683],[-123.842101,46.961675],[-123.842139,46.961642],[-123.842142,46.961591],[-123.843193,46.961583],[-123.843215,46.961833],[-123.843328,46.961852],[-123.843343,46.961918],[-123.843461,46.961941],[-123.843466,46.961993],[-123.843504,46.962024],[-123.843726,46.962029],[-123.84378,46.962052],[-123.843996,46.962002],[-123.843986,46.961847],[-123.84438,46.961844]],[[-123.843861,46.962248],[-123.843791,46.962195],[-123.843611,46.962234],[-123.843617,46.962472],[-123.84348,46.962509],[-123.843452,46.962611],[-123.843487,46.962651],[-123.843659,46.962673],[-123.843723,46.962648],[-123.843717,46.962487],[-123.843822,46.962472],[-123.843862,46.962434],[-123.843861,46.962248]]]}},{"type":"Feature","properties":{"id":2,"area_m2":12800,"px":128,"rank":3,"persistent":false},"geometry":{"type":"Polygon","coordinates":[[[-123.850654,46.967917],[-123.850655,46.968007],[-123.850547,46.968024],[-123.850525,46.968098],[-123.850027,46.968101],[-123.850001,46.968137],[-123.850002,46.968282],[-123.849672,46.968285],[-123.849618,46.968313],[-123.849609,46.968375],[-123.849347,46.968377],[-123.849322,46.968303],[-123.849214,46.968288],[-123.849202,46.968136],[-123.849155,46.96811],[-123.84908,46.968109],[-123.849075,46.968057],[-123.849037,46.968025],[-123.84829,46.968024],[-123.848264,46.967861],[-123.848024,46.967846],[-123.848021,46.967667],[-123.848129,46.96765],[-123.848151,46.967576],[-123.84828,46.967575],[-123.848319,46.967655],[-123.848486,46.967676],[-123.848541,46.967643],[-123.848545,46.967573],[-123.848677,46.967572],[-123.848679,46.967703],[-123.848714,46.967742],[-123.849032,46.967743],[-123.84907,46.96771],[-123.849072,46.967659],[-123.849175,46.967646],[-123.849203,46.967568],[-123.849299,46.967558],[-123.849333,46.967513],[-123.84933,46.96743],[-123.849296,46.967396],[-123.849068,46.967389],[-123.849064,46.967119],[-123.849195,46.967118],[-123.849199,46.967254],[-123.849247,46.967293],[-123.849392,46.967321],[-123.849461,46.967296],[-123.849668,46.967292],[-123.849723,46.967245],[-123.849718,46.966934],[-123.84985,46.966933],[-123.849874,46.967007],[-123.849982,46.967022],[-123.849996,46.967263],[-123.850043,46.967289],[-123.850118,46.967291],[-123.850155,46.967372],[-123.850251,46.96738],[-123.850263,46.967531],[-123.85031,46.967557],[-123.850385,46.967559],[-123.850422,46.96764],[-123.850518,46.967648],[-123.850525,46.96788],[-123.850571,46.967914],[-123.850654,46.967917]]]}},{"type":"Feature","properties":{"id":6,"area_m2":4500,"px":45,"rank":4,"persistent":false},"geometry":{"type":"Polygon","coordinates":[[[-123.848922,46.96649],[-123.848924,46.96658],[-123.848571,46.966589],[-123.848532,46.966626],[-123.848532,46.966763],[-123.848401,46.966764],[-123.848389,46.966613],[-123.848342,46.966587],[-123.848267,46.966585],[-123.84823,46.966504],[-123.848134,46.966496],[-123.848104,46.966418],[-123.84787,46.966408],[-123.847863,46.966351],[-123.847812,46.966321],[-123.847605,46.96632],[-123.847598,46.966263],[-123.847555,46.966234],[-123.847341,46.966232],[-123.847317,46.966158],[-123.847208,46.966143],[-123.847172,46.966062],[-123.847075,46.966054],[-123.847074,46.965964],[-123.847182,46.965947],[-123.847206,46.965873],[-123.847467,46.965871],[-123.847477,46.965932],[-123.847532,46.965959],[-123.847862,46.965958],[-123.847877,46.966024],[-123.847995,46.966047],[-123.848025,46.966124],[-123.848259,46.966135],[-123.848266,46.966192],[-123.848317,46.966222],[-123.848524,46.966223],[-123.84855,46.966387],[-123.848789,46.966401],[-123.848814,46.966475],[-123.848922,46.96649]]]}},{"type":"Feature","properties":{"id":13,"area_m2":4300,"px":43,"rank":5,"persistent":false},"geometry":{"type":"Polygon","coordinates":[[[-123.847551,46.962901],[-123.847554,46.963081],[-123.847333,46.963089],[-123.847295,46.963121],[-123.847293,46.963172],[-123.845453,46.963186],[-123.845451,46.963096],[-123.845672,46.963088],[-123.84571,46.963056],[-123.845713,46.963004],[-123.846631,46.962997],[-123.846703,46.963021],[-123.846764,46.962997],[-123.846984,46.962994],[-123.847034,46.962969],[-123.847045,46.962933],[-123.846995,46.962827],[-123.846761,46.962816],[-123.846742,46.962746],[-123.846628,46.962727],[-123.846614,46.962662],[-123.846496,46.962638],[-123.846491,46.962587],[-123.846453,46.962555],[-123.846231,46.96255],[-123.846229,46.962371],[-123.846491,46.962369],[-123.84651,46.962439],[-123.846624,46.962458],[-123.84666,46.962538],[-123.846757,46.962547],[-123.846787,46.962624],[-123.847021,46.962635],[-123.84704,46.962705],[-123.847154,46.962724],[-123.847168,46.962789],[-123.847287,46.962813],[-123.847291,46.962864],[-123.84733,46.962896],[-123.847551,46.962901]]]}},{"type":"Feature","properties":{"id":5,"area_m2":3400,"px":34,"rank":6,"persistent":false},"geometry":{"type":"Polygon","coordinates":[[[-123.848268,46.966675],[-123.848268,46.966765],[-123.848007,46.966767],[-123.847996,46.966705],[-123.847942,46.966678],[-123.84766,46.966683],[-123.847617,46.966713],[-123.847612,46.96677],[-123.84753,46.966774],[-123.847487,46.966804],[-123.847484,46.966951],[-123.847352,46.966952],[-123.847339,46.96671],[-123.847285,46.966683],[-123.847085,46.966684],[-123.847073,46.966532],[-123.847026,46.966506],[-123.846951,46.966505],[-123.846915,46.966424],[-123.846818,46.966416],[-123.846817,46.966326],[-123.846925,46.966309],[-123.846947,46.966235],[-123.847209,46.966233],[-123.847214,46.966284],[-123.847252,46.966316],[-123.847474,46.966321],[-123.847504,46.966398],[-123.847738,46.966409],[-123.847745,46.966465],[-123.847788,46.966494],[-123.848002,46.966497],[-123.848027,46.966571],[-123.848135,46.966586],[-123.848172,46.966666],[-123.848268,46.966675]]]}},{"type":"Feature","properties":{"id":12,"area_m2":2700,"px":27,"rank":7,"persistent":false},"geometry":{"type":"Polygon","coordinates":[[[-123.849141,46.963699],[-123.849143,46.963789],[-123.848748,46.963792],[-123.848734,46.963726],[-123.848616,46.963703],[-123.848579,46.963622],[-123.848351,46.963615],[-123.848332,46.963545],[-123.848218,46.963526],[-123.848204,46.96346],[-123.848086,46.963437],[-123.848049,46.963356],[-123.847821,46.963349],[-123.847797,46.963275],[-123.847688,46.96326],[-123.847686,46.96308],[-123.847948,46.963078],[-123.847963,46.963144],[-123.848081,46.963167],[-123.848118,46.963247],[-123.848345,46.963255],[-123.848352,46.963311],[-123.848403,46.963342],[-123.84861,46.963343],[-123.848634,46.963417],[-123.848743,46.963432],[-123.848762,46.963502],[-123.848875,46.963521],[-123.848912,46.963601],[-123.849008,46.96361],[-123.849038,46.963687],[-123.849141,46.963699]]]}},{"type":"Feature","properties":{"id":7,"area_m2":1900,"px":19,"rank":8,"persistent":false},"geometry":{"type":"Polygon","coordinates":[[[-123.848374,46.965054],[-123.848377,46.965234],[-123.848301,46.965237],[-123.848255,46.965264],[-123.848248,46.965415],[-123.847723,46.965419],[-123.847741,46.965295],[-123.847718,46.965256],[-123.847457,46.965241],[-123.847454,46.965061],[-123.847848,46.965058],[-123.847863,46.965124],[-123.847928,46.965148],[-123.848077,46.965137],[-123.848111,46.965056],[-123.848374,46.965054]]]}},{"type":"Feature","properties":{"id":9,"area_m2":1200,"px":12,"rank":9,"persistent":false},"geometry":{"type":"Polygon","coordinates":[[[-123.846667,46.965157],[-123.846668,46.965247],[-123.846011,46.965252],[-123.846008,46.965072],[-123.846116,46.965055],[-123.846138,46.964981],[-123.846532,46.964978],[-123.846544,46.965129],[-123.846591,46.965155],[-123.846667,46.965157]]]}},{"type":"Feature","properties":{"id":11,"area_m2":1200,"px":12,"rank":10,"persistent":false},"geometry":{"type":"Polygon","coordinates":[[[-123.845191,46.963278],[-123.845192,46.963368],[-123.84509,46.963381],[-123.845062,46.963459],[-123.844966,46.963469],[-123.844932,46.96355],[-123.844815,46.963575],[-123.844804,46.963731],[-123.844702,46.963744],[-123.844674,46.963822],[-123.844578,46.963832],[-123.844544,46.963913],[-123.844426,46.963938],[-123.844415,46.964094],[-123.844284,46.964095],[-123.844281,46.963915],[-123.844356,46.963912],[-123.844403,46.963885],[-123.84441,46.963734],[-123.844512,46.963721],[-123.84454,46.963643],[-123.844642,46.96363],[-123.84467,46.963552],[-123.844766,46.963542],[-123.8448,46.963461],[-123.844913,46.96344],[-123.844928,46.96328],[-123.845191,46.963278]]]}},{"type":"Feature","properties":{"id":3,"area_m2":800,"px":8,"rank":11,"persistent":false},"geometry":{"type":"Polygon","coordinates":[[[-123.848274,46.967035],[-123.848277,46.967215],[-123.847882,46.967218],[-123.847867,46.967062],[-123.847808,46.967038],[-123.847617,46.96704],[-123.847615,46.96695],[-123.847878,46.966948],[-123.847888,46.967009],[-123.847943,46.967036],[-123.848274,46.967035]]]}},{"type":"Feature","properties":{"id":4,"area_m2":600,"px":6,"rank":12,"persistent":false},"geometry":{"type":"Polygon","coordinates":[[[-123.849455,46.966936],[-123.849458,46.967116],[-123.849327,46.967117],[-123.849301,46.966953],[-123.849061,46.966939],[-123.849058,46.966759],[-123.849321,46.966757],[-123.849333,46.966908],[-123.84938,46.966934],[-123.849455,46.966936]]]}},{"type":"Feature","properties":{"id":15,"area_m2":500,"px":5,"rank":13,"persistent":false},"geometry":{"type":"Polygon","coordinates":[[[-123.845964,46.962283],[-123.845965,46.962372],[-123.845834,46.962373],[-123.84581,46.962299],[-123.845701,46.962284],[-123.845687,46.962219],[-123.845569,46.962195],[-123.845538,46.962118],[-123.845436,46.962106],[-123.845434,46.962016],[-123.845566,46.962016],[-123.845572,46.962072],[-123.845623,46.962103],[-123.84583,46.962104],[-123.845842,46.962255],[-123.845889,46.962281],[-123.845964,46.962283]]]}},{"type":"Feature","properties":{"id":16,"area_m2":500,"px":5,"rank":14,"persistent":false},"geometry":{"type":"Polygon","coordinates":[[[-123.844907,46.96193],[-123.84491,46.96211],[-123.844779,46.962111],[-123.844774,46.962046],[-123.84473,46.962012],[-123.844514,46.962023],[-123.844511,46.961843],[-123.844774,46.961841],[-123.844798,46.961915],[-123.844907,46.96193]]]}},{"type":"Feature","properties":{"id":1,"area_m2":300,"px":3,"rank":15,"persistent":false},"geometry":{"type":"Polygon","coordinates":[[[-123.851595,46.96926],[-123.851597,46.96935],[-123.851334,46.969352],[-123.851331,46.969172],[-123.851463,46.969171],[-123.851487,46.969245],[-123.851595,46.96926]]]}},{"type":"Feature","properties":{"id":8,"area_m2":300,"px":3,"rank":16,"persistent":false},"geometry":{"type":"Polygon","coordinates":[[[-123.849034,46.965229],[-123.849035,46.965319],[-123.848773,46.965321],[-123.84877,46.965141],[-123.848901,46.96514],[-123.848925,46.965214],[-123.849034,46.965229]]]}}]}