{"type":"FeatureCollection","features":[{"type":"Feature","properties":{"id":1,"area_m2":11900,"px":119,"rank":1,"persistent":false},"geometry":{"type":"Polygon","coordinates":[[[-123.850524,46.968008],[-123.850525,46.968098],[-123.850053,46.96809],[-123.850006,46.968122],[-123.850001,46.968192],[-123.849883,46.968217],[-123.849871,46.968283],[-123.849608,46.968285],[-123.849584,46.968211],[-123.849475,46.968196],[-123.84946,46.96804],[-123.849341,46.968017],[-123.849334,46.96796],[-123.849284,46.96793],[-123.848987,46.967936],[-123.848949,46.967968],[-123.848947,46.96802],[-123.848829,46.968045],[-123.848817,46.968111],[-123.848422,46.968113],[-123.848418,46.968062],[-123.848379,46.96803],[-123.848158,46.968025],[-123.848134,46.967952],[-123.848025,46.967936],[-123.848021,46.967667],[-123.848129,46.96765],[-123.848153,46.967576],[-123.848677,46.967572],[-123.848687,46.967633],[-123.848749,46.967661],[-123.849001,46.967659],[-123.849059,46.967635],[-123.849085,46.967513],[-123.849034,46.967482],[-123.848938,46.96748],[-123.848915,46.967393],[-123.84886,46.967377],[-123.848674,46.967392],[-123.848672,46.967302],[-123.848769,46.967292],[-123.848803,46.967247],[-123.848788,46.967145],[-123.84867,46.967122],[-123.848667,46.966942],[-123.848798,46.966941],[-123.848805,46.967011],[-123.848861,46.967043],[-123.849194,46.967028],[-123.849218,46.967102],[-123.849327,46.967117],[-123.84931,46.967252],[-123.84938,46.967296],[-123.849689,46.967285],[-123.849723,46.967204],[-123.849805,46.967199],[-123.849847,46.96717],[-123.849851,46.967023],[-123.849982,46.967022],[-123.849988,46.967333],[-123.85003,46.967375],[-123.85012,46.967381],[-123.850131,46.967708],[-123.850174,46.967736],[-123.850257,46.96774],[-123.850277,46.9679],[-123.850391,46.967919],[-123.850427,46.968],[-123.850524,46.968008]]]}},{"type":"Feature","properties":{"id":10,"area_m2":8700,"px":87,"rank":2,"persistent":false},"geometry":{"type":"Polygon","coordinates":[[[-123.844261,46.962655],[-123.844265,46.962925],[-123.844003,46.962927],[-123.843998,46.962875],[-123.84396,46.962844],[-123.843738,46.962839],[-123.843735,46.962702],[-123.84368,46.962662],[-123.842998,46.962665],[-123.842929,46.96271],[-123.842967,46.962825],[-123.843021,46.962844],[-123.843213,46.962843],[-123.843214,46.962933],[-123.843106,46.962949],[-123.843084,46.963024],[-123.841901,46.963032],[-123.841877,46.962958],[-123.841768,46.962943],[-123.84176,46.962403],[-123.841868,46.962387],[-123.841892,46.962312],[-123.842153,46.962311],[-123.842163,46.962372],[-123.842225,46.9624],[-123.8436,46.96239],[-123.843624,46.962464],[-123.843733,46.962479],[-123.843737,46.962544],[-123.843774,46.962575],[-123.843997,46.962567],[-123.844001,46.962619],[-123.84404,46.96265],[-123.844261,46.962655]],[[-123.842441,46.962713],[-123.842414,46.962612],[-123.842364,46.962581],[-123.842213,46.962582],[-123.842161,46.962619],[-123.842163,46.962722],[-123.842216,46.962758],[-123.842408,46.962749],[-123.842441,46.962713]]]}},{"type":"Feature","properties":{"id":2,"area_m2":5000,"px":50,"rank":3,"persistent":false},"geometry":{"type":"Polygon","coordinates":[[[-123.848791,46.966491],[-123.848792,46.966581],[-123.84858,46.966583],[-123.848522,46.966608],[-123.848532,46.966763],[-123.848443,46.96677],[-123.848403,46.966807],[-123.848405,46.967034],[-123.848297,46.96705],[-123.848275,46.967125],[-123.848179,46.967135],[-123.848145,46.967216],[-123.848032,46.967236],[-123.848015,46.967307],[-123.847884,46.967308],[-123.847859,46.967234],[-123.847751,46.967219],[-123.847745,46.967077],[-123.847699,46.967043],[-123.847617,46.96704],[-123.847591,46.966876],[-123.847351,46.966862],[-123.847327,46.966788],[-123.847218,46.966773],[-123.847217,46.966683],[-123.84756,46.96668],[-123.847609,46.966663],[-123.84763,46.966624],[-123.847608,46.9665],[-123.847716,46.966483],[-123.847738,46.966409],[-123.848264,46.966405],[-123.848274,46.966466],[-123.848329,46.966493],[-123.848791,46.966491]],[[-123.848064,46.966957],[-123.848259,46.966921],[-123.848267,46.966803],[-123.848214,46.966768],[-123.848063,46.966769],[-123.848009,46.96681],[-123.848012,46.966922],[-123.848064,46.966957]]]}},{"type":"Feature","properties":{"id":12,"area_m2":2600,"px":26,"rank":4,"persistent":false},"geometry":{"type":"Polygon","coordinates":[[[-123.843193,46.961583],[-123.843197,46.961853],[-123.842472,46.961859],[-123.842411,46.961902],[-123.842411,46.962039],[-123.841886,46.962042],[-123.841883,46.961863],[-123.842337,46.961859],[-123.84239,46.961839],[-123.842404,46.961589],[-123.843193,46.961583]]]}},{"type":"Feature","properties":{"id":11,"area_m2":2100,"px":21,"rank":5,"persistent":false},"geometry":{"type":"Polygon","coordinates":[[[-123.843987,46.961937],[-123.843993,46.962297],[-123.84373,46.962299],[-123.84372,46.962238],[-123.843657,46.96221],[-123.842809,46.962216],[-123.842806,46.962036],[-123.843144,46.962031],[-123.843193,46.962],[-123.843199,46.961943],[-123.84333,46.961942],[-123.843337,46.961999],[-123.843387,46.962029],[-123.843781,46.962042],[-123.843848,46.962013],[-123.843856,46.961938],[-123.843987,46.961937]]]}},{"type":"Feature","properties":{"id":6,"area_m2":700,"px":7,"rank":6,"persistent":false},"geometry":{"type":"Polygon","coordinates":[[[-123.849304,46.965677],[-123.849307,46.965857],[-123.848913,46.96586],[-123.84891,46.96568],[-123.849018,46.965664],[-123.84904,46.965589],[-123.849171,46.965588],[-123.849195,46.965662],[-123.849304,46.965677]]]}},{"type":"Feature","properties":{"id":7,"area_m2":600,"px":6,"rank":7,"persistent":false},"geometry":{"type":"Polygon","coordinates":[[[-123.849035,46.965319],[-123.849037,46.965409],[-123.848929,46.965426],[-123.848907,46.9655],[-123.848789,46.965525],[-123.848777,46.965591],[-123.848514,46.965593],[-123.848513,46.965503],[-123.848712,46.965501],[-123.848769,46.965468],[-123.848808,46.965369],[-123.848773,46.965321],[-123.84877,46.965141],[-123.848901,46.96514],[-123.848913,46.965292],[-123.84896,46.965318],[-123.849035,46.965319]]]}},{"type":"Feature","properties":{"id":8,"area_m2":600,"px":6,"rank":8,"persistent":false},"geometry":{"type":"Polygon","coordinates":[[[-123.846928,46.965065],[-123.846932,46.965335],[-123.84667,46.965337],[-123.846645,46.965263],[-123.846537,46.965248],[-123.846535,46.965158],[-123.846742,46.965154],[-123.846792,46.965123],[-123.846797,46.965066],[-123.846928,46.965065]]]}},{"type":"Feature","properties":{"id":5,"area_m2":500,"px":5,"rank":9,"persistent":false},"geometry":{"type":"Polygon","coordinates":[[[-123.847602,46.96614],[-123.847604,46.96623],[-123.847474,46.966231],[-123.847468,46.966179],[-123.847429,46.966148],[-123.847208,46.966143],[-123.847205,46.965963],[-123.847468,46.965961],[-123.84748,46.966112],[-123.847527,46.966138],[-123.847602,46.96614]]]}},{"type":"Feature","properties":{"id":3,"area_m2":400,"px":4,"rank":10,"persistent":false},"geometry":{"type":"Polygon","coordinates":[[[-123.847475,46.966411],[-123.847477,46.966501],[-123.847345,46.966502],[-123.847331,46.966436],[-123.847212,46.966413],[-123.847176,46.966332],[-123.846948,46.966325],[-123.846947,46.966235],[-123.847209,46.966233],[-123.847234,46.966307],[-123.847342,46.966322],[-123.847379,46.966402],[-123.847475,46.966411]]]}},{"type":"Feature","properties":{"id":9,"area_m2":400,"px":4,"rank":11,"persistent":false},"geometry":{"type":"Polygon","coordinates":[[[-123.846138,46.964981],[-123.846139,46.965071],[-123.846057,46.965076],[-123.846012,46.96511],[-123.846011,46.965252],[-123.84588,46.965253],[-123.845875,46.964983],[-123.846138,46.964981]]]}},{"type":"Feature","properties":{"id":4,"area_m2":300,"px":3,"rank":12,"persistent":false},"geometry":{"type":"Polygon","coordinates":[[[-123.848129,46.966226],[-123.848131,46.966316],[-123.847868,46.966318],[-123.847844,46.966244],[-123.847735,46.966229],[-123.847734,46.966139],[-123.847865,46.966138],[-123.847872,46.966195],[-123.847923,46.966225],[-123.848129,46.966226]]]}}]}