{"type":"FeatureCollection","features":[{"type":"Feature","properties":{"id":5,"area_m2":15300,"px":153,"rank":1,"persistent":false},"geometry":{"type":"Polygon","coordinates":[[[-123.843596,46.96212],[-123.843601,46.96248],[-123.84242,46.962489],[-123.842348,46.962465],[-123.842197,46.962497],[-123.842158,46.962534],[-123.842167,46.962642],[-123.842214,46.962668],[-123.84229,46.96267],[-123.842297,46.962726],[-123.84234,46.962755],[-123.842685,46.962757],[-123.842748,46.96278],[-123.842817,46.962756],[-123.84308,46.962754],[-123.843084,46.962805],[-123.843123,46.962837],[-123.843344,46.962842],[-123.843347,46.963022],[-123.84177,46.963033],[-123.841756,46.962134],[-123.841845,46.962126],[-123.841885,46.962089],[-123.841879,46.961593],[-123.843193,46.961583],[-123.843198,46.961943],[-123.843164,46.961991],[-123.84321,46.962094],[-123.843272,46.962122],[-123.843596,46.96212]]]}},{"type":"Feature","properties":{"id":1,"area_m2":5100,"px":51,"rank":2,"persistent":false},"geometry":{"type":"Polygon","coordinates":[[[-123.849998,46.968012],[-123.850001,46.968192],[-123.849475,46.968196],[-123.849467,46.968049],[-123.849424,46.96802],[-123.849341,46.968017],[-123.849334,46.96796],[-123.849291,46.967931],[-123.849146,46.967904],[-123.848994,46.967933],[-123.848952,46.967963],[-123.848947,46.96802],[-123.84829,46.968024],[-123.848265,46.967951],[-123.848157,46.967935],[-123.84812,46.967855],[-123.848024,46.967846],[-123.848022,46.967757],[-123.848098,46.967754],[-123.848144,46.967727],[-123.848151,46.967576],[-123.848414,46.967574],[-123.848418,46.967625],[-123.848457,46.967657],[-123.848678,46.967662],[-123.848682,46.967713],[-123.848721,46.967745],[-123.848942,46.96775],[-123.849005,46.967773],[-123.849176,46.967736],[-123.849204,46.967658],[-123.849411,46.967654],[-123.84946,46.967623],[-123.849465,46.967566],[-123.849597,46.967565],[-123.849621,46.967639],[-123.84973,46.967654],[-123.849747,46.9679],[-123.849865,46.967923],[-123.849902,46.968003],[-123.849998,46.968012]]]}},{"type":"Feature","properties":{"id":7,"area_m2":2400,"px":24,"rank":3,"persistent":false},"geometry":{"type":"Polygon","coordinates":[[[-123.844383,46.962024],[-123.84439,46.962474],[-123.844127,46.962476],[-123.844091,46.962395],[-123.843863,46.962388],[-123.843838,46.962314],[-123.84373,46.962299],[-123.843727,46.962119],[-123.843802,46.962116],[-123.843849,46.96209],[-123.843856,46.961938],[-123.844062,46.961934],[-123.844112,46.961903],[-123.844117,46.961846],[-123.844248,46.961845],[-123.84426,46.961997],[-123.844307,46.962022],[-123.844383,46.962024]]]}},{"type":"Feature","properties":{"id":6,"area_m2":1600,"px":16,"rank":4,"persistent":false},"geometry":{"type":"Polygon","coordinates":[[[-123.84124,46.962767],[-123.841243,46.962947],[-123.840191,46.962955],[-123.840188,46.962775],[-123.84124,46.962767]]]}},{"type":"Feature","properties":{"id":4,"area_m2":600,"px":6,"rank":5,"persistent":false},"geometry":{"type":"Polygon","coordinates":[[[-123.848267,46.966585],[-123.848268,46.966675],[-123.848137,46.966676],[-123.848126,46.966614],[-123.848072,46.966587],[-123.84761,46.96659],[-123.847608,46.9665],[-123.847815,46.966496],[-123.847864,46.966465],[-123.84787,46.966408],[-123.848001,46.966407],[-123.848025,46.966481],[-123.848134,46.966496],[-123.84817,46.966577],[-123.848267,46.966585]]]}},{"type":"Feature","properties":{"id":2,"area_m2":300,"px":3,"rank":6,"persistent":false},"geometry":{"type":"Polygon","coordinates":[[[-123.848272,46.966945],[-123.848274,46.967035],[-123.848166,46.967051],[-123.848144,46.967126],[-123.848026,46.967151],[-123.848014,46.967217],[-123.847882,46.967218],[-123.847881,46.967128],[-123.847989,46.967111],[-123.848011,46.967037],[-123.848129,46.967012],[-123.848141,46.966946],[-123.848272,46.966945]]]}},{"type":"Feature","properties":{"id":3,"area_m2":300,"px":3,"rank":7,"persistent":false},"geometry":{"type":"Polygon","coordinates":[[[-123.847875,46.966768],[-123.847877,46.966858],[-123.847614,46.96686],[-123.847589,46.966786],[-123.847481,46.966771],[-123.84748,46.966681],[-123.847611,46.96668],[-123.847618,46.966736],[-123.847668,46.966767],[-123.847875,46.966768]]]}},{"type":"Feature","properties":{"id":8,"area_m2":300,"px":3,"rank":8,"persistent":false},"geometry":{"type":"Polygon","coordinates":[[[-123.845168,46.961838],[-123.84517,46.961928],[-123.845062,46.961945],[-123.84504,46.962019],[-123.844909,46.96202],[-123.844906,46.96184],[-123.845168,46.961838]]]}}]}