{"type":"FeatureCollection","features":[{"type":"Feature","properties":{"id":1,"area_m2":1900,"px":19,"rank":1,"persistent":false},"geometry":{"type":"Polygon","coordinates":[[[-123.859874,46.969018],[-123.859876,46.969198],[-123.859745,46.969199],[-123.859738,46.969142],[-123.859688,46.969112],[-123.859481,46.969111],[-123.859466,46.969045],[-123.8594,46.969022],[-123.859099,46.969033],[-123.859066,46.969074],[-123.859088,46.969204],[-123.858867,46.969212],[-123.858829,46.969244],[-123.858826,46.969296],[-123.858695,46.969297],[-123.858671,46.969223],[-123.858562,46.969208],[-123.858558,46.968938],[-123.859478,46.968931],[-123.859485,46.968988],[-123.859535,46.969018],[-123.859874,46.969018]]]}},{"type":"Feature","properties":{"id":2,"area_m2":1600,"px":16,"rank":2,"persistent":false},"geometry":{"type":"Polygon","coordinates":[[[-123.849074,46.967749],[-123.849078,46.968019],[-123.848747,46.968022],[-123.848694,46.96805],[-123.848685,46.968112],[-123.848422,46.968113],[-123.848418,46.967844],[-123.848514,46.96784],[-123.848561,46.967813],[-123.848547,46.967663],[-123.848678,46.967662],[-123.848688,46.967723],[-123.848743,46.96775],[-123.849074,46.967749]]]}},{"type":"Feature","properties":{"id":4,"area_m2":1400,"px":14,"rank":3,"persistent":false},"geometry":{"type":"Polygon","coordinates":[[[-123.84334,46.962572],[-123.843343,46.962752],[-123.843235,46.962768],[-123.843213,46.962843],[-123.842818,46.962846],[-123.842756,46.962822],[-123.842687,46.962846],[-123.842424,46.962848],[-123.84242,46.962797],[-123.842381,46.962765],[-123.84216,46.96276],[-123.842158,46.962671],[-123.842553,46.962668],[-123.842615,46.962691],[-123.842684,46.962667],[-123.843139,46.962663],[-123.8432,46.962634],[-123.843208,46.962573],[-123.84334,46.962572]]]}},{"type":"Feature","properties":{"id":3,"area_m2":700,"px":7,"rank":4,"persistent":false},"geometry":{"type":"Polygon","coordinates":[[[-123.848009,46.966947],[-123.848012,46.967127],[-123.847904,46.967143],[-123.847882,46.967218],[-123.847751,46.967219],[-123.847727,46.967145],[-123.847618,46.96713],[-123.847615,46.96695],[-123.848009,46.966947]]]}},{"type":"Feature","properties":{"id":5,"area_m2":300,"px":3,"rank":5,"persistent":false},"geometry":{"type":"Polygon","coordinates":[[[-123.841764,46.962673],[-123.841765,46.962763],[-123.841371,46.962766],[-123.84137,46.962676],[-123.841764,46.962673]]]}},{"type":"Feature","properties":{"id":6,"area_m2":300,"px":3,"rank":6,"persistent":false},"geometry":{"type":"Polygon","coordinates":[[[-123.843858,46.962118],[-123.843863,46.962388],[-123.843731,46.962389],[-123.843727,46.962119],[-123.843858,46.962118]]]}}]}