{"type":"FeatureCollection","features":[{"type":"Feature","properties":{"id":7,"area_m2":13500,"px":135,"rank":1,"persistent":false},"geometry":{"type":"Polygon","coordinates":[[[-123.849185,46.966488],[-123.849187,46.966578],[-123.849079,46.966595],[-123.849057,46.966669],[-123.848939,46.966694],[-123.848927,46.96676],[-123.84845,46.966768],[-123.848407,46.966797],[-123.848402,46.966854],[-123.848285,46.966879],[-123.848272,46.966945],[-123.848159,46.966965],[-123.848153,46.967097],[-123.8482,46.967123],[-123.848275,46.967125],[-123.848279,46.967393],[-123.848148,46.967396],[-123.848144,46.967331],[-123.8481,46.967297],[-123.847884,46.967308],[-123.847881,46.967176],[-123.847846,46.967137],[-123.847487,46.967131],[-123.847474,46.966714],[-123.847431,46.966685],[-123.847348,46.966682],[-123.847312,46.966601],[-123.847215,46.966593],[-123.847179,46.966512],[-123.846951,46.966505],[-123.846947,46.966235],[-123.847198,46.966222],[-123.847224,46.966299],[-123.847342,46.966322],[-123.847379,46.966402],[-123.847548,46.96641],[-123.847604,46.966393],[-123.847626,46.966354],[-123.847586,46.96625],[-123.847472,46.966231],[-123.847465,46.966174],[-123.847422,46.966145],[-123.847219,46.966154],[-123.847184,46.966069],[-123.847075,46.966054],[-123.847074,46.965965],[-123.847149,46.965961],[-123.847195,46.965934],[-123.847202,46.965783],[-123.847597,46.96578],[-123.847633,46.965861],[-123.847861,46.965868],[-123.847868,46.965925],[-123.847918,46.965955],[-123.848125,46.965956],[-123.848144,46.966026],[-123.848258,46.966045],[-123.848294,46.966126],[-123.848391,46.966134],[-123.848421,46.966212],[-123.848655,46.966222],[-123.848662,46.966279],[-123.848713,46.966309],[-123.84892,46.96631],[-123.848944,46.966384],[-123.849052,46.966399],[-123.849089,46.96648],[-123.849185,46.966488]]]}},{"type":"Feature","properties":{"id":6,"area_m2":13100,"px":131,"rank":2,"persistent":false},"geometry":{"type":"Polygon","coordinates":[[[-123.850654,46.967917],[-123.850655,46.968007],[-123.850547,46.968024],[-123.850525,46.968098],[-123.850408,46.968123],[-123.850395,46.968189],[-123.850055,46.96818],[-123.850007,46.968212],[-123.850002,46.968282],[-123.849871,46.968283],[-123.849869,46.968152],[-123.849833,46.968112],[-123.849626,46.968111],[-123.849586,46.968155],[-123.849609,46.968375],[-123.849478,46.968376],[-123.849474,46.968324],[-123.849435,46.968292],[-123.849214,46.968288],[-123.849205,46.968141],[-123.849162,46.968112],[-123.84908,46.968109],[-123.849073,46.968052],[-123.849029,46.968023],[-123.848857,46.968027],[-123.848819,46.968059],[-123.848817,46.968111],[-123.848422,46.968113],[-123.848408,46.968048],[-123.84829,46.968024],[-123.848253,46.967944],[-123.848025,46.967936],[-123.84802,46.967577],[-123.848128,46.96756],[-123.84815,46.967486],[-123.848281,46.967485],[-123.848311,46.967562],[-123.848545,46.967573],[-123.848552,46.967629],[-123.848595,46.967658],[-123.849001,46.967659],[-123.849063,46.96763],[-123.849071,46.967569],[-123.849184,46.967548],[-123.849201,46.967478],[-123.849554,46.967469],[-123.849594,46.967426],[-123.849591,46.967205],[-123.849681,46.967198],[-123.84972,46.967161],[-123.849718,46.966934],[-123.84985,46.966933],[-123.849874,46.967007],[-123.849982,46.967022],[-123.849998,46.967178],[-123.850117,46.967201],[-123.850133,46.967357],[-123.850251,46.96738],[-123.850267,46.967536],[-123.850385,46.967559],[-123.850422,46.96764],[-123.850518,46.967648],[-123.850531,46.967889],[-123.850578,46.967915],[-123.850654,46.967917]]]}},{"type":"Feature","properties":{"id":3,"area_m2":500,"px":5,"rank":3,"persistent":false},"geometry":{"type":"Polygon","coordinates":[[[-123.859219,46.969203],[-123.859221,46.969293],[-123.859113,46.969309],[-123.859091,46.969384],[-123.858959,46.969385],[-123.858952,46.969328],[-123.858902,46.969298],[-123.858695,46.969297],[-123.858694,46.969207],[-123.859219,46.969203]]]}},{"type":"Feature","properties":{"id":5,"area_m2":400,"px":4,"rank":4,"persistent":false},"geometry":{"type":"Polygon","coordinates":[[[-123.859348,46.969022],[-123.859349,46.969112],[-123.859086,46.969114],[-123.859062,46.96904],[-123.858954,46.969025],[-123.858952,46.968935],[-123.859215,46.968933],[-123.859239,46.969007],[-123.859348,46.969022]]]}},{"type":"Feature","properties":{"id":8,"area_m2":400,"px":4,"rank":5,"persistent":false},"geometry":{"type":"Polygon","coordinates":[[[-123.849457,46.967026],[-123.849461,46.967296],[-123.84933,46.967297],[-123.849324,46.967155],[-123.849278,46.967121],[-123.849195,46.967118],[-123.849194,46.967028],[-123.849457,46.967026]]]}},{"type":"Feature","properties":{"id":1,"area_m2":300,"px":3,"rank":6,"persistent":false},"geometry":{"type":"Polygon","coordinates":[[[-123.857515,46.969486],[-123.857516,46.969576],[-123.857253,46.969578],[-123.857229,46.969504],[-123.857121,46.969489],[-123.857119,46.969399],[-123.85725,46.969398],[-123.857257,46.969454],[-123.857308,46.969485],[-123.857515,46.969486]]]}},{"type":"Feature","properties":{"id":4,"area_m2":300,"px":3,"rank":7,"persistent":false},"geometry":{"type":"Polygon","coordinates":[[[-123.858563,46.969298],[-123.858565,46.969388],[-123.858171,46.969391],[-123.858169,46.969301],[-123.858563,46.969298]]]}},{"type":"Feature","properties":{"id":2,"area_m2":300,"px":3,"rank":8,"persistent":false},"geometry":{"type":"Polygon","coordinates":[[[-123.859614,46.9692],[-123.859616,46.96938],[-123.859485,46.969381],[-123.859461,46.969307],[-123.859352,46.969292],[-123.859351,46.969202],[-123.859614,46.9692]]]}}]}