{"type":"FeatureCollection","features":[{"type":"Feature","properties":{"id":3,"area_m2":2900,"px":29,"rank":1,"persistent":false},"geometry":{"type":"Polygon","coordinates":[[[-123.850652,46.967827],[-123.850654,46.967917],[-123.850546,46.967934],[-123.850524,46.968008],[-123.850261,46.96801],[-123.850245,46.967854],[-123.850127,46.967831],[-123.85009,46.96775],[-123.849994,46.967742],[-123.849982,46.967591],[-123.849935,46.967565],[-123.84986,46.967563],[-123.849839,46.967403],[-123.849725,46.967384],[-123.849724,46.967294],[-123.849814,46.967287],[-123.849853,46.96725],[-123.849851,46.967023],[-123.849982,46.967022],[-123.849988,46.967164],[-123.850034,46.967198],[-123.850117,46.967201],[-123.850129,46.967352],[-123.850176,46.967378],[-123.850251,46.96738],[-123.850287,46.967461],[-123.850384,46.967469],[-123.850396,46.96762],[-123.850443,46.967646],[-123.850518,46.967648],[-123.850539,46.967808],[-123.850652,46.967827]]]}},{"type":"Feature","properties":{"id":7,"area_m2":2900,"px":29,"rank":2,"persistent":false},"geometry":{"type":"Polygon","coordinates":[[[-123.848918,46.96622],[-123.848921,46.9664],[-123.848527,46.966403],[-123.848522,46.966351],[-123.848484,46.96632],[-123.848263,46.966315],[-123.848248,46.966249],[-123.84813,46.966226],[-123.848125,46.966174],[-123.848087,46.966143],[-123.847865,46.966138],[-123.847858,46.966081],[-123.847808,46.966051],[-123.847601,46.96605],[-123.847577,46.965976],[-123.847468,46.965961],[-123.847432,46.96588],[-123.847335,46.965872],[-123.847334,46.965782],[-123.847442,46.965765],[-123.847464,46.965691],[-123.847595,46.96569],[-123.847599,46.965742],[-123.847638,46.965773],[-123.847859,46.965778],[-123.847874,46.965844],[-123.847992,46.965867],[-123.848029,46.965948],[-123.848257,46.965955],[-123.848261,46.96602],[-123.848298,46.966052],[-123.848521,46.966043],[-123.848523,46.966174],[-123.848559,46.966214],[-123.848918,46.96622]]]}},{"type":"Feature","properties":{"id":2,"area_m2":2800,"px":28,"rank":3,"persistent":false},"geometry":{"type":"Polygon","coordinates":[[[-123.85013,46.968011],[-123.850131,46.968101],[-123.84991,46.968109],[-123.849872,46.968141],[-123.84987,46.968193],[-123.849607,46.968195],[-123.849582,46.968121],[-123.849474,46.968106],[-123.84946,46.96804],[-123.849341,46.968017],[-123.849311,46.967939],[-123.849208,46.967928],[-123.849207,46.967838],[-123.849324,46.967813],[-123.849335,46.967657],[-123.849443,46.96764],[-123.849465,46.967566],[-123.849728,46.967564],[-123.849752,46.967638],[-123.849861,46.967653],[-123.849877,46.967809],[-123.849995,46.967832],[-123.850011,46.967988],[-123.85013,46.968011]]]}},{"type":"Feature","properties":{"id":5,"area_m2":1600,"px":16,"rank":4,"persistent":false},"geometry":{"type":"Polygon","coordinates":[[[-123.848271,46.966855],[-123.848275,46.967125],[-123.848167,46.967141],[-123.848145,46.967216],[-123.847882,46.967218],[-123.847858,46.967144],[-123.84775,46.967129],[-123.847713,46.967048],[-123.847617,46.96704],[-123.847615,46.96695],[-123.847723,46.966933],[-123.847745,46.966859],[-123.847863,46.966834],[-123.847875,46.966768],[-123.848007,46.966767],[-123.848014,46.966823],[-123.848064,46.966854],[-123.848271,46.966855]]]}},{"type":"Feature","properties":{"id":4,"area_m2":800,"px":8,"rank":5,"persistent":false},"geometry":{"type":"Polygon","coordinates":[[[-123.849074,46.967749],[-123.849075,46.967839],[-123.848967,46.967855],[-123.848945,46.96793],[-123.848551,46.967933],[-123.84855,46.967843],[-123.848632,46.967838],[-123.848677,46.967803],[-123.848678,46.967662],[-123.848941,46.96766],[-123.848965,46.967734],[-123.849074,46.967749]]]}},{"type":"Feature","properties":{"id":1,"area_m2":300,"px":3,"rank":6,"persistent":false},"geometry":{"type":"Polygon","coordinates":[[[-123.858953,46.969025],[-123.858955,46.969115],[-123.858847,46.969132],[-123.858825,46.969206],[-123.858694,46.969207],[-123.858692,46.969117],[-123.858727,46.969074],[-123.858691,46.969027],[-123.858689,46.968937],[-123.858821,46.968936],[-123.858845,46.96901],[-123.858953,46.969025]]]}},{"type":"Feature","properties":{"id":6,"area_m2":300,"px":3,"rank":7,"persistent":false},"geometry":{"type":"Polygon","coordinates":[[[-123.849322,46.966847],[-123.849324,46.966937],[-123.849216,46.966954],[-123.849194,46.967028],[-123.849076,46.967053],[-123.849064,46.967119],[-123.848933,46.96712],[-123.848931,46.96703],[-123.849039,46.967013],[-123.849061,46.966939],[-123.849179,46.966914],[-123.849191,46.966848],[-123.849322,46.966847]]]}}]}